{"type":"FeatureCollection","fonte":"Confini comunali ISTAT via openpolis/geojson-italy — CC BY 4.0","features":[{"type":"Feature","properties":{"i":"084001","n":"Agrigento"},"geometry":{"type":"Polygon","coordinates":[[[13.5561,37.3632],[13.5551,37.358],[13.5575,37.3554],[13.5581,37.3444],[13.559,37.3422],[13.5625,37.3401],[13.5701,37.3423],[13.5693,37.3457],[13.5704,37.3486],[13.5744,37.3505],[13.5953,37.3543],[13.6029,37.3615],[13.604,37.3636],[13.6116,37.3689],[13.614,37.3692],[13.6177,37.3679],[13.6188,37.3659],[13.6184,37.3619],[13.6149,37.36],[13.6147,37.356],[13.6157,37.354],[13.6302,37.3591],[13.6309,37.358],[13.6143,37.352],[13.6131,37.3473],[13.6179,37.344],[13.6183,37.3421],[13.6231,37.337],[13.6291,37.3376],[13.6285,37.3381],[13.6468,37.3449],[13.6541,37.3432],[13.6586,37.3341],[13.6527,37.325],[13.6448,37.3228],[13.6405,37.3225],[13.6364,37.32],[13.6378,37.3153],[13.6278,37.3051],[13.6298,37.3025],[13.633,37.3005],[13.6389,37.2996],[13.6417,37.297],[13.6436,37.2914],[13.6419,37.2844],[13.6401,37.2812],[13.64,37.2764],[13.6422,37.2719],[13.6473,37.2696],[13.6612,37.2675],[13.6687,37.2612],[13.6663,37.255],[13.665,37.2538],[13.6601,37.2513],[13.6432,37.2473],[13.6421,37.2434],[13.6464,37.2406],[13.6551,37.2392],[13.6606,37.2419],[13.6711,37.242],[13.676,37.2411],[13.6892,37.2439],[13.6913,37.2459],[13.684,37.2542],[13.6832,37.2597],[13.6839,37.2619],[13.6871,37.2606],[13.6947,37.2605],[13.7084,37.2687],[13.7109,37.2713],[13.7143,37.2718],[13.7152,37.2634],[13.7172,37.2551],[13.7315,37.2541],[13.7383,37.2516],[13.7453,37.2478],[13.7487,37.2426],[13.7489,37.2409],[13.7472,37.2391],[13.7414,37.2381],[13.7359,37.2358],[13.7361,37.2339],[13.7372,37.2332],[13.7378,37.2314],[13.7381,37.2226],[13.7335,37.2102],[13.7343,37.2069],[13.7393,37.2007],[13.733,37.1999],[13.713,37.2005],[13.703,37.2045],[13.6972,37.2078],[13.6919,37.2121],[13.6842,37.2155],[13.6824,37.2137],[13.6821,37.2106],[13.6694,37.2049],[13.6655,37.2],[13.6634,37.1934],[13.6616,37.194],[13.6607,37.2018],[13.6559,37.2116],[13.6487,37.2206],[13.6389,37.2298],[13.6281,37.2352],[13.6251,37.2356],[13.6223,37.2344],[13.5956,37.2572],[13.5886,37.2601],[13.5768,37.2609],[13.5764,37.2682],[13.5674,37.2772],[13.5578,37.2842],[13.5507,37.287],[13.5512,37.2901],[13.5466,37.2965],[13.5436,37.3074],[13.5365,37.3092],[13.5213,37.3083],[13.5197,37.3096],[13.5187,37.3132],[13.5208,37.3156],[13.5304,37.3157],[13.5323,37.3176],[13.5348,37.3209],[13.5313,37.3237],[13.5227,37.3272],[13.5151,37.3277],[13.4933,37.334],[13.4851,37.3388],[13.4679,37.3375],[13.4612,37.3284],[13.445,37.3387],[13.4411,37.3422],[13.4328,37.3451],[13.4319,37.3492],[13.4347,37.3497],[13.4332,37.3593],[13.43,37.369],[13.4308,37.3717],[13.4334,37.3698],[13.4381,37.37],[13.439,37.3722],[13.4374,37.3758],[13.4144,37.3888],[13.4089,37.3842],[13.4049,37.3859],[13.403,37.3877],[13.3994,37.3938],[13.3975,37.3997],[13.397,37.405],[13.3986,37.4077],[13.401,37.4096],[13.4061,37.4116],[13.4151,37.4127],[13.4273,37.4278],[13.4314,37.43],[13.4461,37.4313],[13.4473,37.4287],[13.4547,37.4255],[13.4643,37.4268],[13.4854,37.4363],[13.49,37.4352],[13.499,37.4399],[13.5038,37.4408],[13.5075,37.4405],[13.5086,37.4374],[13.5124,37.4318],[13.5149,37.4253],[13.5098,37.4164],[13.4964,37.4055],[13.4924,37.404],[13.4928,37.3995],[13.502,37.3931],[13.5069,37.3927],[13.5128,37.3935],[13.5176,37.3909],[13.523,37.3828],[13.531,37.3806],[13.5445,37.3734],[13.5463,37.3732],[13.554,37.3679],[13.5561,37.3632]]]}},{"type":"Feature","properties":{"i":"084002","n":"Alessandria della Rocca"},"geometry":{"type":"Polygon","coordinates":[[[13.464,37.6007],[13.467,37.5974],[13.4653,37.5913],[13.4683,37.5838],[13.4696,37.5825],[13.4747,37.5824],[13.4823,37.5805],[13.4862,37.5735],[13.49,37.5721],[13.4905,37.5709],[13.4912,37.5654],[13.4879,37.5636],[13.4903,37.5573],[13.5088,37.545],[13.5128,37.5389],[13.5112,37.5333],[13.5066,37.5275],[13.5061,37.5186],[13.5043,37.5118],[13.5005,37.5044],[13.495,37.4991],[13.4824,37.4964],[13.4815,37.4937],[13.4793,37.494],[13.4771,37.492],[13.4743,37.4869],[13.4659,37.484],[13.4612,37.4836],[13.4586,37.4859],[13.4568,37.4908],[13.4549,37.4912],[13.4493,37.4893],[13.4487,37.4902],[13.4531,37.503],[13.4544,37.5105],[13.4528,37.5272],[13.448,37.533],[13.4396,37.5337],[13.4342,37.5359],[13.4297,37.5446],[13.4295,37.553],[13.4261,37.5564],[13.4234,37.5578],[13.4072,37.5743],[13.4099,37.5769],[13.4158,37.5793],[13.4273,37.5863],[13.4313,37.5922],[13.4364,37.5972],[13.4366,37.5964],[13.4418,37.5951],[13.4481,37.598],[13.4495,37.5997],[13.4571,37.6026],[13.4627,37.6019],[13.464,37.6007]]]}},{"type":"Feature","properties":{"i":"084003","n":"Aragona"},"geometry":{"type":"Polygon","coordinates":[[[13.6131,37.4872],[13.6166,37.4847],[13.6259,37.4818],[13.6277,37.4771],[13.6305,37.4742],[13.6378,37.4753],[13.6372,37.4789],[13.6485,37.4765],[13.6529,37.4785],[13.6564,37.4769],[13.657,37.4715],[13.6557,37.4673],[13.6537,37.464],[13.6506,37.4612],[13.655,37.4536],[13.6531,37.4491],[13.6478,37.4417],[13.6478,37.4386],[13.6453,37.4321],[13.6383,37.4207],[13.6291,37.4108],[13.6242,37.4032],[13.6288,37.401],[13.6366,37.4057],[13.6595,37.3989],[13.6606,37.3981],[13.663,37.3909],[13.6619,37.3897],[13.644,37.3915],[13.6399,37.3858],[13.6437,37.3769],[13.6302,37.3591],[13.6157,37.354],[13.6147,37.356],[13.6149,37.36],[13.6184,37.3619],[13.6187,37.3666],[13.6177,37.3679],[13.6146,37.3692],[13.6116,37.3689],[13.604,37.3636],[13.6029,37.3615],[13.5953,37.3543],[13.5811,37.352],[13.5832,37.3547],[13.5908,37.3728],[13.5909,37.3791],[13.5864,37.3824],[13.5786,37.3861],[13.5741,37.3905],[13.5728,37.3942],[13.5756,37.3957],[13.5758,37.3983],[13.5691,37.4191],[13.5773,37.4269],[13.5776,37.4291],[13.5697,37.4333],[13.5645,37.4346],[13.5648,37.4401],[13.5738,37.4508],[13.5762,37.4556],[13.5765,37.4638],[13.5751,37.4657],[13.5773,37.4663],[13.5923,37.4621],[13.5928,37.4595],[13.5918,37.4544],[13.5876,37.4494],[13.5885,37.4389],[13.5897,37.4368],[13.5956,37.4357],[13.5988,37.4364],[13.6014,37.4387],[13.6025,37.4425],[13.6005,37.4561],[13.6025,37.4603],[13.6007,37.4676],[13.6026,37.4746],[13.6089,37.485],[13.61,37.4861],[13.6131,37.4872]]]}},{"type":"Feature","properties":{"i":"084004","n":"Bivona"},"geometry":{"type":"Polygon","coordinates":[[[13.4637,37.6466],[13.464,37.6444],[13.4615,37.6352],[13.4543,37.6184],[13.4539,37.6156],[13.4613,37.6155],[13.464,37.6007],[13.4627,37.6019],[13.4571,37.6026],[13.4495,37.5997],[13.4481,37.598],[13.4418,37.5951],[13.4366,37.5964],[13.4364,37.5972],[13.4313,37.5922],[13.4273,37.5863],[13.4158,37.5793],[13.4099,37.5769],[13.4072,37.5743],[13.4234,37.5578],[13.4261,37.5564],[13.4297,37.5527],[13.4259,37.5501],[13.4254,37.5466],[13.4224,37.5408],[13.4176,37.5371],[13.4163,37.5347],[13.4149,37.5319],[13.4131,37.5213],[13.4085,37.5185],[13.4021,37.5164],[13.4042,37.5122],[13.4132,37.5081],[13.4165,37.502],[13.4167,37.4995],[13.3894,37.4884],[13.3849,37.4882],[13.3787,37.4844],[13.3768,37.4822],[13.3733,37.4849],[13.3757,37.4945],[13.3757,37.4984],[13.3741,37.504],[13.372,37.5049],[13.3644,37.5051],[13.3628,37.5035],[13.3416,37.5037],[13.338,37.5053],[13.3364,37.5144],[13.3488,37.5219],[13.3555,37.5351],[13.3564,37.5393],[13.3588,37.542],[13.3673,37.5463],[13.3956,37.5554],[13.4005,37.5585],[13.404,37.5706],[13.3922,37.5728],[13.3877,37.579],[13.3827,37.5903],[13.3813,37.6006],[13.3866,37.6119],[13.3919,37.6167],[13.3983,37.6161],[13.4005,37.6168],[13.4009,37.6178],[13.3957,37.6263],[13.3932,37.6279],[13.3881,37.6339],[13.3855,37.65],[13.3834,37.6514],[13.384,37.6534],[13.3958,37.6595],[13.4047,37.6598],[13.4091,37.6587],[13.4177,37.6531],[13.4215,37.6472],[13.4263,37.6432],[13.4447,37.6563],[13.4469,37.6589],[13.4562,37.6606],[13.4577,37.6599],[13.4608,37.6563],[13.4637,37.6466]]]}},{"type":"Feature","properties":{"i":"084005","n":"Burgio"},"geometry":{"type":"Polygon","coordinates":[[[13.3207,37.5881],[13.3181,37.5872],[13.3159,37.5879],[13.3073,37.5932],[13.3036,37.5942],[13.2924,37.5932],[13.2877,37.5941],[13.2853,37.5923],[13.2591,37.5839],[13.2599,37.5853],[13.2604,37.5931],[13.259,37.5943],[13.2534,37.5954],[13.2514,37.597],[13.2509,37.598],[13.2513,37.6076],[13.2534,37.6156],[13.2563,37.6215],[13.26,37.6284],[13.2689,37.6417],[13.2771,37.647],[13.2899,37.6426],[13.2919,37.6417],[13.292,37.6406],[13.2997,37.6396],[13.3089,37.6419],[13.3157,37.6449],[13.3216,37.6498],[13.3221,37.6527],[13.3253,37.6595],[13.3278,37.6624],[13.3288,37.6623],[13.3471,37.6573],[13.3484,37.6563],[13.3507,37.6487],[13.3477,37.6446],[13.3386,37.6395],[13.3199,37.6257],[13.3204,37.6246],[13.3247,37.6241],[13.3279,37.6209],[13.3331,37.612],[13.3339,37.6087],[13.3315,37.5993],[13.3207,37.5881]]]}},{"type":"Feature","properties":{"i":"084006","n":"Calamonaci"},"geometry":{"type":"Polygon","coordinates":[[[13.3472,37.5215],[13.3364,37.5144],[13.338,37.5053],[13.3416,37.5037],[13.3628,37.5035],[13.3644,37.5051],[13.372,37.5049],[13.3741,37.504],[13.3757,37.4984],[13.3757,37.4945],[13.3733,37.4849],[13.3682,37.4838],[13.3615,37.4838],[13.3564,37.4853],[13.3504,37.4854],[13.3464,37.4846],[13.3407,37.481],[13.3344,37.4797],[13.3219,37.4887],[13.3127,37.49],[13.3122,37.4975],[13.321,37.5067],[13.3193,37.5092],[13.3084,37.5151],[13.3,37.5183],[13.2912,37.5184],[13.2861,37.5235],[13.2781,37.5281],[13.2685,37.5314],[13.2637,37.5312],[13.2668,37.5355],[13.2701,37.5338],[13.2772,37.5354],[13.2815,37.5409],[13.2871,37.5438],[13.2967,37.5469],[13.3022,37.5552],[13.3025,37.5608],[13.3108,37.5633],[13.3202,37.5617],[13.3235,37.5574],[13.3264,37.5515],[13.3273,37.5463],[13.3263,37.5448],[13.3234,37.5439],[13.3224,37.5413],[13.3222,37.5383],[13.3239,37.531],[13.3256,37.53],[13.3365,37.5276],[13.3435,37.5278],[13.3456,37.5263],[13.3472,37.5215]]]}},{"type":"Feature","properties":{"i":"084007","n":"Caltabellotta"},"geometry":{"type":"Polygon","coordinates":[[[13.2091,37.6465],[13.212,37.6414],[13.2164,37.6371],[13.226,37.6305],[13.2333,37.6278],[13.2445,37.6211],[13.2463,37.621],[13.2485,37.6143],[13.2499,37.6122],[13.2523,37.6118],[13.2509,37.598],[13.2522,37.5959],[13.259,37.5943],[13.2604,37.5931],[13.2599,37.5853],[13.2591,37.5839],[13.2602,37.5779],[13.2629,37.5723],[13.2615,37.5633],[13.2616,37.5598],[13.2628,37.5562],[13.2661,37.5516],[13.2687,37.5407],[13.2683,37.5381],[13.2668,37.5355],[13.2637,37.5312],[13.2577,37.5263],[13.2577,37.5247],[13.2529,37.5188],[13.2454,37.5121],[13.2423,37.5111],[13.2397,37.5068],[13.2405,37.503],[13.2384,37.5],[13.2275,37.489],[13.2204,37.4843],[13.2193,37.4894],[13.221,37.5042],[13.224,37.5162],[13.2245,37.5233],[13.2245,37.526],[13.2232,37.529],[13.2212,37.5301],[13.1995,37.5347],[13.1905,37.5385],[13.1906,37.5433],[13.1933,37.5478],[13.1795,37.5511],[13.1727,37.5553],[13.1706,37.5582],[13.1684,37.5638],[13.1671,37.5742],[13.1642,37.5786],[13.1567,37.5774],[13.1077,37.5808],[13.1011,37.5828],[13.0997,37.5883],[13.1067,37.5949],[13.1063,37.5969],[13.1082,37.6038],[13.113,37.6136],[13.1235,37.6157],[13.1274,37.6187],[13.1355,37.6222],[13.1411,37.6234],[13.1455,37.6259],[13.1567,37.6255],[13.1695,37.6306],[13.1826,37.634],[13.1812,37.6369],[13.1687,37.6457],[13.1729,37.649],[13.1791,37.6516],[13.1873,37.6516],[13.2045,37.6482],[13.2091,37.6465]]]}},{"type":"Feature","properties":{"i":"084008","n":"Camastra"},"geometry":{"type":"Polygon","coordinates":[[[13.8211,37.2269],[13.8117,37.2189],[13.8111,37.2126],[13.8065,37.2194],[13.797,37.2204],[13.7929,37.2266],[13.7928,37.2288],[13.7948,37.2318],[13.7965,37.2329],[13.7949,37.2395],[13.7913,37.2451],[13.7848,37.2497],[13.7868,37.2624],[13.7877,37.2641],[13.808,37.2812],[13.822,37.2775],[13.8273,37.274],[13.8267,37.266],[13.8243,37.2623],[13.8222,37.2603],[13.8136,37.2552],[13.8136,37.2537],[13.8183,37.2474],[13.8202,37.2413],[13.8159,37.2349],[13.8211,37.2269]]]}},{"type":"Feature","properties":{"i":"084009","n":"Cammarata"},"geometry":{"type":"Polygon","coordinates":[[[13.7325,37.6829],[13.7501,37.6798],[13.7611,37.6792],[13.7707,37.6829],[13.7847,37.6838],[13.7879,37.6854],[13.7893,37.6882],[13.7996,37.6883],[13.804,37.685],[13.8049,37.6837],[13.8049,37.6801],[13.8094,37.676],[13.8166,37.677],[13.8226,37.6758],[13.8235,37.6751],[13.8232,37.6699],[13.8248,37.6668],[13.8231,37.6604],[13.8211,37.655],[13.8161,37.6504],[13.8111,37.6416],[13.8144,37.6392],[13.8182,37.6377],[13.8296,37.6289],[13.8315,37.6243],[13.8309,37.6186],[13.8248,37.615],[13.8232,37.6152],[13.8095,37.6178],[13.7886,37.6235],[13.7805,37.6155],[13.7798,37.6095],[13.7769,37.6069],[13.7755,37.6064],[13.771,37.607],[13.7668,37.6098],[13.7623,37.6068],[13.7654,37.5993],[13.7647,37.5969],[13.7605,37.5945],[13.753,37.5914],[13.7486,37.5924],[13.7433,37.5922],[13.7297,37.5887],[13.7205,37.5856],[13.72,37.5844],[13.7081,37.583],[13.6955,37.5844],[13.6897,37.5865],[13.6806,37.5868],[13.6721,37.5805],[13.6684,37.5742],[13.6699,37.571],[13.677,37.5676],[13.6755,37.5679],[13.6682,37.5661],[13.6545,37.5668],[13.6432,37.5726],[13.6371,37.5741],[13.6339,37.5739],[13.628,37.5708],[13.6235,37.5672],[13.6185,37.5659],[13.5974,37.566],[13.5888,37.5672],[13.582,37.5698],[13.5801,37.5721],[13.5763,37.5716],[13.5742,37.577],[13.5755,37.5839],[13.5752,37.5887],[13.5725,37.5953],[13.5698,37.5969],[13.5648,37.5972],[13.5474,37.6076],[13.5463,37.6126],[13.5479,37.6161],[13.5515,37.619],[13.5604,37.631],[13.5664,37.6335],[13.5691,37.6359],[13.5768,37.6388],[13.579,37.6403],[13.5865,37.647],[13.5876,37.6505],[13.6015,37.6559],[13.6226,37.6562],[13.6512,37.6584],[13.6592,37.6626],[13.6693,37.6698],[13.6721,37.6749],[13.6742,37.6821],[13.6742,37.6843],[13.6721,37.6888],[13.6788,37.6922],[13.6914,37.6947],[13.6955,37.6949],[13.7105,37.6871],[13.7234,37.6846],[13.7302,37.6852],[13.7325,37.6829]],[[13.6806,37.6464],[13.6746,37.6446],[13.666,37.6394],[13.6638,37.637],[13.6564,37.6353],[13.6447,37.6346],[13.6268,37.625],[13.6244,37.6231],[13.6101,37.6199],[13.6046,37.6078],[13.6051,37.6058],[13.6147,37.5995],[13.6213,37.5902],[13.6317,37.5909],[13.6532,37.5961],[13.6674,37.609],[13.673,37.6121],[13.6859,37.6166],[13.6915,37.6259],[13.6915,37.6339],[13.6874,37.6457],[13.6846,37.6484],[13.6806,37.6464]]]}},{"type":"Feature","properties":{"i":"084010","n":"Campobello di Licata"},"geometry":{"type":"Polygon","coordinates":[[[13.9661,37.286],[13.9667,37.2828],[13.9656,37.2775],[13.9628,37.2787],[13.9619,37.2801],[13.9577,37.2807],[13.9529,37.2804],[13.946,37.2795],[13.9385,37.2751],[13.9414,37.2718],[13.9435,37.2708],[13.9551,37.2704],[13.9566,37.2684],[13.9551,37.2587],[13.9577,37.257],[13.9617,37.2573],[13.9664,37.2605],[13.9741,37.2581],[13.9749,37.2554],[13.9694,37.2438],[13.9575,37.2404],[13.9531,37.2345],[13.951,37.2255],[13.953,37.222],[13.9512,37.2139],[13.9513,37.2109],[13.9569,37.208],[13.9629,37.2076],[13.9703,37.2032],[13.9699,37.2013],[13.971,37.1983],[13.976,37.1898],[13.972,37.1885],[13.975,37.1823],[13.9766,37.1809],[13.9751,37.1778],[13.9735,37.1768],[13.967,37.176],[13.9632,37.1735],[13.9574,37.1667],[13.9547,37.1678],[13.9522,37.1729],[13.9481,37.1769],[13.9414,37.1808],[13.9391,37.1839],[13.9354,37.1924],[13.9366,37.1933],[13.9392,37.1983],[13.9326,37.205],[13.9292,37.2047],[13.9277,37.2031],[13.9233,37.202],[13.9183,37.2036],[13.9155,37.2062],[13.9118,37.213],[13.9094,37.2145],[13.9024,37.2063],[13.8967,37.204],[13.8882,37.2069],[13.8748,37.2071],[13.8645,37.2083],[13.8638,37.2106],[13.8466,37.2347],[13.8517,37.2404],[13.8595,37.2458],[13.867,37.2496],[13.8711,37.2549],[13.8802,37.2602],[13.8848,37.2622],[13.8887,37.2626],[13.8888,37.2651],[13.8827,37.2695],[13.8849,37.2736],[13.9053,37.2799],[13.9201,37.2883],[13.9228,37.291],[13.9236,37.2932],[13.9231,37.2948],[13.9328,37.2954],[13.9424,37.2934],[13.9562,37.2846],[13.9604,37.2841],[13.9661,37.286]]]}},{"type":"Feature","properties":{"i":"084011","n":"Canicattì"},"geometry":{"type":"Polygon","coordinates":[[[13.8622,37.4033],[13.8669,37.4031],[13.8752,37.4044],[13.8931,37.4039],[13.8985,37.4015],[13.9047,37.3959],[13.9066,37.3931],[13.9094,37.3871],[13.9082,37.3854],[13.901,37.3803],[13.8973,37.3789],[13.8903,37.3785],[13.8866,37.375],[13.8878,37.3676],[13.8817,37.3598],[13.8853,37.3565],[13.9032,37.3479],[13.8973,37.3404],[13.8734,37.3314],[13.8648,37.3261],[13.8489,37.3233],[13.841,37.319],[13.8382,37.3187],[13.8349,37.3227],[13.8345,37.3251],[13.8327,37.3278],[13.8273,37.3335],[13.7894,37.3417],[13.7722,37.3392],[13.7708,37.3441],[13.7631,37.3518],[13.7674,37.3718],[13.7695,37.3752],[13.7735,37.3764],[13.781,37.3813],[13.7826,37.3843],[13.7856,37.3866],[13.8024,37.3914],[13.809,37.3958],[13.8146,37.4025],[13.8198,37.4157],[13.8232,37.4278],[13.8266,37.4324],[13.8345,37.4362],[13.8358,37.4343],[13.8375,37.4339],[13.8413,37.4384],[13.849,37.4371],[13.8498,37.4355],[13.8481,37.4308],[13.8459,37.4288],[13.8506,37.4192],[13.8622,37.4033]]]}},{"type":"Feature","properties":{"i":"084012","n":"Casteltermini"},"geometry":{"type":"Polygon","coordinates":[[[13.677,37.5676],[13.6853,37.56],[13.6891,37.5522],[13.6918,37.5388],[13.6939,37.5367],[13.6931,37.5353],[13.6915,37.5347],[13.6889,37.5352],[13.6874,37.5346],[13.6906,37.5311],[13.6934,37.5231],[13.6928,37.5173],[13.6901,37.5117],[13.6904,37.5008],[13.6859,37.4923],[13.6789,37.4924],[13.6758,37.4907],[13.6643,37.4801],[13.6638,37.4776],[13.6644,37.4763],[13.6602,37.4749],[13.6564,37.4763],[13.6543,37.4783],[13.6521,37.4784],[13.6485,37.4765],[13.6372,37.4789],[13.6378,37.4753],[13.6305,37.4742],[13.6277,37.4771],[13.6259,37.4818],[13.6166,37.4847],[13.6131,37.4872],[13.6146,37.4892],[13.6137,37.4955],[13.612,37.4958],[13.6107,37.4948],[13.6107,37.4932],[13.6123,37.491],[13.6114,37.4906],[13.6059,37.4926],[13.5993,37.4963],[13.5978,37.4996],[13.6001,37.504],[13.5976,37.51],[13.5761,37.5159],[13.5553,37.5188],[13.5487,37.5248],[13.5482,37.5274],[13.5504,37.5335],[13.5549,37.5361],[13.557,37.5388],[13.5573,37.5397],[13.5552,37.544],[13.55,37.5514],[13.547,37.5536],[13.5428,37.5551],[13.5342,37.5559],[13.5633,37.5648],[13.5773,37.572],[13.5805,37.5719],[13.582,37.5698],[13.5888,37.5672],[13.5974,37.566],[13.6195,37.5661],[13.6235,37.5672],[13.628,37.5708],[13.6339,37.5739],[13.6371,37.5741],[13.6432,37.5726],[13.6545,37.5668],[13.6682,37.5661],[13.6755,37.5679],[13.677,37.5676]]]}},{"type":"Feature","properties":{"i":"084013","n":"Castrofilippo"},"geometry":{"type":"Polygon","coordinates":[[[13.7868,37.387],[13.7833,37.3851],[13.781,37.3813],[13.7735,37.3764],[13.7695,37.3752],[13.7674,37.3718],[13.7631,37.3518],[13.7708,37.3441],[13.7722,37.3392],[13.7646,37.3279],[13.7574,37.3257],[13.7507,37.326],[13.7432,37.3327],[13.7323,37.3351],[13.7343,37.3375],[13.7347,37.3396],[13.725,37.3459],[13.7207,37.3526],[13.7215,37.354],[13.7256,37.3569],[13.7308,37.3589],[13.7414,37.365],[13.742,37.3712],[13.7538,37.3791],[13.7591,37.3805],[13.7628,37.3805],[13.7702,37.377],[13.7696,37.3808],[13.7664,37.3846],[13.7638,37.3863],[13.7643,37.3872],[13.7722,37.39],[13.7818,37.3901],[13.7843,37.3892],[13.7868,37.387]]]}},{"type":"Feature","properties":{"i":"084014","n":"Cattolica Eraclea"},"geometry":{"type":"Polygon","coordinates":[[[13.4334,37.4603],[13.4364,37.4589],[13.4369,37.4566],[13.4354,37.4552],[13.435,37.4528],[13.4383,37.4491],[13.457,37.4442],[13.4764,37.4438],[13.482,37.4379],[13.4854,37.4363],[13.4643,37.4268],[13.4547,37.4255],[13.4473,37.4287],[13.4461,37.4313],[13.4314,37.43],[13.4273,37.4278],[13.4151,37.4127],[13.4053,37.4114],[13.4003,37.4093],[13.397,37.405],[13.3921,37.4036],[13.3794,37.4028],[13.3678,37.4057],[13.3564,37.3995],[13.3498,37.4105],[13.3475,37.4118],[13.3434,37.4131],[13.3347,37.4108],[13.3281,37.4125],[13.3248,37.4153],[13.3151,37.4105],[13.3117,37.4057],[13.3128,37.402],[13.3124,37.4002],[13.307,37.3967],[13.3041,37.3959],[13.299,37.396],[13.2952,37.3935],[13.2926,37.3904],[13.2828,37.3924],[13.2775,37.3902],[13.2717,37.3914],[13.2701,37.396],[13.2804,37.4001],[13.2805,37.4011],[13.2775,37.402],[13.2797,37.4039],[13.2954,37.4088],[13.2937,37.4111],[13.2863,37.4142],[13.2978,37.4208],[13.298,37.4225],[13.3013,37.4263],[13.3078,37.4304],[13.3118,37.4298],[13.3236,37.431],[13.3512,37.4374],[13.3613,37.4447],[13.367,37.4466],[13.3759,37.4522],[13.3789,37.4553],[13.3858,37.4558],[13.3932,37.4598],[13.3945,37.462],[13.4005,37.4655],[13.4079,37.4625],[13.4125,37.4583],[13.4183,37.4583],[13.42,37.4599],[13.4211,37.4624],[13.4272,37.4615],[13.4275,37.46],[13.4295,37.4586],[13.4332,37.4591],[13.4334,37.4603]]]}},{"type":"Feature","properties":{"i":"084015","n":"Cianciana"},"geometry":{"type":"Polygon","coordinates":[[[13.4493,37.4893],[13.4461,37.484],[13.444,37.4775],[13.4448,37.4756],[13.4447,37.4703],[13.4349,37.4631],[13.4332,37.4591],[13.4295,37.4586],[13.4275,37.46],[13.4272,37.4615],[13.4211,37.4624],[13.42,37.4599],[13.4183,37.4583],[13.4125,37.4583],[13.4079,37.4625],[13.4005,37.4655],[13.3945,37.462],[13.3932,37.4598],[13.3858,37.4558],[13.3789,37.4553],[13.3823,37.4585],[13.3824,37.4671],[13.3768,37.4822],[13.3787,37.4844],[13.3849,37.4882],[13.3894,37.4884],[13.4167,37.4995],[13.4165,37.502],[13.4132,37.5081],[13.4042,37.5122],[13.4021,37.5164],[13.4085,37.5185],[13.4131,37.5213],[13.4149,37.5319],[13.4163,37.5347],[13.4176,37.5371],[13.4224,37.5408],[13.4254,37.5466],[13.4259,37.5501],[13.4297,37.5527],[13.4297,37.5446],[13.4342,37.5359],[13.4396,37.5337],[13.448,37.533],[13.4528,37.5272],[13.4544,37.5105],[13.4531,37.503],[13.4506,37.4951],[13.4487,37.4915],[13.4493,37.4893]]]}},{"type":"Feature","properties":{"i":"084016","n":"Comitini"},"geometry":{"type":"Polygon","coordinates":[[[13.6739,37.3754],[13.6743,37.3746],[13.6718,37.3719],[13.6606,37.3669],[13.6571,37.3666],[13.6547,37.3676],[13.6477,37.3778],[13.648,37.3793],[13.6587,37.3866],[13.663,37.3909],[13.6606,37.3981],[13.6366,37.4057],[13.6288,37.401],[13.6242,37.403],[13.6291,37.4108],[13.6383,37.4207],[13.6453,37.4321],[13.6478,37.4386],[13.6478,37.4417],[13.6531,37.4491],[13.655,37.4536],[13.6567,37.4539],[13.6605,37.4473],[13.6595,37.4468],[13.6651,37.4423],[13.6756,37.4382],[13.6837,37.4327],[13.6905,37.4332],[13.6941,37.4346],[13.688,37.4245],[13.679,37.4139],[13.6738,37.4109],[13.6679,37.4093],[13.6649,37.4069],[13.6636,37.4044],[13.6693,37.399],[13.673,37.3927],[13.6661,37.3837],[13.6696,37.376],[13.6739,37.3754]]]}},{"type":"Feature","properties":{"i":"084017","n":"Favara"},"geometry":{"type":"Polygon","coordinates":[[[13.6619,37.3897],[13.6587,37.3866],[13.648,37.3793],[13.6477,37.3778],[13.6547,37.3676],[13.6571,37.3666],[13.6606,37.3669],[13.6718,37.3719],[13.6743,37.3746],[13.6739,37.3754],[13.6881,37.3807],[13.6905,37.3783],[13.6919,37.3745],[13.6896,37.3649],[13.6977,37.3666],[13.7042,37.3652],[13.7167,37.3531],[13.7161,37.3513],[13.7179,37.3509],[13.7207,37.3526],[13.725,37.3459],[13.7347,37.3396],[13.7343,37.3375],[13.7323,37.3351],[13.7213,37.3342],[13.7149,37.3327],[13.7038,37.3276],[13.7013,37.3252],[13.6987,37.3195],[13.6987,37.3154],[13.7022,37.3093],[13.7054,37.2994],[13.7033,37.2948],[13.6983,37.2879],[13.6988,37.284],[13.7029,37.2792],[13.7085,37.2785],[13.713,37.2757],[13.7109,37.2713],[13.7084,37.2687],[13.6951,37.2606],[13.6871,37.2606],[13.6837,37.2615],[13.6832,37.2597],[13.684,37.2542],[13.6913,37.2459],[13.6892,37.2439],[13.676,37.2411],[13.6711,37.242],[13.6606,37.2419],[13.6551,37.2392],[13.6464,37.2406],[13.6421,37.2434],[13.6429,37.2469],[13.6601,37.2513],[13.665,37.2538],[13.6663,37.255],[13.6687,37.2612],[13.6612,37.2675],[13.6473,37.2696],[13.6422,37.2719],[13.64,37.2764],[13.6401,37.2812],[13.6419,37.2844],[13.6436,37.2914],[13.6417,37.297],[13.6389,37.2996],[13.633,37.3005],[13.6298,37.3025],[13.6278,37.3051],[13.6378,37.3153],[13.6364,37.32],[13.6405,37.3225],[13.6448,37.3228],[13.6527,37.325],[13.6586,37.3341],[13.6541,37.3432],[13.6468,37.3449],[13.6285,37.3381],[13.6291,37.3376],[13.6231,37.337],[13.6183,37.3421],[13.6179,37.344],[13.6131,37.3473],[13.6143,37.352],[13.6309,37.358],[13.6302,37.3591],[13.6437,37.3769],[13.6399,37.3858],[13.644,37.3915],[13.6619,37.3897]]]}},{"type":"Feature","properties":{"i":"084018","n":"Grotte"},"geometry":{"type":"Polygon","coordinates":[[[13.7157,37.4401],[13.7298,37.4375],[13.7295,37.4336],[13.7285,37.4329],[13.7204,37.4326],[13.7068,37.4278],[13.6967,37.427],[13.6958,37.4258],[13.6965,37.4183],[13.7022,37.4129],[13.7039,37.41],[13.7061,37.401],[13.7045,37.3977],[13.7009,37.3957],[13.6978,37.3928],[13.6881,37.3807],[13.6739,37.3754],[13.6699,37.3758],[13.666,37.3842],[13.673,37.3927],[13.6693,37.399],[13.6636,37.4044],[13.6649,37.4069],[13.6679,37.4093],[13.6738,37.4109],[13.679,37.4139],[13.688,37.4245],[13.6941,37.4346],[13.6905,37.4332],[13.6837,37.4327],[13.6756,37.4382],[13.6651,37.4423],[13.6595,37.4468],[13.6605,37.4473],[13.6567,37.4539],[13.655,37.4536],[13.6506,37.4612],[13.6516,37.46],[13.6673,37.4605],[13.6869,37.4584],[13.7017,37.4428],[13.705,37.4405],[13.7088,37.4401],[13.7114,37.4409],[13.7157,37.4401]]]}},{"type":"Feature","properties":{"i":"084019","n":"Joppolo Giancaxio"},"geometry":{"type":"Polygon","coordinates":[[[13.5691,37.4191],[13.5758,37.3983],[13.5756,37.3957],[13.5728,37.3942],[13.5741,37.3905],[13.5786,37.3861],[13.5864,37.3824],[13.5909,37.3791],[13.5908,37.3728],[13.5832,37.3547],[13.5811,37.352],[13.5744,37.3505],[13.5704,37.3486],[13.5693,37.3457],[13.5701,37.3423],[13.5625,37.3401],[13.559,37.3422],[13.558,37.3453],[13.5575,37.3554],[13.5551,37.358],[13.5561,37.3632],[13.5565,37.3624],[13.5588,37.3651],[13.5598,37.3677],[13.56,37.3748],[13.5587,37.3788],[13.5518,37.3813],[13.5475,37.384],[13.5461,37.3857],[13.5474,37.3889],[13.556,37.3965],[13.5588,37.4055],[13.556,37.4095],[13.55,37.4108],[13.5454,37.413],[13.5445,37.4138],[13.5423,37.4209],[13.5484,37.4207],[13.5519,37.4217],[13.554,37.4237],[13.5691,37.4191]]]}},{"type":"Feature","properties":{"i":"084020","n":"Lampedusa e Linosa"},"geometry":{"type":"MultiPolygon","coordinates":[[[[12.5588,35.5112],[12.56,35.5089],[12.5576,35.5093],[12.5571,35.51],[12.5588,35.5112]]],[[[12.5409,35.5289],[12.5443,35.5286],[12.5555,35.5249],[12.5654,35.5258],[12.5836,35.5231],[12.5913,35.5211],[12.5942,35.5209],[12.5993,35.5233],[12.6075,35.5245],[12.6109,35.5217],[12.6169,35.5217],[12.6195,35.5225],[12.6279,35.5204],[12.6329,35.5175],[12.6331,35.5159],[12.626,35.5147],[12.6246,35.5122],[12.6254,35.5055],[12.6305,35.5037],[12.6332,35.5018],[12.6322,35.4942],[12.6292,35.4935],[12.6202,35.4941],[12.6084,35.4936],[12.6054,35.5016],[12.6043,35.5027],[12.6017,35.5013],[12.6002,35.4975],[12.5937,35.4984],[12.5636,35.5116],[12.5294,35.5157],[12.5183,35.5187],[12.5173,35.5202],[12.5173,35.5211],[12.5265,35.528],[12.5409,35.5289]]],[[[12.3211,35.5505],[12.3199,35.5512],[12.3207,35.5533],[12.3227,35.5521],[12.3211,35.5505]]],[[[12.8754,35.8754],[12.8773,35.8748],[12.8794,35.8727],[12.8833,35.8596],[12.8832,35.8573],[12.8812,35.8549],[12.8649,35.8555],[12.8595,35.855],[12.8566,35.857],[12.8506,35.8669],[12.8502,35.8714],[12.8586,35.8747],[12.8718,35.8747],[12.8754,35.8754]]]]}},{"type":"Feature","properties":{"i":"084021","n":"Licata"},"geometry":{"type":"MultiPolygon","coordinates":[[[[13.8574,37.1127],[13.856,37.1118],[13.8556,37.1128],[13.8574,37.1127]]],[[[13.976,37.1898],[13.9823,37.1931],[14.0003,37.1777],[14.0073,37.1687],[14.0112,37.16],[14.0174,37.1578],[14.0209,37.1594],[14.024,37.159],[14.03,37.1546],[14.0346,37.143],[14.0367,37.1277],[14.0375,37.1197],[14.0363,37.1061],[14.0245,37.1084],[13.9943,37.1098],[13.9814,37.1093],[13.971,37.1076],[13.958,37.1037],[13.9458,37.0976],[13.9362,37.0963],[13.9337,37.0952],[13.9309,37.0958],[13.9275,37.0981],[13.9214,37.0989],[13.9123,37.0971],[13.9024,37.0965],[13.8936,37.098],[13.8789,37.1025],[13.8656,37.1095],[13.8588,37.1154],[13.8554,37.1221],[13.8439,37.1336],[13.8362,37.1388],[13.8322,37.1395],[13.8316,37.1431],[13.8324,37.1453],[13.8256,37.1628],[13.8253,37.1652],[13.8337,37.1775],[13.8381,37.1805],[13.8397,37.1852],[13.8381,37.1871],[13.8318,37.1871],[13.8269,37.188],[13.8262,37.1931],[13.8266,37.1968],[13.8233,37.202],[13.8168,37.2031],[13.8133,37.2054],[13.8111,37.2126],[13.8114,37.2176],[13.8117,37.2189],[13.815,37.2221],[13.8211,37.2269],[13.8382,37.2299],[13.8466,37.2347],[13.8638,37.2106],[13.8645,37.2083],[13.8748,37.2071],[13.8882,37.2069],[13.8967,37.204],[13.9024,37.2063],[13.9094,37.2145],[13.9118,37.213],[13.9155,37.2062],[13.9183,37.2036],[13.9233,37.202],[13.9277,37.2031],[13.9292,37.2047],[13.9326,37.205],[13.9381,37.1999],[13.9392,37.1983],[13.9388,37.1971],[13.9354,37.1924],[13.9391,37.1839],[13.9414,37.1808],[13.9481,37.1769],[13.9522,37.1729],[13.9547,37.1678],[13.9574,37.1667],[13.9632,37.1735],[13.967,37.176],[13.9735,37.1768],[13.9751,37.1778],[13.9766,37.1809],[13.975,37.1823],[13.972,37.1885],[13.976,37.1898]]]]}},{"type":"Feature","properties":{"i":"084022","n":"Lucca Sicula"},"geometry":{"type":"Polygon","coordinates":[[[13.3207,37.5881],[13.3406,37.577],[13.3427,37.5739],[13.338,37.5595],[13.3397,37.554],[13.3445,37.5465],[13.3528,37.5438],[13.3547,37.5425],[13.3564,37.5393],[13.3555,37.5351],[13.3484,37.5216],[13.3472,37.5215],[13.3456,37.5263],[13.3435,37.5278],[13.3365,37.5276],[13.3256,37.53],[13.3239,37.531],[13.3222,37.5383],[13.3225,37.5421],[13.3234,37.5439],[13.3263,37.5448],[13.3273,37.5463],[13.3264,37.5515],[13.3235,37.5574],[13.3202,37.5617],[13.3108,37.5633],[13.3051,37.5614],[13.3005,37.5709],[13.2987,37.5777],[13.2927,37.5883],[13.2877,37.5941],[13.2924,37.5932],[13.3036,37.5942],[13.3073,37.5932],[13.3159,37.5879],[13.3181,37.5872],[13.3207,37.5881]]]}},{"type":"Feature","properties":{"i":"084023","n":"Menfi"},"geometry":{"type":"Polygon","coordinates":[[[13.0082,37.6558],[13.0138,37.6442],[13.0117,37.6383],[13.0049,37.6295],[13.0033,37.6286],[13.003,37.6266],[13.0039,37.623],[13.0321,37.6177],[13.0415,37.6153],[13.0482,37.6123],[13.0442,37.6068],[13.0442,37.6046],[13.0369,37.5959],[13.0256,37.5921],[13.022,37.5885],[13.0198,37.5846],[13.0198,37.5788],[13.0186,37.5747],[13.0091,37.5695],[12.9989,37.5537],[12.9945,37.542],[12.9907,37.5382],[12.9888,37.5409],[12.9715,37.5538],[12.9636,37.562],[12.953,37.5686],[12.943,37.5723],[12.9167,37.5772],[12.9115,37.5768],[12.9069,37.575],[12.9052,37.5738],[12.907,37.5727],[12.9104,37.5726],[12.9067,37.5724],[12.9001,37.5748],[12.8965,37.5771],[12.9048,37.5885],[12.9074,37.5951],[12.9058,37.6051],[12.9068,37.6125],[12.9104,37.6291],[12.9162,37.6386],[12.9169,37.6448],[12.9134,37.6461],[12.9014,37.6424],[12.8902,37.6406],[12.888,37.6419],[12.8871,37.6436],[12.8885,37.6471],[12.8917,37.6494],[12.8978,37.6562],[12.8947,37.6608],[12.9021,37.6609],[12.9068,37.6586],[12.9196,37.6577],[12.9245,37.6577],[12.9349,37.6595],[12.9509,37.6674],[12.9573,37.669],[12.9704,37.6703],[12.9826,37.677],[12.9858,37.6702],[12.9979,37.6553],[13.0052,37.6551],[13.0082,37.6558]]]}},{"type":"Feature","properties":{"i":"084024","n":"Montallegro"},"geometry":{"type":"Polygon","coordinates":[[[13.397,37.405],[13.3975,37.3997],[13.3994,37.3938],[13.403,37.3877],[13.4056,37.3855],[13.4089,37.3842],[13.4057,37.3811],[13.402,37.3825],[13.395,37.3801],[13.3848,37.3733],[13.3843,37.3685],[13.3863,37.366],[13.3844,37.3631],[13.3779,37.365],[13.3769,37.3665],[13.3683,37.3692],[13.3644,37.368],[13.3578,37.3703],[13.3534,37.3752],[13.3529,37.3773],[13.3305,37.3915],[13.322,37.3893],[13.3158,37.381],[13.311,37.3804],[13.3094,37.3786],[13.3035,37.3837],[13.2926,37.3904],[13.298,37.3955],[13.2997,37.3962],[13.3053,37.396],[13.3122,37.4],[13.3128,37.402],[13.3117,37.4057],[13.3127,37.4076],[13.3167,37.4117],[13.3248,37.4153],[13.3281,37.4125],[13.3347,37.4108],[13.3434,37.4131],[13.3475,37.4118],[13.3498,37.4105],[13.3564,37.3995],[13.3678,37.4057],[13.3794,37.4028],[13.3921,37.4036],[13.397,37.405]]]}},{"type":"Feature","properties":{"i":"084025","n":"Montevago"},"geometry":{"type":"Polygon","coordinates":[[[12.9826,37.677],[12.9704,37.6703],[12.9573,37.669],[12.9509,37.6674],[12.9349,37.6595],[12.9245,37.6577],[12.9115,37.658],[12.9058,37.6589],[12.9021,37.6609],[12.8931,37.6613],[12.8948,37.6629],[12.9015,37.664],[12.9065,37.6681],[12.906,37.6699],[12.9068,37.6718],[12.9106,37.672],[12.9143,37.6752],[12.9153,37.6822],[12.9178,37.6893],[12.9325,37.6993],[12.9375,37.7015],[12.9422,37.7071],[12.9427,37.7122],[12.9486,37.7161],[12.9586,37.7201],[12.957,37.7249],[12.9597,37.7275],[12.9643,37.7292],[12.9691,37.7215],[12.9759,37.7156],[12.9833,37.7123],[12.9943,37.7018],[12.9815,37.6816],[12.9811,37.6792],[12.9826,37.677]]]}},{"type":"Feature","properties":{"i":"084026","n":"Naro"},"geometry":{"type":"Polygon","coordinates":[[[13.9435,37.3311],[13.947,37.33],[13.9615,37.3303],[13.9643,37.3289],[13.9719,37.3198],[13.9779,37.3142],[13.983,37.3137],[13.9919,37.3078],[13.9934,37.3028],[13.9916,37.3005],[13.9944,37.2951],[13.9816,37.2947],[13.9745,37.2921],[13.9661,37.286],[13.9604,37.2841],[13.9562,37.2846],[13.9424,37.2934],[13.9328,37.2954],[13.9231,37.2948],[13.9236,37.2932],[13.9228,37.291],[13.9201,37.2883],[13.9053,37.2799],[13.8849,37.2736],[13.8827,37.2695],[13.8888,37.2651],[13.8887,37.2626],[13.8848,37.2622],[13.8802,37.2602],[13.8711,37.2549],[13.867,37.2496],[13.8595,37.2458],[13.8517,37.2404],[13.8449,37.2333],[13.8382,37.2299],[13.8211,37.2269],[13.8159,37.2349],[13.8202,37.2413],[13.8183,37.2474],[13.8136,37.2537],[13.8136,37.2552],[13.8222,37.2603],[13.8243,37.2623],[13.8267,37.266],[13.8273,37.274],[13.822,37.2775],[13.808,37.2812],[13.7884,37.2649],[13.7868,37.2624],[13.7848,37.2497],[13.7913,37.2451],[13.7949,37.2395],[13.7965,37.2329],[13.7948,37.2318],[13.7928,37.2288],[13.7929,37.2266],[13.797,37.2204],[13.7915,37.2219],[13.7831,37.2202],[13.7774,37.217],[13.7733,37.2128],[13.7729,37.2112],[13.7739,37.2085],[13.7726,37.2065],[13.7519,37.205],[13.7469,37.2066],[13.7353,37.2055],[13.7335,37.2102],[13.7343,37.2137],[13.7378,37.2209],[13.7383,37.2247],[13.7377,37.2321],[13.7361,37.2339],[13.7359,37.2358],[13.7414,37.2381],[13.748,37.2395],[13.7489,37.241],[13.7484,37.2435],[13.7453,37.2478],[13.7333,37.2535],[13.7268,37.2548],[13.7172,37.2551],[13.7152,37.2634],[13.7143,37.2718],[13.7109,37.2713],[13.713,37.2757],[13.7085,37.2785],[13.7029,37.2792],[13.6988,37.284],[13.6983,37.2879],[13.7033,37.2948],[13.7054,37.2994],[13.7022,37.3093],[13.6987,37.3154],[13.6987,37.3195],[13.7013,37.3252],[13.7038,37.3276],[13.714,37.3324],[13.7213,37.3342],[13.7353,37.3348],[13.7432,37.3327],[13.7501,37.3263],[13.7574,37.3257],[13.7646,37.3279],[13.7722,37.3392],[13.7906,37.3415],[13.8273,37.3335],[13.8327,37.3278],[13.8345,37.3251],[13.8349,37.3227],[13.8382,37.3187],[13.841,37.319],[13.8489,37.3233],[13.8648,37.3261],[13.8734,37.3314],[13.8966,37.34],[13.8991,37.3422],[13.9032,37.3479],[13.9212,37.3377],[13.9271,37.3313],[13.9435,37.3311]]]}},{"type":"Feature","properties":{"i":"084027","n":"Palma di Montechiaro"},"geometry":{"type":"Polygon","coordinates":[[[13.797,37.2204],[13.8065,37.2194],[13.8111,37.2126],[13.8133,37.2054],[13.8168,37.2031],[13.8233,37.202],[13.8266,37.1968],[13.8262,37.1931],[13.8269,37.188],[13.8318,37.1871],[13.8381,37.1871],[13.8397,37.1852],[13.8381,37.1805],[13.8337,37.1775],[13.8253,37.1652],[13.8256,37.1628],[13.8324,37.1453],[13.8316,37.1431],[13.8322,37.1395],[13.826,37.1437],[13.8216,37.145],[13.8015,37.1454],[13.788,37.1468],[13.7742,37.1455],[13.7504,37.1494],[13.7376,37.1586],[13.7363,37.1617],[13.7283,37.1689],[13.7208,37.172],[13.7115,37.172],[13.6963,37.1794],[13.6919,37.1834],[13.6839,37.1879],[13.6692,37.193],[13.6634,37.1934],[13.6655,37.2],[13.6694,37.2049],[13.6821,37.2106],[13.6824,37.2137],[13.6842,37.2155],[13.6919,37.2121],[13.6972,37.2078],[13.703,37.2045],[13.7121,37.2007],[13.733,37.1999],[13.7393,37.2007],[13.7353,37.2055],[13.7396,37.2063],[13.7469,37.2066],[13.7519,37.205],[13.7726,37.2065],[13.7739,37.2085],[13.7729,37.2112],[13.7733,37.2128],[13.7774,37.217],[13.7831,37.2202],[13.7915,37.2219],[13.797,37.2204]]]}},{"type":"Feature","properties":{"i":"084028","n":"Porto Empedocle"},"geometry":{"type":"Polygon","coordinates":[[[13.5507,37.287],[13.542,37.2863],[13.5401,37.2844],[13.5325,37.284],[13.5274,37.2865],[13.5211,37.2864],[13.5172,37.2888],[13.5101,37.2914],[13.5002,37.2913],[13.4982,37.2908],[13.4969,37.2886],[13.488,37.289],[13.4881,37.2931],[13.4862,37.3015],[13.483,37.3067],[13.4802,37.3082],[13.4786,37.3147],[13.4819,37.3197],[13.4729,37.3243],[13.4612,37.3284],[13.4679,37.3375],[13.4851,37.3388],[13.4933,37.334],[13.5151,37.3277],[13.5227,37.3272],[13.5313,37.3237],[13.5348,37.3209],[13.5323,37.3176],[13.5304,37.3157],[13.5208,37.3156],[13.5187,37.3132],[13.5197,37.3096],[13.5213,37.3083],[13.5365,37.3092],[13.5436,37.3074],[13.5466,37.2965],[13.5512,37.2901],[13.5507,37.287]]]}},{"type":"Feature","properties":{"i":"084029","n":"Racalmuto"},"geometry":{"type":"Polygon","coordinates":[[[13.8054,37.4356],[13.8123,37.4314],[13.8266,37.4324],[13.8232,37.4278],[13.8198,37.4157],[13.8146,37.4025],[13.809,37.3958],[13.8024,37.3914],[13.7868,37.387],[13.7843,37.3892],[13.7818,37.3901],[13.7722,37.39],[13.7643,37.3872],[13.7638,37.3863],[13.7664,37.3846],[13.7696,37.3808],[13.7702,37.377],[13.7628,37.3805],[13.7591,37.3805],[13.7538,37.3791],[13.742,37.3712],[13.7414,37.365],[13.7308,37.3589],[13.7256,37.3569],[13.7179,37.3509],[13.7161,37.3513],[13.7167,37.3531],[13.7042,37.3652],[13.6977,37.3666],[13.6896,37.3649],[13.6919,37.3745],[13.6905,37.3783],[13.6881,37.3807],[13.6978,37.3928],[13.7009,37.3957],[13.7045,37.3977],[13.7061,37.401],[13.7039,37.41],[13.7022,37.4129],[13.6965,37.4183],[13.6958,37.4258],[13.6967,37.427],[13.7068,37.4278],[13.7204,37.4326],[13.7285,37.4329],[13.7295,37.4336],[13.7298,37.4375],[13.734,37.4353],[13.7397,37.4306],[13.7481,37.4284],[13.7516,37.4283],[13.7582,37.4321],[13.7593,37.4343],[13.7594,37.4368],[13.7729,37.4405],[13.7899,37.437],[13.8002,37.4337],[13.8033,37.4338],[13.8054,37.4356]]]}},{"type":"Feature","properties":{"i":"084030","n":"Raffadali"},"geometry":{"type":"Polygon","coordinates":[[[13.5138,37.441],[13.5159,37.4381],[13.519,37.4361],[13.5231,37.4319],[13.5209,37.4263],[13.521,37.425],[13.5228,37.423],[13.5258,37.4231],[13.5352,37.428],[13.5394,37.426],[13.5408,37.4249],[13.5445,37.4138],[13.55,37.4108],[13.556,37.4095],[13.5588,37.4055],[13.556,37.3965],[13.5474,37.3889],[13.5461,37.3857],[13.5475,37.384],[13.5518,37.3813],[13.5587,37.3788],[13.56,37.3748],[13.5598,37.3677],[13.5588,37.3651],[13.5565,37.3624],[13.554,37.3679],[13.5463,37.3732],[13.5445,37.3734],[13.531,37.3806],[13.523,37.3828],[13.5176,37.3909],[13.5128,37.3935],[13.5069,37.3927],[13.502,37.3931],[13.4928,37.3995],[13.4924,37.404],[13.4964,37.4055],[13.5098,37.4164],[13.5149,37.4253],[13.5124,37.4318],[13.5086,37.4374],[13.5075,37.4405],[13.5138,37.441]]]}},{"type":"Feature","properties":{"i":"084031","n":"Ravanusa"},"geometry":{"type":"Polygon","coordinates":[[[14.0228,37.2878],[14.0245,37.293],[14.0315,37.2922],[14.0312,37.2833],[14.0299,37.2814],[14.0281,37.2749],[14.0096,37.2625],[14.0095,37.2611],[14.0118,37.26],[14.0149,37.2612],[14.0174,37.259],[14.0176,37.2559],[14.0138,37.2499],[14.0067,37.2414],[14.0082,37.2338],[14.0158,37.2297],[14.0156,37.2275],[14.0126,37.226],[14.0075,37.2261],[13.9997,37.2238],[13.9925,37.2205],[13.9936,37.2069],[13.9946,37.2038],[13.9978,37.2],[14.0027,37.1975],[14.0043,37.1936],[14.003,37.1925],[13.999,37.1919],[13.9959,37.1926],[13.9941,37.1939],[13.9937,37.1952],[13.9915,37.1951],[13.9856,37.1925],[13.9823,37.1931],[13.976,37.1898],[13.971,37.1983],[13.9699,37.2013],[13.9703,37.2032],[13.9629,37.2076],[13.9569,37.208],[13.9513,37.2109],[13.9512,37.2139],[13.953,37.222],[13.951,37.2255],[13.9531,37.2345],[13.9575,37.2404],[13.9694,37.2438],[13.9749,37.2554],[13.9741,37.2581],[13.9664,37.2605],[13.9617,37.2573],[13.9577,37.257],[13.9551,37.2587],[13.9566,37.2684],[13.9551,37.2704],[13.9435,37.2708],[13.9414,37.2718],[13.9385,37.2751],[13.946,37.2795],[13.9529,37.2804],[13.9577,37.2807],[13.9619,37.2801],[13.9628,37.2787],[13.9656,37.2775],[13.9667,37.2828],[13.9661,37.286],[13.9745,37.2921],[13.983,37.2949],[13.9944,37.2951],[13.9967,37.2931],[14.0055,37.2926],[14.0156,37.2862],[14.0181,37.2856],[14.0222,37.2865],[14.0228,37.2878]]]}},{"type":"Feature","properties":{"i":"084032","n":"Realmonte"},"geometry":{"type":"Polygon","coordinates":[[[13.4612,37.3284],[13.4729,37.3243],[13.4819,37.3197],[13.4786,37.3147],[13.4802,37.3082],[13.483,37.3067],[13.4862,37.3015],[13.4881,37.2931],[13.488,37.289],[13.485,37.2892],[13.4818,37.2874],[13.4792,37.287],[13.4722,37.2904],[13.4703,37.2929],[13.4662,37.2948],[13.4557,37.2947],[13.4485,37.296],[13.4377,37.3021],[13.4293,37.3039],[13.4264,37.3071],[13.4269,37.3086],[13.4252,37.3115],[13.4166,37.3182],[13.4127,37.3234],[13.4166,37.3252],[13.4193,37.3248],[13.4234,37.3254],[13.4269,37.3285],[13.429,37.3321],[13.438,37.3332],[13.4424,37.3372],[13.4435,37.3404],[13.445,37.3387],[13.4612,37.3284]]]}},{"type":"Feature","properties":{"i":"084033","n":"Ribera"},"geometry":{"type":"Polygon","coordinates":[[[13.3733,37.4849],[13.3768,37.4822],[13.3824,37.4671],[13.3823,37.4585],[13.3773,37.4531],[13.367,37.4466],[13.3613,37.4447],[13.3512,37.4374],[13.3236,37.431],[13.3118,37.4298],[13.3095,37.4306],[13.3048,37.4291],[13.2985,37.4232],[13.2975,37.4215],[13.2978,37.4208],[13.2863,37.4142],[13.2937,37.4111],[13.2954,37.4088],[13.2797,37.4039],[13.2775,37.402],[13.2805,37.4011],[13.2804,37.4001],[13.2712,37.396],[13.2701,37.396],[13.26,37.4168],[13.2556,37.4223],[13.2472,37.4297],[13.2397,37.4332],[13.2351,37.4371],[13.2307,37.442],[13.2223,37.454],[13.2172,37.4592],[13.2091,37.4641],[13.2063,37.4647],[13.2025,37.4641],[13.2039,37.4688],[13.2034,37.4717],[13.2023,37.4726],[13.2057,37.476],[13.2243,37.4864],[13.2275,37.489],[13.2384,37.5],[13.2405,37.503],[13.2397,37.5068],[13.2423,37.5111],[13.2454,37.5121],[13.2514,37.5173],[13.2577,37.5247],[13.2577,37.5263],[13.2637,37.5312],[13.2685,37.5314],[13.2781,37.5281],[13.2861,37.5235],[13.2912,37.5184],[13.3,37.5183],[13.3084,37.5151],[13.3193,37.5092],[13.321,37.5067],[13.3122,37.4975],[13.3127,37.49],[13.3219,37.4887],[13.3344,37.4797],[13.3407,37.481],[13.3464,37.4846],[13.3504,37.4854],[13.3564,37.4853],[13.3615,37.4838],[13.3682,37.4838],[13.3733,37.4849]]]}},{"type":"Feature","properties":{"i":"084034","n":"Sambuca di Sicilia"},"geometry":{"type":"Polygon","coordinates":[[[13.1878,37.6916],[13.193,37.6833],[13.2045,37.6769],[13.2113,37.6754],[13.2139,37.674],[13.215,37.6702],[13.2109,37.6503],[13.2091,37.6465],[13.2045,37.6482],[13.1873,37.6516],[13.1791,37.6516],[13.1711,37.648],[13.1687,37.6457],[13.1657,37.6459],[13.149,37.6422],[13.1444,37.6431],[13.1432,37.6391],[13.1438,37.6359],[13.1462,37.6314],[13.1455,37.6259],[13.1411,37.6234],[13.1355,37.6222],[13.1274,37.6187],[13.1235,37.6157],[13.1147,37.6134],[13.1059,37.6136],[13.1012,37.6149],[13.0932,37.6211],[13.083,37.6235],[13.0799,37.627],[13.0797,37.6327],[13.0764,37.6336],[13.0685,37.6315],[13.0639,37.6234],[13.0588,37.6179],[13.0482,37.6123],[13.0415,37.6153],[13.0321,37.6177],[13.0039,37.623],[13.003,37.6266],[13.0033,37.6286],[13.0049,37.6295],[13.0117,37.6383],[13.0138,37.6442],[13.0082,37.6558],[13.0158,37.6592],[13.0225,37.6586],[13.0281,37.6509],[13.0462,37.6452],[13.0536,37.6407],[13.0616,37.6333],[13.0619,37.6357],[13.0611,37.6381],[13.0658,37.6482],[13.0741,37.6583],[13.0782,37.6889],[13.0794,37.6902],[13.0796,37.6924],[13.0828,37.6937],[13.1002,37.694],[13.1108,37.6987],[13.1236,37.7015],[13.1262,37.7007],[13.144,37.689],[13.1483,37.6873],[13.1596,37.6874],[13.1618,37.6895],[13.1677,37.6913],[13.1797,37.6921],[13.1878,37.6916]]]}},{"type":"Feature","properties":{"i":"084035","n":"San Biagio Platani"},"geometry":{"type":"Polygon","coordinates":[[[13.6006,37.4955],[13.6002,37.4945],[13.6012,37.4929],[13.6055,37.4893],[13.5986,37.4809],[13.5886,37.4791],[13.5807,37.4898],[13.5667,37.4898],[13.5658,37.4925],[13.5633,37.4943],[13.5564,37.4935],[13.5511,37.4875],[13.5224,37.4918],[13.5199,37.491],[13.519,37.4895],[13.5069,37.4855],[13.486,37.4883],[13.4815,37.4937],[13.4824,37.4964],[13.495,37.4991],[13.5005,37.5044],[13.5043,37.5118],[13.5061,37.5186],[13.5066,37.5275],[13.5112,37.5333],[13.5116,37.5362],[13.5189,37.5381],[13.5247,37.5461],[13.5227,37.5475],[13.5255,37.5518],[13.5302,37.5547],[13.5342,37.5559],[13.5428,37.5551],[13.548,37.553],[13.55,37.5514],[13.5552,37.544],[13.5573,37.5397],[13.5549,37.5361],[13.5504,37.5335],[13.5482,37.5274],[13.5483,37.5255],[13.5493,37.5241],[13.5553,37.5188],[13.5761,37.5159],[13.5976,37.51],[13.6001,37.504],[13.5978,37.4996],[13.5993,37.4963],[13.6006,37.4955]]]}},{"type":"Feature","properties":{"i":"084036","n":"San Giovanni Gemini"},"geometry":{"type":"Polygon","coordinates":[[[13.6806,37.6464],[13.6846,37.6484],[13.6874,37.6457],[13.6915,37.6339],[13.6915,37.6259],[13.6859,37.6166],[13.673,37.6121],[13.6674,37.609],[13.6532,37.5961],[13.6317,37.5909],[13.6213,37.5902],[13.6147,37.5995],[13.6051,37.6058],[13.6046,37.6078],[13.6101,37.6199],[13.6244,37.6231],[13.6268,37.625],[13.6447,37.6346],[13.6564,37.6353],[13.6638,37.637],[13.666,37.6394],[13.6746,37.6446],[13.6806,37.6464]]]}},{"type":"Feature","properties":{"i":"084037","n":"Santa Elisabetta"},"geometry":{"type":"Polygon","coordinates":[[[13.5691,37.4191],[13.554,37.4237],[13.5519,37.4217],[13.5484,37.4207],[13.5423,37.4209],[13.5408,37.4249],[13.5352,37.428],[13.5258,37.4231],[13.5228,37.423],[13.521,37.425],[13.5209,37.4263],[13.5231,37.4319],[13.519,37.4361],[13.5159,37.4381],[13.5138,37.441],[13.5334,37.4543],[13.543,37.4546],[13.5569,37.4536],[13.5629,37.4572],[13.5658,37.4599],[13.5661,37.4614],[13.5716,37.4647],[13.5751,37.4657],[13.5765,37.4638],[13.5762,37.4556],[13.5738,37.4508],[13.5648,37.4401],[13.5645,37.4346],[13.5697,37.4333],[13.5776,37.4291],[13.5773,37.4269],[13.5691,37.4191]]]}},{"type":"Feature","properties":{"i":"084038","n":"Santa Margherita di Belice"},"geometry":{"type":"Polygon","coordinates":[[[13.0794,37.6902],[13.0782,37.6889],[13.0741,37.6583],[13.0658,37.6482],[13.0611,37.6381],[13.0619,37.6357],[13.0616,37.6333],[13.0536,37.6407],[13.0462,37.6452],[13.0281,37.6509],[13.0235,37.6576],[13.0216,37.659],[13.0137,37.6587],[13.0066,37.6552],[12.9983,37.6551],[12.9974,37.6557],[12.9858,37.6702],[12.9811,37.6792],[12.9815,37.6816],[12.9943,37.7018],[12.9833,37.7123],[12.9759,37.7156],[12.9691,37.7215],[12.9643,37.7292],[12.9874,37.7344],[12.99,37.7388],[12.9894,37.7405],[12.9929,37.7422],[12.9944,37.7419],[12.9971,37.7394],[12.9967,37.7358],[12.9977,37.7354],[13.0057,37.7378],[13.0079,37.7392],[13.0098,37.7417],[13.0121,37.7426],[13.0206,37.7417],[13.0266,37.7395],[13.034,37.7337],[13.0352,37.7278],[13.0412,37.721],[13.0467,37.712],[13.0542,37.7069],[13.0639,37.7019],[13.0794,37.6902]]]}},{"type":"Feature","properties":{"i":"084039","n":"Sant'Angelo Muxaro"},"geometry":{"type":"Polygon","coordinates":[[[13.6131,37.4872],[13.6095,37.4857],[13.6026,37.4746],[13.6007,37.4676],[13.6025,37.4603],[13.6005,37.4561],[13.6025,37.4425],[13.6014,37.4387],[13.5988,37.4364],[13.5956,37.4357],[13.5903,37.4364],[13.5885,37.4389],[13.5876,37.4494],[13.5918,37.4544],[13.5928,37.4595],[13.5923,37.4621],[13.5802,37.4659],[13.5767,37.4662],[13.5716,37.4647],[13.5661,37.4614],[13.5645,37.4587],[13.5578,37.4539],[13.5557,37.4533],[13.5486,37.4544],[13.5334,37.4543],[13.5138,37.441],[13.5038,37.4408],[13.499,37.4399],[13.49,37.4352],[13.482,37.4379],[13.4764,37.4438],[13.457,37.4442],[13.4383,37.4491],[13.435,37.4528],[13.4354,37.4552],[13.4369,37.4566],[13.4364,37.4589],[13.4334,37.4603],[13.4349,37.4631],[13.4447,37.4703],[13.4448,37.4756],[13.4439,37.4769],[13.4461,37.484],[13.4493,37.4893],[13.4549,37.4912],[13.4573,37.4902],[13.4582,37.4865],[13.4597,37.4846],[13.4622,37.4836],[13.4659,37.484],[13.4743,37.4869],[13.4771,37.492],[13.4801,37.4941],[13.4815,37.4937],[13.486,37.4883],[13.5069,37.4855],[13.519,37.4895],[13.5199,37.491],[13.5224,37.4918],[13.5511,37.4875],[13.5564,37.4935],[13.5633,37.4943],[13.5658,37.4925],[13.5667,37.4898],[13.5807,37.4898],[13.5886,37.4791],[13.5986,37.4809],[13.6055,37.4893],[13.6012,37.4929],[13.6002,37.4945],[13.6006,37.4955],[13.6114,37.4906],[13.6123,37.491],[13.6107,37.4932],[13.6107,37.4948],[13.612,37.4958],[13.6137,37.4955],[13.6146,37.4892],[13.6131,37.4872]]]}},{"type":"Feature","properties":{"i":"084040","n":"Santo Stefano Quisquina"},"geometry":{"type":"Polygon","coordinates":[[[13.5691,37.6359],[13.5664,37.6335],[13.5604,37.631],[13.5515,37.619],[13.5482,37.6166],[13.5464,37.613],[13.5464,37.611],[13.5484,37.6066],[13.5648,37.5972],[13.5698,37.5969],[13.5725,37.5953],[13.5752,37.5887],[13.5755,37.5839],[13.5742,37.577],[13.5763,37.5716],[13.5633,37.5648],[13.5494,37.5603],[13.5377,37.5575],[13.5271,37.5532],[13.5233,37.5491],[13.5227,37.5475],[13.5247,37.5461],[13.5214,37.5409],[13.5189,37.5381],[13.5131,37.5363],[13.5116,37.5362],[13.5128,37.5389],[13.5088,37.545],[13.4903,37.5573],[13.4879,37.5636],[13.4912,37.5654],[13.4905,37.5709],[13.49,37.5721],[13.4862,37.5735],[13.4823,37.5805],[13.4747,37.5824],[13.4696,37.5825],[13.4683,37.5838],[13.4653,37.5913],[13.467,37.5974],[13.464,37.6007],[13.4613,37.6155],[13.4539,37.6156],[13.4543,37.6184],[13.4615,37.6352],[13.464,37.6444],[13.4637,37.6466],[13.4653,37.648],[13.469,37.6496],[13.5079,37.6588],[13.5115,37.6534],[13.5105,37.6481],[13.5113,37.6466],[13.5164,37.6424],[13.525,37.6386],[13.5365,37.6371],[13.5411,37.6384],[13.549,37.639],[13.5637,37.6355],[13.5691,37.6359]]]}},{"type":"Feature","properties":{"i":"084041","n":"Sciacca"},"geometry":{"type":"Polygon","coordinates":[[[13.113,37.6136],[13.1082,37.6038],[13.1063,37.5969],[13.1067,37.5949],[13.0997,37.5883],[13.1011,37.5828],[13.1077,37.5808],[13.1543,37.5776],[13.1642,37.5786],[13.1671,37.5742],[13.1684,37.5638],[13.1706,37.5582],[13.1727,37.5553],[13.1795,37.5511],[13.1933,37.5478],[13.1906,37.5433],[13.1905,37.5385],[13.1995,37.5347],[13.2212,37.5301],[13.2232,37.529],[13.2245,37.526],[13.2245,37.5233],[13.224,37.5162],[13.221,37.5042],[13.2193,37.4894],[13.2204,37.4843],[13.2057,37.476],[13.2023,37.4726],[13.2034,37.4717],[13.2039,37.4688],[13.2025,37.4641],[13.1962,37.465],[13.186,37.4797],[13.1728,37.4897],[13.1683,37.4923],[13.1544,37.4968],[13.1485,37.4973],[13.1378,37.4958],[13.1303,37.4926],[13.0984,37.5021],[13.0932,37.5033],[13.085,37.5036],[13.0767,37.5055],[13.0536,37.5039],[13.0488,37.5024],[13.0469,37.5005],[13.0385,37.4957],[13.02,37.4956],[13.0124,37.5],[13.0123,37.5012],[13.0152,37.5055],[13.0134,37.5105],[12.9936,37.5355],[12.9907,37.5382],[12.9945,37.542],[12.9989,37.5537],[13.0091,37.5695],[13.0186,37.5747],[13.0198,37.5788],[13.0198,37.5846],[13.022,37.5885],[13.0256,37.5921],[13.0369,37.5959],[13.0442,37.6046],[13.0442,37.6068],[13.0482,37.6123],[13.0588,37.6179],[13.0639,37.6234],[13.0685,37.6315],[13.0709,37.6325],[13.0764,37.6336],[13.0797,37.6327],[13.0799,37.627],[13.083,37.6235],[13.0932,37.6211],[13.1012,37.6149],[13.1059,37.6136],[13.113,37.6136]]]}},{"type":"Feature","properties":{"i":"084042","n":"Siculiana"},"geometry":{"type":"Polygon","coordinates":[[[13.4435,37.3404],[13.4424,37.3372],[13.438,37.3332],[13.429,37.3321],[13.4269,37.3285],[13.4234,37.3254],[13.4193,37.3248],[13.4166,37.3252],[13.4127,37.3234],[13.407,37.3294],[13.403,37.3324],[13.3992,37.3339],[13.3883,37.3355],[13.3823,37.3415],[13.375,37.3468],[13.3608,37.3521],[13.353,37.3575],[13.3448,37.3602],[13.342,37.3593],[13.3378,37.3597],[13.3217,37.3637],[13.3202,37.3651],[13.3177,37.3696],[13.3094,37.3786],[13.311,37.3804],[13.3158,37.381],[13.322,37.3893],[13.3305,37.3915],[13.3529,37.3773],[13.3534,37.3752],[13.3578,37.3703],[13.3644,37.368],[13.3683,37.3692],[13.3769,37.3665],[13.3779,37.365],[13.3844,37.3631],[13.3863,37.366],[13.3843,37.3685],[13.3848,37.3733],[13.395,37.3801],[13.402,37.3825],[13.4057,37.3811],[13.4144,37.3888],[13.4374,37.3758],[13.439,37.3722],[13.4381,37.37],[13.4334,37.3698],[13.4308,37.3717],[13.43,37.369],[13.4332,37.3593],[13.4347,37.3497],[13.4319,37.3492],[13.4328,37.3451],[13.4402,37.3426],[13.4435,37.3404]]]}},{"type":"Feature","properties":{"i":"084043","n":"Villafranca Sicula"},"geometry":{"type":"Polygon","coordinates":[[[13.3051,37.5614],[13.3025,37.5608],[13.3022,37.5552],[13.2967,37.5469],[13.2871,37.5438],[13.2815,37.5409],[13.2772,37.5354],[13.2701,37.5338],[13.2668,37.5355],[13.2685,37.5387],[13.2686,37.5412],[13.2661,37.5516],[13.2628,37.5562],[13.2616,37.5598],[13.2615,37.5633],[13.2629,37.5723],[13.2602,37.5779],[13.2591,37.5839],[13.2853,37.5923],[13.2877,37.5941],[13.2927,37.5883],[13.2987,37.5777],[13.3005,37.5709],[13.3051,37.5614]]]}}]}
