{"type":"FeatureCollection","fonte":"Confini comunali ISTAT via openpolis/geojson-italy — CC BY 4.0","features":[{"type":"Feature","properties":{"i":"042001","n":"Agugliano"},"geometry":{"type":"Polygon","coordinates":[[[13.3936,43.571],[13.3958,43.5678],[13.3982,43.5612],[13.4039,43.542],[13.3888,43.5369],[13.364,43.5349],[13.3468,43.5386],[13.3364,43.5448],[13.3302,43.5384],[13.3259,43.5478],[13.3271,43.5563],[13.3179,43.5592],[13.3243,43.565],[13.3308,43.5695],[13.3424,43.5656],[13.3463,43.5651],[13.3552,43.5683],[13.3659,43.577],[13.3734,43.5789],[13.376,43.578],[13.3745,43.5738],[13.3761,43.5708],[13.3882,43.5717],[13.3901,43.5747],[13.3919,43.5752],[13.3936,43.571]]]}},{"type":"Feature","properties":{"i":"042002","n":"Ancona"},"geometry":{"type":"Polygon","coordinates":[[[13.6091,43.559],[13.6034,43.543],[13.5934,43.5216],[13.5851,43.5173],[13.5788,43.5085],[13.5774,43.5102],[13.5716,43.5268],[13.57,43.5374],[13.5701,43.5453],[13.5525,43.5523],[13.5512,43.5525],[13.5479,43.5505],[13.5447,43.5474],[13.5368,43.549],[13.5318,43.5514],[13.5269,43.5478],[13.5254,43.5457],[13.5248,43.5441],[13.5251,43.5412],[13.5235,43.537],[13.5157,43.5327],[13.4865,43.5317],[13.4745,43.5351],[13.4622,43.5357],[13.4549,43.5386],[13.445,43.5467],[13.4373,43.5446],[13.4249,43.5379],[13.4192,43.5356],[13.4159,43.5352],[13.4109,43.5373],[13.4039,43.542],[13.3982,43.5612],[13.3958,43.5678],[13.3936,43.571],[13.3948,43.5764],[13.3996,43.5866],[13.4015,43.5866],[13.4033,43.5891],[13.4039,43.5957],[13.3989,43.5983],[13.3932,43.5964],[13.3922,43.5947],[13.394,43.592],[13.3917,43.5903],[13.3859,43.5938],[13.3802,43.5998],[13.3831,43.6066],[13.3964,43.6039],[13.4004,43.6021],[13.4013,43.6008],[13.4142,43.6009],[13.4163,43.6031],[13.4164,43.6071],[13.4185,43.6154],[13.4227,43.6205],[13.4368,43.6153],[13.4539,43.6105],[13.4816,43.6068],[13.488,43.6095],[13.4921,43.6131],[13.4906,43.6165],[13.4926,43.62],[13.4953,43.6225],[13.4995,43.6206],[13.5031,43.6177],[13.5032,43.6162],[13.5043,43.6155],[13.5086,43.6204],[13.5091,43.6221],[13.5068,43.6248],[13.4997,43.6255],[13.4997,43.6306],[13.5026,43.6315],[13.5069,43.6305],[13.5108,43.6284],[13.5118,43.6276],[13.5119,43.6259],[13.5149,43.6244],[13.5262,43.6216],[13.5517,43.6029],[13.5662,43.5872],[13.5657,43.5844],[13.5694,43.5753],[13.5727,43.5713],[13.5759,43.5688],[13.5866,43.5644],[13.5907,43.5643],[13.6006,43.5616],[13.6046,43.5596],[13.6091,43.559]]]}},{"type":"Feature","properties":{"i":"042003","n":"Arcevia"},"geometry":{"type":"Polygon","coordinates":[[[13.0009,43.595],[13.0005,43.5882],[12.9968,43.5789],[13.0004,43.5745],[13.0061,43.5709],[13.0102,43.5697],[13.0129,43.5708],[13.0212,43.5657],[13.0235,43.5634],[13.0218,43.561],[13.0204,43.5612],[13.0167,43.5567],[13.0123,43.5489],[13.0087,43.5401],[13.0083,43.5338],[13.0134,43.5321],[13.0174,43.5197],[13.0237,43.5095],[13.0266,43.509],[13.0258,43.508],[13.0271,43.5028],[13.0241,43.4926],[13.02,43.4886],[13.0172,43.4898],[13.0016,43.4779],[12.9926,43.4749],[12.9861,43.4692],[12.9847,43.4674],[12.9845,43.4653],[12.9874,43.459],[12.9837,43.4545],[12.9756,43.4483],[12.9726,43.4503],[12.9671,43.4512],[12.9634,43.4594],[12.9619,43.4716],[12.9626,43.4802],[12.9565,43.4825],[12.9426,43.4812],[12.9299,43.4812],[12.9156,43.4724],[12.909,43.4672],[12.8997,43.4685],[12.8973,43.4673],[12.8862,43.476],[12.8825,43.4798],[12.8801,43.4845],[12.8799,43.4881],[12.8808,43.4929],[12.8849,43.4957],[12.8917,43.4978],[12.8934,43.5077],[12.8912,43.5123],[12.8846,43.5172],[12.8745,43.5194],[12.8731,43.5225],[12.8792,43.5277],[12.8781,43.5353],[12.8768,43.5361],[12.9073,43.5588],[12.92,43.5721],[12.9217,43.575],[12.9215,43.5782],[12.9213,43.5793],[12.9178,43.5824],[12.9189,43.5841],[12.923,43.5878],[12.9252,43.5866],[12.9281,43.5864],[12.9385,43.5915],[12.9409,43.5961],[12.9435,43.5971],[12.955,43.5977],[12.9577,43.5963],[12.9585,43.5912],[12.9741,43.5863],[12.9797,43.5857],[12.991,43.5903],[12.9977,43.5951],[13.0009,43.595]]]}},{"type":"Feature","properties":{"i":"042004","n":"Barbara"},"geometry":{"type":"Polygon","coordinates":[[[13.058,43.5758],[13.047,43.5713],[13.0345,43.5686],[13.0281,43.5685],[13.0216,43.5653],[13.0129,43.5708],[13.0102,43.5697],[13.0061,43.5709],[13.0004,43.5745],[12.9968,43.5789],[13.0005,43.5882],[13.0009,43.595],[13.0019,43.5966],[13.0058,43.5989],[13.0191,43.6007],[13.0205,43.5991],[13.0288,43.5982],[13.0344,43.5962],[13.0369,43.5928],[13.0381,43.589],[13.0369,43.5851],[13.0433,43.5791],[13.0504,43.5766],[13.058,43.5758]]]}},{"type":"Feature","properties":{"i":"042005","n":"Belvedere Ostrense"},"geometry":{"type":"Polygon","coordinates":[[[13.1884,43.6043],[13.1919,43.6015],[13.2009,43.591],[13.2031,43.5851],[13.2022,43.5838],[13.1964,43.5824],[13.1926,43.5804],[13.1775,43.5669],[13.1729,43.5575],[13.1713,43.5523],[13.1744,43.5503],[13.1743,43.5475],[13.1733,43.5456],[13.1698,43.5425],[13.1633,43.5421],[13.1581,43.5389],[13.1578,43.5338],[13.1494,43.5318],[13.1412,43.5396],[13.1324,43.5385],[13.1277,43.5412],[13.1257,43.5476],[13.1173,43.5543],[13.118,43.556],[13.1222,43.5602],[13.1254,43.5668],[13.1188,43.5694],[13.1172,43.5715],[13.1237,43.5783],[13.1219,43.5853],[13.1242,43.5884],[13.1256,43.5891],[13.1359,43.5861],[13.1395,43.5859],[13.1454,43.5905],[13.1525,43.5944],[13.1543,43.5923],[13.1582,43.5918],[13.1727,43.5933],[13.1848,43.6048],[13.1884,43.6043]]]}},{"type":"Feature","properties":{"i":"042006","n":"Camerano"},"geometry":{"type":"Polygon","coordinates":[[[13.5788,43.5085],[13.5756,43.5069],[13.574,43.5044],[13.5723,43.4941],[13.564,43.4982],[13.5567,43.5004],[13.5554,43.5],[13.5521,43.5026],[13.5443,43.5042],[13.5389,43.5061],[13.5306,43.5114],[13.5278,43.5144],[13.522,43.5251],[13.5151,43.5327],[13.5178,43.5334],[13.5235,43.537],[13.5251,43.5412],[13.5248,43.5441],[13.5254,43.5457],[13.5269,43.5478],[13.5318,43.5514],[13.5368,43.549],[13.5447,43.5474],[13.5512,43.5525],[13.5551,43.5514],[13.5701,43.5453],[13.57,43.5374],[13.5716,43.5268],[13.5774,43.5102],[13.5788,43.5085]]]}},{"type":"Feature","properties":{"i":"042007","n":"Camerata Picena"},"geometry":{"type":"Polygon","coordinates":[[[13.3936,43.571],[13.3919,43.5752],[13.3901,43.5747],[13.3882,43.5717],[13.3761,43.5708],[13.3745,43.5738],[13.376,43.578],[13.3734,43.5789],[13.3659,43.577],[13.3552,43.5683],[13.3463,43.5651],[13.3348,43.568],[13.3308,43.5695],[13.3328,43.5717],[13.3336,43.591],[13.3485,43.5873],[13.3654,43.5883],[13.3723,43.5917],[13.3762,43.5959],[13.376,43.5972],[13.3802,43.5998],[13.3859,43.5938],[13.3922,43.5903],[13.394,43.592],[13.3922,43.5947],[13.3932,43.5964],[13.3989,43.5983],[13.4005,43.5979],[13.4042,43.5953],[13.4036,43.5898],[13.4015,43.5866],[13.3996,43.5866],[13.3948,43.5764],[13.3936,43.571]]]}},{"type":"Feature","properties":{"i":"042008","n":"Castelbellino"},"geometry":{"type":"Polygon","coordinates":[[[13.1754,43.5063],[13.1915,43.4995],[13.1937,43.4962],[13.1806,43.4959],[13.1689,43.4973],[13.1637,43.4968],[13.1636,43.4936],[13.1605,43.4892],[13.1571,43.4857],[13.1548,43.4845],[13.1487,43.4827],[13.1471,43.4835],[13.1386,43.4842],[13.1337,43.4835],[13.1396,43.491],[13.1402,43.4985],[13.1431,43.5031],[13.1619,43.5056],[13.1754,43.5063]]]}},{"type":"Feature","properties":{"i":"042010","n":"Castelfidardo"},"geometry":{"type":"Polygon","coordinates":[[[13.5723,43.4941],[13.5771,43.4924],[13.584,43.4885],[13.5926,43.4772],[13.597,43.4745],[13.6063,43.4748],[13.6111,43.4741],[13.6242,43.4688],[13.6217,43.4665],[13.6092,43.464],[13.6054,43.4624],[13.6016,43.4595],[13.6016,43.458],[13.6035,43.4561],[13.5957,43.4465],[13.5941,43.4472],[13.5869,43.4434],[13.5611,43.4408],[13.5551,43.4412],[13.5368,43.4399],[13.5301,43.4401],[13.5173,43.4437],[13.5109,43.4435],[13.5138,43.4474],[13.5143,43.4545],[13.5173,43.4608],[13.5432,43.48],[13.5545,43.4967],[13.5554,43.5],[13.5567,43.5004],[13.564,43.4982],[13.5723,43.4941]]]}},{"type":"Feature","properties":{"i":"042011","n":"Castelleone di Suasa"},"geometry":{"type":"Polygon","coordinates":[[[13.0209,43.6023],[13.0205,43.5991],[13.0191,43.6007],[13.0058,43.5989],[13.0019,43.5966],[13.0009,43.595],[12.9977,43.5951],[12.991,43.5903],[12.9797,43.5857],[12.9741,43.5863],[12.9585,43.5912],[12.9577,43.5963],[12.9614,43.5983],[12.9779,43.6221],[12.9841,43.6372],[13.0012,43.6297],[13.0104,43.6221],[13.0151,43.6175],[13.0174,43.6092],[13.0209,43.6023]]]}},{"type":"Feature","properties":{"i":"042012","n":"Castelplanio"},"geometry":{"type":"Polygon","coordinates":[[[13.0843,43.4785],[13.0795,43.4847],[13.0749,43.4886],[13.0668,43.4927],[13.0698,43.5009],[13.084,43.511],[13.1074,43.5182],[13.1127,43.5162],[13.1142,43.5167],[13.1188,43.5251],[13.1249,43.5284],[13.1327,43.5309],[13.1389,43.5361],[13.1434,43.538],[13.1494,43.5318],[13.1388,43.523],[13.1369,43.5186],[13.1272,43.5093],[13.1204,43.5063],[13.1213,43.4996],[13.1239,43.4967],[13.1183,43.4951],[13.1093,43.4954],[13.0975,43.4902],[13.0956,43.4866],[13.0886,43.4807],[13.0843,43.4785]]]}},{"type":"Feature","properties":{"i":"042013","n":"Cerreto d'Esi"},"geometry":{"type":"Polygon","coordinates":[[[12.9825,43.2927],[12.9745,43.2936],[12.9692,43.3006],[12.9645,43.3091],[12.9643,43.3237],[12.9677,43.3289],[12.9783,43.335],[12.983,43.337],[12.9871,43.3371],[12.994,43.3359],[12.9958,43.334],[13.0057,43.3324],[13.0131,43.3291],[13.0159,43.3268],[13.0205,43.3269],[13.0231,43.3295],[13.0234,43.3384],[13.0253,43.3435],[13.0332,43.3467],[13.0371,43.3453],[13.0339,43.3413],[13.0405,43.3361],[13.0269,43.3279],[13.0233,43.3236],[13.0148,43.3102],[13.0069,43.3053],[12.9992,43.305],[12.9883,43.3018],[12.9855,43.2928],[12.9825,43.2927]]]}},{"type":"Feature","properties":{"i":"042014","n":"Chiaravalle"},"geometry":{"type":"Polygon","coordinates":[[[13.3688,43.5905],[13.3654,43.5883],[13.3485,43.5873],[13.3337,43.5914],[13.3336,43.5848],[13.3203,43.5882],[13.3172,43.5918],[13.3168,43.5962],[13.3138,43.5995],[13.3098,43.6025],[13.306,43.6024],[13.2969,43.6045],[13.2818,43.6151],[13.2781,43.6185],[13.2776,43.6216],[13.2821,43.6285],[13.2876,43.6292],[13.2924,43.6273],[13.3019,43.6185],[13.2996,43.6165],[13.3012,43.6151],[13.3027,43.6142],[13.3065,43.614],[13.3173,43.6178],[13.3282,43.6318],[13.3368,43.6267],[13.3434,43.6246],[13.3467,43.6225],[13.3475,43.6215],[13.346,43.6171],[13.348,43.6046],[13.3495,43.6022],[13.351,43.6008],[13.3597,43.5967],[13.3627,43.5967],[13.3676,43.5948],[13.3688,43.5905]]]}},{"type":"Feature","properties":{"i":"042015","n":"Corinaldo"},"geometry":{"type":"Polygon","coordinates":[[[13.1012,43.6429],[13.0993,43.6371],[13.095,43.6303],[13.0953,43.6278],[13.0705,43.6284],[13.0658,43.6294],[13.0596,43.6288],[13.0564,43.6255],[13.0468,43.6197],[13.0414,43.6175],[13.0259,43.6046],[13.0209,43.6023],[13.0174,43.6092],[13.0151,43.6175],[13.0104,43.6221],[13.0012,43.6297],[12.9841,43.6372],[12.988,43.6498],[12.9862,43.6554],[12.9949,43.6554],[13.0042,43.6583],[13.0154,43.6651],[13.0209,43.6731],[13.0228,43.6745],[13.0264,43.6759],[13.0331,43.6748],[13.0387,43.6762],[13.0438,43.6803],[13.0698,43.693],[13.0771,43.6898],[13.0821,43.6865],[13.0831,43.6826],[13.0802,43.6697],[13.08,43.6653],[13.0862,43.6558],[13.0954,43.6505],[13.0991,43.6465],[13.1012,43.6429]]]}},{"type":"Feature","properties":{"i":"042016","n":"Cupramontana"},"geometry":{"type":"Polygon","coordinates":[[[13.1577,43.4511],[13.1548,43.4502],[13.1506,43.4456],[13.1499,43.4427],[13.1515,43.4309],[13.1479,43.4267],[13.1468,43.4204],[13.1489,43.4188],[13.1446,43.4167],[13.1366,43.4171],[13.134,43.4183],[13.1295,43.4245],[13.1256,43.4277],[13.119,43.4293],[13.1083,43.43],[13.0977,43.4358],[13.0918,43.4359],[13.092,43.4419],[13.0882,43.4482],[13.0813,43.4536],[13.0704,43.4583],[13.0625,43.4638],[13.0612,43.4664],[13.0756,43.4707],[13.0988,43.4663],[13.1034,43.464],[13.1073,43.4633],[13.117,43.4681],[13.1214,43.4689],[13.1307,43.4693],[13.1366,43.4674],[13.1434,43.4672],[13.162,43.4729],[13.1777,43.4803],[13.1798,43.4768],[13.1753,43.4758],[13.1693,43.4692],[13.1608,43.4644],[13.1605,43.4649],[13.154,43.4631],[13.1499,43.4608],[13.1515,43.457],[13.1552,43.4526],[13.1577,43.4511]]]}},{"type":"Feature","properties":{"i":"042017","n":"Fabriano"},"geometry":{"type":"Polygon","coordinates":[[[13.0622,43.3812],[13.0639,43.3779],[13.0637,43.3697],[13.0619,43.3665],[13.0542,43.3629],[13.048,43.3577],[13.0462,43.354],[13.0439,43.3426],[13.0356,43.3398],[13.0338,43.3416],[13.0371,43.3453],[13.0353,43.3464],[13.0332,43.3467],[13.0258,43.344],[13.0234,43.3384],[13.0231,43.3295],[13.0209,43.3272],[13.0159,43.3268],[13.0131,43.3291],[13.0057,43.3324],[12.9958,43.334],[12.994,43.3359],[12.9871,43.3371],[12.983,43.337],[12.9783,43.335],[12.9738,43.3329],[12.9667,43.3278],[12.9643,43.3237],[12.9645,43.3091],[12.9692,43.3006],[12.9745,43.2936],[12.9825,43.2927],[12.9804,43.2892],[12.9729,43.2837],[12.9246,43.2724],[12.9118,43.2702],[12.9075,43.2741],[12.9037,43.2802],[12.9025,43.2801],[12.897,43.2731],[12.8863,43.2703],[12.8833,43.2683],[12.8814,43.2654],[12.884,43.2534],[12.893,43.2353],[12.8972,43.232],[12.8976,43.229],[12.8918,43.2246],[12.8867,43.2246],[12.8773,43.2219],[12.8724,43.2176],[12.8682,43.2153],[12.8616,43.2132],[12.8613,43.2124],[12.8623,43.2113],[12.8511,43.2099],[12.8366,43.2175],[12.8385,43.2197],[12.8372,43.2245],[12.8344,43.2294],[12.8316,43.2321],[12.8283,43.2392],[12.8257,43.2485],[12.8267,43.2533],[12.8292,43.2569],[12.8287,43.2606],[12.8235,43.2668],[12.8037,43.2713],[12.789,43.2832],[12.7892,43.2845],[12.7926,43.2877],[12.7996,43.2908],[12.801,43.2948],[12.8024,43.3047],[12.7992,43.3198],[12.7941,43.334],[12.7911,43.3373],[12.7825,43.3412],[12.7821,43.3456],[12.7786,43.3463],[12.7731,43.3503],[12.7701,43.36],[12.7648,43.3631],[12.7593,43.3644],[12.7586,43.3656],[12.7836,43.3734],[12.789,43.3778],[12.7919,43.3786],[12.8032,43.3797],[12.8119,43.3793],[12.8294,43.3769],[12.8336,43.3775],[12.8429,43.3815],[12.8461,43.3842],[12.8484,43.3885],[12.8479,43.3932],[12.8496,43.397],[12.8523,43.3969],[12.8535,43.3931],[12.8579,43.3888],[12.8668,43.3876],[12.8751,43.3886],[12.8885,43.3954],[12.8889,43.3942],[12.8956,43.3873],[12.9031,43.3813],[12.9038,43.3773],[12.9027,43.3737],[12.9034,43.3738],[12.9069,43.3764],[12.9135,43.3833],[12.924,43.3881],[12.9313,43.3901],[12.9364,43.3932],[12.9426,43.399],[12.9491,43.4007],[12.9551,43.3995],[12.9635,43.3964],[12.9712,43.3786],[12.9768,43.3715],[12.9911,43.3707],[12.9967,43.3742],[12.9986,43.3762],[12.9892,43.3837],[12.9874,43.3866],[12.988,43.3935],[12.9913,43.3987],[12.9884,43.4043],[12.9867,43.4098],[12.994,43.4197],[12.9969,43.4214],[12.9968,43.423],[12.9947,43.4244],[12.997,43.4271],[13.0118,43.4306],[13.0177,43.4288],[13.0202,43.4264],[13.0206,43.4237],[13.0255,43.419],[13.0303,43.4193],[13.0333,43.4203],[13.0344,43.4219],[13.0389,43.4232],[13.0438,43.4219],[13.0531,43.4138],[13.0569,43.3884],[13.0622,43.3812]]]}},{"type":"Feature","properties":{"i":"042018","n":"Falconara Marittima"},"geometry":{"type":"Polygon","coordinates":[[[13.4227,43.6205],[13.4185,43.6154],[13.4164,43.6071],[13.4163,43.6031],[13.4142,43.6009],[13.4013,43.6008],[13.4004,43.6021],[13.3964,43.6039],[13.3831,43.6066],[13.3802,43.5998],[13.376,43.5972],[13.3762,43.5959],[13.3723,43.5917],[13.3688,43.5905],[13.3676,43.5948],[13.3627,43.5967],[13.3597,43.5967],[13.351,43.6008],[13.3495,43.6022],[13.348,43.6046],[13.346,43.6171],[13.3475,43.6215],[13.3467,43.6225],[13.3434,43.6246],[13.3368,43.6267],[13.3282,43.6318],[13.3328,43.6349],[13.3462,43.639],[13.346,43.6403],[13.3419,43.6457],[13.3482,43.6513],[13.3551,43.6481],[13.3754,43.644],[13.388,43.6383],[13.3896,43.6373],[13.3883,43.637],[13.3891,43.6358],[13.3971,43.6313],[13.4227,43.6205]]]}},{"type":"Feature","properties":{"i":"042019","n":"Filottrano"},"geometry":{"type":"Polygon","coordinates":[[[13.4139,43.4356],[13.4123,43.4351],[13.4012,43.4233],[13.391,43.4188],[13.3751,43.4143],[13.3688,43.411],[13.3598,43.4059],[13.3564,43.4019],[13.3562,43.3984],[13.351,43.395],[13.3359,43.3915],[13.3362,43.3934],[13.3351,43.3957],[13.3316,43.3953],[13.3258,43.3961],[13.315,43.399],[13.3109,43.4023],[13.3079,43.408],[13.3019,43.4144],[13.2887,43.4232],[13.2852,43.4307],[13.2832,43.4428],[13.2771,43.4473],[13.2714,43.4558],[13.2786,43.4586],[13.2808,43.4612],[13.2833,43.4619],[13.3041,43.4597],[13.3067,43.4631],[13.3166,43.4632],[13.3285,43.4667],[13.3366,43.468],[13.3541,43.4757],[13.3671,43.4771],[13.3789,43.4772],[13.4024,43.4743],[13.4068,43.4754],[13.4093,43.4675],[13.4092,43.4612],[13.4166,43.4566],[13.4165,43.449],[13.4139,43.4356]]]}},{"type":"Feature","properties":{"i":"042020","n":"Genga"},"geometry":{"type":"Polygon","coordinates":[[[12.9756,43.4483],[12.9733,43.4468],[12.973,43.4444],[12.9793,43.4397],[12.9842,43.4314],[12.9847,43.4287],[12.9865,43.4273],[12.9947,43.4244],[12.9971,43.4224],[12.9962,43.4205],[12.994,43.4197],[12.9867,43.4098],[12.9884,43.4043],[12.9913,43.3987],[12.988,43.3935],[12.9874,43.3866],[12.9892,43.3837],[12.9986,43.3762],[12.9967,43.3742],[12.9911,43.3707],[12.9768,43.3715],[12.9712,43.3786],[12.9635,43.3964],[12.9495,43.4007],[12.9426,43.399],[12.9364,43.3932],[12.9313,43.3901],[12.924,43.3881],[12.9135,43.3833],[12.9056,43.3752],[12.9027,43.3737],[12.9038,43.3773],[12.9031,43.3813],[12.8956,43.3873],[12.8889,43.3942],[12.8894,43.4059],[12.8759,43.4165],[12.8694,43.4182],[12.8717,43.4251],[12.8855,43.4332],[12.8963,43.4377],[12.8939,43.443],[12.8912,43.4447],[12.8896,43.447],[12.889,43.4481],[12.8898,43.4492],[12.9029,43.4568],[12.9059,43.4605],[12.909,43.4672],[12.9156,43.4724],[12.9299,43.4812],[12.9426,43.4812],[12.9565,43.4825],[12.9626,43.4802],[12.9619,43.4716],[12.9634,43.4594],[12.9671,43.4512],[12.9726,43.4503],[12.9756,43.4483]]]}},{"type":"Feature","properties":{"i":"042021","n":"Jesi"},"geometry":{"type":"Polygon","coordinates":[[[13.3336,43.5848],[13.3324,43.5707],[13.3243,43.565],[13.3179,43.5592],[13.3271,43.5563],[13.3259,43.5478],[13.3302,43.5384],[13.3295,43.5326],[13.3344,43.5289],[13.3391,43.527],[13.3405,43.5218],[13.3397,43.5155],[13.3405,43.5105],[13.3444,43.5077],[13.3443,43.5064],[13.3411,43.5044],[13.3315,43.5048],[13.3252,43.5096],[13.3244,43.5114],[13.325,43.5131],[13.3245,43.5149],[13.3209,43.5146],[13.3101,43.5107],[13.2973,43.494],[13.2964,43.4899],[13.303,43.4694],[13.3067,43.4631],[13.3041,43.4597],[13.2833,43.4619],[13.2659,43.4601],[13.2444,43.4594],[13.235,43.463],[13.2206,43.4666],[13.2157,43.4659],[13.2071,43.4734],[13.2104,43.4787],[13.2134,43.4873],[13.2198,43.4981],[13.2105,43.4979],[13.2021,43.4961],[13.1937,43.4962],[13.1915,43.4995],[13.1754,43.5063],[13.1734,43.5088],[13.1743,43.5141],[13.169,43.5225],[13.1736,43.5239],[13.1743,43.5248],[13.1738,43.5275],[13.1764,43.5346],[13.1874,43.5379],[13.2066,43.5387],[13.2115,43.5416],[13.2107,43.5442],[13.2116,43.5474],[13.2181,43.5535],[13.2247,43.5575],[13.2291,43.5574],[13.2299,43.5591],[13.2311,43.5571],[13.2326,43.5563],[13.247,43.5559],[13.2578,43.5502],[13.2635,43.5487],[13.266,43.5529],[13.272,43.5538],[13.278,43.5533],[13.2843,43.5558],[13.2929,43.563],[13.2972,43.5678],[13.303,43.5784],[13.3049,43.5801],[13.3079,43.5796],[13.312,43.5813],[13.3199,43.5864],[13.3203,43.5882],[13.3336,43.5848]]]}},{"type":"Feature","properties":{"i":"042022","n":"Loreto"},"geometry":{"type":"Polygon","coordinates":[[[13.6315,43.4208],[13.6272,43.4188],[13.618,43.4172],[13.588,43.4196],[13.58,43.4288],[13.5817,43.4332],[13.5885,43.4366],[13.6035,43.4561],[13.6272,43.452],[13.6328,43.4484],[13.6345,43.445],[13.6556,43.4473],[13.6584,43.4341],[13.6574,43.4319],[13.6524,43.4292],[13.642,43.427],[13.6336,43.4228],[13.6315,43.4208]]]}},{"type":"Feature","properties":{"i":"042023","n":"Maiolati Spontini"},"geometry":{"type":"Polygon","coordinates":[[[13.1578,43.5338],[13.1641,43.5269],[13.1685,43.5239],[13.1743,43.5141],[13.1746,43.5129],[13.1733,43.5097],[13.1754,43.5063],[13.1619,43.5056],[13.1431,43.5031],[13.1402,43.4985],[13.1396,43.491],[13.1337,43.4835],[13.128,43.4791],[13.1333,43.4728],[13.132,43.4702],[13.1307,43.4693],[13.117,43.4681],[13.1073,43.4633],[13.1034,43.464],[13.0988,43.4663],[13.0756,43.4707],[13.0758,43.4739],[13.0886,43.4807],[13.0956,43.4866],[13.0971,43.49],[13.1093,43.4954],[13.1183,43.4951],[13.1239,43.4967],[13.1213,43.4996],[13.1204,43.5063],[13.1272,43.5093],[13.1369,43.5186],[13.1388,43.523],[13.1494,43.5318],[13.1578,43.5338]]]}},{"type":"Feature","properties":{"i":"042024","n":"Mergo"},"geometry":{"type":"Polygon","coordinates":[[[13.02,43.4886],[13.0337,43.4869],[13.0545,43.4743],[13.0631,43.4673],[13.0612,43.4664],[13.0543,43.46],[13.0469,43.456],[13.0448,43.4562],[13.0439,43.4594],[13.0413,43.4634],[13.0355,43.469],[13.0288,43.4722],[13.0265,43.4716],[13.0186,43.4731],[13.0109,43.4779],[13.0071,43.4817],[13.0172,43.4898],[13.02,43.4886]]]}},{"type":"Feature","properties":{"i":"042025","n":"Monsano"},"geometry":{"type":"Polygon","coordinates":[[[13.3049,43.5801],[13.303,43.5784],[13.2972,43.5678],[13.2929,43.563],[13.2843,43.5558],[13.278,43.5533],[13.272,43.5538],[13.266,43.5529],[13.2635,43.5487],[13.2578,43.5502],[13.247,43.5559],[13.2326,43.5563],[13.2311,43.5571],[13.2299,43.5591],[13.2363,43.5714],[13.2456,43.5752],[13.2585,43.5775],[13.2658,43.5799],[13.2741,43.5854],[13.2979,43.5845],[13.3002,43.5811],[13.3023,43.5798],[13.3049,43.5801]]]}},{"type":"Feature","properties":{"i":"042026","n":"Montecarotto"},"geometry":{"type":"Polygon","coordinates":[[[13.1173,43.5543],[13.1257,43.5476],[13.1204,43.5467],[13.1155,43.5416],[13.1144,43.5365],[13.1126,43.5333],[13.104,43.5269],[13.0936,43.5225],[13.0844,43.5207],[13.0722,43.5225],[13.0636,43.5178],[13.0584,43.5137],[13.051,43.5094],[13.0444,43.5091],[13.0405,43.5081],[13.037,43.5051],[13.0386,43.5023],[13.0357,43.501],[13.0339,43.502],[13.0304,43.507],[13.0258,43.508],[13.0266,43.509],[13.0419,43.5143],[13.0491,43.5175],[13.0517,43.5204],[13.0544,43.5302],[13.0536,43.5388],[13.058,43.5448],[13.0643,43.5501],[13.0693,43.5495],[13.0711,43.5501],[13.0784,43.5551],[13.0767,43.5584],[13.0729,43.5605],[13.0709,43.565],[13.073,43.5722],[13.083,43.5814],[13.0863,43.5804],[13.0914,43.5758],[13.0982,43.5668],[13.1061,43.5594],[13.1118,43.5555],[13.1173,43.5543]]]}},{"type":"Feature","properties":{"i":"042027","n":"Montemarciano"},"geometry":{"type":"Polygon","coordinates":[[[13.3282,43.6318],[13.3173,43.6178],[13.3061,43.6139],[13.3027,43.6142],[13.2996,43.6165],[13.3019,43.6185],[13.2924,43.6273],[13.2904,43.6282],[13.2876,43.6292],[13.2821,43.6285],[13.2804,43.6304],[13.2753,43.6318],[13.2739,43.6301],[13.2722,43.6252],[13.2731,43.6226],[13.272,43.6222],[13.267,43.6259],[13.2608,43.6323],[13.2675,43.6452],[13.2855,43.6531],[13.2953,43.651],[13.2989,43.6515],[13.3012,43.6604],[13.2976,43.6641],[13.2973,43.668],[13.3002,43.6721],[13.3482,43.6513],[13.3419,43.6457],[13.346,43.6403],[13.3462,43.639],[13.3328,43.6349],[13.3282,43.6318]]]}},{"type":"Feature","properties":{"i":"042029","n":"Monte Roberto"},"geometry":{"type":"Polygon","coordinates":[[[13.2071,43.4734],[13.2037,43.4757],[13.1942,43.4775],[13.1842,43.4759],[13.1798,43.4768],[13.1784,43.4796],[13.1771,43.4804],[13.1749,43.4785],[13.162,43.4729],[13.1434,43.4672],[13.1366,43.4674],[13.1307,43.4693],[13.1329,43.4712],[13.1333,43.4728],[13.128,43.4791],[13.1337,43.4835],[13.1386,43.4842],[13.1471,43.4835],[13.1487,43.4827],[13.1548,43.4845],[13.1571,43.4857],[13.1605,43.4892],[13.1636,43.4936],[13.1637,43.4968],[13.1689,43.4973],[13.1806,43.4959],[13.1953,43.4959],[13.2052,43.4963],[13.2105,43.4979],[13.2198,43.4981],[13.2134,43.4873],[13.2104,43.4787],[13.2071,43.4734]]]}},{"type":"Feature","properties":{"i":"042030","n":"Monte San Vito"},"geometry":{"type":"Polygon","coordinates":[[[13.2821,43.6285],[13.2776,43.6216],[13.2781,43.6185],[13.2826,43.6144],[13.2969,43.6045],[13.306,43.6024],[13.3098,43.6025],[13.3168,43.5962],[13.317,43.5921],[13.3203,43.5882],[13.3199,43.5864],[13.3082,43.5797],[13.3049,43.5801],[13.3031,43.5796],[13.3002,43.5811],[13.2979,43.5845],[13.2785,43.5849],[13.2726,43.586],[13.2683,43.5842],[13.2605,43.5851],[13.2487,43.5887],[13.2439,43.5909],[13.2422,43.5925],[13.2412,43.5957],[13.2446,43.6044],[13.2436,43.6075],[13.2405,43.6097],[13.2395,43.6119],[13.2419,43.6207],[13.2433,43.6222],[13.2547,43.6307],[13.2549,43.6316],[13.2608,43.6323],[13.267,43.6259],[13.272,43.6222],[13.2731,43.6226],[13.2722,43.6252],[13.2739,43.6301],[13.2753,43.6318],[13.2804,43.6304],[13.2821,43.6285]]]}},{"type":"Feature","properties":{"i":"042031","n":"Morro d'Alba"},"geometry":{"type":"Polygon","coordinates":[[[13.2549,43.6316],[13.2547,43.6307],[13.2419,43.6207],[13.2398,43.6136],[13.24,43.6104],[13.2436,43.6075],[13.2446,43.6044],[13.2412,43.5948],[13.2431,43.5915],[13.2459,43.5904],[13.2167,43.5853],[13.2071,43.5842],[13.2037,43.5848],[13.2009,43.591],[13.1919,43.6015],[13.1884,43.6043],[13.1934,43.605],[13.1949,43.6062],[13.1971,43.6141],[13.2013,43.6221],[13.2053,43.6282],[13.2108,43.6322],[13.2294,43.6372],[13.2418,43.6348],[13.2497,43.632],[13.2549,43.6316]]]}},{"type":"Feature","properties":{"i":"042032","n":"Numana"},"geometry":{"type":"Polygon","coordinates":[[[13.6242,43.5157],[13.6257,43.5114],[13.6232,43.5069],[13.6239,43.5022],[13.6269,43.4961],[13.6423,43.4742],[13.6393,43.474],[13.6331,43.4721],[13.628,43.4693],[13.6244,43.4688],[13.6111,43.4741],[13.6063,43.4748],[13.5986,43.4742],[13.5926,43.4772],[13.5912,43.4792],[13.6026,43.4994],[13.6164,43.5125],[13.622,43.5157],[13.6242,43.5157]]]}},{"type":"Feature","properties":{"i":"042033","n":"Offagna"},"geometry":{"type":"Polygon","coordinates":[[[13.4766,43.5344],[13.4734,43.5287],[13.4701,43.5255],[13.4629,43.5203],[13.4573,43.5173],[13.4451,43.5162],[13.426,43.5177],[13.4161,43.519],[13.4138,43.5214],[13.4153,43.5255],[13.4203,43.5309],[13.4192,43.5356],[13.4249,43.5379],[13.4346,43.5434],[13.445,43.5467],[13.4549,43.5386],[13.4606,43.5362],[13.4641,43.5354],[13.4715,43.5355],[13.4766,43.5344]]]}},{"type":"Feature","properties":{"i":"042034","n":"Osimo"},"geometry":{"type":"Polygon","coordinates":[[[13.5151,43.5327],[13.5219,43.5251],[13.5278,43.5144],[13.5306,43.5114],[13.5385,43.5063],[13.5443,43.5042],[13.5521,43.5026],[13.5554,43.5],[13.5545,43.4967],[13.5432,43.48],[13.5173,43.4608],[13.5143,43.4545],[13.5138,43.4474],[13.5089,43.4409],[13.4809,43.4364],[13.4703,43.4389],[13.4602,43.4383],[13.448,43.4458],[13.4345,43.4374],[13.4351,43.4339],[13.4293,43.4336],[13.4174,43.4349],[13.4139,43.4356],[13.4165,43.449],[13.4166,43.4566],[13.4092,43.4612],[13.4093,43.4675],[13.4068,43.4754],[13.4024,43.4743],[13.3832,43.4769],[13.3671,43.4771],[13.3541,43.4757],[13.3436,43.4712],[13.3427,43.4772],[13.3438,43.4786],[13.3489,43.4812],[13.355,43.4822],[13.3587,43.4855],[13.3533,43.4912],[13.3478,43.4956],[13.3475,43.5005],[13.3495,43.5015],[13.357,43.5007],[13.3746,43.4952],[13.378,43.4955],[13.3864,43.5008],[13.401,43.5057],[13.41,43.5133],[13.4138,43.5153],[13.4161,43.519],[13.4451,43.5162],[13.4573,43.5173],[13.4629,43.5203],[13.4701,43.5255],[13.4734,43.5287],[13.4766,43.5344],[13.4865,43.5317],[13.5151,43.5327]]]}},{"type":"Feature","properties":{"i":"042035","n":"Ostra"},"geometry":{"type":"Polygon","coordinates":[[[13.1505,43.6484],[13.1497,43.6442],[13.1452,43.6404],[13.145,43.638],[13.1457,43.6344],[13.1509,43.6305],[13.1673,43.6376],[13.176,43.6392],[13.1965,43.6406],[13.1948,43.6347],[13.1924,43.6333],[13.1886,43.6279],[13.1883,43.6147],[13.1848,43.6048],[13.1727,43.5933],[13.1582,43.5918],[13.1543,43.5923],[13.1525,43.5944],[13.1454,43.5905],[13.1395,43.5859],[13.1359,43.5861],[13.1256,43.5891],[13.1242,43.5884],[13.1219,43.5853],[13.1237,43.5783],[13.1172,43.5715],[13.1188,43.5694],[13.1254,43.5668],[13.1222,43.5602],[13.118,43.556],[13.1173,43.5543],[13.1118,43.5555],[13.1061,43.5594],[13.0982,43.5668],[13.0914,43.5758],[13.0871,43.5797],[13.0845,43.5814],[13.083,43.5814],[13.0867,43.5832],[13.0924,43.5886],[13.1076,43.5917],[13.1194,43.6048],[13.1167,43.6091],[13.1035,43.6158],[13.0958,43.6262],[13.095,43.6303],[13.0993,43.6371],[13.1012,43.6429],[13.105,43.6453],[13.1091,43.6469],[13.1308,43.6528],[13.1399,43.6535],[13.1483,43.6514],[13.1505,43.6484]]]}},{"type":"Feature","properties":{"i":"042036","n":"Ostra Vetere"},"geometry":{"type":"Polygon","coordinates":[[[13.0953,43.6278],[13.1035,43.6158],[13.1167,43.6091],[13.1194,43.6048],[13.1076,43.5917],[13.0924,43.5886],[13.0867,43.5832],[13.083,43.5814],[13.0766,43.575],[13.0734,43.5763],[13.0681,43.5766],[13.0587,43.5752],[13.0457,43.5779],[13.0427,43.5796],[13.0371,43.5848],[13.037,43.5869],[13.0381,43.589],[13.0369,43.5928],[13.0344,43.5962],[13.0288,43.5982],[13.0205,43.5991],[13.0209,43.6023],[13.0259,43.6046],[13.0414,43.6175],[13.0468,43.6197],[13.0564,43.6255],[13.0596,43.6288],[13.0658,43.6294],[13.0705,43.6284],[13.0953,43.6278]]]}},{"type":"Feature","properties":{"i":"042037","n":"Poggio San Marcello"},"geometry":{"type":"Polygon","coordinates":[[[13.1434,43.538],[13.1389,43.5361],[13.1327,43.5309],[13.1249,43.5284],[13.1188,43.5251],[13.1142,43.5167],[13.1127,43.5162],[13.1074,43.5182],[13.084,43.511],[13.0698,43.5009],[13.0678,43.4948],[13.0668,43.4927],[13.0656,43.4922],[13.0556,43.493],[13.0454,43.4949],[13.0371,43.5043],[13.037,43.5051],[13.0409,43.5083],[13.051,43.5094],[13.0584,43.5137],[13.0636,43.5178],[13.0722,43.5225],[13.0844,43.5207],[13.0936,43.5225],[13.104,43.5269],[13.1126,43.5333],[13.1144,43.5365],[13.1155,43.5416],[13.1204,43.5467],[13.1257,43.5476],[13.1277,43.5412],[13.1324,43.5385],[13.1402,43.5397],[13.1434,43.538]]]}},{"type":"Feature","properties":{"i":"042038","n":"Polverigi"},"geometry":{"type":"Polygon","coordinates":[[[13.4039,43.542],[13.4109,43.5373],[13.4159,43.5352],[13.4192,43.5356],[13.4204,43.5315],[13.4187,43.5286],[13.4153,43.5255],[13.4138,43.5216],[13.4161,43.519],[13.4147,43.5162],[13.41,43.5133],[13.401,43.5057],[13.3864,43.5008],[13.378,43.4955],[13.3746,43.4952],[13.357,43.5007],[13.3495,43.5015],[13.3444,43.5077],[13.3405,43.5102],[13.3397,43.5146],[13.3405,43.5218],[13.3391,43.527],[13.3344,43.5289],[13.3295,43.5326],[13.3302,43.5384],[13.3364,43.5448],[13.3468,43.5386],[13.364,43.5349],[13.3888,43.5369],[13.4039,43.542]]]}},{"type":"Feature","properties":{"i":"042040","n":"Rosora"},"geometry":{"type":"Polygon","coordinates":[[[13.0386,43.5023],[13.0454,43.4949],[13.0556,43.493],[13.0668,43.4927],[13.0696,43.4917],[13.0749,43.4886],[13.0795,43.4847],[13.0843,43.4785],[13.0758,43.4739],[13.0756,43.4707],[13.0631,43.4673],[13.0545,43.4743],[13.0337,43.4869],[13.02,43.4886],[13.0241,43.4926],[13.0271,43.5028],[13.0258,43.508],[13.0304,43.507],[13.0349,43.5013],[13.0357,43.501],[13.0386,43.5023]]]}},{"type":"Feature","properties":{"i":"042041","n":"San Marcello"},"geometry":{"type":"Polygon","coordinates":[[[13.2741,43.5854],[13.2658,43.5799],[13.2585,43.5775],[13.2456,43.5752],[13.2363,43.5714],[13.2291,43.5574],[13.2247,43.5575],[13.2181,43.5535],[13.2116,43.5474],[13.2107,43.5442],[13.2115,43.5416],[13.2066,43.5387],[13.1874,43.5379],[13.1764,43.5346],[13.1738,43.5275],[13.1743,43.5248],[13.1736,43.5239],[13.169,43.5225],[13.1682,43.5242],[13.1641,43.5269],[13.1578,43.5338],[13.1581,43.5389],[13.1633,43.5421],[13.1698,43.5425],[13.1735,43.5459],[13.1744,43.5503],[13.1713,43.5523],[13.1729,43.5575],[13.1775,43.5669],[13.1926,43.5804],[13.1964,43.5824],[13.2022,43.5838],[13.2031,43.5851],[13.2071,43.5842],[13.2167,43.5853],[13.2459,43.5904],[13.2521,43.5874],[13.2605,43.5851],[13.2683,43.5842],[13.2721,43.586],[13.2741,43.5854]]]}},{"type":"Feature","properties":{"i":"042042","n":"San Paolo di Jesi"},"geometry":{"type":"Polygon","coordinates":[[[13.2071,43.4734],[13.2157,43.4659],[13.2062,43.4608],[13.1985,43.4609],[13.1878,43.4541],[13.1697,43.4473],[13.1637,43.4478],[13.1552,43.4526],[13.1498,43.46],[13.1517,43.4622],[13.1605,43.4649],[13.1608,43.4644],[13.1693,43.4692],[13.1762,43.4764],[13.1798,43.4768],[13.1842,43.4759],[13.1942,43.4775],[13.2037,43.4757],[13.2071,43.4734]]]}},{"type":"Feature","properties":{"i":"042043","n":"Santa Maria Nuova"},"geometry":{"type":"Polygon","coordinates":[[[13.3444,43.5077],[13.3495,43.5015],[13.3475,43.5005],[13.3478,43.4956],[13.3533,43.4912],[13.3587,43.4855],[13.355,43.4822],[13.3489,43.4812],[13.3438,43.4786],[13.3427,43.4772],[13.3436,43.4712],[13.3366,43.468],[13.3285,43.4667],[13.3166,43.4632],[13.3067,43.4631],[13.303,43.4694],[13.2964,43.4899],[13.2973,43.494],[13.3063,43.5062],[13.3107,43.5112],[13.3209,43.5146],[13.3245,43.5149],[13.325,43.5131],[13.3244,43.5114],[13.3252,43.5096],[13.3315,43.5048],[13.3417,43.5045],[13.3441,43.506],[13.3444,43.5077]]]}},{"type":"Feature","properties":{"i":"042044","n":"Sassoferrato"},"geometry":{"type":"Polygon","coordinates":[[[12.909,43.4672],[12.9059,43.4605],[12.9029,43.4568],[12.8954,43.4529],[12.889,43.4481],[12.8912,43.4447],[12.8939,43.443],[12.8963,43.4377],[12.8855,43.4332],[12.8717,43.4251],[12.8694,43.4182],[12.8759,43.4165],[12.8894,43.4059],[12.8885,43.3954],[12.8751,43.3886],[12.8668,43.3876],[12.8579,43.3888],[12.8535,43.3931],[12.8523,43.3969],[12.8496,43.397],[12.8479,43.3932],[12.8484,43.3885],[12.8461,43.3842],[12.8429,43.3815],[12.8336,43.3775],[12.8294,43.3769],[12.8119,43.3793],[12.8032,43.3797],[12.7919,43.3786],[12.789,43.3778],[12.7836,43.3734],[12.7586,43.3656],[12.7593,43.3672],[12.7583,43.3725],[12.7496,43.3809],[12.75,43.3866],[12.7468,43.3905],[12.7514,43.395],[12.7614,43.3966],[12.7717,43.401],[12.7752,43.4046],[12.7808,43.4148],[12.7713,43.423],[12.7683,43.4239],[12.7656,43.4271],[12.7654,43.4331],[12.7683,43.4372],[12.7659,43.4405],[12.7665,43.4456],[12.7764,43.4505],[12.7719,43.4571],[12.7674,43.4598],[12.7678,43.4624],[12.7748,43.4719],[12.7991,43.4789],[12.7973,43.487],[12.7991,43.4947],[12.8059,43.5041],[12.8112,43.5045],[12.8142,43.5067],[12.8141,43.508],[12.825,43.5102],[12.8291,43.5088],[12.8301,43.5092],[12.8432,43.5183],[12.8453,43.5254],[12.8768,43.5361],[12.8781,43.5353],[12.8792,43.5277],[12.8731,43.5225],[12.8745,43.5194],[12.8846,43.5172],[12.8912,43.5123],[12.8934,43.5071],[12.8917,43.4978],[12.8849,43.4957],[12.8808,43.4929],[12.8799,43.4881],[12.8801,43.4845],[12.8825,43.4798],[12.8862,43.476],[12.8973,43.4673],[12.8997,43.4685],[12.909,43.4672]]]}},{"type":"Feature","properties":{"i":"042045","n":"Senigallia"},"geometry":{"type":"Polygon","coordinates":[[[13.3002,43.6721],[13.2973,43.668],[13.2976,43.6641],[13.3012,43.6604],[13.2989,43.6515],[13.2953,43.651],[13.2855,43.6531],[13.2675,43.6452],[13.2608,43.6323],[13.2549,43.6316],[13.2497,43.632],[13.2418,43.6348],[13.2294,43.6372],[13.2108,43.6322],[13.2053,43.6282],[13.2013,43.6221],[13.1971,43.6141],[13.1949,43.6062],[13.1934,43.605],[13.1884,43.6043],[13.1848,43.6048],[13.1883,43.6147],[13.1886,43.6279],[13.1924,43.6333],[13.1948,43.6347],[13.1965,43.6406],[13.176,43.6392],[13.1673,43.6376],[13.1509,43.6305],[13.1457,43.6344],[13.1452,43.6404],[13.1497,43.6442],[13.1505,43.6484],[13.155,43.6605],[13.1553,43.6663],[13.1493,43.67],[13.1447,43.6717],[13.143,43.6691],[13.1376,43.6717],[13.1319,43.6768],[13.1328,43.6854],[13.1311,43.6907],[13.1297,43.7052],[13.1279,43.7065],[13.1217,43.7165],[13.118,43.7283],[13.1275,43.7302],[13.1507,43.7406],[13.1531,43.7405],[13.1612,43.7428],[13.1727,43.7505],[13.2033,43.7303],[13.2219,43.7196],[13.2302,43.7126],[13.2493,43.7004],[13.2738,43.6859],[13.3002,43.6721]]]}},{"type":"Feature","properties":{"i":"042046","n":"Serra de' Conti"},"geometry":{"type":"Polygon","coordinates":[[[13.0766,43.575],[13.073,43.5722],[13.0709,43.5647],[13.0729,43.5605],[13.0767,43.5584],[13.0784,43.5551],[13.0711,43.5501],[13.0693,43.5495],[13.0643,43.5501],[13.058,43.5448],[13.0536,43.5388],[13.0544,43.5302],[13.0517,43.5204],[13.0491,43.5175],[13.0419,43.5143],[13.0266,43.509],[13.0237,43.5095],[13.0174,43.5197],[13.0134,43.5321],[13.0083,43.5338],[13.0087,43.5401],[13.0123,43.5489],[13.0167,43.5567],[13.0204,43.5612],[13.0218,43.561],[13.0234,43.5629],[13.0216,43.5653],[13.0281,43.5685],[13.0345,43.5686],[13.047,43.5713],[13.058,43.5758],[13.059,43.5751],[13.0681,43.5766],[13.0734,43.5763],[13.0766,43.575]]]}},{"type":"Feature","properties":{"i":"042047","n":"Serra San Quirico"},"geometry":{"type":"Polygon","coordinates":[[[13.0612,43.4664],[13.0625,43.4638],[13.0704,43.4583],[13.0813,43.4536],[13.0875,43.4488],[13.092,43.4419],[13.0921,43.4401],[13.0918,43.4359],[13.0863,43.4245],[13.0852,43.4233],[13.0768,43.4199],[13.0718,43.4165],[13.0713,43.4114],[13.076,43.4072],[13.0801,43.4054],[13.0865,43.3981],[13.0861,43.395],[13.0799,43.389],[13.0771,43.391],[13.0738,43.3917],[13.0718,43.3909],[13.0705,43.3882],[13.0709,43.3866],[13.0622,43.3812],[13.0569,43.3884],[13.0531,43.4138],[13.0438,43.4219],[13.0389,43.4232],[13.0344,43.4219],[13.0333,43.4203],[13.0303,43.4193],[13.0255,43.419],[13.0206,43.4237],[13.0202,43.4264],[13.0177,43.4288],[13.0118,43.4306],[12.997,43.4271],[12.9947,43.4244],[12.9848,43.4285],[12.9842,43.4314],[12.9793,43.4397],[12.973,43.4444],[12.9735,43.4471],[12.9837,43.4545],[12.9874,43.459],[12.9845,43.4653],[12.9847,43.4674],[12.9861,43.4692],[12.9926,43.4749],[13.0016,43.4779],[13.0071,43.4817],[13.0109,43.4779],[13.0186,43.4731],[13.0265,43.4716],[13.0288,43.4722],[13.0355,43.469],[13.0413,43.4634],[13.0439,43.4594],[13.0448,43.4562],[13.0469,43.456],[13.0543,43.46],[13.0612,43.4664]]]}},{"type":"Feature","properties":{"i":"042048","n":"Sirolo"},"geometry":{"type":"Polygon","coordinates":[[[13.6242,43.5157],[13.622,43.5157],[13.6164,43.5125],[13.6026,43.4994],[13.5912,43.4792],[13.584,43.4885],[13.5771,43.4924],[13.5723,43.4941],[13.574,43.5044],[13.5756,43.5069],[13.5802,43.51],[13.5851,43.5173],[13.5934,43.5216],[13.6034,43.543],[13.6091,43.559],[13.6255,43.5503],[13.6275,43.5476],[13.6281,43.5445],[13.627,43.5402],[13.6217,43.5347],[13.6223,43.526],[13.6242,43.5157]]]}},{"type":"Feature","properties":{"i":"042049","n":"Staffolo"},"geometry":{"type":"Polygon","coordinates":[[[13.2444,43.4594],[13.2266,43.4394],[13.2254,43.4325],[13.2152,43.4228],[13.2107,43.417],[13.2014,43.4162],[13.1888,43.4184],[13.1697,43.4191],[13.1618,43.4184],[13.1584,43.4161],[13.1502,43.4136],[13.1455,43.4169],[13.1489,43.4188],[13.1468,43.4204],[13.1472,43.4242],[13.1483,43.4274],[13.1515,43.4309],[13.1499,43.4427],[13.1506,43.4456],[13.1552,43.4504],[13.1577,43.4511],[13.164,43.4477],[13.1697,43.4473],[13.1878,43.4541],[13.1985,43.4609],[13.2062,43.4608],[13.2157,43.4659],[13.2206,43.4666],[13.235,43.463],[13.2444,43.4594]]]}},{"type":"Feature","properties":{"i":"042050","n":"Trecastelli"},"geometry":{"type":"Polygon","coordinates":[[[13.118,43.7283],[13.1217,43.7165],[13.1279,43.7065],[13.1297,43.7052],[13.1311,43.6907],[13.1328,43.6854],[13.1319,43.6768],[13.1376,43.6717],[13.143,43.6691],[13.1447,43.6717],[13.1493,43.67],[13.1553,43.6663],[13.155,43.6605],[13.1505,43.6484],[13.1483,43.6514],[13.1399,43.6535],[13.1308,43.6528],[13.1091,43.6469],[13.105,43.6453],[13.1012,43.6429],[13.0991,43.6465],[13.0954,43.6505],[13.0862,43.6558],[13.08,43.6653],[13.0802,43.6697],[13.0831,43.6826],[13.0826,43.6855],[13.0814,43.6873],[13.0698,43.693],[13.0771,43.7014],[13.0771,43.7053],[13.0727,43.7153],[13.0655,43.72],[13.0626,43.7233],[13.0976,43.7291],[13.1055,43.7267],[13.113,43.727],[13.118,43.7283]],[[13.0961,43.7214],[13.0919,43.7244],[13.0871,43.7205],[13.0909,43.717],[13.0978,43.7179],[13.1013,43.7201],[13.1015,43.7221],[13.0961,43.7214]],[[13.0902,43.7155],[13.0851,43.7188],[13.0786,43.7134],[13.0822,43.7111],[13.0909,43.7147],[13.0902,43.7155]]]}}]}
