{"type":"FeatureCollection","fonte":"Confini comunali ISTAT via openpolis/geojson-italy — CC BY 4.0","features":[{"type":"Feature","properties":{"i":"007001","n":"Allein"},"geometry":{"type":"Polygon","coordinates":[[[7.2909,45.7976],[7.2858,45.7985],[7.2775,45.802],[7.257,45.8064],[7.2589,45.8093],[7.2595,45.8122],[7.2586,45.8154],[7.2552,45.8194],[7.2594,45.831],[7.261,45.8341],[7.2636,45.8362],[7.2713,45.833],[7.2851,45.8236],[7.287,45.8193],[7.2957,45.814],[7.2972,45.8099],[7.2949,45.8046],[7.291,45.8052],[7.2895,45.8017],[7.2909,45.7976]]]}},{"type":"Feature","properties":{"i":"007002","n":"Antey-Saint-André"},"geometry":{"type":"Polygon","coordinates":[[[7.6081,45.8242],[7.6047,45.8203],[7.6,45.8187],[7.5982,45.8139],[7.6042,45.8101],[7.617,45.8057],[7.6249,45.8009],[7.627,45.7988],[7.6164,45.7924],[7.595,45.7874],[7.5908,45.7874],[7.5902,45.784],[7.593,45.7777],[7.6015,45.7687],[7.6011,45.7666],[7.5991,45.7652],[7.5915,45.7733],[7.5878,45.7839],[7.5868,45.7922],[7.5816,45.7974],[7.5855,45.8236],[7.5903,45.8298],[7.5968,45.8341],[7.5998,45.8382],[7.603,45.846],[7.6024,45.8477],[7.6149,45.8479],[7.606,45.829],[7.6042,45.8268],[7.6048,45.8252],[7.6081,45.8242]],[[7.614,45.8006],[7.6161,45.8011],[7.6165,45.8021],[7.614,45.8029],[7.6134,45.8009],[7.614,45.8006]]]}},{"type":"Feature","properties":{"i":"007003","n":"Aosta"},"geometry":{"type":"Polygon","coordinates":[[[7.3174,45.7646],[7.3191,45.7636],[7.3297,45.7651],[7.3393,45.7684],[7.3348,45.7648],[7.3315,45.7633],[7.3286,45.7581],[7.3362,45.7464],[7.3393,45.7469],[7.3426,45.7464],[7.3467,45.7435],[7.3478,45.7401],[7.3477,45.7364],[7.342,45.7361],[7.3415,45.7322],[7.3386,45.7296],[7.3146,45.7297],[7.2964,45.7264],[7.2893,45.7289],[7.2862,45.733],[7.2795,45.7483],[7.2718,45.7553],[7.2419,45.7652],[7.2388,45.7675],[7.2565,45.7722],[7.2615,45.7726],[7.2758,45.7704],[7.2772,45.7671],[7.2826,45.7657],[7.3034,45.763],[7.3174,45.7646]]]}},{"type":"Feature","properties":{"i":"007004","n":"Arnad"},"geometry":{"type":"Polygon","coordinates":[[[7.785,45.6634],[7.7824,45.66],[7.7819,45.6563],[7.7831,45.6391],[7.7821,45.6283],[7.7837,45.625],[7.7631,45.6255],[7.7566,45.6247],[7.7496,45.6267],[7.7361,45.6244],[7.7354,45.6273],[7.7326,45.6301],[7.725,45.6321],[7.7208,45.6313],[7.7168,45.6285],[7.6981,45.6232],[7.6919,45.6188],[7.6832,45.6225],[7.6764,45.6272],[7.6796,45.6312],[7.7067,45.6437],[7.7082,45.6459],[7.7049,45.6474],[7.7067,45.6489],[7.7095,45.654],[7.7076,45.6615],[7.7127,45.6651],[7.7189,45.6653],[7.7237,45.664],[7.7271,45.6652],[7.7269,45.6673],[7.7379,45.665],[7.7646,45.6629],[7.7824,45.6692],[7.785,45.6634]]]}},{"type":"Feature","properties":{"i":"007005","n":"Arvier"},"geometry":{"type":"Polygon","coordinates":[[[7.1875,45.7067],[7.1702,45.6929],[7.1622,45.6878],[7.1506,45.6858],[7.1462,45.6831],[7.1447,45.6729],[7.147,45.672],[7.1495,45.6687],[7.1493,45.6676],[7.1464,45.6655],[7.1325,45.6589],[7.1225,45.656],[7.1228,45.6524],[7.1244,45.6502],[7.1223,45.6459],[7.1189,45.6436],[7.1119,45.6333],[7.107,45.6299],[7.09,45.6457],[7.0814,45.6575],[7.0827,45.6589],[7.0825,45.6614],[7.0744,45.6639],[7.0681,45.6606],[7.0665,45.6566],[7.0633,45.6539],[7.051,45.6495],[7.039,45.6468],[7.0265,45.6409],[7.0237,45.6384],[7.0224,45.6477],[7.0406,45.6534],[7.0484,45.6576],[7.0558,45.6639],[7.0684,45.6764],[7.0807,45.6784],[7.0873,45.6763],[7.0879,45.6751],[7.0939,45.6762],[7.1551,45.7079],[7.1624,45.7095],[7.1711,45.7094],[7.1784,45.709],[7.1875,45.7067]]]}},{"type":"Feature","properties":{"i":"007006","n":"Avise"},"geometry":{"type":"Polygon","coordinates":[[[7.1742,45.7762],[7.1721,45.7718],[7.1678,45.7685],[7.1585,45.7558],[7.1532,45.756],[7.1472,45.7533],[7.1461,45.7517],[7.1457,45.7475],[7.1391,45.7394],[7.134,45.741],[7.1335,45.7424],[7.1287,45.7413],[7.1272,45.7398],[7.128,45.7217],[7.1345,45.7194],[7.1505,45.7203],[7.1628,45.7186],[7.1596,45.7121],[7.1566,45.7091],[7.1449,45.7022],[7.1181,45.6891],[7.0939,45.6762],[7.0879,45.6751],[7.0873,45.6763],[7.0807,45.6784],[7.0684,45.6764],[7.0558,45.6639],[7.0484,45.6576],[7.0406,45.6534],[7.0224,45.6477],[7.019,45.6547],[7.0186,45.6604],[7.0244,45.6661],[7.0283,45.6715],[7.0397,45.6777],[7.0466,45.684],[7.0522,45.6871],[7.087,45.6912],[7.0997,45.7002],[7.1064,45.7073],[7.1154,45.7121],[7.1204,45.7113],[7.1227,45.714],[7.1182,45.7183],[7.1105,45.7213],[7.0995,45.7299],[7.0991,45.731],[7.0998,45.734],[7.1129,45.7379],[7.1126,45.7557],[7.1111,45.762],[7.1082,45.7663],[7.1066,45.7748],[7.1115,45.7934],[7.1137,45.7984],[7.1248,45.8018],[7.1359,45.8016],[7.1418,45.7972],[7.1578,45.7918],[7.1616,45.7858],[7.1616,45.7826],[7.1626,45.7807],[7.1681,45.7779],[7.1742,45.7762]]]}},{"type":"Feature","properties":{"i":"007007","n":"Ayas"},"geometry":{"type":"Polygon","coordinates":[[[7.798,45.918],[7.793,45.906],[7.787,45.8946],[7.7831,45.8846],[7.782,45.8745],[7.7819,45.8616],[7.7835,45.8372],[7.784,45.8345],[7.789,45.8291],[7.7888,45.8202],[7.7863,45.8174],[7.7826,45.8099],[7.7844,45.8071],[7.7876,45.8051],[7.7869,45.8027],[7.7831,45.8002],[7.7765,45.7988],[7.771,45.7948],[7.7676,45.794],[7.7569,45.7935],[7.7435,45.7962],[7.7302,45.7946],[7.7199,45.7922],[7.6994,45.79],[7.6886,45.7861],[7.6713,45.7838],[7.6646,45.7867],[7.664,45.7912],[7.6569,45.808],[7.6557,45.8172],[7.6616,45.8288],[7.6638,45.8316],[7.6845,45.8484],[7.6847,45.8492],[7.6819,45.8534],[7.6795,45.8548],[7.677,45.8585],[7.6801,45.8596],[7.6846,45.8656],[7.6888,45.8736],[7.6856,45.8796],[7.6819,45.8841],[7.6809,45.8872],[7.6774,45.9143],[7.681,45.9168],[7.6858,45.9186],[7.6895,45.9187],[7.6928,45.9173],[7.6987,45.9114],[7.7045,45.9106],[7.7346,45.9237],[7.7358,45.9267],[7.7478,45.939],[7.7506,45.9398],[7.7692,45.9368],[7.7779,45.9296],[7.7839,45.9276],[7.798,45.918]]]}},{"type":"Feature","properties":{"i":"007008","n":"Aymavilles"},"geometry":{"type":"Polygon","coordinates":[[[7.2786,45.6692],[7.2803,45.6643],[7.2886,45.6601],[7.2941,45.6593],[7.3006,45.6568],[7.2964,45.6532],[7.2936,45.6526],[7.2921,45.6496],[7.2929,45.6433],[7.2965,45.6338],[7.2938,45.6261],[7.2869,45.623],[7.2761,45.6212],[7.2705,45.6186],[7.2728,45.611],[7.271,45.6028],[7.2648,45.5977],[7.2578,45.596],[7.2514,45.5961],[7.2453,45.5975],[7.235,45.6056],[7.2352,45.6082],[7.2363,45.6097],[7.2357,45.6128],[7.2315,45.6228],[7.2283,45.6253],[7.2212,45.6515],[7.2114,45.6722],[7.2099,45.6761],[7.2101,45.6778],[7.2149,45.6861],[7.2313,45.702],[7.2308,45.7045],[7.2439,45.7053],[7.2467,45.7067],[7.2479,45.7102],[7.2586,45.7126],[7.2586,45.7109],[7.2654,45.7026],[7.2664,45.6972],[7.2712,45.6873],[7.2733,45.6872],[7.2754,45.6842],[7.277,45.6793],[7.2775,45.6698],[7.2786,45.6692]]]}},{"type":"Feature","properties":{"i":"007009","n":"Bard"},"geometry":{"type":"Polygon","coordinates":[[[7.7631,45.6255],[7.7588,45.6197],[7.7548,45.6118],[7.7525,45.6027],[7.7449,45.6043],[7.7417,45.6079],[7.7416,45.609],[7.7427,45.61],[7.7361,45.6244],[7.7496,45.6267],[7.7566,45.6247],[7.7631,45.6255]]]}},{"type":"Feature","properties":{"i":"007010","n":"Bionaz"},"geometry":{"type":"Polygon","coordinates":[[[7.6099,45.9694],[7.6073,45.9662],[7.6033,45.9634],[7.601,45.9589],[7.6003,45.9545],[7.6011,45.9511],[7.6003,45.9474],[7.5925,45.9432],[7.5878,45.9368],[7.5866,45.9326],[7.5854,45.9185],[7.5734,45.9125],[7.5632,45.9127],[7.5567,45.9079],[7.556,45.9064],[7.557,45.8984],[7.5538,45.8861],[7.5519,45.8831],[7.549,45.8806],[7.5458,45.8833],[7.5405,45.8834],[7.5295,45.8778],[7.5276,45.8793],[7.5256,45.879],[7.5139,45.8732],[7.5093,45.872],[7.5018,45.8736],[7.497,45.8728],[7.4922,45.8706],[7.4895,45.8596],[7.4908,45.8532],[7.4896,45.8492],[7.488,45.8481],[7.4722,45.8458],[7.4671,45.8405],[7.4574,45.8388],[7.4533,45.8406],[7.4492,45.8449],[7.4469,45.8515],[7.4428,45.8557],[7.421,45.8582],[7.4086,45.8585],[7.4023,45.8584],[7.3944,45.8557],[7.3894,45.8572],[7.3744,45.8644],[7.3652,45.8715],[7.3646,45.8727],[7.365,45.8778],[7.368,45.8806],[7.3739,45.8925],[7.374,45.9006],[7.3761,45.9006],[7.3818,45.8969],[7.3859,45.8973],[7.3928,45.9011],[7.3974,45.9055],[7.3977,45.9067],[7.403,45.9106],[7.4119,45.9092],[7.4272,45.9157],[7.4317,45.9184],[7.4421,45.9298],[7.4577,45.9349],[7.47,45.9339],[7.472,45.9344],[7.4748,45.9368],[7.4742,45.9408],[7.4714,45.9473],[7.4781,45.9526],[7.5023,45.9607],[7.5194,45.9605],[7.5286,45.9568],[7.5381,45.955],[7.5423,45.9571],[7.5449,45.9596],[7.5461,45.9628],[7.5427,45.9715],[7.5416,45.9766],[7.5455,45.9837],[7.5486,45.9858],[7.5701,45.9878],[7.5748,45.9875],[7.5781,45.9863],[7.58,45.9835],[7.5817,45.9796],[7.5816,45.9755],[7.5841,45.9722],[7.5886,45.9708],[7.6099,45.9694]]]}},{"type":"Feature","properties":{"i":"007011","n":"Brissogne"},"geometry":{"type":"Polygon","coordinates":[[[7.4282,45.7376],[7.4272,45.7259],[7.4273,45.7135],[7.4264,45.7081],[7.4231,45.6976],[7.4195,45.6936],[7.4206,45.6836],[7.4223,45.6793],[7.4228,45.6706],[7.422,45.6666],[7.4193,45.6637],[7.4157,45.6623],[7.4126,45.6635],[7.4058,45.664],[7.3985,45.6618],[7.3871,45.6648],[7.3855,45.667],[7.385,45.6783],[7.39,45.6832],[7.3942,45.6906],[7.3828,45.7063],[7.3804,45.7156],[7.3793,45.7304],[7.3739,45.7379],[7.4164,45.7393],[7.4282,45.7376]]]}},{"type":"Feature","properties":{"i":"007012","n":"Brusson"},"geometry":{"type":"Polygon","coordinates":[[[7.8198,45.7257],[7.8169,45.7166],[7.8137,45.7162],[7.8083,45.7195],[7.7951,45.722],[7.7891,45.725],[7.784,45.7298],[7.7794,45.7357],[7.7758,45.7377],[7.7686,45.7378],[7.7567,45.7361],[7.7476,45.7294],[7.7427,45.7292],[7.7335,45.7341],[7.7292,45.7409],[7.7155,45.7459],[7.7102,45.7507],[7.7021,45.7561],[7.7006,45.7625],[7.6917,45.7716],[7.6713,45.7838],[7.6886,45.7861],[7.6994,45.79],[7.7199,45.7922],[7.7302,45.7946],[7.7435,45.7962],[7.7569,45.7935],[7.7676,45.794],[7.771,45.7948],[7.7765,45.7988],[7.7817,45.7997],[7.783,45.794],[7.7881,45.7918],[7.7925,45.788],[7.7953,45.7792],[7.7957,45.7749],[7.7947,45.7719],[7.7947,45.7653],[7.7982,45.764],[7.8022,45.7596],[7.8044,45.7533],[7.8049,45.749],[7.8075,45.745],[7.8104,45.7423],[7.8129,45.7413],[7.8233,45.7322],[7.8188,45.7293],[7.8198,45.7257]]]}},{"type":"Feature","properties":{"i":"007013","n":"Challand-Saint-Anselme"},"geometry":{"type":"Polygon","coordinates":[[[7.8137,45.7162],[7.8141,45.7145],[7.8029,45.6954],[7.7955,45.6919],[7.7871,45.6906],[7.7816,45.6918],[7.7769,45.6952],[7.7738,45.6998],[7.7686,45.7039],[7.7638,45.7052],[7.7616,45.705],[7.7556,45.7013],[7.7432,45.6956],[7.7246,45.7003],[7.7045,45.7016],[7.7044,45.7036],[7.7082,45.7081],[7.7198,45.729],[7.7279,45.7379],[7.7292,45.7409],[7.7335,45.7341],[7.7427,45.7292],[7.7476,45.7294],[7.7567,45.7361],[7.7686,45.7378],[7.7758,45.7377],[7.7794,45.7357],[7.784,45.7298],[7.7891,45.725],[7.7951,45.722],[7.8083,45.7195],[7.8137,45.7162]]]}},{"type":"Feature","properties":{"i":"007014","n":"Challand-Saint-Victor"},"geometry":{"type":"Polygon","coordinates":[[[7.7878,45.6907],[7.7856,45.6858],[7.7862,45.681],[7.7857,45.6752],[7.7831,45.6699],[7.7646,45.6629],[7.7359,45.6653],[7.7219,45.6686],[7.7147,45.6744],[7.7113,45.6793],[7.7086,45.6812],[7.7034,45.6798],[7.6979,45.676],[7.6916,45.6734],[7.6893,45.6736],[7.6863,45.6753],[7.6857,45.6765],[7.686,45.6796],[7.6829,45.6862],[7.6875,45.6862],[7.6914,45.6881],[7.6979,45.6975],[7.7044,45.7036],[7.7045,45.7016],[7.7246,45.7003],[7.7432,45.6956],[7.7556,45.7013],[7.7616,45.705],[7.7638,45.7052],[7.7686,45.7039],[7.7738,45.6998],[7.7769,45.6952],[7.7824,45.6913],[7.7878,45.6907]]]}},{"type":"Feature","properties":{"i":"007015","n":"Chambave"},"geometry":{"type":"Polygon","coordinates":[[[7.5718,45.7453],[7.5655,45.7449],[7.5643,45.742],[7.5661,45.734],[7.5668,45.7248],[7.5661,45.7141],[7.5665,45.6965],[7.5646,45.6889],[7.5601,45.688],[7.5579,45.6842],[7.5503,45.6758],[7.543,45.6728],[7.5383,45.6827],[7.5395,45.6852],[7.5398,45.6964],[7.5374,45.7081],[7.5343,45.7123],[7.5219,45.7213],[7.5184,45.7231],[7.5146,45.7275],[7.5141,45.7298],[7.5152,45.7387],[7.5159,45.7401],[7.518,45.7408],[7.5223,45.7378],[7.5256,45.7404],[7.526,45.7439],[7.5279,45.7471],[7.5354,45.7483],[7.5489,45.7473],[7.5696,45.7489],[7.5714,45.7483],[7.5718,45.7453]]]}},{"type":"Feature","properties":{"i":"007016","n":"Chamois"},"geometry":{"type":"Polygon","coordinates":[[[7.6616,45.8288],[7.6509,45.8279],[7.6399,45.8286],[7.6307,45.8237],[7.627,45.8229],[7.6147,45.8246],[7.6081,45.8242],[7.6042,45.826],[7.611,45.839],[7.6136,45.8459],[7.6167,45.8489],[7.6321,45.8542],[7.639,45.8551],[7.641,45.8548],[7.6434,45.8526],[7.6472,45.8514],[7.6625,45.8525],[7.6668,45.8541],[7.6706,45.8584],[7.6746,45.8592],[7.677,45.8585],[7.6795,45.8548],[7.6819,45.8534],[7.6847,45.8492],[7.6845,45.8484],[7.6638,45.8316],[7.6616,45.8288]]]}},{"type":"Feature","properties":{"i":"007017","n":"Champdepraz"},"geometry":{"type":"Polygon","coordinates":[[[7.6714,45.6871],[7.6743,45.6793],[7.6559,45.6821],[7.6507,45.6809],[7.6401,45.6674],[7.6402,45.659],[7.6257,45.6535],[7.6133,45.6461],[7.6046,45.6443],[7.5979,45.645],[7.5867,45.6402],[7.5751,45.6365],[7.555,45.6348],[7.5458,45.6308],[7.5397,45.6315],[7.5442,45.6434],[7.5459,45.6523],[7.5458,45.657],[7.5433,45.6659],[7.5409,45.6686],[7.543,45.6728],[7.5503,45.6758],[7.5579,45.6842],[7.5601,45.688],[7.5733,45.6899],[7.5803,45.6917],[7.5959,45.7021],[7.5978,45.7023],[7.6015,45.7005],[7.6289,45.7055],[7.6363,45.7049],[7.641,45.7016],[7.6574,45.6952],[7.6701,45.6962],[7.6705,45.6933],[7.6682,45.6891],[7.6714,45.6871]]]}},{"type":"Feature","properties":{"i":"007018","n":"Champorcher"},"geometry":{"type":"Polygon","coordinates":[[[7.662,45.6311],[7.6625,45.6263],[7.6561,45.6131],[7.6509,45.6057],[7.6485,45.6034],[7.6394,45.599],[7.6329,45.5925],[7.6285,45.5836],[7.6304,45.5776],[7.6343,45.5719],[7.634,45.5708],[7.6102,45.5628],[7.6091,45.5629],[7.6054,45.5737],[7.5997,45.5781],[7.5877,45.5826],[7.5821,45.5818],[7.5764,45.5876],[7.5678,45.5914],[7.557,45.5904],[7.5474,45.588],[7.543,45.5857],[7.5318,45.5768],[7.5209,45.5769],[7.5058,45.582],[7.5057,45.5903],[7.5046,45.5929],[7.4913,45.6078],[7.5093,45.618],[7.5276,45.6231],[7.5319,45.6262],[7.5331,45.6294],[7.5347,45.6304],[7.5388,45.6315],[7.5435,45.6307],[7.5471,45.631],[7.555,45.6348],[7.5751,45.6365],[7.5867,45.6402],[7.5979,45.645],[7.6046,45.6443],[7.6094,45.6457],[7.6148,45.6381],[7.6233,45.6349],[7.6271,45.6349],[7.6329,45.6369],[7.6499,45.6347],[7.6555,45.6325],[7.6592,45.6301],[7.662,45.6311]]]}},{"type":"Feature","properties":{"i":"007019","n":"Charvensod"},"geometry":{"type":"Polygon","coordinates":[[[7.3386,45.7296],[7.344,45.7272],[7.3482,45.72],[7.352,45.7111],[7.3529,45.7051],[7.3659,45.6873],[7.3751,45.6786],[7.385,45.6783],[7.3855,45.667],[7.3832,45.6662],[7.3768,45.6599],[7.3717,45.6586],[7.3486,45.6555],[7.3406,45.6577],[7.3372,45.6641],[7.3239,45.6824],[7.3225,45.6852],[7.3171,45.7124],[7.311,45.7232],[7.3095,45.7287],[7.3146,45.7297],[7.3386,45.7296]]]}},{"type":"Feature","properties":{"i":"007020","n":"Châtillon"},"geometry":{"type":"Polygon","coordinates":[[[7.6557,45.8172],[7.6569,45.808],[7.664,45.7912],[7.6646,45.7867],[7.6588,45.7834],[7.6518,45.7713],[7.6499,45.7633],[7.6457,45.7586],[7.6407,45.7563],[7.6311,45.7466],[7.6351,45.7432],[7.6416,45.743],[7.6507,45.7399],[7.6546,45.7375],[7.6518,45.7328],[7.639,45.7222],[7.6267,45.71],[7.6279,45.7055],[7.6015,45.7005],[7.5989,45.7014],[7.5978,45.7023],[7.5978,45.7055],[7.5951,45.7127],[7.6025,45.7194],[7.6055,45.7277],[7.6045,45.731],[7.6172,45.7414],[7.5945,45.7448],[7.5896,45.7441],[7.5867,45.745],[7.5863,45.7488],[7.5936,45.7489],[7.6029,45.7503],[7.607,45.7529],[7.6069,45.7543],[7.5991,45.7652],[7.6011,45.7666],[7.6015,45.7687],[7.5947,45.7754],[7.5913,45.7811],[7.5902,45.784],[7.5908,45.7874],[7.595,45.7874],[7.6171,45.7927],[7.627,45.7988],[7.6346,45.8024],[7.6412,45.8074],[7.644,45.8103],[7.6455,45.8153],[7.6468,45.8167],[7.6557,45.8172]]]}},{"type":"Feature","properties":{"i":"007021","n":"Cogne"},"geometry":{"type":"Polygon","coordinates":[[[7.4157,45.6623],[7.4178,45.6596],[7.4269,45.6517],[7.4458,45.6367],[7.4526,45.6335],[7.4576,45.6328],[7.4645,45.6336],[7.4695,45.63],[7.4755,45.6213],[7.4753,45.6191],[7.4774,45.6164],[7.4796,45.6143],[7.4913,45.6078],[7.5046,45.5929],[7.5057,45.5903],[7.5058,45.582],[7.499,45.5831],[7.4893,45.5831],[7.469,45.5776],[7.4635,45.5748],[7.4591,45.5694],[7.4505,45.5617],[7.4482,45.5588],[7.448,45.5556],[7.4433,45.5543],[7.4282,45.5475],[7.4206,45.5466],[7.4162,45.5405],[7.4107,45.5355],[7.3958,45.5309],[7.3945,45.5273],[7.3834,45.5196],[7.3762,45.5166],[7.3705,45.5173],[7.367,45.5234],[7.364,45.5251],[7.3593,45.5259],[7.3496,45.522],[7.3399,45.5209],[7.3353,45.5212],[7.3284,45.5186],[7.323,45.5145],[7.3211,45.514],[7.3029,45.5169],[7.296,45.5165],[7.2896,45.5146],[7.279,45.5134],[7.2695,45.5147],[7.2671,45.525],[7.2677,45.5301],[7.274,45.5449],[7.2788,45.5523],[7.2807,45.5548],[7.2846,45.5559],[7.285,45.5568],[7.2828,45.5616],[7.272,45.5742],[7.2643,45.587],[7.2583,45.5878],[7.2572,45.594],[7.2578,45.596],[7.2636,45.597],[7.2682,45.6001],[7.271,45.6028],[7.2728,45.611],[7.2705,45.6186],[7.2761,45.6212],[7.2869,45.623],[7.2938,45.6261],[7.2965,45.6338],[7.2925,45.6455],[7.2921,45.6496],[7.2936,45.6526],[7.2964,45.6532],[7.3006,45.6568],[7.3084,45.6543],[7.3293,45.6502],[7.3406,45.6577],[7.3486,45.6555],[7.3758,45.6594],[7.3791,45.6616],[7.3832,45.6662],[7.3855,45.667],[7.3871,45.6648],[7.3965,45.6621],[7.3999,45.662],[7.4058,45.664],[7.4126,45.6635],[7.4157,45.6623]]]}},{"type":"Feature","properties":{"i":"007022","n":"Courmayeur"},"geometry":{"type":"Polygon","coordinates":[[[7.1016,45.859],[7.1,45.8573],[7.0962,45.8491],[7.0878,45.8469],[7.0779,45.8383],[7.0782,45.8335],[7.0697,45.8229],[7.062,45.8157],[7.06,45.815],[7.0543,45.8167],[7.0447,45.8126],[7.0429,45.811],[7.0356,45.8094],[7.0347,45.8093],[7.0327,45.811],[7.0304,45.8108],[7.0221,45.8047],[7.0185,45.7976],[7.0152,45.7932],[7.0095,45.7894],[6.9975,45.7885],[6.9822,45.7851],[6.9713,45.7813],[6.9528,45.7813],[6.9358,45.7756],[6.9151,45.7708],[6.9081,45.7663],[6.9004,45.7633],[6.8926,45.7614],[6.8817,45.7608],[6.872,45.7631],[6.8656,45.7623],[6.8443,45.7551],[6.835,45.7486],[6.8173,45.7397],[6.8136,45.7429],[6.8092,45.7443],[6.8066,45.7469],[6.805,45.7544],[6.8059,45.7599],[6.8057,45.7692],[6.802,45.7753],[6.8016,45.7817],[6.8047,45.7913],[6.8086,45.7932],[6.8116,45.7984],[6.812,45.8059],[6.8103,45.8117],[6.8057,45.8151],[6.8054,45.817],[6.8139,45.827],[6.8178,45.8333],[6.8258,45.8382],[6.8378,45.84],[6.8431,45.8423],[6.8592,45.8338],[6.8649,45.8332],[6.872,45.8398],[6.8739,45.8461],[6.878,45.8493],[6.8802,45.8499],[6.8831,45.8495],[6.8931,45.8438],[6.8974,45.8426],[6.9093,45.8426],[6.9158,45.8434],[6.9288,45.8472],[6.9421,45.8487],[6.9486,45.8565],[6.9551,45.8608],[6.9692,45.8659],[6.9861,45.8685],[6.9904,45.8681],[6.9993,45.8742],[7.0057,45.8886],[7.0031,45.8925],[7.0027,45.8968],[7.0038,45.8992],[7.018,45.9138],[7.022,45.9168],[7.0288,45.9201],[7.0329,45.9214],[7.0447,45.9227],[7.0573,45.9143],[7.0641,45.9062],[7.0703,45.897],[7.0769,45.8898],[7.0942,45.8763],[7.0937,45.8715],[7.1016,45.859]]]}},{"type":"Feature","properties":{"i":"007023","n":"Donnas"},"geometry":{"type":"Polygon","coordinates":[[[7.7837,45.625],[7.7839,45.6216],[7.7863,45.6186],[7.7901,45.6161],[7.7908,45.6145],[7.7865,45.6013],[7.7846,45.5912],[7.786,45.5894],[7.7929,45.5896],[7.7954,45.5868],[7.7968,45.5827],[7.7944,45.5817],[7.7853,45.5748],[7.7775,45.5707],[7.7685,45.5672],[7.7572,45.5646],[7.7457,45.5584],[7.7449,45.5568],[7.7413,45.5541],[7.736,45.5511],[7.7327,45.5503],[7.7303,45.5507],[7.7224,45.5578],[7.7189,45.5589],[7.7163,45.559],[7.7126,45.5568],[7.7063,45.5555],[7.6909,45.5559],[7.6883,45.5573],[7.691,45.5634],[7.6938,45.5674],[7.711,45.5866],[7.716,45.5891],[7.7247,45.5885],[7.7316,45.5902],[7.7454,45.601],[7.7465,45.6038],[7.7525,45.6027],[7.7548,45.6118],[7.7588,45.6197],[7.7631,45.6255],[7.7837,45.625]]]}},{"type":"Feature","properties":{"i":"007024","n":"Doues"},"geometry":{"type":"Polygon","coordinates":[[[7.3131,45.8349],[7.3193,45.8306],[7.3194,45.8289],[7.317,45.8254],[7.314,45.8147],[7.3152,45.812],[7.3005,45.7993],[7.3008,45.7939],[7.3026,45.7896],[7.2909,45.7976],[7.2895,45.8017],[7.291,45.8052],[7.2949,45.8046],[7.2972,45.8099],[7.2957,45.814],[7.287,45.8193],[7.2851,45.8236],[7.2713,45.833],[7.2636,45.8362],[7.2643,45.8389],[7.2619,45.8468],[7.2583,45.8527],[7.2553,45.8547],[7.2546,45.8593],[7.2598,45.8601],[7.2834,45.8569],[7.2884,45.8538],[7.2937,45.8468],[7.2981,45.8465],[7.3043,45.841],[7.3066,45.8374],[7.3111,45.8351],[7.3131,45.8349]]]}},{"type":"Feature","properties":{"i":"007025","n":"Emarèse"},"geometry":{"type":"Polygon","coordinates":[[[7.7292,45.7409],[7.7279,45.7379],[7.7198,45.729],[7.7082,45.7081],[7.7006,45.6996],[7.698,45.7002],[7.6913,45.7064],[7.6877,45.714],[7.6832,45.73],[7.6783,45.7355],[7.7108,45.7419],[7.7155,45.7459],[7.7292,45.7409]]]}},{"type":"Feature","properties":{"i":"007026","n":"Etroubles"},"geometry":{"type":"Polygon","coordinates":[[[7.246,45.892],[7.2512,45.89],[7.2556,45.8816],[7.2552,45.8711],[7.256,45.8639],[7.2546,45.8593],[7.2549,45.8556],[7.2558,45.854],[7.2583,45.8527],[7.2619,45.8468],[7.2643,45.8389],[7.2636,45.8362],[7.261,45.8341],[7.2594,45.831],[7.2552,45.8194],[7.2591,45.8142],[7.2589,45.8093],[7.252,45.801],[7.24,45.7967],[7.2312,45.7909],[7.2082,45.7945],[7.2093,45.7987],[7.2145,45.8089],[7.2247,45.824],[7.2253,45.827],[7.2149,45.8308],[7.2133,45.8344],[7.209,45.8401],[7.1959,45.8542],[7.1929,45.8595],[7.1967,45.8607],[7.2003,45.8631],[7.198,45.8669],[7.1977,45.8696],[7.2,45.8753],[7.2104,45.8813],[7.2207,45.8896],[7.2272,45.8911],[7.2402,45.8897],[7.246,45.892]]]}},{"type":"Feature","properties":{"i":"007027","n":"Fénis"},"geometry":{"type":"Polygon","coordinates":[[[7.5089,45.7444],[7.518,45.7408],[7.5159,45.7401],[7.5152,45.7387],[7.5142,45.7303],[7.5146,45.7275],[7.517,45.7243],[7.5343,45.7123],[7.5374,45.7081],[7.5398,45.6964],[7.5395,45.6852],[7.5383,45.6827],[7.543,45.6728],[7.5408,45.6683],[7.5433,45.6659],[7.5458,45.657],[7.5459,45.6523],[7.5442,45.6434],[7.5397,45.6315],[7.5338,45.6299],[7.5319,45.6262],[7.5276,45.6231],[7.5093,45.618],[7.4913,45.6078],[7.4788,45.6149],[7.4756,45.6186],[7.4755,45.6213],[7.4708,45.6284],[7.4645,45.6336],[7.4634,45.6402],[7.466,45.6465],[7.4707,45.6507],[7.4715,45.6591],[7.4701,45.6669],[7.471,45.6743],[7.4768,45.6808],[7.4801,45.6891],[7.4773,45.7181],[7.4695,45.7367],[7.4858,45.7447],[7.4969,45.7458],[7.5089,45.7444]]]}},{"type":"Feature","properties":{"i":"007028","n":"Fontainemore"},"geometry":{"type":"Polygon","coordinates":[[[7.9119,45.6707],[7.9216,45.6664],[7.922,45.6643],[7.9209,45.6606],[7.9226,45.6581],[7.9314,45.6486],[7.9382,45.6454],[7.9395,45.6437],[7.9361,45.6357],[7.9275,45.6359],[7.915,45.6327],[7.9085,45.6244],[7.8975,45.6125],[7.8886,45.6194],[7.8848,45.6251],[7.8803,45.629],[7.8645,45.6382],[7.8537,45.6408],[7.8467,45.6363],[7.8423,45.6405],[7.8369,45.6493],[7.8245,45.6553],[7.8154,45.662],[7.8242,45.6632],[7.8455,45.6682],[7.877,45.6697],[7.8967,45.6683],[7.903,45.6671],[7.9078,45.6683],[7.9119,45.6707]]]}},{"type":"Feature","properties":{"i":"007029","n":"Gaby"},"geometry":{"type":"Polygon","coordinates":[[[7.9273,45.7347],[7.9366,45.7243],[7.9203,45.7019],[7.9128,45.7011],[7.9115,45.7004],[7.9065,45.6913],[7.9048,45.6862],[7.9052,45.682],[7.904,45.6814],[7.8966,45.6816],[7.8838,45.6851],[7.8774,45.6887],[7.8681,45.6978],[7.8619,45.6982],[7.8549,45.7012],[7.8451,45.7069],[7.8444,45.7135],[7.8424,45.7142],[7.8373,45.7133],[7.8379,45.712],[7.8295,45.7125],[7.8252,45.7133],[7.8169,45.7166],[7.8198,45.7257],[7.8225,45.7281],[7.8287,45.7294],[7.8339,45.7282],[7.8582,45.7282],[7.8622,45.7319],[7.8769,45.739],[7.8851,45.7387],[7.8945,45.7342],[7.8989,45.7332],[7.9033,45.7335],[7.9073,45.7356],[7.9197,45.7358],[7.9273,45.7347]]]}},{"type":"Feature","properties":{"i":"007030","n":"Gignod"},"geometry":{"type":"Polygon","coordinates":[[[7.2909,45.7976],[7.3026,45.7896],[7.3062,45.7886],[7.306,45.7847],[7.3105,45.7768],[7.3153,45.7724],[7.3178,45.7661],[7.3174,45.7646],[7.3034,45.763],[7.2826,45.7657],[7.2772,45.7671],[7.2758,45.7704],[7.2615,45.7726],[7.2565,45.7722],[7.2388,45.7675],[7.2333,45.7742],[7.222,45.7772],[7.207,45.7773],[7.1951,45.7754],[7.1892,45.7791],[7.1917,45.7843],[7.2019,45.7893],[7.2082,45.7945],[7.2312,45.7909],[7.24,45.7967],[7.2495,45.8006],[7.2512,45.8005],[7.257,45.8064],[7.2775,45.802],[7.2858,45.7985],[7.2909,45.7976]]]}},{"type":"Feature","properties":{"i":"007031","n":"Gressan"},"geometry":{"type":"Polygon","coordinates":[[[7.3095,45.7287],[7.311,45.7232],[7.3171,45.7124],[7.3225,45.6852],[7.3255,45.6799],[7.3372,45.6641],[7.3406,45.6577],[7.3293,45.6502],[7.3084,45.6543],[7.2941,45.6593],[7.2886,45.6601],[7.2803,45.6643],[7.2787,45.668],[7.2786,45.6692],[7.2832,45.6759],[7.2857,45.6867],[7.287,45.7012],[7.281,45.7146],[7.278,45.7235],[7.2893,45.7289],[7.2979,45.7263],[7.3095,45.7287]]]}},{"type":"Feature","properties":{"i":"007032","n":"Gressoney-La-Trinité"},"geometry":{"type":"Polygon","coordinates":[[[7.864,45.9164],[7.8619,45.9144],[7.8614,45.9104],[7.8632,45.9075],[7.8641,45.8929],[7.8687,45.8689],[7.8756,45.8621],[7.8739,45.8532],[7.8667,45.8483],[7.8639,45.8396],[7.8668,45.8365],[7.8709,45.8342],[7.8734,45.8259],[7.8662,45.823],[7.8623,45.8199],[7.8377,45.8196],[7.8272,45.8209],[7.8202,45.825],[7.8177,45.8309],[7.8049,45.8383],[7.7958,45.84],[7.7835,45.8372],[7.7819,45.8616],[7.782,45.8745],[7.7831,45.8846],[7.787,45.8946],[7.793,45.906],[7.798,45.918],[7.8012,45.9173],[7.8077,45.9212],[7.8188,45.9264],[7.8214,45.9269],[7.8302,45.9252],[7.8382,45.9217],[7.8532,45.9208],[7.8606,45.9186],[7.864,45.9164]]]}},{"type":"Feature","properties":{"i":"007033","n":"Gressoney-Saint-Jean"},"geometry":{"type":"Polygon","coordinates":[[[7.8623,45.8199],[7.8662,45.8025],[7.8641,45.7951],[7.8641,45.79],[7.87,45.782],[7.8734,45.7783],[7.8775,45.7755],[7.8823,45.7697],[7.8822,45.7657],[7.8849,45.7602],[7.9002,45.7492],[7.9173,45.7435],[7.9244,45.7419],[7.929,45.7424],[7.9273,45.7347],[7.9197,45.7358],[7.9073,45.7356],[7.9033,45.7335],[7.8989,45.7332],[7.8945,45.7342],[7.8851,45.7387],[7.8769,45.739],[7.8622,45.7319],[7.8582,45.7282],[7.8339,45.7282],[7.8287,45.7294],[7.8225,45.7281],[7.8198,45.7257],[7.8188,45.7293],[7.8233,45.7322],[7.8129,45.7413],[7.8098,45.7427],[7.8066,45.7463],[7.8049,45.749],[7.8044,45.7533],[7.8022,45.7596],[7.7982,45.764],[7.7947,45.7653],[7.7947,45.7719],[7.7957,45.7749],[7.7953,45.7792],[7.7925,45.788],[7.7881,45.7918],[7.7838,45.7933],[7.7827,45.7947],[7.7817,45.7997],[7.7861,45.8019],[7.7878,45.804],[7.7876,45.8051],[7.7844,45.8071],[7.7826,45.8099],[7.7863,45.8174],[7.7888,45.8202],[7.789,45.8291],[7.784,45.8345],[7.7835,45.8372],[7.7958,45.84],[7.8067,45.8377],[7.8177,45.8309],[7.8202,45.825],[7.8272,45.8209],[7.8377,45.8196],[7.8623,45.8199]]]}},{"type":"Feature","properties":{"i":"007034","n":"Hône"},"geometry":{"type":"Polygon","coordinates":[[[7.7361,45.6244],[7.7427,45.61],[7.7416,45.609],[7.7417,45.6079],[7.7449,45.6043],[7.7465,45.6038],[7.7454,45.601],[7.7316,45.5902],[7.7247,45.5885],[7.7196,45.5892],[7.7139,45.5885],[7.7037,45.5945],[7.6986,45.5996],[7.6989,45.6035],[7.7062,45.6075],[7.7076,45.6113],[7.7001,45.6181],[7.6926,45.6198],[7.6947,45.6212],[7.6981,45.6232],[7.7168,45.6285],[7.7208,45.6313],[7.725,45.6321],[7.7326,45.6301],[7.7354,45.6273],[7.7361,45.6244]]]}},{"type":"Feature","properties":{"i":"007035","n":"Introd"},"geometry":{"type":"Polygon","coordinates":[[[7.2113,45.652],[7.2083,45.6523],[7.2033,45.6512],[7.1986,45.6413],[7.1869,45.6417],[7.1801,45.6409],[7.1816,45.6434],[7.1845,45.6541],[7.1635,45.6687],[7.1616,45.6691],[7.1535,45.6692],[7.1437,45.6603],[7.1379,45.6521],[7.1244,45.6502],[7.1228,45.6524],[7.1224,45.6557],[7.1377,45.6612],[7.1493,45.6676],[7.1495,45.6687],[7.147,45.672],[7.1447,45.6729],[7.1465,45.6834],[7.1506,45.6858],[7.1622,45.6878],[7.1702,45.6929],[7.1794,45.7006],[7.1845,45.7034],[7.1889,45.7013],[7.1947,45.6952],[7.1942,45.6917],[7.1983,45.6825],[7.2019,45.6805],[7.2059,45.6751],[7.2094,45.6653],[7.2104,45.6601],[7.2098,45.6562],[7.2113,45.652]]]}},{"type":"Feature","properties":{"i":"007036","n":"Issime"},"geometry":{"type":"Polygon","coordinates":[[[7.8169,45.7166],[7.8252,45.7133],[7.8295,45.7125],[7.8379,45.712],[7.8373,45.7133],[7.8424,45.7142],[7.8444,45.7135],[7.8451,45.7069],[7.8549,45.7012],[7.8619,45.6982],[7.8681,45.6978],[7.8774,45.6887],[7.885,45.6846],[7.8966,45.6816],[7.903,45.6813],[7.9063,45.6819],[7.9103,45.6804],[7.9114,45.679],[7.9119,45.6707],[7.9078,45.6683],[7.903,45.6671],[7.8967,45.6683],[7.877,45.6697],[7.8455,45.6682],[7.8242,45.6632],[7.817,45.6625],[7.8118,45.6603],[7.7968,45.6638],[7.7898,45.6629],[7.785,45.6634],[7.7824,45.6692],[7.7857,45.6752],[7.7862,45.681],[7.7856,45.6858],[7.7867,45.6892],[7.7878,45.6907],[7.7955,45.6919],[7.8029,45.6954],[7.8141,45.7145],[7.8137,45.7162],[7.8169,45.7166]]]}},{"type":"Feature","properties":{"i":"007037","n":"Issogne"},"geometry":{"type":"Polygon","coordinates":[[[7.6743,45.6793],[7.6754,45.6725],[7.6796,45.6623],[7.6993,45.6488],[7.7082,45.6459],[7.7067,45.6437],[7.6796,45.6312],[7.6764,45.6278],[7.662,45.6311],[7.6592,45.6301],[7.6555,45.6325],[7.6499,45.6347],[7.6329,45.6369],[7.6271,45.6349],[7.6233,45.6349],[7.6148,45.6381],[7.6101,45.644],[7.6094,45.6457],[7.6133,45.6461],[7.6257,45.6535],[7.6402,45.659],[7.6401,45.6674],[7.6507,45.6809],[7.6559,45.6821],[7.6743,45.6793]]]}},{"type":"Feature","properties":{"i":"007038","n":"Jovençan"},"geometry":{"type":"Polygon","coordinates":[[[7.2786,45.6692],[7.2775,45.6698],[7.277,45.6793],[7.2754,45.6842],[7.2733,45.6872],[7.2712,45.6873],[7.2664,45.6972],[7.2654,45.7026],[7.2581,45.7116],[7.2631,45.7177],[7.2653,45.7191],[7.2777,45.7238],[7.287,45.7012],[7.2857,45.6867],[7.2832,45.6759],[7.2786,45.6692]]]}},{"type":"Feature","properties":{"i":"007039","n":"La Magdeleine"},"geometry":{"type":"MultiPolygon","coordinates":[[[[7.614,45.8006],[7.6134,45.8009],[7.614,45.8029],[7.6165,45.8021],[7.6161,45.8011],[7.614,45.8006]]],[[[7.6616,45.8288],[7.6557,45.8172],[7.6468,45.8167],[7.6455,45.8153],[7.6445,45.8112],[7.6426,45.8085],[7.6346,45.8024],[7.627,45.7988],[7.6249,45.8009],[7.617,45.8057],[7.6042,45.8101],[7.5982,45.8139],[7.6,45.8187],[7.6047,45.8203],[7.6081,45.8242],[7.6147,45.8246],[7.627,45.8229],[7.6307,45.8237],[7.6399,45.8286],[7.6509,45.8279],[7.6616,45.8288]]]]}},{"type":"Feature","properties":{"i":"007040","n":"La Salle"},"geometry":{"type":"Polygon","coordinates":[[[7.113,45.7973],[7.1083,45.7827],[7.1066,45.7748],[7.1082,45.7663],[7.1111,45.762],[7.1126,45.7557],[7.1129,45.7379],[7.0998,45.734],[7.099,45.7317],[7.0995,45.7299],[7.1105,45.7213],[7.1182,45.7183],[7.1227,45.714],[7.1204,45.7113],[7.1154,45.7121],[7.1064,45.7073],[7.0997,45.7002],[7.087,45.6912],[7.0522,45.6871],[7.0447,45.6826],[7.0397,45.6777],[7.0283,45.6715],[7.0233,45.6734],[7.0123,45.6853],[6.9987,45.6872],[6.9956,45.6895],[6.9949,45.6951],[7.0045,45.702],[7.0099,45.7079],[7.0108,45.7142],[7.0187,45.7179],[7.0228,45.7182],[7.0281,45.7221],[7.0328,45.7275],[7.0513,45.7408],[7.0577,45.748],[7.0598,45.7537],[7.06,45.7562],[7.0545,45.7598],[7.0523,45.7671],[7.0559,45.7775],[7.0538,45.7838],[7.0445,45.7993],[7.0347,45.8093],[7.0421,45.8108],[7.0447,45.8126],[7.0543,45.8167],[7.06,45.815],[7.062,45.8157],[7.0697,45.8229],[7.0782,45.8335],[7.0823,45.8326],[7.09,45.8282],[7.099,45.8187],[7.1047,45.8055],[7.1083,45.7996],[7.113,45.7973]]]}},{"type":"Feature","properties":{"i":"007041","n":"La Thuile"},"geometry":{"type":"Polygon","coordinates":[[[6.8942,45.7622],[6.8966,45.7591],[6.8971,45.7563],[6.9076,45.7524],[6.9173,45.7507],[6.9235,45.7426],[6.9271,45.7344],[6.9346,45.7276],[6.9481,45.7235],[6.9536,45.7235],[6.9596,45.7257],[6.964,45.7289],[6.9673,45.7343],[6.9734,45.7404],[6.9881,45.7332],[6.9892,45.729],[6.985,45.7231],[6.984,45.7173],[6.9846,45.7059],[6.9893,45.699],[6.9959,45.6962],[6.9949,45.6951],[6.9951,45.6903],[6.9973,45.688],[6.9999,45.6869],[7.0123,45.6853],[7.0233,45.6734],[7.0283,45.6715],[7.0244,45.6661],[7.0186,45.6604],[7.019,45.6547],[7.0224,45.6477],[7.0237,45.6384],[7.0186,45.6322],[7.0151,45.6304],[7.0081,45.6299],[6.9972,45.6312],[7.0001,45.635],[6.9968,45.6408],[6.9804,45.6453],[6.9717,45.6492],[6.9704,45.6534],[6.9686,45.6545],[6.9609,45.6551],[6.9327,45.6473],[6.9164,45.6522],[6.9159,45.658],[6.9094,45.662],[6.906,45.6674],[6.9065,45.6752],[6.9028,45.6803],[6.9006,45.6808],[6.8991,45.6803],[6.8942,45.6762],[6.8928,45.676],[6.8816,45.6795],[6.8686,45.6812],[6.8563,45.6855],[6.848,45.6902],[6.8436,45.6963],[6.834,45.7022],[6.8252,45.7091],[6.8133,45.7226],[6.8105,45.7288],[6.8131,45.7313],[6.8173,45.7397],[6.835,45.7486],[6.8443,45.7551],[6.8482,45.7568],[6.8656,45.7623],[6.872,45.7631],[6.8817,45.7608],[6.8926,45.7614],[6.8942,45.7622]]]}},{"type":"Feature","properties":{"i":"007042","n":"Lillianes"},"geometry":{"type":"Polygon","coordinates":[[[7.8975,45.6125],[7.8967,45.6114],[7.8974,45.6063],[7.8959,45.6007],[7.9006,45.5926],[7.9001,45.5914],[7.8958,45.59],[7.8916,45.5931],[7.8905,45.5944],[7.8906,45.596],[7.8875,45.598],[7.8792,45.6002],[7.8623,45.597],[7.858,45.6086],[7.851,45.6193],[7.8481,45.621],[7.8412,45.6219],[7.8357,45.624],[7.8259,45.6292],[7.8227,45.632],[7.8147,45.6572],[7.8118,45.6603],[7.8154,45.662],[7.8245,45.6553],[7.8358,45.6501],[7.8377,45.6483],[7.8423,45.6405],[7.8467,45.6363],[7.8542,45.6408],[7.8635,45.6387],[7.8715,45.6344],[7.8803,45.629],[7.8848,45.6251],[7.8886,45.6194],[7.8975,45.6125]]]}},{"type":"Feature","properties":{"i":"007043","n":"Montjovet"},"geometry":{"type":"Polygon","coordinates":[[[7.6783,45.7355],[7.6832,45.73],[7.6877,45.714],[7.6913,45.7064],[7.698,45.7002],[7.7006,45.6996],[7.6979,45.6975],[7.6914,45.6881],[7.6875,45.6862],[7.6849,45.686],[7.6712,45.6871],[7.6682,45.6891],[7.6705,45.6933],[7.6701,45.6962],[7.6574,45.6952],[7.641,45.7016],[7.6363,45.7049],[7.6279,45.7055],[7.6267,45.71],[7.639,45.7222],[7.6518,45.7328],[7.6546,45.7375],[7.6616,45.7348],[7.6651,45.7355],[7.6677,45.7388],[7.6783,45.7355]]]}},{"type":"Feature","properties":{"i":"007044","n":"Morgex"},"geometry":{"type":"Polygon","coordinates":[[[6.9959,45.6962],[6.9893,45.699],[6.9846,45.7059],[6.984,45.7173],[6.985,45.7231],[6.9892,45.729],[6.9881,45.7332],[6.9734,45.7404],[6.9862,45.7484],[6.9903,45.7587],[6.9943,45.7593],[6.9954,45.7607],[7.0061,45.7874],[7.0152,45.7932],[7.0185,45.7976],[7.0221,45.8047],[7.0294,45.8102],[7.0327,45.811],[7.0445,45.7993],[7.0538,45.7838],[7.0559,45.7775],[7.0523,45.7671],[7.0545,45.7598],[7.06,45.7562],[7.0598,45.7537],[7.0577,45.748],[7.0534,45.7426],[7.0328,45.7275],[7.0281,45.7221],[7.0228,45.7182],[7.0187,45.7179],[7.0108,45.7142],[7.0099,45.7079],[7.0045,45.702],[6.9959,45.6962]]]}},{"type":"Feature","properties":{"i":"007045","n":"Nus"},"geometry":{"type":"Polygon","coordinates":[[[7.5356,45.8008],[7.5322,45.7997],[7.5248,45.7949],[7.5112,45.7906],[7.5018,45.7844],[7.495,45.7751],[7.4923,45.7732],[7.4929,45.7679],[7.4984,45.7587],[7.5032,45.7577],[7.5068,45.759],[7.5084,45.7576],[7.5102,45.7495],[7.5089,45.7444],[7.4969,45.7458],[7.4858,45.7447],[7.4656,45.735],[7.457,45.7358],[7.4545,45.7373],[7.4541,45.7391],[7.4497,45.7401],[7.4389,45.7394],[7.434,45.7376],[7.4292,45.7376],[7.43,45.7434],[7.4314,45.7444],[7.4428,45.7426],[7.4552,45.7425],[7.4604,45.7443],[7.4596,45.7455],[7.4601,45.7538],[7.4678,45.796],[7.4684,45.7976],[7.4704,45.799],[7.4743,45.8061],[7.4797,45.82],[7.4814,45.8272],[7.4789,45.8335],[7.4683,45.838],[7.4671,45.8405],[7.4722,45.8458],[7.4835,45.8471],[7.488,45.8481],[7.4896,45.8492],[7.4908,45.8532],[7.4895,45.8596],[7.4922,45.8706],[7.497,45.8728],[7.5018,45.8736],[7.5093,45.872],[7.5139,45.8732],[7.5268,45.8793],[7.5295,45.8778],[7.5249,45.8714],[7.5249,45.8658],[7.5378,45.8386],[7.5421,45.8353],[7.5466,45.8273],[7.546,45.8245],[7.5378,45.815],[7.5348,45.8091],[7.5346,45.8037],[7.5356,45.8008]]]}},{"type":"Feature","properties":{"i":"007046","n":"Ollomont"},"geometry":{"type":"Polygon","coordinates":[[[7.374,45.9006],[7.3739,45.8925],[7.3674,45.8797],[7.3523,45.8686],[7.3417,45.8675],[7.3383,45.8638],[7.3331,45.8522],[7.3291,45.8469],[7.322,45.84],[7.3166,45.8362],[7.3131,45.8349],[7.3111,45.8351],[7.3066,45.8374],[7.3043,45.841],[7.2981,45.8465],[7.2937,45.8468],[7.2884,45.8538],[7.2834,45.8569],[7.2598,45.8601],[7.2546,45.8593],[7.256,45.8639],[7.2552,45.8711],[7.2556,45.8816],[7.2512,45.89],[7.246,45.892],[7.2499,45.893],[7.2514,45.892],[7.2529,45.8887],[7.2541,45.8881],[7.2584,45.8891],[7.273,45.9001],[7.2795,45.9063],[7.2866,45.9167],[7.2907,45.9205],[7.2942,45.9217],[7.3078,45.9174],[7.3173,45.9128],[7.318,45.9118],[7.3242,45.9104],[7.3297,45.9106],[7.3442,45.9151],[7.3537,45.9113],[7.3652,45.904],[7.3706,45.9026],[7.374,45.9006]]]}},{"type":"Feature","properties":{"i":"007047","n":"Oyace"},"geometry":{"type":"Polygon","coordinates":[[[7.4671,45.8405],[7.4683,45.838],[7.455,45.8275],[7.4491,45.8205],[7.4408,45.8173],[7.4322,45.8194],[7.4241,45.8184],[7.4147,45.8152],[7.4074,45.8094],[7.406,45.8151],[7.4027,45.8201],[7.396,45.8252],[7.3779,45.8347],[7.3682,45.8382],[7.3579,45.838],[7.3566,45.8402],[7.3552,45.847],[7.3585,45.856],[7.353,45.8639],[7.3523,45.8686],[7.365,45.8778],[7.3646,45.8727],[7.3652,45.8715],[7.3744,45.8644],[7.3894,45.8572],[7.3944,45.8557],[7.4023,45.8584],[7.421,45.8582],[7.4428,45.8557],[7.4469,45.8515],[7.4492,45.8449],[7.4533,45.8406],[7.4574,45.8388],[7.4671,45.8405]]]}},{"type":"Feature","properties":{"i":"007048","n":"Perloz"},"geometry":{"type":"Polygon","coordinates":[[[7.8118,45.6603],[7.8147,45.6572],[7.8227,45.632],[7.8259,45.6292],[7.8357,45.624],[7.8412,45.6219],[7.8481,45.621],[7.851,45.6193],[7.858,45.6086],[7.8623,45.597],[7.8489,45.6023],[7.8416,45.6033],[7.8363,45.6051],[7.8307,45.6082],[7.818,45.61],[7.8123,45.61],[7.8086,45.608],[7.8052,45.6032],[7.7911,45.6032],[7.7879,45.6049],[7.7908,45.6145],[7.7901,45.6161],[7.7863,45.6186],[7.7839,45.6216],[7.7837,45.625],[7.7821,45.6283],[7.7831,45.6391],[7.7826,45.6513],[7.7819,45.6535],[7.7824,45.66],[7.785,45.6634],[7.7898,45.6629],[7.7968,45.6638],[7.8118,45.6603]]]}},{"type":"Feature","properties":{"i":"007049","n":"Pollein"},"geometry":{"type":"Polygon","coordinates":[[[7.385,45.6783],[7.3751,45.6786],[7.3629,45.6911],[7.3529,45.7051],[7.352,45.7111],[7.3482,45.72],[7.344,45.7272],[7.3386,45.7296],[7.3415,45.7322],[7.342,45.7361],[7.3739,45.7379],[7.3793,45.7304],[7.3804,45.7156],[7.3828,45.7063],[7.3942,45.6906],[7.39,45.6832],[7.385,45.6783]]]}},{"type":"Feature","properties":{"i":"007050","n":"Pontboset"},"geometry":{"type":"Polygon","coordinates":[[[7.6926,45.6198],[7.7001,45.6181],[7.7076,45.6113],[7.7062,45.6075],[7.6989,45.6035],[7.6985,45.6],[7.7025,45.5955],[7.7139,45.5885],[7.7064,45.5821],[7.6979,45.5725],[7.691,45.5634],[7.6883,45.5573],[7.6768,45.5521],[7.6755,45.5523],[7.6571,45.5629],[7.6427,45.5687],[7.634,45.5708],[7.6343,45.5719],[7.6304,45.5776],[7.6285,45.5836],[7.6329,45.5925],[7.6394,45.599],[7.6485,45.6034],[7.6509,45.6057],[7.6561,45.6131],[7.6625,45.6263],[7.662,45.6311],[7.6764,45.6278],[7.6767,45.6268],[7.6845,45.6218],[7.6919,45.6188],[7.6926,45.6198]]]}},{"type":"Feature","properties":{"i":"007051","n":"Pontey"},"geometry":{"type":"Polygon","coordinates":[[[7.5867,45.745],[7.5896,45.7441],[7.5945,45.7448],[7.6172,45.7414],[7.6045,45.731],[7.6055,45.7277],[7.6025,45.7194],[7.5951,45.7127],[7.5978,45.7055],[7.5978,45.7023],[7.5959,45.7021],[7.5803,45.6917],[7.5733,45.6899],[7.5646,45.6889],[7.5665,45.6965],[7.5661,45.7141],[7.5668,45.7248],[7.5661,45.734],[7.5643,45.742],[7.5655,45.7449],[7.5867,45.745]]]}},{"type":"Feature","properties":{"i":"007052","n":"Pont-Saint-Martin"},"geometry":{"type":"Polygon","coordinates":[[[7.8489,45.6023],[7.843,45.598],[7.8406,45.5973],[7.8317,45.5978],[7.8278,45.5971],[7.8165,45.5933],[7.8086,45.5894],[7.8012,45.5868],[7.7957,45.5864],[7.7929,45.5896],[7.786,45.5894],[7.7844,45.5921],[7.7879,45.6049],[7.7911,45.6032],[7.8052,45.6032],[7.8086,45.608],[7.8134,45.6104],[7.8294,45.6085],[7.8416,45.6033],[7.8489,45.6023]]]}},{"type":"Feature","properties":{"i":"007053","n":"Pré-Saint-Didier"},"geometry":{"type":"Polygon","coordinates":[[[6.9734,45.7404],[6.9673,45.7343],[6.9648,45.7296],[6.9609,45.7264],[6.9536,45.7235],[6.9481,45.7235],[6.9346,45.7276],[6.9271,45.7344],[6.9235,45.7426],[6.9173,45.7507],[6.9076,45.7524],[6.8971,45.7563],[6.8966,45.7591],[6.8942,45.7622],[6.9004,45.7633],[6.9081,45.7663],[6.9151,45.7708],[6.9358,45.7756],[6.9528,45.7813],[6.9713,45.7813],[6.9822,45.7851],[6.9975,45.7885],[7.0095,45.7894],[7.0061,45.7874],[6.9954,45.7607],[6.9943,45.7593],[6.9903,45.7587],[6.9862,45.7484],[6.9734,45.7404]]]}},{"type":"Feature","properties":{"i":"007054","n":"Quart"},"geometry":{"type":"Polygon","coordinates":[[[7.4292,45.7376],[7.4164,45.7393],[7.3691,45.7375],[7.3683,45.7448],[7.3703,45.7531],[7.3715,45.7652],[7.3704,45.7812],[7.3719,45.793],[7.3823,45.7973],[7.3997,45.8023],[7.4137,45.8146],[7.4181,45.8166],[7.4241,45.8184],[7.4322,45.8194],[7.4423,45.8175],[7.4491,45.8205],[7.455,45.8275],[7.4683,45.838],[7.4778,45.8341],[7.4789,45.8335],[7.4812,45.8261],[7.4797,45.82],[7.4743,45.8061],[7.4704,45.799],[7.4684,45.7976],[7.4678,45.796],[7.4601,45.7538],[7.4596,45.7455],[7.4604,45.7443],[7.4552,45.7425],[7.4428,45.7426],[7.4314,45.7444],[7.43,45.7434],[7.4292,45.7376]]]}},{"type":"Feature","properties":{"i":"007055","n":"Rhêmes-Notre-Dame"},"geometry":{"type":"Polygon","coordinates":[[[7.1659,45.5882],[7.1678,45.5828],[7.1658,45.5708],[7.168,45.5659],[7.1704,45.5635],[7.1698,45.5614],[7.1568,45.5491],[7.1582,45.5458],[7.1577,45.541],[7.1555,45.5355],[7.1476,45.5231],[7.1375,45.5163],[7.1275,45.5121],[7.1217,45.5062],[7.1202,45.4961],[7.1149,45.4871],[7.1147,45.4775],[7.1096,45.4701],[7.1043,45.467],[7.0961,45.4699],[7.0786,45.4731],[7.0664,45.4743],[7.0586,45.472],[7.0465,45.4731],[7.0446,45.48],[7.0477,45.4844],[7.0502,45.4866],[7.0542,45.4884],[7.0551,45.491],[7.0546,45.494],[7.0521,45.4957],[7.0435,45.4977],[7.0428,45.5005],[7.044,45.5081],[7.0461,45.5149],[7.0487,45.5191],[7.0517,45.5206],[7.0553,45.5243],[7.0659,45.5486],[7.0805,45.5596],[7.0831,45.5636],[7.0846,45.5661],[7.0822,45.5727],[7.0825,45.5746],[7.0983,45.5908],[7.1073,45.5989],[7.1136,45.5954],[7.1173,45.5957],[7.123,45.5977],[7.1344,45.5979],[7.1659,45.5882]]]}},{"type":"Feature","properties":{"i":"007056","n":"Rhêmes-Saint-Georges"},"geometry":{"type":"Polygon","coordinates":[[[7.1801,45.6409],[7.1763,45.6352],[7.1724,45.6166],[7.1728,45.6107],[7.1708,45.6021],[7.1686,45.5997],[7.1655,45.5913],[7.1659,45.5882],[7.1344,45.5979],[7.123,45.5977],[7.1173,45.5957],[7.1136,45.5954],[7.1073,45.5989],[7.1074,45.6042],[7.1032,45.6156],[7.1064,45.6245],[7.107,45.6299],[7.1119,45.6333],[7.1189,45.6436],[7.1223,45.6459],[7.1244,45.6502],[7.1379,45.6521],[7.1437,45.6603],[7.1535,45.6692],[7.1631,45.6689],[7.1845,45.6541],[7.1816,45.6434],[7.1801,45.6409]]]}},{"type":"Feature","properties":{"i":"007057","n":"Roisan"},"geometry":{"type":"Polygon","coordinates":[[[7.3565,45.7963],[7.3523,45.7922],[7.3465,45.7836],[7.3462,45.7787],[7.3427,45.7725],[7.3413,45.772],[7.3393,45.7684],[7.3297,45.7651],[7.3191,45.7636],[7.3174,45.7646],[7.3178,45.7661],[7.3153,45.7724],[7.3105,45.7768],[7.306,45.7847],[7.3062,45.7886],[7.3021,45.7902],[7.3008,45.7939],[7.3005,45.7993],[7.3114,45.8081],[7.3158,45.8133],[7.317,45.8134],[7.3342,45.809],[7.3512,45.7973],[7.3565,45.7963]]]}},{"type":"Feature","properties":{"i":"007058","n":"Saint-Christophe"},"geometry":{"type":"Polygon","coordinates":[[[7.3691,45.7375],[7.3477,45.7364],[7.3478,45.7401],[7.3467,45.7435],[7.3426,45.7464],[7.3393,45.7469],[7.3362,45.7464],[7.3286,45.7581],[7.3315,45.7633],[7.3348,45.7648],[7.3393,45.7684],[7.3413,45.772],[7.3427,45.7725],[7.3462,45.7787],[7.3465,45.7836],[7.3523,45.7922],[7.3565,45.7963],[7.3719,45.793],[7.3704,45.7812],[7.3715,45.7652],[7.3703,45.7531],[7.3683,45.7448],[7.3691,45.7375]]]}},{"type":"Feature","properties":{"i":"007059","n":"Saint-Denis"},"geometry":{"type":"Polygon","coordinates":[[[7.5991,45.7652],[7.6069,45.7543],[7.607,45.7529],[7.6029,45.7503],[7.5936,45.7489],[7.5863,45.7488],[7.5867,45.745],[7.5718,45.7453],[7.5714,45.7483],[7.5696,45.7489],[7.5489,45.7473],[7.5368,45.7482],[7.5397,45.7517],[7.5509,45.7593],[7.5547,45.7652],[7.5559,45.7712],[7.5666,45.7781],[7.5688,45.7847],[7.5745,45.7798],[7.5749,45.7776],[7.5817,45.7704],[7.589,45.7638],[7.5991,45.7652]]]}},{"type":"Feature","properties":{"i":"007060","n":"Saint-Marcel"},"geometry":{"type":"Polygon","coordinates":[[[7.4695,45.7367],[7.4773,45.7181],[7.4801,45.6891],[7.4768,45.6808],[7.471,45.6743],[7.4701,45.6669],[7.4715,45.6591],[7.4707,45.6507],[7.466,45.6465],[7.4634,45.6402],[7.4645,45.6336],[7.4576,45.6328],[7.4526,45.6335],[7.4449,45.6374],[7.4334,45.6472],[7.4269,45.6517],[7.4178,45.6596],[7.4157,45.6623],[7.4202,45.6644],[7.422,45.6666],[7.4228,45.6699],[7.4223,45.6793],[7.4206,45.6836],[7.4195,45.6936],[7.4231,45.6976],[7.4264,45.7081],[7.4273,45.7135],[7.4272,45.7259],[7.4282,45.7376],[7.433,45.7375],[7.4389,45.7394],[7.4497,45.7401],[7.4541,45.7391],[7.4545,45.7373],[7.4585,45.7354],[7.4656,45.735],[7.4695,45.7367]]]}},{"type":"Feature","properties":{"i":"007061","n":"Saint-Nicolas"},"geometry":{"type":"Polygon","coordinates":[[[7.2036,45.7098],[7.2019,45.7088],[7.192,45.7093],[7.1875,45.7067],[7.1784,45.709],[7.1711,45.7094],[7.1624,45.7095],[7.1551,45.7079],[7.1596,45.7121],[7.1628,45.7186],[7.1505,45.7203],[7.1345,45.7194],[7.128,45.7217],[7.1272,45.7398],[7.1287,45.7413],[7.1335,45.7424],[7.134,45.741],[7.1391,45.7394],[7.1457,45.7475],[7.1461,45.7517],[7.1472,45.7533],[7.1532,45.756],[7.1583,45.7452],[7.1704,45.7318],[7.1814,45.7285],[7.1949,45.7288],[7.1969,45.7274],[7.2,45.7236],[7.2032,45.7168],[7.2036,45.7098]]]}},{"type":"Feature","properties":{"i":"007062","n":"Saint-Oyen"},"geometry":{"type":"Polygon","coordinates":[[[7.2082,45.7945],[7.2019,45.7893],[7.2017,45.7903],[7.2004,45.7909],[7.1942,45.7907],[7.1921,45.7913],[7.1918,45.7922],[7.1914,45.7958],[7.1929,45.7998],[7.1957,45.8033],[7.1972,45.813],[7.1961,45.8372],[7.1933,45.8466],[7.1911,45.8502],[7.1904,45.8555],[7.1903,45.8586],[7.1929,45.8595],[7.1959,45.8542],[7.209,45.8401],[7.2133,45.8344],[7.2149,45.8308],[7.2253,45.827],[7.2247,45.824],[7.2145,45.8089],[7.2093,45.7987],[7.2082,45.7945]]]}},{"type":"Feature","properties":{"i":"007063","n":"Saint-Pierre"},"geometry":{"type":"Polygon","coordinates":[[[7.2479,45.7102],[7.2467,45.7067],[7.2448,45.7056],[7.2322,45.7042],[7.223,45.7045],[7.2121,45.7099],[7.2086,45.7085],[7.205,45.7088],[7.2036,45.7098],[7.2032,45.7168],[7.2018,45.7199],[7.2,45.7236],[7.1969,45.7274],[7.1949,45.7288],[7.1814,45.7285],[7.1704,45.7318],[7.1583,45.7452],[7.1532,45.756],[7.1585,45.7558],[7.1678,45.7685],[7.1721,45.7718],[7.1742,45.7762],[7.1892,45.7791],[7.1951,45.7754],[7.1863,45.7667],[7.1901,45.7604],[7.196,45.7535],[7.2091,45.7512],[7.2169,45.7484],[7.2278,45.7394],[7.236,45.73],[7.2368,45.7244],[7.2479,45.7102]]]}},{"type":"Feature","properties":{"i":"007064","n":"Saint-Rhémy-en-Bosses"},"geometry":{"type":"Polygon","coordinates":[[[7.1903,45.8586],[7.1911,45.8502],[7.1933,45.8466],[7.1961,45.8372],[7.1972,45.8207],[7.1968,45.8072],[7.1957,45.8033],[7.1918,45.7974],[7.1913,45.7952],[7.1918,45.7922],[7.1921,45.7913],[7.1942,45.7907],[7.2004,45.7909],[7.2017,45.7903],[7.2019,45.7893],[7.1917,45.7843],[7.1892,45.7791],[7.1742,45.7762],[7.1681,45.7779],[7.1634,45.7802],[7.1619,45.7817],[7.1616,45.7858],[7.1578,45.7918],[7.1418,45.7972],[7.1359,45.8016],[7.1228,45.8014],[7.115,45.7991],[7.113,45.7973],[7.1083,45.7996],[7.1047,45.8055],[7.099,45.8187],[7.0873,45.8302],[7.0782,45.8335],[7.0779,45.8383],[7.0878,45.8469],[7.0962,45.8491],[7.1,45.8573],[7.1016,45.859],[7.1183,45.8595],[7.1282,45.8652],[7.1351,45.8727],[7.1533,45.8793],[7.1565,45.8793],[7.1645,45.8769],[7.164,45.8733],[7.1614,45.8722],[7.1614,45.8716],[7.1753,45.8629],[7.1903,45.8586]]]}},{"type":"Feature","properties":{"i":"007065","n":"Saint-Vincent"},"geometry":{"type":"Polygon","coordinates":[[[7.6713,45.7838],[7.6818,45.778],[7.6928,45.7707],[7.7006,45.7625],[7.7021,45.7561],[7.7102,45.7507],[7.7155,45.7459],[7.714,45.7441],[7.7108,45.7419],[7.6783,45.7355],[7.6677,45.7388],[7.6651,45.7355],[7.6616,45.7348],[7.6507,45.7399],[7.6416,45.743],[7.6351,45.7432],[7.6314,45.7457],[7.6311,45.7466],[7.6326,45.7485],[7.6407,45.7563],[7.6457,45.7586],[7.6499,45.7633],[7.6518,45.7713],[7.6588,45.7834],[7.6646,45.7867],[7.6713,45.7838]]]}},{"type":"Feature","properties":{"i":"007066","n":"Sarre"},"geometry":{"type":"Polygon","coordinates":[[[7.2388,45.7675],[7.2419,45.7652],[7.2718,45.7553],[7.2795,45.7483],[7.2862,45.733],[7.2893,45.7289],[7.278,45.7235],[7.2767,45.7236],[7.2653,45.7191],[7.2586,45.7126],[7.2479,45.7102],[7.2368,45.7244],[7.236,45.73],[7.2278,45.7394],[7.2169,45.7484],[7.2091,45.7512],[7.196,45.7535],[7.1892,45.7615],[7.1863,45.7667],[7.1951,45.7754],[7.207,45.7773],[7.222,45.7772],[7.2324,45.7745],[7.2348,45.7726],[7.2388,45.7675]]]}},{"type":"Feature","properties":{"i":"007067","n":"Torgnon"},"geometry":{"type":"Polygon","coordinates":[[[7.549,45.8806],[7.5491,45.8787],[7.5507,45.8766],[7.5591,45.8773],[7.565,45.8792],[7.5705,45.8798],[7.5753,45.8772],[7.5799,45.8727],[7.5775,45.8678],[7.5778,45.8658],[7.5832,45.8496],[7.5961,45.8475],[7.6024,45.8477],[7.603,45.846],[7.5998,45.8382],[7.5968,45.8341],[7.5903,45.8298],[7.5855,45.8236],[7.5816,45.7974],[7.5868,45.7922],[7.5878,45.7839],[7.5915,45.7733],[7.5991,45.7652],[7.589,45.7638],[7.5817,45.7704],[7.5749,45.7776],[7.5745,45.7798],[7.5688,45.7847],[7.5603,45.7862],[7.5526,45.789],[7.5381,45.7982],[7.5356,45.8008],[7.5346,45.8037],[7.5348,45.8091],[7.5378,45.815],[7.546,45.8245],[7.5466,45.8273],[7.5421,45.8353],[7.5378,45.8386],[7.5249,45.8658],[7.5249,45.8714],[7.5295,45.8778],[7.5391,45.8829],[7.5458,45.8833],[7.549,45.8806]]]}},{"type":"Feature","properties":{"i":"007068","n":"Valgrisenche"},"geometry":{"type":"Polygon","coordinates":[[[7.107,45.6299],[7.1064,45.6245],[7.1032,45.6156],[7.1074,45.6042],[7.1073,45.5989],[7.0825,45.5746],[7.0822,45.5727],[7.0846,45.5661],[7.0805,45.5596],[7.0659,45.5486],[7.0553,45.5243],[7.0517,45.5206],[7.0487,45.5191],[7.0461,45.5149],[7.044,45.5081],[7.0428,45.5005],[7.0435,45.4977],[7.0377,45.4962],[7.0222,45.4972],[7.0086,45.5004],[6.9998,45.5051],[7.0009,45.5117],[7.0048,45.5172],[7.0028,45.5212],[6.9949,45.5283],[6.9904,45.5307],[6.9903,45.5316],[6.9915,45.5365],[6.9956,45.5436],[6.9952,45.5459],[6.9911,45.5548],[6.9898,45.5626],[6.9951,45.5694],[6.995,45.5761],[6.9915,45.5787],[6.9802,45.5842],[6.9779,45.5889],[6.9851,45.6117],[6.9842,45.6176],[6.9845,45.6236],[6.9933,45.628],[6.9972,45.6312],[7.006,45.6299],[7.0151,45.6304],[7.0186,45.6322],[7.0265,45.6409],[7.039,45.6468],[7.051,45.6495],[7.0633,45.6539],[7.0665,45.6566],[7.0681,45.6606],[7.0744,45.6639],[7.0825,45.6614],[7.0827,45.6589],[7.0814,45.6575],[7.09,45.6457],[7.107,45.6299]]]}},{"type":"Feature","properties":{"i":"007069","n":"Valpelline"},"geometry":{"type":"Polygon","coordinates":[[[7.3523,45.8686],[7.353,45.8639],[7.3585,45.856],[7.3552,45.847],[7.3566,45.8402],[7.3579,45.838],[7.3682,45.8382],[7.3779,45.8347],[7.3915,45.8278],[7.4021,45.8208],[7.406,45.8151],[7.4074,45.8094],[7.3997,45.8023],[7.3823,45.7973],[7.3719,45.793],[7.3512,45.7973],[7.3353,45.8085],[7.3293,45.8107],[7.317,45.8134],[7.3158,45.8133],[7.3152,45.812],[7.314,45.8147],[7.317,45.8254],[7.3194,45.8289],[7.3193,45.8306],[7.3131,45.8349],[7.3166,45.8362],[7.322,45.84],[7.3291,45.8469],[7.3331,45.8522],[7.3383,45.8638],[7.3417,45.8675],[7.3523,45.8686]]]}},{"type":"Feature","properties":{"i":"007070","n":"Valsavarenche"},"geometry":{"type":"Polygon","coordinates":[[[7.2578,45.596],[7.2571,45.593],[7.2583,45.5878],[7.2643,45.587],[7.272,45.5742],[7.2828,45.5616],[7.285,45.5568],[7.2846,45.5559],[7.2807,45.5548],[7.2788,45.5523],[7.274,45.5449],[7.2677,45.5301],[7.2671,45.525],[7.2695,45.5147],[7.2666,45.5094],[7.2664,45.5038],[7.2637,45.499],[7.2565,45.4978],[7.2476,45.4941],[7.2378,45.4866],[7.2346,45.4834],[7.2284,45.4747],[7.2227,45.4705],[7.2163,45.471],[7.2085,45.474],[7.2074,45.4756],[7.1995,45.4811],[7.1673,45.4842],[7.1603,45.4866],[7.1573,45.4866],[7.1521,45.4844],[7.1475,45.4777],[7.1432,45.478],[7.1411,45.4808],[7.1369,45.4909],[7.1369,45.4918],[7.143,45.4985],[7.143,45.5059],[7.1411,45.5109],[7.1384,45.5133],[7.1375,45.5163],[7.1476,45.5231],[7.1555,45.5355],[7.1577,45.541],[7.1582,45.5458],[7.1568,45.5491],[7.168,45.5594],[7.1702,45.5624],[7.1699,45.5644],[7.168,45.5659],[7.1658,45.5708],[7.1678,45.5828],[7.1655,45.5913],[7.1686,45.5997],[7.1708,45.6021],[7.1728,45.6107],[7.1724,45.6166],[7.1763,45.6352],[7.1801,45.6409],[7.1869,45.6417],[7.1986,45.6413],[7.2033,45.6512],[7.2083,45.6523],[7.2212,45.6507],[7.2283,45.6253],[7.2315,45.6228],[7.2357,45.6128],[7.2363,45.6097],[7.2352,45.6082],[7.235,45.6056],[7.2453,45.5975],[7.2514,45.5961],[7.2578,45.596]]]}},{"type":"Feature","properties":{"i":"007071","n":"Valtournenche"},"geometry":{"type":"Polygon","coordinates":[[[7.7346,45.9237],[7.7045,45.9106],[7.6987,45.9114],[7.6928,45.9173],[7.6895,45.9187],[7.6858,45.9186],[7.681,45.9168],[7.6774,45.9143],[7.6809,45.8872],[7.6819,45.8841],[7.6856,45.8796],[7.6888,45.8736],[7.6846,45.8656],[7.6801,45.8596],[7.677,45.8585],[7.6746,45.8592],[7.6706,45.8584],[7.6679,45.855],[7.6635,45.8527],[7.6472,45.8514],[7.6434,45.8526],[7.641,45.8548],[7.639,45.8551],[7.6321,45.8542],[7.6149,45.8479],[7.5961,45.8475],[7.5832,45.8496],[7.5778,45.8658],[7.5775,45.8678],[7.5799,45.8727],[7.5776,45.8753],[7.5705,45.8798],[7.565,45.8792],[7.5591,45.8773],[7.5507,45.8766],[7.5488,45.8795],[7.549,45.8806],[7.5525,45.8837],[7.5538,45.8861],[7.557,45.8984],[7.556,45.9064],[7.5567,45.9079],[7.5632,45.9127],[7.5734,45.9125],[7.5854,45.9185],[7.5866,45.9326],[7.5878,45.9368],[7.5925,45.9432],[7.6003,45.9474],[7.6011,45.9511],[7.6004,45.9559],[7.6024,45.9619],[7.6099,45.9694],[7.617,45.9721],[7.6392,45.9703],[7.6579,45.9766],[7.6637,45.9756],[7.6683,45.973],[7.6765,45.9652],[7.6786,45.9601],[7.6813,45.9572],[7.6878,45.9552],[7.6965,45.9551],[7.7019,45.9536],[7.7099,45.9483],[7.708,45.9366],[7.709,45.9335],[7.7182,45.9246],[7.7213,45.9235],[7.7346,45.9237]]]}},{"type":"Feature","properties":{"i":"007072","n":"Verrayes"},"geometry":{"type":"Polygon","coordinates":[[[7.5368,45.7482],[7.5279,45.7471],[7.526,45.7439],[7.5256,45.7404],[7.5223,45.7378],[7.518,45.7408],[7.5089,45.7444],[7.5102,45.7495],[7.5084,45.7576],[7.5068,45.759],[7.5032,45.7577],[7.4984,45.7587],[7.4929,45.7679],[7.4921,45.7722],[7.5018,45.7844],[7.5112,45.7906],[7.5248,45.7949],[7.5322,45.7997],[7.5356,45.8008],[7.5381,45.7982],[7.5526,45.789],[7.5603,45.7862],[7.5688,45.7847],[7.5666,45.7781],[7.5559,45.7712],[7.5547,45.7652],[7.5509,45.7593],[7.5397,45.7517],[7.5368,45.7482]]]}},{"type":"Feature","properties":{"i":"007073","n":"Verrès"},"geometry":{"type":"Polygon","coordinates":[[[7.6829,45.6862],[7.686,45.6796],[7.6857,45.6765],[7.6863,45.6753],[7.6893,45.6736],[7.6916,45.6734],[7.6979,45.676],[7.7034,45.6798],[7.7086,45.6812],[7.7113,45.6793],[7.7147,45.6744],[7.7189,45.6707],[7.7219,45.6686],[7.7269,45.6673],[7.7271,45.6652],[7.723,45.6639],[7.7189,45.6653],[7.7142,45.6655],[7.7101,45.6638],[7.7075,45.6611],[7.7095,45.654],[7.7067,45.6489],[7.7049,45.6474],[7.6993,45.6488],[7.6792,45.663],[7.6754,45.6725],[7.6743,45.6793],[7.6714,45.6871],[7.6829,45.6862]]]}},{"type":"Feature","properties":{"i":"007074","n":"Villeneuve"},"geometry":{"type":"Polygon","coordinates":[[[7.2308,45.7045],[7.2313,45.702],[7.2149,45.6861],[7.2101,45.6778],[7.2099,45.6761],[7.2114,45.6722],[7.2212,45.651],[7.2113,45.652],[7.2098,45.6562],[7.2104,45.6601],[7.2094,45.6653],[7.2059,45.6751],[7.2019,45.6805],[7.1983,45.6825],[7.1942,45.6917],[7.1947,45.6952],[7.1889,45.7013],[7.1856,45.7032],[7.1837,45.7034],[7.192,45.7093],[7.2019,45.7088],[7.2036,45.7098],[7.2069,45.7085],[7.2121,45.7099],[7.223,45.7045],[7.2308,45.7045]]]}}]}
