{"type":"FeatureCollection","fonte":"Confini comunali ISTAT via openpolis/geojson-italy — CC BY 4.0","features":[{"type":"Feature","properties":{"i":"044001","n":"Acquasanta Terme"},"geometry":{"type":"Polygon","coordinates":[[[13.4214,42.8112],[13.4237,42.8055],[13.421,42.8036],[13.4204,42.7983],[13.4355,42.7934],[13.4364,42.7947],[13.4369,42.8047],[13.4347,42.8058],[13.4361,42.8131],[13.4474,42.8133],[13.4511,42.8117],[13.4532,42.8091],[13.4605,42.8073],[13.4648,42.8083],[13.4675,42.7951],[13.4665,42.7899],[13.4644,42.7882],[13.4604,42.79],[13.4657,42.7743],[13.4679,42.7719],[13.4753,42.7721],[13.4808,42.7732],[13.4865,42.7785],[13.4929,42.7821],[13.5005,42.7818],[13.5011,42.778],[13.5052,42.7756],[13.5023,42.771],[13.5022,42.7634],[13.504,42.7505],[13.5022,42.7467],[13.4934,42.7366],[13.4882,42.7338],[13.4824,42.7321],[13.4699,42.733],[13.4625,42.7346],[13.4521,42.7339],[13.4476,42.7318],[13.441,42.7253],[13.438,42.7175],[13.4375,42.7128],[13.4381,42.7079],[13.4403,42.7049],[13.4404,42.7021],[13.437,42.6989],[13.4338,42.7004],[13.4318,42.7035],[13.4287,42.7062],[13.4274,42.7064],[13.4081,42.6963],[13.3978,42.689],[13.39,42.6872],[13.3801,42.6914],[13.3702,42.6935],[13.3651,42.693],[13.3629,42.6936],[13.3589,42.6958],[13.3507,42.7069],[13.3463,42.7149],[13.3462,42.7247],[13.35,42.7406],[13.3499,42.7498],[13.3485,42.754],[13.3429,42.7596],[13.3265,42.7696],[13.3354,42.7748],[13.3397,42.7782],[13.3404,42.7807],[13.3415,42.7864],[13.3362,42.7908],[13.3344,42.791],[13.3341,42.7962],[13.3387,42.8007],[13.3458,42.805],[13.3472,42.8094],[13.3629,42.8252],[13.3687,42.8289],[13.373,42.8306],[13.3789,42.83],[13.3812,42.8327],[13.3845,42.8302],[13.3899,42.828],[13.3936,42.8275],[13.4004,42.8239],[13.4063,42.817],[13.4199,42.8133],[13.4215,42.8125],[13.4214,42.8112]]]}},{"type":"Feature","properties":{"i":"044002","n":"Acquaviva Picena"},"geometry":{"type":"Polygon","coordinates":[[[13.8376,42.9572],[13.8486,42.9544],[13.8454,42.9422],[13.8479,42.9403],[13.849,42.9359],[13.8322,42.9375],[13.8307,42.935],[13.8215,42.9348],[13.8024,42.9229],[13.797,42.9219],[13.7925,42.9232],[13.7626,42.9162],[13.7617,42.9138],[13.7558,42.9227],[13.7565,42.9272],[13.7652,42.9301],[13.7686,42.9337],[13.7706,42.9403],[13.7755,42.9426],[13.7785,42.9513],[13.7781,42.9531],[13.7789,42.9538],[13.788,42.9553],[13.8021,42.9539],[13.8106,42.9542],[13.8167,42.9568],[13.8162,42.9631],[13.8182,42.9643],[13.8276,42.9652],[13.8283,42.9659],[13.8298,42.9645],[13.8299,42.9611],[13.8329,42.9574],[13.8376,42.9572]]]}},{"type":"Feature","properties":{"i":"044005","n":"Appignano del Tronto"},"geometry":{"type":"Polygon","coordinates":[[[13.6668,42.918],[13.6686,42.9183],[13.6795,42.916],[13.6846,42.9098],[13.6977,42.9034],[13.6984,42.9013],[13.6933,42.897],[13.6826,42.876],[13.6798,42.8737],[13.6766,42.8723],[13.6743,42.8736],[13.6712,42.874],[13.6647,42.8732],[13.663,42.8696],[13.6547,42.8691],[13.6526,42.8706],[13.6519,42.8741],[13.6386,42.884],[13.6366,42.8897],[13.6254,42.8863],[13.6207,42.8856],[13.6199,42.8862],[13.6174,42.8938],[13.6242,42.8964],[13.6325,42.9039],[13.6276,42.9174],[13.6395,42.9206],[13.6488,42.9211],[13.6516,42.9184],[13.6634,42.9161],[13.6672,42.9158],[13.6668,42.918]]]}},{"type":"Feature","properties":{"i":"044006","n":"Arquata del Tronto"},"geometry":{"type":"Polygon","coordinates":[[[13.3413,42.8025],[13.334,42.7958],[13.3344,42.791],[13.3362,42.7908],[13.3415,42.7864],[13.3397,42.7782],[13.3354,42.7748],[13.3265,42.7696],[13.3429,42.7596],[13.3485,42.754],[13.3499,42.7498],[13.35,42.7406],[13.3462,42.7247],[13.3463,42.7149],[13.3507,42.7069],[13.3589,42.6958],[13.3578,42.6941],[13.3419,42.7015],[13.3313,42.7096],[13.3185,42.7234],[13.3094,42.7279],[13.2973,42.7296],[13.2946,42.7306],[13.2904,42.7336],[13.288,42.7385],[13.2841,42.7398],[13.2793,42.7409],[13.2645,42.7402],[13.2612,42.7341],[13.2597,42.7275],[13.2571,42.7238],[13.2542,42.7215],[13.2506,42.7233],[13.2392,42.7261],[13.2071,42.7309],[13.2054,42.732],[13.1956,42.7343],[13.1876,42.7337],[13.189,42.7384],[13.1964,42.7451],[13.1992,42.7487],[13.1995,42.7517],[13.1988,42.7543],[13.1961,42.7572],[13.1933,42.7588],[13.1951,42.7619],[13.1998,42.7633],[13.2088,42.7639],[13.2125,42.7667],[13.2165,42.7715],[13.2216,42.7727],[13.2298,42.7723],[13.2368,42.7693],[13.2369,42.7655],[13.2385,42.761],[13.2413,42.7627],[13.2456,42.7678],[13.2454,42.7712],[13.251,42.7892],[13.2591,42.7988],[13.264,42.8082],[13.2624,42.8162],[13.271,42.8182],[13.2734,42.8195],[13.2768,42.8234],[13.2898,42.8233],[13.2984,42.8212],[13.3119,42.8127],[13.318,42.8036],[13.3195,42.8028],[13.3284,42.8006],[13.3295,42.8016],[13.3357,42.8032],[13.3413,42.8025]]]}},{"type":"Feature","properties":{"i":"044007","n":"Ascoli Piceno"},"geometry":{"type":"MultiPolygon","coordinates":[[[[13.4361,42.8131],[13.4347,42.8058],[13.4334,42.8027],[13.4237,42.8055],[13.4214,42.8112],[13.4361,42.8131]]],[[[13.6174,42.8938],[13.6197,42.8865],[13.6207,42.8856],[13.6283,42.887],[13.6307,42.8883],[13.6366,42.8897],[13.6386,42.884],[13.6519,42.8741],[13.6526,42.8706],[13.6547,42.8691],[13.663,42.8696],[13.6647,42.8732],[13.6743,42.8736],[13.6869,42.8644],[13.6971,42.8586],[13.7092,42.8594],[13.7254,42.8654],[13.7309,42.8663],[13.7345,42.865],[13.7386,42.8588],[13.7417,42.8558],[13.7266,42.8556],[13.7066,42.8493],[13.6782,42.848],[13.6668,42.8487],[13.6654,42.8467],[13.6659,42.8446],[13.6714,42.8391],[13.6683,42.8359],[13.6592,42.8348],[13.6401,42.8394],[13.6292,42.8354],[13.6181,42.8243],[13.6155,42.8205],[13.6146,42.8152],[13.6186,42.8134],[13.6167,42.8121],[13.6132,42.8103],[13.6001,42.8063],[13.5949,42.8061],[13.5888,42.8072],[13.5747,42.8008],[13.555,42.8044],[13.5532,42.8056],[13.5456,42.8159],[13.5436,42.8169],[13.5345,42.8167],[13.533,42.8133],[13.533,42.8071],[13.5317,42.8011],[13.5297,42.796],[13.5193,42.7914],[13.5169,42.7895],[13.5068,42.7763],[13.5052,42.7756],[13.5011,42.778],[13.5005,42.7818],[13.4929,42.7821],[13.4865,42.7785],[13.4823,42.7741],[13.4802,42.7729],[13.4682,42.7718],[13.4658,42.774],[13.4604,42.79],[13.4636,42.7883],[13.4653,42.7884],[13.4664,42.7895],[13.4675,42.7951],[13.4648,42.8083],[13.4589,42.8236],[13.466,42.8287],[13.4695,42.8302],[13.4747,42.8264],[13.4855,42.8251],[13.4954,42.8253],[13.4976,42.8261],[13.4968,42.8307],[13.4885,42.8448],[13.4897,42.8485],[13.5005,42.8512],[13.506,42.8547],[13.5136,42.8533],[13.524,42.8535],[13.5382,42.8598],[13.5387,42.8611],[13.5398,42.8657],[13.5388,42.8737],[13.5343,42.8768],[13.5232,42.887],[13.5137,42.8898],[13.51,42.8927],[13.512,42.9002],[13.5171,42.9109],[13.5251,42.9213],[13.5311,42.925],[13.5373,42.9221],[13.5529,42.9221],[13.5567,42.9229],[13.5676,42.9276],[13.5749,42.9297],[13.5775,42.9298],[13.5782,42.928],[13.5773,42.9202],[13.5808,42.9184],[13.5922,42.9191],[13.5962,42.918],[13.6015,42.9115],[13.6027,42.9047],[13.6121,42.897],[13.6174,42.8938]]]]}},{"type":"Feature","properties":{"i":"044010","n":"Carassai"},"geometry":{"type":"Polygon","coordinates":[[[13.7132,43.0236],[13.7134,43.0221],[13.7096,43.0181],[13.7037,43.0139],[13.6975,43.0138],[13.6913,43.0123],[13.684,43.0074],[13.6837,43.0062],[13.6775,43.0073],[13.6759,43.0101],[13.6695,43.0152],[13.6617,43.0172],[13.6494,43.0151],[13.6409,43.0118],[13.6344,43.0109],[13.6308,43.0136],[13.6153,43.0139],[13.6109,43.0181],[13.6222,43.0233],[13.6311,43.0328],[13.6432,43.0378],[13.6449,43.035],[13.655,43.0295],[13.6572,43.0293],[13.658,43.0331],[13.6561,43.0381],[13.6569,43.0421],[13.6791,43.0418],[13.7005,43.049],[13.704,43.0471],[13.7075,43.0473],[13.7112,43.044],[13.7132,43.0236]]]}},{"type":"Feature","properties":{"i":"044011","n":"Castel di Lama"},"geometry":{"type":"Polygon","coordinates":[[[13.7254,42.8654],[13.7092,42.8594],[13.6971,42.8586],[13.6869,42.8644],[13.6766,42.8723],[13.6798,42.8737],[13.6826,42.876],[13.6933,42.897],[13.6984,42.9013],[13.7019,42.893],[13.7161,42.8913],[13.7192,42.8831],[13.7207,42.8756],[13.7247,42.8701],[13.7254,42.8654]]]}},{"type":"Feature","properties":{"i":"044012","n":"Castignano"},"geometry":{"type":"Polygon","coordinates":[[[13.6631,42.971],[13.6689,42.9692],[13.6677,42.9578],[13.6611,42.9287],[13.6623,42.9244],[13.6668,42.918],[13.6672,42.9158],[13.652,42.9182],[13.6504,42.919],[13.6488,42.9211],[13.6395,42.9206],[13.6276,42.9174],[13.6325,42.9039],[13.6242,42.8964],[13.6174,42.8938],[13.6121,42.897],[13.6027,42.9047],[13.6015,42.9115],[13.5962,42.918],[13.5922,42.9191],[13.5808,42.9184],[13.5773,42.9202],[13.5782,42.928],[13.5806,42.9289],[13.5844,42.9359],[13.5857,42.943],[13.5848,42.9519],[13.6029,42.9588],[13.608,42.9589],[13.6321,42.9633],[13.6391,42.9664],[13.642,42.969],[13.6544,42.971],[13.6631,42.971]]]}},{"type":"Feature","properties":{"i":"044013","n":"Castorano"},"geometry":{"type":"Polygon","coordinates":[[[13.7644,42.907],[13.7617,42.9048],[13.7601,42.8975],[13.7638,42.8958],[13.7642,42.895],[13.7637,42.8907],[13.7622,42.8889],[13.7543,42.8852],[13.7531,42.8811],[13.752,42.8809],[13.7456,42.8839],[13.7421,42.8865],[13.7342,42.8845],[13.7309,42.8698],[13.7309,42.8663],[13.7254,42.8654],[13.7247,42.8701],[13.7207,42.8756],[13.7192,42.8831],[13.7161,42.8913],[13.7019,42.893],[13.6987,42.9011],[13.7039,42.9015],[13.7086,42.9032],[13.7155,42.908],[13.7282,42.9116],[13.7332,42.9121],[13.7499,42.9106],[13.7585,42.9092],[13.7644,42.907]]]}},{"type":"Feature","properties":{"i":"044014","n":"Colli del Tronto"},"geometry":{"type":"Polygon","coordinates":[[[13.7531,42.8811],[13.7588,42.8706],[13.7629,42.8587],[13.7548,42.8586],[13.7417,42.8558],[13.7386,42.8588],[13.7345,42.865],[13.7309,42.8663],[13.7309,42.8698],[13.7341,42.8843],[13.7359,42.8854],[13.7421,42.8865],[13.7456,42.8839],[13.752,42.8809],[13.7531,42.8811]]]}},{"type":"Feature","properties":{"i":"044015","n":"Comunanza"},"geometry":{"type":"Polygon","coordinates":[[[13.4548,42.9659],[13.4586,42.9584],[13.4513,42.9542],[13.4483,42.9541],[13.4462,42.9507],[13.4459,42.945],[13.4511,42.9364],[13.4537,42.9283],[13.455,42.9213],[13.4545,42.915],[13.4525,42.91],[13.4508,42.9106],[13.4497,42.9099],[13.4481,42.9083],[13.4454,42.9028],[13.4449,42.9013],[13.4458,42.895],[13.4429,42.8874],[13.4376,42.8802],[13.4345,42.882],[13.4312,42.8823],[13.429,42.881],[13.4297,42.878],[13.4128,42.8774],[13.4024,42.8733],[13.3959,42.8647],[13.3911,42.8653],[13.3835,42.8685],[13.3769,42.8647],[13.377,42.8637],[13.3725,42.8608],[13.3635,42.8632],[13.3616,42.8643],[13.3593,42.8674],[13.3598,42.8704],[13.3645,42.8743],[13.3666,42.8778],[13.3619,42.8828],[13.384,42.8943],[13.3821,42.9005],[13.38,42.904],[13.3814,42.9059],[13.3936,42.9122],[13.3993,42.9127],[13.4029,42.9157],[13.4096,42.9251],[13.4105,42.929],[13.4092,42.9303],[13.4049,42.9317],[13.3922,42.9392],[13.3919,42.9404],[13.3932,42.9419],[13.3943,42.947],[13.3905,42.9534],[13.3967,42.9552],[13.3998,42.9579],[13.4013,42.961],[13.4002,42.9629],[13.3938,42.9632],[13.3919,42.9651],[13.3925,42.9669],[13.3978,42.9716],[13.4016,42.973],[13.403,42.9731],[13.403,42.9709],[13.4047,42.9698],[13.4072,42.9696],[13.4112,42.9711],[13.4155,42.9739],[13.4163,42.976],[13.4156,42.9776],[13.4172,42.9767],[13.4252,42.9767],[13.4303,42.9725],[13.4365,42.97],[13.4464,42.9686],[13.4548,42.9659]]]}},{"type":"Feature","properties":{"i":"044016","n":"Cossignano"},"geometry":{"type":"Polygon","coordinates":[[[13.6837,43.0062],[13.6901,43.005],[13.6987,42.9967],[13.7093,42.9909],[13.7156,42.9781],[13.7164,42.9746],[13.7131,42.975],[13.7081,42.9733],[13.7032,42.9701],[13.6915,42.9667],[13.685,42.9625],[13.682,42.9632],[13.6768,42.9666],[13.6631,42.971],[13.6598,42.9742],[13.6565,42.9809],[13.6568,42.9883],[13.6668,42.999],[13.6782,43.0046],[13.6775,43.0073],[13.6837,43.0062]]]}},{"type":"Feature","properties":{"i":"044017","n":"Cupra Marittima"},"geometry":{"type":"Polygon","coordinates":[[[13.8526,43.0545],[13.8563,43.0431],[13.8575,43.0416],[13.8625,43.0204],[13.866,43.0102],[13.8613,43.0079],[13.8471,42.9975],[13.8385,42.9943],[13.8321,42.9934],[13.8268,42.9936],[13.8206,42.9925],[13.8189,42.9928],[13.8187,42.9958],[13.8204,43.0039],[13.8219,43.0065],[13.8155,43.0257],[13.8228,43.0252],[13.828,43.0297],[13.8311,43.035],[13.8406,43.0463],[13.8374,43.0521],[13.8401,43.0549],[13.8463,43.0557],[13.8526,43.0545]]]}},{"type":"Feature","properties":{"i":"044020","n":"Folignano"},"geometry":{"type":"Polygon","coordinates":[[[13.6867,42.8183],[13.6725,42.8134],[13.6663,42.8103],[13.6636,42.8071],[13.6414,42.803],[13.6355,42.8033],[13.6288,42.8069],[13.6272,42.8124],[13.6284,42.815],[13.6278,42.8153],[13.6232,42.8164],[13.6206,42.8155],[13.6186,42.8134],[13.6146,42.8152],[13.6155,42.8205],[13.6181,42.8243],[13.6271,42.8337],[13.6292,42.8354],[13.6401,42.8394],[13.6592,42.8348],[13.6683,42.8359],[13.6713,42.8388],[13.6706,42.84],[13.6721,42.839],[13.6771,42.824],[13.6797,42.8215],[13.6867,42.8183]]]}},{"type":"Feature","properties":{"i":"044021","n":"Force"},"geometry":{"type":"Polygon","coordinates":[[[13.5421,42.9893],[13.5425,42.9791],[13.5403,42.9719],[13.5366,42.971],[13.5291,42.967],[13.5274,42.9615],[13.5256,42.9586],[13.5227,42.9551],[13.516,42.9495],[13.5146,42.9455],[13.5136,42.9326],[13.5142,42.9311],[13.5045,42.928],[13.4951,42.9294],[13.4844,42.9329],[13.4836,42.939],[13.4666,42.937],[13.4493,42.9396],[13.4459,42.945],[13.4462,42.9507],[13.4483,42.9541],[13.4513,42.9542],[13.4586,42.9584],[13.4548,42.9659],[13.4554,42.9673],[13.4591,42.97],[13.461,42.9703],[13.4697,42.9766],[13.4716,42.9792],[13.4789,42.9843],[13.4842,42.9862],[13.4907,42.9873],[13.4935,42.9887],[13.4977,42.9873],[13.5028,42.9873],[13.5101,42.9889],[13.5192,42.9922],[13.5247,42.9927],[13.5371,42.9908],[13.5421,42.9893]]]}},{"type":"Feature","properties":{"i":"044023","n":"Grottammare"},"geometry":{"type":"Polygon","coordinates":[[[13.8825,42.9625],[13.8601,42.9612],[13.8483,42.9629],[13.8373,42.9627],[13.8346,42.9574],[13.8376,42.9572],[13.8329,42.9574],[13.8299,42.9611],[13.8298,42.9645],[13.8283,42.9659],[13.8278,42.9681],[13.8205,42.974],[13.8182,42.9802],[13.8229,42.9814],[13.8206,42.9925],[13.8268,42.9936],[13.8321,42.9934],[13.8385,42.9943],[13.8471,42.9975],[13.8613,43.0079],[13.866,43.0102],[13.8779,42.9741],[13.8825,42.9625]]]}},{"type":"Feature","properties":{"i":"044027","n":"Maltignano"},"geometry":{"type":"Polygon","coordinates":[[[13.7066,42.8493],[13.7063,42.8456],[13.7099,42.8445],[13.7109,42.8434],[13.7013,42.8278],[13.6994,42.8228],[13.6867,42.8183],[13.6797,42.8215],[13.6771,42.824],[13.6721,42.839],[13.6672,42.8427],[13.6654,42.8465],[13.6668,42.8487],[13.6679,42.8488],[13.6699,42.8481],[13.6782,42.848],[13.7066,42.8493]]]}},{"type":"Feature","properties":{"i":"044029","n":"Massignano"},"geometry":{"type":"Polygon","coordinates":[[[13.8497,43.0667],[13.8526,43.0545],[13.8463,43.0557],[13.8398,43.0548],[13.8374,43.0521],[13.8406,43.0463],[13.8311,43.035],[13.828,43.0297],[13.8251,43.0266],[13.8224,43.0251],[13.8155,43.0257],[13.8101,43.0282],[13.8057,43.0319],[13.7881,43.0352],[13.7803,43.0473],[13.7806,43.0541],[13.7968,43.0596],[13.7968,43.0621],[13.8016,43.0637],[13.8382,43.064],[13.8497,43.0667]]]}},{"type":"Feature","properties":{"i":"044031","n":"Monsampolo del Tronto"},"geometry":{"type":"Polygon","coordinates":[[[13.8024,42.9229],[13.8019,42.9135],[13.8075,42.9038],[13.8129,42.898],[13.8237,42.8923],[13.8311,42.8812],[13.8176,42.8783],[13.8131,42.8753],[13.8126,42.8741],[13.8064,42.8756],[13.7897,42.8845],[13.7744,42.8981],[13.7721,42.8989],[13.7671,42.9023],[13.7647,42.9062],[13.7617,42.9138],[13.7626,42.9162],[13.7925,42.9232],[13.797,42.9219],[13.8024,42.9229]]]}},{"type":"Feature","properties":{"i":"044032","n":"Montalto delle Marche"},"geometry":{"type":"Polygon","coordinates":[[[13.6775,43.0073],[13.6782,43.0046],[13.6668,42.999],[13.6568,42.9883],[13.6565,42.9809],[13.6598,42.9742],[13.6631,42.971],[13.6544,42.971],[13.6431,42.9692],[13.6411,42.9685],[13.6391,42.9664],[13.6321,42.9633],[13.608,42.9589],[13.6051,42.9638],[13.6067,42.97],[13.6018,42.9757],[13.5972,42.9798],[13.5871,42.9864],[13.5702,42.9944],[13.5699,42.9953],[13.5699,42.9971],[13.5752,42.9991],[13.5758,43.0044],[13.5779,43.0069],[13.5833,43.0111],[13.5885,43.0108],[13.5944,43.0094],[13.5956,43.0082],[13.5966,43.0084],[13.6109,43.0181],[13.6153,43.0139],[13.6308,43.0136],[13.6344,43.0109],[13.6409,43.0118],[13.6494,43.0151],[13.6617,43.0172],[13.6707,43.0145],[13.6759,43.0101],[13.6775,43.0073]]]}},{"type":"Feature","properties":{"i":"044034","n":"Montedinove"},"geometry":{"type":"Polygon","coordinates":[[[13.608,42.9589],[13.6029,42.9588],[13.5848,42.9519],[13.5692,42.9685],[13.5526,42.9804],[13.5497,42.9805],[13.5487,42.9812],[13.5463,42.9844],[13.5468,42.9896],[13.5515,42.9884],[13.5639,42.9911],[13.5671,42.9931],[13.5699,42.9971],[13.5702,42.9944],[13.5871,42.9864],[13.5972,42.9798],[13.6018,42.9757],[13.6067,42.97],[13.6051,42.9638],[13.608,42.9589]]]}},{"type":"Feature","properties":{"i":"044036","n":"Montefiore dell'Aso"},"geometry":{"type":"Polygon","coordinates":[[[13.7968,43.0621],[13.7968,43.0596],[13.7806,43.0541],[13.7803,43.0473],[13.7881,43.0352],[13.7828,43.0345],[13.7788,43.0323],[13.7705,43.0301],[13.7253,43.0236],[13.7132,43.0236],[13.7112,43.044],[13.7075,43.0473],[13.704,43.0471],[13.7005,43.049],[13.721,43.06],[13.7277,43.0625],[13.7519,43.0687],[13.7722,43.0748],[13.7852,43.0798],[13.7865,43.0714],[13.7932,43.0635],[13.7968,43.0621]]]}},{"type":"Feature","properties":{"i":"044038","n":"Montegallo"},"geometry":{"type":"Polygon","coordinates":[[[13.3959,42.8647],[13.3996,42.8626],[13.395,42.8582],[13.3817,42.8563],[13.3793,42.8534],[13.3769,42.8461],[13.3772,42.8384],[13.3812,42.8327],[13.3808,42.832],[13.3789,42.83],[13.373,42.8306],[13.3709,42.8299],[13.3629,42.8252],[13.3522,42.815],[13.3472,42.8094],[13.3458,42.805],[13.3427,42.8027],[13.3357,42.8032],[13.3295,42.8016],[13.3284,42.8006],[13.3195,42.8028],[13.318,42.8036],[13.3119,42.8127],[13.2984,42.8212],[13.2898,42.8233],[13.2768,42.8234],[13.2749,42.8248],[13.2743,42.8409],[13.2827,42.8567],[13.3026,42.8583],[13.3192,42.861],[13.3235,42.8643],[13.3258,42.8675],[13.3389,42.8753],[13.3464,42.8786],[13.3518,42.879],[13.359,42.8808],[13.3616,42.8819],[13.3619,42.8828],[13.3664,42.8782],[13.3665,42.8773],[13.3645,42.8743],[13.3603,42.8711],[13.3593,42.8674],[13.3635,42.8632],[13.3709,42.8609],[13.3728,42.861],[13.377,42.8637],[13.3769,42.8647],[13.3835,42.8685],[13.3911,42.8653],[13.3959,42.8647]]]}},{"type":"Feature","properties":{"i":"044044","n":"Montemonaco"},"geometry":{"type":"Polygon","coordinates":[[[13.3753,42.8902],[13.3601,42.8812],[13.3518,42.879],[13.3464,42.8786],[13.3405,42.8761],[13.3258,42.8675],[13.3235,42.8643],[13.3192,42.861],[13.3026,42.8583],[13.2827,42.8567],[13.2743,42.8409],[13.2749,42.825],[13.2767,42.8233],[13.2734,42.8195],[13.2648,42.8165],[13.2624,42.8162],[13.2566,42.8201],[13.2496,42.8393],[13.2481,42.8489],[13.2426,42.8597],[13.233,42.8705],[13.2345,42.8769],[13.2418,42.892],[13.2585,42.8997],[13.2601,42.9081],[13.2679,42.9111],[13.2729,42.9105],[13.2812,42.9116],[13.2832,42.9174],[13.2918,42.9255],[13.2935,42.9254],[13.2996,42.9227],[13.3121,42.9235],[13.3256,42.9213],[13.3289,42.9199],[13.3299,42.9183],[13.3332,42.917],[13.343,42.9158],[13.353,42.9159],[13.3567,42.9149],[13.3592,42.9136],[13.3702,42.896],[13.3753,42.8902]]]}},{"type":"Feature","properties":{"i":"044045","n":"Monteprandone"},"geometry":{"type":"Polygon","coordinates":[[[13.849,42.9359],[13.8536,42.932],[13.8657,42.9244],[13.8696,42.9191],[13.8675,42.9141],[13.8672,42.9097],[13.8711,42.9],[13.8735,42.8978],[13.8778,42.8981],[13.8813,42.8973],[13.8908,42.8915],[13.8805,42.8918],[13.8744,42.8888],[13.8566,42.8846],[13.8391,42.8832],[13.8311,42.8812],[13.8237,42.8923],[13.8129,42.898],[13.8077,42.9035],[13.8019,42.9135],[13.8024,42.9229],[13.8215,42.9348],[13.8307,42.935],[13.8322,42.9375],[13.849,42.9359]]]}},{"type":"Feature","properties":{"i":"044054","n":"Offida"},"geometry":{"type":"Polygon","coordinates":[[[13.7164,42.9746],[13.7226,42.9732],[13.7274,42.9706],[13.7272,42.9659],[13.7285,42.9647],[13.7313,42.9638],[13.736,42.964],[13.7374,42.966],[13.744,42.9631],[13.7458,42.9612],[13.7505,42.9529],[13.7649,42.9435],[13.7652,42.9414],[13.7706,42.9403],[13.7686,42.9337],[13.7655,42.9304],[13.7571,42.9275],[13.7561,42.9265],[13.7558,42.9227],[13.7617,42.9138],[13.7644,42.907],[13.7585,42.9092],[13.7499,42.9106],[13.7332,42.9121],[13.7282,42.9116],[13.7155,42.908],[13.7086,42.9032],[13.7039,42.9015],[13.6987,42.9011],[13.6977,42.9034],[13.6846,42.9098],[13.6795,42.916],[13.6686,42.9183],[13.6668,42.918],[13.6638,42.9215],[13.6611,42.9287],[13.6677,42.9578],[13.6689,42.9692],[13.6768,42.9666],[13.682,42.9632],[13.685,42.9625],[13.6915,42.9667],[13.7032,42.9701],[13.7081,42.9733],[13.7131,42.975],[13.7164,42.9746]]]}},{"type":"Feature","properties":{"i":"044056","n":"Palmiano"},"geometry":{"type":"Polygon","coordinates":[[[13.4844,42.9329],[13.483,42.9307],[13.4828,42.918],[13.4871,42.9133],[13.4883,42.9104],[13.4882,42.9086],[13.4784,42.9018],[13.4747,42.8982],[13.4745,42.8969],[13.4618,42.8938],[13.4531,42.8958],[13.4458,42.895],[13.4449,42.9013],[13.4454,42.9028],[13.4481,42.9083],[13.4497,42.9099],[13.4508,42.9106],[13.4525,42.91],[13.4545,42.915],[13.455,42.9213],[13.4537,42.9283],[13.4511,42.9364],[13.4493,42.9396],[13.4666,42.937],[13.4836,42.939],[13.4844,42.9329]]]}},{"type":"Feature","properties":{"i":"044063","n":"Ripatransone"},"geometry":{"type":"Polygon","coordinates":[[[13.8155,43.0257],[13.8219,43.0065],[13.8204,43.0039],[13.8187,42.9958],[13.8189,42.9928],[13.8206,42.9925],[13.8211,42.9911],[13.8229,42.9814],[13.8182,42.9802],[13.8205,42.974],[13.8278,42.9681],[13.8283,42.9659],[13.8276,42.9652],[13.8182,42.9643],[13.8162,42.9631],[13.8167,42.9568],[13.8106,42.9542],[13.8021,42.9539],[13.788,42.9553],[13.7789,42.9538],[13.7781,42.9531],[13.7785,42.9513],[13.7755,42.9426],[13.7706,42.9403],[13.7652,42.9414],[13.7649,42.9435],[13.7505,42.9529],[13.7458,42.9612],[13.744,42.9631],[13.7374,42.966],[13.736,42.964],[13.7335,42.9637],[13.7276,42.9653],[13.7274,42.9706],[13.7226,42.9732],[13.7164,42.9746],[13.7156,42.9781],[13.7093,42.9909],[13.6987,42.9967],[13.6901,43.005],[13.6837,43.0062],[13.684,43.0074],[13.6913,43.0123],[13.6975,43.0138],[13.7037,43.0139],[13.7096,43.0181],[13.7134,43.0221],[13.7132,43.0236],[13.7253,43.0236],[13.7705,43.0301],[13.7788,43.0323],[13.7828,43.0345],[13.7881,43.0352],[13.8057,43.0319],[13.8101,43.0282],[13.8155,43.0257]]]}},{"type":"Feature","properties":{"i":"044064","n":"Roccafluvione"},"geometry":{"type":"MultiPolygon","coordinates":[[[[13.4237,42.8055],[13.4334,42.8027],[13.4347,42.8058],[13.4367,42.805],[13.4364,42.7947],[13.4355,42.7934],[13.4204,42.7983],[13.421,42.8036],[13.4237,42.8055]]],[[[13.5005,42.8512],[13.4897,42.8485],[13.4885,42.8448],[13.4968,42.8307],[13.4976,42.8261],[13.4954,42.8253],[13.4855,42.8251],[13.4747,42.8264],[13.4702,42.8301],[13.4673,42.8294],[13.4589,42.8236],[13.4648,42.8083],[13.4605,42.8073],[13.4532,42.8091],[13.4511,42.8117],[13.4474,42.8133],[13.4361,42.8131],[13.4214,42.8112],[13.4215,42.8125],[13.4199,42.8133],[13.4063,42.817],[13.4004,42.8239],[13.3936,42.8275],[13.3899,42.828],[13.3837,42.8306],[13.3814,42.8322],[13.3772,42.8384],[13.3769,42.8461],[13.3793,42.8534],[13.3817,42.8563],[13.395,42.8582],[13.3996,42.8626],[13.3959,42.8647],[13.4024,42.8733],[13.4128,42.8774],[13.4297,42.878],[13.429,42.881],[13.4304,42.8822],[13.4345,42.882],[13.4376,42.8802],[13.4429,42.8874],[13.4458,42.895],[13.4531,42.8958],[13.4618,42.8938],[13.4745,42.8969],[13.4779,42.8901],[13.4765,42.8858],[13.473,42.8837],[13.4777,42.8691],[13.4787,42.8614],[13.4844,42.8592],[13.4849,42.8603],[13.4873,42.861],[13.495,42.86],[13.498,42.8531],[13.5005,42.8512]]]]}},{"type":"Feature","properties":{"i":"044065","n":"Rotella"},"geometry":{"type":"Polygon","coordinates":[[[13.5848,42.9519],[13.5857,42.943],[13.5844,42.9359],[13.5806,42.9289],[13.5791,42.928],[13.5782,42.928],[13.5775,42.9298],[13.5749,42.9297],[13.5529,42.9221],[13.5373,42.9221],[13.5311,42.925],[13.5251,42.9213],[13.5188,42.9244],[13.5136,42.9326],[13.5146,42.9455],[13.516,42.9495],[13.5227,42.9551],[13.5256,42.9586],[13.5274,42.9615],[13.5291,42.967],[13.5366,42.971],[13.5403,42.9719],[13.5425,42.9791],[13.5421,42.9893],[13.5468,42.9896],[13.5463,42.9844],[13.5487,42.9812],[13.5497,42.9805],[13.5526,42.9804],[13.5692,42.9685],[13.5848,42.9519]]]}},{"type":"Feature","properties":{"i":"044066","n":"San Benedetto del Tronto"},"geometry":{"type":"Polygon","coordinates":[[[13.9162,42.8946],[13.9069,42.8947],[13.8908,42.8915],[13.8813,42.8973],[13.8778,42.8981],[13.8735,42.8978],[13.8711,42.9],[13.8672,42.9097],[13.8675,42.9141],[13.8696,42.9191],[13.8657,42.9244],[13.8536,42.932],[13.849,42.9359],[13.8479,42.9403],[13.8454,42.9422],[13.8486,42.9544],[13.8428,42.9563],[13.8346,42.9574],[13.8369,42.9627],[13.8483,42.9629],[13.8601,42.9612],[13.8825,42.9625],[13.8853,42.9597],[13.8881,42.9535],[13.8887,42.9482],[13.893,42.9372],[13.901,42.9239],[13.908,42.9104],[13.9116,42.9012],[13.9162,42.8946]]]}},{"type":"Feature","properties":{"i":"044071","n":"Spinetoli"},"geometry":{"type":"Polygon","coordinates":[[[13.8126,42.8741],[13.8109,42.8721],[13.7993,42.8667],[13.7738,42.8594],[13.7629,42.8587],[13.7588,42.8706],[13.7531,42.8811],[13.7543,42.8852],[13.7622,42.8889],[13.7637,42.8907],[13.7638,42.8958],[13.7601,42.8975],[13.7617,42.9048],[13.7645,42.9069],[13.7671,42.9023],[13.7721,42.8989],[13.7744,42.8981],[13.7897,42.8845],[13.8064,42.8756],[13.8126,42.8741]]]}},{"type":"Feature","properties":{"i":"044073","n":"Venarotta"},"geometry":{"type":"Polygon","coordinates":[[[13.5142,42.9311],[13.5188,42.9244],[13.5251,42.9213],[13.5171,42.9109],[13.512,42.9002],[13.51,42.8927],[13.5137,42.8898],[13.5232,42.887],[13.5343,42.8768],[13.5388,42.8737],[13.5397,42.8682],[13.5394,42.8632],[13.5382,42.8598],[13.524,42.8535],[13.5136,42.8533],[13.506,42.8547],[13.5005,42.8512],[13.498,42.8531],[13.495,42.86],[13.4873,42.861],[13.4849,42.8603],[13.4844,42.8592],[13.4787,42.8614],[13.4777,42.8691],[13.473,42.8837],[13.4765,42.8858],[13.4779,42.8901],[13.4745,42.8969],[13.4747,42.8982],[13.4784,42.9018],[13.4882,42.9086],[13.4883,42.9104],[13.4871,42.9133],[13.4828,42.918],[13.483,42.9307],[13.4844,42.9329],[13.4951,42.9294],[13.5045,42.928],[13.5142,42.9311]]]}}]}
