{"type":"FeatureCollection","fonte":"Confini comunali ISTAT via openpolis/geojson-italy — CC BY 4.0","features":[{"type":"Feature","properties":{"i":"066001","n":"Acciano"},"geometry":{"type":"Polygon","coordinates":[[[13.7021,42.2248],[13.7082,42.2219],[13.7057,42.2193],[13.704,42.2186],[13.7065,42.2101],[13.7329,42.1999],[13.7499,42.1893],[13.7523,42.1842],[13.7508,42.1792],[13.7523,42.174],[13.755,42.1688],[13.7599,42.1666],[13.7643,42.1624],[13.7486,42.163],[13.7314,42.1618],[13.7158,42.163],[13.7079,42.1669],[13.7038,42.1665],[13.7046,42.171],[13.7,42.1807],[13.7008,42.1843],[13.6988,42.1859],[13.6937,42.1873],[13.6864,42.187],[13.6727,42.1898],[13.6606,42.1961],[13.65,42.2033],[13.6539,42.2081],[13.6668,42.217],[13.6711,42.2221],[13.6805,42.2262],[13.6871,42.2263],[13.7021,42.2248]]]}},{"type":"Feature","properties":{"i":"066002","n":"Aielli"},"geometry":{"type":"Polygon","coordinates":[[[13.6211,42.0913],[13.6237,42.0866],[13.6202,42.0847],[13.6173,42.0741],[13.6148,42.0738],[13.6047,42.0761],[13.602,42.0758],[13.5989,42.0739],[13.5909,42.0677],[13.5892,42.0633],[13.5901,42.059],[13.5849,42.0466],[13.5827,42.0437],[13.5784,42.0425],[13.5754,42.0426],[13.5721,42.0438],[13.5704,42.0418],[13.5706,42.0101],[13.5483,42.0097],[13.552,42.0194],[13.5513,42.0464],[13.562,42.0546],[13.5555,42.0637],[13.5517,42.0716],[13.5506,42.0797],[13.5555,42.0862],[13.5648,42.0864],[13.5699,42.0922],[13.574,42.1031],[13.5724,42.1086],[13.571,42.1101],[13.5712,42.1162],[13.5731,42.1214],[13.5785,42.1293],[13.5864,42.1203],[13.5924,42.1199],[13.6002,42.1117],[13.6094,42.1089],[13.6137,42.1086],[13.6191,42.1102],[13.6233,42.1141],[13.6253,42.1143],[13.6283,42.1134],[13.6317,42.1112],[13.6323,42.1106],[13.6296,42.107],[13.6213,42.1011],[13.6196,42.0944],[13.6211,42.0913]]]}},{"type":"Feature","properties":{"i":"066003","n":"Alfedena"},"geometry":{"type":"Polygon","coordinates":[[[14.024,41.7528],[14.0283,41.7518],[14.0322,41.7494],[14.0356,41.7443],[14.0414,41.7427],[14.0471,41.7451],[14.0609,41.7481],[14.0708,41.7484],[14.0716,41.7484],[14.0736,41.7454],[14.0738,41.7427],[14.0664,41.7316],[14.0532,41.7193],[14.0532,41.7017],[14.0421,41.7012],[14.0319,41.7021],[14.0242,41.6971],[14.0232,41.6915],[14.0191,41.6822],[14.0161,41.6827],[14.0022,41.6901],[13.9949,41.6932],[13.9831,41.6948],[13.9632,41.696],[13.9555,41.6955],[13.9481,41.6933],[13.9431,41.6886],[13.941,41.688],[13.9329,41.693],[13.9286,41.7],[13.9272,41.7035],[13.9463,41.7137],[13.9521,41.7148],[13.9594,41.7146],[13.9675,41.7134],[13.9695,41.7125],[13.9812,41.7145],[13.9885,41.7209],[13.9916,41.7219],[14.0106,41.7218],[14.013,41.7235],[14.012,41.7281],[14.0132,41.7436],[14.0179,41.7565],[14.024,41.7528]]]}},{"type":"Feature","properties":{"i":"066004","n":"Anversa degli Abruzzi"},"geometry":{"type":"Polygon","coordinates":[[[13.8651,41.9683],[13.8428,41.9599],[13.8213,41.9638],[13.8046,41.9606],[13.78,41.9698],[13.7788,41.9749],[13.7703,41.9902],[13.7695,41.994],[13.7676,41.9979],[13.7694,42.0002],[13.7913,42.0103],[13.8066,42.0154],[13.815,42.0238],[13.818,42.029],[13.8229,42.0313],[13.8258,42.0246],[13.8298,42.0184],[13.832,42.0105],[13.8319,42.0066],[13.8363,41.9961],[13.8309,41.9918],[13.833,41.9873],[13.8397,41.9791],[13.845,41.9787],[13.8571,41.9746],[13.8614,41.9722],[13.8651,41.9683]]]}},{"type":"Feature","properties":{"i":"066005","n":"Ateleta"},"geometry":{"type":"Polygon","coordinates":[[[14.2297,41.8771],[14.2253,41.8736],[14.2243,41.8716],[14.2256,41.8709],[14.2231,41.8643],[14.2187,41.8573],[14.2134,41.8539],[14.2005,41.8504],[14.1965,41.8486],[14.1952,41.8462],[14.1973,41.8428],[14.195,41.8415],[14.1886,41.8418],[14.1871,41.8436],[14.178,41.8454],[14.1662,41.8424],[14.16,41.8455],[14.1409,41.8599],[14.1359,41.8579],[14.1334,41.8577],[14.1252,41.8651],[14.1226,41.8664],[14.1157,41.8672],[14.1199,41.8751],[14.1243,41.8805],[14.1277,41.8825],[14.1202,41.8847],[14.1102,41.8861],[14.1066,41.8876],[14.1081,41.8932],[14.1255,41.8909],[14.1383,41.8872],[14.1527,41.8948],[14.161,41.8966],[14.1682,41.9011],[14.1832,41.9035],[14.2114,41.8906],[14.2297,41.8771]]]}},{"type":"Feature","properties":{"i":"066006","n":"Avezzano"},"geometry":{"type":"Polygon","coordinates":[[[13.4894,42.0922],[13.4907,42.0796],[13.4995,42.0627],[13.5013,42.0626],[13.5086,42.0509],[13.5105,41.9947],[13.4761,41.9942],[13.4765,41.9885],[13.4468,41.9874],[13.4346,41.9837],[13.4316,41.9817],[13.428,41.988],[13.4136,42.0018],[13.4111,42.0064],[13.4085,42.0073],[13.4061,42.0067],[13.3947,42.0007],[13.3893,41.9997],[13.3784,42.0109],[13.3743,42.0128],[13.362,42.0243],[13.3631,42.029],[13.3605,42.0371],[13.3642,42.0399],[13.3664,42.0488],[13.3774,42.0491],[13.3808,42.0474],[13.385,42.0426],[13.3923,42.0389],[13.3963,42.0384],[13.3984,42.0395],[13.4045,42.0478],[13.4048,42.0537],[13.398,42.0569],[13.3918,42.066],[13.3904,42.0703],[13.391,42.0745],[13.3956,42.0768],[13.3985,42.0771],[13.4051,42.0767],[13.4146,42.0719],[13.4269,42.0716],[13.4336,42.0732],[13.4355,42.0756],[13.4357,42.0773],[13.4311,42.0783],[13.4294,42.0816],[13.4341,42.0932],[13.4376,42.0946],[13.4603,42.0965],[13.4688,42.0939],[13.4833,42.0922],[13.4894,42.0922]]]}},{"type":"Feature","properties":{"i":"066007","n":"Balsorano"},"geometry":{"type":"Polygon","coordinates":[[[13.6373,41.8025],[13.6407,41.8001],[13.6428,41.7922],[13.6313,41.7826],[13.6245,41.7797],[13.6134,41.778],[13.6092,41.7738],[13.6018,41.7694],[13.5861,41.7664],[13.578,41.7581],[13.5762,41.755],[13.5751,41.7546],[13.5707,41.7547],[13.5614,41.7615],[13.5554,41.7626],[13.5511,41.7616],[13.5453,41.7624],[13.5339,41.768],[13.5204,41.773],[13.5216,41.7798],[13.531,41.7861],[13.541,41.7903],[13.551,41.7986],[13.5542,41.8116],[13.5529,41.8167],[13.5507,41.8194],[13.5475,41.8202],[13.547,41.8229],[13.5488,41.826],[13.5525,41.8296],[13.5823,41.851],[13.5984,41.8425],[13.5962,41.8406],[13.5967,41.8394],[13.6084,41.8312],[13.6336,41.8191],[13.6319,41.8149],[13.6319,41.8123],[13.6345,41.8059],[13.6373,41.8025]]]}},{"type":"Feature","properties":{"i":"066008","n":"Barete"},"geometry":{"type":"Polygon","coordinates":[[[13.2667,42.4099],[13.2505,42.4145],[13.2412,42.4204],[13.2316,42.4318],[13.2347,42.4331],[13.2424,42.4397],[13.2634,42.4609],[13.2821,42.4765],[13.287,42.4838],[13.2864,42.4874],[13.2959,42.4837],[13.3068,42.4773],[13.3192,42.4827],[13.3239,42.4859],[13.3298,42.4781],[13.3069,42.4648],[13.2808,42.4393],[13.2667,42.4099]]]}},{"type":"Feature","properties":{"i":"066009","n":"Barisciano"},"geometry":{"type":"Polygon","coordinates":[[[13.6424,42.323],[13.6445,42.3168],[13.6372,42.317],[13.6132,42.2956],[13.6088,42.2942],[13.5977,42.2949],[13.5916,42.2979],[13.5911,42.2993],[13.5819,42.3],[13.5584,42.3102],[13.5603,42.3143],[13.5621,42.3284],[13.5656,42.3376],[13.5651,42.3401],[13.5617,42.3421],[13.5551,42.3425],[13.5519,42.3414],[13.5498,42.3395],[13.5456,42.3287],[13.5336,42.3245],[13.5219,42.318],[13.5128,42.3147],[13.5078,42.3132],[13.5005,42.3148],[13.4915,42.3201],[13.5025,42.3229],[13.512,42.3297],[13.512,42.3327],[13.5078,42.3339],[13.5029,42.3374],[13.5042,42.3388],[13.5084,42.3414],[13.5155,42.3479],[13.5259,42.3518],[13.5366,42.353],[13.5443,42.3581],[13.5471,42.3619],[13.5493,42.3669],[13.5646,42.3855],[13.5803,42.3945],[13.5908,42.4044],[13.6008,42.407],[13.6108,42.4049],[13.619,42.4078],[13.6337,42.4057],[13.6392,42.4027],[13.6372,42.3999],[13.6355,42.3994],[13.6271,42.402],[13.6246,42.4005],[13.6308,42.3933],[13.6337,42.3865],[13.6338,42.3787],[13.6313,42.3661],[13.6209,42.3504],[13.6154,42.3391],[13.6185,42.3326],[13.6321,42.3287],[13.6424,42.323]]]}},{"type":"Feature","properties":{"i":"066010","n":"Barrea"},"geometry":{"type":"Polygon","coordinates":[[[14.0165,41.8287],[14.0177,41.8259],[14.0147,41.8238],[14.0132,41.818],[14.0175,41.8131],[14.0333,41.8022],[14.0358,41.7976],[14.0317,41.7936],[14.0292,41.788],[14.026,41.7703],[14.0271,41.7602],[14.0249,41.7549],[14.024,41.7528],[14.0179,41.7565],[14.0132,41.7436],[14.012,41.7281],[14.013,41.7235],[14.0106,41.7218],[14.0062,41.7214],[13.9982,41.7223],[13.9916,41.7219],[13.9885,41.7209],[13.9812,41.7145],[13.9695,41.7125],[13.9675,41.7134],[13.9594,41.7146],[13.9521,41.7148],[13.9463,41.7137],[13.9272,41.7035],[13.9239,41.7064],[13.9222,41.7123],[13.9184,41.7185],[13.9105,41.7191],[13.9045,41.7182],[13.8976,41.7321],[13.9047,41.7365],[13.9129,41.7435],[13.9181,41.7456],[13.9351,41.7466],[13.9429,41.7489],[13.9482,41.7526],[13.9545,41.7587],[13.9637,41.7703],[13.9643,41.7724],[13.9544,41.776],[13.9576,41.7796],[13.9577,41.7932],[13.9492,41.8186],[13.9481,41.8257],[13.9593,41.818],[13.9709,41.8221],[13.978,41.8306],[13.9775,41.8354],[13.987,41.8399],[13.991,41.8457],[14.0129,41.8329],[14.0165,41.8287]]]}},{"type":"Feature","properties":{"i":"066011","n":"Bisegna"},"geometry":{"type":"Polygon","coordinates":[[[13.7934,41.9254],[13.7994,41.9203],[13.8039,41.9139],[13.807,41.9109],[13.8156,41.9066],[13.8229,41.9011],[13.8246,41.8987],[13.8237,41.896],[13.8247,41.8936],[13.8302,41.8902],[13.8376,41.8838],[13.8368,41.8806],[13.8264,41.8784],[13.8251,41.8776],[13.8229,41.8741],[13.8169,41.8727],[13.7954,41.8811],[13.7878,41.8775],[13.7786,41.8841],[13.7723,41.8852],[13.762,41.8839],[13.7536,41.8852],[13.7411,41.8951],[13.7388,41.8997],[13.7359,41.923],[13.7358,41.9375],[13.7368,41.9442],[13.7398,41.9493],[13.7484,41.9535],[13.748,41.9609],[13.7459,41.9692],[13.7473,41.9697],[13.7697,41.9668],[13.7748,41.9641],[13.7807,41.9582],[13.7749,41.9398],[13.7761,41.9367],[13.78,41.9315],[13.7898,41.9278],[13.7934,41.9254]]]}},{"type":"Feature","properties":{"i":"066012","n":"Bugnara"},"geometry":{"type":"Polygon","coordinates":[[[13.8903,42.0441],[13.8909,42.0419],[13.8809,42.0364],[13.8812,42.0305],[13.8778,42.0222],[13.8749,42.019],[13.8711,42.0126],[13.8727,42.0096],[13.871,42.006],[13.8642,41.9984],[13.8589,41.9907],[13.8582,41.9879],[13.8592,41.9786],[13.8643,41.9732],[13.8677,41.9672],[13.8651,41.9683],[13.8614,41.9722],[13.8571,41.9746],[13.845,41.9787],[13.8397,41.9791],[13.8338,41.9862],[13.8311,41.9912],[13.8312,41.9922],[13.8363,41.9961],[13.8319,42.0066],[13.832,42.0105],[13.8298,42.0184],[13.8258,42.0246],[13.8229,42.0313],[13.8504,42.0462],[13.8595,42.0471],[13.8723,42.0498],[13.876,42.0481],[13.8749,42.0465],[13.8757,42.0442],[13.8772,42.0435],[13.8831,42.0422],[13.8903,42.0441]]]}},{"type":"Feature","properties":{"i":"066013","n":"Cagnano Amiterno"},"geometry":{"type":"Polygon","coordinates":[[[13.2864,42.4874],[13.287,42.4838],[13.2821,42.4765],[13.2634,42.4609],[13.2424,42.4397],[13.2347,42.4331],[13.2316,42.4318],[13.2245,42.4337],[13.2203,42.4335],[13.1936,42.4245],[13.1793,42.4102],[13.1763,42.4062],[13.169,42.4076],[13.1552,42.4142],[13.1429,42.428],[13.1387,42.4313],[13.1305,42.4374],[13.1215,42.4421],[13.1162,42.4439],[13.1334,42.4584],[13.14,42.4627],[13.1531,42.4631],[13.1541,42.4623],[13.1784,42.4793],[13.1868,42.474],[13.1975,42.4711],[13.2032,42.4744],[13.2207,42.4789],[13.2456,42.4811],[13.2533,42.4901],[13.2569,42.4883],[13.2864,42.4874]]]}},{"type":"Feature","properties":{"i":"066014","n":"Calascio"},"geometry":{"type":"Polygon","coordinates":[[[13.6971,42.4432],[13.6985,42.4349],[13.7062,42.4174],[13.7073,42.4078],[13.7121,42.4034],[13.7056,42.401],[13.6884,42.398],[13.6874,42.3911],[13.6883,42.3853],[13.6872,42.3729],[13.6879,42.3678],[13.6918,42.3639],[13.6957,42.3618],[13.7018,42.3475],[13.7049,42.3437],[13.7117,42.3404],[13.7175,42.3388],[13.7235,42.3289],[13.7398,42.3099],[13.7421,42.3049],[13.7405,42.3049],[13.7391,42.3061],[13.7339,42.3078],[13.729,42.3074],[13.7249,42.3062],[13.7195,42.3027],[13.7104,42.3115],[13.6801,42.318],[13.6664,42.3249],[13.6652,42.3276],[13.6695,42.3299],[13.6719,42.3323],[13.6736,42.3363],[13.6644,42.3474],[13.6623,42.3617],[13.6664,42.3717],[13.6685,42.3873],[13.6684,42.3887],[13.6652,42.3886],[13.6685,42.3911],[13.6772,42.4174],[13.6831,42.4424],[13.6971,42.4432]]]}},{"type":"Feature","properties":{"i":"066015","n":"Campo di Giove"},"geometry":{"type":"Polygon","coordinates":[[[14.0906,42.0327],[14.0887,42.0306],[14.0863,42.024],[14.0815,42.0183],[14.0802,42.0091],[14.081,42.0017],[14.0874,41.9999],[14.0899,41.9975],[14.0896,41.9943],[14.0888,41.9934],[14.0907,41.9828],[14.0939,41.9778],[14.0958,41.9624],[14.0979,41.9523],[14.0979,41.9458],[14.0872,41.9432],[14.0828,41.9496],[14.0801,41.9564],[14.0769,41.9614],[14.0753,41.9624],[14.0694,41.9738],[14.0612,41.9852],[14.041,41.9998],[14.0192,42.0117],[14.0036,42.0221],[14.016,42.0212],[14.0328,42.0216],[14.0444,42.0236],[14.0551,42.029],[14.0746,42.034],[14.0906,42.0327]]]}},{"type":"Feature","properties":{"i":"066016","n":"Campotosto"},"geometry":{"type":"Polygon","coordinates":[[[13.4261,42.519],[13.4245,42.5178],[13.4235,42.518],[13.4048,42.5319],[13.394,42.526],[13.3929,42.5206],[13.3901,42.5164],[13.3878,42.5158],[13.3805,42.517],[13.3736,42.5165],[13.3482,42.5068],[13.348,42.5159],[13.3465,42.5181],[13.3427,42.5205],[13.3383,42.5209],[13.3353,42.5185],[13.3281,42.5199],[13.3231,42.5258],[13.3212,42.5292],[13.3255,42.5312],[13.324,42.5352],[13.3161,42.5381],[13.3142,42.5397],[13.319,42.5431],[13.3196,42.5458],[13.3189,42.5491],[13.314,42.5556],[13.3051,42.5608],[13.3099,42.5638],[13.3103,42.565],[13.3056,42.5673],[13.3014,42.5682],[13.2973,42.5711],[13.3119,42.574],[13.3217,42.5786],[13.3365,42.5776],[13.3446,42.5758],[13.3739,42.5809],[13.3818,42.581],[13.3836,42.5828],[13.3845,42.586],[13.391,42.5903],[13.394,42.5913],[13.3943,42.5878],[13.3966,42.5805],[13.4041,42.5723],[13.4023,42.5616],[13.4093,42.5389],[13.4261,42.519]]]}},{"type":"Feature","properties":{"i":"066017","n":"Canistro"},"geometry":{"type":"Polygon","coordinates":[[[13.436,41.9525],[13.4431,41.9516],[13.434,41.9449],[13.416,41.9351],[13.4104,41.9312],[13.4086,41.9292],[13.4097,41.9254],[13.4093,41.9232],[13.406,41.9174],[13.404,41.9159],[13.3968,41.9161],[13.3784,41.9118],[13.3659,41.9216],[13.3658,41.9234],[13.3644,41.9248],[13.3566,41.9257],[13.3592,41.928],[13.385,41.9442],[13.3887,41.9458],[13.3997,41.9482],[13.4138,41.955],[13.422,41.9573],[13.4309,41.9532],[13.436,41.9525]]]}},{"type":"Feature","properties":{"i":"066018","n":"Cansano"},"geometry":{"type":"Polygon","coordinates":[[[14.0063,42.0218],[14.0036,42.0221],[14.0192,42.0117],[14.041,41.9998],[14.0612,41.9852],[14.0694,41.9738],[14.0753,41.9624],[14.0769,41.9614],[14.0801,41.9564],[14.0828,41.9496],[14.0872,41.9432],[14.0818,41.9394],[14.077,41.9401],[14.0572,41.9511],[14.0352,41.9622],[14.0202,41.9672],[13.9986,41.9654],[13.996,41.9793],[13.9897,41.9881],[13.9804,41.9976],[13.9781,42.0011],[13.9705,42.0072],[13.9655,42.0101],[13.9707,42.017],[13.9772,42.0208],[13.9857,42.0163],[13.9894,42.0162],[13.9958,42.0198],[13.9984,42.0247],[14.0063,42.0218]]]}},{"type":"Feature","properties":{"i":"066019","n":"Capestrano"},"geometry":{"type":"Polygon","coordinates":[[[13.8443,42.2811],[13.8406,42.2683],[13.8423,42.2614],[13.8424,42.2565],[13.8383,42.2552],[13.833,42.2465],[13.8309,42.2458],[13.8278,42.2469],[13.8256,42.2508],[13.8207,42.2532],[13.813,42.25],[13.8103,42.248],[13.8041,42.2378],[13.7992,42.2372],[13.7988,42.2411],[13.7849,42.2475],[13.7672,42.249],[13.7585,42.2513],[13.753,42.259],[13.7391,42.2695],[13.7325,42.2713],[13.7268,42.2708],[13.7238,42.2715],[13.7184,42.2774],[13.7301,42.2836],[13.7383,42.2836],[13.7555,42.2879],[13.7735,42.2907],[13.7836,42.2934],[13.7996,42.2998],[13.8089,42.3022],[13.8142,42.3065],[13.8201,42.3073],[13.8248,42.3069],[13.8261,42.2989],[13.8285,42.2936],[13.8383,42.2889],[13.8427,42.2844],[13.8443,42.2811]]]}},{"type":"Feature","properties":{"i":"066020","n":"Capistrello"},"geometry":{"type":"Polygon","coordinates":[[[13.4316,41.9817],[13.4381,41.9738],[13.4372,41.9704],[13.437,41.9566],[13.436,41.9525],[13.4309,41.9532],[13.422,41.9573],[13.4138,41.955],[13.3997,41.9482],[13.3887,41.9458],[13.385,41.9442],[13.3592,41.928],[13.3548,41.923],[13.3512,41.9212],[13.3455,41.9222],[13.3387,41.9255],[13.3361,41.9288],[13.334,41.9339],[13.3254,41.942],[13.3442,41.9654],[13.352,41.9719],[13.363,41.9831],[13.3452,41.993],[13.3371,41.9997],[13.3323,42.005],[13.328,42.0072],[13.3203,42.0096],[13.3252,42.0122],[13.3279,42.0145],[13.3389,42.0281],[13.3412,42.0323],[13.3427,42.0314],[13.3496,42.0309],[13.3567,42.0313],[13.3592,42.0336],[13.3575,42.0361],[13.3601,42.0373],[13.3631,42.029],[13.362,42.0243],[13.3743,42.0128],[13.3784,42.0109],[13.3893,41.9997],[13.3947,42.0007],[13.4061,42.0067],[13.4085,42.0073],[13.4111,42.0064],[13.4136,42.0018],[13.428,41.988],[13.4316,41.9817]]]}},{"type":"Feature","properties":{"i":"066021","n":"Capitignano"},"geometry":{"type":"Polygon","coordinates":[[[13.3482,42.5068],[13.3446,42.5029],[13.3381,42.4927],[13.3302,42.4892],[13.3264,42.49],[13.3232,42.4923],[13.3126,42.4929],[13.3002,42.5013],[13.2889,42.5066],[13.2794,42.5139],[13.277,42.5149],[13.2743,42.5156],[13.2648,42.5155],[13.2538,42.5206],[13.268,42.5266],[13.2741,42.5423],[13.2734,42.545],[13.2832,42.5539],[13.2931,42.5557],[13.3051,42.5608],[13.314,42.5556],[13.3189,42.5491],[13.3196,42.5458],[13.319,42.5431],[13.3142,42.5397],[13.3161,42.5381],[13.324,42.5352],[13.3255,42.5312],[13.3212,42.5292],[13.3231,42.5258],[13.3281,42.5199],[13.3353,42.5185],[13.3383,42.5209],[13.3427,42.5205],[13.3465,42.5181],[13.348,42.5159],[13.3482,42.5068]]]}},{"type":"Feature","properties":{"i":"066022","n":"Caporciano"},"geometry":{"type":"Polygon","coordinates":[[[13.6923,42.2707],[13.6907,42.2691],[13.6922,42.2583],[13.6902,42.2414],[13.6927,42.2393],[13.6957,42.2388],[13.6994,42.2364],[13.705,42.2303],[13.7021,42.2248],[13.6871,42.2263],[13.6805,42.2262],[13.6711,42.2221],[13.6633,42.2242],[13.6546,42.2318],[13.6448,42.2316],[13.6424,42.2341],[13.6424,42.2375],[13.6344,42.2433],[13.6348,42.25],[13.6391,42.2508],[13.647,42.2507],[13.6594,42.2594],[13.6645,42.2665],[13.6659,42.2653],[13.671,42.2648],[13.6731,42.2659],[13.6767,42.2703],[13.683,42.2717],[13.6861,42.2703],[13.6889,42.2711],[13.6901,42.2745],[13.6886,42.2776],[13.6916,42.2802],[13.694,42.2753],[13.6923,42.2707]]]}},{"type":"Feature","properties":{"i":"066023","n":"Cappadocia"},"geometry":{"type":"Polygon","coordinates":[[[13.3135,42.0118],[13.3092,42.0064],[13.3039,41.9946],[13.3038,41.9865],[13.297,41.9794],[13.2949,41.972],[13.3005,41.9594],[13.2963,41.9486],[13.295,41.9484],[13.286,41.9504],[13.2695,41.9622],[13.2654,41.9668],[13.2611,41.9684],[13.2523,41.9692],[13.2417,41.9718],[13.2343,41.977],[13.2322,41.9801],[13.2267,41.9835],[13.2142,41.9873],[13.2021,41.986],[13.1991,41.9865],[13.2021,41.9914],[13.2062,42.0048],[13.1981,42.0072],[13.1747,42.0121],[13.1775,42.0222],[13.1779,42.0305],[13.1897,42.0273],[13.1995,42.0287],[13.21,42.0431],[13.2151,42.046],[13.2197,42.0439],[13.225,42.0396],[13.229,42.0406],[13.2546,42.0527],[13.2577,42.0529],[13.2659,42.0463],[13.2731,42.0365],[13.2856,42.0248],[13.2943,42.0191],[13.3135,42.0118]]]}},{"type":"Feature","properties":{"i":"066024","n":"Carapelle Calvisio"},"geometry":{"type":"MultiPolygon","coordinates":[[[[13.7184,42.2774],[13.7087,42.273],[13.6958,42.2706],[13.6923,42.2707],[13.694,42.2753],[13.6916,42.2802],[13.6886,42.2776],[13.674,42.2854],[13.6685,42.2913],[13.6561,42.3015],[13.6552,42.3034],[13.6718,42.3009],[13.6756,42.3025],[13.6869,42.3042],[13.6984,42.3028],[13.7052,42.303],[13.7186,42.2919],[13.7198,42.2889],[13.7196,42.2852],[13.7171,42.283],[13.7157,42.2796],[13.7184,42.2774]]],[[[13.6706,42.4384],[13.676,42.4388],[13.6657,42.3939],[13.6652,42.3886],[13.6608,42.3867],[13.6576,42.394],[13.6706,42.4384]]]]}},{"type":"Feature","properties":{"i":"066025","n":"Carsoli"},"geometry":{"type":"Polygon","coordinates":[[[13.1697,42.1507],[13.1696,42.1486],[13.1706,42.1469],[13.1742,42.1457],[13.1779,42.1428],[13.1788,42.1384],[13.1784,42.1371],[13.1763,42.1356],[13.1594,42.1294],[13.149,42.1221],[13.148,42.1192],[13.1556,42.1135],[13.1532,42.1115],[13.1717,42.1006],[13.1894,42.0878],[13.1915,42.0869],[13.1961,42.082],[13.196,42.0807],[13.1937,42.0777],[13.1862,42.0755],[13.1775,42.0748],[13.1667,42.0706],[13.1622,42.0659],[13.1571,42.0673],[13.1489,42.0719],[13.1369,42.0744],[13.1102,42.0752],[13.0667,42.0778],[13.064,42.0789],[13.0595,42.0826],[13.0551,42.0883],[13.0463,42.0924],[13.0403,42.0914],[13.0363,42.0917],[13.0253,42.0955],[13.026,42.0984],[13.0284,42.1005],[13.0319,42.1058],[13.0327,42.1136],[13.0306,42.1154],[13.0308,42.1221],[13.039,42.1174],[13.0573,42.1229],[13.0731,42.1319],[13.0768,42.139],[13.0859,42.1439],[13.0871,42.1469],[13.0867,42.15],[13.0897,42.1557],[13.0935,42.1607],[13.0935,42.1665],[13.0868,42.1732],[13.0871,42.1779],[13.1093,42.1759],[13.1199,42.1767],[13.1318,42.1714],[13.1503,42.1616],[13.1664,42.1546],[13.1681,42.1535],[13.1697,42.1507]]]}},{"type":"Feature","properties":{"i":"066026","n":"Castel del Monte"},"geometry":{"type":"Polygon","coordinates":[[[13.7268,42.4412],[13.733,42.438],[13.7454,42.435],[13.751,42.4328],[13.7591,42.4284],[13.7615,42.4247],[13.7618,42.4221],[13.7631,42.4209],[13.7698,42.4185],[13.7742,42.416],[13.7798,42.4091],[13.7798,42.4038],[13.7868,42.3939],[13.7971,42.3849],[13.8086,42.3787],[13.8095,42.3755],[13.8093,42.3725],[13.8079,42.3751],[13.8044,42.3779],[13.7937,42.3815],[13.7867,42.3787],[13.7773,42.3859],[13.7633,42.3866],[13.7608,42.3845],[13.7569,42.3833],[13.75,42.3873],[13.748,42.3904],[13.7482,42.3975],[13.7421,42.4049],[13.7356,42.4012],[13.7347,42.3916],[13.7354,42.3897],[13.7373,42.3876],[13.739,42.3884],[13.7424,42.3858],[13.7447,42.3828],[13.7464,42.3776],[13.7498,42.3747],[13.7693,42.3615],[13.765,42.3575],[13.7569,42.3579],[13.7406,42.3528],[13.7191,42.3368],[13.7175,42.3388],[13.7117,42.3404],[13.7049,42.3437],[13.7018,42.3475],[13.6957,42.3618],[13.6918,42.3639],[13.6879,42.3678],[13.6872,42.3729],[13.6883,42.3853],[13.6874,42.3911],[13.6884,42.398],[13.7056,42.401],[13.7121,42.4034],[13.7073,42.4078],[13.7062,42.4174],[13.6985,42.4349],[13.6971,42.4432],[13.7034,42.4437],[13.708,42.4428],[13.723,42.4427],[13.7268,42.4412]]]}},{"type":"Feature","properties":{"i":"066027","n":"Castel di Ieri"},"geometry":{"type":"Polygon","coordinates":[[[13.7587,42.1236],[13.7665,42.118],[13.7759,42.1071],[13.783,42.1012],[13.7843,42.0974],[13.7839,42.0943],[13.763,42.0908],[13.7585,42.097],[13.7555,42.0954],[13.7407,42.0809],[13.733,42.0644],[13.7209,42.0624],[13.7177,42.0699],[13.7167,42.0794],[13.7178,42.0852],[13.7185,42.0859],[13.7204,42.0858],[13.7243,42.0951],[13.7224,42.1027],[13.737,42.1204],[13.7493,42.1242],[13.7587,42.1236]]]}},{"type":"Feature","properties":{"i":"066028","n":"Castel di Sangro"},"geometry":{"type":"Polygon","coordinates":[[[14.1259,41.8341],[14.1294,41.8349],[14.1334,41.8344],[14.1442,41.8298],[14.1503,41.824],[14.1542,41.8162],[14.1584,41.8156],[14.1648,41.8073],[14.1678,41.797],[14.1707,41.7797],[14.1759,41.7741],[14.1806,41.7734],[14.1874,41.7745],[14.1935,41.7735],[14.1978,41.7708],[14.2012,41.7675],[14.2018,41.7649],[14.1947,41.7582],[14.1936,41.7523],[14.1941,41.7493],[14.1902,41.7482],[14.1787,41.7492],[14.1764,41.7513],[14.1753,41.7546],[14.1756,41.7638],[14.1742,41.7655],[14.1718,41.7658],[14.1695,41.7648],[14.1636,41.7595],[14.1611,41.7543],[14.1623,41.7502],[14.1594,41.7478],[14.1522,41.7462],[14.1387,41.7449],[14.1299,41.7444],[14.1207,41.7452],[14.1156,41.7373],[14.1154,41.7354],[14.1209,41.7324],[14.1228,41.7297],[14.1233,41.7261],[14.1168,41.7149],[14.1102,41.7087],[14.1072,41.7074],[14.1051,41.7166],[14.0951,41.7324],[14.0944,41.7379],[14.0929,41.7402],[14.0951,41.7489],[14.0903,41.7571],[14.0452,41.7882],[14.0476,41.7971],[14.0601,41.8057],[14.0686,41.8131],[14.0792,41.8176],[14.0849,41.8153],[14.0873,41.8129],[14.0917,41.8116],[14.1041,41.815],[14.1003,41.8182],[14.0993,41.8202],[14.1053,41.833],[14.1061,41.8399],[14.1259,41.8341]]]}},{"type":"Feature","properties":{"i":"066029","n":"Castellafiume"},"geometry":{"type":"Polygon","coordinates":[[[13.3254,41.942],[13.3214,41.9457],[13.3084,41.9531],[13.3026,41.9544],[13.2983,41.9543],[13.3005,41.9594],[13.2949,41.972],[13.297,41.9794],[13.3038,41.9865],[13.3039,41.9946],[13.3092,42.0064],[13.3135,42.0118],[13.328,42.0072],[13.3323,42.005],[13.3371,41.9997],[13.3452,41.993],[13.363,41.9831],[13.352,41.9719],[13.3442,41.9654],[13.3254,41.942]]]}},{"type":"Feature","properties":{"i":"066030","n":"Castelvecchio Calvisio"},"geometry":{"type":"MultiPolygon","coordinates":[[[[13.7195,42.3027],[13.7235,42.2941],[13.7301,42.2836],[13.7184,42.2774],[13.7157,42.2796],[13.7171,42.283],[13.7196,42.2852],[13.7198,42.2889],[13.7186,42.2919],[13.706,42.3025],[13.6869,42.3042],[13.6756,42.3025],[13.6718,42.3009],[13.6552,42.3034],[13.6538,42.3069],[13.6534,42.3138],[13.6445,42.3168],[13.6424,42.323],[13.6547,42.3372],[13.663,42.3322],[13.6664,42.3249],[13.6801,42.318],[13.7104,42.3115],[13.7195,42.3027]]],[[[13.6652,42.3886],[13.6657,42.3939],[13.676,42.4388],[13.6831,42.4424],[13.6772,42.4174],[13.6685,42.3911],[13.6652,42.3886]]]]}},{"type":"Feature","properties":{"i":"066031","n":"Castelvecchio Subequo"},"geometry":{"type":"Polygon","coordinates":[[[13.7629,42.1302],[13.7587,42.1236],[13.7493,42.1242],[13.737,42.1204],[13.7224,42.1027],[13.7243,42.0951],[13.7204,42.0858],[13.7185,42.0859],[13.7178,42.0852],[13.7167,42.0794],[13.7177,42.0699],[13.7208,42.0626],[13.7224,42.0622],[13.7212,42.0617],[13.7049,42.064],[13.6993,42.0669],[13.6933,42.0729],[13.6896,42.0797],[13.6898,42.0857],[13.693,42.0857],[13.7011,42.0823],[13.7055,42.0827],[13.7058,42.0862],[13.7014,42.0896],[13.7004,42.0917],[13.7002,42.0945],[13.7115,42.1052],[13.7131,42.1107],[13.7153,42.1194],[13.7162,42.129],[13.7115,42.1429],[13.7148,42.1524],[13.7317,42.1432],[13.7448,42.141],[13.7629,42.1302]]]}},{"type":"Feature","properties":{"i":"066032","n":"Celano"},"geometry":{"type":"MultiPolygon","coordinates":[[[[13.5644,42.01],[13.5648,41.9976],[13.5478,41.9973],[13.5468,41.9952],[13.5105,41.9947],[13.5086,42.0509],[13.5013,42.0626],[13.4995,42.0627],[13.4907,42.0796],[13.49,42.088],[13.4987,42.0881],[13.5176,42.0902],[13.5313,42.0976],[13.5304,42.1015],[13.5323,42.1048],[13.5369,42.1075],[13.5587,42.104],[13.5605,42.1062],[13.5599,42.1116],[13.5577,42.115],[13.558,42.1158],[13.5731,42.1214],[13.5707,42.1128],[13.571,42.1101],[13.5724,42.1086],[13.574,42.1031],[13.5699,42.0922],[13.5648,42.0864],[13.5555,42.0862],[13.5506,42.0797],[13.5517,42.0716],[13.5555,42.0637],[13.562,42.0546],[13.5513,42.0464],[13.552,42.0194],[13.5483,42.0097],[13.5644,42.01]]],[[[13.6261,42.1357],[13.6413,42.1296],[13.6477,42.1251],[13.652,42.1207],[13.649,42.1173],[13.647,42.1133],[13.6446,42.1069],[13.6442,42.1021],[13.6541,42.0932],[13.6586,42.0904],[13.6753,42.0873],[13.6819,42.0907],[13.6888,42.0871],[13.6898,42.0857],[13.6896,42.0797],[13.6933,42.0729],[13.6993,42.0669],[13.7049,42.064],[13.6906,42.0625],[13.6864,42.0643],[13.684,42.0658],[13.6805,42.07],[13.6761,42.0793],[13.6749,42.0804],[13.6537,42.0857],[13.6465,42.0869],[13.634,42.0875],[13.6276,42.0902],[13.6211,42.0913],[13.6196,42.0944],[13.6213,42.1011],[13.6296,42.107],[13.6323,42.1106],[13.6283,42.1134],[13.6253,42.1143],[13.6233,42.1141],[13.6191,42.1102],[13.6137,42.1086],[13.6094,42.1089],[13.6002,42.1117],[13.5924,42.1199],[13.5864,42.1203],[13.5785,42.1293],[13.5679,42.1376],[13.5652,42.148],[13.5771,42.1522],[13.5859,42.1565],[13.6069,42.1477],[13.6261,42.1357]]]]}},{"type":"Feature","properties":{"i":"066033","n":"Cerchio"},"geometry":{"type":"MultiPolygon","coordinates":[[[[13.6148,42.0738],[13.618,42.0697],[13.6183,42.0676],[13.6172,42.0622],[13.6142,42.06],[13.6075,42.0503],[13.6115,42.041],[13.6121,42.0352],[13.6081,42.0328],[13.6073,42.0236],[13.6078,42.022],[13.6055,42.0175],[13.6113,42.0119],[13.6053,42.0105],[13.5706,42.0101],[13.5704,42.0418],[13.5721,42.0438],[13.5754,42.0426],[13.5784,42.0425],[13.5827,42.0437],[13.5849,42.0466],[13.5901,42.059],[13.5892,42.0633],[13.5909,42.0677],[13.5989,42.0739],[13.602,42.0758],[13.6047,42.0761],[13.6148,42.0738]]],[[[13.6173,42.0741],[13.6202,42.0847],[13.6237,42.0866],[13.6211,42.0913],[13.6276,42.0902],[13.628,42.0846],[13.6312,42.0838],[13.6325,42.0802],[13.6324,42.0755],[13.6282,42.0725],[13.6173,42.0741]]]]}},{"type":"Feature","properties":{"i":"066034","n":"Civita d'Antino"},"geometry":{"type":"Polygon","coordinates":[[[13.5083,41.9087],[13.5037,41.9022],[13.4966,41.9003],[13.5028,41.8909],[13.5099,41.892],[13.5148,41.8826],[13.5149,41.8791],[13.5097,41.8788],[13.5056,41.8725],[13.5065,41.8624],[13.5041,41.8545],[13.5023,41.8519],[13.5002,41.8526],[13.4992,41.8543],[13.4813,41.8559],[13.4639,41.8644],[13.451,41.878],[13.4483,41.8852],[13.4452,41.887],[13.4348,41.8994],[13.4353,41.9012],[13.4398,41.9055],[13.4521,41.913],[13.4621,41.9174],[13.4669,41.9183],[13.472,41.9162],[13.4774,41.91],[13.4824,41.9063],[13.5023,41.9069],[13.5083,41.9087]]]}},{"type":"Feature","properties":{"i":"066035","n":"Civitella Alfedena"},"geometry":{"type":"Polygon","coordinates":[[[13.9544,41.776],[13.9643,41.7724],[13.9637,41.7703],[13.9545,41.7587],[13.9482,41.7526],[13.9429,41.7489],[13.9351,41.7466],[13.9181,41.7456],[13.9129,41.7435],[13.9047,41.7365],[13.8976,41.7321],[13.8917,41.7352],[13.8958,41.7407],[13.9025,41.7433],[13.9023,41.7471],[13.8921,41.7587],[13.888,41.7674],[13.8889,41.7732],[13.8899,41.7749],[13.8887,41.7828],[13.8842,41.7924],[13.8787,41.798],[13.8792,41.8016],[13.8835,41.8041],[13.8852,41.8092],[13.8836,41.8096],[13.8884,41.8155],[13.8904,41.8232],[13.9065,41.8255],[13.9104,41.8244],[13.91,41.8201],[13.9118,41.8123],[13.9151,41.7991],[13.9176,41.7936],[13.9122,41.7805],[13.9128,41.7791],[13.9163,41.7764],[13.9202,41.7742],[13.9361,41.7686],[13.946,41.7702],[13.9492,41.7715],[13.9544,41.776]]]}},{"type":"Feature","properties":{"i":"066036","n":"Civitella Roveto"},"geometry":{"type":"Polygon","coordinates":[[[13.4669,41.9183],[13.4621,41.9174],[13.4521,41.913],[13.4398,41.9055],[13.4353,41.9012],[13.4348,41.8994],[13.4452,41.887],[13.4406,41.8864],[13.4239,41.88],[13.4251,41.8755],[13.4201,41.8709],[13.3686,41.8405],[13.367,41.8456],[13.3659,41.8577],[13.3671,41.8604],[13.3673,41.8633],[13.359,41.8693],[13.3648,41.8776],[13.3737,41.8856],[13.3778,41.8912],[13.3827,41.9008],[13.3805,41.9081],[13.3784,41.9118],[13.3968,41.9161],[13.4047,41.9163],[13.4093,41.9232],[13.4097,41.9254],[13.4086,41.9292],[13.4104,41.9312],[13.416,41.9351],[13.434,41.9449],[13.4431,41.9516],[13.4463,41.9485],[13.449,41.9414],[13.4669,41.9183]]]}},{"type":"Feature","properties":{"i":"066037","n":"Cocullo"},"geometry":{"type":"Polygon","coordinates":[[[13.8079,42.0421],[13.8124,42.0373],[13.8159,42.0354],[13.8184,42.0373],[13.822,42.0338],[13.8229,42.0313],[13.818,42.029],[13.815,42.0238],[13.8066,42.0154],[13.7913,42.0103],[13.7694,42.0002],[13.7676,41.9979],[13.7603,42.0051],[13.7469,42.0263],[13.7428,42.0312],[13.737,42.0357],[13.7301,42.0453],[13.7212,42.0617],[13.733,42.0644],[13.7393,42.0623],[13.7466,42.0573],[13.7494,42.0563],[13.7558,42.0562],[13.7755,42.0593],[13.7821,42.0586],[13.7867,42.0559],[13.7946,42.0461],[13.8021,42.0397],[13.8079,42.0421]]]}},{"type":"Feature","properties":{"i":"066038","n":"Collarmele"},"geometry":{"type":"Polygon","coordinates":[[[13.6906,42.0625],[13.6776,42.0556],[13.6627,42.0519],[13.6502,42.0461],[13.6488,42.047],[13.6453,42.0472],[13.6371,42.0446],[13.6327,42.0421],[13.6243,42.0324],[13.6119,42.0263],[13.6074,42.0223],[13.6081,42.0328],[13.6121,42.0352],[13.6115,42.041],[13.6075,42.0503],[13.6142,42.06],[13.6172,42.0622],[13.6183,42.0676],[13.618,42.0697],[13.6148,42.0738],[13.6173,42.0741],[13.6282,42.0725],[13.6324,42.0755],[13.6325,42.0802],[13.6312,42.0838],[13.628,42.0846],[13.6276,42.0902],[13.634,42.0875],[13.6465,42.0869],[13.6537,42.0857],[13.6756,42.08],[13.6801,42.0706],[13.6835,42.0663],[13.6906,42.0625]]]}},{"type":"Feature","properties":{"i":"066039","n":"Collelongo"},"geometry":{"type":"Polygon","coordinates":[[[13.6211,41.915],[13.6224,41.9113],[13.6244,41.9093],[13.6362,41.9025],[13.6209,41.8899],[13.602,41.8725],[13.6077,41.867],[13.6044,41.8582],[13.6005,41.8514],[13.605,41.8471],[13.5984,41.8425],[13.5695,41.8568],[13.561,41.8642],[13.5187,41.8769],[13.5149,41.8791],[13.5148,41.8826],[13.51,41.8915],[13.5182,41.8928],[13.5204,41.8942],[13.5227,41.9006],[13.5186,41.9016],[13.5176,41.9091],[13.5199,41.9139],[13.5354,41.9117],[13.5525,41.9198],[13.565,41.9274],[13.5678,41.9303],[13.5894,41.9202],[13.5953,41.9193],[13.6038,41.915],[13.6211,41.915]]]}},{"type":"Feature","properties":{"i":"066040","n":"Collepietro"},"geometry":{"type":"Polygon","coordinates":[[[13.7993,42.2368],[13.8045,42.2335],[13.8075,42.2261],[13.8072,42.2183],[13.8043,42.2157],[13.8032,42.2087],[13.8035,42.2023],[13.8108,42.1967],[13.8092,42.192],[13.8067,42.1923],[13.8005,42.1893],[13.8009,42.1903],[13.8002,42.1907],[13.7954,42.1917],[13.7866,42.1972],[13.7749,42.2067],[13.7725,42.2099],[13.7546,42.206],[13.7607,42.2115],[13.7608,42.2185],[13.7678,42.2355],[13.7853,42.2404],[13.7896,42.2407],[13.7968,42.2405],[13.7993,42.2368]]]}},{"type":"Feature","properties":{"i":"066041","n":"Corfinio"},"geometry":{"type":"Polygon","coordinates":[[[13.9052,42.16],[13.9061,42.1587],[13.8937,42.153],[13.8772,42.1439],[13.8737,42.1398],[13.86,42.1176],[13.8584,42.1116],[13.8491,42.1042],[13.8417,42.1046],[13.8267,42.1108],[13.8262,42.1168],[13.8229,42.118],[13.8353,42.1286],[13.8382,42.1339],[13.8387,42.1367],[13.8379,42.1413],[13.8353,42.1448],[13.8347,42.1483],[13.8415,42.1437],[13.8465,42.1429],[13.8527,42.146],[13.8544,42.1493],[13.8552,42.1559],[13.8574,42.1584],[13.86,42.1597],[13.8714,42.1617],[13.8742,42.161],[13.8886,42.1624],[13.8989,42.1656],[13.9052,42.16]]]}},{"type":"Feature","properties":{"i":"066042","n":"Fagnano Alto"},"geometry":{"type":"Polygon","coordinates":[[[13.6348,42.25],[13.6344,42.2433],[13.6271,42.2456],[13.6127,42.2441],[13.6036,42.2418],[13.5771,42.2221],[13.57,42.2112],[13.5678,42.2121],[13.5665,42.2193],[13.5602,42.2292],[13.5552,42.2339],[13.5505,42.2365],[13.547,42.2408],[13.5568,42.2516],[13.557,42.2578],[13.5609,42.2655],[13.5624,42.2729],[13.5694,42.2784],[13.5731,42.2792],[13.5782,42.279],[13.5801,42.2804],[13.5821,42.28],[13.5917,42.2741],[13.6007,42.2698],[13.6151,42.2561],[13.6201,42.2539],[13.625,42.2539],[13.6348,42.25]]]}},{"type":"Feature","properties":{"i":"066043","n":"Fontecchio"},"geometry":{"type":"Polygon","coordinates":[[[13.6448,42.2316],[13.6348,42.2266],[13.631,42.2191],[13.6268,42.2137],[13.6232,42.2143],[13.6125,42.2094],[13.6093,42.2071],[13.6001,42.2038],[13.5927,42.2039],[13.5864,42.206],[13.5773,42.2045],[13.57,42.2112],[13.5771,42.2221],[13.6031,42.2415],[13.6064,42.2429],[13.6206,42.2451],[13.6271,42.2456],[13.6296,42.245],[13.6344,42.2433],[13.6424,42.2375],[13.6424,42.2341],[13.6448,42.2316]]]}},{"type":"Feature","properties":{"i":"066044","n":"Fossa"},"geometry":{"type":"Polygon","coordinates":[[[13.4915,42.3201],[13.5005,42.3148],[13.5078,42.3132],[13.5168,42.3012],[13.5179,42.2984],[13.5148,42.2979],[13.503,42.2916],[13.5004,42.2862],[13.4977,42.2842],[13.4923,42.2856],[13.4835,42.2906],[13.479,42.3009],[13.471,42.3099],[13.4838,42.3178],[13.4891,42.32],[13.4915,42.3201]]]}},{"type":"Feature","properties":{"i":"066045","n":"Gagliano Aterno"},"geometry":{"type":"Polygon","coordinates":[[[13.7115,42.1429],[13.7162,42.129],[13.7153,42.1194],[13.7115,42.1052],[13.7002,42.0945],[13.7004,42.0917],[13.7014,42.0896],[13.7058,42.0862],[13.7055,42.0827],[13.7028,42.0822],[13.7003,42.0826],[13.693,42.0857],[13.6898,42.0857],[13.6888,42.0871],[13.6819,42.0907],[13.6753,42.0873],[13.6586,42.0904],[13.6541,42.0932],[13.6439,42.1028],[13.6446,42.1069],[13.648,42.1157],[13.652,42.1207],[13.6477,42.1251],[13.6413,42.1296],[13.6261,42.1357],[13.6474,42.1521],[13.6612,42.1415],[13.6634,42.1379],[13.6614,42.134],[13.6616,42.1328],[13.6686,42.1304],[13.6809,42.1346],[13.6927,42.1404],[13.7115,42.1429]]]}},{"type":"Feature","properties":{"i":"066046","n":"Gioia dei Marsi"},"geometry":{"type":"Polygon","coordinates":[[[13.7393,41.9484],[13.7368,41.9442],[13.7361,41.9405],[13.7359,41.923],[13.7388,41.8997],[13.7411,41.8951],[13.7536,41.8852],[13.762,41.8839],[13.7723,41.8852],[13.7786,41.8841],[13.7878,41.8775],[13.7954,41.8811],[13.8169,41.8727],[13.818,41.8677],[13.8118,41.8654],[13.8064,41.8651],[13.7856,41.856],[13.7691,41.851],[13.7548,41.8394],[13.7515,41.8429],[13.7537,41.8503],[13.7437,41.8561],[13.7374,41.8638],[13.7268,41.8722],[13.7196,41.8817],[13.7165,41.8911],[13.7166,41.8928],[13.7122,41.9023],[13.7072,41.9094],[13.6994,41.9162],[13.7013,41.921],[13.7045,41.9233],[13.705,41.9263],[13.7049,41.9339],[13.7023,41.9409],[13.6876,41.9537],[13.6801,41.9547],[13.6744,41.9543],[13.6739,41.9575],[13.6684,41.9667],[13.6641,41.9717],[13.6667,41.975],[13.6737,41.9805],[13.6758,41.9842],[13.6752,41.9898],[13.6716,41.9926],[13.6695,41.998],[13.6752,42.0014],[13.6764,42.0042],[13.6918,41.9974],[13.699,41.9799],[13.7021,41.9767],[13.7119,41.9731],[13.7137,41.9754],[13.7177,41.9729],[13.7196,41.9708],[13.7203,41.968],[13.7277,41.955],[13.7336,41.9507],[13.7393,41.9484]]]}},{"type":"Feature","properties":{"i":"066047","n":"Goriano Sicoli"},"geometry":{"type":"Polygon","coordinates":[[[13.7839,42.0943],[13.7873,42.0903],[13.8041,42.0787],[13.8044,42.0741],[13.8031,42.0705],[13.7976,42.0615],[13.7996,42.0528],[13.8079,42.0421],[13.8021,42.0397],[13.7946,42.0461],[13.7867,42.0559],[13.7826,42.0584],[13.7755,42.0593],[13.7558,42.0562],[13.7494,42.0563],[13.7466,42.0573],[13.7393,42.0623],[13.733,42.0644],[13.7407,42.0809],[13.7555,42.0954],[13.7585,42.097],[13.763,42.0908],[13.7839,42.0943]]]}},{"type":"Feature","properties":{"i":"066048","n":"Introdacqua"},"geometry":{"type":"Polygon","coordinates":[[[13.9246,42.0165],[13.923,42.0107],[13.9175,42.0016],[13.9188,41.9889],[13.9183,41.9826],[13.9147,41.9747],[13.9046,41.9614],[13.8945,41.953],[13.8863,41.9498],[13.8769,41.9606],[13.8732,41.9626],[13.871,41.9628],[13.8694,41.9642],[13.8643,41.9732],[13.8592,41.9786],[13.8582,41.9879],[13.8589,41.9907],[13.8613,41.9946],[13.8698,42.0043],[13.8727,42.0096],[13.8711,42.0126],[13.8749,42.019],[13.8778,42.0222],[13.8812,42.0305],[13.8809,42.0364],[13.8909,42.0419],[13.8903,42.0441],[13.9003,42.0445],[13.9032,42.0433],[13.9159,42.0347],[13.92,42.031],[13.9246,42.0165]]]}},{"type":"Feature","properties":{"i":"066049","n":"L'Aquila"},"geometry":{"type":"MultiPolygon","coordinates":[[[[13.4172,42.1923],[13.3919,42.1797],[13.3901,42.1785],[13.3897,42.1768],[13.3799,42.1804],[13.3743,42.187],[13.3816,42.2014],[13.3836,42.203],[13.3888,42.2041],[13.4031,42.2016],[13.4087,42.1986],[13.4172,42.1923]]],[[[13.4261,42.519],[13.4346,42.5146],[13.4484,42.5038],[13.4521,42.4966],[13.472,42.4859],[13.4756,42.4831],[13.4834,42.4823],[13.5021,42.4751],[13.5132,42.4723],[13.5257,42.4724],[13.5272,42.4636],[13.5247,42.4507],[13.526,42.4497],[13.5463,42.4474],[13.5521,42.448],[13.5577,42.4516],[13.5582,42.4541],[13.5617,42.4584],[13.5658,42.4585],[13.5699,42.4549],[13.576,42.4539],[13.5896,42.4528],[13.5971,42.4533],[13.6237,42.4504],[13.6355,42.4474],[13.6442,42.4432],[13.6532,42.441],[13.6507,42.4338],[13.646,42.4265],[13.627,42.4064],[13.6231,42.4077],[13.6176,42.4078],[13.6108,42.4049],[13.6008,42.407],[13.5908,42.4044],[13.5803,42.3945],[13.5646,42.3855],[13.5493,42.3669],[13.5471,42.3619],[13.5443,42.3581],[13.5366,42.353],[13.5259,42.3518],[13.5155,42.3479],[13.5029,42.3374],[13.5078,42.3339],[13.5116,42.3331],[13.5123,42.332],[13.512,42.3297],[13.5072,42.3257],[13.5025,42.3229],[13.4891,42.32],[13.4838,42.3178],[13.471,42.3099],[13.4588,42.3169],[13.4587,42.3179],[13.4546,42.3163],[13.4492,42.3107],[13.4504,42.3103],[13.4513,42.3071],[13.4403,42.284],[13.4462,42.279],[13.4487,42.2738],[13.4351,42.2583],[13.4376,42.256],[13.4451,42.2561],[13.4366,42.2428],[13.4354,42.2425],[13.4319,42.2441],[13.4313,42.2455],[13.4252,42.2508],[13.4195,42.2503],[13.4175,42.252],[13.4189,42.257],[13.4196,42.2647],[13.4058,42.2726],[13.393,42.2821],[13.3814,42.2871],[13.3746,42.2927],[13.3775,42.2961],[13.3744,42.3014],[13.3548,42.3111],[13.3462,42.3172],[13.3344,42.3316],[13.3239,42.3239],[13.3163,42.3206],[13.3034,42.3195],[13.3011,42.3184],[13.3007,42.3179],[13.3058,42.3108],[13.2944,42.3087],[13.2826,42.327],[13.2777,42.3306],[13.2733,42.3389],[13.275,42.3447],[13.2769,42.3478],[13.2909,42.3595],[13.2822,42.3622],[13.2683,42.3751],[13.2661,42.3779],[13.2629,42.3871],[13.262,42.388],[13.2553,42.3899],[13.2305,42.3903],[13.2138,42.3919],[13.1927,42.3974],[13.1892,42.4002],[13.1763,42.4062],[13.1793,42.4102],[13.1936,42.4245],[13.2195,42.4333],[13.2232,42.4339],[13.2316,42.4318],[13.2412,42.4204],[13.2505,42.4145],[13.2667,42.4099],[13.2719,42.4074],[13.2845,42.408],[13.2984,42.404],[13.3018,42.3973],[13.3049,42.3954],[13.3064,42.4086],[13.3132,42.4129],[13.3223,42.413],[13.3312,42.4181],[13.361,42.4383],[13.3764,42.4506],[13.3906,42.4651],[13.3971,42.4641],[13.4041,42.4705],[13.4075,42.4752],[13.4061,42.482],[13.4027,42.4855],[13.391,42.4866],[13.3858,42.4829],[13.3816,42.4812],[13.3802,42.4816],[13.3774,42.4845],[13.3762,42.4869],[13.3708,42.4921],[13.3472,42.4775],[13.3411,42.4787],[13.3302,42.4892],[13.3381,42.4927],[13.3446,42.5029],[13.3482,42.5068],[13.3736,42.5165],[13.3805,42.517],[13.3878,42.5158],[13.3901,42.5164],[13.3929,42.5206],[13.394,42.526],[13.4048,42.5319],[13.4235,42.518],[13.4245,42.5178],[13.4261,42.519]]]]}},{"type":"Feature","properties":{"i":"066050","n":"Lecce nei Marsi"},"geometry":{"type":"Polygon","coordinates":[[[13.7548,41.8394],[13.7363,41.8332],[13.7339,41.8343],[13.7287,41.8397],[13.7068,41.8411],[13.6882,41.8497],[13.6787,41.8619],[13.6684,41.8709],[13.6524,41.8827],[13.6473,41.8877],[13.6437,41.8944],[13.6389,41.9002],[13.623,41.9105],[13.6211,41.915],[13.6239,41.9209],[13.6271,41.9251],[13.6388,41.9324],[13.6648,41.9439],[13.6733,41.9487],[13.6765,41.9514],[13.6744,41.9543],[13.6801,41.9547],[13.6878,41.9536],[13.6992,41.9442],[13.7025,41.9404],[13.7049,41.9339],[13.705,41.9263],[13.7045,41.9233],[13.7013,41.921],[13.6994,41.9162],[13.7072,41.9094],[13.7122,41.9023],[13.7166,41.8928],[13.7165,41.8911],[13.7196,41.8817],[13.7268,41.8722],[13.7374,41.8638],[13.7437,41.8561],[13.7537,41.8503],[13.7515,41.8429],[13.7548,41.8394]]]}},{"type":"Feature","properties":{"i":"066051","n":"Luco dei Marsi"},"geometry":{"type":"Polygon","coordinates":[[[13.5083,41.9087],[13.5023,41.9069],[13.4824,41.9063],[13.4774,41.91],[13.472,41.9162],[13.4669,41.9183],[13.449,41.9414],[13.4454,41.9496],[13.4431,41.9516],[13.436,41.9525],[13.437,41.9566],[13.4372,41.9704],[13.4381,41.9738],[13.4316,41.9817],[13.4346,41.9837],[13.4468,41.9874],[13.4765,41.9885],[13.4761,41.9942],[13.5105,41.9947],[13.5111,41.9638],[13.5058,41.9617],[13.5,41.9552],[13.5056,41.9485],[13.5032,41.944],[13.5006,41.9344],[13.5084,41.9281],[13.5083,41.9087]]]}},{"type":"Feature","properties":{"i":"066052","n":"Lucoli"},"geometry":{"type":"Polygon","coordinates":[[[13.4415,42.2496],[13.4504,42.2389],[13.4503,42.2327],[13.4494,42.2264],[13.4361,42.1968],[13.4172,42.1923],[13.4087,42.1986],[13.4031,42.2016],[13.3888,42.2041],[13.3836,42.203],[13.3816,42.2014],[13.3743,42.187],[13.3704,42.1887],[13.3607,42.1908],[13.352,42.1914],[13.3415,42.1984],[13.3319,42.2082],[13.3331,42.211],[13.3387,42.2155],[13.3374,42.2203],[13.3348,42.2244],[13.3236,42.2634],[13.3139,42.2808],[13.3086,42.3017],[13.306,42.3078],[13.3058,42.3108],[13.3007,42.3179],[13.3034,42.3195],[13.3163,42.3206],[13.3239,42.3239],[13.3344,42.3316],[13.3462,42.3172],[13.3548,42.3111],[13.3744,42.3014],[13.3775,42.2961],[13.3746,42.2927],[13.3814,42.2871],[13.393,42.2821],[13.4058,42.2726],[13.4196,42.2647],[13.4189,42.257],[13.4175,42.2527],[13.419,42.2505],[13.422,42.2501],[13.4252,42.2508],[13.4313,42.2455],[13.4319,42.2441],[13.4354,42.2425],[13.4366,42.2428],[13.4415,42.2496]]]}},{"type":"Feature","properties":{"i":"066053","n":"Magliano de' Marsi"},"geometry":{"type":"Polygon","coordinates":[[[13.3897,42.1768],[13.3994,42.1685],[13.3971,42.1632],[13.3989,42.1607],[13.3878,42.1498],[13.3832,42.1501],[13.3724,42.1386],[13.3692,42.1327],[13.3671,42.1225],[13.3664,42.1151],[13.3707,42.1096],[13.3799,42.104],[13.3834,42.0992],[13.3826,42.096],[13.3862,42.0842],[13.3843,42.0768],[13.373,42.072],[13.3592,42.0712],[13.3479,42.081],[13.3458,42.084],[13.3377,42.09],[13.3316,42.0828],[13.331,42.0849],[13.3283,42.0868],[13.3215,42.0897],[13.3062,42.1003],[13.2964,42.1107],[13.2926,42.1128],[13.2647,42.1111],[13.2612,42.1115],[13.2418,42.1248],[13.2372,42.1291],[13.2488,42.1274],[13.2695,42.1375],[13.2778,42.1375],[13.2849,42.1343],[13.3053,42.1383],[13.3097,42.1469],[13.3175,42.1537],[13.3191,42.154],[13.3222,42.1525],[13.3283,42.1547],[13.3263,42.1583],[13.3227,42.161],[13.3273,42.1639],[13.3333,42.1663],[13.3448,42.1648],[13.3508,42.1657],[13.3546,42.1674],[13.3424,42.1768],[13.3474,42.1759],[13.3602,42.1776],[13.3676,42.1801],[13.3799,42.1804],[13.3897,42.1768]]]}},{"type":"Feature","properties":{"i":"066054","n":"Massa d'Albe"},"geometry":{"type":"Polygon","coordinates":[[[13.4521,42.1594],[13.4589,42.1434],[13.472,42.1398],[13.479,42.1344],[13.4766,42.1278],[13.4761,42.1211],[13.4779,42.1169],[13.4793,42.1008],[13.4828,42.0948],[13.4894,42.0922],[13.4833,42.0922],[13.4688,42.0939],[13.4603,42.0965],[13.4521,42.0963],[13.4358,42.0943],[13.4341,42.0932],[13.4294,42.0816],[13.4311,42.0783],[13.4357,42.0773],[13.4355,42.0756],[13.4336,42.0732],[13.4269,42.0716],[13.4146,42.0719],[13.4051,42.0767],[13.3843,42.0768],[13.3862,42.0842],[13.3826,42.096],[13.3834,42.0992],[13.3799,42.104],[13.3707,42.1096],[13.3664,42.1151],[13.3692,42.1327],[13.3724,42.1386],[13.3832,42.1501],[13.3878,42.1498],[13.3982,42.1596],[13.3988,42.1612],[13.3971,42.1632],[13.3994,42.1685],[13.4038,42.1686],[13.4074,42.1659],[13.4169,42.1624],[13.4267,42.1606],[13.4279,42.161],[13.4332,42.1688],[13.4443,42.1681],[13.4491,42.164],[13.4521,42.1594]]]}},{"type":"Feature","properties":{"i":"066055","n":"Molina Aterno"},"geometry":{"type":"Polygon","coordinates":[[[13.7643,42.1624],[13.7669,42.1607],[13.7748,42.1508],[13.7741,42.1463],[13.7771,42.1356],[13.7629,42.1302],[13.7448,42.141],[13.7317,42.1432],[13.7148,42.1524],[13.7134,42.1537],[13.7127,42.1579],[13.7146,42.1597],[13.7079,42.1669],[13.7158,42.163],[13.7314,42.1618],[13.7486,42.163],[13.7643,42.1624]]]}},{"type":"Feature","properties":{"i":"066056","n":"Montereale"},"geometry":{"type":"Polygon","coordinates":[[[13.2973,42.5711],[13.3014,42.5682],[13.3056,42.5673],[13.3103,42.565],[13.3099,42.5638],[13.3051,42.5608],[13.2931,42.5557],[13.2832,42.5539],[13.2734,42.545],[13.2741,42.5423],[13.268,42.5266],[13.2538,42.5205],[13.2648,42.5155],[13.2743,42.5156],[13.2794,42.5139],[13.2889,42.5066],[13.3002,42.5013],[13.3126,42.4929],[13.3023,42.4884],[13.298,42.486],[13.2959,42.4837],[13.2864,42.4874],[13.2569,42.4883],[13.2533,42.4901],[13.2456,42.4811],[13.2207,42.4789],[13.2032,42.4744],[13.1975,42.4711],[13.1868,42.474],[13.1717,42.4832],[13.1715,42.4861],[13.1774,42.5078],[13.1778,42.5126],[13.1733,42.5145],[13.1669,42.5155],[13.1578,42.5284],[13.1558,42.5401],[13.1666,42.5404],[13.1735,42.5454],[13.1761,42.5529],[13.1743,42.5675],[13.181,42.5707],[13.1923,42.578],[13.1923,42.584],[13.1914,42.5875],[13.2191,42.5824],[13.2306,42.5786],[13.2357,42.5749],[13.2459,42.5727],[13.2533,42.5812],[13.2628,42.5831],[13.2794,42.5833],[13.2845,42.5816],[13.2865,42.5772],[13.2913,42.5705],[13.2933,42.5695],[13.2973,42.5711]]]}},{"type":"Feature","properties":{"i":"066057","n":"Morino"},"geometry":{"type":"Polygon","coordinates":[[[13.4813,41.8559],[13.4708,41.8498],[13.4711,41.8483],[13.4754,41.8452],[13.4794,41.8459],[13.4836,41.8492],[13.4875,41.8505],[13.4926,41.8493],[13.5016,41.8445],[13.5026,41.8432],[13.502,41.8387],[13.5087,41.8333],[13.5048,41.8262],[13.4893,41.8161],[13.4905,41.8145],[13.4977,41.8099],[13.4974,41.8046],[13.4876,41.8033],[13.4824,41.8034],[13.4697,41.8066],[13.4646,41.8091],[13.4556,41.8204],[13.4521,41.8227],[13.4331,41.8279],[13.4169,41.8347],[13.4075,41.8375],[13.4045,41.8371],[13.3963,41.834],[13.3915,41.8198],[13.3873,41.8173],[13.3795,41.8175],[13.3763,41.821],[13.376,41.8229],[13.3742,41.8255],[13.3668,41.8331],[13.3685,41.8407],[13.4201,41.8709],[13.4251,41.8755],[13.4239,41.88],[13.4406,41.8864],[13.4452,41.887],[13.4483,41.8852],[13.451,41.878],[13.4639,41.8644],[13.4813,41.8559]]]}},{"type":"Feature","properties":{"i":"066058","n":"Navelli"},"geometry":{"type":"Polygon","coordinates":[[[13.7992,42.2372],[13.7968,42.2405],[13.7896,42.2407],[13.7853,42.2404],[13.7678,42.2355],[13.7608,42.2185],[13.7607,42.2115],[13.7546,42.206],[13.758,42.2017],[13.751,42.1952],[13.7513,42.1929],[13.7444,42.1927],[13.7329,42.1999],[13.7065,42.2101],[13.704,42.2186],[13.7057,42.2193],[13.7082,42.2219],[13.7021,42.2248],[13.705,42.2303],[13.6994,42.2364],[13.6957,42.2388],[13.6927,42.2393],[13.6902,42.2414],[13.6922,42.2583],[13.6907,42.2691],[13.6923,42.2707],[13.6958,42.2706],[13.7087,42.273],[13.7184,42.2774],[13.7238,42.2715],[13.7268,42.2708],[13.7325,42.2713],[13.7391,42.2695],[13.753,42.259],[13.7585,42.2513],[13.7672,42.249],[13.7849,42.2475],[13.7988,42.2411],[13.7992,42.2372]]]}},{"type":"Feature","properties":{"i":"066059","n":"Ocre"},"geometry":{"type":"Polygon","coordinates":[[[13.471,42.3099],[13.479,42.3009],[13.4835,42.2906],[13.4923,42.2856],[13.4977,42.2842],[13.4962,42.28],[13.4967,42.2726],[13.5033,42.2713],[13.5025,42.2692],[13.4972,42.2643],[13.4913,42.2564],[13.4899,42.2575],[13.4835,42.2588],[13.4792,42.258],[13.4752,42.2558],[13.4638,42.2472],[13.4604,42.2509],[13.4553,42.2536],[13.4452,42.2563],[13.4376,42.256],[13.4351,42.2583],[13.4487,42.2738],[13.4462,42.279],[13.4403,42.284],[13.4513,42.3071],[13.4504,42.3103],[13.4492,42.3107],[13.4546,42.3163],[13.4587,42.3179],[13.4588,42.3169],[13.471,42.3099]]]}},{"type":"Feature","properties":{"i":"066060","n":"Ofena"},"geometry":{"type":"MultiPolygon","coordinates":[[[[13.7904,42.2957],[13.7735,42.2907],[13.7555,42.2879],[13.7383,42.2836],[13.7301,42.2836],[13.7235,42.2941],[13.7196,42.3028],[13.7249,42.3062],[13.729,42.3074],[13.7339,42.3078],[13.7391,42.3061],[13.7405,42.3049],[13.7421,42.3049],[13.7398,42.3099],[13.7235,42.3289],[13.7191,42.3368],[13.7271,42.3429],[13.7477,42.3468],[13.7577,42.3428],[13.7638,42.3395],[13.7652,42.3374],[13.7666,42.3288],[13.7681,42.3258],[13.7717,42.3216],[13.7774,42.3175],[13.7813,42.3149],[13.7847,42.3137],[13.7916,42.3032],[13.7904,42.2957]]],[[[13.8093,42.3725],[13.8128,42.3683],[13.7991,42.3658],[13.8017,42.3599],[13.7976,42.3584],[13.7917,42.3635],[13.7827,42.3745],[13.7727,42.3676],[13.7656,42.364],[13.7498,42.3747],[13.7464,42.3776],[13.7447,42.3828],[13.7424,42.3858],[13.739,42.3884],[13.7373,42.3876],[13.7354,42.3897],[13.7347,42.3916],[13.7356,42.4012],[13.7421,42.4049],[13.7482,42.3975],[13.748,42.3904],[13.75,42.3873],[13.7569,42.3833],[13.7608,42.3845],[13.7633,42.3866],[13.7773,42.3859],[13.7867,42.3787],[13.7937,42.3815],[13.8044,42.3779],[13.8079,42.3751],[13.8093,42.3725]]]]}},{"type":"Feature","properties":{"i":"066061","n":"Opi"},"geometry":{"type":"Polygon","coordinates":[[[13.8836,41.8096],[13.8852,41.8092],[13.8835,41.8041],[13.8792,41.8016],[13.8787,41.798],[13.8842,41.7924],[13.8887,41.7828],[13.8899,41.7749],[13.8889,41.7732],[13.888,41.7674],[13.8921,41.7587],[13.9023,41.7471],[13.9025,41.7433],[13.8958,41.7407],[13.8892,41.7327],[13.8792,41.7287],[13.8564,41.7312],[13.8522,41.734],[13.8516,41.7356],[13.8448,41.7382],[13.8372,41.738],[13.829,41.7389],[13.8235,41.7409],[13.8214,41.7433],[13.8274,41.7503],[13.8283,41.7524],[13.8279,41.759],[13.8267,41.7624],[13.8185,41.7713],[13.8055,41.7823],[13.8038,41.7856],[13.8244,41.8086],[13.8301,41.8106],[13.8408,41.818],[13.8561,41.8106],[13.8579,41.8055],[13.8601,41.8031],[13.8685,41.8032],[13.8722,41.8044],[13.8789,41.8082],[13.8836,41.8096]]]}},{"type":"Feature","properties":{"i":"066062","n":"Oricola"},"geometry":{"type":"Polygon","coordinates":[[[13.0653,42.0781],[13.0652,42.074],[13.0626,42.073],[13.0621,42.0697],[13.0643,42.0651],[13.067,42.0624],[13.0694,42.0545],[13.0548,42.0417],[13.0482,42.0296],[13.0465,42.0353],[13.0266,42.05],[13.0275,42.0562],[13.026,42.0631],[13.0217,42.0672],[13.019,42.074],[13.0193,42.0791],[13.0253,42.0955],[13.0363,42.0917],[13.0403,42.0914],[13.0463,42.0924],[13.0551,42.0883],[13.0595,42.0826],[13.0653,42.0781]]]}},{"type":"Feature","properties":{"i":"066063","n":"Ortona dei Marsi"},"geometry":{"type":"Polygon","coordinates":[[[13.7212,42.0617],[13.7301,42.0453],[13.737,42.0357],[13.7428,42.0312],[13.7469,42.0263],[13.7603,42.0051],[13.7676,41.9979],[13.7695,41.994],[13.7703,41.9902],[13.7796,41.9728],[13.78,41.9698],[13.7778,41.969],[13.7777,41.967],[13.7814,41.9648],[13.7844,41.9597],[13.781,41.9544],[13.7783,41.9422],[13.7787,41.9395],[13.7803,41.9377],[13.7854,41.9363],[13.7973,41.9366],[13.8013,41.9332],[13.7991,41.9296],[13.7934,41.9254],[13.7898,41.9278],[13.78,41.9315],[13.7761,41.9367],[13.7749,41.9398],[13.7807,41.9582],[13.7748,41.9641],[13.7697,41.9668],[13.7464,41.9697],[13.7459,41.9684],[13.748,41.9609],[13.7484,41.9535],[13.7405,41.9501],[13.7393,41.9484],[13.7346,41.9501],[13.7277,41.955],[13.7203,41.968],[13.7196,41.9708],[13.7177,41.9729],[13.7137,41.9754],[13.7119,41.9731],[13.7021,41.9767],[13.699,41.9799],[13.6918,41.9974],[13.6764,42.0042],[13.6809,42.0063],[13.6829,42.0082],[13.6875,42.0156],[13.6878,42.0223],[13.686,42.0254],[13.6858,42.0273],[13.6867,42.034],[13.6977,42.0473],[13.7078,42.0573],[13.7059,42.0638],[13.7212,42.0617]]]}},{"type":"Feature","properties":{"i":"066064","n":"Ortucchio"},"geometry":{"type":"Polygon","coordinates":[[[13.6641,41.9717],[13.6684,41.9667],[13.6739,41.9575],[13.6744,41.9543],[13.6765,41.9514],[13.667,41.945],[13.6388,41.9324],[13.6275,41.9254],[13.6239,41.9209],[13.6211,41.915],[13.6038,41.915],[13.5953,41.9193],[13.5894,41.9202],[13.5678,41.9303],[13.5709,41.939],[13.5788,41.9443],[13.5884,41.9471],[13.5909,41.9496],[13.5901,41.9513],[13.5892,41.9817],[13.6024,41.9817],[13.6077,41.9777],[13.6079,41.9736],[13.6502,41.9739],[13.6641,41.9717]]]}},{"type":"Feature","properties":{"i":"066065","n":"Ovindoli"},"geometry":{"type":"Polygon","coordinates":[[[13.5691,42.1643],[13.5767,42.1598],[13.5859,42.1565],[13.5771,42.1522],[13.5652,42.148],[13.5679,42.1376],[13.5785,42.1293],[13.5731,42.1214],[13.558,42.1158],[13.5577,42.115],[13.5599,42.1116],[13.5603,42.1057],[13.5587,42.104],[13.5369,42.1075],[13.5323,42.1048],[13.5304,42.1015],[13.5313,42.0976],[13.5176,42.0902],[13.4987,42.0881],[13.49,42.088],[13.4894,42.0922],[13.4839,42.094],[13.482,42.0956],[13.4793,42.1008],[13.4779,42.1169],[13.4761,42.1211],[13.4766,42.1278],[13.479,42.1344],[13.472,42.1398],[13.4589,42.1434],[13.4521,42.1594],[13.4578,42.1632],[13.4678,42.1717],[13.4775,42.1782],[13.4831,42.1792],[13.4887,42.1778],[13.4964,42.1739],[13.5018,42.1674],[13.5068,42.1569],[13.5156,42.1544],[13.5266,42.1529],[13.531,42.1531],[13.5283,42.1595],[13.5374,42.1635],[13.5476,42.1576],[13.5569,42.1539],[13.5691,42.1643]]]}},{"type":"Feature","properties":{"i":"066066","n":"Pacentro"},"geometry":{"type":"Polygon","coordinates":[[[14.0852,42.0867],[14.0911,42.084],[14.1002,42.0747],[14.1004,42.0697],[14.099,42.0639],[14.104,42.048],[14.0931,42.0436],[14.0906,42.041],[14.0906,42.0327],[14.0746,42.034],[14.0551,42.029],[14.0444,42.0236],[14.0328,42.0216],[14.0068,42.0214],[13.9984,42.0247],[13.9958,42.0198],[13.9894,42.0162],[13.9857,42.0163],[13.9772,42.0208],[13.9734,42.0268],[13.9568,42.0424],[13.9569,42.0498],[13.9617,42.0614],[13.9691,42.0758],[13.9792,42.0818],[13.9787,42.0852],[13.9744,42.0911],[13.9681,42.0964],[13.9683,42.0995],[13.9723,42.101],[13.9766,42.1025],[13.9809,42.0983],[13.9862,42.0956],[13.9932,42.0904],[14.0001,42.0775],[14.0061,42.0731],[14.0091,42.0731],[14.0305,42.0829],[14.0447,42.0838],[14.0523,42.0831],[14.0648,42.084],[14.0817,42.0872],[14.0852,42.0867]]]}},{"type":"Feature","properties":{"i":"066067","n":"Pereto"},"geometry":{"type":"Polygon","coordinates":[[[13.1622,42.0659],[13.1698,42.0627],[13.1869,42.0512],[13.1779,42.0305],[13.1775,42.0222],[13.1747,42.0121],[13.1496,42.0259],[13.1177,42.0381],[13.0843,42.0443],[13.0771,42.0472],[13.0694,42.0545],[13.0681,42.0601],[13.0637,42.0661],[13.0619,42.0708],[13.0626,42.073],[13.0652,42.074],[13.0653,42.0781],[13.0771,42.0776],[13.1102,42.0752],[13.1369,42.0744],[13.1489,42.0719],[13.1571,42.0673],[13.1622,42.0659]]]}},{"type":"Feature","properties":{"i":"066068","n":"Pescasseroli"},"geometry":{"type":"Polygon","coordinates":[[[13.8561,41.8106],[13.8408,41.818],[13.8301,41.8106],[13.8244,41.8086],[13.8038,41.7856],[13.8055,41.7823],[13.8185,41.7713],[13.8267,41.7624],[13.8279,41.759],[13.8283,41.7524],[13.8274,41.7503],[13.8214,41.7433],[13.8156,41.7521],[13.8116,41.7543],[13.7901,41.743],[13.7794,41.7469],[13.7672,41.7489],[13.762,41.7517],[13.7564,41.7577],[13.7494,41.7612],[13.7486,41.7669],[13.7495,41.7713],[13.7486,41.7736],[13.7417,41.7812],[13.7318,41.7865],[13.7292,41.7917],[13.7296,41.7989],[13.7318,41.8026],[13.738,41.8081],[13.7396,41.8176],[13.7368,41.8263],[13.7363,41.8332],[13.7548,41.8394],[13.7691,41.851],[13.7856,41.856],[13.8064,41.8651],[13.8118,41.8654],[13.8166,41.8669],[13.8182,41.8679],[13.8169,41.8727],[13.8229,41.8741],[13.8251,41.8776],[13.8264,41.8784],[13.8368,41.8806],[13.8375,41.8736],[13.8418,41.8595],[13.8482,41.8486],[13.8482,41.8443],[13.8561,41.8106]]]}},{"type":"Feature","properties":{"i":"066069","n":"Pescina"},"geometry":{"type":"Polygon","coordinates":[[[13.6764,42.0042],[13.6752,42.0014],[13.6695,41.998],[13.6716,41.9926],[13.6752,41.9898],[13.6758,41.9842],[13.6737,41.9805],[13.6667,41.975],[13.6641,41.9717],[13.6502,41.9739],[13.6079,41.9736],[13.6077,41.9777],[13.6024,41.9817],[13.5892,41.9817],[13.5897,41.9751],[13.5743,41.9754],[13.5632,41.9781],[13.5575,41.981],[13.5516,41.9861],[13.5538,41.9876],[13.5541,41.9905],[13.5911,41.9912],[13.5863,41.9955],[13.6264,41.9959],[13.6261,41.9967],[13.6321,42.0007],[13.6376,41.9967],[13.6429,42.0001],[13.6369,42.0077],[13.6389,42.0143],[13.6318,42.0289],[13.6243,42.0324],[13.6327,42.0421],[13.6433,42.0468],[13.6473,42.0473],[13.6502,42.0461],[13.6627,42.0519],[13.6767,42.0553],[13.6906,42.0625],[13.7059,42.0638],[13.7078,42.0573],[13.6977,42.0473],[13.6867,42.034],[13.6858,42.0273],[13.686,42.0254],[13.6878,42.0223],[13.6875,42.0156],[13.6829,42.0082],[13.6809,42.0063],[13.6764,42.0042]]]}},{"type":"Feature","properties":{"i":"066070","n":"Pescocostanzo"},"geometry":{"type":"Polygon","coordinates":[[[14.0818,41.9394],[14.0909,41.9283],[14.0949,41.9223],[14.1,41.9046],[14.1063,41.8934],[14.1081,41.8932],[14.1066,41.8876],[14.1102,41.8861],[14.1202,41.8847],[14.1277,41.8825],[14.1243,41.8805],[14.1199,41.8751],[14.1157,41.8672],[14.1102,41.8676],[14.1049,41.8702],[14.0957,41.8765],[14.0914,41.8835],[14.089,41.8847],[14.0873,41.8848],[14.08,41.8823],[14.0772,41.8805],[14.0627,41.8791],[14.0549,41.8801],[14.0425,41.8882],[14.0262,41.9033],[14.0297,41.9052],[14.0241,41.9123],[14.0111,41.9252],[14.0079,41.9341],[14.005,41.948],[13.9995,41.9592],[13.9986,41.9654],[14.0202,41.9672],[14.0269,41.9652],[14.0352,41.9622],[14.0563,41.9517],[14.0763,41.9404],[14.0818,41.9394]]]}},{"type":"Feature","properties":{"i":"066071","n":"Pettorano sul Gizio"},"geometry":{"type":"Polygon","coordinates":[[[13.9655,42.0101],[13.9705,42.0072],[13.9793,42.0],[13.9804,41.9976],[13.9897,41.9881],[13.996,41.9793],[13.9995,41.9592],[13.9965,41.958],[13.9961,41.9554],[13.9899,41.9415],[13.9837,41.9417],[13.9715,41.9442],[13.9691,41.944],[13.9606,41.9355],[13.9463,41.9136],[13.9437,41.9079],[13.938,41.9083],[13.9399,41.9133],[13.9392,41.9173],[13.922,41.9258],[13.9179,41.9307],[13.9071,41.9362],[13.9011,41.9372],[13.8919,41.9402],[13.8863,41.9498],[13.8945,41.953],[13.9046,41.9614],[13.9147,41.9747],[13.9183,41.9826],[13.9188,41.9889],[13.9175,42.0016],[13.923,42.0107],[13.9246,42.0165],[13.9279,42.0159],[13.9339,42.0192],[13.9388,42.02],[13.9517,42.0177],[13.9655,42.0101]]]}},{"type":"Feature","properties":{"i":"066072","n":"Pizzoli"},"geometry":{"type":"Polygon","coordinates":[[[13.2667,42.4099],[13.2808,42.4393],[13.3069,42.4648],[13.3298,42.4781],[13.3239,42.4859],[13.3192,42.4827],[13.3068,42.4773],[13.2959,42.4837],[13.298,42.486],[13.3023,42.4884],[13.3126,42.4929],[13.3232,42.4923],[13.3264,42.49],[13.3302,42.4892],[13.3318,42.4882],[13.3411,42.4787],[13.3472,42.4775],[13.3708,42.4921],[13.3762,42.4869],[13.3774,42.4845],[13.3802,42.4816],[13.3838,42.4818],[13.391,42.4866],[13.3934,42.4869],[13.4027,42.4855],[13.4061,42.482],[13.4076,42.4758],[13.4071,42.4744],[13.4041,42.4705],[13.3971,42.4641],[13.3906,42.4651],[13.3764,42.4506],[13.361,42.4383],[13.3312,42.4181],[13.3223,42.413],[13.3132,42.4129],[13.3064,42.4086],[13.3049,42.3954],[13.3018,42.3973],[13.2984,42.404],[13.2845,42.408],[13.2719,42.4074],[13.2667,42.4099]]]}},{"type":"Feature","properties":{"i":"066073","n":"Poggio Picenze"},"geometry":{"type":"Polygon","coordinates":[[[13.5584,42.3102],[13.5556,42.3098],[13.5512,42.3078],[13.5394,42.3008],[13.5375,42.2974],[13.5347,42.2955],[13.5247,42.3009],[13.52,42.2985],[13.5179,42.2984],[13.5168,42.3012],[13.5078,42.3125],[13.5078,42.3132],[13.5219,42.318],[13.5336,42.3245],[13.5456,42.3287],[13.5504,42.3403],[13.5536,42.3422],[13.5576,42.3425],[13.5617,42.3421],[13.5651,42.3401],[13.5656,42.3376],[13.5621,42.3284],[13.5603,42.3143],[13.5584,42.3102]]]}},{"type":"Feature","properties":{"i":"066074","n":"Prata d'Ansidonia"},"geometry":{"type":"Polygon","coordinates":[[[13.6132,42.2956],[13.6164,42.2939],[13.6161,42.2898],[13.6176,42.2864],[13.6541,42.2745],[13.6592,42.2689],[13.6645,42.2665],[13.6594,42.2594],[13.647,42.2507],[13.6391,42.2508],[13.6348,42.25],[13.625,42.2539],[13.6201,42.2539],[13.6151,42.2561],[13.6007,42.2698],[13.5917,42.2741],[13.5821,42.28],[13.5801,42.2804],[13.5782,42.279],[13.5761,42.2834],[13.5764,42.2864],[13.5851,42.2938],[13.5869,42.2998],[13.5911,42.2993],[13.5916,42.2979],[13.5977,42.2949],[13.6088,42.2942],[13.6132,42.2956]]]}},{"type":"Feature","properties":{"i":"066075","n":"Pratola Peligna"},"geometry":{"type":"Polygon","coordinates":[[[13.9592,42.1259],[13.9581,42.1229],[13.9423,42.11],[13.9365,42.1077],[13.9309,42.107],[13.9255,42.105],[13.9195,42.0977],[13.9117,42.0907],[13.9088,42.0895],[13.9046,42.0913],[13.8985,42.0914],[13.8952,42.0906],[13.8981,42.086],[13.8966,42.0831],[13.8929,42.0809],[13.8914,42.0779],[13.8918,42.0668],[13.8949,42.0637],[13.8946,42.0612],[13.892,42.0575],[13.888,42.0598],[13.8678,42.0645],[13.862,42.0719],[13.8555,42.0866],[13.8573,42.0871],[13.8587,42.0887],[13.8585,42.0944],[13.8509,42.1004],[13.8491,42.1042],[13.8584,42.1116],[13.8713,42.109],[13.8856,42.1044],[13.897,42.1082],[13.8982,42.1088],[13.8996,42.1131],[13.9049,42.1193],[13.9133,42.1248],[13.9264,42.1352],[13.933,42.1313],[13.944,42.1276],[13.9592,42.1259]]]}},{"type":"Feature","properties":{"i":"066076","n":"Prezza"},"geometry":{"type":"Polygon","coordinates":[[[13.8678,42.0645],[13.8623,42.0559],[13.8706,42.057],[13.8856,42.0572],[13.8909,42.0586],[13.892,42.0575],[13.876,42.0481],[13.8723,42.0498],[13.8595,42.0471],[13.8504,42.0462],[13.8229,42.0313],[13.822,42.0338],[13.8184,42.0373],[13.8159,42.0354],[13.8124,42.0373],[13.8079,42.0421],[13.7996,42.0528],[13.7976,42.0615],[13.8019,42.0682],[13.8044,42.0741],[13.8055,42.0712],[13.8089,42.0683],[13.8152,42.0675],[13.8186,42.0679],[13.84,42.0779],[13.8555,42.0866],[13.862,42.0719],[13.8678,42.0645]]]}},{"type":"Feature","properties":{"i":"066077","n":"Raiano"},"geometry":{"type":"Polygon","coordinates":[[[13.8229,42.118],[13.8262,42.1168],[13.8267,42.1108],[13.8417,42.1046],[13.8491,42.1042],[13.8509,42.1004],[13.8585,42.0944],[13.8589,42.0895],[13.8573,42.0871],[13.84,42.0779],[13.8205,42.0686],[13.8152,42.0675],[13.8089,42.0683],[13.8061,42.0706],[13.8044,42.0741],[13.8041,42.0787],[13.7873,42.0903],[13.7839,42.0943],[13.7843,42.0974],[13.783,42.1012],[13.7759,42.1071],[13.7665,42.118],[13.7587,42.1236],[13.7629,42.1302],[13.7771,42.1356],[13.7865,42.1298],[13.7904,42.1231],[13.7941,42.1208],[13.8204,42.1157],[13.8221,42.1156],[13.8229,42.118]]]}},{"type":"Feature","properties":{"i":"066078","n":"Rivisondoli"},"geometry":{"type":"Polygon","coordinates":[[[14.0873,41.8848],[14.088,41.8801],[14.0826,41.8773],[14.0814,41.8744],[14.0832,41.8709],[14.0872,41.8674],[14.0971,41.8646],[14.109,41.8562],[14.1123,41.8517],[14.1141,41.8456],[14.1222,41.837],[14.1259,41.8341],[14.1061,41.8399],[14.0839,41.8529],[14.0755,41.8588],[14.0688,41.862],[14.0575,41.8657],[14.0479,41.8661],[14.0418,41.86],[14.029,41.8373],[14.0283,41.8318],[14.0255,41.8302],[14.0165,41.8287],[14.0129,41.8329],[13.991,41.8457],[13.9936,41.8487],[13.9936,41.8515],[13.9903,41.855],[13.9895,41.8625],[13.9999,41.8672],[14.0108,41.8658],[14.0164,41.8614],[14.0277,41.8658],[14.0236,41.8688],[14.0207,41.8727],[14.0155,41.8812],[14.0151,41.8845],[14.0166,41.8922],[14.02,41.899],[14.0262,41.9033],[14.0425,41.8882],[14.0549,41.8801],[14.0627,41.8791],[14.0772,41.8805],[14.08,41.8823],[14.0873,41.8848]]]}},{"type":"Feature","properties":{"i":"066079","n":"Roccacasale"},"geometry":{"type":"Polygon","coordinates":[[[13.8584,42.1116],[13.86,42.1176],[13.8737,42.1398],[13.8772,42.1439],[13.8937,42.153],[13.9061,42.1587],[13.9079,42.1554],[13.9078,42.1535],[13.9058,42.1519],[13.9048,42.149],[13.9059,42.147],[13.9144,42.1414],[13.9264,42.1352],[13.9133,42.1248],[13.9049,42.1193],[13.8996,42.1131],[13.8982,42.1088],[13.897,42.1082],[13.8856,42.1044],[13.8713,42.109],[13.8584,42.1116]]]}},{"type":"Feature","properties":{"i":"066080","n":"Rocca di Botte"},"geometry":{"type":"Polygon","coordinates":[[[13.1747,42.0121],[13.1981,42.0072],[13.2062,42.0048],[13.2021,41.9914],[13.1991,41.9865],[13.1974,41.9879],[13.1847,41.993],[13.1697,41.9978],[13.1612,42.0024],[13.147,42.012],[13.1378,42.0158],[13.1164,42.021],[13.105,42.026],[13.1022,42.0266],[13.0985,42.0262],[13.0973,42.0248],[13.0966,42.0219],[13.0963,42.0195],[13.101,42.011],[13.1014,42.0084],[13.0926,42.0079],[13.0899,42.009],[13.0778,42.0094],[13.0639,42.013],[13.0545,42.0164],[13.0492,42.0235],[13.0482,42.0296],[13.0548,42.0417],[13.0694,42.0545],[13.0771,42.0472],[13.0824,42.0448],[13.1177,42.0381],[13.1496,42.0259],[13.1747,42.0121]]]}},{"type":"Feature","properties":{"i":"066081","n":"Rocca di Cambio"},"geometry":{"type":"Polygon","coordinates":[[[13.4913,42.2564],[13.4989,42.253],[13.508,42.2517],[13.51,42.2507],[13.5149,42.2453],[13.5166,42.2409],[13.4877,42.2132],[13.4812,42.2013],[13.4771,42.199],[13.4728,42.1982],[13.4629,42.2001],[13.4536,42.2],[13.4388,42.1962],[13.4361,42.1968],[13.4494,42.2264],[13.4504,42.2389],[13.4415,42.2496],[13.4452,42.2563],[13.4562,42.2532],[13.4604,42.2509],[13.4638,42.2472],[13.4752,42.2558],[13.4792,42.258],[13.4835,42.2588],[13.4899,42.2575],[13.4913,42.2564]]]}},{"type":"Feature","properties":{"i":"066082","n":"Rocca di Mezzo"},"geometry":{"type":"Polygon","coordinates":[[[13.5161,42.2661],[13.5206,42.2627],[13.529,42.2539],[13.5323,42.2527],[13.5368,42.2527],[13.5394,42.2519],[13.5401,42.2485],[13.5397,42.2428],[13.547,42.2408],[13.5505,42.2365],[13.5552,42.2339],[13.5602,42.2292],[13.5665,42.2193],[13.5678,42.2121],[13.57,42.2112],[13.5773,42.2045],[13.5802,42.199],[13.5837,42.1948],[13.5956,42.1842],[13.5771,42.1715],[13.5569,42.1539],[13.5476,42.1576],[13.5374,42.1635],[13.5283,42.1595],[13.531,42.1531],[13.5266,42.1529],[13.5156,42.1544],[13.5068,42.1569],[13.5018,42.1674],[13.4964,42.1739],[13.4887,42.1778],[13.4831,42.1792],[13.4775,42.1782],[13.4678,42.1717],[13.4578,42.1632],[13.4521,42.1594],[13.4491,42.164],[13.4447,42.168],[13.4347,42.1689],[13.4332,42.1688],[13.4318,42.1674],[13.4279,42.161],[13.4201,42.1614],[13.4074,42.1659],[13.4038,42.1686],[13.3994,42.1685],[13.3897,42.1768],[13.3901,42.1785],[13.3919,42.1797],[13.4172,42.1923],[13.4361,42.1968],[13.4388,42.1962],[13.4536,42.2],[13.4629,42.2001],[13.4728,42.1982],[13.4771,42.199],[13.4812,42.2013],[13.4877,42.2132],[13.5166,42.2409],[13.5149,42.2453],[13.51,42.2507],[13.508,42.2517],[13.4989,42.253],[13.4913,42.2564],[13.4972,42.2643],[13.5012,42.2674],[13.5033,42.2713],[13.5073,42.2713],[13.5161,42.2661]]]}},{"type":"Feature","properties":{"i":"066083","n":"Rocca Pia"},"geometry":{"type":"Polygon","coordinates":[[[14.0262,41.9033],[14.02,41.899],[14.0166,41.8922],[14.0151,41.8845],[14.0155,41.8812],[14.0207,41.8727],[14.0236,41.8688],[14.0277,41.8658],[14.0164,41.8614],[14.0108,41.8658],[13.9999,41.8672],[13.9895,41.8625],[13.9855,41.8633],[13.982,41.8656],[13.9758,41.8734],[13.9665,41.8765],[13.9591,41.8809],[13.9532,41.8927],[13.9431,41.9055],[13.9463,41.9136],[13.9606,41.9355],[13.9636,41.9387],[13.9691,41.944],[13.9715,41.9442],[13.9837,41.9417],[13.9899,41.9415],[13.9961,41.9554],[13.9965,41.958],[13.9995,41.9592],[14.005,41.948],[14.0095,41.9284],[14.0111,41.9252],[14.0241,41.9123],[14.0297,41.9052],[14.0262,41.9033]]]}},{"type":"Feature","properties":{"i":"066084","n":"Roccaraso"},"geometry":{"type":"MultiPolygon","coordinates":[[[[14.1061,41.8399],[14.1053,41.833],[14.0993,41.8202],[14.1003,41.8182],[14.1041,41.815],[14.0917,41.8116],[14.0873,41.8129],[14.0849,41.8153],[14.0792,41.8176],[14.0686,41.8131],[14.0601,41.8057],[14.0476,41.7971],[14.0358,41.7976],[14.0333,41.8022],[14.0175,41.8131],[14.0132,41.818],[14.0147,41.8238],[14.0177,41.8259],[14.0165,41.8287],[14.0255,41.8302],[14.0283,41.8318],[14.029,41.8373],[14.0376,41.8535],[14.0418,41.86],[14.0484,41.8663],[14.0575,41.8657],[14.0688,41.862],[14.0755,41.8588],[14.0839,41.8529],[14.1061,41.8399]]],[[[14.1157,41.8672],[14.1226,41.8664],[14.1252,41.8651],[14.1334,41.8577],[14.1359,41.8579],[14.1409,41.8599],[14.16,41.8455],[14.1662,41.8424],[14.1635,41.8399],[14.1608,41.8397],[14.1558,41.8371],[14.1514,41.831],[14.1472,41.8273],[14.1442,41.8298],[14.1341,41.8342],[14.1294,41.8349],[14.1259,41.8341],[14.1222,41.837],[14.1141,41.8456],[14.1123,41.8517],[14.109,41.8562],[14.0971,41.8646],[14.0872,41.8674],[14.0832,41.8709],[14.0814,41.8744],[14.0826,41.8773],[14.088,41.8801],[14.0873,41.8848],[14.089,41.8847],[14.0914,41.8835],[14.0957,41.8765],[14.1049,41.8702],[14.1102,41.8676],[14.1157,41.8672]]]]}},{"type":"Feature","properties":{"i":"066085","n":"San Benedetto dei Marsi"},"geometry":{"type":"Polygon","coordinates":[[[13.5516,41.9861],[13.5468,41.9952],[13.5478,41.9973],[13.5648,41.9976],[13.5644,42.01],[13.5994,42.0102],[13.6104,42.0113],[13.6113,42.0119],[13.6055,42.0175],[13.608,42.023],[13.6119,42.0263],[13.6243,42.0324],[13.6318,42.0289],[13.6389,42.0143],[13.6369,42.0077],[13.6429,42.0001],[13.6376,41.9967],[13.6321,42.0007],[13.6261,41.9967],[13.6264,41.9959],[13.5863,41.9955],[13.5911,41.9912],[13.5541,41.9905],[13.5538,41.9876],[13.5516,41.9861]]]}},{"type":"Feature","properties":{"i":"066086","n":"San Benedetto in Perillis"},"geometry":{"type":"Polygon","coordinates":[[[13.8005,42.1893],[13.7983,42.1857],[13.7978,42.1753],[13.7994,42.1682],[13.7892,42.1539],[13.784,42.1505],[13.7803,42.1457],[13.7741,42.1463],[13.7748,42.1508],[13.7669,42.1607],[13.7599,42.1666],[13.755,42.1688],[13.7523,42.174],[13.7508,42.1792],[13.7523,42.1842],[13.7508,42.188],[13.7444,42.1927],[13.7513,42.1929],[13.751,42.1952],[13.758,42.2017],[13.7546,42.206],[13.7725,42.2099],[13.7749,42.2067],[13.7866,42.1972],[13.7954,42.1917],[13.8002,42.1907],[13.8009,42.1903],[13.8005,42.1893]]]}},{"type":"Feature","properties":{"i":"066087","n":"San Demetrio ne' Vestini"},"geometry":{"type":"Polygon","coordinates":[[[13.5869,42.2998],[13.5851,42.2938],[13.5764,42.2864],[13.5761,42.2834],[13.5782,42.279],[13.5731,42.2792],[13.5694,42.2784],[13.5624,42.2729],[13.5609,42.2655],[13.557,42.2578],[13.5573,42.2531],[13.5562,42.2507],[13.547,42.2408],[13.5397,42.2428],[13.5396,42.2516],[13.5368,42.2527],[13.5402,42.2564],[13.5507,42.2596],[13.5542,42.262],[13.5556,42.264],[13.5526,42.268],[13.5432,42.2754],[13.5394,42.2759],[13.5373,42.2747],[13.5335,42.2762],[13.5332,42.2876],[13.5295,42.2929],[13.5359,42.2958],[13.5394,42.3008],[13.5512,42.3078],[13.5563,42.3099],[13.5584,42.3102],[13.563,42.3087],[13.5819,42.3],[13.5869,42.2998]]]}},{"type":"Feature","properties":{"i":"066088","n":"San Pio delle Camere"},"geometry":{"type":"Polygon","coordinates":[[[13.6886,42.2776],[13.6901,42.2745],[13.6889,42.2711],[13.6861,42.2703],[13.683,42.2717],[13.6767,42.2703],[13.6723,42.2653],[13.671,42.2648],[13.6659,42.2653],[13.6592,42.2689],[13.6541,42.2745],[13.6176,42.2864],[13.6161,42.2898],[13.6164,42.2939],[13.6132,42.2956],[13.6372,42.317],[13.6445,42.3168],[13.6534,42.3138],[13.6538,42.3069],[13.6555,42.3021],[13.6685,42.2913],[13.674,42.2854],[13.6886,42.2776]]]}},{"type":"Feature","properties":{"i":"066089","n":"Sante Marie"},"geometry":{"type":"Polygon","coordinates":[[[13.2372,42.1291],[13.2418,42.1248],[13.2612,42.1115],[13.2647,42.1111],[13.2648,42.1059],[13.2585,42.0896],[13.247,42.09],[13.2366,42.0918],[13.2294,42.0908],[13.2231,42.0829],[13.2209,42.0745],[13.219,42.0736],[13.218,42.0735],[13.2158,42.0751],[13.2139,42.0779],[13.2134,42.0826],[13.2098,42.0912],[13.1912,42.1019],[13.1825,42.1118],[13.1633,42.1193],[13.1556,42.1135],[13.148,42.1192],[13.149,42.1221],[13.1594,42.1294],[13.1763,42.1356],[13.1784,42.1371],[13.1788,42.1384],[13.1779,42.1428],[13.1742,42.1457],[13.1706,42.1469],[13.1696,42.1486],[13.1697,42.1507],[13.1781,42.1534],[13.183,42.1576],[13.1833,42.1589],[13.1954,42.1578],[13.1995,42.153],[13.2057,42.1484],[13.2126,42.1457],[13.2233,42.1433],[13.2357,42.1323],[13.2372,42.1291]]]}},{"type":"Feature","properties":{"i":"066090","n":"Sant'Eusanio Forconese"},"geometry":{"type":"Polygon","coordinates":[[[13.5347,42.2955],[13.5295,42.2929],[13.5332,42.2876],[13.5335,42.2762],[13.5297,42.2772],[13.5228,42.2729],[13.5161,42.2661],[13.5073,42.2713],[13.4967,42.2726],[13.4962,42.28],[13.4977,42.2842],[13.5004,42.2862],[13.503,42.2916],[13.5148,42.2979],[13.52,42.2985],[13.5247,42.3009],[13.5347,42.2955]]]}},{"type":"Feature","properties":{"i":"066091","n":"Santo Stefano di Sessanio"},"geometry":{"type":"Polygon","coordinates":[[[13.6706,42.4384],[13.6576,42.394],[13.6608,42.3867],[13.6652,42.3886],[13.6684,42.3887],[13.6664,42.3717],[13.6623,42.3617],[13.6644,42.3474],[13.6736,42.3363],[13.6719,42.3323],[13.6695,42.3299],[13.6652,42.3276],[13.663,42.3322],[13.6547,42.3372],[13.6424,42.323],[13.6321,42.3287],[13.6185,42.3326],[13.6154,42.3391],[13.6209,42.3504],[13.6313,42.3661],[13.6338,42.3787],[13.6337,42.3865],[13.6308,42.3933],[13.6246,42.4005],[13.6271,42.402],[13.6355,42.3994],[13.6381,42.4007],[13.6392,42.4027],[13.6372,42.4042],[13.6337,42.4057],[13.627,42.4064],[13.6272,42.407],[13.646,42.4265],[13.6507,42.4338],[13.6532,42.441],[13.6653,42.4383],[13.6706,42.4384]]]}},{"type":"Feature","properties":{"i":"066092","n":"San Vincenzo Valle Roveto"},"geometry":{"type":"Polygon","coordinates":[[[13.5149,41.8791],[13.5212,41.8759],[13.561,41.8642],[13.5695,41.8568],[13.5823,41.851],[13.5525,41.8296],[13.5488,41.826],[13.547,41.8229],[13.5475,41.8202],[13.5507,41.8194],[13.5529,41.8167],[13.5542,41.8116],[13.551,41.7986],[13.541,41.7903],[13.531,41.7861],[13.5216,41.7798],[13.5112,41.7886],[13.5087,41.7973],[13.5057,41.8013],[13.4881,41.8034],[13.4974,41.8046],[13.4977,41.8099],[13.4905,41.8145],[13.4893,41.8161],[13.5048,41.8262],[13.5087,41.8333],[13.502,41.8387],[13.5026,41.8432],[13.5016,41.8445],[13.4926,41.8493],[13.4875,41.8505],[13.4836,41.8492],[13.4794,41.8459],[13.4754,41.8452],[13.4711,41.8483],[13.4708,41.8498],[13.4813,41.8559],[13.4992,41.8543],[13.5002,41.8526],[13.5028,41.8521],[13.5065,41.8624],[13.5056,41.8725],[13.5097,41.8788],[13.5149,41.8791]]]}},{"type":"Feature","properties":{"i":"066093","n":"Scanno"},"geometry":{"type":"Polygon","coordinates":[[[13.8863,41.9498],[13.8919,41.9402],[13.9011,41.9372],[13.9071,41.9362],[13.9179,41.9307],[13.922,41.9258],[13.9392,41.9173],[13.9399,41.9133],[13.938,41.9083],[13.9437,41.9079],[13.9431,41.9055],[13.9436,41.9044],[13.9532,41.8927],[13.9591,41.8809],[13.9665,41.8765],[13.9758,41.8734],[13.9824,41.8652],[13.9871,41.8627],[13.9895,41.8625],[13.9903,41.855],[13.9935,41.8519],[13.9936,41.8487],[13.987,41.8399],[13.9775,41.8354],[13.978,41.8306],[13.9712,41.8222],[13.9593,41.818],[13.9481,41.8257],[13.936,41.8274],[13.9335,41.8313],[13.9151,41.8234],[13.913,41.8233],[13.9065,41.8255],[13.8904,41.8232],[13.8884,41.8155],[13.8836,41.8096],[13.8789,41.8082],[13.8722,41.8044],[13.867,41.8028],[13.8601,41.8031],[13.8579,41.8055],[13.8565,41.8086],[13.8511,41.8309],[13.8482,41.8443],[13.8482,41.8486],[13.8418,41.8595],[13.8375,41.8736],[13.8368,41.8806],[13.8376,41.8838],[13.8302,41.8902],[13.825,41.8933],[13.8237,41.896],[13.8239,41.8975],[13.8246,41.8987],[13.8319,41.9022],[13.8533,41.9101],[13.8608,41.9101],[13.8632,41.9155],[13.8652,41.924],[13.864,41.9267],[13.8499,41.9383],[13.8459,41.9532],[13.8428,41.9599],[13.8651,41.9683],[13.8677,41.9672],[13.871,41.9628],[13.8732,41.9626],[13.8769,41.9606],[13.8863,41.9498]]]}},{"type":"Feature","properties":{"i":"066094","n":"Scontrone"},"geometry":{"type":"Polygon","coordinates":[[[14.0944,41.7379],[14.0867,41.7391],[14.0775,41.7372],[14.0696,41.7372],[14.0738,41.7427],[14.0736,41.7454],[14.0716,41.7484],[14.0609,41.7481],[14.0471,41.7451],[14.0414,41.7427],[14.0356,41.7443],[14.0322,41.7494],[14.0283,41.7518],[14.024,41.7528],[14.0271,41.7602],[14.026,41.7703],[14.0292,41.788],[14.0317,41.7936],[14.0358,41.7976],[14.0476,41.7971],[14.0452,41.7882],[14.0903,41.7571],[14.0951,41.7489],[14.0929,41.7402],[14.0944,41.7379]]]}},{"type":"Feature","properties":{"i":"066095","n":"Scoppito"},"geometry":{"type":"Polygon","coordinates":[[[13.2775,42.3484],[13.269,42.3462],[13.2475,42.343],[13.2421,42.3341],[13.2377,42.3294],[13.2345,42.3283],[13.2265,42.3193],[13.2214,42.3193],[13.1979,42.3313],[13.1949,42.3311],[13.1914,42.3323],[13.1851,42.3363],[13.184,42.3389],[13.1716,42.3487],[13.1589,42.3538],[13.1533,42.357],[13.1695,42.3701],[13.1894,42.3811],[13.1942,42.3892],[13.1898,42.3963],[13.1892,42.4002],[13.1915,42.3981],[13.1945,42.3968],[13.2138,42.3919],[13.2305,42.3903],[13.2553,42.3899],[13.262,42.388],[13.2629,42.3871],[13.2661,42.3779],[13.2683,42.3751],[13.2822,42.3622],[13.2909,42.3595],[13.2775,42.3484]]]}},{"type":"Feature","properties":{"i":"066096","n":"Scurcola Marsicana"},"geometry":{"type":"Polygon","coordinates":[[[13.3843,42.0768],[13.3956,42.0768],[13.391,42.0745],[13.3904,42.0703],[13.3918,42.066],[13.398,42.0569],[13.4048,42.0537],[13.4045,42.0478],[13.3976,42.0388],[13.3923,42.0389],[13.385,42.0426],[13.3808,42.0474],[13.3774,42.0491],[13.3664,42.0488],[13.3642,42.0399],[13.3605,42.0371],[13.3575,42.0361],[13.3592,42.0336],[13.3567,42.0313],[13.3427,42.0314],[13.3263,42.0362],[13.3155,42.0437],[13.3128,42.0474],[13.313,42.0511],[13.3074,42.0591],[13.3045,42.0611],[13.3126,42.069],[13.3151,42.0686],[13.3183,42.0711],[13.3265,42.079],[13.3316,42.0828],[13.3377,42.09],[13.3458,42.084],[13.3479,42.081],[13.3592,42.0712],[13.373,42.072],[13.3843,42.0768]]]}},{"type":"Feature","properties":{"i":"066097","n":"Secinaro"},"geometry":{"type":"Polygon","coordinates":[[[13.7038,42.1665],[13.7079,42.1669],[13.7146,42.1597],[13.7127,42.1579],[13.7134,42.1537],[13.7148,42.1524],[13.7115,42.1429],[13.6927,42.1404],[13.6809,42.1346],[13.6686,42.1304],[13.6616,42.1328],[13.6614,42.134],[13.6634,42.1379],[13.6612,42.1415],[13.6474,42.1521],[13.6261,42.1357],[13.6069,42.1477],[13.5767,42.1598],[13.5691,42.1643],[13.5771,42.1715],[13.5956,42.1842],[13.6043,42.1796],[13.6314,42.1685],[13.6377,42.1683],[13.6475,42.1647],[13.6589,42.1585],[13.6701,42.1627],[13.6716,42.1658],[13.6766,42.1678],[13.7011,42.1678],[13.7038,42.1665]]]}},{"type":"Feature","properties":{"i":"066098","n":"Sulmona"},"geometry":{"type":"MultiPolygon","coordinates":[[[[13.8909,42.0586],[13.8856,42.0572],[13.8706,42.057],[13.8623,42.0559],[13.8678,42.0645],[13.8909,42.0586]]],[[[13.9772,42.0208],[13.9707,42.017],[13.9655,42.0101],[13.9517,42.0177],[13.9388,42.02],[13.9339,42.0192],[13.9301,42.0168],[13.9264,42.0158],[13.9246,42.0165],[13.92,42.031],[13.9159,42.0347],[13.9032,42.0433],[13.9003,42.0445],[13.8924,42.0443],[13.8831,42.0422],[13.8757,42.0442],[13.8749,42.0465],[13.8754,42.0476],[13.892,42.0575],[13.8946,42.0612],[13.8948,42.0642],[13.8918,42.0668],[13.8914,42.0773],[13.8929,42.0809],[13.8966,42.0831],[13.8981,42.086],[13.8952,42.0906],[13.8985,42.0914],[13.9046,42.0913],[13.9095,42.0895],[13.9121,42.091],[13.9195,42.0977],[13.9255,42.105],[13.9309,42.107],[13.9365,42.1077],[13.9423,42.11],[13.9581,42.1229],[13.9592,42.1259],[13.962,42.1247],[13.9669,42.1146],[13.9766,42.1025],[13.9683,42.0995],[13.9681,42.0964],[13.9744,42.0911],[13.9787,42.0852],[13.9792,42.0818],[13.9691,42.0758],[13.9617,42.0614],[13.9569,42.0498],[13.9568,42.0424],[13.9734,42.0268],[13.9772,42.0208]]]]}},{"type":"Feature","properties":{"i":"066099","n":"Tagliacozzo"},"geometry":{"type":"Polygon","coordinates":[[[13.2647,42.1111],[13.2926,42.1128],[13.2964,42.1107],[13.3038,42.1025],[13.3108,42.0968],[13.3215,42.0897],[13.3283,42.0868],[13.331,42.0849],[13.3316,42.0828],[13.3151,42.0686],[13.3126,42.069],[13.3095,42.0665],[13.3045,42.0611],[13.3074,42.0591],[13.313,42.0511],[13.3128,42.0474],[13.3155,42.0437],[13.3263,42.0362],[13.3412,42.0323],[13.3389,42.0281],[13.3262,42.0128],[13.3203,42.0096],[13.2943,42.0191],[13.2856,42.0248],[13.2731,42.0365],[13.2659,42.0463],[13.2577,42.0529],[13.2546,42.0527],[13.229,42.0406],[13.225,42.0396],[13.2197,42.0439],[13.2151,42.046],[13.21,42.0431],[13.1995,42.0287],[13.1897,42.0273],[13.1779,42.0305],[13.1869,42.0512],[13.1698,42.0627],[13.1622,42.0659],[13.1667,42.0706],[13.1775,42.0748],[13.1862,42.0755],[13.1937,42.0777],[13.196,42.0807],[13.1961,42.082],[13.1915,42.0869],[13.1894,42.0878],[13.1717,42.1006],[13.1528,42.1118],[13.1633,42.1193],[13.1825,42.1118],[13.1912,42.1019],[13.2098,42.0912],[13.2134,42.0826],[13.2139,42.0779],[13.2158,42.0751],[13.218,42.0735],[13.2209,42.0745],[13.2231,42.0829],[13.2294,42.0908],[13.2366,42.0918],[13.247,42.09],[13.2585,42.0896],[13.2648,42.1059],[13.2647,42.1111]]]}},{"type":"Feature","properties":{"i":"066100","n":"Tione degli Abruzzi"},"geometry":{"type":"Polygon","coordinates":[[[13.7038,42.1665],[13.7011,42.1678],[13.6766,42.1678],[13.6716,42.1658],[13.6701,42.1627],[13.6589,42.1585],[13.6467,42.165],[13.6377,42.1683],[13.6314,42.1685],[13.5977,42.1828],[13.59,42.1887],[13.5837,42.1948],[13.5802,42.199],[13.5773,42.2045],[13.5864,42.206],[13.5927,42.2039],[13.601,42.2041],[13.6093,42.2071],[13.6125,42.2094],[13.6232,42.2143],[13.6268,42.2137],[13.631,42.2191],[13.636,42.2277],[13.6448,42.2316],[13.6546,42.2318],[13.6627,42.2245],[13.6711,42.2221],[13.6668,42.217],[13.6539,42.2081],[13.65,42.2033],[13.6606,42.1961],[13.6727,42.1898],[13.6864,42.187],[13.6937,42.1873],[13.6988,42.1859],[13.7008,42.1843],[13.7,42.1807],[13.7046,42.171],[13.7038,42.1665]]]}},{"type":"Feature","properties":{"i":"066101","n":"Tornimparte"},"geometry":{"type":"Polygon","coordinates":[[[13.3058,42.3108],[13.306,42.3078],[13.3086,42.3017],[13.3139,42.2808],[13.3236,42.2634],[13.3356,42.2224],[13.3271,42.2238],[13.3233,42.2279],[13.3199,42.2296],[13.2972,42.2311],[13.2924,42.2324],[13.2828,42.2369],[13.2745,42.2436],[13.2747,42.2452],[13.2698,42.2551],[13.2567,42.2648],[13.2432,42.2697],[13.2426,42.2689],[13.2346,42.2779],[13.232,42.2834],[13.2289,42.2872],[13.228,42.2926],[13.2274,42.3132],[13.2265,42.3198],[13.2345,42.3283],[13.2377,42.3294],[13.2421,42.3341],[13.2475,42.343],[13.269,42.3462],[13.2775,42.3484],[13.275,42.3447],[13.2733,42.3389],[13.2777,42.3306],[13.2826,42.327],[13.2931,42.3101],[13.2944,42.3087],[13.3058,42.3108]]]}},{"type":"Feature","properties":{"i":"066102","n":"Trasacco"},"geometry":{"type":"Polygon","coordinates":[[[13.5516,41.9861],[13.5585,41.9804],[13.5685,41.9765],[13.5753,41.9753],[13.5897,41.9751],[13.5901,41.9513],[13.5909,41.9496],[13.5884,41.9471],[13.5788,41.9443],[13.5709,41.939],[13.5678,41.9303],[13.565,41.9274],[13.5479,41.9174],[13.5354,41.9117],[13.5199,41.9139],[13.5176,41.9091],[13.5186,41.9016],[13.5227,41.9006],[13.5202,41.894],[13.5182,41.8928],[13.5028,41.8909],[13.4966,41.9003],[13.5037,41.9022],[13.5083,41.9087],[13.5084,41.9281],[13.5006,41.9344],[13.5032,41.944],[13.5056,41.9485],[13.5,41.9552],[13.5058,41.9617],[13.5111,41.9638],[13.5105,41.9947],[13.5468,41.9952],[13.5516,41.9861]]]}},{"type":"Feature","properties":{"i":"066103","n":"Villalago"},"geometry":{"type":"Polygon","coordinates":[[[13.8428,41.9599],[13.8459,41.9532],[13.8499,41.9383],[13.864,41.9267],[13.8652,41.924],[13.8632,41.9155],[13.8608,41.9101],[13.8533,41.9101],[13.8319,41.9022],[13.8246,41.8987],[13.8209,41.9031],[13.807,41.9109],[13.8039,41.9139],[13.7994,41.9203],[13.7934,41.9254],[13.7995,41.93],[13.8014,41.9328],[13.8004,41.9346],[13.7973,41.9366],[13.7879,41.936],[13.7815,41.9373],[13.7793,41.9385],[13.7784,41.9406],[13.781,41.9544],[13.7844,41.9597],[13.7814,41.9648],[13.7777,41.967],[13.7778,41.969],[13.78,41.9698],[13.8046,41.9606],[13.8213,41.9638],[13.8428,41.9599]]]}},{"type":"Feature","properties":{"i":"066104","n":"Villa Santa Lucia degli Abruzzi"},"geometry":{"type":"Polygon","coordinates":[[[13.8017,42.3599],[13.8072,42.3463],[13.8054,42.3382],[13.8245,42.3162],[13.8248,42.3069],[13.8201,42.3073],[13.8142,42.3065],[13.8089,42.3022],[13.7996,42.2998],[13.7904,42.2957],[13.7916,42.3032],[13.7847,42.3137],[13.7813,42.3149],[13.7774,42.3175],[13.7717,42.3216],[13.7681,42.3258],[13.7666,42.3288],[13.7652,42.3374],[13.7638,42.3395],[13.7577,42.3428],[13.7477,42.3468],[13.7271,42.3429],[13.7406,42.3528],[13.7569,42.3579],[13.7661,42.3579],[13.7693,42.3615],[13.7656,42.364],[13.7727,42.3676],[13.7827,42.3745],[13.7917,42.3635],[13.7976,42.3584],[13.8017,42.3599]]]}},{"type":"Feature","properties":{"i":"066105","n":"Villa Sant'Angelo"},"geometry":{"type":"Polygon","coordinates":[[[13.5368,42.2527],[13.5323,42.2527],[13.529,42.2539],[13.5206,42.2627],[13.5161,42.2661],[13.5228,42.2729],[13.5297,42.2772],[13.5373,42.2747],[13.5394,42.2759],[13.5432,42.2754],[13.5526,42.268],[13.5556,42.264],[13.5542,42.262],[13.5507,42.2596],[13.5402,42.2564],[13.5368,42.2527]]]}},{"type":"Feature","properties":{"i":"066106","n":"Villavallelonga"},"geometry":{"type":"Polygon","coordinates":[[[13.7363,41.8332],[13.7368,41.8263],[13.7396,41.8176],[13.738,41.8081],[13.7318,41.8026],[13.7296,41.7989],[13.7275,41.7978],[13.7171,41.7977],[13.7129,41.7943],[13.7074,41.7876],[13.7056,41.7875],[13.6927,41.7915],[13.6869,41.7971],[13.6811,41.8043],[13.6742,41.8072],[13.6609,41.8113],[13.6489,41.8109],[13.6469,41.8103],[13.6385,41.8043],[13.6373,41.8025],[13.6345,41.8059],[13.6319,41.8123],[13.6319,41.8149],[13.6336,41.8191],[13.6084,41.8312],[13.5967,41.8394],[13.5962,41.8406],[13.605,41.8471],[13.6005,41.8514],[13.6044,41.8582],[13.6077,41.867],[13.602,41.8725],[13.6209,41.8899],[13.6362,41.9025],[13.6437,41.8944],[13.6473,41.8877],[13.6524,41.8827],[13.6684,41.8709],[13.6787,41.8619],[13.6882,41.8497],[13.7068,41.8411],[13.7287,41.8397],[13.7339,41.8343],[13.7363,41.8332]]]}},{"type":"Feature","properties":{"i":"066107","n":"Villetta Barrea"},"geometry":{"type":"Polygon","coordinates":[[[13.9481,41.8257],[13.9492,41.8186],[13.9577,41.7932],[13.9576,41.7796],[13.9532,41.7746],[13.9492,41.7715],[13.9404,41.769],[13.9361,41.7686],[13.9182,41.7752],[13.9128,41.7791],[13.9122,41.7805],[13.9176,41.7936],[13.9151,41.7991],[13.9118,41.8123],[13.91,41.8201],[13.9104,41.8244],[13.913,41.8233],[13.9151,41.8234],[13.9335,41.8313],[13.936,41.8274],[13.9481,41.8257]]]}},{"type":"Feature","properties":{"i":"066108","n":"Vittorito"},"geometry":{"type":"Polygon","coordinates":[[[13.8353,42.1448],[13.8379,42.1413],[13.8387,42.1367],[13.8377,42.1326],[13.8353,42.1286],[13.8229,42.118],[13.8221,42.1156],[13.7971,42.1199],[13.7929,42.1213],[13.7897,42.124],[13.7865,42.1298],[13.7771,42.1356],[13.7741,42.1463],[13.7803,42.1457],[13.784,42.1505],[13.7892,42.1539],[13.7952,42.1512],[13.8082,42.1478],[13.8312,42.1435],[13.8353,42.1448]]]}}]}
