{"type":"FeatureCollection","fonte":"Confini comunali ISTAT via openpolis/geojson-italy — CC BY 4.0","features":[{"type":"Feature","properties":{"i":"005001","n":"Agliano Terme"},"geometry":{"type":"Polygon","coordinates":[[[8.274,44.8005],[8.2747,44.7984],[8.2744,44.795],[8.272,44.7903],[8.2695,44.7877],[8.2667,44.7806],[8.268,44.7752],[8.2674,44.7708],[8.2558,44.7691],[8.253,44.7671],[8.2501,44.7685],[8.2353,44.7675],[8.2326,44.7668],[8.2311,44.7649],[8.2244,44.7736],[8.2206,44.7811],[8.2198,44.7852],[8.223,44.7929],[8.2364,44.8074],[8.243,44.8099],[8.2702,44.8035],[8.274,44.8005]]]}},{"type":"Feature","properties":{"i":"005002","n":"Albugnano"},"geometry":{"type":"Polygon","coordinates":[[[8.0034,45.0771],[8.0045,45.075],[8.0039,45.071],[7.9965,45.0676],[7.9902,45.0681],[7.9858,45.067],[7.9841,45.0651],[7.981,45.0681],[7.9683,45.0674],[7.9517,45.0718],[7.9502,45.0759],[7.9514,45.0827],[7.9535,45.0861],[7.9583,45.088],[7.966,45.0966],[7.9684,45.1007],[7.9708,45.1011],[7.9717,45.1011],[7.975,45.0978],[7.9792,45.0954],[7.9941,45.0811],[8.0034,45.0771]]]}},{"type":"Feature","properties":{"i":"005003","n":"Antignano"},"geometry":{"type":"Polygon","coordinates":[[[8.1765,44.8411],[8.1787,44.8402],[8.1609,44.8321],[8.1414,44.8287],[8.1384,44.822],[8.1371,44.8239],[8.1374,44.8285],[8.1325,44.8318],[8.1166,44.8326],[8.104,44.8355],[8.1014,44.837],[8.1024,44.8431],[8.1069,44.848],[8.1116,44.8508],[8.1207,44.8492],[8.1367,44.8533],[8.1497,44.8511],[8.1765,44.8411]]]}},{"type":"Feature","properties":{"i":"005004","n":"Aramengo"},"geometry":{"type":"Polygon","coordinates":[[[8.0111,45.1024],[8.0142,45.0898],[8.0287,45.0832],[8.027,45.0803],[8.0034,45.0771],[7.9941,45.0811],[7.9792,45.0954],[7.975,45.0978],[7.9669,45.1049],[7.9655,45.1099],[7.9668,45.1167],[7.9707,45.118],[7.9755,45.1223],[7.9803,45.1238],[7.9845,45.1189],[7.994,45.1118],[8.0032,45.1073],[8.0111,45.1024]]]}},{"type":"Feature","properties":{"i":"005005","n":"Asti"},"geometry":{"type":"Polygon","coordinates":[[[8.2618,44.9796],[8.2596,44.9765],[8.2532,44.9758],[8.2459,44.9703],[8.2397,44.962],[8.2407,44.9582],[8.2506,44.9634],[8.2483,44.9555],[8.2403,44.9571],[8.2381,44.9521],[8.2381,44.9464],[8.242,44.9404],[8.2574,44.9373],[8.2624,44.9371],[8.2634,44.9376],[8.2638,44.9424],[8.2652,44.9449],[8.2687,44.9463],[8.2802,44.9467],[8.2787,44.9401],[8.2746,44.9323],[8.2734,44.9257],[8.275,44.9184],[8.2964,44.9278],[8.3015,44.9191],[8.305,44.9178],[8.3126,44.919],[8.3151,44.9171],[8.3167,44.9125],[8.3157,44.9073],[8.2991,44.8998],[8.2958,44.8963],[8.2858,44.8911],[8.284,44.8914],[8.2834,44.8936],[8.2804,44.8954],[8.2589,44.8979],[8.253,44.8854],[8.2476,44.8791],[8.2655,44.8657],[8.2703,44.8632],[8.2638,44.8545],[8.2535,44.8543],[8.2501,44.8529],[8.2454,44.8563],[8.2444,44.8614],[8.2255,44.8621],[8.2181,44.8553],[8.2125,44.8539],[8.2103,44.8542],[8.2062,44.8523],[8.2026,44.843],[8.2001,44.8411],[8.1922,44.8446],[8.1819,44.8522],[8.1796,44.859],[8.1797,44.8617],[8.1804,44.8629],[8.1856,44.8602],[8.1873,44.8573],[8.1913,44.8532],[8.2008,44.8551],[8.2019,44.8577],[8.1868,44.8642],[8.1777,44.8645],[8.1727,44.8637],[8.155,44.8692],[8.149,44.8692],[8.1428,44.8679],[8.1313,44.8638],[8.1286,44.8666],[8.1266,44.873],[8.1245,44.874],[8.1219,44.8736],[8.1167,44.8713],[8.116,44.8689],[8.107,44.8661],[8.0953,44.8536],[8.0906,44.8631],[8.0928,44.8633],[8.0991,44.8668],[8.1121,44.8709],[8.1161,44.8764],[8.1204,44.8852],[8.1125,44.8918],[8.1114,44.8938],[8.1121,44.9024],[8.1062,44.9134],[8.1045,44.9179],[8.1043,44.9223],[8.0977,44.9307],[8.0911,44.945],[8.088,44.9485],[8.092,44.9505],[8.0947,44.9507],[8.0964,44.9503],[8.0999,44.947],[8.1023,44.9424],[8.1076,44.9418],[8.1128,44.9427],[8.1191,44.9484],[8.1228,44.9533],[8.1229,44.9557],[8.1304,44.9589],[8.1316,44.9632],[8.1248,44.9694],[8.124,44.9718],[8.1249,44.9746],[8.1366,44.9795],[8.1409,44.9806],[8.1446,44.9798],[8.1455,44.9788],[8.1495,44.9684],[8.1545,44.9613],[8.1629,44.9617],[8.1877,44.9589],[8.1977,44.9586],[8.206,44.9607],[8.2234,44.9604],[8.2292,44.9636],[8.235,44.9762],[8.2325,44.9783],[8.2368,44.9837],[8.2409,44.9843],[8.245,44.9931],[8.2467,44.994],[8.2486,44.9945],[8.2584,44.9899],[8.2593,44.9835],[8.2576,44.9824],[8.2575,44.9797],[8.2618,44.9796]]]}},{"type":"Feature","properties":{"i":"005006","n":"Azzano d'Asti"},"geometry":{"type":"Polygon","coordinates":[[[8.284,44.8914],[8.2799,44.8888],[8.2768,44.8844],[8.2769,44.8818],[8.2806,44.8753],[8.2703,44.8632],[8.2655,44.8657],[8.2476,44.8791],[8.253,44.8854],[8.2589,44.8979],[8.2804,44.8954],[8.2834,44.8936],[8.284,44.8914]]]}},{"type":"Feature","properties":{"i":"005007","n":"Baldichieri d'Asti"},"geometry":{"type":"Polygon","coordinates":[[[8.1043,44.9223],[8.1045,44.9179],[8.1062,44.9134],[8.1121,44.9024],[8.1114,44.8938],[8.1081,44.8964],[8.1024,44.8986],[8.0963,44.8998],[8.0751,44.8992],[8.0717,44.9099],[8.0803,44.9093],[8.1016,44.9218],[8.1043,44.9223]]]}},{"type":"Feature","properties":{"i":"005008","n":"Belveglio"},"geometry":{"type":"Polygon","coordinates":[[[8.3565,44.8394],[8.3509,44.8362],[8.3424,44.8266],[8.3415,44.8239],[8.3402,44.8251],[8.3371,44.8258],[8.3322,44.8246],[8.3234,44.8268],[8.3234,44.828],[8.3217,44.8286],[8.3184,44.8284],[8.3142,44.8266],[8.3148,44.8346],[8.3182,44.8414],[8.3243,44.8464],[8.326,44.8487],[8.3288,44.8472],[8.3304,44.8429],[8.3347,44.8407],[8.34,44.84],[8.3543,44.8437],[8.3565,44.8394]]]}},{"type":"Feature","properties":{"i":"005009","n":"Berzano di San Pietro"},"geometry":{"type":"Polygon","coordinates":[[[7.9668,45.1167],[7.9656,45.1115],[7.9657,45.1085],[7.9669,45.1049],[7.9717,45.1011],[7.9684,45.1007],[7.966,45.0966],[7.9583,45.088],[7.9535,45.0861],[7.9508,45.087],[7.949,45.0868],[7.943,45.0835],[7.942,45.0844],[7.9422,45.0863],[7.9405,45.0876],[7.9389,45.0936],[7.9358,45.0991],[7.9285,45.1047],[7.9481,45.1143],[7.9585,45.1169],[7.9668,45.1167]]]}},{"type":"Feature","properties":{"i":"005010","n":"Bruno"},"geometry":{"type":"Polygon","coordinates":[[[8.4631,44.806],[8.4786,44.8072],[8.4805,44.8039],[8.4794,44.797],[8.479,44.7963],[8.4669,44.7942],[8.4562,44.7905],[8.4467,44.7857],[8.4436,44.7831],[8.4403,44.782],[8.431,44.7826],[8.4223,44.7865],[8.4143,44.788],[8.4211,44.7958],[8.4344,44.8001],[8.439,44.8121],[8.4519,44.81],[8.4547,44.8082],[8.4587,44.8021],[8.4631,44.806]]]}},{"type":"Feature","properties":{"i":"005011","n":"Bubbio"},"geometry":{"type":"Polygon","coordinates":[[[8.3192,44.6705],[8.319,44.6614],[8.3168,44.6549],[8.3117,44.648],[8.3022,44.641],[8.3005,44.626],[8.2996,44.6241],[8.2905,44.6267],[8.2889,44.6293],[8.2841,44.6333],[8.2761,44.6502],[8.276,44.6598],[8.2714,44.6678],[8.2708,44.6737],[8.2743,44.6831],[8.2765,44.6851],[8.2827,44.6852],[8.2858,44.6866],[8.3053,44.6725],[8.3122,44.6709],[8.3192,44.6705]]]}},{"type":"Feature","properties":{"i":"005012","n":"Buttigliera d'Asti"},"geometry":{"type":"Polygon","coordinates":[[[7.9951,44.9963],[7.9955,44.9949],[7.9866,44.9847],[7.9835,44.984],[7.9776,44.9852],[7.9731,44.9875],[7.9492,44.9887],[7.9425,44.9902],[7.9327,44.9939],[7.9343,45.0005],[7.917,45.0029],[7.9159,45.0043],[7.9163,45.0095],[7.9213,45.0234],[7.9236,45.0231],[7.9538,45.0297],[7.9565,45.0267],[7.9657,45.0232],[7.9754,45.0163],[7.9818,45.0101],[7.9878,44.9973],[7.9951,44.9963]]]}},{"type":"Feature","properties":{"i":"005013","n":"Calamandrana"},"geometry":{"type":"Polygon","coordinates":[[[8.3602,44.7385],[8.3625,44.7356],[8.3643,44.7304],[8.3623,44.7318],[8.36,44.7323],[8.3562,44.7252],[8.3568,44.7218],[8.354,44.7166],[8.3518,44.7156],[8.3505,44.7153],[8.3434,44.719],[8.3337,44.7197],[8.3282,44.7185],[8.3254,44.7189],[8.3217,44.7145],[8.3202,44.7138],[8.3164,44.7155],[8.3139,44.718],[8.3156,44.7193],[8.3157,44.7203],[8.3151,44.735],[8.32,44.7386],[8.3169,44.7469],[8.3186,44.7547],[8.3365,44.7557],[8.3437,44.7536],[8.3488,44.7495],[8.357,44.7402],[8.3602,44.7385]]]}},{"type":"Feature","properties":{"i":"005014","n":"Calliano"},"geometry":{"type":"Polygon","coordinates":[[[8.2806,45.0097],[8.2786,45.0092],[8.277,45.0077],[8.2762,45.0059],[8.276,45.0024],[8.2821,44.995],[8.2908,44.9904],[8.2914,44.9894],[8.2833,44.9827],[8.2738,44.9831],[8.2718,44.9806],[8.2663,44.979],[8.2575,44.9797],[8.2576,44.9824],[8.2593,44.9835],[8.2584,44.9899],[8.2486,44.9945],[8.245,44.9931],[8.2405,44.9933],[8.2348,44.9915],[8.227,44.9908],[8.223,44.9937],[8.2231,44.9957],[8.2151,45.0021],[8.2145,45.0006],[8.2096,45.0021],[8.2147,45.0076],[8.2163,45.0106],[8.2178,45.0104],[8.2258,45.0182],[8.2304,45.0261],[8.231,45.024],[8.2358,45.0203],[8.2486,45.0212],[8.2568,45.0227],[8.2675,45.0198],[8.2711,45.0151],[8.277,45.011],[8.2806,45.0097]]]}},{"type":"Feature","properties":{"i":"005015","n":"Calosso"},"geometry":{"type":"Polygon","coordinates":[[[8.253,44.7671],[8.2548,44.766],[8.2586,44.7613],[8.2615,44.7549],[8.26,44.7544],[8.2569,44.7512],[8.258,44.749],[8.2585,44.7381],[8.2567,44.7353],[8.2568,44.7322],[8.2506,44.7311],[8.2449,44.7275],[8.2445,44.726],[8.2374,44.7233],[8.2298,44.723],[8.2277,44.7236],[8.2243,44.7262],[8.2242,44.7273],[8.2223,44.7292],[8.2177,44.7281],[8.2158,44.7269],[8.2125,44.7281],[8.2095,44.7319],[8.2079,44.739],[8.2078,44.7465],[8.2066,44.7507],[8.2117,44.7523],[8.2213,44.757],[8.2326,44.7668],[8.2353,44.7675],[8.2501,44.7685],[8.253,44.7671]]]}},{"type":"Feature","properties":{"i":"005016","n":"Camerano Casasco"},"geometry":{"type":"MultiPolygon","coordinates":[[[[8.1091,44.9878],[8.1085,44.9875],[8.1074,44.9887],[8.1082,44.9889],[8.1091,44.9878]]],[[[8.1104,44.9882],[8.1091,44.9899],[8.1111,44.9902],[8.1104,44.9882]]],[[[8.1057,44.9863],[8.1064,44.9833],[8.0908,44.9775],[8.0867,44.9735],[8.0835,44.9693],[8.0788,44.9546],[8.0773,44.9547],[8.0721,44.9661],[8.0711,44.9715],[8.0713,44.9746],[8.0719,44.9763],[8.0756,44.9793],[8.079,44.9837],[8.0785,44.9911],[8.0836,44.998],[8.0941,45.0056],[8.0998,45.005],[8.1038,45.0021],[8.1016,45.0009],[8.1012,44.997],[8.1057,44.9863]],[[8.0818,44.9944],[8.086,44.9945],[8.0844,44.9959],[8.0818,44.9944]],[[8.0809,44.9881],[8.0818,44.9882],[8.0822,44.9893],[8.08,44.9896],[8.08,44.9885],[8.0809,44.9881]],[[8.0907,44.9777],[8.0927,44.9791],[8.09,44.9829],[8.0887,44.9816],[8.0887,44.9797],[8.0907,44.9777]]]]}},{"type":"Feature","properties":{"i":"005017","n":"Canelli"},"geometry":{"type":"Polygon","coordinates":[[[8.2725,44.7529],[8.3065,44.7382],[8.311,44.7355],[8.3136,44.7345],[8.3151,44.735],[8.3156,44.7193],[8.3139,44.718],[8.3117,44.7112],[8.3077,44.7072],[8.3011,44.7052],[8.2938,44.7009],[8.287,44.6908],[8.2858,44.6866],[8.2827,44.6852],[8.2595,44.6966],[8.261,44.7007],[8.2662,44.7089],[8.2659,44.7126],[8.2621,44.7154],[8.2575,44.7212],[8.2567,44.7353],[8.2585,44.7381],[8.258,44.749],[8.2569,44.7512],[8.26,44.7544],[8.2615,44.7549],[8.2725,44.7529]]]}},{"type":"Feature","properties":{"i":"005018","n":"Cantarana"},"geometry":{"type":"Polygon","coordinates":[[[8.0574,44.8994],[8.0521,44.8935],[8.0475,44.8898],[8.0433,44.888],[8.0429,44.8823],[8.0443,44.8806],[8.0425,44.8803],[8.0281,44.8831],[8.0116,44.8938],[8.0122,44.8966],[8.0047,44.8988],[7.9974,44.8987],[7.9965,44.9047],[7.9983,44.9102],[8.0041,44.9124],[8.0035,44.9117],[8.0063,44.9105],[8.0129,44.909],[8.0244,44.9081],[8.0405,44.9103],[8.0472,44.9083],[8.0574,44.8994]]]}},{"type":"Feature","properties":{"i":"005019","n":"Capriglio"},"geometry":{"type":"Polygon","coordinates":[[[8.0268,45.0197],[8.0261,45.0152],[8.014,44.9963],[7.9989,44.9915],[7.9955,44.9949],[7.9945,45.0022],[7.996,45.0101],[7.9977,45.0111],[8.0008,45.0112],[8.0157,45.0189],[8.0177,45.0202],[8.018,45.0229],[8.0245,45.0247],[8.0254,45.0208],[8.0268,45.0197]]]}},{"type":"Feature","properties":{"i":"005020","n":"Casorzo"},"geometry":{"type":"Polygon","coordinates":[[[8.3565,45.0281],[8.3585,45.026],[8.3599,45.0119],[8.3594,45.01],[8.358,45.0098],[8.3538,45.0061],[8.3516,44.9979],[8.3454,44.9973],[8.3395,44.9957],[8.3196,44.9996],[8.3146,45.0018],[8.3089,45.012],[8.3102,45.0193],[8.3297,45.0324],[8.3365,45.035],[8.3482,45.034],[8.3519,45.0283],[8.3565,45.0281]]]}},{"type":"Feature","properties":{"i":"005021","n":"Cassinasco"},"geometry":{"type":"Polygon","coordinates":[[[8.3356,44.6888],[8.3306,44.6882],[8.3243,44.6846],[8.3224,44.6807],[8.3223,44.6779],[8.3242,44.6695],[8.3053,44.6725],[8.2858,44.6866],[8.287,44.6908],[8.2938,44.7009],[8.3011,44.7052],[8.3077,44.7072],[8.3117,44.7112],[8.3139,44.718],[8.3164,44.7155],[8.3202,44.7138],[8.3217,44.7145],[8.3254,44.7189],[8.3255,44.714],[8.3294,44.6988],[8.3321,44.6934],[8.3356,44.6888]]]}},{"type":"Feature","properties":{"i":"005022","n":"Castagnole delle Lanze"},"geometry":{"type":"Polygon","coordinates":[[[8.1816,44.7512],[8.1822,44.7481],[8.1785,44.7367],[8.1746,44.7334],[8.1704,44.7326],[8.168,44.7335],[8.1633,44.7328],[8.1613,44.7345],[8.1521,44.7387],[8.1394,44.739],[8.1377,44.7382],[8.1355,44.744],[8.1319,44.747],[8.1244,44.7496],[8.1176,44.7505],[8.1154,44.7477],[8.1129,44.7484],[8.0951,44.7585],[8.1029,44.7605],[8.1043,44.7626],[8.104,44.7676],[8.1026,44.7713],[8.1044,44.7739],[8.1104,44.7733],[8.1117,44.7721],[8.1159,44.7713],[8.1242,44.7755],[8.1248,44.7772],[8.1301,44.7814],[8.1369,44.782],[8.1376,44.7834],[8.1427,44.7799],[8.1445,44.7772],[8.1483,44.7747],[8.1546,44.7749],[8.1639,44.7709],[8.1755,44.7613],[8.1792,44.7569],[8.1816,44.7512]]]}},{"type":"Feature","properties":{"i":"005023","n":"Castagnole Monferrato"},"geometry":{"type":"Polygon","coordinates":[[[8.3081,44.9911],[8.3076,44.9833],[8.3052,44.9799],[8.3051,44.9751],[8.3099,44.9662],[8.3202,44.9572],[8.3376,44.9467],[8.3334,44.9449],[8.3292,44.9413],[8.3094,44.9222],[8.3064,44.9204],[8.3013,44.9201],[8.2949,44.9306],[8.2915,44.9343],[8.2888,44.9358],[8.2861,44.944],[8.2856,44.9486],[8.287,44.9552],[8.286,44.9731],[8.2845,44.9784],[8.2818,44.979],[8.2833,44.9827],[8.2914,44.9894],[8.3081,44.9911]]]}},{"type":"Feature","properties":{"i":"005024","n":"Castel Boglione"},"geometry":{"type":"Polygon","coordinates":[[[8.396,44.7293],[8.3948,44.7265],[8.3951,44.7219],[8.4009,44.7153],[8.3832,44.7116],[8.3771,44.7087],[8.3651,44.7073],[8.3505,44.7153],[8.354,44.7166],[8.3568,44.7218],[8.3562,44.7252],[8.36,44.7323],[8.3623,44.7318],[8.3643,44.7304],[8.3625,44.7356],[8.3602,44.7385],[8.3686,44.7455],[8.372,44.7469],[8.3802,44.7493],[8.3862,44.7498],[8.3897,44.7488],[8.3932,44.7496],[8.3979,44.7523],[8.3974,44.7493],[8.3933,44.7441],[8.3917,44.7316],[8.3926,44.7304],[8.396,44.7293]]]}},{"type":"Feature","properties":{"i":"005025","n":"Castell'Alfero"},"geometry":{"type":"Polygon","coordinates":[[[8.2096,45.0021],[8.2145,45.0006],[8.2151,45.0021],[8.2231,44.9957],[8.223,44.9937],[8.227,44.9908],[8.2348,44.9915],[8.2405,44.9933],[8.245,44.9931],[8.2409,44.9843],[8.2368,44.9837],[8.2325,44.9783],[8.235,44.9762],[8.2292,44.9636],[8.2234,44.9604],[8.206,44.9607],[8.1977,44.9586],[8.1877,44.9589],[8.1744,44.9609],[8.1596,44.9617],[8.1586,44.9662],[8.1615,44.9706],[8.1692,44.9771],[8.1726,44.9779],[8.1814,44.9738],[8.1858,44.9748],[8.192,44.979],[8.1853,44.9829],[8.1847,44.9856],[8.1898,45.0035],[8.1893,45.0075],[8.2077,45.0013],[8.2089,45.001],[8.2096,45.0021]]]}},{"type":"Feature","properties":{"i":"005026","n":"Castellero"},"geometry":{"type":"Polygon","coordinates":[[[8.0902,44.9153],[8.0803,44.9093],[8.0717,44.9099],[8.0727,44.9106],[8.0726,44.9116],[8.0701,44.9148],[8.0634,44.9158],[8.0542,44.9185],[8.0517,44.9267],[8.0563,44.9267],[8.0678,44.9288],[8.0706,44.9322],[8.0715,44.932],[8.0865,44.922],[8.0902,44.9153]]]}},{"type":"Feature","properties":{"i":"005027","n":"Castelletto Molina"},"geometry":{"type":"Polygon","coordinates":[[[8.4397,44.7368],[8.4214,44.732],[8.4198,44.7334],[8.424,44.7517],[8.4348,44.7554],[8.4403,44.7564],[8.4409,44.7558],[8.4408,44.7532],[8.4391,44.7398],[8.4397,44.7368]]]}},{"type":"Feature","properties":{"i":"005028","n":"Castello di Annone"},"geometry":{"type":"Polygon","coordinates":[[[8.3588,44.9129],[8.3642,44.9084],[8.3664,44.8988],[8.3719,44.8915],[8.3725,44.8894],[8.3575,44.8845],[8.3536,44.8814],[8.3531,44.8774],[8.3507,44.8738],[8.3453,44.8713],[8.3347,44.8756],[8.3194,44.8727],[8.3153,44.8697],[8.313,44.8726],[8.2976,44.8759],[8.2948,44.8851],[8.2904,44.8871],[8.2858,44.8911],[8.2958,44.8963],[8.2991,44.8998],[8.3157,44.9073],[8.3167,44.9125],[8.3147,44.9176],[8.3126,44.919],[8.3041,44.9179],[8.3015,44.9191],[8.3013,44.9201],[8.3058,44.9189],[8.3134,44.9206],[8.3284,44.9192],[8.3368,44.9164],[8.3404,44.9124],[8.3588,44.9129]]]}},{"type":"Feature","properties":{"i":"005029","n":"Castelnuovo Belbo"},"geometry":{"type":"Polygon","coordinates":[[[8.42,44.8264],[8.4218,44.825],[8.4257,44.8173],[8.4372,44.812],[8.4389,44.8121],[8.4344,44.8001],[8.4211,44.7958],[8.4143,44.788],[8.4021,44.7809],[8.3993,44.7808],[8.3959,44.7848],[8.3992,44.7867],[8.3991,44.7904],[8.3978,44.7905],[8.3972,44.7927],[8.4007,44.8085],[8.4054,44.8196],[8.4092,44.8261],[8.4148,44.8275],[8.42,44.8264]]]}},{"type":"Feature","properties":{"i":"005030","n":"Castelnuovo Calcea"},"geometry":{"type":"Polygon","coordinates":[[[8.2973,44.8033],[8.3011,44.7969],[8.3028,44.7887],[8.3001,44.7858],[8.3,44.7845],[8.3032,44.7825],[8.3059,44.7831],[8.3077,44.7822],[8.3079,44.7806],[8.3032,44.7739],[8.2777,44.7727],[8.268,44.7752],[8.2667,44.7806],[8.2695,44.7877],[8.272,44.7903],[8.2744,44.795],[8.2747,44.7984],[8.274,44.8005],[8.2792,44.803],[8.2901,44.8037],[8.2973,44.8033]]]}},{"type":"Feature","properties":{"i":"005031","n":"Castelnuovo Don Bosco"},"geometry":{"type":"Polygon","coordinates":[[[7.9683,45.0674],[7.9728,45.0599],[7.983,45.0467],[7.998,45.043],[8.0027,45.0399],[8.0042,45.0369],[8.0005,45.0334],[8.0071,45.033],[8.0078,45.0309],[8.0149,45.0265],[8.018,45.0229],[8.0177,45.0202],[8.0157,45.0189],[8.0008,45.0112],[7.9977,45.0111],[7.996,45.0101],[7.9945,45.0022],[7.9951,44.9963],[7.9878,44.9973],[7.9818,45.0101],[7.9754,45.0163],[7.9657,45.0232],[7.9557,45.0273],[7.9538,45.0297],[7.9534,45.0327],[7.9548,45.0377],[7.958,45.042],[7.9523,45.0465],[7.9458,45.0547],[7.9407,45.0572],[7.9447,45.0674],[7.9472,45.07],[7.9517,45.0718],[7.9683,45.0674]]]}},{"type":"Feature","properties":{"i":"005032","n":"Castel Rocchero"},"geometry":{"type":"Polygon","coordinates":[[[8.4198,44.7334],[8.4235,44.7295],[8.4286,44.7204],[8.4277,44.718],[8.4285,44.7115],[8.4333,44.7111],[8.4297,44.7084],[8.4242,44.71],[8.4176,44.7094],[8.4087,44.7069],[8.3954,44.7213],[8.3948,44.7265],[8.396,44.7293],[8.4198,44.7334]]]}},{"type":"Feature","properties":{"i":"005033","n":"Cellarengo"},"geometry":{"type":"Polygon","coordinates":[[[7.9151,44.892],[7.9186,44.885],[7.9246,44.8804],[7.9327,44.8788],[7.9371,44.8792],[7.9387,44.8801],[7.952,44.88],[7.9565,44.8656],[7.9564,44.859],[7.9551,44.8573],[7.9537,44.8527],[7.9555,44.8525],[7.9541,44.8495],[7.9513,44.8476],[7.9434,44.8463],[7.9373,44.8524],[7.9312,44.8553],[7.919,44.8826],[7.9096,44.8861],[7.9059,44.8843],[7.9017,44.8803],[7.8859,44.8846],[7.8867,44.8872],[7.8863,44.8932],[7.885,44.8964],[7.894,44.8971],[7.9003,44.895],[7.914,44.8931],[7.9151,44.892]]]}},{"type":"Feature","properties":{"i":"005034","n":"Celle Enomondo"},"geometry":{"type":"Polygon","coordinates":[[[8.1313,44.8638],[8.1343,44.86],[8.1328,44.8582],[8.1367,44.8533],[8.1207,44.8492],[8.1116,44.8508],[8.1069,44.848],[8.1019,44.842],[8.0953,44.8536],[8.107,44.8661],[8.116,44.8689],[8.1167,44.8713],[8.1222,44.8737],[8.1245,44.874],[8.1266,44.873],[8.1286,44.8666],[8.1313,44.8638]]]}},{"type":"Feature","properties":{"i":"005035","n":"Cerreto d'Asti"},"geometry":{"type":"Polygon","coordinates":[[[8.0254,45.0208],[8.0245,45.0247],[8.025,45.0308],[8.0233,45.051],[8.0241,45.0629],[8.029,45.0659],[8.0312,45.0662],[8.0299,45.0654],[8.0304,45.0647],[8.0353,45.064],[8.0392,45.059],[8.0407,45.0523],[8.0403,45.0504],[8.0254,45.0208]]]}},{"type":"Feature","properties":{"i":"005036","n":"Cerro Tanaro"},"geometry":{"type":"Polygon","coordinates":[[[8.3908,44.8752],[8.3813,44.8683],[8.3746,44.8713],[8.3589,44.8701],[8.3571,44.8681],[8.3578,44.8677],[8.3547,44.8661],[8.3514,44.8665],[8.3488,44.8685],[8.3507,44.8738],[8.3531,44.8774],[8.3536,44.8814],[8.3575,44.8845],[8.3725,44.8894],[8.375,44.8874],[8.383,44.8772],[8.3908,44.8752]]]}},{"type":"Feature","properties":{"i":"005037","n":"Cessole"},"geometry":{"type":"Polygon","coordinates":[[[8.2878,44.6228],[8.2785,44.6224],[8.2756,44.6231],[8.254,44.6331],[8.2339,44.6413],[8.2217,44.6477],[8.2181,44.6515],[8.2181,44.6529],[8.2196,44.6561],[8.2237,44.6594],[8.2242,44.6661],[8.2233,44.6699],[8.2292,44.67],[8.239,44.6627],[8.253,44.6561],[8.262,44.6534],[8.2783,44.643],[8.2798,44.6395],[8.2782,44.6372],[8.279,44.6334],[8.2862,44.627],[8.2878,44.6228]]]}},{"type":"Feature","properties":{"i":"005038","n":"Chiusano d'Asti"},"geometry":{"type":"MultiPolygon","coordinates":[[[[8.109,44.9861],[8.106,44.9856],[8.1057,44.9863],[8.109,44.9861]]],[[[8.109,44.9861],[8.1111,44.9902],[8.1198,44.9919],[8.1244,44.9895],[8.1285,44.9845],[8.1296,44.9806],[8.1345,44.9785],[8.1249,44.9746],[8.1139,44.9786],[8.109,44.9861]]]]}},{"type":"Feature","properties":{"i":"005039","n":"Cinaglio"},"geometry":{"type":"MultiPolygon","coordinates":[[[[8.0737,44.9534],[8.076,44.9586],[8.0773,44.9547],[8.0737,44.9534]]],[[[8.0907,44.9777],[8.0887,44.9797],[8.0887,44.9816],[8.09,44.9829],[8.0927,44.9791],[8.0907,44.9777]]],[[[8.1139,44.9786],[8.1158,44.9749],[8.1052,44.9677],[8.1034,44.964],[8.0984,44.9587],[8.0923,44.9558],[8.092,44.9505],[8.088,44.9485],[8.0788,44.9546],[8.0835,44.9693],[8.0908,44.9775],[8.0958,44.9798],[8.1042,44.982],[8.1064,44.9833],[8.106,44.9856],[8.109,44.9861],[8.1139,44.9786]]]]}},{"type":"Feature","properties":{"i":"005040","n":"Cisterna d'Asti"},"geometry":{"type":"Polygon","coordinates":[[[8.0197,44.8168],[8.0183,44.8153],[8.0148,44.8145],[8.0048,44.8151],[7.9936,44.8199],[7.9895,44.8255],[7.9875,44.8255],[7.9839,44.827],[7.979,44.8468],[7.9826,44.8466],[7.9981,44.855],[8.0166,44.8676],[8.009,44.8609],[8.005,44.851],[8.013,44.8397],[8.0227,44.8336],[8.0243,44.8296],[8.0237,44.8244],[8.0202,44.8214],[8.0197,44.8168]]]}},{"type":"Feature","properties":{"i":"005041","n":"Coazzolo"},"geometry":{"type":"Polygon","coordinates":[[[8.1633,44.7328],[8.1659,44.724],[8.1658,44.7218],[8.1624,44.7215],[8.1617,44.7229],[8.1605,44.7225],[8.1595,44.7185],[8.1522,44.7132],[8.1455,44.7237],[8.1368,44.732],[8.1355,44.7373],[8.1394,44.739],[8.1521,44.7387],[8.1613,44.7345],[8.1633,44.7328]]]}},{"type":"Feature","properties":{"i":"005042","n":"Cocconato"},"geometry":{"type":"Polygon","coordinates":[[[8.0478,45.1079],[8.0585,45.1022],[8.0754,45.0974],[8.0862,45.0892],[8.0777,45.0824],[8.0698,45.08],[8.0544,45.0703],[8.0499,45.0666],[8.0406,45.0689],[8.0379,45.0715],[8.0257,45.0762],[8.0267,45.0798],[8.0287,45.0832],[8.0142,45.0898],[8.011,45.1027],[8.0115,45.1042],[8.0152,45.1066],[8.0238,45.1092],[8.0269,45.108],[8.0478,45.1079]]]}},{"type":"Feature","properties":{"i":"005044","n":"Corsione"},"geometry":{"type":"MultiPolygon","coordinates":[[[[8.1667,44.9849],[8.1541,44.9896],[8.1425,44.9976],[8.1401,45.0013],[8.1401,45.0056],[8.1415,45.0087],[8.1468,45.0145],[8.1551,45.0199],[8.159,45.0212],[8.167,45.0142],[8.1606,45.0101],[8.158,45.0066],[8.1571,45.0038],[8.1575,45.002],[8.1609,44.9976],[8.1682,44.9941],[8.1691,44.9925],[8.1698,44.9894],[8.1667,44.9849]]]]}},{"type":"Feature","properties":{"i":"005045","n":"Cortandone"},"geometry":{"type":"Polygon","coordinates":[[[8.0721,44.9661],[8.076,44.9586],[8.0737,44.9534],[8.0674,44.9493],[8.0672,44.9453],[8.0617,44.9429],[8.0517,44.9459],[8.0482,44.9449],[8.0438,44.9592],[8.0403,44.9599],[8.0404,44.9625],[8.0476,44.9673],[8.0514,44.9675],[8.0603,44.966],[8.066,44.9626],[8.0706,44.963],[8.0721,44.9661]]]}},{"type":"Feature","properties":{"i":"005046","n":"Cortanze"},"geometry":{"type":"Polygon","coordinates":[[[8.0969,45.0298],[8.1,45.0226],[8.1002,45.0182],[8.0998,45.0149],[8.0976,45.0137],[8.0952,45.0098],[8.0948,45.0072],[8.0799,45.0054],[8.0704,45.0064],[8.0737,45.016],[8.0816,45.018],[8.0828,45.02],[8.0853,45.027],[8.0847,45.0355],[8.0907,45.0349],[8.0925,45.0316],[8.0969,45.0298]]]}},{"type":"Feature","properties":{"i":"005047","n":"Cortazzone"},"geometry":{"type":"Polygon","coordinates":[[[8.0654,44.9942],[8.065,44.9919],[8.0691,44.9891],[8.0749,44.9787],[8.0719,44.9763],[8.0713,44.9746],[8.0711,44.9715],[8.0721,44.9661],[8.0706,44.963],[8.066,44.9626],[8.0603,44.966],[8.0514,44.9675],[8.0476,44.9673],[8.0404,44.9625],[8.0403,44.9599],[8.0349,44.9555],[8.0278,44.9684],[8.0286,44.9727],[8.0314,44.9776],[8.0344,44.9792],[8.0382,44.9893],[8.0381,44.9941],[8.0365,44.9972],[8.0565,44.9933],[8.0654,44.9942]]]}},{"type":"Feature","properties":{"i":"005048","n":"Cortiglione"},"geometry":{"type":"Polygon","coordinates":[[[8.3965,44.8428],[8.3919,44.8379],[8.3749,44.825],[8.3652,44.8165],[8.3583,44.8152],[8.3473,44.815],[8.3459,44.8141],[8.3416,44.8172],[8.3415,44.8239],[8.3424,44.8266],[8.3509,44.8362],[8.3565,44.8394],[8.3686,44.8418],[8.3718,44.8414],[8.3881,44.8468],[8.3934,44.8453],[8.3965,44.8428]]]}},{"type":"Feature","properties":{"i":"005049","n":"Cossombrato"},"geometry":{"type":"Polygon","coordinates":[[[8.1586,44.9662],[8.1596,44.9617],[8.1545,44.9613],[8.1495,44.9684],[8.1446,44.9798],[8.1409,44.9806],[8.1345,44.9785],[8.1296,44.9806],[8.1285,44.9845],[8.1244,44.9895],[8.1198,44.9919],[8.1259,44.9981],[8.1314,44.9999],[8.1333,45.0016],[8.1391,44.9993],[8.1506,44.9909],[8.1576,44.9835],[8.155,44.9774],[8.1536,44.97],[8.1586,44.9662]]]}},{"type":"Feature","properties":{"i":"005050","n":"Costigliole d'Asti"},"geometry":{"type":"Polygon","coordinates":[[[8.1957,44.8046],[8.2037,44.7963],[8.2103,44.791],[8.2165,44.7896],[8.2201,44.7863],[8.2206,44.7811],[8.2244,44.7736],[8.2311,44.7649],[8.2213,44.757],[8.2045,44.7496],[8.1816,44.7512],[8.1792,44.7569],[8.1755,44.7613],[8.1639,44.7709],[8.1546,44.7749],[8.1483,44.7747],[8.1445,44.7772],[8.1427,44.7799],[8.1324,44.7872],[8.1288,44.7913],[8.1306,44.8101],[8.1384,44.822],[8.1414,44.8287],[8.1475,44.8219],[8.1497,44.8176],[8.1745,44.8104],[8.1906,44.8083],[8.1957,44.8046]]]}},{"type":"Feature","properties":{"i":"005051","n":"Cunico"},"geometry":{"type":"Polygon","coordinates":[[[8.1157,45.0322],[8.1145,45.0307],[8.1092,45.0297],[8.1074,45.0306],[8.0969,45.0298],[8.0925,45.0316],[8.0911,45.0346],[8.0902,45.0351],[8.0686,45.035],[8.0704,45.0371],[8.0696,45.04],[8.068,45.0418],[8.0694,45.0523],[8.0716,45.0547],[8.0778,45.0515],[8.0972,45.0508],[8.1093,45.0464],[8.1108,45.0404],[8.1157,45.0322]]]}},{"type":"Feature","properties":{"i":"005052","n":"Dusino San Michele"},"geometry":{"type":"Polygon","coordinates":[[[8.0041,44.9349],[8.0011,44.9307],[8.0159,44.9199],[8.0156,44.9173],[8.0147,44.915],[8.0102,44.9131],[8.0041,44.9124],[7.9983,44.9102],[7.9965,44.9047],[7.9868,44.9065],[7.9785,44.9065],[7.9546,44.9118],[7.9469,44.9124],[7.9455,44.918],[7.9511,44.9234],[7.9612,44.9265],[7.9674,44.9327],[7.9829,44.9347],[8.0041,44.9349]]]}},{"type":"Feature","properties":{"i":"005053","n":"Ferrere"},"geometry":{"type":"Polygon","coordinates":[[[8.0116,44.8938],[8.0093,44.8903],[8.0095,44.8885],[8.0116,44.8812],[8.0164,44.874],[8.0171,44.8701],[8.0166,44.8676],[7.9981,44.855],[7.9826,44.8466],[7.979,44.8468],[7.9773,44.8504],[7.9714,44.852],[7.9647,44.8566],[7.9804,44.88],[7.9824,44.8904],[7.9849,44.8951],[8.0011,44.8992],[8.0074,44.8982],[8.0122,44.8966],[8.0116,44.8938]]]}},{"type":"Feature","properties":{"i":"005054","n":"Fontanile"},"geometry":{"type":"Polygon","coordinates":[[[8.443,44.7595],[8.4399,44.7568],[8.424,44.7517],[8.4198,44.7334],[8.396,44.7293],[8.3926,44.7304],[8.3917,44.7316],[8.3933,44.7441],[8.3974,44.7493],[8.3979,44.7523],[8.4016,44.755],[8.403,44.7577],[8.4036,44.7615],[8.4003,44.7658],[8.4035,44.7685],[8.4054,44.7661],[8.4049,44.7651],[8.4038,44.7649],[8.4039,44.7636],[8.4086,44.7594],[8.4271,44.763],[8.443,44.7595]]]}},{"type":"Feature","properties":{"i":"005055","n":"Frinco"},"geometry":{"type":"Polygon","coordinates":[[[8.1741,44.9771],[8.1667,44.9849],[8.1698,44.9894],[8.1682,44.9941],[8.1609,44.9976],[8.1575,45.002],[8.1571,45.0038],[8.158,45.0066],[8.1606,45.0101],[8.167,45.0142],[8.1893,45.0075],[8.1898,45.0035],[8.1847,44.9856],[8.1853,44.9829],[8.192,44.979],[8.1858,44.9748],[8.1814,44.9738],[8.1741,44.9771]]]}},{"type":"Feature","properties":{"i":"005056","n":"Grana"},"geometry":{"type":"Polygon","coordinates":[[[8.3089,45.012],[8.3146,45.0018],[8.3081,44.9911],[8.2914,44.9894],[8.2908,44.9904],[8.2821,44.995],[8.2758,45.003],[8.2762,45.0059],[8.2786,45.0092],[8.2872,45.0095],[8.2918,45.0117],[8.2923,45.0134],[8.292,45.0171],[8.2945,45.0153],[8.2996,45.0136],[8.3089,45.012]]]}},{"type":"Feature","properties":{"i":"005057","n":"Grazzano Badoglio"},"geometry":{"type":"Polygon","coordinates":[[[8.3333,45.0337],[8.3297,45.0324],[8.3102,45.0193],[8.3089,45.012],[8.3047,45.0124],[8.2945,45.0153],[8.292,45.0171],[8.2933,45.0192],[8.2946,45.0247],[8.2931,45.031],[8.2949,45.039],[8.2909,45.0505],[8.305,45.0596],[8.3158,45.054],[8.3189,45.0532],[8.3254,45.0408],[8.3307,45.0349],[8.3333,45.0337]]]}},{"type":"Feature","properties":{"i":"005058","n":"Incisa Scapaccino"},"geometry":{"type":"Polygon","coordinates":[[[8.4282,44.8382],[8.4271,44.8342],[8.42,44.8264],[8.4148,44.8275],[8.4092,44.8261],[8.4054,44.8196],[8.4007,44.8085],[8.3972,44.7921],[8.3978,44.7905],[8.3991,44.7904],[8.3992,44.7867],[8.3959,44.7848],[8.364,44.7868],[8.3639,44.7889],[8.3568,44.8003],[8.3502,44.8097],[8.3459,44.8141],[8.3473,44.815],[8.3583,44.8152],[8.3652,44.8165],[8.3749,44.825],[8.3919,44.8379],[8.3965,44.8428],[8.3981,44.842],[8.4033,44.842],[8.4235,44.8495],[8.4232,44.8447],[8.4257,44.8398],[8.4282,44.8382]]]}},{"type":"Feature","properties":{"i":"005059","n":"Isola d'Asti"},"geometry":{"type":"Polygon","coordinates":[[[8.2001,44.8411],[8.2054,44.834],[8.2058,44.8318],[8.2036,44.824],[8.2008,44.8175],[8.1985,44.8144],[8.1973,44.8094],[8.1981,44.8083],[8.1957,44.8046],[8.1906,44.8083],[8.1745,44.8104],[8.1497,44.8176],[8.1475,44.8219],[8.1414,44.8287],[8.1609,44.8321],[8.1776,44.8394],[8.1787,44.8402],[8.1765,44.8411],[8.1772,44.8434],[8.1815,44.8436],[8.1841,44.8458],[8.179,44.8498],[8.1819,44.8522],[8.1922,44.8446],[8.2001,44.8411]]]}},{"type":"Feature","properties":{"i":"005060","n":"Loazzolo"},"geometry":{"type":"Polygon","coordinates":[[[8.2827,44.6852],[8.2765,44.6851],[8.2751,44.684],[8.2725,44.6796],[8.2708,44.6737],[8.2714,44.6678],[8.276,44.6598],[8.2761,44.6502],[8.2841,44.6333],[8.2893,44.6288],[8.292,44.6238],[8.2878,44.6228],[8.2862,44.627],[8.279,44.6334],[8.2782,44.6372],[8.2798,44.6395],[8.2783,44.643],[8.262,44.6534],[8.253,44.6561],[8.239,44.6627],[8.2292,44.67],[8.2233,44.6699],[8.2237,44.6765],[8.2273,44.6807],[8.2339,44.6829],[8.2457,44.6914],[8.2595,44.6966],[8.2827,44.6852]]]}},{"type":"Feature","properties":{"i":"005061","n":"Maranzana"},"geometry":{"type":"Polygon","coordinates":[[[8.4995,44.7751],[8.5013,44.7719],[8.4978,44.7694],[8.4882,44.7596],[8.487,44.7567],[8.4806,44.7521],[8.489,44.7532],[8.4879,44.7465],[8.4835,44.7463],[8.48,44.7479],[8.4753,44.752],[8.466,44.755],[8.464,44.7548],[8.4676,44.764],[8.4747,44.7672],[8.4873,44.7777],[8.493,44.7808],[8.4959,44.78],[8.4928,44.7759],[8.4885,44.7725],[8.4925,44.7711],[8.4952,44.7742],[8.4995,44.7751]]]}},{"type":"Feature","properties":{"i":"005062","n":"Maretto"},"geometry":{"type":"Polygon","coordinates":[[[8.0482,44.9449],[8.057,44.9374],[8.0567,44.9357],[8.0519,44.9316],[8.044,44.9319],[8.0263,44.9303],[8.0239,44.9315],[8.0197,44.9376],[8.0265,44.9416],[8.0349,44.9555],[8.0403,44.9599],[8.0438,44.9592],[8.0482,44.9449]]]}},{"type":"Feature","properties":{"i":"005063","n":"Moasca"},"geometry":{"type":"Polygon","coordinates":[[[8.2902,44.7728],[8.2894,44.7684],[8.284,44.7618],[8.2757,44.7566],[8.2725,44.7529],[8.2615,44.7549],[8.2586,44.7613],[8.2548,44.766],[8.253,44.7671],[8.2558,44.7691],[8.2674,44.7708],[8.268,44.7752],[8.2777,44.7727],[8.2902,44.7728]]]}},{"type":"Feature","properties":{"i":"005064","n":"Mombaldone"},"geometry":{"type":"Polygon","coordinates":[[[8.3469,44.5919],[8.3515,44.5899],[8.3562,44.5839],[8.3634,44.5806],[8.3687,44.5752],[8.3635,44.5728],[8.355,44.5722],[8.3377,44.5675],[8.332,44.5617],[8.3213,44.5585],[8.3166,44.5583],[8.3068,44.5627],[8.3063,44.5636],[8.3033,44.5643],[8.2968,44.5636],[8.2946,44.5643],[8.3007,44.5712],[8.3081,44.576],[8.3162,44.5797],[8.3167,44.5816],[8.3125,44.5869],[8.3127,44.5883],[8.3163,44.5931],[8.3195,44.594],[8.3236,44.5929],[8.3288,44.5894],[8.3344,44.5878],[8.3385,44.5881],[8.3389,44.5917],[8.3424,44.5923],[8.3469,44.5919]]]}},{"type":"Feature","properties":{"i":"005065","n":"Mombaruzzo"},"geometry":{"type":"Polygon","coordinates":[[[8.49,44.7996],[8.487,44.7978],[8.4861,44.7959],[8.502,44.7858],[8.5072,44.7885],[8.5119,44.7894],[8.5134,44.7872],[8.5016,44.7833],[8.4957,44.7802],[8.493,44.7808],[8.4855,44.7765],[8.4747,44.7672],[8.4676,44.764],[8.464,44.7548],[8.459,44.7526],[8.461,44.754],[8.4618,44.756],[8.46,44.7589],[8.4577,44.7602],[8.4507,44.7597],[8.4459,44.7571],[8.443,44.7595],[8.4271,44.763],[8.4173,44.7615],[8.4127,44.7597],[8.4076,44.7597],[8.4039,44.7636],[8.4038,44.7649],[8.4049,44.7651],[8.4054,44.7661],[8.4045,44.7675],[8.4035,44.7685],[8.4003,44.7658],[8.3997,44.7684],[8.3941,44.7731],[8.396,44.7801],[8.399,44.7812],[8.4021,44.7809],[8.4143,44.788],[8.4223,44.7865],[8.431,44.7826],[8.4403,44.782],[8.4436,44.7831],[8.4467,44.7857],[8.4562,44.7905],[8.4669,44.7942],[8.479,44.7963],[8.4804,44.8003],[8.4805,44.8039],[8.4786,44.8072],[8.49,44.7996]]]}},{"type":"Feature","properties":{"i":"005066","n":"Mombercelli"},"geometry":{"type":"Polygon","coordinates":[[[8.326,44.8487],[8.3243,44.8464],[8.3182,44.8414],[8.3148,44.8346],[8.3142,44.8266],[8.3126,44.8259],[8.3142,44.8198],[8.3122,44.8155],[8.3073,44.8118],[8.2992,44.8073],[8.2973,44.8033],[8.2825,44.8033],[8.2792,44.803],[8.2762,44.8016],[8.2734,44.8154],[8.2705,44.8151],[8.2737,44.8326],[8.275,44.8345],[8.2813,44.8367],[8.2839,44.8363],[8.2979,44.8477],[8.3114,44.8541],[8.3181,44.8515],[8.3259,44.8525],[8.326,44.8487]]]}},{"type":"Feature","properties":{"i":"005067","n":"Monale"},"geometry":{"type":"Polygon","coordinates":[[[8.088,44.9485],[8.0911,44.945],[8.0977,44.9307],[8.1043,44.9223],[8.1016,44.9218],[8.0902,44.9153],[8.0865,44.922],[8.0715,44.932],[8.0706,44.9322],[8.0678,44.9288],[8.0563,44.9267],[8.0517,44.9267],[8.0519,44.9316],[8.0567,44.9357],[8.057,44.9374],[8.0482,44.9449],[8.0517,44.9459],[8.0617,44.9429],[8.0672,44.9453],[8.0674,44.9493],[8.0718,44.9526],[8.0773,44.9547],[8.0788,44.9546],[8.088,44.9485]]]}},{"type":"Feature","properties":{"i":"005068","n":"Monastero Bormida"},"geometry":{"type":"MultiPolygon","coordinates":[[[[8.292,44.6238],[8.2905,44.6267],[8.2951,44.6251],[8.292,44.6238]]],[[[8.3192,44.6705],[8.3242,44.6695],[8.3253,44.6607],[8.3317,44.6545],[8.3444,44.6515],[8.3541,44.6561],[8.3556,44.6544],[8.3542,44.6484],[8.3554,44.6384],[8.3532,44.6348],[8.3396,44.623],[8.3332,44.6201],[8.3268,44.6209],[8.3063,44.6213],[8.3027,44.6223],[8.2996,44.6241],[8.3005,44.626],[8.3022,44.641],[8.3117,44.648],[8.3168,44.6549],[8.319,44.6614],[8.3192,44.6705]]]]}},{"type":"Feature","properties":{"i":"005069","n":"Moncalvo"},"geometry":{"type":"Polygon","coordinates":[[[8.3115,45.0707],[8.305,45.0596],[8.2909,45.0505],[8.2949,45.039],[8.2931,45.031],[8.2946,45.0247],[8.2933,45.0192],[8.292,45.0171],[8.2886,45.0223],[8.2859,45.0333],[8.2832,45.0346],[8.2798,45.0347],[8.2646,45.0292],[8.2634,45.0374],[8.2618,45.0394],[8.2596,45.0404],[8.2456,45.0417],[8.2326,45.0391],[8.229,45.042],[8.2275,45.0476],[8.2285,45.0497],[8.2324,45.0525],[8.2346,45.0549],[8.2365,45.0589],[8.2415,45.0634],[8.2609,45.0611],[8.2645,45.0622],[8.2763,45.0621],[8.2951,45.0721],[8.3025,45.0771],[8.3115,45.0707]]]}},{"type":"Feature","properties":{"i":"005070","n":"Moncucco Torinese"},"geometry":{"type":"Polygon","coordinates":[[[7.9061,45.0951],[7.9078,45.0935],[7.9145,45.0786],[7.9189,45.0746],[7.9201,45.0748],[7.9219,45.0815],[7.9263,45.0829],[7.9389,45.0842],[7.9422,45.0863],[7.942,45.0844],[7.943,45.0835],[7.949,45.0868],[7.9508,45.087],[7.9535,45.0861],[7.9514,45.0827],[7.9502,45.0759],[7.9517,45.0718],[7.9472,45.07],[7.9447,45.0674],[7.9398,45.0556],[7.937,45.0421],[7.9316,45.0413],[7.9295,45.0417],[7.9288,45.049],[7.926,45.0529],[7.9233,45.055],[7.9114,45.0596],[7.9062,45.0587],[7.9019,45.0615],[7.8989,45.0621],[7.8965,45.062],[7.893,45.0599],[7.8918,45.0621],[7.8953,45.0751],[7.8948,45.0888],[7.8959,45.095],[7.9061,45.0951]]]}},{"type":"Feature","properties":{"i":"005071","n":"Mongardino"},"geometry":{"type":"Polygon","coordinates":[[[8.2535,44.8543],[8.2532,44.8506],[8.2343,44.8428],[8.2096,44.8362],[8.2098,44.834],[8.2054,44.834],[8.2001,44.8411],[8.2026,44.843],[8.2062,44.8523],[8.2103,44.8542],[8.2125,44.8539],[8.2181,44.8553],[8.2255,44.8621],[8.2444,44.8614],[8.2454,44.8563],[8.2501,44.8529],[8.2535,44.8543]]]}},{"type":"Feature","properties":{"i":"005072","n":"Montabone"},"geometry":{"type":"Polygon","coordinates":[[[8.4087,44.7069],[8.4109,44.6984],[8.415,44.6943],[8.4203,44.6949],[8.4206,44.6923],[8.4084,44.6887],[8.3963,44.6882],[8.3931,44.686],[8.3748,44.6939],[8.3659,44.6958],[8.3625,44.6953],[8.3651,44.7073],[8.3771,44.7087],[8.3832,44.7116],[8.4009,44.7153],[8.4087,44.7069]]]}},{"type":"Feature","properties":{"i":"005073","n":"Montafia"},"geometry":{"type":"Polygon","coordinates":[[[8.0355,45.0186],[8.0363,45.0137],[8.0344,45.0102],[8.0345,45.0061],[8.037,44.9987],[8.0365,44.9972],[8.0381,44.9941],[8.0382,44.9893],[8.0344,44.9792],[8.0314,44.9776],[8.0286,44.9727],[8.0278,44.9684],[8.0255,44.9683],[8.0161,44.9617],[8.0053,44.9598],[8.0014,44.9601],[7.9942,44.9646],[7.9917,44.974],[7.9932,44.9786],[7.9904,44.9798],[7.9888,44.9876],[7.9955,44.9949],[7.9989,44.9915],[8.014,44.9963],[8.0261,45.0152],[8.0268,45.0197],[8.0355,45.0186]]]}},{"type":"Feature","properties":{"i":"005074","n":"Montaldo Scarampi"},"geometry":{"type":"Polygon","coordinates":[[[8.2979,44.8477],[8.2839,44.8363],[8.2813,44.8367],[8.275,44.8345],[8.2737,44.8326],[8.2705,44.8151],[8.2637,44.816],[8.252,44.8152],[8.2478,44.8161],[8.247,44.8175],[8.2463,44.8239],[8.2588,44.8396],[8.2618,44.8418],[8.2665,44.8441],[8.2692,44.8434],[8.2794,44.8442],[8.2858,44.8482],[8.2979,44.8477]]]}},{"type":"Feature","properties":{"i":"005075","n":"Montechiaro d'Asti"},"geometry":{"type":"Polygon","coordinates":[[[8.1371,45.0259],[8.1321,45.0168],[8.1238,45.0074],[8.1259,44.9981],[8.1198,44.9919],[8.1091,44.9899],[8.1104,44.9882],[8.109,44.9861],[8.1057,44.9863],[8.1012,44.997],[8.1016,45.0009],[8.1038,45.0021],[8.0998,45.005],[8.0941,45.0056],[8.0955,45.0103],[8.0976,45.0137],[8.0999,45.0154],[8.1,45.0226],[8.0969,45.0298],[8.1074,45.0306],[8.1092,45.0297],[8.1145,45.0307],[8.1157,45.0322],[8.1179,45.0326],[8.1371,45.0259]],[[8.1091,44.9878],[8.1082,44.9889],[8.1074,44.9887],[8.1085,44.9875],[8.1091,44.9878]]]}},{"type":"Feature","properties":{"i":"005076","n":"Montegrosso d'Asti"},"geometry":{"type":"Polygon","coordinates":[[[8.2705,44.8151],[8.2734,44.8154],[8.2762,44.8016],[8.274,44.8005],[8.2702,44.8035],[8.243,44.8099],[8.2364,44.8074],[8.223,44.7929],[8.2201,44.7863],[8.2165,44.7896],[8.2103,44.791],[8.2037,44.7963],[8.1957,44.8046],[8.1981,44.8083],[8.2016,44.8111],[8.2109,44.824],[8.214,44.8257],[8.2221,44.8235],[8.2299,44.8272],[8.243,44.8347],[8.2573,44.8474],[8.2609,44.8491],[8.2665,44.8441],[8.2588,44.8396],[8.2463,44.8239],[8.2465,44.819],[8.2478,44.8161],[8.2501,44.8155],[8.2543,44.8151],[8.2637,44.816],[8.2705,44.8151]]]}},{"type":"Feature","properties":{"i":"005077","n":"Montemagno"},"geometry":{"type":"Polygon","coordinates":[[[8.3516,44.9979],[8.3536,44.9941],[8.3516,44.9923],[8.3428,44.9885],[8.3407,44.9829],[8.3455,44.9699],[8.3497,44.9627],[8.3543,44.9523],[8.3575,44.9489],[8.3453,44.9442],[8.3413,44.9435],[8.3376,44.9467],[8.3202,44.9572],[8.3099,44.9662],[8.3051,44.9751],[8.3052,44.9799],[8.3076,44.9833],[8.3081,44.9911],[8.3146,45.0018],[8.3196,44.9996],[8.3395,44.9957],[8.3454,44.9973],[8.3516,44.9979]]]}},{"type":"Feature","properties":{"i":"005080","n":"Nizza Monferrato"},"geometry":{"type":"Polygon","coordinates":[[[8.364,44.7868],[8.3959,44.7848],[8.399,44.7812],[8.396,44.7801],[8.3941,44.7731],[8.3997,44.7684],[8.4003,44.7658],[8.4036,44.7615],[8.403,44.7577],[8.4016,44.755],[8.3932,44.7496],[8.3897,44.7488],[8.3862,44.7498],[8.3802,44.7493],[8.372,44.7469],[8.3686,44.7455],[8.3602,44.7385],[8.357,44.7402],[8.3488,44.7495],[8.3437,44.7536],[8.3365,44.7557],[8.3186,44.7547],[8.3154,44.7694],[8.3061,44.7714],[8.3032,44.7739],[8.3079,44.7806],[8.3077,44.7822],[8.3059,44.7831],[8.3062,44.7843],[8.3159,44.7885],[8.3201,44.7942],[8.3243,44.7944],[8.3438,44.7921],[8.3497,44.7921],[8.3573,44.7899],[8.3603,44.7879],[8.364,44.7868]]]}},{"type":"Feature","properties":{"i":"005081","n":"Olmo Gentile"},"geometry":{"type":"Polygon","coordinates":[[[8.2548,44.5946],[8.257,44.5937],[8.2605,44.5901],[8.26,44.5856],[8.2706,44.5728],[8.2709,44.5719],[8.2689,44.567],[8.2668,44.5667],[8.2456,44.5697],[8.2424,44.5819],[8.2331,44.5888],[8.2289,44.5936],[8.2319,44.5951],[8.2368,44.5953],[8.2548,44.5946]]]}},{"type":"Feature","properties":{"i":"005082","n":"Passerano Marmorito"},"geometry":{"type":"Polygon","coordinates":[[[8.027,45.0803],[8.0257,45.0762],[8.0379,45.0715],[8.0406,45.0689],[8.029,45.0659],[8.0241,45.0629],[8.0233,45.051],[8.025,45.0308],[8.0245,45.0247],[8.018,45.0229],[8.0149,45.0265],[8.0078,45.0309],[8.0075,45.0337],[8.0042,45.0369],[8.0027,45.0399],[8.0051,45.0432],[8.0011,45.0512],[7.9841,45.0651],[7.9858,45.067],[7.9902,45.0681],[7.9965,45.0676],[8.0039,45.071],[8.0045,45.075],[8.0034,45.0771],[8.027,45.0803]]]}},{"type":"Feature","properties":{"i":"005083","n":"Penango"},"geometry":{"type":"Polygon","coordinates":[[[8.292,45.0171],[8.2923,45.0134],[8.2918,45.0117],[8.2877,45.0097],[8.2836,45.0091],[8.277,45.011],[8.2711,45.0151],[8.2675,45.0198],[8.2568,45.0227],[8.2486,45.0212],[8.2358,45.0203],[8.231,45.024],[8.2304,45.0261],[8.2346,45.036],[8.2326,45.0391],[8.2456,45.0417],[8.2596,45.0404],[8.2618,45.0394],[8.2634,45.0374],[8.2646,45.0292],[8.2798,45.0347],[8.2832,45.0346],[8.2859,45.0333],[8.2886,45.0223],[8.292,45.0171]]]}},{"type":"Feature","properties":{"i":"005084","n":"Piea"},"geometry":{"type":"Polygon","coordinates":[[[8.0704,45.0064],[8.0567,45.0058],[8.0363,45.0137],[8.0355,45.0186],[8.0374,45.0188],[8.0391,45.0203],[8.0486,45.0325],[8.0669,45.0336],[8.0686,45.035],[8.0847,45.0355],[8.0853,45.027],[8.0828,45.02],[8.0816,45.018],[8.0737,45.016],[8.0704,45.0064]]]}},{"type":"Feature","properties":{"i":"005085","n":"Pino d'Asti"},"geometry":{"type":"MultiPolygon","coordinates":[[[[8.0071,45.033],[8.0005,45.0334],[8.0042,45.0369],[8.0075,45.0337],[8.0071,45.033]]],[[[7.9841,45.0651],[8.0011,45.0512],[8.0051,45.0432],[8.0027,45.0399],[7.998,45.043],[7.983,45.0467],[7.9728,45.0599],[7.9683,45.0674],[7.981,45.0681],[7.9841,45.0651]]]]}},{"type":"Feature","properties":{"i":"005086","n":"Piovà Massaia"},"geometry":{"type":"Polygon","coordinates":[[[8.0499,45.0666],[8.0541,45.0652],[8.0624,45.0651],[8.0666,45.0622],[8.0683,45.0592],[8.0727,45.0544],[8.0716,45.0547],[8.0694,45.0523],[8.0685,45.0463],[8.068,45.0418],[8.0699,45.0395],[8.0703,45.0367],[8.0669,45.0336],[8.0486,45.0325],[8.0374,45.0188],[8.0268,45.0197],[8.0254,45.0208],[8.0403,45.0504],[8.0407,45.0523],[8.0393,45.0587],[8.0353,45.064],[8.0313,45.0644],[8.0299,45.0654],[8.0406,45.0689],[8.0499,45.0666]]]}},{"type":"Feature","properties":{"i":"005087","n":"Portacomaro"},"geometry":{"type":"Polygon","coordinates":[[[8.2856,44.9486],[8.2861,44.944],[8.2888,44.9358],[8.2915,44.9343],[8.2949,44.9306],[8.2964,44.9278],[8.275,44.9184],[8.2734,44.9257],[8.2746,44.9323],[8.2787,44.9401],[8.2802,44.9467],[8.2687,44.9463],[8.2652,44.9449],[8.2638,44.9424],[8.2634,44.9376],[8.2624,44.9371],[8.2574,44.9373],[8.242,44.9404],[8.2381,44.9464],[8.2381,44.9521],[8.2403,44.9571],[8.2483,44.9555],[8.2506,44.9634],[8.2407,44.9582],[8.2397,44.962],[8.2459,44.9703],[8.2532,44.9758],[8.2596,44.9765],[8.2618,44.9796],[8.2637,44.9792],[8.2608,44.9714],[8.2637,44.9658],[8.2762,44.951],[8.2815,44.9478],[8.2856,44.9486]]]}},{"type":"Feature","properties":{"i":"005088","n":"Quaranti"},"geometry":{"type":"Polygon","coordinates":[[[8.459,44.7526],[8.4511,44.7388],[8.4481,44.7413],[8.4468,44.7413],[8.4397,44.7368],[8.4391,44.7398],[8.4409,44.7554],[8.4399,44.7568],[8.443,44.7595],[8.4459,44.7571],[8.4507,44.7597],[8.4584,44.76],[8.46,44.7589],[8.4618,44.756],[8.461,44.754],[8.459,44.7526]]]}},{"type":"Feature","properties":{"i":"005089","n":"Refrancore"},"geometry":{"type":"Polygon","coordinates":[[[8.3795,44.9292],[8.3805,44.9243],[8.3787,44.9235],[8.3707,44.9247],[8.3668,44.927],[8.3608,44.9222],[8.3605,44.9174],[8.3617,44.9154],[8.3588,44.9129],[8.3404,44.9124],[8.3368,44.9164],[8.3284,44.9192],[8.3134,44.9206],[8.3058,44.9189],[8.3013,44.9201],[8.3064,44.9204],[8.3094,44.9222],[8.3292,44.9413],[8.3334,44.9449],[8.3376,44.9467],[8.3413,44.9435],[8.3453,44.9442],[8.3575,44.9489],[8.3606,44.9477],[8.3652,44.9454],[8.3699,44.9378],[8.3795,44.9292]]]}},{"type":"Feature","properties":{"i":"005090","n":"Revigliasco d'Asti"},"geometry":{"type":"Polygon","coordinates":[[[8.1819,44.8522],[8.179,44.8498],[8.1841,44.8458],[8.1815,44.8436],[8.1772,44.8434],[8.1765,44.8411],[8.1497,44.8511],[8.1367,44.8533],[8.1328,44.8582],[8.1343,44.86],[8.1313,44.8638],[8.1428,44.8679],[8.149,44.8692],[8.155,44.8692],[8.1727,44.8637],[8.1777,44.8645],[8.1868,44.8642],[8.2019,44.8577],[8.2008,44.8551],[8.1913,44.8532],[8.1873,44.8573],[8.1856,44.8602],[8.1804,44.8629],[8.1795,44.8596],[8.1819,44.8522]]]}},{"type":"Feature","properties":{"i":"005091","n":"Roatto"},"geometry":{"type":"Polygon","coordinates":[[[8.0278,44.9684],[8.0349,44.9555],[8.0265,44.9416],[8.0197,44.9376],[8.0153,44.941],[8.0085,44.9397],[8.0041,44.936],[7.9998,44.9441],[8.0013,44.9564],[8.0008,44.9605],[8.0024,44.9598],[8.0053,44.9598],[8.0161,44.9617],[8.0255,44.9683],[8.0278,44.9684]]]}},{"type":"Feature","properties":{"i":"005092","n":"Robella"},"geometry":{"type":"Polygon","coordinates":[[[8.129,45.123],[8.1298,45.1206],[8.1294,45.1185],[8.1282,45.1152],[8.1241,45.1088],[8.1211,45.1068],[8.1128,45.107],[8.1094,45.0987],[8.1101,45.0945],[8.1139,45.0921],[8.1203,45.0896],[8.1216,45.0839],[8.1178,45.0826],[8.1189,45.0803],[8.1147,45.0798],[8.1142,45.0836],[8.1112,45.0849],[8.0862,45.0892],[8.0754,45.0974],[8.0907,45.1139],[8.0927,45.1175],[8.0948,45.1279],[8.0967,45.1319],[8.1,45.1288],[8.129,45.123]]]}},{"type":"Feature","properties":{"i":"005093","n":"Rocca d'Arazzo"},"geometry":{"type":"Polygon","coordinates":[[[8.3153,44.8697],[8.3114,44.8541],[8.2979,44.8477],[8.2858,44.8482],[8.2794,44.8442],[8.2692,44.8434],[8.2665,44.8441],[8.2609,44.8491],[8.2638,44.8545],[8.2806,44.8753],[8.2769,44.8818],[8.2768,44.8844],[8.2799,44.8888],[8.284,44.8914],[8.2858,44.8911],[8.2904,44.8871],[8.2948,44.8851],[8.2976,44.8759],[8.313,44.8726],[8.3153,44.8697]]]}},{"type":"Feature","properties":{"i":"005094","n":"Roccaverano"},"geometry":{"type":"Polygon","coordinates":[[[8.2996,44.6241],[8.3027,44.6223],[8.3063,44.6213],[8.3268,44.6209],[8.3241,44.6149],[8.3178,44.61],[8.314,44.603],[8.3158,44.5974],[8.3195,44.594],[8.3159,44.5928],[8.3126,44.588],[8.3125,44.5869],[8.3167,44.5816],[8.3162,44.5797],[8.3081,44.576],[8.3007,44.5712],[8.2947,44.5646],[8.2981,44.5636],[8.2968,44.5618],[8.2888,44.5578],[8.2852,44.558],[8.2831,44.5565],[8.2843,44.5537],[8.2835,44.5529],[8.282,44.5522],[8.2796,44.5526],[8.2747,44.5554],[8.2689,44.5602],[8.2668,44.5667],[8.2689,44.567],[8.2709,44.5719],[8.2706,44.5728],[8.26,44.5856],[8.2605,44.5901],[8.257,44.5937],[8.2548,44.5946],[8.2564,44.5957],[8.2572,44.5984],[8.2514,44.6013],[8.2467,44.6067],[8.2465,44.6124],[8.2482,44.6155],[8.2606,44.6196],[8.2698,44.6213],[8.2757,44.621],[8.2785,44.6224],[8.2878,44.6228],[8.2951,44.6251],[8.2996,44.6241]]]}},{"type":"Feature","properties":{"i":"005095","n":"Rocchetta Palafea"},"geometry":{"type":"Polygon","coordinates":[[[8.3505,44.7153],[8.3651,44.7073],[8.3625,44.6953],[8.3484,44.6937],[8.3469,44.6926],[8.3467,44.6893],[8.3356,44.6888],[8.3321,44.6934],[8.3294,44.6988],[8.3255,44.714],[8.3254,44.7189],[8.3282,44.7185],[8.3337,44.7197],[8.3434,44.719],[8.3505,44.7153]]]}},{"type":"Feature","properties":{"i":"005096","n":"Rocchetta Tanaro"},"geometry":{"type":"Polygon","coordinates":[[[8.3507,44.8738],[8.3488,44.8685],[8.352,44.8663],[8.3547,44.8661],[8.3578,44.8677],[8.3571,44.8681],[8.3589,44.8701],[8.3746,44.8713],[8.3813,44.8683],[8.3785,44.8653],[8.3787,44.8631],[8.3761,44.8488],[8.3762,44.8467],[8.3811,44.8448],[8.3772,44.8429],[8.3718,44.8414],[8.3686,44.8418],[8.3565,44.8394],[8.3543,44.8437],[8.3384,44.8399],[8.3347,44.8407],[8.3304,44.8429],[8.3288,44.8472],[8.326,44.8487],[8.3259,44.8525],[8.3181,44.8515],[8.3114,44.8541],[8.3153,44.8697],[8.3194,44.8727],[8.3347,44.8756],[8.3453,44.8713],[8.3507,44.8738]]]}},{"type":"Feature","properties":{"i":"005097","n":"San Damiano d'Asti"},"geometry":{"type":"Polygon","coordinates":[[[8.0443,44.8806],[8.0483,44.8819],[8.0632,44.8779],[8.0766,44.8723],[8.083,44.8656],[8.0906,44.8631],[8.1019,44.842],[8.101,44.835],[8.0921,44.8312],[8.0926,44.8278],[8.0962,44.8219],[8.094,44.8218],[8.0871,44.8179],[8.083,44.8138],[8.0753,44.8086],[8.0727,44.8087],[8.0714,44.8078],[8.0711,44.8063],[8.0609,44.81],[8.0564,44.8107],[8.0535,44.8096],[8.0475,44.8047],[8.0454,44.7993],[8.0315,44.8107],[8.0277,44.815],[8.0229,44.8173],[8.0197,44.8168],[8.0202,44.8214],[8.0237,44.8244],[8.0243,44.8296],[8.0227,44.8336],[8.013,44.8397],[8.005,44.851],[8.009,44.8609],[8.0166,44.8676],[8.0171,44.8701],[8.0164,44.874],[8.0116,44.8812],[8.0095,44.8885],[8.0093,44.8903],[8.0116,44.8938],[8.0281,44.8831],[8.0425,44.8803],[8.0443,44.8806]]]}},{"type":"Feature","properties":{"i":"005098","n":"San Giorgio Scarampi"},"geometry":{"type":"Polygon","coordinates":[[[8.2627,44.6196],[8.2606,44.6196],[8.2482,44.6155],[8.2467,44.6132],[8.2467,44.6067],[8.2475,44.6055],[8.2514,44.6013],[8.2572,44.5984],[8.2564,44.5957],[8.2548,44.5946],[8.2368,44.5953],[8.2319,44.5951],[8.2306,44.5941],[8.2343,44.5986],[8.2324,44.6008],[8.2263,44.6024],[8.2176,44.6152],[8.2345,44.6205],[8.2537,44.6227],[8.261,44.6222],[8.2627,44.6196]]]}},{"type":"Feature","properties":{"i":"005099","n":"San Martino Alfieri"},"geometry":{"type":"Polygon","coordinates":[[[8.1384,44.822],[8.1306,44.8101],[8.1232,44.8138],[8.119,44.814],[8.1161,44.8137],[8.1095,44.8099],[8.107,44.81],[8.1005,44.8197],[8.0962,44.8219],[8.0926,44.8278],[8.0921,44.8312],[8.101,44.835],[8.1014,44.837],[8.104,44.8355],[8.1166,44.8326],[8.132,44.8319],[8.1374,44.8285],[8.1371,44.8239],[8.1384,44.822]]]}},{"type":"Feature","properties":{"i":"005100","n":"San Marzano Oliveto"},"geometry":{"type":"Polygon","coordinates":[[[8.3032,44.7739],[8.3061,44.7714],[8.3154,44.7694],[8.3186,44.7547],[8.3169,44.7469],[8.32,44.7386],[8.3144,44.7344],[8.2725,44.7529],[8.2757,44.7566],[8.284,44.7618],[8.2894,44.7684],[8.2902,44.7728],[8.3032,44.7739]]]}},{"type":"Feature","properties":{"i":"005101","n":"San Paolo Solbrito"},"geometry":{"type":"Polygon","coordinates":[[[8.0008,44.9605],[8.0013,44.9564],[7.9998,44.9441],[8.0041,44.936],[8.0041,44.9349],[7.9829,44.9347],[7.9674,44.9327],[7.964,44.9412],[7.9571,44.9514],[7.9567,44.9535],[7.9575,44.9572],[7.9618,44.9647],[7.9848,44.9726],[7.9901,44.9738],[7.9917,44.974],[7.9942,44.9646],[8.0008,44.9605]]]}},{"type":"Feature","properties":{"i":"005103","n":"Scurzolengo"},"geometry":{"type":"Polygon","coordinates":[[[8.2833,44.9827],[8.2818,44.979],[8.2845,44.9784],[8.286,44.9731],[8.287,44.9552],[8.2856,44.9486],[8.2815,44.9478],[8.2762,44.951],[8.2637,44.9658],[8.2608,44.9714],[8.2637,44.9792],[8.2663,44.979],[8.2706,44.98],[8.2738,44.9831],[8.2833,44.9827]]]}},{"type":"Feature","properties":{"i":"005104","n":"Serole"},"geometry":{"type":"Polygon","coordinates":[[[8.2668,44.5667],[8.2689,44.5602],[8.2747,44.5554],[8.2796,44.5526],[8.2821,44.5522],[8.2843,44.5537],[8.2841,44.5514],[8.2796,44.5427],[8.2822,44.5363],[8.2803,44.535],[8.2808,44.5332],[8.2721,44.529],[8.2616,44.5194],[8.2528,44.5287],[8.2489,44.5414],[8.246,44.5483],[8.2433,44.55],[8.2413,44.5494],[8.2401,44.5553],[8.2368,44.5598],[8.2323,44.5617],[8.2361,44.563],[8.2402,44.5672],[8.2414,44.5692],[8.2413,44.5712],[8.2456,44.5697],[8.2668,44.5667]]]}},{"type":"Feature","properties":{"i":"005105","n":"Sessame"},"geometry":{"type":"Polygon","coordinates":[[[8.3541,44.6561],[8.3444,44.6515],[8.3317,44.6545],[8.3253,44.6607],[8.3223,44.6779],[8.3224,44.6807],[8.3243,44.6846],[8.3306,44.6882],[8.3467,44.6893],[8.3556,44.6758],[8.3511,44.6661],[8.3515,44.6603],[8.3541,44.6561]]]}},{"type":"Feature","properties":{"i":"005106","n":"Settime"},"geometry":{"type":"Polygon","coordinates":[[[8.092,44.9505],[8.0923,44.9558],[8.0984,44.9587],[8.1034,44.964],[8.1052,44.9677],[8.1158,44.9749],[8.1139,44.9786],[8.1249,44.9746],[8.124,44.9718],[8.1248,44.9694],[8.1316,44.9632],[8.1304,44.9589],[8.1229,44.9557],[8.1228,44.9533],[8.1191,44.9484],[8.1116,44.9422],[8.1076,44.9418],[8.1023,44.9424],[8.0999,44.947],[8.0964,44.9503],[8.092,44.9505]]]}},{"type":"Feature","properties":{"i":"005107","n":"Soglio"},"geometry":{"type":"MultiPolygon","coordinates":[[[[8.0809,44.9881],[8.08,44.9885],[8.08,44.9896],[8.0822,44.9893],[8.0818,44.9882],[8.0809,44.9881]]],[[[8.0818,44.9944],[8.0844,44.9959],[8.086,44.9945],[8.0818,44.9944]]],[[[8.0941,45.0056],[8.0836,44.998],[8.0785,44.9911],[8.079,44.9837],[8.0749,44.9787],[8.0691,44.9891],[8.065,44.9919],[8.066,45.0025],[8.0692,45.0034],[8.0704,45.0064],[8.0799,45.0054],[8.0948,45.0072],[8.0941,45.0056]]]]}},{"type":"Feature","properties":{"i":"005108","n":"Tigliole"},"geometry":{"type":"Polygon","coordinates":[[[8.1114,44.8938],[8.1125,44.8918],[8.1204,44.8852],[8.1161,44.8764],[8.1121,44.8709],[8.0991,44.8668],[8.0922,44.8632],[8.083,44.8656],[8.0766,44.8723],[8.0632,44.8779],[8.0483,44.8819],[8.0443,44.8806],[8.0429,44.8823],[8.0433,44.888],[8.0475,44.8898],[8.0521,44.8935],[8.0574,44.8994],[8.0748,44.8998],[8.076,44.899],[8.0963,44.8998],[8.1024,44.8986],[8.1081,44.8964],[8.1114,44.8938]]]}},{"type":"Feature","properties":{"i":"005109","n":"Tonco"},"geometry":{"type":"Polygon","coordinates":[[[8.2163,45.0106],[8.2147,45.0076],[8.2089,45.001],[8.2077,45.0013],[8.167,45.0142],[8.159,45.0212],[8.1585,45.0262],[8.159,45.0275],[8.1859,45.0405],[8.1902,45.0389],[8.1989,45.0326],[8.2033,45.0304],[8.2084,45.0259],[8.2186,45.0145],[8.2163,45.0106]]]}},{"type":"Feature","properties":{"i":"005111","n":"Vaglio Serra"},"geometry":{"type":"Polygon","coordinates":[[[8.3459,44.8141],[8.3502,44.8097],[8.3568,44.8003],[8.3639,44.7889],[8.364,44.7868],[8.3603,44.7879],[8.3573,44.7899],[8.3497,44.7921],[8.3438,44.7921],[8.3243,44.7944],[8.3201,44.7942],[8.324,44.7961],[8.3412,44.8145],[8.3416,44.8172],[8.3459,44.8141]]]}},{"type":"Feature","properties":{"i":"005112","n":"Valfenera"},"geometry":{"type":"Polygon","coordinates":[[[7.9469,44.9124],[7.9546,44.9118],[7.9785,44.9065],[7.9868,44.9065],[7.9965,44.9047],[7.9974,44.8987],[7.9948,44.8973],[7.9849,44.8951],[7.9833,44.8926],[7.9804,44.88],[7.9647,44.8566],[7.9555,44.8525],[7.9537,44.8527],[7.9551,44.8573],[7.9564,44.859],[7.9565,44.8656],[7.952,44.88],[7.9387,44.8801],[7.9371,44.8792],[7.9327,44.8788],[7.9246,44.8804],[7.9186,44.885],[7.9151,44.892],[7.9198,44.8928],[7.9262,44.9022],[7.9254,44.9051],[7.9203,44.9088],[7.9201,44.9154],[7.9469,44.9124]]]}},{"type":"Feature","properties":{"i":"005113","n":"Vesime"},"geometry":{"type":"Polygon","coordinates":[[[8.2785,44.6224],[8.2757,44.621],[8.2698,44.6213],[8.2627,44.6196],[8.261,44.6222],[8.2537,44.6227],[8.2345,44.6205],[8.2194,44.6154],[8.2176,44.6152],[8.215,44.6171],[8.206,44.6153],[8.1968,44.6151],[8.1957,44.6181],[8.1945,44.6286],[8.1971,44.6317],[8.2044,44.6353],[8.2044,44.6392],[8.2116,44.6482],[8.2181,44.6515],[8.2217,44.6477],[8.2339,44.6413],[8.2785,44.6224]]]}},{"type":"Feature","properties":{"i":"005114","n":"Viale"},"geometry":{"type":"Polygon","coordinates":[[[8.0704,45.0064],[8.0692,45.0034],[8.066,45.0025],[8.0654,44.9942],[8.0565,44.9933],[8.0365,44.9972],[8.0371,44.9982],[8.0345,45.0061],[8.0344,45.0102],[8.0363,45.0137],[8.0567,45.0058],[8.0704,45.0064]]]}},{"type":"Feature","properties":{"i":"005115","n":"Viarigi"},"geometry":{"type":"Polygon","coordinates":[[[8.3828,44.9502],[8.378,44.9494],[8.3761,44.9477],[8.3761,44.9464],[8.3799,44.9394],[8.3822,44.9376],[8.3795,44.9292],[8.3699,44.9378],[8.3652,44.9454],[8.3575,44.9489],[8.3543,44.9523],[8.3497,44.9627],[8.3455,44.9699],[8.341,44.9815],[8.3407,44.9829],[8.3428,44.9885],[8.3516,44.9923],[8.3536,44.9941],[8.3607,44.9868],[8.3689,44.9842],[8.3739,44.9851],[8.3789,44.9845],[8.3805,44.9836],[8.3851,44.9729],[8.3852,44.9666],[8.3787,44.957],[8.3828,44.9502]]]}},{"type":"Feature","properties":{"i":"005116","n":"Vigliano d'Asti"},"geometry":{"type":"Polygon","coordinates":[[[8.2638,44.8545],[8.2609,44.8491],[8.2573,44.8474],[8.243,44.8347],[8.2221,44.8235],[8.214,44.8257],[8.2109,44.824],[8.2007,44.8101],[8.1981,44.8083],[8.1974,44.8088],[8.1985,44.8144],[8.2008,44.8175],[8.2036,44.824],[8.2058,44.8318],[8.2054,44.834],[8.2098,44.834],[8.2096,44.8362],[8.2343,44.8428],[8.2408,44.8454],[8.2532,44.8506],[8.2535,44.8543],[8.2638,44.8545]]]}},{"type":"Feature","properties":{"i":"005117","n":"Villafranca d'Asti"},"geometry":{"type":"Polygon","coordinates":[[[8.0197,44.9376],[8.0239,44.9315],[8.0263,44.9303],[8.044,44.9319],[8.0519,44.9316],[8.0517,44.9267],[8.0542,44.9185],[8.0634,44.9158],[8.0701,44.9148],[8.0726,44.9116],[8.0727,44.9106],[8.0717,44.9099],[8.0748,44.8998],[8.0574,44.8994],[8.0472,44.9083],[8.0405,44.9103],[8.0244,44.9081],[8.0129,44.909],[8.0035,44.9117],[8.0041,44.9124],[8.0098,44.913],[8.0147,44.915],[8.0159,44.9199],[8.0011,44.9307],[8.0041,44.9349],[8.0041,44.936],[8.0085,44.9397],[8.0139,44.941],[8.0167,44.9404],[8.0197,44.9376]]]}},{"type":"Feature","properties":{"i":"005118","n":"Villanova d'Asti"},"geometry":{"type":"Polygon","coordinates":[[[7.9888,44.9876],[7.9904,44.9798],[7.9932,44.9786],[7.9917,44.974],[7.9848,44.9726],[7.9618,44.9647],[7.9578,44.9579],[7.9567,44.9546],[7.9571,44.9514],[7.964,44.9412],[7.9674,44.9327],[7.9612,44.9265],[7.9511,44.9234],[7.9455,44.918],[7.9469,44.9124],[7.9201,44.9154],[7.9201,44.9171],[7.9008,44.9164],[7.8926,44.9151],[7.8887,44.9201],[7.8834,44.9362],[7.8892,44.9356],[7.9003,44.9409],[7.9022,44.9658],[7.9287,44.9835],[7.9327,44.9939],[7.9425,44.9902],[7.9492,44.9887],[7.9731,44.9875],[7.9776,44.9852],[7.9835,44.984],[7.9866,44.9847],[7.9888,44.9876]]]}},{"type":"Feature","properties":{"i":"005119","n":"Villa San Secondo"},"geometry":{"type":"Polygon","coordinates":[[[8.1585,45.0262],[8.159,45.0212],[8.1551,45.0199],[8.1468,45.0145],[8.1415,45.0087],[8.1401,45.0056],[8.1401,45.0013],[8.1425,44.9976],[8.1541,44.9896],[8.1667,44.9849],[8.1726,44.9779],[8.1672,44.9757],[8.1615,44.9706],[8.1586,44.9662],[8.1536,44.97],[8.155,44.9774],[8.1576,44.9835],[8.1557,44.986],[8.1506,44.9909],[8.1391,44.9993],[8.1333,45.0016],[8.1314,44.9999],[8.1259,44.9981],[8.1237,45.0061],[8.1238,45.0074],[8.1321,45.0168],[8.1371,45.0259],[8.1537,45.0252],[8.1585,45.0262]]]}},{"type":"Feature","properties":{"i":"005120","n":"Vinchio"},"geometry":{"type":"Polygon","coordinates":[[[8.3415,44.8239],[8.3418,44.8161],[8.3412,44.8145],[8.324,44.7961],[8.3201,44.7942],[8.3159,44.7885],[8.3065,44.7846],[8.3059,44.7831],[8.3032,44.7825],[8.301,44.7833],[8.2999,44.7855],[8.3028,44.7887],[8.3011,44.7969],[8.2973,44.8033],[8.2992,44.8073],[8.3073,44.8118],[8.3122,44.8155],[8.3143,44.8204],[8.3126,44.8259],[8.3172,44.828],[8.3217,44.8286],[8.3234,44.828],[8.3234,44.8268],[8.3322,44.8246],[8.3371,44.8258],[8.3402,44.8251],[8.3415,44.8239]]]}},{"type":"Feature","properties":{"i":"005121","n":"Montiglio Monferrato"},"geometry":{"type":"Polygon","coordinates":[[[8.1189,45.0803],[8.1184,45.0717],[8.126,45.0693],[8.1337,45.0652],[8.1321,45.0561],[8.1352,45.0532],[8.1403,45.0515],[8.1419,45.0517],[8.1426,45.0535],[8.1502,45.0535],[8.1495,45.0385],[8.1578,45.0314],[8.1591,45.0286],[8.1585,45.0262],[8.1537,45.0252],[8.1371,45.0259],[8.1179,45.0326],[8.1157,45.0322],[8.1108,45.0404],[8.1093,45.0464],[8.0972,45.0508],[8.0778,45.0515],[8.0727,45.0544],[8.0683,45.0592],[8.0666,45.0622],[8.0624,45.0651],[8.0541,45.0652],[8.0499,45.0666],[8.0544,45.0703],[8.0698,45.08],[8.0777,45.0824],[8.0862,45.0892],[8.1112,45.0849],[8.1142,45.0836],[8.1147,45.0798],[8.1189,45.0803]]]}}]}
