{"type":"FeatureCollection","fonte":"Confini comunali ISTAT via openpolis/geojson-italy — CC BY 4.0","features":[{"type":"Feature","properties":{"i":"064001","n":"Aiello del Sabato"},"geometry":{"type":"Polygon","coordinates":[[[14.8243,40.9008],[14.8239,40.8909],[14.8254,40.8887],[14.8334,40.886],[14.8252,40.8711],[14.8246,40.8686],[14.8262,40.8665],[14.8207,40.8576],[14.8106,40.859],[14.795,40.8696],[14.7934,40.8769],[14.7964,40.882],[14.7964,40.8836],[14.8091,40.9002],[14.8103,40.9033],[14.8123,40.9031],[14.814,40.9043],[14.8147,40.9049],[14.8138,40.9057],[14.8169,40.9058],[14.8201,40.9046],[14.8243,40.9008]]]}},{"type":"Feature","properties":{"i":"064002","n":"Altavilla Irpina"},"geometry":{"type":"Polygon","coordinates":[[[14.7856,41.0163],[14.7881,41.0171],[14.7965,41.0171],[14.8048,41.0148],[14.8095,41.0125],[14.8116,41.0093],[14.8107,40.9993],[14.8076,40.9885],[14.8035,40.9818],[14.8016,40.9803],[14.7965,40.9794],[14.7819,40.9838],[14.7666,40.9901],[14.7645,40.9931],[14.7633,40.9974],[14.7587,41.0024],[14.7603,41.0094],[14.7698,41.011],[14.776,41.0145],[14.7696,41.0191],[14.7689,41.0221],[14.7703,41.0232],[14.7856,41.0163]]]}},{"type":"Feature","properties":{"i":"064003","n":"Andretta"},"geometry":{"type":"Polygon","coordinates":[[[15.375,40.9506],[15.3756,40.9469],[15.375,40.9434],[15.371,40.9313],[15.3638,40.926],[15.3624,40.9222],[15.3622,40.9178],[15.3651,40.9123],[15.3619,40.9135],[15.3484,40.9144],[15.3402,40.9108],[15.3399,40.9123],[15.3381,40.9139],[15.327,40.9163],[15.3157,40.9145],[15.3023,40.9109],[15.2945,40.9099],[15.2931,40.9105],[15.2934,40.9118],[15.292,40.9171],[15.2907,40.9171],[15.284,40.9297],[15.2823,40.9348],[15.2879,40.9523],[15.2839,40.9543],[15.2883,40.9626],[15.2959,40.974],[15.2992,40.9776],[15.3051,40.9743],[15.3174,40.9708],[15.3352,40.9708],[15.3399,40.9717],[15.3422,40.9731],[15.3447,40.9726],[15.3499,40.9697],[15.3563,40.9641],[15.375,40.9506]]]}},{"type":"Feature","properties":{"i":"064004","n":"Aquilonia"},"geometry":{"type":"Polygon","coordinates":[[[15.4951,41.0241],[15.4943,41.0225],[15.4959,41.015],[15.506,41.0019],[15.5164,40.9908],[15.5214,40.9841],[15.5207,40.9828],[15.5218,40.9798],[15.5234,40.9781],[15.5311,40.9745],[15.5413,40.9767],[15.553,40.9763],[15.5592,40.9738],[15.5635,40.9709],[15.5647,40.9692],[15.5645,40.9673],[15.5617,40.9637],[15.5495,40.9542],[15.5437,40.9477],[15.5393,40.9318],[15.5348,40.9317],[15.5212,40.9366],[15.5129,40.9397],[15.5033,40.9447],[15.4978,40.9488],[15.4955,40.9544],[15.4944,40.9619],[15.4878,40.9673],[15.4797,40.9715],[15.474,40.9718],[15.4594,40.9551],[15.4555,40.9539],[15.4502,40.955],[15.4503,40.9604],[15.4464,40.9656],[15.4384,40.9676],[15.4306,40.9806],[15.4334,40.9909],[15.4335,40.9925],[15.4316,40.9966],[15.437,40.9989],[15.4425,41.0048],[15.452,41.0128],[15.47,41.0217],[15.4847,41.024],[15.4951,41.0241]]]}},{"type":"Feature","properties":{"i":"064005","n":"Ariano Irpino"},"geometry":{"type":"Polygon","coordinates":[[[15.1613,41.2297],[15.164,41.2285],[15.1593,41.2247],[15.158,41.208],[15.166,41.203],[15.1745,41.1991],[15.1857,41.1954],[15.1911,41.1942],[15.1927,41.1949],[15.2037,41.195],[15.2048,41.1916],[15.2117,41.1862],[15.2162,41.1844],[15.2222,41.1836],[15.2235,41.1819],[15.2211,41.1777],[15.2104,41.1645],[15.2088,41.1577],[15.2087,41.1537],[15.2106,41.1489],[15.2176,41.1441],[15.2163,41.141],[15.2116,41.142],[15.2027,41.147],[15.2007,41.1458],[15.1953,41.136],[15.176,41.1389],[15.1725,41.1387],[15.1504,41.1266],[15.1409,41.1192],[15.1357,41.1123],[15.1244,41.1034],[15.1189,41.0977],[15.1178,41.0946],[15.1202,41.0924],[15.1197,41.0904],[15.1139,41.0923],[15.1043,41.0903],[15.0766,41.0809],[15.0721,41.0814],[15.065,41.0891],[15.0664,41.0999],[15.0659,41.1031],[15.0641,41.1066],[15.0597,41.1139],[15.0494,41.1184],[15.0462,41.121],[15.0442,41.1237],[15.0423,41.1308],[15.0394,41.1365],[15.0363,41.1397],[15.0318,41.1409],[15.0122,41.1341],[15.0031,41.1295],[14.9989,41.1298],[14.996,41.1325],[14.9958,41.1337],[14.997,41.1347],[14.9967,41.1461],[14.992,41.1498],[14.9897,41.1503],[14.9905,41.1524],[14.9932,41.1547],[14.9952,41.1554],[15.0053,41.1623],[15.0201,41.1689],[15.0362,41.1712],[15.0425,41.1739],[15.0498,41.1833],[15.0535,41.1903],[15.0617,41.1934],[15.0671,41.1938],[15.074,41.199],[15.076,41.2046],[15.0741,41.2136],[15.0757,41.2248],[15.0785,41.2362],[15.076,41.2405],[15.0774,41.2459],[15.0817,41.2528],[15.0948,41.2597],[15.0981,41.2605],[15.1063,41.2594],[15.1175,41.2561],[15.1222,41.2562],[15.1381,41.2648],[15.1382,41.2588],[15.1393,41.2548],[15.1385,41.2433],[15.1339,41.2361],[15.1353,41.2324],[15.152,41.2325],[15.1613,41.2297]]]}},{"type":"Feature","properties":{"i":"064006","n":"Atripalda"},"geometry":{"type":"Polygon","coordinates":[[[14.8385,40.9208],[14.8393,40.9183],[14.8439,40.9186],[14.8525,40.9217],[14.8595,40.9208],[14.8606,40.9142],[14.864,40.9076],[14.8568,40.9012],[14.8556,40.9029],[14.8533,40.9029],[14.8484,40.9003],[14.8406,40.8998],[14.8368,40.9022],[14.8354,40.9053],[14.8313,40.9082],[14.8272,40.905],[14.8243,40.9008],[14.8181,40.9055],[14.8138,40.9057],[14.8147,40.9049],[14.8123,40.9031],[14.8103,40.9033],[14.8094,40.9042],[14.8101,40.9079],[14.8133,40.9128],[14.818,40.9168],[14.8225,40.919],[14.8251,40.9222],[14.8249,40.9313],[14.8272,40.9352],[14.828,40.9352],[14.8315,40.9268],[14.8349,40.9222],[14.837,40.9206],[14.8385,40.9208]]]}},{"type":"Feature","properties":{"i":"064007","n":"Avella"},"geometry":{"type":"Polygon","coordinates":[[[14.6573,40.9846],[14.6611,40.9823],[14.6638,40.9819],[14.6703,40.9826],[14.6798,40.9817],[14.6751,40.9704],[14.6673,40.9691],[14.6556,40.9697],[14.648,40.9715],[14.6205,40.9732],[14.6316,40.9651],[14.6101,40.9555],[14.6007,40.9558],[14.5983,40.952],[14.5948,40.9398],[14.5912,40.9406],[14.5912,40.9429],[14.5906,40.9428],[14.588,40.9381],[14.5885,40.9336],[14.5853,40.934],[14.5834,40.9459],[14.5803,40.9561],[14.5816,40.9586],[14.5783,40.9634],[14.5767,40.963],[14.5782,40.9672],[14.5814,40.9828],[14.5811,40.9933],[14.5748,41.0002],[14.5737,41.0023],[14.5741,41.0044],[14.5767,41.0026],[14.5838,41.0038],[14.5942,41.0021],[14.6224,40.994],[14.6318,40.9922],[14.643,40.9918],[14.652,40.9888],[14.6518,40.9865],[14.6573,40.9846]]]}},{"type":"Feature","properties":{"i":"064008","n":"Avellino"},"geometry":{"type":"Polygon","coordinates":[[[14.828,40.9352],[14.8272,40.9352],[14.8249,40.9313],[14.8251,40.9222],[14.8225,40.919],[14.818,40.9168],[14.8133,40.9128],[14.8095,40.9065],[14.8094,40.9042],[14.8103,40.9033],[14.8091,40.9002],[14.7977,40.8856],[14.7964,40.8836],[14.7964,40.882],[14.7929,40.8829],[14.7888,40.8855],[14.7834,40.8866],[14.7792,40.885],[14.7797,40.8824],[14.7765,40.8799],[14.7532,40.8811],[14.7507,40.8834],[14.7475,40.8886],[14.7489,40.8908],[14.7639,40.9013],[14.768,40.9061],[14.7678,40.9069],[14.7629,40.9085],[14.7589,40.914],[14.7563,40.9197],[14.7575,40.9236],[14.7591,40.9254],[14.7612,40.9258],[14.7605,40.9317],[14.7663,40.9369],[14.7718,40.9371],[14.7844,40.9409],[14.7934,40.9366],[14.7938,40.9396],[14.793,40.9423],[14.7962,40.9456],[14.8,40.9455],[14.8067,40.9416],[14.8104,40.941],[14.8176,40.9412],[14.8269,40.9438],[14.8305,40.9459],[14.828,40.9352]]]}},{"type":"Feature","properties":{"i":"064009","n":"Bagnoli Irpino"},"geometry":{"type":"Polygon","coordinates":[[[15.1448,40.8323],[15.1472,40.8298],[15.1532,40.8182],[15.1568,40.8157],[15.161,40.8145],[15.1593,40.8091],[15.1524,40.8066],[15.1404,40.8051],[15.1399,40.8045],[15.1398,40.7974],[15.1414,40.7883],[15.1362,40.7841],[15.1311,40.7814],[15.1281,40.7756],[15.136,40.7679],[15.1323,40.7611],[15.1279,40.7607],[15.0964,40.7664],[15.0766,40.7712],[15.0636,40.7724],[15.056,40.7742],[15.0535,40.7752],[15.0462,40.7838],[15.0457,40.7885],[15.0525,40.7969],[15.0488,40.8083],[15.0453,40.8124],[15.0434,40.8166],[15.0487,40.8206],[15.0503,40.8287],[15.0473,40.8333],[15.0478,40.8384],[15.0525,40.8386],[15.0561,40.8398],[15.0643,40.8446],[15.0676,40.8505],[15.0719,40.8528],[15.075,40.8518],[15.0796,40.8519],[15.0823,40.8545],[15.079,40.8587],[15.0841,40.8584],[15.0878,40.8566],[15.101,40.8525],[15.1042,40.8499],[15.1079,40.8451],[15.1177,40.8389],[15.1362,40.8336],[15.1448,40.8323]]]}},{"type":"Feature","properties":{"i":"064010","n":"Baiano"},"geometry":{"type":"MultiPolygon","coordinates":[[[[14.626,40.9465],[14.6237,40.9459],[14.6234,40.943],[14.6281,40.9386],[14.6282,40.9306],[14.6275,40.9272],[14.6251,40.923],[14.6248,40.9209],[14.6297,40.9239],[14.6315,40.927],[14.6319,40.9304],[14.6376,40.9334],[14.6499,40.9323],[14.6511,40.9311],[14.6556,40.9215],[14.6579,40.9185],[14.6634,40.9149],[14.662,40.9137],[14.6575,40.9125],[14.6391,40.9145],[14.626,40.9131],[14.6207,40.9117],[14.6172,40.9178],[14.6161,40.9228],[14.6168,40.9265],[14.6146,40.9284],[14.6105,40.9294],[14.6107,40.933],[14.6089,40.9446],[14.6106,40.9523],[14.6101,40.9555],[14.6204,40.9599],[14.6231,40.9565],[14.6227,40.9511],[14.6235,40.9486],[14.626,40.9465]]],[[[14.6448,40.9713],[14.6526,40.9645],[14.6524,40.9619],[14.6491,40.9605],[14.6367,40.962],[14.6205,40.9732],[14.6448,40.9713]]]]}},{"type":"Feature","properties":{"i":"064011","n":"Bisaccia"},"geometry":{"type":"Polygon","coordinates":[[[15.4316,40.9966],[15.4335,40.9925],[15.4334,40.9909],[15.4306,40.9806],[15.4373,40.9703],[15.4384,40.9676],[15.4379,40.9662],[15.4286,40.9708],[15.4269,40.9753],[15.4225,40.9778],[15.4191,40.9755],[15.4087,40.9643],[15.4077,40.9618],[15.4086,40.9566],[15.4044,40.9481],[15.3935,40.9461],[15.3855,40.947],[15.376,40.9509],[15.375,40.9506],[15.3563,40.9641],[15.3499,40.9697],[15.3447,40.9726],[15.3422,40.9731],[15.3399,40.9717],[15.3352,40.9708],[15.3156,40.9711],[15.3051,40.9743],[15.2992,40.9776],[15.2975,40.9774],[15.295,40.9836],[15.2965,40.9886],[15.2983,40.9888],[15.3055,40.9928],[15.3087,40.996],[15.3106,41.0179],[15.315,41.0395],[15.3169,41.0441],[15.3244,41.0567],[15.3257,41.0606],[15.333,41.0695],[15.3377,41.0737],[15.3376,41.0754],[15.3496,41.0808],[15.3517,41.0788],[15.366,41.0709],[15.3739,41.0653],[15.385,41.0529],[15.4032,41.0344],[15.4172,41.0166],[15.426,41.0024],[15.4316,40.9966]]]}},{"type":"Feature","properties":{"i":"064012","n":"Bonito"},"geometry":{"type":"Polygon","coordinates":[[[15.0149,41.0785],[15.013,41.0697],[14.9756,41.0706],[14.9696,41.0698],[14.9606,41.0714],[14.9494,41.0771],[14.9452,41.0802],[14.9469,41.086],[14.9512,41.0883],[14.9647,41.0896],[14.9726,41.0926],[14.9882,41.1058],[14.9978,41.1102],[15.0109,41.1181],[15.0142,41.1154],[15.0181,41.1046],[15.0169,41.0993],[15.0099,41.0927],[15.0104,41.0889],[15.0136,41.0881],[15.0195,41.081],[15.0149,41.0785]]]}},{"type":"Feature","properties":{"i":"064013","n":"Cairano"},"geometry":{"type":"Polygon","coordinates":[[[15.3651,40.9123],[15.3687,40.9071],[15.3853,40.9035],[15.397,40.8993],[15.4011,40.8961],[15.4051,40.8808],[15.4021,40.8815],[15.401,40.8805],[15.4009,40.8789],[15.3881,40.8756],[15.3836,40.8765],[15.3796,40.8807],[15.3726,40.8857],[15.3511,40.8827],[15.3465,40.9007],[15.3461,40.9015],[15.3422,40.902],[15.34,40.9042],[15.3402,40.9108],[15.3484,40.9144],[15.3619,40.9135],[15.3651,40.9123]]]}},{"type":"Feature","properties":{"i":"064014","n":"Calabritto"},"geometry":{"type":"Polygon","coordinates":[[[15.2631,40.7904],[15.2605,40.7903],[15.2518,40.7865],[15.2414,40.7756],[15.239,40.77],[15.2389,40.7574],[15.2418,40.7423],[15.2421,40.7371],[15.2409,40.7349],[15.2423,40.7297],[15.2376,40.7279],[15.2315,40.7294],[15.2259,40.7359],[15.2232,40.7451],[15.2248,40.7513],[15.2232,40.759],[15.2126,40.7589],[15.1975,40.763],[15.1921,40.7663],[15.188,40.7676],[15.1863,40.7671],[15.1838,40.7641],[15.1767,40.7526],[15.1718,40.7507],[15.1457,40.7328],[15.1397,40.7564],[15.1355,40.757],[15.1323,40.7611],[15.136,40.7679],[15.1281,40.7756],[15.1311,40.7814],[15.1362,40.7841],[15.1414,40.7883],[15.1398,40.7974],[15.1404,40.8051],[15.1524,40.8066],[15.1587,40.8089],[15.161,40.8145],[15.1773,40.8039],[15.1819,40.8039],[15.1882,40.8055],[15.209,40.8048],[15.2224,40.8027],[15.2393,40.7972],[15.2616,40.7923],[15.2631,40.7904]],[[15.2331,40.7551],[15.2344,40.7549],[15.2347,40.7557],[15.2334,40.756],[15.2331,40.7551]],[[15.2365,40.7484],[15.2373,40.7485],[15.2376,40.7493],[15.2363,40.7493],[15.2365,40.7484]],[[15.2253,40.7475],[15.2255,40.7467],[15.228,40.7474],[15.2276,40.7484],[15.2253,40.7475]],[[15.236,40.7461],[15.2363,40.7456],[15.2383,40.7465],[15.2379,40.7474],[15.2357,40.7466],[15.236,40.7461]],[[15.2396,40.7445],[15.2397,40.7436],[15.2406,40.7437],[15.2403,40.7446],[15.2396,40.7445]]]}},{"type":"Feature","properties":{"i":"064015","n":"Calitri"},"geometry":{"type":"Polygon","coordinates":[[[15.4384,40.9676],[15.4464,40.9656],[15.4503,40.9604],[15.4499,40.9552],[15.4555,40.9539],[15.4594,40.9551],[15.474,40.9718],[15.4785,40.9718],[15.4822,40.9706],[15.4944,40.9619],[15.4955,40.9544],[15.4978,40.9488],[15.5012,40.9461],[15.5155,40.9387],[15.5348,40.9317],[15.5393,40.9318],[15.5347,40.9246],[15.5349,40.9197],[15.5322,40.918],[15.5285,40.9138],[15.5283,40.9101],[15.5267,40.9076],[15.5026,40.9018],[15.4979,40.8991],[15.4676,40.8896],[15.4675,40.8869],[15.4697,40.8789],[15.473,40.8743],[15.4724,40.8733],[15.4684,40.8722],[15.4613,40.8673],[15.4569,40.8673],[15.4537,40.8682],[15.4498,40.8728],[15.4441,40.877],[15.4411,40.8763],[15.4287,40.8796],[15.4051,40.8808],[15.4011,40.8961],[15.397,40.8993],[15.3853,40.9035],[15.3693,40.9069],[15.3669,40.9089],[15.3622,40.9178],[15.3624,40.9222],[15.3638,40.926],[15.371,40.9313],[15.375,40.9434],[15.3756,40.9469],[15.375,40.9506],[15.376,40.9509],[15.3855,40.947],[15.3894,40.9463],[15.3935,40.9461],[15.4042,40.9479],[15.4086,40.9566],[15.4077,40.9618],[15.4087,40.9643],[15.4191,40.9755],[15.4225,40.9778],[15.4269,40.9753],[15.4286,40.9708],[15.4379,40.9662],[15.4384,40.9676]]]}},{"type":"Feature","properties":{"i":"064016","n":"Candida"},"geometry":{"type":"Polygon","coordinates":[[[14.8959,40.947],[14.8901,40.9388],[14.8844,40.9367],[14.8821,40.9374],[14.8722,40.9373],[14.8713,40.9348],[14.8685,40.9343],[14.8647,40.936],[14.8588,40.9393],[14.8638,40.9422],[14.8623,40.9439],[14.8597,40.9434],[14.8566,40.9448],[14.8566,40.9461],[14.8608,40.9523],[14.8614,40.9581],[14.8602,40.9613],[14.8604,40.9653],[14.8784,40.9521],[14.8869,40.9478],[14.8959,40.947]]]}},{"type":"Feature","properties":{"i":"064017","n":"Caposele"},"geometry":{"type":"Polygon","coordinates":[[[15.2777,40.8456],[15.2955,40.8381],[15.2864,40.8222],[15.2813,40.8044],[15.2807,40.7995],[15.2778,40.7969],[15.2677,40.794],[15.2631,40.7904],[15.2616,40.7923],[15.2393,40.7972],[15.2224,40.8027],[15.209,40.8048],[15.1882,40.8055],[15.1819,40.8039],[15.1773,40.8039],[15.161,40.8145],[15.1699,40.824],[15.1733,40.8245],[15.2018,40.8213],[15.2092,40.8229],[15.2085,40.827],[15.2007,40.8302],[15.1981,40.8341],[15.2055,40.843],[15.2071,40.8438],[15.2332,40.8464],[15.239,40.8452],[15.2393,40.8443],[15.2548,40.8376],[15.2646,40.8389],[15.2679,40.8405],[15.2711,40.8436],[15.2777,40.8456]]]}},{"type":"Feature","properties":{"i":"064018","n":"Capriglia Irpina"},"geometry":{"type":"Polygon","coordinates":[[[14.8,40.9455],[14.7962,40.9456],[14.793,40.9423],[14.7938,40.9396],[14.7934,40.9366],[14.7844,40.9409],[14.7819,40.9467],[14.7711,40.9488],[14.7636,40.952],[14.7646,40.9563],[14.7599,40.9561],[14.7558,40.9573],[14.753,40.9601],[14.7575,40.9625],[14.7702,40.9744],[14.7778,40.9693],[14.7946,40.9602],[14.8,40.9455]]]}},{"type":"Feature","properties":{"i":"064019","n":"Carife"},"geometry":{"type":"Polygon","coordinates":[[[15.2404,41.0287],[15.2417,41.0249],[15.241,41.0162],[15.2376,41.0072],[15.2368,41.0021],[15.2373,40.9997],[15.2204,40.9995],[15.217,41.0002],[15.2122,41.0037],[15.2062,41.0048],[15.2001,41.0038],[15.1945,41.0056],[15.1852,41.0132],[15.1746,41.0177],[15.1706,41.0211],[15.1735,41.0208],[15.1797,41.0224],[15.1834,41.0246],[15.1887,41.0293],[15.201,41.0362],[15.2032,41.0362],[15.2031,41.0346],[15.2061,41.0351],[15.2092,41.0404],[15.2171,41.037],[15.2207,41.0332],[15.2265,41.0318],[15.2316,41.0334],[15.2365,41.0329],[15.2404,41.0287]]]}},{"type":"Feature","properties":{"i":"064020","n":"Casalbore"},"geometry":{"type":"Polygon","coordinates":[[[15.051,41.2582],[15.0493,41.2531],[15.0496,41.2497],[15.0425,41.2271],[15.0366,41.2215],[15.0191,41.2109],[15.0049,41.2082],[15.0017,41.2117],[15.0018,41.216],[14.9992,41.2219],[14.9879,41.2319],[14.9862,41.2349],[14.9846,41.239],[14.9842,41.2534],[14.981,41.2613],[14.9825,41.2663],[14.9861,41.2711],[14.992,41.2714],[15.0024,41.2704],[15.0091,41.271],[15.0088,41.2694],[15.0203,41.2628],[15.0262,41.2621],[15.0347,41.2642],[15.0469,41.262],[15.0501,41.2599],[15.051,41.2582]]]}},{"type":"Feature","properties":{"i":"064021","n":"Cassano Irpino"},"geometry":{"type":"Polygon","coordinates":[[[15.0597,40.8741],[15.0592,40.8716],[15.0548,40.8682],[15.0439,40.8676],[15.0386,40.8714],[15.0386,40.8734],[15.0356,40.8736],[15.033,40.8722],[15.0297,40.8668],[15.0304,40.8602],[15.0289,40.8602],[15.0023,40.8669],[14.9987,40.8701],[14.9987,40.8716],[14.9995,40.8719],[14.9989,40.8796],[14.9972,40.8838],[14.9981,40.8861],[15.0015,40.8884],[15.0121,40.8922],[15.0194,40.8929],[15.0232,40.8905],[15.0269,40.8898],[15.0333,40.8911],[15.0373,40.8933],[15.0414,40.8903],[15.0611,40.885],[15.0591,40.8802],[15.0562,40.8759],[15.0597,40.8741]]]}},{"type":"Feature","properties":{"i":"064022","n":"Castel Baronia"},"geometry":{"type":"Polygon","coordinates":[[[15.2092,41.0404],[15.2061,41.0351],[15.2031,41.0346],[15.2032,41.0362],[15.201,41.0362],[15.1887,41.0293],[15.1818,41.0235],[15.1777,41.0216],[15.1735,41.0208],[15.1706,41.0211],[15.1599,41.0312],[15.1479,41.0342],[15.1441,41.0387],[15.1433,41.0412],[15.1538,41.0449],[15.1611,41.0493],[15.1696,41.0558],[15.1754,41.0667],[15.1815,41.0699],[15.1913,41.0685],[15.1972,41.0639],[15.197,41.0627],[15.1938,41.0612],[15.191,41.0585],[15.1948,41.0524],[15.1997,41.0503],[15.2092,41.0404]]]}},{"type":"Feature","properties":{"i":"064023","n":"Castelfranci"},"geometry":{"type":"Polygon","coordinates":[[[15.0639,40.9258],[15.0697,40.9247],[15.0839,40.9133],[15.0837,40.9067],[15.0788,40.9041],[15.0687,40.9061],[15.0573,40.9054],[15.042,40.8972],[15.0413,40.8991],[15.0416,40.9043],[15.0386,40.9259],[15.0399,40.9352],[15.0369,40.9431],[15.04,40.9516],[15.046,40.9495],[15.047,40.9503],[15.0483,40.9494],[15.0511,40.9464],[15.0564,40.9313],[15.0639,40.9258]]]}},{"type":"Feature","properties":{"i":"064024","n":"Castelvetere sul Calore"},"geometry":{"type":"Polygon","coordinates":[[[15.0017,40.9605],[15.002,40.9586],[15.0162,40.9507],[15.0139,40.9495],[15.0035,40.9376],[14.9992,40.9351],[14.9919,40.9244],[14.9824,40.918],[14.9745,40.9188],[14.9674,40.9088],[14.9543,40.9014],[14.9542,40.9002],[14.9565,40.8996],[14.956,40.8957],[14.9522,40.8941],[14.9471,40.8944],[14.9456,40.8959],[14.9454,40.9008],[14.9471,40.908],[14.9496,40.9309],[14.9542,40.9285],[14.9556,40.9271],[14.9556,40.925],[14.9572,40.923],[14.9684,40.92],[14.9707,40.921],[14.9724,40.9238],[14.9715,40.9262],[14.9662,40.9327],[14.9535,40.9403],[14.9607,40.9384],[14.9635,40.9387],[14.9675,40.9412],[14.9702,40.9458],[14.9727,40.9484],[14.9816,40.954],[14.9853,40.9585],[14.9945,40.9612],[15.0017,40.9605]]]}},{"type":"Feature","properties":{"i":"064025","n":"Cervinara"},"geometry":{"type":"Polygon","coordinates":[[[14.6401,41.0425],[14.6466,41.0386],[14.65,41.0316],[14.6494,41.0258],[14.6522,41.0137],[14.6552,41.0079],[14.6579,41.0059],[14.6641,41.005],[14.6679,41.0036],[14.6724,40.9979],[14.6711,40.9963],[14.6688,40.9952],[14.6612,40.9953],[14.6579,40.9901],[14.6573,40.9846],[14.6518,40.9865],[14.652,40.9888],[14.643,40.9918],[14.6318,40.9922],[14.6224,40.994],[14.5942,41.0021],[14.5838,41.0038],[14.5767,41.0026],[14.5741,41.0044],[14.5761,41.0106],[14.5784,41.0139],[14.5932,41.0199],[14.5997,41.0252],[14.606,41.0365],[14.6082,41.0429],[14.6172,41.0505],[14.6189,41.0491],[14.6379,41.0449],[14.6401,41.0425]]]}},{"type":"Feature","properties":{"i":"064026","n":"Cesinali"},"geometry":{"type":"Polygon","coordinates":[[[14.8568,40.9012],[14.8519,40.8949],[14.8473,40.8922],[14.8447,40.8891],[14.8334,40.886],[14.8254,40.8887],[14.8239,40.8909],[14.8243,40.9008],[14.8272,40.905],[14.8309,40.9082],[14.8342,40.9064],[14.8368,40.9022],[14.8406,40.8998],[14.8484,40.9003],[14.8533,40.9029],[14.8556,40.9029],[14.8568,40.9012]]]}},{"type":"Feature","properties":{"i":"064027","n":"Chianche"},"geometry":{"type":"Polygon","coordinates":[[[14.806,41.0588],[14.8071,41.0484],[14.8057,41.0446],[14.8063,41.0408],[14.8073,41.0406],[14.8068,41.039],[14.8002,41.0381],[14.7959,41.0386],[14.7815,41.0336],[14.7805,41.0321],[14.7839,41.0201],[14.7825,41.018],[14.7703,41.0232],[14.7765,41.0408],[14.7765,41.0427],[14.7745,41.0446],[14.7747,41.0546],[14.7915,41.0482],[14.7958,41.0503],[14.7957,41.0577],[14.7941,41.0582],[14.7968,41.0603],[14.806,41.0588]]]}},{"type":"Feature","properties":{"i":"064028","n":"Chiusano di San Domenico"},"geometry":{"type":"Polygon","coordinates":[[[14.9535,40.9403],[14.9662,40.9327],[14.9715,40.9262],[14.9724,40.9238],[14.9707,40.921],[14.9684,40.92],[14.9572,40.923],[14.9556,40.925],[14.9556,40.9271],[14.9542,40.9285],[14.9496,40.9309],[14.9471,40.908],[14.9459,40.9034],[14.9268,40.8984],[14.9209,40.9003],[14.9199,40.9013],[14.9199,40.9043],[14.912,40.9163],[14.9061,40.9223],[14.8994,40.9261],[14.8988,40.9315],[14.9006,40.9397],[14.9005,40.9426],[14.8996,40.9439],[14.9187,40.9585],[14.9246,40.9606],[14.9346,40.959],[14.9376,40.9592],[14.9392,40.9616],[14.9392,40.9586],[14.9417,40.9548],[14.9433,40.9534],[14.9444,40.9536],[14.9517,40.9477],[14.9535,40.9403]]]}},{"type":"Feature","properties":{"i":"064029","n":"Contrada"},"geometry":{"type":"Polygon","coordinates":[[[14.7964,40.882],[14.7934,40.8769],[14.795,40.8696],[14.8106,40.859],[14.8147,40.8586],[14.8126,40.8571],[14.8024,40.8593],[14.7902,40.86],[14.7873,40.8589],[14.7754,40.8513],[14.7694,40.854],[14.7628,40.8539],[14.7604,40.8557],[14.7579,40.8614],[14.7624,40.8657],[14.7633,40.8682],[14.7628,40.8734],[14.7516,40.8744],[14.7481,40.876],[14.7479,40.8767],[14.7529,40.8811],[14.7765,40.8799],[14.7797,40.8824],[14.7792,40.885],[14.7822,40.8864],[14.7888,40.8855],[14.7929,40.8829],[14.7964,40.882]]]}},{"type":"Feature","properties":{"i":"064030","n":"Conza della Campania"},"geometry":{"type":"Polygon","coordinates":[[[15.3402,40.9108],[15.34,40.9042],[15.3422,40.902],[15.3461,40.9015],[15.3465,40.9007],[15.3511,40.8827],[15.3542,40.8827],[15.3535,40.876],[15.3545,40.8722],[15.3549,40.8712],[15.357,40.8701],[15.3515,40.8636],[15.3551,40.8554],[15.3533,40.8377],[15.3494,40.8364],[15.335,40.8349],[15.3331,40.8331],[15.3307,40.8324],[15.3284,40.833],[15.3203,40.8382],[15.3108,40.8395],[15.299,40.8391],[15.2955,40.8381],[15.2777,40.8456],[15.2825,40.8548],[15.2831,40.858],[15.282,40.861],[15.2594,40.8842],[15.2635,40.8854],[15.2706,40.8857],[15.2856,40.9036],[15.2931,40.9105],[15.2951,40.9098],[15.3023,40.9109],[15.3157,40.9145],[15.327,40.9163],[15.3381,40.9139],[15.3399,40.9123],[15.3402,40.9108]]]}},{"type":"Feature","properties":{"i":"064031","n":"Domicella"},"geometry":{"type":"Polygon","coordinates":[[[14.6128,40.8888],[14.611,40.8858],[14.6078,40.8839],[14.6032,40.8793],[14.599,40.8724],[14.5965,40.8651],[14.5972,40.8579],[14.5963,40.8568],[14.5871,40.8726],[14.5784,40.8784],[14.5595,40.888],[14.5677,40.8922],[14.5715,40.8864],[14.5747,40.884],[14.5816,40.8888],[14.5915,40.8925],[14.5923,40.895],[14.596,40.8952],[14.5994,40.895],[14.6021,40.8935],[14.602,40.8908],[14.6063,40.8893],[14.6128,40.8888]]]}},{"type":"Feature","properties":{"i":"064032","n":"Flumeri"},"geometry":{"type":"Polygon","coordinates":[[[15.2128,41.1015],[15.211,41.0973],[15.1975,41.0872],[15.1868,41.0821],[15.1829,41.0814],[15.1826,41.078],[15.1777,41.0745],[15.1758,41.0711],[15.1754,41.0667],[15.169,41.0553],[15.1578,41.047],[15.1538,41.0449],[15.1435,41.0417],[15.1315,41.0502],[15.1307,41.0527],[15.129,41.0546],[15.1249,41.0541],[15.1153,41.0592],[15.1131,41.0627],[15.1053,41.0694],[15.1043,41.0698],[15.1024,41.0688],[15.0913,41.0782],[15.088,41.0826],[15.0854,41.0834],[15.1003,41.0893],[15.1139,41.0923],[15.1197,41.0904],[15.1212,41.0878],[15.1259,41.0859],[15.1382,41.0906],[15.141,41.0925],[15.1587,41.0939],[15.1684,41.0976],[15.1838,41.1048],[15.1862,41.1026],[15.1914,41.1019],[15.2027,41.104],[15.2128,41.1015]]]}},{"type":"Feature","properties":{"i":"064033","n":"Fontanarosa"},"geometry":{"type":"Polygon","coordinates":[[[15.0421,41.035],[15.0556,41.0317],[15.0501,41.0291],[15.0475,41.0216],[15.0481,41.0185],[15.0349,40.9983],[15.0303,40.9885],[15.0109,40.9846],[15.0041,40.9943],[15.0018,41.0073],[15.007,41.0142],[15.0004,41.0219],[14.9964,41.0208],[14.9932,41.0234],[14.9962,41.0272],[15.007,41.0304],[15.0157,41.0298],[15.0232,41.0318],[15.0265,41.0337],[15.0421,41.035]]]}},{"type":"Feature","properties":{"i":"064034","n":"Forino"},"geometry":{"type":"Polygon","coordinates":[[[14.7694,40.854],[14.7712,40.8515],[14.7701,40.8491],[14.7642,40.8458],[14.7358,40.8363],[14.7342,40.8395],[14.7298,40.8409],[14.723,40.8386],[14.7068,40.8385],[14.7027,40.8526],[14.6988,40.8572],[14.7028,40.8626],[14.7034,40.8619],[14.7061,40.865],[14.7045,40.8723],[14.7089,40.8722],[14.7137,40.8743],[14.7171,40.8789],[14.723,40.8793],[14.7439,40.8774],[14.7498,40.8781],[14.7479,40.8767],[14.7504,40.8747],[14.7628,40.8734],[14.7633,40.8682],[14.7624,40.8657],[14.7579,40.8614],[14.7608,40.8552],[14.7628,40.8539],[14.7694,40.854]]]}},{"type":"Feature","properties":{"i":"064035","n":"Frigento"},"geometry":{"type":"MultiPolygon","coordinates":[[[[15.1852,41.0132],[15.1834,41.0061],[15.1707,40.9903],[15.1638,40.9799],[15.161,40.98],[15.1555,40.9825],[15.1518,41.0072],[15.1746,41.0177],[15.1852,41.0132]]],[[[15.1315,41.0502],[15.127,41.0428],[15.122,41.0366],[15.1163,41.0365],[15.1089,41.0384],[15.1055,41.0355],[15.0995,41.0234],[15.1007,41.0194],[15.1096,41.0157],[15.1231,41.0181],[15.1323,41.0155],[15.1461,41.0019],[15.1514,40.9878],[15.1488,40.9839],[15.147,40.9837],[15.1428,40.9813],[15.1332,40.9731],[15.1285,40.974],[15.127,40.9764],[15.1239,40.9785],[15.102,40.9827],[15.0936,40.9859],[15.0945,40.9875],[15.0908,40.9976],[15.086,40.9987],[15.081,41.015],[15.0811,41.0196],[15.0844,41.0212],[15.0843,41.0317],[15.086,41.0363],[15.0876,41.0368],[15.0913,41.0413],[15.0968,41.0502],[15.0934,41.0514],[15.0899,41.0513],[15.0929,41.0569],[15.1013,41.0617],[15.1044,41.066],[15.1024,41.0688],[15.1043,41.0698],[15.1053,41.0694],[15.1131,41.0627],[15.1153,41.0592],[15.1249,41.0541],[15.129,41.0546],[15.1307,41.0527],[15.1315,41.0502]]]]}},{"type":"Feature","properties":{"i":"064036","n":"Gesualdo"},"geometry":{"type":"Polygon","coordinates":[[[15.0899,41.0513],[15.0934,41.0514],[15.0968,41.0502],[15.0913,41.0413],[15.0876,41.0368],[15.086,41.0363],[15.0843,41.0317],[15.0844,41.0212],[15.0811,41.0196],[15.081,41.015],[15.086,40.9987],[15.0908,40.9976],[15.0945,40.9875],[15.0936,40.9859],[15.0902,40.987],[15.0876,40.9817],[15.0822,40.9772],[15.0646,40.97],[15.0595,40.9711],[15.0501,40.9792],[15.0303,40.9885],[15.0349,40.9983],[15.0481,41.0185],[15.0475,41.0216],[15.0501,41.0291],[15.0665,41.0376],[15.0793,41.0503],[15.0847,41.0523],[15.0899,41.0513]]]}},{"type":"Feature","properties":{"i":"064037","n":"Greci"},"geometry":{"type":"Polygon","coordinates":[[[15.201,41.2863],[15.1984,41.2819],[15.1997,41.2794],[15.2044,41.2773],[15.208,41.2768],[15.2128,41.2774],[15.2157,41.2759],[15.2204,41.2652],[15.213,41.2643],[15.2041,41.2595],[15.1995,41.2553],[15.1996,41.254],[15.2022,41.2516],[15.205,41.2442],[15.2059,41.2391],[15.1858,41.2415],[15.1829,41.2412],[15.1753,41.2377],[15.1613,41.2297],[15.152,41.2325],[15.1353,41.2324],[15.1339,41.2361],[15.1385,41.2433],[15.1393,41.2548],[15.1382,41.2588],[15.1381,41.2648],[15.1459,41.2725],[15.1502,41.2827],[15.1755,41.2843],[15.186,41.2859],[15.201,41.2863]]]}},{"type":"Feature","properties":{"i":"064038","n":"Grottaminarda"},"geometry":{"type":"Polygon","coordinates":[[[15.0854,41.0834],[15.088,41.0826],[15.0913,41.0782],[15.1024,41.0688],[15.1044,41.066],[15.1013,41.0617],[15.0929,41.0569],[15.0899,41.0513],[15.0847,41.0523],[15.0793,41.0503],[15.0665,41.0376],[15.0556,41.0317],[15.0421,41.035],[15.0426,41.0382],[15.0382,41.0467],[15.026,41.0591],[15.0255,41.0636],[15.0269,41.0665],[15.0267,41.0678],[15.0245,41.0689],[15.013,41.0697],[15.0149,41.0785],[15.0187,41.0779],[15.025,41.079],[15.0372,41.0833],[15.0435,41.0876],[15.0532,41.0908],[15.0574,41.0939],[15.0584,41.0988],[15.0598,41.1008],[15.0659,41.1031],[15.0664,41.0999],[15.065,41.0891],[15.0721,41.0814],[15.0766,41.0809],[15.0854,41.0834]]]}},{"type":"Feature","properties":{"i":"064039","n":"Grottolella"},"geometry":{"type":"Polygon","coordinates":[[[14.8016,40.9803],[14.8048,40.9773],[14.8012,40.9598],[14.8069,40.9509],[14.8059,40.9426],[14.8,40.9455],[14.7946,40.9602],[14.7729,40.9722],[14.7702,40.9744],[14.7637,40.9853],[14.7649,40.9882],[14.7666,40.9901],[14.7819,40.9838],[14.7965,40.9794],[14.8016,40.9803]]]}},{"type":"Feature","properties":{"i":"064040","n":"Guardia Lombardi"},"geometry":{"type":"Polygon","coordinates":[[[15.2373,40.9997],[15.2386,40.9983],[15.2481,40.9995],[15.2525,41.0008],[15.2552,41.0035],[15.2587,41.0055],[15.2601,41.0054],[15.2688,41.0017],[15.2814,40.9945],[15.2965,40.9886],[15.295,40.9836],[15.2975,40.9774],[15.2992,40.9776],[15.2959,40.974],[15.2883,40.9626],[15.2839,40.9543],[15.275,40.956],[15.2733,40.955],[15.2653,40.9534],[15.2531,40.9522],[15.2421,40.9524],[15.2366,40.9515],[15.2352,40.9511],[15.2326,40.9448],[15.2295,40.9412],[15.2131,40.9385],[15.2043,40.9396],[15.1859,40.95],[15.1834,40.9529],[15.1849,40.9577],[15.1808,40.977],[15.1707,40.9903],[15.1834,41.0061],[15.1852,41.0132],[15.1945,41.0056],[15.2001,41.0038],[15.2062,41.0048],[15.2122,41.0037],[15.217,41.0002],[15.2204,40.9995],[15.2373,40.9997]]]}},{"type":"Feature","properties":{"i":"064041","n":"Lacedonia"},"geometry":{"type":"Polygon","coordinates":[[[15.5429,41.0559],[15.5463,41.0529],[15.5434,41.0507],[15.5378,41.0509],[15.5349,41.0523],[15.5215,41.053],[15.5089,41.0488],[15.5055,41.046],[15.5037,41.043],[15.5093,41.0288],[15.5075,41.0265],[15.5011,41.0268],[15.4951,41.0241],[15.4847,41.024],[15.4689,41.0213],[15.452,41.0128],[15.4425,41.0048],[15.437,40.9989],[15.4316,40.9966],[15.426,41.0024],[15.4172,41.0166],[15.4032,41.0344],[15.385,41.0529],[15.3739,41.0653],[15.366,41.0709],[15.3517,41.0788],[15.3496,41.0808],[15.3664,41.0849],[15.3708,41.0867],[15.3928,41.1008],[15.3964,41.1068],[15.4008,41.106],[15.4087,41.1009],[15.4124,41.0966],[15.4221,41.0962],[15.4262,41.0951],[15.4432,41.0797],[15.4461,41.078],[15.4512,41.0765],[15.4609,41.076],[15.4687,41.078],[15.4779,41.0786],[15.4788,41.076],[15.4896,41.07],[15.5309,41.0575],[15.5429,41.0559]]]}},{"type":"Feature","properties":{"i":"064042","n":"Lapio"},"geometry":{"type":"Polygon","coordinates":[[[14.9603,40.9881],[14.9681,40.9772],[14.9639,40.9718],[14.9575,40.969],[14.9541,40.9697],[14.9486,40.9731],[14.9455,40.9731],[14.9376,40.9592],[14.9346,40.959],[14.9246,40.9606],[14.9212,40.9596],[14.9177,40.9578],[14.8996,40.9439],[14.8959,40.947],[14.9009,40.9513],[14.9092,40.9544],[14.9116,40.9585],[14.915,40.9672],[14.9137,40.9694],[14.9128,40.975],[14.9152,40.9797],[14.9146,40.9857],[14.9178,40.9901],[14.925,40.9904],[14.932,40.9932],[14.9445,41.0007],[14.9473,41.0047],[14.9533,41.0008],[14.9598,40.9937],[14.9616,40.9897],[14.9603,40.9881]]]}},{"type":"Feature","properties":{"i":"064043","n":"Lauro"},"geometry":{"type":"Polygon","coordinates":[[[14.6492,40.8837],[14.6437,40.8707],[14.6253,40.876],[14.6242,40.8757],[14.6219,40.8717],[14.6167,40.8518],[14.6143,40.8487],[14.6159,40.8457],[14.6055,40.8476],[14.5963,40.8568],[14.5972,40.8579],[14.5965,40.8651],[14.599,40.8724],[14.6032,40.8793],[14.6078,40.8839],[14.6115,40.8863],[14.6128,40.8888],[14.6185,40.8946],[14.624,40.8982],[14.6244,40.9003],[14.6271,40.897],[14.6301,40.891],[14.6298,40.8868],[14.632,40.8824],[14.6359,40.88],[14.6373,40.8806],[14.6386,40.8834],[14.6431,40.8844],[14.6492,40.8837]]]}},{"type":"Feature","properties":{"i":"064044","n":"Lioni"},"geometry":{"type":"Polygon","coordinates":[[[15.2354,40.8932],[15.2438,40.8904],[15.2348,40.8806],[15.2097,40.8605],[15.2085,40.8575],[15.2071,40.8438],[15.2055,40.843],[15.1981,40.8341],[15.2007,40.8302],[15.2085,40.827],[15.2092,40.8229],[15.2018,40.8213],[15.1733,40.8245],[15.1699,40.824],[15.161,40.8145],[15.1568,40.8157],[15.1532,40.8182],[15.1472,40.8298],[15.1448,40.8323],[15.1442,40.8401],[15.1424,40.8414],[15.141,40.8451],[15.1472,40.8573],[15.1572,40.8728],[15.1677,40.8755],[15.169,40.8804],[15.1498,40.8922],[15.1477,40.8944],[15.1551,40.8989],[15.1582,40.8994],[15.1674,40.8932],[15.1746,40.8915],[15.1794,40.8957],[15.1881,40.9055],[15.1929,40.9068],[15.2022,40.9037],[15.2049,40.901],[15.2155,40.8946],[15.2238,40.894],[15.2264,40.8966],[15.2262,40.8971],[15.2292,40.898],[15.2314,40.8972],[15.2354,40.8932]],[[15.1875,40.8986],[15.1846,40.8968],[15.1986,40.8955],[15.2015,40.896],[15.2028,40.8973],[15.2026,40.9004],[15.1974,40.9025],[15.1936,40.9024],[15.1875,40.8986]]]}},{"type":"Feature","properties":{"i":"064045","n":"Luogosano"},"geometry":{"type":"Polygon","coordinates":[[[15.0041,40.9943],[15.0109,40.9846],[15.0027,40.9796],[15.0001,40.9828],[14.9989,40.9829],[14.9879,40.9785],[14.9874,40.9761],[14.9831,40.9748],[14.9739,40.9749],[14.9701,40.9759],[14.9681,40.9772],[14.9603,40.9881],[14.9783,40.9915],[14.9833,40.9955],[14.9843,40.9942],[14.9886,40.9924],[15.001,40.9933],[15.0041,40.9943]]]}},{"type":"Feature","properties":{"i":"064046","n":"Manocalzati"},"geometry":{"type":"Polygon","coordinates":[[[14.8588,40.9393],[14.856,40.9353],[14.8385,40.9208],[14.837,40.9206],[14.8349,40.9222],[14.8315,40.9268],[14.828,40.9352],[14.8305,40.9459],[14.8298,40.9483],[14.8352,40.963],[14.8466,40.9589],[14.8528,40.9582],[14.8557,40.9588],[14.8602,40.9632],[14.8614,40.9581],[14.8608,40.9523],[14.8566,40.9461],[14.8566,40.9448],[14.8597,40.9434],[14.8623,40.9439],[14.8638,40.9422],[14.8588,40.9393]]]}},{"type":"Feature","properties":{"i":"064047","n":"Marzano di Nola"},"geometry":{"type":"Polygon","coordinates":[[[14.5965,40.9106],[14.5909,40.8974],[14.5923,40.895],[14.5915,40.8925],[14.5816,40.8888],[14.5747,40.884],[14.5715,40.8864],[14.5677,40.8922],[14.568,40.8939],[14.5727,40.8962],[14.5762,40.9032],[14.5756,40.9084],[14.5743,40.9091],[14.5834,40.9123],[14.5922,40.9141],[14.5971,40.9143],[14.5975,40.9119],[14.5965,40.9106]]]}},{"type":"Feature","properties":{"i":"064048","n":"Melito Irpino"},"geometry":{"type":"Polygon","coordinates":[[[15.0659,41.1031],[15.0598,41.1008],[15.0584,41.0988],[15.0574,41.0939],[15.0532,41.0908],[15.0435,41.0876],[15.0372,41.0833],[15.025,41.079],[15.0187,41.0779],[15.0149,41.0785],[15.0195,41.081],[15.0136,41.0881],[15.0104,41.0889],[15.0099,41.0927],[15.0169,41.0993],[15.0181,41.1046],[15.0142,41.1154],[15.0109,41.1181],[15.0031,41.1295],[15.0075,41.1322],[15.0191,41.1367],[15.0318,41.1409],[15.034,41.1407],[15.0363,41.1397],[15.0394,41.1365],[15.0423,41.1308],[15.0442,41.1237],[15.0462,41.121],[15.0494,41.1184],[15.0597,41.1139],[15.0659,41.1031]]]}},{"type":"Feature","properties":{"i":"064049","n":"Mercogliano"},"geometry":{"type":"Polygon","coordinates":[[[14.7084,40.9532],[14.7156,40.9508],[14.7273,40.9385],[14.7323,40.9321],[14.7418,40.9276],[14.7449,40.9272],[14.7485,40.9283],[14.7491,40.9294],[14.7604,40.9309],[14.7614,40.928],[14.7612,40.9258],[14.7591,40.9254],[14.7575,40.9236],[14.7563,40.9197],[14.7589,40.914],[14.7629,40.9085],[14.7678,40.9069],[14.7562,40.902],[14.7528,40.9024],[14.7511,40.9034],[14.73,40.9018],[14.7189,40.9049],[14.7062,40.9126],[14.6931,40.9236],[14.6883,40.9252],[14.7012,40.9454],[14.7084,40.9532]]]}},{"type":"Feature","properties":{"i":"064050","n":"Mirabella Eclano"},"geometry":{"type":"Polygon","coordinates":[[[15.013,41.0697],[15.0245,41.0689],[15.0267,41.0678],[15.0269,41.0665],[15.0255,41.0636],[15.026,41.0591],[15.0382,41.0467],[15.0426,41.0382],[15.0421,41.035],[15.0265,41.0337],[15.0232,41.0318],[15.0157,41.0298],[15.007,41.0304],[14.9962,41.0272],[14.9932,41.0234],[14.9865,41.0195],[14.9841,41.0203],[14.9701,41.0306],[14.9703,41.0318],[14.9683,41.0339],[14.9615,41.0367],[14.9532,41.0386],[14.9453,41.0426],[14.9473,41.0565],[14.9463,41.0621],[14.9393,41.0736],[14.9369,41.0788],[14.9375,41.0809],[14.9354,41.084],[14.9452,41.0802],[14.9494,41.0771],[14.9606,41.0714],[14.965,41.0704],[14.9696,41.0698],[14.9756,41.0706],[15.013,41.0697]]]}},{"type":"Feature","properties":{"i":"064051","n":"Montaguto"},"geometry":{"type":"Polygon","coordinates":[[[15.2798,41.2408],[15.2773,41.241],[15.2592,41.2376],[15.2494,41.2372],[15.2462,41.2361],[15.2413,41.2374],[15.2253,41.2364],[15.208,41.2364],[15.206,41.2387],[15.205,41.2442],[15.2022,41.2516],[15.1996,41.254],[15.1995,41.2553],[15.2041,41.2595],[15.2144,41.2648],[15.2285,41.2664],[15.2351,41.2722],[15.2481,41.2712],[15.2537,41.2683],[15.264,41.2575],[15.2741,41.2505],[15.2798,41.2408]]]}},{"type":"Feature","properties":{"i":"064052","n":"Montecalvo Irpino"},"geometry":{"type":"Polygon","coordinates":[[[14.9897,41.1503],[14.9817,41.1515],[14.97,41.1503],[14.965,41.1488],[14.9638,41.1473],[14.962,41.1468],[14.9569,41.1474],[14.96,41.1595],[14.9619,41.1616],[14.9637,41.1667],[14.9633,41.1719],[14.962,41.1754],[14.9625,41.177],[14.9742,41.1829],[14.9769,41.1872],[14.9832,41.1917],[14.9976,41.1986],[14.9993,41.2],[15.0006,41.2049],[15.0049,41.2082],[15.0191,41.2109],[15.0366,41.2215],[15.0425,41.2271],[15.0496,41.2497],[15.0493,41.2531],[15.0504,41.2578],[15.0665,41.2709],[15.067,41.2693],[15.0711,41.2664],[15.0749,41.2621],[15.0791,41.2554],[15.0817,41.2528],[15.0774,41.2459],[15.076,41.2405],[15.0785,41.2362],[15.0757,41.2248],[15.0741,41.2136],[15.076,41.2046],[15.074,41.199],[15.0671,41.1938],[15.0617,41.1934],[15.0535,41.1903],[15.0498,41.1833],[15.0425,41.1739],[15.0362,41.1712],[15.0201,41.1689],[15.0053,41.1623],[14.9952,41.1554],[14.9932,41.1547],[14.9905,41.1524],[14.9897,41.1503]]]}},{"type":"Feature","properties":{"i":"064053","n":"Montefalcione"},"geometry":{"type":"Polygon","coordinates":[[[14.9152,40.9797],[14.9128,40.975],[14.9137,40.9694],[14.915,40.9677],[14.9148,40.9653],[14.9092,40.9544],[14.9009,40.9513],[14.8954,40.9468],[14.8869,40.9478],[14.8784,40.9521],[14.8666,40.9603],[14.8604,40.9653],[14.8599,40.9684],[14.8575,40.9739],[14.8555,40.9762],[14.8575,40.9784],[14.8617,40.9806],[14.871,40.9816],[14.8769,40.9841],[14.8822,40.988],[14.8808,40.9911],[14.8868,40.9889],[14.8932,40.9839],[14.9004,40.9818],[14.9152,40.9797]]]}},{"type":"Feature","properties":{"i":"064054","n":"Monteforte Irpino"},"geometry":{"type":"Polygon","coordinates":[[[14.6883,40.9252],[14.6931,40.9236],[14.7062,40.9126],[14.7189,40.9049],[14.73,40.9018],[14.7511,40.9034],[14.7528,40.9024],[14.7562,40.902],[14.7678,40.9069],[14.768,40.9061],[14.7639,40.9013],[14.7481,40.89],[14.7475,40.8886],[14.7529,40.8811],[14.7498,40.8781],[14.7439,40.8774],[14.7339,40.8786],[14.7179,40.8791],[14.7166,40.8784],[14.7137,40.8743],[14.7089,40.8722],[14.7045,40.8723],[14.6982,40.8802],[14.6929,40.885],[14.6867,40.8876],[14.6832,40.8874],[14.6827,40.8896],[14.6793,40.8924],[14.6697,40.9049],[14.6645,40.9152],[14.6571,40.9235],[14.6541,40.93],[14.6613,40.9325],[14.6665,40.9317],[14.6729,40.9292],[14.6849,40.9266],[14.6883,40.9252]]]}},{"type":"Feature","properties":{"i":"064055","n":"Montefredane"},"geometry":{"type":"Polygon","coordinates":[[[14.8381,40.9698],[14.8298,40.9483],[14.8305,40.9459],[14.8269,40.9438],[14.8176,40.9412],[14.8096,40.941],[14.8061,40.9419],[14.8069,40.9509],[14.8012,40.9598],[14.8048,40.9773],[14.8102,40.9795],[14.8142,40.9794],[14.83,40.9724],[14.8381,40.9698]]]}},{"type":"Feature","properties":{"i":"064056","n":"Montefusco"},"geometry":{"type":"Polygon","coordinates":[[[14.8885,41.029],[14.8861,41.0291],[14.8827,41.0263],[14.8767,41.018],[14.8757,41.0197],[14.8618,41.0254],[14.8476,41.0293],[14.8319,41.03],[14.8293,41.0351],[14.8327,41.0347],[14.8432,41.0433],[14.8468,41.0453],[14.8478,41.0477],[14.8573,41.0456],[14.8599,41.0438],[14.8658,41.0416],[14.8723,41.0422],[14.8744,41.0471],[14.8811,41.0432],[14.8817,41.0414],[14.8805,41.0384],[14.8814,41.0342],[14.8852,41.0324],[14.8882,41.0301],[14.8885,41.029]]]}},{"type":"Feature","properties":{"i":"064057","n":"Montella"},"geometry":{"type":"Polygon","coordinates":[[[15.0597,40.8741],[15.0816,40.8718],[15.0811,40.8621],[15.079,40.8587],[15.0823,40.8545],[15.0791,40.8518],[15.075,40.8518],[15.0719,40.8528],[15.0676,40.8505],[15.0643,40.8446],[15.0561,40.8398],[15.0525,40.8386],[15.0478,40.8384],[15.0473,40.8333],[15.0503,40.8287],[15.0487,40.8206],[15.0434,40.8166],[15.0453,40.8124],[15.0488,40.8083],[15.0525,40.7969],[15.0456,40.7877],[15.0462,40.7838],[15.0477,40.7814],[15.0535,40.7752],[15.056,40.7742],[15.0528,40.7738],[15.0409,40.7781],[15.0273,40.7818],[15.0199,40.7796],[15.0135,40.7747],[15.0092,40.7732],[15.0078,40.777],[14.9914,40.7824],[14.9906,40.7851],[14.9881,40.7886],[14.978,40.7857],[14.9688,40.7858],[14.9637,40.7879],[14.9674,40.7909],[14.9724,40.7927],[14.9741,40.7941],[14.969,40.7973],[14.9654,40.7983],[14.9615,40.7981],[14.9561,40.8004],[14.9546,40.8086],[14.9506,40.8113],[14.9526,40.8142],[14.9587,40.8198],[14.9634,40.8306],[14.9615,40.8361],[14.9599,40.8388],[14.9574,40.8407],[14.9559,40.8476],[14.9562,40.8556],[14.9633,40.8622],[14.9694,40.8651],[14.9709,40.8674],[14.9721,40.8742],[14.9715,40.8767],[14.9822,40.8775],[14.9915,40.8823],[14.9936,40.8844],[14.9981,40.8861],[14.9972,40.8838],[14.9989,40.8796],[14.9995,40.8719],[14.9985,40.871],[15.0023,40.8669],[15.0297,40.8602],[15.0304,40.8602],[15.0297,40.8668],[15.033,40.8722],[15.0356,40.8736],[15.0386,40.8734],[15.0386,40.8714],[15.0439,40.8676],[15.0548,40.8682],[15.0592,40.8716],[15.0597,40.8741]]]}},{"type":"Feature","properties":{"i":"064058","n":"Montemarano"},"geometry":{"type":"Polygon","coordinates":[[[15.04,40.9516],[15.0369,40.9431],[15.0399,40.9352],[15.0386,40.9259],[15.0417,40.9006],[15.0362,40.8922],[15.0269,40.8898],[15.0232,40.8905],[15.0194,40.8929],[15.0121,40.8922],[15.0015,40.8884],[14.9936,40.8844],[14.9874,40.8799],[14.9809,40.8773],[14.9715,40.8767],[14.9676,40.8788],[14.9634,40.8828],[14.9624,40.8863],[14.9626,40.89],[14.9664,40.9006],[14.9574,40.9029],[14.9674,40.9088],[14.9745,40.9188],[14.9824,40.918],[14.9919,40.9244],[14.9992,40.9351],[15.0035,40.9376],[15.0139,40.9495],[15.0186,40.9511],[15.0257,40.949],[15.0283,40.9465],[15.0302,40.9461],[15.0349,40.9526],[15.04,40.9516]]]}},{"type":"Feature","properties":{"i":"064059","n":"Montemiletto"},"geometry":{"type":"Polygon","coordinates":[[[14.9426,41.0233],[14.9451,41.0138],[14.9471,41.0117],[14.9473,41.0047],[14.9445,41.0007],[14.932,40.9932],[14.925,40.9904],[14.9178,40.9901],[14.9146,40.9857],[14.9152,40.9797],[14.9004,40.9818],[14.8932,40.9839],[14.8868,40.9889],[14.8808,40.9911],[14.8762,40.9952],[14.8728,41.0011],[14.8666,41.0014],[14.8639,41.0003],[14.8623,40.9984],[14.8604,41.0022],[14.8641,41.0033],[14.8683,41.0083],[14.8689,41.0102],[14.8767,41.018],[14.8827,41.0263],[14.8861,41.0291],[14.8885,41.029],[14.8906,41.0268],[14.892,41.0233],[14.902,41.0188],[14.9126,41.0156],[14.9178,41.0155],[14.9298,41.0183],[14.9426,41.0233]]]}},{"type":"Feature","properties":{"i":"064060","n":"Monteverde"},"geometry":{"type":"Polygon","coordinates":[[[15.5638,40.9661],[15.5649,40.9684],[15.5635,40.9709],[15.5592,40.9738],[15.553,40.9763],[15.5413,40.9767],[15.5311,40.9745],[15.5234,40.9781],[15.5218,40.9798],[15.5207,40.9828],[15.5214,40.9841],[15.5164,40.9908],[15.506,41.0019],[15.4959,41.015],[15.4943,41.0225],[15.4951,41.0241],[15.5011,41.0268],[15.507,41.0263],[15.5093,41.0288],[15.5037,41.043],[15.508,41.0482],[15.5215,41.053],[15.5349,41.0523],[15.5378,41.0509],[15.5428,41.0506],[15.5463,41.0529],[15.5483,41.0526],[15.5532,41.0379],[15.5632,41.031],[15.5592,41.0244],[15.5588,41.0216],[15.5596,41.0179],[15.5663,41.0115],[15.5696,41.002],[15.5703,40.9935],[15.5671,40.9706],[15.5663,40.9682],[15.5638,40.9661]]]}},{"type":"Feature","properties":{"i":"064063","n":"Morra De Sanctis"},"geometry":{"type":"Polygon","coordinates":[[[15.2931,40.9105],[15.2856,40.9036],[15.2706,40.8857],[15.2635,40.8854],[15.2594,40.8842],[15.2561,40.8853],[15.2535,40.889],[15.2487,40.8909],[15.2438,40.8904],[15.2354,40.8932],[15.2372,40.8958],[15.238,40.9054],[15.2351,40.9186],[15.237,40.9393],[15.2352,40.9511],[15.2421,40.9524],[15.2531,40.9522],[15.2653,40.9534],[15.2733,40.955],[15.275,40.956],[15.2811,40.9553],[15.2879,40.9523],[15.2823,40.9348],[15.284,40.9297],[15.2907,40.9171],[15.292,40.9171],[15.2934,40.9118],[15.2931,40.9105]]]}},{"type":"Feature","properties":{"i":"064064","n":"Moschiano"},"geometry":{"type":"Polygon","coordinates":[[[14.6832,40.8874],[14.6867,40.8876],[14.6929,40.885],[14.6982,40.8802],[14.7045,40.8723],[14.7061,40.865],[14.7034,40.8619],[14.7028,40.8626],[14.6988,40.8572],[14.6942,40.8594],[14.686,40.8553],[14.6761,40.8562],[14.673,40.8573],[14.6603,40.8654],[14.6582,40.8699],[14.6558,40.8714],[14.6493,40.8728],[14.6437,40.8707],[14.6492,40.8837],[14.6538,40.8892],[14.675,40.8891],[14.6832,40.8874]]]}},{"type":"Feature","properties":{"i":"064065","n":"Mugnano del Cardinale"},"geometry":{"type":"Polygon","coordinates":[[[14.6883,40.9252],[14.6849,40.9266],[14.6729,40.9292],[14.6665,40.9317],[14.6613,40.9325],[14.6543,40.9302],[14.6571,40.9235],[14.6645,40.9152],[14.6634,40.9149],[14.6579,40.9185],[14.6556,40.9215],[14.6506,40.932],[14.6376,40.9334],[14.6319,40.9304],[14.6315,40.927],[14.6297,40.9239],[14.6248,40.9209],[14.6251,40.923],[14.6279,40.9282],[14.6281,40.9386],[14.6234,40.943],[14.6237,40.9459],[14.626,40.9465],[14.6303,40.9452],[14.6337,40.9493],[14.6348,40.9456],[14.6399,40.9446],[14.6443,40.9463],[14.6451,40.948],[14.6478,40.9501],[14.6826,40.9456],[14.6904,40.9507],[14.6939,40.9509],[14.704,40.948],[14.7012,40.9454],[14.6883,40.9252]]]}},{"type":"Feature","properties":{"i":"064066","n":"Nusco"},"geometry":{"type":"Polygon","coordinates":[[[15.1157,40.9163],[15.1226,40.9128],[15.1278,40.9113],[15.1327,40.9082],[15.1388,40.8964],[15.139,40.8917],[15.1462,40.8931],[15.1477,40.8944],[15.1498,40.8922],[15.169,40.8804],[15.1677,40.8755],[15.1572,40.8728],[15.1534,40.8677],[15.1441,40.8516],[15.141,40.8451],[15.1424,40.8414],[15.1442,40.8401],[15.1448,40.8323],[15.1362,40.8336],[15.1177,40.8389],[15.1079,40.8451],[15.1042,40.8499],[15.101,40.8525],[15.0878,40.8566],[15.0841,40.8584],[15.079,40.8587],[15.0811,40.8621],[15.0816,40.8718],[15.0597,40.8741],[15.0562,40.8759],[15.0591,40.8802],[15.0611,40.885],[15.0414,40.8903],[15.0373,40.8933],[15.0413,40.8991],[15.0425,40.8971],[15.0567,40.9053],[15.0687,40.9061],[15.077,40.9042],[15.0798,40.9044],[15.0837,40.9067],[15.0839,40.9133],[15.0856,40.9125],[15.0906,40.9133],[15.1047,40.917],[15.1106,40.9154],[15.1157,40.9163]]]}},{"type":"Feature","properties":{"i":"064067","n":"Ospedaletto d'Alpinolo"},"geometry":{"type":"Polygon","coordinates":[[[14.7718,40.9371],[14.7663,40.9369],[14.7613,40.9326],[14.7604,40.9309],[14.7491,40.9294],[14.7477,40.928],[14.743,40.9272],[14.7323,40.9321],[14.7273,40.9385],[14.7156,40.9508],[14.7187,40.9525],[14.7223,40.9519],[14.7378,40.9444],[14.7623,40.9434],[14.7666,40.9412],[14.7718,40.9371]]]}},{"type":"Feature","properties":{"i":"064068","n":"Pago del Vallo di Lauro"},"geometry":{"type":"Polygon","coordinates":[[[14.614,40.9102],[14.6244,40.9003],[14.6244,40.8987],[14.6185,40.8946],[14.6128,40.8888],[14.6063,40.8893],[14.602,40.8908],[14.6021,40.8935],[14.5994,40.895],[14.5923,40.895],[14.5909,40.8974],[14.5965,40.9106],[14.5995,40.9117],[14.6096,40.9093],[14.614,40.9102]]]}},{"type":"Feature","properties":{"i":"064069","n":"Parolise"},"geometry":{"type":"Polygon","coordinates":[[[14.8996,40.9439],[14.9005,40.9426],[14.9006,40.9397],[14.8988,40.9315],[14.8994,40.9261],[14.9041,40.9231],[14.9033,40.9213],[14.9002,40.9212],[14.8974,40.9241],[14.8859,40.9285],[14.8833,40.9284],[14.8766,40.924],[14.8757,40.9267],[14.8759,40.9329],[14.8775,40.936],[14.8821,40.9374],[14.8844,40.9367],[14.8901,40.9388],[14.8959,40.947],[14.8996,40.9439]]]}},{"type":"Feature","properties":{"i":"064070","n":"Paternopoli"},"geometry":{"type":"Polygon","coordinates":[[[15.0595,40.9711],[15.0651,40.9671],[15.0642,40.9594],[15.0621,40.959],[15.0588,40.9518],[15.0578,40.9471],[15.0604,40.9317],[15.0639,40.9258],[15.0564,40.9313],[15.0511,40.9464],[15.0476,40.9501],[15.046,40.9495],[15.0349,40.9526],[15.0302,40.9461],[15.0292,40.9462],[15.0257,40.949],[15.0186,40.9511],[15.0162,40.9507],[15.0015,40.959],[15.0027,40.9649],[15.008,40.9687],[15.0094,40.9715],[15.0091,40.9749],[15.0077,40.9763],[15.006,40.9761],[15.0027,40.9796],[15.0109,40.9846],[15.0149,40.9858],[15.0303,40.9885],[15.0501,40.9792],[15.0595,40.9711]]]}},{"type":"Feature","properties":{"i":"064071","n":"Petruro Irpino"},"geometry":{"type":"Polygon","coordinates":[[[14.8106,41.0392],[14.8094,41.0358],[14.8057,41.0298],[14.8029,41.0269],[14.801,41.0265],[14.7925,41.0273],[14.7856,41.0163],[14.782,41.0178],[14.7839,41.0201],[14.7805,41.0321],[14.7815,41.0336],[14.7959,41.0386],[14.8002,41.0381],[14.8063,41.0389],[14.8073,41.0406],[14.8106,41.0392]]]}},{"type":"Feature","properties":{"i":"064072","n":"Pietradefusi"},"geometry":{"type":"Polygon","coordinates":[[[14.9059,41.0378],[14.9034,41.0336],[14.9016,41.0322],[14.8947,41.0297],[14.8906,41.0268],[14.8882,41.0301],[14.8814,41.0342],[14.8805,41.0384],[14.8817,41.0414],[14.8814,41.0426],[14.8771,41.046],[14.8744,41.0471],[14.8723,41.0422],[14.8658,41.0416],[14.8599,41.0438],[14.8573,41.0456],[14.8598,41.0462],[14.8635,41.0486],[14.8666,41.0549],[14.8698,41.0584],[14.8739,41.059],[14.8893,41.0651],[14.9015,41.0678],[14.9016,41.0593],[14.8985,41.045],[14.9059,41.0378]]]}},{"type":"Feature","properties":{"i":"064073","n":"Pietrastornina"},"geometry":{"type":"Polygon","coordinates":[[[14.7603,41.0094],[14.7587,41.0024],[14.7642,40.9956],[14.7645,40.9931],[14.7635,40.9926],[14.7409,40.9832],[14.7335,40.9828],[14.7279,40.9812],[14.7093,40.9686],[14.6936,40.9751],[14.694,40.9773],[14.7058,40.9898],[14.7156,41.007],[14.7215,41.007],[14.7311,41.0109],[14.7346,41.014],[14.7363,41.0172],[14.7452,41.0133],[14.7472,41.011],[14.7542,41.009],[14.7603,41.0094]]]}},{"type":"Feature","properties":{"i":"064074","n":"Prata di Principato Ultra"},"geometry":{"type":"Polygon","coordinates":[[[14.8451,40.9977],[14.8485,40.9967],[14.8517,41.0003],[14.8583,41.0033],[14.8604,41.0022],[14.8623,40.9984],[14.8587,40.9945],[14.8485,40.9913],[14.8462,40.9894],[14.8393,40.9756],[14.8381,40.9698],[14.83,40.9724],[14.8142,40.9794],[14.8102,40.9795],[14.8048,40.9773],[14.8016,40.9803],[14.8035,40.9818],[14.8058,40.9854],[14.809,40.9927],[14.8107,40.9993],[14.8116,41.0093],[14.8095,41.0125],[14.815,41.0127],[14.8277,41.0074],[14.8302,41.0007],[14.8319,40.9988],[14.8397,40.9942],[14.8436,40.9927],[14.8474,40.9926],[14.8451,40.9977]]]}},{"type":"Feature","properties":{"i":"064075","n":"Pratola Serra"},"geometry":{"type":"Polygon","coordinates":[[[14.8808,40.9911],[14.8822,40.988],[14.8769,40.9841],[14.871,40.9816],[14.8617,40.9806],[14.8559,40.9769],[14.8555,40.9757],[14.8575,40.9739],[14.8599,40.9684],[14.8604,40.9653],[14.8602,40.9632],[14.8557,40.9588],[14.8528,40.9582],[14.8466,40.9589],[14.8352,40.963],[14.8381,40.9698],[14.8391,40.9752],[14.8417,40.9808],[14.8462,40.9894],[14.8485,40.9913],[14.8587,40.9945],[14.8645,41.0007],[14.8702,41.0017],[14.8728,41.0011],[14.8762,40.9952],[14.8808,40.9911]]]}},{"type":"Feature","properties":{"i":"064076","n":"Quadrelle"},"geometry":{"type":"Polygon","coordinates":[[[14.7084,40.9532],[14.704,40.948],[14.6939,40.9509],[14.6904,40.9507],[14.6826,40.9456],[14.6478,40.9501],[14.6451,40.948],[14.6443,40.9463],[14.6383,40.9446],[14.6348,40.9456],[14.6336,40.9498],[14.6351,40.9517],[14.639,40.9535],[14.6517,40.9552],[14.6597,40.9595],[14.664,40.9636],[14.6731,40.9605],[14.6821,40.9589],[14.6862,40.961],[14.6849,40.9639],[14.6893,40.962],[14.6938,40.9585],[14.7022,40.9548],[14.7084,40.9532]]]}},{"type":"Feature","properties":{"i":"064077","n":"Quindici"},"geometry":{"type":"Polygon","coordinates":[[[14.6988,40.8572],[14.7027,40.8526],[14.7068,40.8385],[14.7017,40.838],[14.6957,40.8404],[14.6859,40.841],[14.6743,40.8298],[14.6738,40.825],[14.676,40.8215],[14.6682,40.8225],[14.6563,40.8255],[14.6543,40.8266],[14.653,40.8303],[14.646,40.836],[14.6334,40.8399],[14.6243,40.8441],[14.6159,40.8457],[14.6143,40.8487],[14.6167,40.8518],[14.6219,40.8717],[14.6242,40.8757],[14.6253,40.876],[14.6437,40.8707],[14.6493,40.8728],[14.6558,40.8714],[14.6582,40.8699],[14.6603,40.8654],[14.673,40.8573],[14.6761,40.8562],[14.686,40.8553],[14.6942,40.8594],[14.6988,40.8572]]]}},{"type":"Feature","properties":{"i":"064078","n":"Roccabascerana"},"geometry":{"type":"Polygon","coordinates":[[[14.7363,41.0172],[14.7346,41.014],[14.7311,41.0109],[14.7215,41.007],[14.7156,41.007],[14.7051,41.0235],[14.6957,41.0339],[14.6976,41.0374],[14.7014,41.0554],[14.709,41.0614],[14.7142,41.0578],[14.7275,41.0461],[14.7295,41.0422],[14.7285,41.0363],[14.7303,41.0289],[14.7369,41.0207],[14.7363,41.0172]]]}},{"type":"Feature","properties":{"i":"064079","n":"Rocca San Felice"},"geometry":{"type":"Polygon","coordinates":[[[15.1834,40.9529],[15.1732,40.947],[15.1602,40.9448],[15.1526,40.9459],[15.1521,40.9516],[15.1421,40.9603],[15.1285,40.9699],[15.1195,40.9725],[15.1285,40.974],[15.1339,40.9732],[15.1398,40.9792],[15.1476,40.9839],[15.1557,40.9824],[15.161,40.98],[15.1638,40.9799],[15.1707,40.9903],[15.1808,40.977],[15.1849,40.9577],[15.1834,40.9529]]]}},{"type":"Feature","properties":{"i":"064080","n":"Rotondi"},"geometry":{"type":"Polygon","coordinates":[[[14.6108,41.0528],[14.6172,41.0505],[14.6082,41.0429],[14.606,41.0365],[14.5997,41.0252],[14.5932,41.0199],[14.5784,41.0139],[14.5761,41.0106],[14.5741,41.0044],[14.5696,41.0153],[14.5685,41.0206],[14.5772,41.0275],[14.5872,41.0339],[14.5897,41.037],[14.5915,41.0415],[14.5917,41.0479],[14.5966,41.0588],[14.602,41.0573],[14.6045,41.051],[14.6108,41.0528]]]}},{"type":"Feature","properties":{"i":"064081","n":"Salza Irpina"},"geometry":{"type":"Polygon","coordinates":[[[14.9041,40.9231],[14.9061,40.9223],[14.912,40.9163],[14.9199,40.9043],[14.915,40.8974],[14.9076,40.9012],[14.8943,40.9101],[14.8902,40.9152],[14.8898,40.9174],[14.8815,40.9196],[14.8795,40.9192],[14.8766,40.924],[14.8841,40.9285],[14.8859,40.9285],[14.8974,40.9241],[14.9002,40.9212],[14.9033,40.9213],[14.9041,40.9231]]]}},{"type":"Feature","properties":{"i":"064082","n":"San Mango sul Calore"},"geometry":{"type":"Polygon","coordinates":[[[15.0017,40.9605],[14.9945,40.9612],[14.9853,40.9585],[14.9816,40.954],[14.9727,40.9484],[14.9702,40.9458],[14.9675,40.9412],[14.9635,40.9387],[14.9607,40.9384],[14.9535,40.9403],[14.9517,40.9477],[14.9444,40.9536],[14.9428,40.9537],[14.9398,40.9572],[14.939,40.9596],[14.9392,40.9616],[14.9455,40.9731],[14.9486,40.9731],[14.9541,40.9697],[14.958,40.969],[14.9639,40.9718],[14.9681,40.9772],[14.9739,40.9749],[14.984,40.9749],[14.9874,40.9761],[14.9879,40.9785],[14.9996,40.9831],[15.0055,40.9765],[15.0077,40.9763],[15.0091,40.9749],[15.0094,40.9715],[15.008,40.9687],[15.0027,40.9649],[15.0017,40.9605]]]}},{"type":"Feature","properties":{"i":"064083","n":"San Martino Valle Caudina"},"geometry":{"type":"Polygon","coordinates":[[[14.7014,41.0554],[14.6976,41.0374],[14.6934,41.029],[14.6925,41.0277],[14.6789,41.0195],[14.684,41.0146],[14.6855,41.0121],[14.6863,41.0088],[14.6812,41.0021],[14.6796,40.9982],[14.6803,40.9935],[14.6798,40.9817],[14.6703,40.9826],[14.6638,40.9819],[14.6602,40.9828],[14.6573,40.9846],[14.6579,40.9901],[14.6605,40.9945],[14.6617,40.9956],[14.6688,40.9952],[14.6711,40.9963],[14.6724,40.9979],[14.6679,41.0036],[14.6641,41.005],[14.6579,41.0059],[14.6552,41.0079],[14.6522,41.0137],[14.6494,41.0258],[14.65,41.0316],[14.6466,41.0386],[14.6401,41.0425],[14.6499,41.0456],[14.6596,41.0503],[14.6621,41.0556],[14.6672,41.058],[14.6766,41.0548],[14.7014,41.0554]]]}},{"type":"Feature","properties":{"i":"064084","n":"San Michele di Serino"},"geometry":{"type":"Polygon","coordinates":[[[14.8603,40.8753],[14.8612,40.8691],[14.846,40.8687],[14.8367,40.8703],[14.8276,40.8695],[14.8273,40.8671],[14.8262,40.8665],[14.8246,40.8686],[14.8252,40.8711],[14.8334,40.886],[14.8447,40.8891],[14.8443,40.8862],[14.8525,40.8817],[14.8584,40.8776],[14.8603,40.8753]]]}},{"type":"Feature","properties":{"i":"064085","n":"San Nicola Baronia"},"geometry":{"type":"Polygon","coordinates":[[[15.2256,41.0708],[15.2271,41.0666],[15.2224,41.0553],[15.2245,41.0508],[15.2207,41.0474],[15.2165,41.0467],[15.2092,41.0404],[15.1997,41.0503],[15.1948,41.0524],[15.191,41.0585],[15.1917,41.0597],[15.1975,41.0634],[15.1923,41.0679],[15.1815,41.0699],[15.1754,41.0667],[15.1758,41.0711],[15.1777,41.0745],[15.1826,41.078],[15.1914,41.0754],[15.1976,41.0701],[15.1981,41.0631],[15.2014,41.0616],[15.2107,41.0643],[15.216,41.0674],[15.216,41.0704],[15.2171,41.0732],[15.2218,41.0728],[15.2256,41.0708]]]}},{"type":"Feature","properties":{"i":"064086","n":"San Potito Ultra"},"geometry":{"type":"Polygon","coordinates":[[[14.8797,40.937],[14.8775,40.936],[14.8759,40.9329],[14.8757,40.9267],[14.8795,40.9192],[14.8706,40.9192],[14.8611,40.9211],[14.8525,40.9217],[14.8439,40.9186],[14.8393,40.9183],[14.8385,40.9208],[14.856,40.9353],[14.8588,40.9393],[14.8685,40.9343],[14.8713,40.9348],[14.8722,40.9373],[14.8797,40.937]]]}},{"type":"Feature","properties":{"i":"064087","n":"San Sossio Baronia"},"geometry":{"type":"Polygon","coordinates":[[[15.2635,41.112],[15.2617,41.111],[15.2558,41.1029],[15.2525,41.0945],[15.24,41.0849],[15.2395,41.0837],[15.2408,41.0806],[15.2464,41.0771],[15.2454,41.0725],[15.2415,41.0685],[15.2361,41.0685],[15.2351,41.0718],[15.2308,41.0708],[15.2256,41.0708],[15.2224,41.0727],[15.2178,41.0734],[15.2171,41.0732],[15.216,41.0704],[15.216,41.0674],[15.2107,41.0643],[15.2014,41.0616],[15.1981,41.0631],[15.1976,41.0701],[15.1914,41.0754],[15.1826,41.078],[15.1829,41.0814],[15.1868,41.0821],[15.1975,41.0872],[15.211,41.0973],[15.2128,41.1015],[15.2141,41.103],[15.2306,41.1128],[15.2373,41.111],[15.2638,41.1134],[15.2635,41.112]]]}},{"type":"Feature","properties":{"i":"064088","n":"Santa Lucia di Serino"},"geometry":{"type":"Polygon","coordinates":[[[14.9004,40.8771],[14.879,40.8648],[14.868,40.8676],[14.8651,40.8701],[14.8604,40.8716],[14.8603,40.8753],[14.8793,40.8843],[14.8863,40.8806],[14.9004,40.8771]]]}},{"type":"Feature","properties":{"i":"064089","n":"Sant'Andrea di Conza"},"geometry":{"type":"Polygon","coordinates":[[[15.3533,40.8377],[15.3551,40.8554],[15.3515,40.8636],[15.3576,40.8708],[15.3601,40.8715],[15.3687,40.8716],[15.378,40.8676],[15.3741,40.8601],[15.3755,40.8486],[15.3783,40.8407],[15.3773,40.836],[15.3742,40.8348],[15.361,40.8392],[15.3533,40.8377]]]}},{"type":"Feature","properties":{"i":"064090","n":"Sant'Angelo all'Esca"},"geometry":{"type":"Polygon","coordinates":[[[15.0041,40.9943],[15.001,40.9933],[14.9886,40.9924],[14.9843,40.9942],[14.9806,40.998],[14.9836,41.0067],[14.9837,41.0149],[14.9851,41.018],[14.9932,41.0234],[14.9964,41.0208],[15.0004,41.0219],[15.007,41.0142],[15.0018,41.0073],[15.0041,40.9943]]]}},{"type":"Feature","properties":{"i":"064091","n":"Sant'Angelo a Scala"},"geometry":{"type":"Polygon","coordinates":[[[14.7702,40.9744],[14.7575,40.9625],[14.753,40.9601],[14.7244,40.9597],[14.7191,40.9633],[14.7178,40.9657],[14.7093,40.9686],[14.7279,40.9812],[14.7335,40.9828],[14.7409,40.9832],[14.7645,40.9931],[14.7666,40.9901],[14.7649,40.9882],[14.7637,40.9853],[14.7702,40.9744]]]}},{"type":"Feature","properties":{"i":"064092","n":"Sant'Angelo dei Lombardi"},"geometry":{"type":"MultiPolygon","coordinates":[[[[15.1875,40.8986],[15.1936,40.9024],[15.1974,40.9025],[15.2026,40.9004],[15.2028,40.8973],[15.2015,40.896],[15.1986,40.8955],[15.1846,40.8968],[15.1875,40.8986]]],[[[15.1834,40.9529],[15.1859,40.95],[15.1895,40.9477],[15.2043,40.9396],[15.2087,40.9386],[15.2171,40.9388],[15.2295,40.9412],[15.2326,40.9448],[15.2352,40.9511],[15.237,40.9393],[15.2351,40.9186],[15.238,40.9054],[15.2372,40.8958],[15.2354,40.8932],[15.2314,40.8972],[15.2292,40.898],[15.2262,40.8971],[15.2264,40.8966],[15.2238,40.894],[15.2155,40.8946],[15.2049,40.901],[15.2022,40.9037],[15.1929,40.9068],[15.1881,40.9055],[15.1794,40.8957],[15.1746,40.8915],[15.1674,40.8932],[15.1582,40.8994],[15.1551,40.8989],[15.1462,40.8931],[15.1395,40.8916],[15.1388,40.8923],[15.1388,40.8964],[15.1327,40.9082],[15.1278,40.9113],[15.1226,40.9128],[15.1157,40.9163],[15.1178,40.9194],[15.1234,40.9238],[15.1257,40.9286],[15.1275,40.936],[15.1275,40.9505],[15.1257,40.9582],[15.123,40.9592],[15.1174,40.9654],[15.1153,40.9665],[15.1124,40.9665],[15.1195,40.9725],[15.1285,40.9699],[15.1421,40.9603],[15.1521,40.9516],[15.1526,40.9459],[15.1602,40.9448],[15.1732,40.947],[15.1834,40.9529]]]]}},{"type":"Feature","properties":{"i":"064093","n":"Santa Paolina"},"geometry":{"type":"Polygon","coordinates":[[[14.8767,41.018],[14.8689,41.0102],[14.8683,41.0083],[14.8641,41.0033],[14.8604,41.0022],[14.8583,41.0033],[14.8546,41.002],[14.8517,41.0003],[14.8485,40.9967],[14.8451,40.9977],[14.8451,41.0067],[14.8434,41.0093],[14.8398,41.0125],[14.8326,41.0141],[14.8289,41.0186],[14.8319,41.03],[14.8373,41.0301],[14.8476,41.0293],[14.8618,41.0254],[14.8757,41.0197],[14.8767,41.018]]]}},{"type":"Feature","properties":{"i":"064095","n":"Santo Stefano del Sole"},"geometry":{"type":"Polygon","coordinates":[[[14.9005,40.8901],[14.899,40.8893],[14.8974,40.8867],[14.9036,40.8847],[14.9082,40.8843],[14.9086,40.882],[14.9072,40.8783],[14.9019,40.8764],[14.8863,40.8806],[14.8793,40.8843],[14.8603,40.8753],[14.8584,40.8776],[14.8441,40.8867],[14.8447,40.8891],[14.8473,40.8922],[14.8519,40.8949],[14.8568,40.9012],[14.864,40.9076],[14.8678,40.9066],[14.8724,40.9086],[14.8773,40.9083],[14.8805,40.9021],[14.8844,40.8986],[14.9005,40.8901]]]}},{"type":"Feature","properties":{"i":"064096","n":"Savignano Irpino"},"geometry":{"type":"Polygon","coordinates":[[[15.2059,41.2391],[15.208,41.2364],[15.2253,41.2364],[15.2413,41.2374],[15.2462,41.2361],[15.245,41.2271],[15.2461,41.224],[15.2492,41.2176],[15.2613,41.2026],[15.2624,41.2005],[15.2624,41.1976],[15.2574,41.1974],[15.2511,41.1952],[15.2418,41.19],[15.2235,41.1819],[15.2222,41.1836],[15.2162,41.1844],[15.2117,41.1862],[15.2048,41.1916],[15.2037,41.195],[15.1927,41.1949],[15.1911,41.1942],[15.1857,41.1954],[15.1745,41.1991],[15.166,41.203],[15.158,41.208],[15.1593,41.2247],[15.164,41.2285],[15.1613,41.2297],[15.1753,41.2377],[15.1829,41.2412],[15.1858,41.2415],[15.2059,41.2391]]]}},{"type":"Feature","properties":{"i":"064097","n":"Scampitella"},"geometry":{"type":"Polygon","coordinates":[[[15.3664,41.0849],[15.3496,41.0808],[15.3376,41.0754],[15.3307,41.0736],[15.316,41.0746],[15.3054,41.0772],[15.292,41.0773],[15.2896,41.075],[15.2846,41.0754],[15.2829,41.0745],[15.2788,41.075],[15.2774,41.0762],[15.2773,41.0793],[15.2795,41.0894],[15.2811,41.0951],[15.2826,41.0973],[15.2874,41.0969],[15.2908,41.095],[15.2978,41.0944],[15.3144,41.1039],[15.3198,41.1],[15.3326,41.0964],[15.3375,41.0953],[15.349,41.0951],[15.3523,41.0939],[15.3589,41.088],[15.3664,41.0849]]]}},{"type":"Feature","properties":{"i":"064098","n":"Senerchia"},"geometry":{"type":"MultiPolygon","coordinates":[[[[15.2396,40.7445],[15.2403,40.7446],[15.2406,40.7437],[15.2397,40.7436],[15.2396,40.7445]]],[[[15.236,40.7461],[15.2357,40.7466],[15.2379,40.7474],[15.2383,40.7465],[15.2363,40.7456],[15.236,40.7461]]],[[[15.2253,40.7475],[15.2276,40.7484],[15.228,40.7474],[15.2255,40.7467],[15.2253,40.7475]]],[[[15.2365,40.7484],[15.2363,40.7493],[15.2376,40.7493],[15.2373,40.7485],[15.2365,40.7484]]],[[[15.2331,40.7551],[15.2334,40.756],[15.2347,40.7557],[15.2344,40.7549],[15.2331,40.7551]]],[[[15.2423,40.7297],[15.2442,40.7276],[15.2414,40.7245],[15.2471,40.7177],[15.2429,40.717],[15.23,40.7182],[15.2146,40.7175],[15.2017,40.7143],[15.1977,40.7106],[15.1802,40.7088],[15.169,40.7066],[15.1628,40.711],[15.1529,40.7198],[15.1512,40.7297],[15.149,40.7316],[15.1457,40.7328],[15.1718,40.7507],[15.1767,40.7526],[15.1838,40.7641],[15.1863,40.7671],[15.188,40.7676],[15.1921,40.7663],[15.1975,40.763],[15.2126,40.7589],[15.2232,40.759],[15.2248,40.7513],[15.2232,40.7451],[15.2259,40.7359],[15.2315,40.7294],[15.2376,40.7279],[15.2423,40.7297]]]]}},{"type":"Feature","properties":{"i":"064099","n":"Serino"},"geometry":{"type":"Polygon","coordinates":[[[14.9506,40.8113],[14.9546,40.8086],[14.9561,40.8004],[14.9615,40.7981],[14.9654,40.7983],[14.969,40.7973],[14.9738,40.7943],[14.9737,40.7935],[14.9674,40.7909],[14.9637,40.7879],[14.9477,40.7886],[14.9384,40.7917],[14.9257,40.7975],[14.9198,40.8013],[14.9192,40.8052],[14.9164,40.809],[14.9005,40.8068],[14.8763,40.7977],[14.8704,40.7963],[14.8699,40.7983],[14.8704,40.8007],[14.8741,40.8072],[14.8785,40.8127],[14.8798,40.818],[14.8801,40.8257],[14.8773,40.8296],[14.875,40.832],[14.8631,40.839],[14.8573,40.8416],[14.8354,40.8472],[14.8292,40.8533],[14.8221,40.8537],[14.8207,40.8576],[14.8262,40.8665],[14.8273,40.8671],[14.8276,40.8695],[14.8367,40.8703],[14.846,40.8687],[14.8612,40.8691],[14.8604,40.8716],[14.8651,40.8701],[14.868,40.8676],[14.879,40.8648],[14.9004,40.8771],[14.9019,40.8764],[14.9006,40.8703],[14.9152,40.8627],[14.9156,40.8588],[14.9193,40.8508],[14.9305,40.846],[14.9387,40.8397],[14.9432,40.8327],[14.9397,40.8302],[14.9344,40.8281],[14.9343,40.825],[14.9415,40.8172],[14.9506,40.8113]]]}},{"type":"Feature","properties":{"i":"064100","n":"Sirignano"},"geometry":{"type":"Polygon","coordinates":[[[14.6751,40.9704],[14.6824,40.9673],[14.6862,40.9623],[14.6857,40.9603],[14.6821,40.9589],[14.6731,40.9605],[14.664,40.9636],[14.6597,40.9595],[14.6517,40.9552],[14.639,40.9535],[14.6351,40.9517],[14.6303,40.9452],[14.626,40.9465],[14.6235,40.9486],[14.6227,40.9511],[14.6231,40.9565],[14.6204,40.9599],[14.6316,40.9651],[14.6356,40.9625],[14.6398,40.9613],[14.6491,40.9605],[14.6524,40.9619],[14.6526,40.9645],[14.6448,40.9713],[14.648,40.9715],[14.6556,40.9697],[14.6673,40.9691],[14.6751,40.9704]]]}},{"type":"Feature","properties":{"i":"064101","n":"Solofra"},"geometry":{"type":"Polygon","coordinates":[[[14.87,40.7968],[14.8686,40.798],[14.8532,40.8001],[14.8446,40.7997],[14.8445,40.8036],[14.8406,40.8092],[14.8352,40.8119],[14.822,40.8263],[14.8188,40.826],[14.8155,40.8285],[14.8118,40.8363],[14.8102,40.8515],[14.8126,40.8571],[14.8147,40.8586],[14.8207,40.8576],[14.8221,40.8537],[14.8292,40.8533],[14.8354,40.8472],[14.8573,40.8416],[14.8659,40.8375],[14.875,40.832],[14.8767,40.8303],[14.8801,40.8257],[14.8798,40.818],[14.8785,40.8127],[14.8741,40.8072],[14.8704,40.8007],[14.87,40.7968]]]}},{"type":"Feature","properties":{"i":"064102","n":"Sorbo Serpico"},"geometry":{"type":"Polygon","coordinates":[[[14.8795,40.9192],[14.8815,40.9196],[14.8898,40.9174],[14.8902,40.9152],[14.8943,40.9101],[14.9076,40.9012],[14.9174,40.8967],[14.9227,40.8934],[14.9225,40.8907],[14.9205,40.8892],[14.9043,40.8887],[14.8982,40.891],[14.8844,40.8986],[14.8805,40.9021],[14.8773,40.9083],[14.8724,40.9086],[14.8678,40.9066],[14.864,40.9076],[14.8606,40.9142],[14.8595,40.9208],[14.8611,40.9211],[14.8706,40.9192],[14.8795,40.9192]]]}},{"type":"Feature","properties":{"i":"064103","n":"Sperone"},"geometry":{"type":"MultiPolygon","coordinates":[[[[14.6101,40.9555],[14.6106,40.9523],[14.6089,40.9446],[14.6107,40.933],[14.6105,40.9294],[14.603,40.9296],[14.5953,40.9312],[14.5885,40.9336],[14.5885,40.9392],[14.5912,40.9429],[14.5912,40.9406],[14.5948,40.9398],[14.5983,40.952],[14.6007,40.9558],[14.6101,40.9555]]],[[[14.6824,40.9673],[14.6751,40.9704],[14.6798,40.9817],[14.6908,40.976],[14.6824,40.9673]]]]}},{"type":"Feature","properties":{"i":"064104","n":"Sturno"},"geometry":{"type":"Polygon","coordinates":[[[15.1706,41.0211],[15.1746,41.0177],[15.1518,41.0072],[15.1541,40.9889],[15.1557,40.9824],[15.1488,40.9839],[15.1514,40.9878],[15.1461,41.0019],[15.1323,41.0155],[15.1231,41.0181],[15.1096,41.0157],[15.1007,41.0194],[15.0995,41.0234],[15.1055,41.0355],[15.1089,41.0384],[15.1163,41.0365],[15.122,41.0366],[15.127,41.0428],[15.1315,41.0502],[15.1435,41.0417],[15.1441,41.0387],[15.1479,41.0342],[15.1599,41.0312],[15.1706,41.0211]]]}},{"type":"Feature","properties":{"i":"064105","n":"Summonte"},"geometry":{"type":"Polygon","coordinates":[[[14.6936,40.9751],[14.7178,40.9657],[14.7191,40.9633],[14.7244,40.9597],[14.753,40.9601],[14.7558,40.9573],[14.7599,40.9561],[14.7646,40.9563],[14.7636,40.952],[14.7711,40.9488],[14.7819,40.9467],[14.7844,40.9409],[14.7718,40.9371],[14.7666,40.9412],[14.7623,40.9434],[14.7378,40.9444],[14.7223,40.9519],[14.7187,40.9525],[14.7156,40.9508],[14.7022,40.9548],[14.6938,40.9585],[14.6893,40.962],[14.6849,40.9639],[14.6824,40.9673],[14.6908,40.976],[14.6936,40.9751]]]}},{"type":"Feature","properties":{"i":"064106","n":"Taurano"},"geometry":{"type":"Polygon","coordinates":[[[14.6697,40.9049],[14.6793,40.8924],[14.6827,40.8896],[14.6832,40.8874],[14.675,40.8891],[14.6538,40.8892],[14.6492,40.8837],[14.6431,40.8844],[14.6386,40.8834],[14.6373,40.8806],[14.6359,40.88],[14.632,40.8824],[14.6298,40.8868],[14.6301,40.891],[14.6271,40.897],[14.614,40.9102],[14.6189,40.9119],[14.6267,40.907],[14.6268,40.9104],[14.6362,40.9108],[14.6459,40.9087],[14.648,40.9052],[14.6511,40.9039],[14.6611,40.9039],[14.6697,40.9049]]]}},{"type":"Feature","properties":{"i":"064107","n":"Taurasi"},"geometry":{"type":"Polygon","coordinates":[[[14.9865,41.0195],[14.9837,41.0149],[14.9836,41.0067],[14.9805,40.999],[14.9809,40.9976],[14.9833,40.9955],[14.9783,40.9915],[14.9603,40.9881],[14.9616,40.9897],[14.9598,40.9937],[14.9533,41.0008],[14.9473,41.0047],[14.9471,41.0117],[14.9451,41.0138],[14.9426,41.0233],[14.9408,41.0276],[14.9435,41.0396],[14.9453,41.0426],[14.9532,41.0386],[14.9615,41.0367],[14.9683,41.0339],[14.9703,41.0318],[14.9701,41.0306],[14.9841,41.0203],[14.9865,41.0195]]]}},{"type":"Feature","properties":{"i":"064108","n":"Teora"},"geometry":{"type":"Polygon","coordinates":[[[15.2594,40.8842],[15.282,40.861],[15.2831,40.858],[15.2825,40.8548],[15.2777,40.8456],[15.2711,40.8436],[15.2679,40.8405],[15.2646,40.8389],[15.2548,40.8376],[15.2393,40.8443],[15.239,40.8452],[15.2332,40.8464],[15.2071,40.8438],[15.2091,40.8597],[15.2348,40.8806],[15.2438,40.8904],[15.248,40.8911],[15.2535,40.889],[15.2561,40.8853],[15.2594,40.8842]]]}},{"type":"Feature","properties":{"i":"064109","n":"Torella dei Lombardi"},"geometry":{"type":"Polygon","coordinates":[[[15.1157,40.9163],[15.1106,40.9154],[15.1047,40.917],[15.0906,40.9133],[15.085,40.9126],[15.0697,40.9247],[15.0639,40.9258],[15.0604,40.9317],[15.0578,40.9471],[15.0588,40.9518],[15.0621,40.959],[15.0642,40.9594],[15.0651,40.9671],[15.0717,40.9615],[15.08,40.9594],[15.0847,40.9593],[15.0981,40.9601],[15.1074,40.9649],[15.1124,40.9665],[15.1153,40.9665],[15.1174,40.9654],[15.123,40.9592],[15.1257,40.9582],[15.1275,40.9505],[15.1273,40.9352],[15.1257,40.9286],[15.1234,40.9238],[15.1178,40.9194],[15.1157,40.9163]]]}},{"type":"Feature","properties":{"i":"064110","n":"Torre Le Nocelle"},"geometry":{"type":"Polygon","coordinates":[[[14.9453,41.0426],[14.9435,41.0396],[14.9408,41.0276],[14.9426,41.0233],[14.9298,41.0183],[14.9178,41.0155],[14.9126,41.0156],[14.902,41.0188],[14.892,41.0233],[14.8906,41.0268],[14.8947,41.0297],[14.9016,41.0322],[14.9034,41.0336],[14.9079,41.0402],[14.9171,41.0393],[14.9222,41.0424],[14.9315,41.0453],[14.9463,41.0464],[14.9453,41.0426]]]}},{"type":"Feature","properties":{"i":"064111","n":"Torrioni"},"geometry":{"type":"Polygon","coordinates":[[[14.8293,41.0351],[14.8319,41.03],[14.8299,41.0213],[14.8246,41.022],[14.82,41.0235],[14.805,41.0195],[14.7974,41.0234],[14.7925,41.0273],[14.801,41.0265],[14.8029,41.0269],[14.8049,41.0286],[14.8094,41.0358],[14.8106,41.0392],[14.8114,41.0394],[14.8145,41.0395],[14.8251,41.037],[14.8293,41.0351]]]}},{"type":"Feature","properties":{"i":"064112","n":"Trevico"},"geometry":{"type":"Polygon","coordinates":[[[15.2896,41.075],[15.284,41.0677],[15.2755,41.0599],[15.2599,41.05],[15.2504,41.0455],[15.2406,41.0393],[15.2398,41.0338],[15.2404,41.0287],[15.2365,41.0329],[15.2316,41.0334],[15.2265,41.0318],[15.2207,41.0332],[15.2171,41.037],[15.2092,41.0404],[15.2165,41.0467],[15.2207,41.0474],[15.2245,41.0508],[15.2224,41.0553],[15.2271,41.0666],[15.2256,41.0708],[15.2308,41.0708],[15.2351,41.0718],[15.2376,41.0661],[15.237,41.0606],[15.2492,41.0523],[15.2573,41.0518],[15.2771,41.0713],[15.2778,41.0754],[15.2829,41.0745],[15.2846,41.0754],[15.2896,41.075]]]}},{"type":"Feature","properties":{"i":"064113","n":"Tufo"},"geometry":{"type":"Polygon","coordinates":[[[14.8299,41.0213],[14.8289,41.0186],[14.8326,41.0141],[14.8398,41.0125],[14.8451,41.0067],[14.8451,40.9977],[14.8474,40.9926],[14.8426,40.9931],[14.8344,40.9972],[14.8302,41.0007],[14.8277,41.0074],[14.8163,41.0123],[14.8135,41.013],[14.8095,41.0125],[14.8048,41.0148],[14.7965,41.0171],[14.7881,41.0171],[14.7856,41.0163],[14.7925,41.0273],[14.7974,41.0234],[14.805,41.0195],[14.82,41.0235],[14.8246,41.022],[14.8299,41.0213]]]}},{"type":"Feature","properties":{"i":"064114","n":"Vallata"},"geometry":{"type":"Polygon","coordinates":[[[15.3376,41.0754],[15.3377,41.0737],[15.333,41.0695],[15.3257,41.0606],[15.3244,41.0567],[15.3154,41.0407],[15.3106,41.0179],[15.3087,40.996],[15.3069,40.9938],[15.2983,40.9888],[15.2965,40.9886],[15.2814,40.9945],[15.2688,41.0017],[15.2592,41.0057],[15.2535,41.0023],[15.2525,41.0008],[15.2481,40.9995],[15.2386,40.9983],[15.2373,40.9997],[15.2368,41.0021],[15.2376,41.0072],[15.241,41.0162],[15.2417,41.0249],[15.2398,41.0338],[15.2406,41.0393],[15.2504,41.0455],[15.2599,41.05],[15.2755,41.0599],[15.284,41.0677],[15.292,41.0773],[15.3054,41.0772],[15.316,41.0746],[15.3271,41.0734],[15.3307,41.0736],[15.3376,41.0754]]]}},{"type":"Feature","properties":{"i":"064115","n":"Vallesaccarda"},"geometry":{"type":"Polygon","coordinates":[[[15.2826,41.0973],[15.2811,41.0951],[15.2773,41.0793],[15.278,41.0742],[15.2771,41.0713],[15.2573,41.0518],[15.2492,41.0523],[15.237,41.0606],[15.2376,41.0661],[15.2361,41.0685],[15.2415,41.0685],[15.2454,41.0725],[15.2462,41.0751],[15.2464,41.0771],[15.2408,41.0806],[15.2395,41.0837],[15.24,41.0849],[15.2525,41.0945],[15.2558,41.1029],[15.2621,41.1114],[15.2635,41.112],[15.2621,41.1076],[15.2813,41.0993],[15.2826,41.0973]]]}},{"type":"Feature","properties":{"i":"064116","n":"Venticano"},"geometry":{"type":"Polygon","coordinates":[[[14.9463,41.0464],[14.9315,41.0453],[14.9222,41.0424],[14.9171,41.0393],[14.9079,41.0402],[14.9059,41.0378],[14.8985,41.045],[14.9016,41.0593],[14.9015,41.0678],[14.9192,41.0763],[14.9234,41.0817],[14.927,41.084],[14.9332,41.0848],[14.9354,41.084],[14.9375,41.0809],[14.9369,41.0788],[14.9393,41.0736],[14.9463,41.0621],[14.9473,41.0565],[14.9463,41.0464]]]}},{"type":"Feature","properties":{"i":"064117","n":"Villamaina"},"geometry":{"type":"Polygon","coordinates":[[[15.0936,40.9859],[15.102,40.9827],[15.1239,40.9785],[15.127,40.9764],[15.1285,40.974],[15.1195,40.9725],[15.1124,40.9665],[15.1074,40.9649],[15.0981,40.9601],[15.0847,40.9593],[15.08,40.9594],[15.0717,40.9615],[15.0595,40.9711],[15.0646,40.97],[15.0783,40.9753],[15.0822,40.9772],[15.0876,40.9817],[15.0902,40.987],[15.0936,40.9859]]]}},{"type":"Feature","properties":{"i":"064118","n":"Villanova del Battista"},"geometry":{"type":"Polygon","coordinates":[[[15.1953,41.136],[15.1969,41.1347],[15.1964,41.1311],[15.1936,41.1266],[15.1863,41.1182],[15.1838,41.1048],[15.1684,41.0976],[15.1587,41.0939],[15.141,41.0925],[15.1382,41.0906],[15.1259,41.0859],[15.1212,41.0878],[15.1197,41.0904],[15.1202,41.0924],[15.1178,41.0946],[15.1189,41.0977],[15.1244,41.1034],[15.1357,41.1123],[15.1409,41.1192],[15.1504,41.1266],[15.1725,41.1387],[15.176,41.1389],[15.1953,41.136]]]}},{"type":"Feature","properties":{"i":"064119","n":"Volturara Irpina"},"geometry":{"type":"Polygon","coordinates":[[[14.9715,40.8767],[14.9721,40.8742],[14.9709,40.8674],[14.9694,40.8651],[14.9633,40.8622],[14.9562,40.8556],[14.9559,40.8476],[14.9574,40.8407],[14.9599,40.8388],[14.9615,40.8361],[14.9634,40.8306],[14.9587,40.8198],[14.9526,40.8142],[14.9506,40.8113],[14.9415,40.8172],[14.9343,40.825],[14.9344,40.8281],[14.9397,40.8302],[14.9432,40.8327],[14.9387,40.8397],[14.9296,40.8465],[14.9203,40.8499],[14.9182,40.8525],[14.9156,40.8588],[14.9152,40.8627],[14.9006,40.8703],[14.9019,40.8764],[14.9065,40.8779],[14.9081,40.8799],[14.9082,40.8843],[14.9036,40.8847],[14.8974,40.8867],[14.899,40.8893],[14.9005,40.8901],[14.9043,40.8887],[14.911,40.8888],[14.9205,40.8892],[14.9225,40.8907],[14.9227,40.8934],[14.9174,40.8967],[14.915,40.8974],[14.9199,40.9043],[14.9202,40.9008],[14.9268,40.8984],[14.9459,40.9034],[14.9456,40.8959],[14.9471,40.8944],[14.9522,40.8941],[14.956,40.8957],[14.9565,40.8996],[14.9542,40.9002],[14.9543,40.9014],[14.9574,40.9029],[14.9664,40.9006],[14.9626,40.89],[14.9628,40.8836],[14.9676,40.8788],[14.9715,40.8767]]]}},{"type":"Feature","properties":{"i":"064120","n":"Zungoli"},"geometry":{"type":"Polygon","coordinates":[[[15.2176,41.1441],[15.223,41.1422],[15.2357,41.1401],[15.2526,41.1228],[15.2638,41.1134],[15.2373,41.111],[15.231,41.1129],[15.2264,41.1108],[15.2128,41.1015],[15.2027,41.104],[15.1914,41.1019],[15.1862,41.1026],[15.1838,41.1048],[15.1863,41.1182],[15.1936,41.1266],[15.1964,41.1311],[15.1969,41.1347],[15.1953,41.136],[15.2007,41.1458],[15.2022,41.147],[15.2036,41.1468],[15.2116,41.142],[15.2163,41.141],[15.2176,41.1441]]]}},{"type":"Feature","properties":{"i":"064121","n":"Montoro"},"geometry":{"type":"Polygon","coordinates":[[[14.8126,40.8571],[14.8102,40.8515],[14.8118,40.8363],[14.813,40.8331],[14.8155,40.8285],[14.8188,40.826],[14.822,40.8263],[14.8352,40.8119],[14.8406,40.8092],[14.8445,40.8036],[14.8449,40.802],[14.844,40.7983],[14.8411,40.7955],[14.8352,40.7935],[14.8272,40.7941],[14.8151,40.8025],[14.814,40.8039],[14.8085,40.8051],[14.8018,40.8032],[14.8021,40.8001],[14.7978,40.7986],[14.7945,40.7984],[14.7744,40.8054],[14.7652,40.8046],[14.7635,40.8053],[14.7555,40.8036],[14.7476,40.8033],[14.7427,40.806],[14.7389,40.8118],[14.7302,40.8214],[14.7417,40.8285],[14.7383,40.8341],[14.7358,40.8363],[14.7642,40.8458],[14.7701,40.8491],[14.7712,40.8515],[14.7694,40.854],[14.7754,40.8513],[14.7873,40.8589],[14.7902,40.86],[14.8024,40.8593],[14.8126,40.8571]]]}}]}
