{"type":"FeatureCollection","fonte":"Confini comunali ISTAT via openpolis/geojson-italy — CC BY 4.0","features":[{"type":"Feature","properties":{"i":"072001","n":"Acquaviva delle Fonti"},"geometry":{"type":"MultiPolygon","coordinates":[[[[16.7975,40.7555],[16.7992,40.7635],[16.8022,40.7724],[16.811,40.7918],[16.8323,40.7974],[16.8422,40.7978],[16.8296,40.7778],[16.8285,40.7736],[16.8285,40.7671],[16.8302,40.7609],[16.8289,40.7546],[16.8245,40.7535],[16.7975,40.7555]]],[[[16.8416,40.8098],[16.8344,40.8126],[16.8361,40.8143],[16.8403,40.8147],[16.8444,40.813],[16.8416,40.8098]]],[[[16.8454,40.8161],[16.8441,40.8162],[16.8463,40.8165],[16.8454,40.8161]]],[[[16.8029,40.8686],[16.802,40.8677],[16.8001,40.8683],[16.799,40.8702],[16.8017,40.8727],[16.8051,40.871],[16.8029,40.8686]]],[[[16.7778,40.943],[16.7712,40.9462],[16.771,40.9548],[16.7737,40.9574],[16.7755,40.9579],[16.7834,40.9562],[16.786,40.9534],[16.7853,40.951],[16.7789,40.9457],[16.7778,40.943]]],[[[16.7799,40.9418],[16.7797,40.9426],[16.7815,40.9443],[16.7894,40.9492],[16.7915,40.9486],[16.7968,40.9509],[16.8043,40.9567],[16.8101,40.9596],[16.8201,40.9615],[16.826,40.9614],[16.8327,40.9593],[16.8351,40.9602],[16.8378,40.9631],[16.8417,40.9734],[16.8438,40.9729],[16.855,40.9664],[16.8542,40.9563],[16.8549,40.9526],[16.8668,40.9529],[16.8708,40.9546],[16.8731,40.9586],[16.8773,40.9616],[16.881,40.9618],[16.8817,40.956],[16.8809,40.9473],[16.886,40.9246],[16.8874,40.9143],[16.8899,40.9049],[16.8902,40.9041],[16.9026,40.9066],[16.9028,40.906],[16.9004,40.8973],[16.8981,40.8979],[16.8944,40.8955],[16.8952,40.8843],[16.8972,40.8732],[16.9014,40.8572],[16.9062,40.8532],[16.9095,40.8543],[16.9095,40.8504],[16.9088,40.8492],[16.9047,40.8465],[16.9008,40.8481],[16.8929,40.848],[16.8877,40.8465],[16.8728,40.8291],[16.8702,40.8228],[16.8662,40.8167],[16.8619,40.8148],[16.8522,40.813],[16.8516,40.8101],[16.8497,40.8064],[16.8457,40.8021],[16.8425,40.8036],[16.8428,40.8062],[16.8489,40.8078],[16.8489,40.8109],[16.8466,40.8167],[16.843,40.8169],[16.8403,40.8188],[16.8388,40.8236],[16.8427,40.8244],[16.8442,40.8256],[16.841,40.8278],[16.8368,40.8287],[16.8366,40.8223],[16.8345,40.8199],[16.8213,40.82],[16.8142,40.8215],[16.8003,40.8289],[16.7936,40.8337],[16.788,40.8383],[16.7874,40.8409],[16.7947,40.8598],[16.7987,40.8646],[16.8004,40.8655],[16.8145,40.8712],[16.8203,40.8704],[16.8219,40.8727],[16.8219,40.8772],[16.8198,40.8813],[16.8186,40.8817],[16.8137,40.8825],[16.8127,40.8818],[16.8166,40.8797],[16.8133,40.877],[16.8105,40.8803],[16.8101,40.8824],[16.8149,40.885],[16.813,40.8899],[16.8154,40.8911],[16.8158,40.8921],[16.8158,40.8927],[16.8146,40.8928],[16.8126,40.8899],[16.8076,40.8982],[16.8073,40.9054],[16.8117,40.9124],[16.8018,40.9195],[16.7977,40.9269],[16.786,40.9292],[16.7826,40.9224],[16.7796,40.9226],[16.7799,40.9418]]]]}},{"type":"Feature","properties":{"i":"072002","n":"Adelfia"},"geometry":{"type":"Polygon","coordinates":[[[16.904,41.0074],[16.9069,41.0068],[16.9096,41.0014],[16.9112,40.996],[16.907,40.9866],[16.8964,40.986],[16.8882,40.9866],[16.8852,40.9826],[16.8883,40.9713],[16.8872,40.9677],[16.8838,40.962],[16.8773,40.9616],[16.8731,40.9586],[16.8708,40.9546],[16.8668,40.9529],[16.8549,40.9526],[16.8542,40.9563],[16.855,40.9664],[16.8438,40.9729],[16.8417,40.9734],[16.8424,40.9768],[16.8452,40.9814],[16.8452,40.9896],[16.8397,41.0042],[16.8397,41.0114],[16.8455,41.0145],[16.846,41.0168],[16.8604,41.0231],[16.8604,41.0281],[16.8643,41.0251],[16.8755,41.0192],[16.904,41.0074]]]}},{"type":"Feature","properties":{"i":"072003","n":"Alberobello"},"geometry":{"type":"Polygon","coordinates":[[[17.2977,40.8201],[17.2957,40.817],[17.3102,40.8109],[17.3017,40.8021],[17.2976,40.8002],[17.2873,40.8011],[17.2862,40.7976],[17.2508,40.8002],[17.2435,40.7989],[17.2509,40.7758],[17.2509,40.7706],[17.248,40.7656],[17.2461,40.7656],[17.231,40.7581],[17.2278,40.7573],[17.2236,40.7577],[17.2178,40.7608],[17.2146,40.7613],[17.2115,40.7607],[17.2043,40.757],[17.2031,40.7609],[17.2038,40.7743],[17.2001,40.7785],[17.1942,40.7876],[17.187,40.7948],[17.1846,40.7994],[17.196,40.8041],[17.201,40.8074],[17.1986,40.8099],[17.2007,40.8192],[17.2023,40.821],[17.2274,40.8241],[17.2358,40.8262],[17.2417,40.8258],[17.243,40.8229],[17.2436,40.8255],[17.2717,40.8224],[17.2912,40.822],[17.2977,40.8201]],[[17.212,40.8104],[17.2075,40.8099],[17.2046,40.8059],[17.2127,40.8001],[17.2239,40.8062],[17.2237,40.8075],[17.2197,40.8124],[17.212,40.8104]]]}},{"type":"Feature","properties":{"i":"072004","n":"Altamura"},"geometry":{"type":"Polygon","coordinates":[[[16.5405,40.9438],[16.5435,40.9426],[16.5487,40.9422],[16.5639,40.933],[16.5692,40.9316],[16.5781,40.9308],[16.5842,40.9323],[16.5923,40.9357],[16.5977,40.9358],[16.6087,40.9311],[16.6195,40.9285],[16.6249,40.9229],[16.6324,40.9239],[16.6365,40.9261],[16.6435,40.9252],[16.6459,40.9226],[16.6531,40.9101],[16.6679,40.896],[16.6846,40.896],[16.6863,40.8934],[16.6868,40.8916],[16.6834,40.8875],[16.6844,40.8823],[16.6937,40.8667],[16.6951,40.8587],[16.6916,40.8559],[16.6826,40.846],[16.6942,40.8289],[16.6981,40.8127],[16.6981,40.8081],[16.6955,40.8039],[16.6744,40.789],[16.6601,40.7734],[16.6564,40.7654],[16.6552,40.7583],[16.6559,40.7555],[16.6579,40.7524],[16.6634,40.7489],[16.6615,40.7368],[16.6529,40.7363],[16.6494,40.738],[16.6517,40.7409],[16.6454,40.7454],[16.6403,40.7448],[16.6371,40.7482],[16.6391,40.7508],[16.6331,40.7534],[16.6271,40.7542],[16.6143,40.7529],[16.606,40.7555],[16.5991,40.7546],[16.5944,40.7526],[16.5894,40.7555],[16.5889,40.7603],[16.5856,40.7626],[16.5746,40.7618],[16.5692,40.7591],[16.5683,40.7579],[16.5668,40.754],[16.5674,40.7524],[16.5696,40.7499],[16.5732,40.748],[16.578,40.742],[16.5724,40.7369],[16.5683,40.7372],[16.5611,40.7464],[16.5608,40.7499],[16.5586,40.7545],[16.5545,40.7577],[16.5526,40.758],[16.5369,40.7529],[16.5313,40.7452],[16.5379,40.7421],[16.5369,40.7346],[16.5428,40.7297],[16.544,40.7255],[16.5384,40.7254],[16.5235,40.7354],[16.5204,40.7401],[16.5222,40.741],[16.5238,40.7432],[16.5227,40.7461],[16.5145,40.7492],[16.5084,40.7534],[16.5067,40.7578],[16.5011,40.7623],[16.5057,40.767],[16.5016,40.7773],[16.497,40.7836],[16.49,40.7903],[16.4779,40.7989],[16.4696,40.8068],[16.4567,40.8249],[16.4531,40.8405],[16.4503,40.8452],[16.4433,40.8511],[16.4462,40.8662],[16.4456,40.8755],[16.4336,40.8977],[16.4121,40.9182],[16.4068,40.9217],[16.3821,40.9321],[16.3436,40.9527],[16.3457,40.9575],[16.3523,40.9586],[16.3643,40.9626],[16.3758,40.9638],[16.4027,40.9616],[16.4062,40.9586],[16.4166,40.9587],[16.4318,40.9606],[16.4404,40.9608],[16.4573,40.9699],[16.4694,40.9785],[16.4719,40.9789],[16.472,40.9776],[16.4749,40.9755],[16.5051,40.9623],[16.5317,40.9472],[16.5405,40.9438]],[[16.6338,40.7548],[16.6358,40.7534],[16.6423,40.7516],[16.6459,40.7525],[16.6465,40.7542],[16.646,40.7552],[16.6415,40.7559],[16.6362,40.758],[16.6338,40.7548]]]}},{"type":"Feature","properties":{"i":"072006","n":"Bari"},"geometry":{"type":"Polygon","coordinates":[[[17.0335,41.0822],[17.0263,41.0743],[16.9584,41.0929],[16.9447,41.0921],[16.94,41.0898],[16.9239,41.0779],[16.9092,41.074],[16.9037,41.0694],[16.9002,41.0652],[16.8994,41.0627],[16.8815,41.0609],[16.8739,41.0558],[16.8747,41.0537],[16.8722,41.0459],[16.8637,41.0424],[16.8604,41.0281],[16.8604,41.0231],[16.846,41.0168],[16.8455,41.0145],[16.8391,41.0294],[16.8381,41.034],[16.8391,41.0435],[16.842,41.0539],[16.8414,41.0592],[16.8377,41.0645],[16.832,41.0661],[16.8297,41.0684],[16.8296,41.0719],[16.8211,41.0745],[16.8159,41.0787],[16.8153,41.0796],[16.8181,41.0843],[16.8151,41.087],[16.8066,41.0891],[16.8089,41.0909],[16.8085,41.0977],[16.7977,41.1114],[16.7902,41.1182],[16.7864,41.1201],[16.7676,41.1116],[16.7613,41.1116],[16.7571,41.1141],[16.75,41.1148],[16.7515,41.1182],[16.7509,41.1222],[16.7431,41.1295],[16.7236,41.1529],[16.7173,41.1548],[16.718,41.1562],[16.7293,41.1583],[16.7316,41.1698],[16.7446,41.168],[16.7533,41.1651],[16.7629,41.1605],[16.7756,41.1607],[16.7788,41.1597],[16.7923,41.1483],[16.8024,41.1433],[16.8115,41.1401],[16.8276,41.1373],[16.835,41.137],[16.8414,41.1393],[16.8454,41.1398],[16.848,41.1378],[16.847,41.1358],[16.8516,41.1301],[16.8626,41.1295],[16.8655,41.1305],[16.8689,41.1358],[16.8709,41.1357],[16.8712,41.1398],[16.8667,41.1431],[16.8599,41.1435],[16.8538,41.1454],[16.8682,41.1432],[16.871,41.1419],[16.8724,41.1402],[16.8722,41.1296],[16.8733,41.1256],[16.8778,41.1231],[16.8908,41.1188],[16.9022,41.1168],[16.915,41.1129],[16.9274,41.1116],[16.9602,41.0973],[16.9854,41.0935],[17.0004,41.088],[17.0335,41.0822]]]}},{"type":"Feature","properties":{"i":"072008","n":"Binetto"},"geometry":{"type":"MultiPolygon","coordinates":[[[[16.5641,41.0028],[16.5709,40.9965],[16.5707,40.9931],[16.5634,40.9833],[16.5568,40.9865],[16.5436,41.0012],[16.5542,41.0011],[16.5641,41.0028]]],[[[16.7046,41.0173],[16.703,41.0184],[16.7038,41.019],[16.7052,41.0178],[16.7046,41.0173]]],[[[16.76,40.9975],[16.7619,40.9946],[16.7643,40.9869],[16.7653,40.9747],[16.7639,40.973],[16.7486,40.983],[16.7422,40.991],[16.7365,40.9954],[16.7285,40.9987],[16.7237,41.0094],[16.7144,41.0178],[16.7042,41.0195],[16.689,41.0129],[16.6843,41.0165],[16.6842,41.0188],[16.688,41.0289],[16.7106,41.0376],[16.7237,41.0409],[16.7259,41.0384],[16.7302,41.0277],[16.7314,41.0118],[16.7338,41.0093],[16.7484,41.0036],[16.76,40.9975]]]]}},{"type":"Feature","properties":{"i":"072010","n":"Bitetto"},"geometry":{"type":"Polygon","coordinates":[[[16.749,41.0742],[16.7516,41.0721],[16.7554,41.0719],[16.7643,41.0679],[16.7789,41.0588],[16.7967,41.0493],[16.802,41.0454],[16.8029,41.0429],[16.802,41.0408],[16.7994,41.0261],[16.7982,41.0239],[16.7904,41.0265],[16.7793,41.0275],[16.7708,41.0168],[16.7683,41.0104],[16.7612,41.0029],[16.76,40.9975],[16.7484,41.0036],[16.7338,41.0093],[16.7314,41.0118],[16.7302,41.0277],[16.7259,41.0384],[16.7237,41.0409],[16.7274,41.0441],[16.7276,41.0518],[16.73,41.0618],[16.7342,41.0649],[16.7384,41.0668],[16.7407,41.07],[16.7396,41.0716],[16.749,41.0742]]]}},{"type":"Feature","properties":{"i":"072011","n":"Bitonto"},"geometry":{"type":"Polygon","coordinates":[[[16.75,41.1148],[16.7495,41.1144],[16.7512,41.1077],[16.7557,41.0996],[16.7482,41.0865],[16.7479,41.08],[16.749,41.0787],[16.7498,41.0742],[16.7396,41.0716],[16.7379,41.0739],[16.7385,41.0774],[16.7324,41.0822],[16.7221,41.0864],[16.717,41.0873],[16.6903,41.0781],[16.6824,41.074],[16.6696,41.0725],[16.6443,41.0752],[16.6351,41.0706],[16.6264,41.0646],[16.6188,41.0664],[16.6158,41.0608],[16.6031,41.0592],[16.6053,41.055],[16.61,41.0513],[16.6052,41.0484],[16.594,41.0376],[16.5826,41.0389],[16.5754,41.0268],[16.5762,41.02],[16.5758,41.0182],[16.5664,41.0038],[16.5578,41.0015],[16.5436,41.0012],[16.5568,40.9865],[16.5634,40.9833],[16.5557,40.9778],[16.5547,40.9759],[16.5421,40.9625],[16.5405,40.9438],[16.5317,40.9472],[16.5051,40.9623],[16.4749,40.9755],[16.472,40.9776],[16.4714,40.9813],[16.4717,40.9877],[16.4736,40.9922],[16.4761,40.9954],[16.4971,41.0103],[16.5027,41.0101],[16.5094,41.0129],[16.511,41.0176],[16.5113,41.021],[16.511,41.0328],[16.5147,41.0438],[16.5236,41.0442],[16.5328,41.0459],[16.5411,41.0515],[16.5661,41.0788],[16.5687,41.0933],[16.5741,41.0994],[16.5921,41.1045],[16.6046,41.1058],[16.6083,41.107],[16.6148,41.1176],[16.6189,41.1209],[16.6203,41.1238],[16.6212,41.1293],[16.6277,41.1359],[16.6323,41.138],[16.6348,41.136],[16.642,41.1361],[16.6485,41.1401],[16.6579,41.1385],[16.6642,41.1436],[16.6736,41.1465],[16.6845,41.1494],[16.7017,41.1511],[16.7183,41.1547],[16.7236,41.1529],[16.7431,41.1295],[16.7509,41.1222],[16.7515,41.1182],[16.75,41.1148]]]}},{"type":"Feature","properties":{"i":"072012","n":"Bitritto"},"geometry":{"type":"Polygon","coordinates":[[[16.8455,41.0145],[16.8292,41.0072],[16.8229,41.006],[16.8135,41.0119],[16.8108,41.0195],[16.7982,41.0239],[16.7994,41.0261],[16.802,41.0408],[16.8029,41.0429],[16.8057,41.0438],[16.8083,41.0467],[16.809,41.049],[16.8078,41.0517],[16.8137,41.0618],[16.8265,41.0695],[16.8286,41.0691],[16.832,41.0661],[16.8377,41.0645],[16.8414,41.0592],[16.842,41.0539],[16.8391,41.0435],[16.8381,41.034],[16.8391,41.0294],[16.8455,41.0145]]]}},{"type":"Feature","properties":{"i":"072014","n":"Capurso"},"geometry":{"type":"Polygon","coordinates":[[[16.9548,41.0437],[16.9548,41.0422],[16.9509,41.0381],[16.951,41.034],[16.9532,41.0316],[16.9445,41.0307],[16.9422,41.0265],[16.9318,41.0271],[16.9237,41.0264],[16.917,41.0243],[16.9128,41.0136],[16.913,41.0117],[16.9074,41.0114],[16.9056,41.0146],[16.9056,41.0187],[16.909,41.02],[16.9094,41.0264],[16.9086,41.0291],[16.9044,41.0338],[16.9034,41.0375],[16.9045,41.0431],[16.904,41.0465],[16.9022,41.0493],[16.8987,41.0522],[16.897,41.0601],[16.8984,41.0628],[16.9089,41.0624],[16.918,41.0615],[16.9218,41.0571],[16.9331,41.0583],[16.9451,41.0521],[16.9548,41.0437]]]}},{"type":"Feature","properties":{"i":"072015","n":"Casamassima"},"geometry":{"type":"Polygon","coordinates":[[[16.9404,41.002],[16.9425,40.9979],[16.9463,40.9978],[16.9513,40.9952],[16.9578,40.9904],[16.9614,40.9806],[16.9646,40.9783],[16.971,40.9693],[16.9696,40.9641],[16.973,40.9571],[16.9737,40.952],[16.971,40.9427],[16.9683,40.9387],[16.9662,40.9297],[16.9648,40.9192],[16.9645,40.9091],[16.9421,40.9101],[16.9385,40.9084],[16.9381,40.9061],[16.9346,40.9017],[16.9296,40.8987],[16.9246,40.9004],[16.9222,40.8945],[16.9243,40.8868],[16.9241,40.8749],[16.9043,40.8743],[16.9043,40.8729],[16.8972,40.8732],[16.8952,40.8843],[16.8944,40.8955],[16.8981,40.8979],[16.9004,40.8973],[16.9028,40.906],[16.9026,40.9066],[16.8902,40.9041],[16.8874,40.9143],[16.886,40.9246],[16.8809,40.9473],[16.8817,40.956],[16.881,40.9618],[16.8838,40.962],[16.8872,40.9677],[16.8883,40.9713],[16.8852,40.9826],[16.8882,40.9866],[16.8964,40.986],[16.907,40.9866],[16.9112,40.996],[16.9096,41.0014],[16.9069,41.0068],[16.904,41.0074],[16.9074,41.0114],[16.913,41.0117],[16.9192,41.0081],[16.9404,41.002]]]}},{"type":"Feature","properties":{"i":"072016","n":"Cassano delle Murge"},"geometry":{"type":"Polygon","coordinates":[[[16.7874,40.8409],[16.7846,40.8415],[16.7814,40.8455],[16.7742,40.8446],[16.774,40.8474],[16.7727,40.8478],[16.7635,40.8418],[16.7588,40.8435],[16.7572,40.8452],[16.753,40.8459],[16.7477,40.8452],[16.7378,40.8385],[16.7343,40.8385],[16.7309,40.8396],[16.7292,40.8413],[16.7257,40.8399],[16.72,40.8348],[16.717,40.8286],[16.7185,40.8276],[16.7309,40.83],[16.7346,40.8269],[16.7328,40.8242],[16.7307,40.8244],[16.7257,40.8271],[16.7207,40.8238],[16.7217,40.8219],[16.7211,40.821],[16.7126,40.8214],[16.7165,40.8289],[16.7161,40.8314],[16.7017,40.8334],[16.6984,40.8321],[16.6942,40.8289],[16.6826,40.846],[16.6916,40.8559],[16.6951,40.8587],[16.6937,40.8667],[16.6844,40.8823],[16.6834,40.8875],[16.6868,40.8916],[16.6846,40.896],[16.6982,40.8988],[16.7113,40.8993],[16.7186,40.9049],[16.724,40.9177],[16.7212,40.9202],[16.7236,40.9274],[16.7401,40.9286],[16.7468,40.9274],[16.7566,40.9271],[16.7662,40.9307],[16.7722,40.9347],[16.7778,40.943],[16.7799,40.9418],[16.7802,40.9408],[16.7796,40.9226],[16.7826,40.9224],[16.786,40.9292],[16.7977,40.9269],[16.8018,40.9195],[16.8117,40.9124],[16.8073,40.9054],[16.8076,40.8982],[16.8126,40.8899],[16.8146,40.8928],[16.8158,40.8927],[16.8158,40.8921],[16.8154,40.8911],[16.813,40.8899],[16.8149,40.885],[16.8101,40.8824],[16.8105,40.8803],[16.8133,40.877],[16.8166,40.8797],[16.8127,40.8818],[16.8137,40.8825],[16.8186,40.8817],[16.8198,40.8813],[16.8219,40.8772],[16.8219,40.8727],[16.8203,40.8704],[16.8145,40.8712],[16.7987,40.8646],[16.7947,40.8598],[16.7874,40.8409]],[[16.8029,40.8686],[16.8051,40.871],[16.8017,40.8727],[16.799,40.8702],[16.8001,40.8683],[16.802,40.8677],[16.8029,40.8686]],[[16.7201,40.8371],[16.7216,40.8381],[16.7196,40.8382],[16.7201,40.8371]]]}},{"type":"Feature","properties":{"i":"072017","n":"Castellana Grotte"},"geometry":{"type":"MultiPolygon","coordinates":[[[[17.212,40.8104],[17.2197,40.8124],[17.2237,40.8075],[17.2239,40.8062],[17.2127,40.8001],[17.2046,40.8059],[17.2075,40.8099],[17.212,40.8104]]],[[[17.2417,40.8258],[17.2436,40.8255],[17.243,40.8229],[17.2417,40.8258]]],[[[17.1322,40.9187],[17.1308,40.9187],[17.1315,40.92],[17.1325,40.9196],[17.1322,40.9187]]],[[[17.2385,40.8261],[17.2332,40.827],[17.2315,40.8284],[17.2317,40.8314],[17.2303,40.834],[17.2143,40.8354],[17.2215,40.8237],[17.2023,40.821],[17.2007,40.8192],[17.1986,40.8099],[17.1954,40.8112],[17.1936,40.8148],[17.1867,40.8193],[17.1835,40.8225],[17.1819,40.8278],[17.1613,40.8447],[17.1591,40.851],[17.1608,40.8521],[17.1615,40.8544],[17.1598,40.8567],[17.1528,40.8592],[17.149,40.8635],[17.1476,40.8672],[17.1375,40.8728],[17.1309,40.8795],[17.1191,40.8859],[17.1232,40.9007],[17.123,40.9089],[17.1257,40.9104],[17.1274,40.9087],[17.1347,40.9092],[17.1361,40.9102],[17.14,40.9159],[17.1396,40.9178],[17.1413,40.9194],[17.1454,40.9201],[17.1515,40.9179],[17.1495,40.9134],[17.1502,40.9099],[17.1532,40.9044],[17.155,40.9028],[17.1611,40.9039],[17.1638,40.9055],[17.1677,40.9046],[17.1742,40.901],[17.186,40.896],[17.188,40.8976],[17.1891,40.905],[17.1873,40.9168],[17.1876,40.9236],[17.1914,40.9218],[17.2055,40.9111],[17.2059,40.902],[17.2116,40.89],[17.2273,40.8764],[17.2423,40.8677],[17.2418,40.8602],[17.2363,40.8584],[17.231,40.8518],[17.2307,40.849],[17.233,40.8432],[17.2375,40.8392],[17.2431,40.8439],[17.241,40.8464],[17.2432,40.8487],[17.252,40.8406],[17.2577,40.8326],[17.2497,40.8307],[17.2369,40.8323],[17.239,40.8293],[17.2385,40.8261]]]]}},{"type":"Feature","properties":{"i":"072018","n":"Cellamare"},"geometry":{"type":"Polygon","coordinates":[[[16.9404,41.002],[16.9192,41.0081],[16.913,41.0117],[16.9128,41.0136],[16.917,41.0243],[16.9237,41.0264],[16.9318,41.0271],[16.9422,41.0265],[16.9445,41.0307],[16.9535,41.0316],[16.955,41.0274],[16.9461,41.025],[16.9427,41.0218],[16.9421,41.0176],[16.9425,41.0078],[16.9404,41.002]]]}},{"type":"Feature","properties":{"i":"072019","n":"Conversano"},"geometry":{"type":"Polygon","coordinates":[[[17.1515,40.9179],[17.1454,40.9201],[17.1413,40.9194],[17.1396,40.9178],[17.14,40.9159],[17.1361,40.9102],[17.1347,40.9092],[17.1274,40.9087],[17.1257,40.9104],[17.123,40.9089],[17.1232,40.9007],[17.1191,40.8859],[17.1192,40.8841],[17.1128,40.8778],[17.1067,40.8763],[17.1023,40.8764],[17.0974,40.8807],[17.0911,40.8845],[17.0869,40.8854],[17.0839,40.8889],[17.0864,40.8918],[17.0778,40.8936],[17.0765,40.8934],[17.0701,40.8878],[17.069,40.8853],[17.0641,40.8817],[17.0576,40.8842],[17.0524,40.8872],[17.0532,40.8906],[17.0578,40.895],[17.0588,40.8988],[17.0561,40.9045],[17.0534,40.9136],[17.0533,40.9182],[17.0548,40.9198],[17.055,40.9234],[17.0458,40.9341],[17.051,40.9398],[17.053,40.9452],[17.0511,40.9457],[17.0466,40.9447],[17.04,40.9448],[17.0336,40.9519],[17.0293,40.9582],[17.0314,40.9587],[17.0413,40.9678],[17.0395,40.9781],[17.042,40.9841],[17.0457,40.9855],[17.0518,40.9893],[17.0543,40.9992],[17.0601,40.9993],[17.0624,41.0069],[17.0676,41.0088],[17.0741,41.0074],[17.0762,41.0056],[17.0808,41.0045],[17.0871,41.0058],[17.1026,41.0196],[17.1181,41.0185],[17.1298,41.0193],[17.1328,41.0152],[17.1397,41.0177],[17.1411,41.025],[17.1435,41.0239],[17.1493,41.0187],[17.1582,41.0063],[17.1596,40.9948],[17.1589,40.9876],[17.1642,40.9777],[17.1653,40.9726],[17.1632,40.9681],[17.1638,40.9639],[17.1663,40.9602],[17.1624,40.9454],[17.1678,40.9445],[17.1697,40.9418],[17.1715,40.9352],[17.1698,40.9257],[17.1682,40.9213],[17.1615,40.9176],[17.156,40.9172],[17.1515,40.9179]],[[17.1573,40.9445],[17.1532,40.9426],[17.1575,40.9389],[17.1594,40.9384],[17.16,40.939],[17.1608,40.9458],[17.1582,40.9467],[17.1573,40.9445]],[[17.164,40.9344],[17.1645,40.9342],[17.1649,40.9367],[17.1638,40.9371],[17.1613,40.9358],[17.164,40.9344]],[[17.1322,40.9187],[17.1325,40.9196],[17.1315,40.92],[17.1308,40.9187],[17.1322,40.9187]]]}},{"type":"Feature","properties":{"i":"072020","n":"Corato"},"geometry":{"type":"Polygon","coordinates":[[[16.4288,41.1903],[16.4363,41.1882],[16.4434,41.1798],[16.4565,41.1739],[16.4599,41.1704],[16.4637,41.1636],[16.4656,41.1564],[16.4679,41.1525],[16.4556,41.1422],[16.4479,41.1371],[16.4433,41.1272],[16.4366,41.1286],[16.4337,41.1266],[16.4218,41.1097],[16.4138,41.1],[16.4045,41.0924],[16.3986,41.0857],[16.4007,41.078],[16.398,41.0676],[16.3975,41.0546],[16.396,41.0522],[16.3861,41.0449],[16.3799,41.0441],[16.378,41.0432],[16.3759,41.0395],[16.377,41.0366],[16.3784,41.0365],[16.3807,41.0346],[16.3827,41.0302],[16.3831,41.0178],[16.3592,41.0007],[16.3462,40.9999],[16.339,40.9918],[16.3202,40.9964],[16.3226,41.0061],[16.3226,41.0118],[16.3071,41.0203],[16.3062,41.021],[16.3071,41.0233],[16.3057,41.0247],[16.2965,41.0281],[16.2873,41.0304],[16.2771,41.0318],[16.2675,41.0288],[16.2633,41.0325],[16.266,41.0386],[16.2787,41.054],[16.2991,41.0741],[16.3,41.0792],[16.2987,41.0845],[16.3075,41.0874],[16.313,41.0902],[16.3228,41.1068],[16.3437,41.1215],[16.3473,41.1253],[16.3517,41.1347],[16.3466,41.1391],[16.3404,41.143],[16.3377,41.1514],[16.3417,41.1564],[16.34,41.1665],[16.3492,41.1639],[16.3587,41.1643],[16.3605,41.1683],[16.3638,41.1712],[16.3755,41.1768],[16.3828,41.1773],[16.3849,41.18],[16.3812,41.1817],[16.3859,41.1917],[16.3879,41.1947],[16.3916,41.1961],[16.3971,41.1941],[16.3981,41.1894],[16.4027,41.188],[16.4197,41.1872],[16.4262,41.1888],[16.4288,41.1903]]]}},{"type":"Feature","properties":{"i":"072021","n":"Gioia del Colle"},"geometry":{"type":"Polygon","coordinates":[[[16.9798,40.8474],[16.9804,40.8472],[16.9788,40.8397],[16.9829,40.8463],[16.9859,40.8457],[16.9849,40.8384],[16.9817,40.8369],[16.9823,40.8353],[16.9889,40.8329],[16.9897,40.8329],[16.9907,40.8346],[16.9921,40.834],[16.9971,40.8304],[17.0041,40.8227],[17.0125,40.8157],[17.0183,40.812],[17.0213,40.8051],[17.0238,40.7834],[17.0222,40.7827],[17.0219,40.7813],[17.029,40.7764],[17.0338,40.7751],[17.0352,40.7732],[17.0335,40.7708],[17.0059,40.7546],[16.9715,40.7413],[16.947,40.7432],[16.9375,40.7416],[16.9287,40.7387],[16.9259,40.7368],[16.9233,40.7291],[16.9231,40.726],[16.9303,40.7156],[16.9307,40.7129],[16.9119,40.7071],[16.9041,40.7066],[16.8997,40.7077],[16.8993,40.712],[16.8924,40.7151],[16.8751,40.7165],[16.8707,40.7115],[16.8673,40.7182],[16.8639,40.7215],[16.8567,40.7237],[16.8489,40.7205],[16.8471,40.719],[16.8456,40.7156],[16.8421,40.7128],[16.8344,40.7095],[16.818,40.7062],[16.8186,40.6993],[16.8218,40.6939],[16.8086,40.692],[16.8001,40.695],[16.7977,40.7047],[16.7868,40.7333],[16.7964,40.7343],[16.7954,40.7507],[16.7975,40.7555],[16.8245,40.7535],[16.8289,40.7546],[16.8302,40.7609],[16.8285,40.7671],[16.8285,40.7736],[16.8296,40.7778],[16.8422,40.7978],[16.8483,40.8042],[16.8514,40.8094],[16.8522,40.813],[16.8619,40.8148],[16.8662,40.8167],[16.8702,40.8228],[16.8728,40.8291],[16.8877,40.8465],[16.8929,40.848],[16.9008,40.8481],[16.9047,40.8465],[16.9095,40.8504],[16.9095,40.8543],[16.9062,40.8532],[16.9014,40.8572],[16.9006,40.8617],[16.9219,40.8553],[16.9393,40.8514],[16.9516,40.8473],[16.9627,40.8459],[16.9798,40.8474]]]}},{"type":"Feature","properties":{"i":"072022","n":"Giovinazzo"},"geometry":{"type":"Polygon","coordinates":[[[16.7316,41.1698],[16.7293,41.1583],[16.718,41.1562],[16.717,41.1539],[16.6931,41.1497],[16.6845,41.1494],[16.6736,41.1465],[16.6642,41.1436],[16.6579,41.1385],[16.6485,41.1401],[16.642,41.1361],[16.6348,41.136],[16.6323,41.138],[16.6277,41.1359],[16.6212,41.1293],[16.6203,41.1238],[16.6189,41.1209],[16.6148,41.1176],[16.6081,41.1175],[16.6035,41.1215],[16.5995,41.131],[16.5949,41.1367],[16.6005,41.1378],[16.6143,41.1463],[16.6169,41.1523],[16.6146,41.1542],[16.6122,41.1607],[16.6184,41.1612],[16.6191,41.1625],[16.6175,41.1725],[16.6208,41.1779],[16.6347,41.187],[16.6402,41.1944],[16.6485,41.1918],[16.6521,41.1912],[16.6604,41.1924],[16.6749,41.189],[16.6823,41.1822],[16.6996,41.1767],[16.7316,41.1698]]]}},{"type":"Feature","properties":{"i":"072023","n":"Gravina in Puglia"},"geometry":{"type":"Polygon","coordinates":[[[16.3457,40.9575],[16.344,40.9546],[16.3438,40.9522],[16.3821,40.9321],[16.4068,40.9217],[16.4121,40.9182],[16.4336,40.8977],[16.4456,40.8755],[16.4462,40.8662],[16.4433,40.8511],[16.4503,40.8452],[16.4531,40.8405],[16.4567,40.8249],[16.4696,40.8068],[16.4779,40.7989],[16.49,40.7903],[16.4957,40.7852],[16.5016,40.7773],[16.5047,40.7698],[16.5057,40.767],[16.4965,40.7586],[16.4817,40.7392],[16.462,40.7239],[16.43,40.704],[16.4201,40.702],[16.4138,40.7019],[16.4002,40.7074],[16.3848,40.7327],[16.3794,40.737],[16.3602,40.7453],[16.3469,40.752],[16.3162,40.7831],[16.2979,40.7934],[16.2844,40.7992],[16.2747,40.8069],[16.2699,40.8136],[16.2635,40.8183],[16.2544,40.8281],[16.252,40.8333],[16.243,40.8385],[16.2404,40.8454],[16.2332,40.8527],[16.231,40.8569],[16.2256,40.8749],[16.2258,40.8781],[16.2325,40.8784],[16.2322,40.881],[16.2378,40.8874],[16.2455,40.8911],[16.2517,40.892],[16.2558,40.8903],[16.2627,40.8908],[16.2773,40.8984],[16.2919,40.9115],[16.2945,40.918],[16.2953,40.9211],[16.2932,40.9287],[16.295,40.9428],[16.2896,40.944],[16.28,40.9424],[16.2741,40.9436],[16.2604,40.9507],[16.2519,40.9622],[16.2664,41.0053],[16.2807,40.9926],[16.3064,40.9809],[16.3272,40.9658],[16.3457,40.9575]]]}},{"type":"Feature","properties":{"i":"072024","n":"Grumo Appula"},"geometry":{"type":"Polygon","coordinates":[[[16.7639,40.973],[16.7646,40.9721],[16.7637,40.9651],[16.7586,40.9515],[16.7462,40.9473],[16.7391,40.9497],[16.7257,40.9444],[16.7161,40.9363],[16.7118,40.9311],[16.7099,40.927],[16.7101,40.924],[16.7154,40.9229],[16.7212,40.9202],[16.724,40.9177],[16.7186,40.9049],[16.7113,40.8993],[16.6982,40.8988],[16.6846,40.896],[16.6679,40.896],[16.6531,40.9101],[16.6459,40.9226],[16.6435,40.9252],[16.6365,40.9261],[16.6324,40.9239],[16.6249,40.9229],[16.6195,40.9285],[16.6156,40.9297],[16.6205,40.9354],[16.6267,40.9459],[16.6321,40.9519],[16.6476,40.9666],[16.6548,40.9656],[16.6835,40.9652],[16.6872,40.9664],[16.6917,40.9774],[16.6949,40.9898],[16.695,41.0014],[16.6963,41.0087],[16.6963,41.0099],[16.6945,41.0112],[16.689,41.0129],[16.7042,41.0195],[16.7125,41.0184],[16.7165,41.0163],[16.7237,41.0094],[16.7285,40.9987],[16.7365,40.9954],[16.7422,40.991],[16.7486,40.983],[16.7639,40.973]],[[16.7046,41.0173],[16.7052,41.0178],[16.7038,41.019],[16.703,41.0184],[16.7046,41.0173]]]}},{"type":"Feature","properties":{"i":"072025","n":"Locorotondo"},"geometry":{"type":"MultiPolygon","coordinates":[[[[17.2829,40.7783],[17.2806,40.7784],[17.2801,40.78],[17.2826,40.7809],[17.2829,40.7783]]],[[[17.2993,40.7868],[17.2971,40.7878],[17.2986,40.789],[17.2997,40.7885],[17.2993,40.7868]]],[[[17.2905,40.7893],[17.2896,40.7895],[17.2901,40.7911],[17.2918,40.7907],[17.2905,40.7893]]],[[[17.3979,40.7786],[17.3985,40.7767],[17.3977,40.7751],[17.3942,40.7723],[17.3915,40.7728],[17.3873,40.771],[17.3919,40.7594],[17.3956,40.7569],[17.3937,40.7485],[17.3915,40.7475],[17.3846,40.7498],[17.3749,40.7504],[17.367,40.7496],[17.363,40.7481],[17.3507,40.7489],[17.341,40.7429],[17.3403,40.7393],[17.3356,40.7378],[17.3329,40.7405],[17.323,40.7436],[17.3206,40.7414],[17.3157,40.7409],[17.3068,40.7446],[17.3015,40.7491],[17.2986,40.7541],[17.29,40.7624],[17.283,40.7676],[17.2822,40.7724],[17.2835,40.7737],[17.2929,40.7741],[17.3011,40.7725],[17.3011,40.7745],[17.2891,40.7821],[17.2888,40.787],[17.2915,40.7888],[17.2959,40.7886],[17.2945,40.7857],[17.2951,40.7849],[17.3017,40.7846],[17.3074,40.7875],[17.3104,40.7904],[17.3087,40.7939],[17.3057,40.7952],[17.304,40.7972],[17.3017,40.8021],[17.3102,40.8109],[17.333,40.8068],[17.3459,40.7992],[17.357,40.7907],[17.3649,40.7864],[17.3762,40.7876],[17.3877,40.7857],[17.3986,40.7857],[17.3998,40.7845],[17.3979,40.7786]]]]}},{"type":"Feature","properties":{"i":"072027","n":"Modugno"},"geometry":{"type":"Polygon","coordinates":[[[16.8297,41.0684],[16.8265,41.0695],[16.8137,41.0618],[16.8078,41.0517],[16.809,41.049],[16.8083,41.0467],[16.8057,41.0438],[16.8029,41.0429],[16.802,41.0454],[16.7967,41.0493],[16.7789,41.0588],[16.7643,41.0679],[16.7554,41.0719],[16.7516,41.0721],[16.749,41.0742],[16.7498,41.0742],[16.749,41.0787],[16.7479,41.08],[16.7482,41.0865],[16.7557,41.0996],[16.7522,41.1051],[16.7495,41.1144],[16.7563,41.1143],[16.7613,41.1116],[16.7663,41.1114],[16.7864,41.1201],[16.7902,41.1182],[16.7977,41.1114],[16.8085,41.0977],[16.8089,41.0909],[16.8066,41.0891],[16.8151,41.087],[16.8181,41.0843],[16.8153,41.0796],[16.8159,41.0787],[16.8211,41.0745],[16.8296,41.0719],[16.8297,41.0684]]]}},{"type":"Feature","properties":{"i":"072028","n":"Mola di Bari"},"geometry":{"type":"MultiPolygon","coordinates":[[[[17.0481,41.0102],[17.048,41.0087],[17.0462,41.0087],[17.0438,41.0101],[17.044,41.0109],[17.047,41.0111],[17.0481,41.0102]]],[[[17.0384,41.0295],[17.037,41.0288],[17.0356,41.0307],[17.0369,41.0312],[17.0384,41.0295]]],[[[17.0481,41.0102],[17.048,41.0133],[17.0496,41.0157],[17.049,41.0194],[17.0412,41.0232],[17.0398,41.0308],[17.0335,41.0336],[17.0281,41.0389],[17.0253,41.0397],[17.0279,41.0511],[17.0301,41.0511],[17.033,41.0536],[17.035,41.0567],[17.0374,41.0657],[17.0296,41.0697],[17.0252,41.0732],[17.0335,41.0822],[17.0583,41.076],[17.064,41.0729],[17.0907,41.0633],[17.0962,41.0592],[17.1149,41.0495],[17.1447,41.0366],[17.142,41.0336],[17.1407,41.0302],[17.1424,41.0295],[17.1397,41.0177],[17.1328,41.0152],[17.1298,41.0193],[17.1181,41.0185],[17.1026,41.0196],[17.0871,41.0058],[17.0808,41.0045],[17.0762,41.0056],[17.0741,41.0074],[17.0676,41.0088],[17.0624,41.0069],[17.0601,40.9993],[17.0543,40.9992],[17.0509,41.0026],[17.0494,41.0069],[17.0507,41.0082],[17.051,41.0126],[17.0501,41.0127],[17.0481,41.0102]]]]}},{"type":"Feature","properties":{"i":"072029","n":"Molfetta"},"geometry":{"type":"Polygon","coordinates":[[[16.6402,41.1944],[16.6347,41.187],[16.6208,41.1779],[16.6175,41.1725],[16.6191,41.1625],[16.6184,41.1612],[16.6122,41.1607],[16.6146,41.1542],[16.6169,41.1523],[16.6143,41.1463],[16.6005,41.1378],[16.5944,41.1372],[16.5912,41.1388],[16.5901,41.1405],[16.5904,41.1416],[16.5886,41.1468],[16.585,41.1518],[16.5798,41.1571],[16.5731,41.1601],[16.5698,41.1605],[16.5665,41.1599],[16.5645,41.1582],[16.5376,41.1615],[16.535,41.1609],[16.5264,41.1547],[16.525,41.1544],[16.5131,41.1568],[16.5081,41.1594],[16.517,41.1725],[16.5142,41.1748],[16.5109,41.183],[16.5173,41.1923],[16.5303,41.2049],[16.5338,41.2074],[16.5377,41.2124],[16.5395,41.2173],[16.5387,41.2201],[16.5393,41.2226],[16.5423,41.2295],[16.546,41.2277],[16.5597,41.2246],[16.5705,41.2189],[16.5742,41.2158],[16.5843,41.2119],[16.5845,41.2075],[16.5921,41.2054],[16.6009,41.2048],[16.628,41.1941],[16.6325,41.1931],[16.6374,41.195],[16.6402,41.1944]]]}},{"type":"Feature","properties":{"i":"072030","n":"Monopoli"},"geometry":{"type":"MultiPolygon","coordinates":[[[[17.2358,40.8262],[17.2274,40.8241],[17.2215,40.8237],[17.2143,40.8354],[17.2303,40.834],[17.2317,40.8314],[17.2315,40.8284],[17.2358,40.8262]]],[[[17.3892,40.8923],[17.3703,40.8855],[17.3547,40.8768],[17.3542,40.8745],[17.3467,40.869],[17.3415,40.8634],[17.3416,40.8617],[17.3391,40.8585],[17.3216,40.8431],[17.3121,40.841],[17.3104,40.829],[17.2977,40.8201],[17.2912,40.822],[17.2717,40.8224],[17.2385,40.8261],[17.239,40.8293],[17.2369,40.8323],[17.2497,40.8307],[17.2577,40.8326],[17.252,40.8406],[17.2432,40.8487],[17.241,40.8464],[17.2431,40.8439],[17.2375,40.8392],[17.233,40.8432],[17.2307,40.849],[17.231,40.8518],[17.2363,40.8584],[17.2418,40.8602],[17.2423,40.8677],[17.2273,40.8764],[17.2116,40.89],[17.2059,40.902],[17.2055,40.9111],[17.1914,40.9218],[17.1876,40.9236],[17.194,40.941],[17.1975,40.9447],[17.2038,40.9486],[17.2133,40.9468],[17.216,40.9505],[17.2152,40.9527],[17.2209,40.9538],[17.2256,40.9528],[17.2338,40.9534],[17.2363,40.9562],[17.2389,40.9612],[17.2462,40.961],[17.2515,40.9652],[17.2536,40.9685],[17.254,40.9731],[17.258,40.9784],[17.2601,40.9798],[17.2637,40.9749],[17.273,40.9743],[17.2823,40.9695],[17.2832,40.9687],[17.2825,40.9663],[17.2861,40.9642],[17.2976,40.9589],[17.3018,40.9583],[17.3058,40.9506],[17.317,40.9412],[17.3284,40.9351],[17.3444,40.9147],[17.3459,40.9099],[17.3515,40.9051],[17.3675,40.8989],[17.3828,40.8952],[17.3892,40.8923]]]]}},{"type":"Feature","properties":{"i":"072031","n":"Noci"},"geometry":{"type":"Polygon","coordinates":[[[17.1954,40.8112],[17.1991,40.8096],[17.201,40.8074],[17.196,40.8041],[17.1846,40.7994],[17.187,40.7948],[17.1942,40.7876],[17.2001,40.7785],[17.2038,40.7743],[17.2031,40.7609],[17.2006,40.7614],[17.1599,40.7438],[17.157,40.7416],[17.1512,40.7221],[17.1501,40.7123],[17.1485,40.7099],[17.1227,40.707],[17.1162,40.7082],[17.1168,40.7109],[17.113,40.7135],[17.1017,40.7145],[17.0983,40.7119],[17.0965,40.7088],[17.0869,40.7109],[17.0881,40.7171],[17.0857,40.7192],[17.063,40.7211],[17.0555,40.719],[17.0503,40.7166],[17.0337,40.7121],[17.024,40.7127],[17.0206,40.7147],[17.0122,40.723],[17.0009,40.7314],[17.0009,40.7324],[17.0046,40.7346],[17.0189,40.75],[17.0185,40.7559],[17.0155,40.7598],[17.0335,40.7708],[17.0352,40.7732],[17.0338,40.7751],[17.029,40.7764],[17.0219,40.7813],[17.0222,40.7827],[17.0238,40.7834],[17.0213,40.8051],[17.0196,40.8087],[17.0264,40.8066],[17.032,40.8078],[17.0455,40.8083],[17.0414,40.8146],[17.0434,40.8184],[17.0469,40.8195],[17.0532,40.819],[17.0559,40.8179],[17.0551,40.8149],[17.0688,40.8164],[17.0709,40.8141],[17.0773,40.8145],[17.0806,40.8173],[17.0895,40.8144],[17.0919,40.8124],[17.1246,40.8166],[17.1391,40.8196],[17.1425,40.8173],[17.1402,40.8114],[17.1456,40.8021],[17.1477,40.801],[17.1537,40.8004],[17.1556,40.8009],[17.1584,40.8038],[17.1589,40.8071],[17.1664,40.8073],[17.1688,40.8056],[17.1727,40.8047],[17.1814,40.8066],[17.1875,40.8102],[17.1954,40.8112]]]}},{"type":"Feature","properties":{"i":"072032","n":"Noicattaro"},"geometry":{"type":"Polygon","coordinates":[[[17.0253,41.0397],[17.0206,41.0391],[17.0118,41.0361],[17.007,41.027],[17.0012,41.0232],[16.9881,41.0186],[16.9843,41.0193],[16.9788,41.0174],[16.9632,41.0048],[16.9599,41.0045],[16.9574,41.0018],[16.9578,40.9904],[16.9513,40.9952],[16.9463,40.9978],[16.9425,40.9979],[16.9404,41.002],[16.9425,41.0078],[16.9421,41.0176],[16.9427,41.0218],[16.9461,41.025],[16.955,41.0274],[16.9539,41.0312],[16.951,41.034],[16.9511,41.0386],[16.9548,41.0422],[16.9569,41.0491],[16.963,41.0554],[16.971,41.0582],[16.977,41.0687],[16.9797,41.0834],[16.9788,41.0877],[17.0263,41.0743],[17.0252,41.0732],[17.0296,41.0697],[17.0374,41.0657],[17.035,41.0567],[17.033,41.0536],[17.0301,41.0511],[17.0279,41.0511],[17.0253,41.0397]]]}},{"type":"Feature","properties":{"i":"072033","n":"Palo del Colle"},"geometry":{"type":"Polygon","coordinates":[[[16.7396,41.0716],[16.7407,41.07],[16.7384,41.0668],[16.7342,41.0649],[16.73,41.0618],[16.7292,41.0602],[16.7276,41.0518],[16.7274,41.0441],[16.7237,41.0409],[16.7106,41.0376],[16.688,41.0289],[16.6842,41.0188],[16.6843,41.0165],[16.6741,41.0158],[16.6501,41.0082],[16.6321,41.006],[16.6079,40.9964],[16.604,40.9984],[16.5955,40.9993],[16.5801,40.9988],[16.5709,40.9965],[16.5641,41.0028],[16.5664,41.0038],[16.5758,41.0182],[16.5762,41.02],[16.5754,41.0268],[16.5826,41.0389],[16.594,41.0376],[16.6052,41.0484],[16.61,41.0513],[16.6053,41.055],[16.6031,41.0592],[16.6158,41.0608],[16.6188,41.0664],[16.6264,41.0646],[16.6351,41.0706],[16.6443,41.0752],[16.6696,41.0725],[16.6824,41.074],[16.6903,41.0781],[16.717,41.0873],[16.7221,41.0864],[16.7324,41.0822],[16.7385,41.0774],[16.7379,41.0739],[16.7396,41.0716]]]}},{"type":"Feature","properties":{"i":"072034","n":"Poggiorsini"},"geometry":{"type":"Polygon","coordinates":[[[16.2258,40.8781],[16.2266,40.8796],[16.2262,40.881],[16.2193,40.8921],[16.214,40.905],[16.2025,40.9175],[16.2102,40.9301],[16.2261,40.946],[16.2331,40.9519],[16.2519,40.9622],[16.2604,40.9507],[16.2741,40.9436],[16.28,40.9424],[16.2896,40.944],[16.295,40.9428],[16.2932,40.9287],[16.2953,40.9211],[16.2919,40.9115],[16.2902,40.9098],[16.2773,40.8984],[16.2627,40.8908],[16.2558,40.8903],[16.2517,40.892],[16.2455,40.8911],[16.2378,40.8874],[16.2322,40.881],[16.2325,40.8784],[16.2258,40.8781]]]}},{"type":"Feature","properties":{"i":"072035","n":"Polignano a Mare"},"geometry":{"type":"MultiPolygon","coordinates":[[[[17.164,40.9344],[17.1613,40.9358],[17.1638,40.9371],[17.1649,40.9367],[17.1645,40.9342],[17.164,40.9344]]],[[[17.1573,40.9445],[17.1582,40.9467],[17.1608,40.9458],[17.16,40.939],[17.1594,40.9384],[17.1575,40.9389],[17.1532,40.9426],[17.1573,40.9445]]],[[[17.2361,40.9941],[17.2357,40.9946],[17.2365,40.9951],[17.2361,40.9941]]],[[[17.258,40.9784],[17.254,40.9731],[17.2536,40.9685],[17.2515,40.9652],[17.2462,40.961],[17.2389,40.9612],[17.2363,40.9562],[17.2338,40.9534],[17.2256,40.9528],[17.2209,40.9538],[17.2152,40.9527],[17.216,40.9505],[17.2133,40.9468],[17.2038,40.9486],[17.1951,40.9425],[17.1928,40.9384],[17.1876,40.9236],[17.1873,40.9168],[17.1891,40.905],[17.188,40.8976],[17.1867,40.8964],[17.1854,40.896],[17.1677,40.9046],[17.1638,40.9055],[17.1611,40.9039],[17.1554,40.9026],[17.1532,40.9044],[17.1502,40.9099],[17.1495,40.9134],[17.15,40.9149],[17.1515,40.9179],[17.156,40.9172],[17.1615,40.9176],[17.1682,40.9213],[17.1698,40.9257],[17.1715,40.9352],[17.1697,40.9418],[17.1678,40.9445],[17.1624,40.9454],[17.1663,40.9602],[17.1638,40.9639],[17.1632,40.9681],[17.1653,40.9726],[17.1642,40.9777],[17.1589,40.9876],[17.1596,40.9948],[17.1582,41.0063],[17.1493,41.0187],[17.1435,41.0239],[17.1411,41.025],[17.1424,41.0295],[17.1407,41.0302],[17.142,41.0336],[17.1447,41.0366],[17.1546,41.0329],[17.1637,41.0306],[17.1661,41.0312],[17.1762,41.0285],[17.1832,41.0234],[17.1915,41.0157],[17.1944,41.0144],[17.1991,41.0106],[17.2036,41.0058],[17.2004,41.0058],[17.2056,41.0015],[17.2379,40.9922],[17.2434,40.9876],[17.2568,40.9814],[17.2584,40.9801],[17.258,40.9784]]]]}},{"type":"Feature","properties":{"i":"072036","n":"Putignano"},"geometry":{"type":"MultiPolygon","coordinates":[[[[16.9804,40.8472],[16.9829,40.8463],[16.9788,40.8397],[16.9804,40.8472]]],[[[17.1191,40.8859],[17.1309,40.8795],[17.1375,40.8728],[17.1476,40.8672],[17.149,40.8635],[17.1528,40.8592],[17.1598,40.8567],[17.1615,40.8544],[17.1608,40.8521],[17.1591,40.851],[17.1613,40.8447],[17.1819,40.8278],[17.1835,40.8225],[17.1867,40.8193],[17.1936,40.8148],[17.1954,40.8112],[17.1875,40.8102],[17.1814,40.8066],[17.1727,40.8047],[17.1688,40.8056],[17.1664,40.8073],[17.1589,40.8071],[17.1584,40.8038],[17.1556,40.8009],[17.1537,40.8004],[17.1477,40.801],[17.1456,40.8021],[17.1402,40.8114],[17.1425,40.8173],[17.1391,40.8196],[17.1246,40.8166],[17.0919,40.8124],[17.0895,40.8144],[17.0806,40.8173],[17.0773,40.8145],[17.0709,40.8141],[17.0688,40.8164],[17.0551,40.8149],[17.056,40.8175],[17.0554,40.8184],[17.048,40.8195],[17.0434,40.8184],[17.0414,40.815],[17.0455,40.8083],[17.032,40.8078],[17.0264,40.8066],[17.0196,40.8087],[17.0183,40.812],[17.0125,40.8157],[17.0041,40.8227],[16.9971,40.8304],[16.9921,40.834],[16.9907,40.8346],[16.9897,40.8329],[16.9853,40.8339],[16.9823,40.8353],[16.9817,40.8369],[16.9849,40.8384],[16.9859,40.8457],[16.9874,40.8455],[16.9889,40.8465],[17.0017,40.8565],[17.014,40.8558],[17.0221,40.8567],[17.0235,40.8588],[17.0282,40.8619],[17.0308,40.8628],[17.0369,40.8631],[17.0447,40.8697],[17.0545,40.8753],[17.06,40.8836],[17.0641,40.8817],[17.0648,40.8821],[17.069,40.8853],[17.0701,40.8878],[17.0765,40.8934],[17.0864,40.8918],[17.0839,40.8889],[17.0869,40.8854],[17.0911,40.8845],[17.0974,40.8807],[17.1023,40.8764],[17.1039,40.8761],[17.1128,40.8778],[17.1192,40.8841],[17.1191,40.8859]]]]}},{"type":"Feature","properties":{"i":"072037","n":"Rutigliano"},"geometry":{"type":"Polygon","coordinates":[[[17.0481,41.0102],[17.047,41.0111],[17.044,41.0109],[17.0438,41.0101],[17.0462,41.0087],[17.048,41.0087],[17.0481,41.0102],[17.0501,41.0127],[17.051,41.0126],[17.0507,41.0082],[17.0494,41.0069],[17.0509,41.0026],[17.0543,40.9992],[17.0518,40.9893],[17.0457,40.9855],[17.042,40.9841],[17.0395,40.9781],[17.0413,40.9678],[17.0314,40.9587],[16.9991,40.9542],[16.9898,40.9522],[16.9835,40.9519],[16.9735,40.9531],[16.973,40.9571],[16.9696,40.9641],[16.9711,40.9682],[16.9708,40.9698],[16.9646,40.9783],[16.9614,40.9806],[16.9587,40.9867],[16.9578,40.9904],[16.9574,41.0018],[16.9599,41.0045],[16.9632,41.0048],[16.9788,41.0174],[16.9843,41.0193],[16.9881,41.0186],[17.0012,41.0232],[17.007,41.027],[17.0118,41.0361],[17.0206,41.0391],[17.0253,41.0397],[17.0281,41.0389],[17.0335,41.0336],[17.0398,41.0308],[17.0412,41.0232],[17.049,41.0194],[17.0496,41.0157],[17.048,41.0133],[17.0481,41.0102]],[[17.0384,41.0295],[17.0369,41.0312],[17.0356,41.0307],[17.037,41.0288],[17.0384,41.0295]]]}},{"type":"Feature","properties":{"i":"072038","n":"Ruvo di Puglia"},"geometry":{"type":"Polygon","coordinates":[[[16.5038,41.1513],[16.5096,41.1485],[16.506,41.1333],[16.5078,41.1258],[16.5096,41.1216],[16.5095,41.115],[16.5081,41.1119],[16.5149,41.1002],[16.5193,41.0865],[16.5208,41.0772],[16.5193,41.0623],[16.5143,41.05],[16.5139,41.0465],[16.5147,41.0438],[16.511,41.0328],[16.511,41.0176],[16.5094,41.0129],[16.5027,41.0101],[16.4971,41.0103],[16.4761,40.9954],[16.4736,40.9922],[16.4717,40.9877],[16.4719,40.9789],[16.4694,40.9785],[16.4573,40.9699],[16.4432,40.9619],[16.4404,40.9608],[16.4318,40.9606],[16.4166,40.9587],[16.4062,40.9586],[16.4027,40.9616],[16.3758,40.9638],[16.3643,40.9626],[16.3523,40.9586],[16.3457,40.9575],[16.3272,40.9658],[16.3064,40.9809],[16.2807,40.9926],[16.266,41.0058],[16.258,41.0102],[16.2542,41.0143],[16.2567,41.0175],[16.2666,41.0239],[16.2675,41.0288],[16.2771,41.0318],[16.2852,41.0309],[16.2965,41.0281],[16.3057,41.0247],[16.3071,41.0233],[16.3062,41.021],[16.3071,41.0203],[16.3226,41.0118],[16.3226,41.0061],[16.3202,40.9964],[16.339,40.9918],[16.3462,40.9999],[16.3576,41.0005],[16.3608,41.0016],[16.3831,41.0178],[16.3827,41.0302],[16.3807,41.0346],[16.3784,41.0365],[16.377,41.0366],[16.3759,41.0395],[16.378,41.0432],[16.3799,41.0441],[16.3861,41.0449],[16.3967,41.0532],[16.3975,41.0546],[16.3974,41.0624],[16.3984,41.0708],[16.4,41.0736],[16.4007,41.0774],[16.3986,41.0857],[16.4045,41.0924],[16.4138,41.1],[16.4218,41.1097],[16.4337,41.1266],[16.4366,41.1286],[16.4433,41.1272],[16.4479,41.1371],[16.4556,41.1422],[16.4679,41.1525],[16.4705,41.1489],[16.4724,41.1494],[16.4748,41.1524],[16.4827,41.1536],[16.5038,41.1513]],[[16.5158,41.0704],[16.5173,41.0712],[16.5165,41.0728],[16.5156,41.0723],[16.5158,41.0704]]]}},{"type":"Feature","properties":{"i":"072039","n":"Sammichele di Bari"},"geometry":{"type":"Polygon","coordinates":[[[16.9645,40.9091],[16.9631,40.8957],[16.96,40.8907],[16.9602,40.8863],[16.9993,40.8769],[16.9933,40.8618],[16.9798,40.8474],[16.9627,40.8459],[16.9516,40.8473],[16.9393,40.8514],[16.9219,40.8553],[16.9006,40.8617],[16.8972,40.8732],[16.9043,40.8729],[16.9043,40.8743],[16.9241,40.8749],[16.9243,40.8868],[16.9222,40.8945],[16.9246,40.9004],[16.9296,40.8987],[16.9346,40.9017],[16.9381,40.9061],[16.9385,40.9084],[16.9418,40.9101],[16.9645,40.9091]]]}},{"type":"Feature","properties":{"i":"072040","n":"Sannicandro di Bari"},"geometry":{"type":"Polygon","coordinates":[[[16.7778,40.943],[16.7789,40.9457],[16.7853,40.951],[16.786,40.9534],[16.7834,40.9562],[16.7755,40.9579],[16.7737,40.9574],[16.771,40.9548],[16.7712,40.9462],[16.7778,40.943],[16.7722,40.9347],[16.7662,40.9307],[16.7566,40.9271],[16.7468,40.9274],[16.7401,40.9286],[16.7236,40.9274],[16.7212,40.9202],[16.7154,40.9229],[16.7101,40.924],[16.7099,40.927],[16.7118,40.9311],[16.7161,40.9363],[16.7244,40.9438],[16.7391,40.9497],[16.7462,40.9473],[16.7586,40.9515],[16.7637,40.9651],[16.7646,40.9721],[16.7639,40.973],[16.7653,40.9747],[16.7643,40.9869],[16.7619,40.9946],[16.76,40.9975],[16.7603,41.0007],[16.7612,41.0029],[16.7683,41.0104],[16.7708,41.0168],[16.7793,41.0275],[16.7904,41.0265],[16.8108,41.0195],[16.8135,41.0119],[16.8229,41.006],[16.8292,41.0072],[16.834,41.0097],[16.8397,41.0114],[16.8397,41.0042],[16.8448,40.9914],[16.8455,40.983],[16.8419,40.9755],[16.8405,40.9691],[16.837,40.9618],[16.8327,40.9593],[16.826,40.9614],[16.8201,40.9615],[16.8101,40.9596],[16.8043,40.9567],[16.7968,40.9509],[16.7915,40.9486],[16.7894,40.9492],[16.7815,40.9443],[16.7797,40.9426],[16.7799,40.9418],[16.7778,40.943]]]}},{"type":"Feature","properties":{"i":"072041","n":"Santeramo in Colle"},"geometry":{"type":"MultiPolygon","coordinates":[[[[16.7201,40.8371],[16.7196,40.8382],[16.7216,40.8381],[16.7201,40.8371]]],[[[16.7874,40.8409],[16.788,40.8383],[16.7936,40.8337],[16.8003,40.8289],[16.8142,40.8215],[16.8213,40.82],[16.8345,40.8199],[16.8366,40.8223],[16.8368,40.8287],[16.841,40.8278],[16.8442,40.8256],[16.8427,40.8244],[16.8388,40.8236],[16.8403,40.8188],[16.843,40.8169],[16.8466,40.8167],[16.8489,40.8109],[16.8489,40.8078],[16.8428,40.8062],[16.8425,40.8036],[16.8457,40.8021],[16.8422,40.7978],[16.8323,40.7974],[16.811,40.7918],[16.8022,40.7724],[16.7992,40.7635],[16.7975,40.7555],[16.7954,40.7507],[16.7964,40.7343],[16.7868,40.7333],[16.7791,40.7289],[16.7643,40.7239],[16.7489,40.7177],[16.7351,40.711],[16.7328,40.7108],[16.7285,40.712],[16.6732,40.7385],[16.6634,40.7489],[16.6579,40.7524],[16.6569,40.7537],[16.6553,40.7572],[16.6553,40.7616],[16.6608,40.7744],[16.6744,40.789],[16.6955,40.8039],[16.6979,40.8075],[16.6981,40.8127],[16.6942,40.8289],[16.6984,40.8321],[16.7017,40.8334],[16.7037,40.8334],[16.7161,40.8314],[16.7165,40.8289],[16.7126,40.8214],[16.7211,40.821],[16.7217,40.8219],[16.7207,40.8238],[16.7257,40.8271],[16.7307,40.8244],[16.7328,40.8242],[16.7346,40.8269],[16.7309,40.83],[16.7185,40.8276],[16.717,40.8286],[16.72,40.8348],[16.7257,40.8399],[16.7292,40.8413],[16.7309,40.8396],[16.7343,40.8385],[16.7378,40.8385],[16.7477,40.8452],[16.753,40.8459],[16.7572,40.8452],[16.7588,40.8435],[16.7635,40.8418],[16.7727,40.8478],[16.774,40.8474],[16.7742,40.8446],[16.7814,40.8455],[16.7846,40.8415],[16.7874,40.8409]],[[16.8454,40.8161],[16.8463,40.8165],[16.8441,40.8162],[16.8454,40.8161]],[[16.8416,40.8098],[16.8444,40.813],[16.8403,40.8147],[16.8361,40.8143],[16.8344,40.8126],[16.8416,40.8098]]]]}},{"type":"Feature","properties":{"i":"072043","n":"Terlizzi"},"geometry":{"type":"MultiPolygon","coordinates":[[[[16.5158,41.0704],[16.5156,41.0723],[16.5165,41.0728],[16.5173,41.0712],[16.5158,41.0704]]],[[[16.5955,41.1372],[16.5949,41.1367],[16.5956,41.1355],[16.5995,41.131],[16.6035,41.1215],[16.6081,41.1175],[16.6148,41.1176],[16.6083,41.107],[16.6046,41.1058],[16.5921,41.1045],[16.5741,41.0994],[16.5687,41.0933],[16.5661,41.0788],[16.5411,41.0515],[16.5328,41.0459],[16.5236,41.0442],[16.5147,41.0438],[16.5139,41.0465],[16.5143,41.05],[16.5193,41.0623],[16.5208,41.0772],[16.5193,41.0865],[16.5149,41.1002],[16.5081,41.1119],[16.5095,41.115],[16.5096,41.1216],[16.5078,41.1258],[16.506,41.1333],[16.5096,41.1485],[16.5038,41.1513],[16.5081,41.1594],[16.5131,41.1568],[16.525,41.1544],[16.5264,41.1547],[16.535,41.1609],[16.5376,41.1615],[16.5645,41.1582],[16.5658,41.1597],[16.5698,41.1605],[16.5739,41.1599],[16.5798,41.1571],[16.585,41.1518],[16.5886,41.1468],[16.5904,41.1416],[16.5901,41.1405],[16.5912,41.1388],[16.5955,41.1372]]]]}},{"type":"Feature","properties":{"i":"072044","n":"Toritto"},"geometry":{"type":"Polygon","coordinates":[[[16.689,41.0129],[16.6945,41.0112],[16.6963,41.0099],[16.6963,41.0087],[16.695,41.0014],[16.6949,40.9898],[16.6917,40.9774],[16.6872,40.9664],[16.6835,40.9652],[16.6548,40.9656],[16.6476,40.9666],[16.6321,40.9519],[16.6267,40.9459],[16.6205,40.9354],[16.6156,40.9297],[16.6087,40.9311],[16.5977,40.9358],[16.5923,40.9357],[16.5842,40.9323],[16.5781,40.9308],[16.5692,40.9316],[16.5639,40.933],[16.5487,40.9422],[16.5435,40.9426],[16.5405,40.9438],[16.5421,40.9625],[16.5547,40.9759],[16.5557,40.9778],[16.5634,40.9833],[16.5707,40.9931],[16.5709,40.9965],[16.5801,40.9988],[16.5955,40.9993],[16.604,40.9984],[16.6079,40.9964],[16.6285,41.005],[16.6336,41.0063],[16.6501,41.0082],[16.675,41.016],[16.6843,41.0165],[16.689,41.0129]]]}},{"type":"Feature","properties":{"i":"072046","n":"Triggiano"},"geometry":{"type":"Polygon","coordinates":[[[16.9788,41.0877],[16.9797,41.0834],[16.977,41.0687],[16.971,41.0582],[16.963,41.0554],[16.9569,41.0491],[16.9548,41.0437],[16.9451,41.0521],[16.9331,41.0583],[16.9218,41.0571],[16.918,41.0615],[16.8994,41.0627],[16.9002,41.0652],[16.9037,41.0694],[16.9092,41.074],[16.9239,41.0779],[16.94,41.0898],[16.9447,41.0921],[16.9584,41.0929],[16.9788,41.0877]]]}},{"type":"Feature","properties":{"i":"072047","n":"Turi"},"geometry":{"type":"Polygon","coordinates":[[[17.06,40.8836],[17.0545,40.8753],[17.0447,40.8697],[17.0369,40.8631],[17.0308,40.8628],[17.0282,40.8619],[17.0235,40.8588],[17.0221,40.8567],[17.014,40.8558],[17.0017,40.8565],[16.9874,40.8455],[16.9798,40.8474],[16.9933,40.8618],[16.9993,40.8769],[16.9602,40.8863],[16.96,40.8907],[16.9631,40.8957],[16.9662,40.9297],[16.9683,40.9387],[16.971,40.9427],[16.9735,40.9531],[16.9882,40.952],[17.007,40.9554],[17.0293,40.9582],[17.0336,40.9519],[17.04,40.9448],[17.0466,40.9447],[17.0511,40.9457],[17.053,40.9452],[17.051,40.9398],[17.0458,40.9341],[17.055,40.9234],[17.0548,40.9198],[17.0533,40.9182],[17.0534,40.9136],[17.0561,40.9045],[17.0588,40.8988],[17.0578,40.895],[17.0532,40.8906],[17.0524,40.8872],[17.0576,40.8842],[17.06,40.8836]]]}},{"type":"Feature","properties":{"i":"072048","n":"Valenzano"},"geometry":{"type":"Polygon","coordinates":[[[16.9074,41.0114],[16.904,41.0074],[16.8755,41.0192],[16.8643,41.0251],[16.8604,41.0281],[16.8637,41.0424],[16.8722,41.0459],[16.8747,41.0537],[16.8739,41.0558],[16.8815,41.0609],[16.8984,41.0628],[16.897,41.0601],[16.8987,41.0522],[16.9022,41.0493],[16.904,41.0465],[16.9045,41.0431],[16.9034,41.0375],[16.9037,41.0357],[16.9048,41.0331],[16.9086,41.0291],[16.9094,41.0264],[16.909,41.02],[16.9056,41.0187],[16.9056,41.0146],[16.9074,41.0114]]]}}]}
