{"type":"FeatureCollection","fonte":"Confini comunali ISTAT via openpolis/geojson-italy — CC BY 4.0","features":[{"type":"Feature","properties":{"i":"096001","n":"Ailoche"},"geometry":{"type":"MultiPolygon","coordinates":[[[[8.2373,45.7016],[8.2476,45.6949],[8.242,45.6945],[8.2371,45.69],[8.2343,45.6859],[8.2304,45.6875],[8.2258,45.6909],[8.2231,45.6949],[8.2038,45.7047],[8.1972,45.7102],[8.1954,45.7127],[8.1943,45.7168],[8.1943,45.7195],[8.1958,45.7237],[8.1979,45.7254],[8.201,45.7253],[8.2073,45.7215],[8.2139,45.7137],[8.2226,45.7074],[8.2373,45.7016]]],[[[8.1927,45.7228],[8.1781,45.7196],[8.1691,45.7226],[8.168,45.7267],[8.1642,45.7315],[8.162,45.7327],[8.1644,45.7343],[8.1675,45.7406],[8.169,45.7478],[8.1706,45.7504],[8.1769,45.752],[8.1812,45.7522],[8.183,45.7409],[8.1802,45.7379],[8.1839,45.7295],[8.1887,45.7285],[8.1916,45.7255],[8.1927,45.7228]]]]}},{"type":"Feature","properties":{"i":"096002","n":"Andorno Micca"},"geometry":{"type":"MultiPolygon","coordinates":[[[[8.0711,45.6088],[8.0574,45.5933],[8.0501,45.6012],[8.0462,45.6112],[8.0472,45.6131],[8.0519,45.6168],[8.059,45.6181],[8.0686,45.6243],[8.0715,45.6302],[8.0779,45.6302],[8.0857,45.6256],[8.084,45.6206],[8.0771,45.6096],[8.0711,45.6088]]],[[[7.9619,45.645],[7.9574,45.6441],[7.9461,45.6449],[7.9394,45.6433],[7.9382,45.6454],[7.9314,45.6486],[7.9259,45.6552],[7.9275,45.663],[7.9334,45.6671],[7.936,45.6561],[7.9421,45.653],[7.9524,45.6547],[7.9654,45.658],[7.9681,45.6615],[7.974,45.6578],[7.9718,45.6501],[7.9671,45.647],[7.9616,45.647],[7.9619,45.645]]],[[[7.9506,45.7191],[7.9471,45.7101],[7.93,45.7147],[7.9366,45.7243],[7.9506,45.7191]]]]}},{"type":"Feature","properties":{"i":"096003","n":"Benna"},"geometry":{"type":"Polygon","coordinates":[[[8.1538,45.5238],[8.1543,45.5207],[8.1629,45.5132],[8.1655,45.5112],[8.1712,45.5098],[8.1676,45.5072],[8.1505,45.501],[8.142,45.495],[8.1377,45.4967],[8.113,45.5144],[8.1077,45.5224],[8.1322,45.5285],[8.1394,45.528],[8.1406,45.5252],[8.1394,45.5241],[8.1388,45.522],[8.1401,45.5189],[8.1538,45.5238]]]}},{"type":"Feature","properties":{"i":"096004","n":"Biella"},"geometry":{"type":"Polygon","coordinates":[[[8.0033,45.6304],[8.014,45.625],[8.0068,45.6245],[7.9995,45.613],[7.9981,45.6092],[8.0076,45.6036],[8.0144,45.6041],[8.0257,45.6011],[8.0282,45.5986],[8.0291,45.5958],[8.032,45.5914],[8.0473,45.5799],[8.0504,45.5792],[8.0506,45.5811],[8.053,45.5798],[8.0561,45.5826],[8.0559,45.589],[8.0574,45.5933],[8.0711,45.6088],[8.0735,45.5989],[8.0725,45.5889],[8.0705,45.5844],[8.0881,45.5756],[8.0931,45.5745],[8.0962,45.5753],[8.095,45.5736],[8.094,45.5694],[8.0892,45.5638],[8.0848,45.5609],[8.0847,45.5587],[8.0865,45.5557],[8.0914,45.5536],[8.0861,45.5458],[8.0829,45.5476],[8.0722,45.5427],[8.0687,45.5472],[8.0611,45.5471],[8.0414,45.5414],[8.0355,45.5389],[8.034,45.5368],[8.0297,45.5532],[8.0211,45.5629],[8.0216,45.5676],[8.0206,45.5694],[8.019,45.5701],[8.0194,45.5721],[8.0163,45.584],[8.0146,45.5876],[8.0095,45.5942],[8.0025,45.5978],[7.9888,45.6015],[7.9691,45.608],[7.9645,45.6105],[7.9625,45.6103],[7.9616,45.6129],[7.9556,45.6175],[7.9447,45.6204],[7.9419,45.6241],[7.9366,45.6282],[7.9351,45.6331],[7.9394,45.6433],[7.9461,45.6449],[7.9574,45.6441],[7.9619,45.645],[7.977,45.6456],[7.9795,45.6452],[7.9857,45.6416],[7.994,45.6331],[8.0033,45.6304]]]}},{"type":"Feature","properties":{"i":"096005","n":"Bioglio"},"geometry":{"type":"MultiPolygon","coordinates":[[[[8.1528,45.6221],[8.1511,45.6223],[8.1458,45.6207],[8.1398,45.6136],[8.1366,45.6012],[8.1352,45.5989],[8.125,45.5929],[8.1068,45.5943],[8.106,45.5968],[8.1081,45.6019],[8.1128,45.6083],[8.1152,45.6215],[8.122,45.6293],[8.1278,45.6286],[8.1349,45.6256],[8.1322,45.6291],[8.1441,45.63],[8.1528,45.6221]]],[[[8.0455,45.704],[8.05,45.7015],[8.0638,45.6979],[8.0738,45.6909],[8.0779,45.6892],[8.0764,45.6877],[8.0763,45.684],[8.0772,45.6829],[8.0766,45.6818],[8.0711,45.6764],[8.0681,45.6747],[8.0559,45.674],[8.0426,45.6783],[8.0398,45.6798],[8.0398,45.6834],[8.0383,45.6893],[8.0316,45.7053],[8.0173,45.7028],[8.0103,45.7033],[8.0074,45.7044],[8.0036,45.7113],[8.0095,45.7116],[8.0153,45.7132],[8.0309,45.7126],[8.0344,45.7114],[8.0455,45.704]]]]}},{"type":"Feature","properties":{"i":"096006","n":"Borriana"},"geometry":{"type":"Polygon","coordinates":[[[8.0524,45.5115],[8.0559,45.5028],[8.0551,45.5008],[8.0455,45.4971],[8.0356,45.4958],[8.033,45.4941],[8.0293,45.4947],[8.0188,45.4997],[8.0227,45.5019],[8.0216,45.5055],[8.0329,45.5201],[8.0419,45.5196],[8.0495,45.5175],[8.0524,45.5115]]]}},{"type":"Feature","properties":{"i":"096007","n":"Brusnengo"},"geometry":{"type":"Polygon","coordinates":[[[8.2965,45.5536],[8.2926,45.5417],[8.2835,45.536],[8.2797,45.5384],[8.2721,45.5472],[8.2692,45.5618],[8.2646,45.572],[8.2622,45.5744],[8.2491,45.5773],[8.2444,45.5813],[8.2441,45.5984],[8.2429,45.6028],[8.2415,45.6048],[8.2428,45.6039],[8.2451,45.6041],[8.248,45.6058],[8.2501,45.6088],[8.2535,45.6099],[8.259,45.6058],[8.2579,45.6044],[8.2603,45.5936],[8.2638,45.5904],[8.2676,45.5884],[8.2711,45.5795],[8.2706,45.5751],[8.2763,45.5636],[8.2965,45.5536]]]}},{"type":"Feature","properties":{"i":"096008","n":"Callabiana"},"geometry":{"type":"MultiPolygon","coordinates":[[[[8.0681,45.6747],[8.0723,45.6708],[8.0729,45.666],[8.0703,45.6598],[8.0706,45.6556],[8.0769,45.6449],[8.0839,45.6392],[8.0947,45.6374],[8.1015,45.6333],[8.1063,45.6278],[8.1063,45.627],[8.1027,45.6255],[8.0995,45.6211],[8.0886,45.6255],[8.0839,45.6263],[8.0779,45.6302],[8.0715,45.6302],[8.0716,45.6334],[8.0691,45.6369],[8.0705,45.6475],[8.0688,45.6554],[8.0651,45.6618],[8.0627,45.6639],[8.0619,45.6674],[8.0652,45.6748],[8.0681,45.6747]]],[[[7.9239,45.7063],[7.93,45.7147],[7.9393,45.7121],[7.9396,45.7109],[7.9382,45.707],[7.9352,45.7053],[7.9281,45.7047],[7.9239,45.7063]]]]}},{"type":"Feature","properties":{"i":"096009","n":"Camandona"},"geometry":{"type":"MultiPolygon","coordinates":[[[[8.0879,45.6579],[8.0911,45.6514],[8.0935,45.6512],[8.1016,45.645],[8.1072,45.6376],[8.1178,45.6296],[8.1063,45.627],[8.1041,45.631],[8.0947,45.6374],[8.0839,45.6392],[8.0769,45.6449],[8.0706,45.6556],[8.0703,45.6598],[8.0762,45.6593],[8.0829,45.6603],[8.0879,45.6579]]],[[[8.0902,45.7013],[8.088,45.7008],[8.083,45.6954],[8.0816,45.6912],[8.0779,45.6892],[8.0738,45.6909],[8.0638,45.6979],[8.05,45.7015],[8.0455,45.704],[8.0534,45.7064],[8.0737,45.7084],[8.0797,45.7115],[8.0814,45.7134],[8.0902,45.7013]]]]}},{"type":"Feature","properties":{"i":"096010","n":"Camburzano"},"geometry":{"type":"Polygon","coordinates":[[[8.0169,45.5381],[8.0131,45.5371],[7.9967,45.5351],[7.988,45.536],[7.984,45.541],[7.987,45.55],[7.991,45.5495],[7.9987,45.5502],[8.0041,45.5515],[8.0064,45.5529],[8.0073,45.5547],[8.0089,45.5552],[8.0159,45.5419],[8.0169,45.5381]]]}},{"type":"Feature","properties":{"i":"096012","n":"Candelo"},"geometry":{"type":"Polygon","coordinates":[[[8.1447,45.5479],[8.1689,45.5456],[8.1683,45.5437],[8.1663,45.5414],[8.1572,45.5333],[8.1525,45.5304],[8.1499,45.5301],[8.1518,45.5253],[8.1538,45.5238],[8.1401,45.5189],[8.1388,45.522],[8.1394,45.5241],[8.1406,45.5252],[8.1394,45.528],[8.1322,45.5285],[8.1013,45.5208],[8.0963,45.531],[8.0867,45.5423],[8.0861,45.5458],[8.0914,45.5536],[8.0992,45.554],[8.1329,45.5488],[8.1447,45.5479]]]}},{"type":"Feature","properties":{"i":"096013","n":"Caprile"},"geometry":{"type":"MultiPolygon","coordinates":[[[[8.2343,45.6859],[8.2331,45.6839],[8.2291,45.6854],[8.2203,45.6861],[8.2067,45.6899],[8.2013,45.6937],[8.2003,45.6972],[8.1973,45.7011],[8.1815,45.7154],[8.1781,45.7196],[8.1954,45.7229],[8.1943,45.7195],[8.1945,45.7156],[8.196,45.7116],[8.1989,45.7084],[8.2038,45.7047],[8.2231,45.6949],[8.2258,45.6909],[8.2304,45.6875],[8.2343,45.6859]]],[[[8.1384,45.7535],[8.1473,45.7527],[8.1566,45.7502],[8.1641,45.7498],[8.1659,45.751],[8.1706,45.7504],[8.169,45.7478],[8.1675,45.7406],[8.1637,45.7332],[8.162,45.7327],[8.1545,45.735],[8.1454,45.7425],[8.1415,45.7475],[8.1398,45.7475],[8.1324,45.7469],[8.1339,45.7439],[8.1271,45.7377],[8.1202,45.7384],[8.1151,45.7258],[8.105,45.731],[8.1077,45.7311],[8.1158,45.7355],[8.119,45.7381],[8.1213,45.7431],[8.1215,45.7447],[8.1081,45.7489],[8.1229,45.7569],[8.1285,45.7577],[8.1375,45.7524],[8.1384,45.7535]]]]}},{"type":"Feature","properties":{"i":"096014","n":"Casapinta"},"geometry":{"type":"Polygon","coordinates":[[[8.211,45.6196],[8.2154,45.6124],[8.215,45.6114],[8.2062,45.6094],[8.1998,45.6064],[8.1983,45.6041],[8.1856,45.6133],[8.1851,45.6175],[8.1875,45.6192],[8.1969,45.621],[8.2056,45.6217],[8.211,45.6196]]]}},{"type":"Feature","properties":{"i":"096015","n":"Castelletto Cervo"},"geometry":{"type":"Polygon","coordinates":[[[8.2676,45.5169],[8.2675,45.5112],[8.2629,45.5011],[8.2443,45.4933],[8.2415,45.4954],[8.235,45.5041],[8.2314,45.5059],[8.2295,45.5045],[8.223,45.5114],[8.2185,45.5199],[8.2131,45.5343],[8.2228,45.537],[8.2253,45.5353],[8.2299,45.5354],[8.2314,45.5366],[8.231,45.5376],[8.2318,45.537],[8.2362,45.5375],[8.2401,45.5401],[8.2478,45.5432],[8.2629,45.5315],[8.2664,45.5246],[8.2676,45.5169]]]}},{"type":"Feature","properties":{"i":"096016","n":"Cavaglià"},"geometry":{"type":"Polygon","coordinates":[[[8.1529,45.4202],[8.1644,45.4225],[8.1699,45.4201],[8.1708,45.4191],[8.1707,45.4174],[8.1687,45.4111],[8.1519,45.41],[8.1497,45.4092],[8.1395,45.4],[8.1349,45.3914],[8.1302,45.3887],[8.1228,45.3761],[8.1106,45.3799],[8.093,45.3836],[8.0691,45.3874],[8.0573,45.3961],[8.0648,45.4051],[8.0685,45.4078],[8.0736,45.4096],[8.0782,45.4124],[8.0905,45.422],[8.0941,45.4187],[8.0984,45.417],[8.1197,45.4233],[8.1302,45.4221],[8.1434,45.4178],[8.1532,45.419],[8.1529,45.4202]]]}},{"type":"Feature","properties":{"i":"096018","n":"Cerrione"},"geometry":{"type":"Polygon","coordinates":[[[8.1005,45.5001],[8.11,45.485],[8.1115,45.4799],[8.1063,45.4725],[8.1057,45.4639],[8.0914,45.4528],[8.0718,45.4464],[8.0605,45.447],[8.0604,45.4485],[8.0566,45.4521],[8.043,45.4553],[8.0386,45.4584],[8.0334,45.4594],[8.0317,45.4618],[8.0347,45.4652],[8.0363,45.4704],[8.0333,45.4719],[8.0331,45.4735],[8.0343,45.4753],[8.0353,45.4747],[8.0369,45.4765],[8.0394,45.4878],[8.033,45.4941],[8.0356,45.4958],[8.0455,45.4971],[8.0549,45.5006],[8.0559,45.5028],[8.0584,45.5023],[8.0661,45.4975],[8.0815,45.4969],[8.1005,45.5001]]]}},{"type":"Feature","properties":{"i":"096019","n":"Coggiola"},"geometry":{"type":"Polygon","coordinates":[[[8.162,45.7327],[8.1642,45.7315],[8.168,45.7267],[8.1691,45.7226],[8.1781,45.7196],[8.1815,45.7154],[8.1973,45.7011],[8.1997,45.6981],[8.2009,45.6958],[8.2036,45.6848],[8.199,45.6807],[8.1861,45.6824],[8.1747,45.687],[8.1725,45.6915],[8.1632,45.6992],[8.1591,45.7004],[8.1554,45.7002],[8.1479,45.6979],[8.1361,45.701],[8.1349,45.702],[8.1342,45.7047],[8.1259,45.7108],[8.1187,45.7134],[8.117,45.7164],[8.1167,45.7223],[8.1151,45.7258],[8.1195,45.7377],[8.1204,45.7384],[8.1271,45.7377],[8.1339,45.7439],[8.1324,45.7469],[8.1415,45.7475],[8.1454,45.7425],[8.1545,45.735],[8.162,45.7327]]]}},{"type":"Feature","properties":{"i":"096020","n":"Cossato"},"geometry":{"type":"Polygon","coordinates":[[[8.1775,45.6099],[8.1823,45.6061],[8.1833,45.6035],[8.184,45.5942],[8.1863,45.591],[8.1948,45.5808],[8.203,45.5757],[8.2111,45.5683],[8.2111,45.5663],[8.2076,45.5561],[8.2068,45.5555],[8.2071,45.5531],[8.2126,45.5492],[8.2156,45.5476],[8.2183,45.5477],[8.2204,45.5459],[8.2095,45.5353],[8.2094,45.5314],[8.2109,45.529],[8.2112,45.5262],[8.2105,45.5251],[8.1951,45.5236],[8.1844,45.5235],[8.1792,45.5247],[8.1803,45.5264],[8.1755,45.521],[8.1745,45.5138],[8.1712,45.5098],[8.1655,45.5112],[8.1568,45.5182],[8.1543,45.5207],[8.1538,45.5238],[8.1518,45.5253],[8.1499,45.5301],[8.1525,45.5304],[8.1572,45.5333],[8.1683,45.5437],[8.1689,45.5456],[8.1635,45.5505],[8.1642,45.5601],[8.1678,45.5643],[8.1689,45.5675],[8.1684,45.5708],[8.1731,45.5815],[8.1765,45.595],[8.1762,45.5981],[8.175,45.5997],[8.1669,45.6043],[8.1635,45.608],[8.1675,45.6109],[8.1775,45.6099]]]}},{"type":"Feature","properties":{"i":"096021","n":"Crevacuore"},"geometry":{"type":"MultiPolygon","coordinates":[[[[8.2476,45.6949],[8.2627,45.6853],[8.2699,45.6819],[8.2686,45.6793],[8.2691,45.6761],[8.2669,45.6725],[8.2449,45.6677],[8.2429,45.6695],[8.2356,45.6699],[8.2311,45.6685],[8.2299,45.6782],[8.2307,45.6808],[8.235,45.6876],[8.2417,45.6942],[8.2476,45.6949]]],[[[8.105,45.731],[8.0958,45.7377],[8.1081,45.7489],[8.1215,45.7447],[8.1202,45.7401],[8.1187,45.7377],[8.1077,45.7311],[8.105,45.731]]]]}},{"type":"Feature","properties":{"i":"096023","n":"Curino"},"geometry":{"type":"Polygon","coordinates":[[[8.2449,45.6677],[8.2483,45.6636],[8.262,45.6317],[8.2621,45.628],[8.2609,45.6247],[8.2614,45.6202],[8.2621,45.6195],[8.2633,45.6199],[8.2689,45.616],[8.2552,45.6087],[8.2535,45.6099],[8.2502,45.6089],[8.248,45.6058],[8.2438,45.6038],[8.2415,45.6048],[8.2412,45.6077],[8.2359,45.6113],[8.2225,45.6149],[8.2154,45.6124],[8.211,45.6196],[8.2128,45.6287],[8.2155,45.6529],[8.2104,45.6572],[8.2168,45.6595],[8.2267,45.6677],[8.2356,45.6699],[8.2429,45.6695],[8.2449,45.6677]]]}},{"type":"Feature","properties":{"i":"096024","n":"Donato"},"geometry":{"type":"Polygon","coordinates":[[[7.9122,45.568],[7.9118,45.5629],[7.9129,45.5597],[7.9183,45.5474],[7.9253,45.5383],[7.9258,45.5285],[7.936,45.5261],[7.9425,45.5277],[7.9407,45.5214],[7.9234,45.5215],[7.9073,45.5244],[7.9024,45.5266],[7.8848,45.5308],[7.8819,45.5342],[7.884,45.5381],[7.9017,45.5583],[7.9021,45.5599],[7.9021,45.5624],[7.9007,45.5653],[7.8952,45.57],[7.895,45.5751],[7.896,45.5803],[7.894,45.5822],[7.893,45.5855],[7.8982,45.5827],[7.8984,45.579],[7.8996,45.5763],[7.9056,45.571],[7.9122,45.568]]]}},{"type":"Feature","properties":{"i":"096025","n":"Dorzano"},"geometry":{"type":"Polygon","coordinates":[[[8.1529,45.4202],[8.1532,45.419],[8.1434,45.4178],[8.1302,45.4221],[8.1197,45.4233],[8.0983,45.417],[8.0941,45.4187],[8.0905,45.422],[8.0896,45.4237],[8.0892,45.4287],[8.0863,45.4325],[8.09,45.4351],[8.0957,45.4366],[8.112,45.4322],[8.1192,45.4289],[8.1345,45.4274],[8.1415,45.4201],[8.1529,45.4202]]]}},{"type":"Feature","properties":{"i":"096026","n":"Gaglianico"},"geometry":{"type":"Polygon","coordinates":[[[8.1013,45.5208],[8.0994,45.5172],[8.0971,45.5208],[8.0913,45.5263],[8.0775,45.53],[8.0745,45.5304],[8.0743,45.5264],[8.0733,45.5256],[8.0675,45.5261],[8.0642,45.539],[8.0656,45.5422],[8.0674,45.545],[8.0697,45.5464],[8.0722,45.5427],[8.0835,45.5476],[8.0861,45.5458],[8.0867,45.5423],[8.0963,45.531],[8.1013,45.5208]]]}},{"type":"Feature","properties":{"i":"096027","n":"Gifflenga"},"geometry":{"type":"Polygon","coordinates":[[[8.2443,45.4933],[8.2464,45.4901],[8.2424,45.4861],[8.2366,45.4836],[8.2354,45.4854],[8.2268,45.4924],[8.224,45.496],[8.2256,45.5011],[8.2314,45.5059],[8.2363,45.5029],[8.2415,45.4954],[8.2443,45.4933]]]}},{"type":"Feature","properties":{"i":"096028","n":"Graglia"},"geometry":{"type":"Polygon","coordinates":[[[7.9222,45.5943],[7.9179,45.5942],[7.9228,45.589],[7.9354,45.5833],[7.9426,45.5783],[7.9443,45.5752],[7.9407,45.5693],[7.9598,45.574],[7.9658,45.5746],[7.9718,45.5687],[7.971,45.5657],[7.9753,45.5647],[7.9799,45.5623],[7.985,45.5579],[7.984,45.555],[7.987,45.55],[7.984,45.541],[7.9806,45.5413],[7.9806,45.5396],[7.9826,45.5364],[7.9805,45.5304],[7.9782,45.5298],[7.9749,45.532],[7.9723,45.5355],[7.9677,45.5446],[7.9625,45.5457],[7.953,45.5523],[7.9485,45.557],[7.9433,45.5608],[7.9331,45.5644],[7.9098,45.5688],[7.9056,45.571],[7.8996,45.5763],[7.8984,45.579],[7.8982,45.5827],[7.893,45.5855],[7.8958,45.59],[7.9008,45.5917],[7.8959,45.6007],[7.8974,45.6063],[7.9052,45.6033],[7.9183,45.6047],[7.9301,45.6007],[7.9321,45.5989],[7.9325,45.5974],[7.9222,45.5943]]]}},{"type":"Feature","properties":{"i":"096030","n":"Magnano"},"geometry":{"type":"MultiPolygon","coordinates":[[[[8.031,45.4469],[8.0207,45.4496],[8.0265,45.45],[8.0299,45.449],[8.031,45.4469]]],[[[7.9734,45.4859],[7.9789,45.4837],[8.0148,45.4769],[8.0261,45.4719],[8.0312,45.4713],[8.0333,45.4719],[8.0363,45.4704],[8.0347,45.4652],[8.0317,45.4619],[8.0346,45.4582],[8.0347,45.4567],[8.0319,45.4552],[8.0196,45.4532],[7.9969,45.4609],[7.9851,45.468],[7.9769,45.4703],[7.9686,45.4749],[7.9655,45.4793],[7.9658,45.4816],[7.9734,45.4859]]]]}},{"type":"Feature","properties":{"i":"096031","n":"Massazza"},"geometry":{"type":"Polygon","coordinates":[[[8.1879,45.492],[8.1782,45.4847],[8.1767,45.4827],[8.1772,45.4808],[8.1822,45.4771],[8.1863,45.4762],[8.1903,45.4717],[8.1868,45.4686],[8.1796,45.4657],[8.1734,45.4667],[8.1664,45.4724],[8.1598,45.4711],[8.148,45.4739],[8.1399,45.4787],[8.1349,45.4856],[8.1382,45.4896],[8.1433,45.4918],[8.142,45.495],[8.1505,45.501],[8.1676,45.5072],[8.1712,45.5098],[8.1721,45.5026],[8.1736,45.5008],[8.1879,45.492]]]}},{"type":"Feature","properties":{"i":"096032","n":"Masserano"},"geometry":{"type":"Polygon","coordinates":[[[8.2415,45.6048],[8.2429,45.6028],[8.2441,45.5984],[8.2444,45.5813],[8.2491,45.5773],[8.2622,45.5744],[8.2646,45.572],[8.2692,45.5618],[8.2721,45.5472],[8.2797,45.5384],[8.2835,45.536],[8.2774,45.5322],[8.279,45.5235],[8.2919,45.5177],[8.2676,45.5169],[8.2664,45.5246],[8.2629,45.5315],[8.2478,45.5432],[8.2401,45.5401],[8.2371,45.5378],[8.2313,45.537],[8.231,45.5376],[8.2345,45.5397],[8.236,45.5418],[8.2358,45.551],[8.2285,45.561],[8.2272,45.5664],[8.228,45.5697],[8.2164,45.5835],[8.2105,45.5885],[8.2,45.5944],[8.1987,45.597],[8.1983,45.6041],[8.1998,45.6064],[8.2062,45.6094],[8.215,45.6114],[8.2163,45.6131],[8.221,45.6149],[8.2359,45.6113],[8.2412,45.6077],[8.2415,45.6048]]]}},{"type":"Feature","properties":{"i":"096033","n":"Mezzana Mortigliengo"},"geometry":{"type":"Polygon","coordinates":[[[8.2117,45.6255],[8.211,45.6196],[8.2056,45.6217],[8.1969,45.621],[8.1875,45.6192],[8.1851,45.6175],[8.1854,45.6184],[8.1824,45.6206],[8.1793,45.6217],[8.1759,45.6308],[8.1782,45.6335],[8.1785,45.6357],[8.1739,45.6424],[8.1756,45.6435],[8.1894,45.6396],[8.1971,45.6359],[8.1984,45.6346],[8.1981,45.6324],[8.2056,45.6255],[8.2117,45.6255]]]}},{"type":"Feature","properties":{"i":"096034","n":"Miagliano"},"geometry":{"type":"Polygon","coordinates":[[[8.0472,45.6131],[8.0462,45.6112],[8.0473,45.609],[8.0449,45.6082],[8.04,45.6116],[8.0403,45.6131],[8.0372,45.6243],[8.0371,45.6271],[8.0477,45.6149],[8.0472,45.6131]]]}},{"type":"Feature","properties":{"i":"096035","n":"Mongrando"},"geometry":{"type":"Polygon","coordinates":[[[7.984,45.541],[7.988,45.536],[7.9967,45.5351],[8.0131,45.5371],[8.0169,45.5381],[8.0209,45.5333],[8.0234,45.5282],[8.0327,45.5298],[8.0329,45.5201],[8.0216,45.5055],[8.0133,45.5049],[8.0028,45.506],[7.9891,45.5033],[7.9876,45.5033],[7.987,45.5113],[7.9851,45.5121],[7.9667,45.5176],[7.9476,45.5213],[7.9407,45.5214],[7.9425,45.5277],[7.9655,45.5302],[7.974,45.5332],[7.9782,45.5298],[7.9805,45.5304],[7.9826,45.5364],[7.9806,45.5396],[7.9806,45.5413],[7.984,45.541]]]}},{"type":"Feature","properties":{"i":"096037","n":"Mottalciata"},"geometry":{"type":"Polygon","coordinates":[[[8.2131,45.5343],[8.2185,45.5199],[8.223,45.5114],[8.2295,45.5045],[8.2256,45.5011],[8.224,45.496],[8.2268,45.4924],[8.2354,45.4854],[8.2366,45.4836],[8.2321,45.4789],[8.2322,45.4782],[8.2259,45.4757],[8.2164,45.4759],[8.2117,45.4775],[8.1915,45.4893],[8.1736,45.5008],[8.1721,45.5026],[8.1712,45.5098],[8.1745,45.5138],[8.1755,45.521],[8.1803,45.5264],[8.1792,45.5247],[8.1844,45.5235],[8.1951,45.5236],[8.2105,45.5251],[8.2112,45.5262],[8.2109,45.529],[8.2094,45.5314],[8.2095,45.5353],[8.2106,45.5364],[8.2131,45.5343]]]}},{"type":"Feature","properties":{"i":"096038","n":"Muzzano"},"geometry":{"type":"MultiPolygon","coordinates":[[[[7.9856,45.5649],[7.9906,45.5654],[7.9978,45.5624],[8.0042,45.5551],[8.0073,45.5547],[8.0064,45.5529],[8.0041,45.5515],[7.9987,45.5502],[7.991,45.5495],[7.987,45.55],[7.984,45.555],[7.9849,45.558],[7.9799,45.5623],[7.9753,45.5647],[7.971,45.5657],[7.9718,45.5687],[7.9856,45.5649]]],[[[7.9658,45.5746],[7.9598,45.574],[7.9407,45.5693],[7.9443,45.5752],[7.9426,45.5783],[7.9354,45.5833],[7.9228,45.589],[7.9179,45.5942],[7.9222,45.5943],[7.9404,45.5902],[7.9436,45.5915],[7.9485,45.5865],[7.9556,45.5812],[7.964,45.5785],[7.9658,45.5746]]]]}},{"type":"Feature","properties":{"i":"096039","n":"Netro"},"geometry":{"type":"Polygon","coordinates":[[[7.974,45.5332],[7.9655,45.5302],[7.9425,45.5277],[7.936,45.5261],[7.9267,45.5279],[7.9258,45.5286],[7.9254,45.5306],[7.9253,45.5383],[7.9183,45.5474],[7.9118,45.5625],[7.9122,45.568],[7.9331,45.5644],[7.9433,45.5608],[7.9485,45.557],[7.953,45.5523],[7.9625,45.5457],[7.9677,45.5446],[7.974,45.5332]]]}},{"type":"Feature","properties":{"i":"096040","n":"Occhieppo Inferiore"},"geometry":{"type":"Polygon","coordinates":[[[8.034,45.5368],[8.0327,45.5298],[8.0234,45.5282],[8.0209,45.5333],[8.0169,45.5381],[8.0159,45.5419],[8.0089,45.5552],[8.0253,45.5588],[8.0297,45.5532],[8.034,45.5368]]]}},{"type":"Feature","properties":{"i":"096041","n":"Occhieppo Superiore"},"geometry":{"type":"Polygon","coordinates":[[[8.019,45.5701],[8.0206,45.5694],[8.0216,45.5676],[8.0211,45.5629],[8.0234,45.5598],[8.0253,45.5588],[8.0073,45.5547],[8.0042,45.5551],[7.9978,45.5624],[7.9946,45.5641],[7.9906,45.5654],[7.9856,45.5649],[7.9883,45.5677],[7.9862,45.5698],[7.9848,45.5769],[7.9858,45.5783],[7.9843,45.5816],[7.9807,45.5833],[7.9709,45.5845],[7.9648,45.591],[7.9636,45.5932],[7.9645,45.6024],[7.9718,45.5923],[7.9773,45.5871],[7.9882,45.5796],[7.9894,45.5772],[8.0012,45.5712],[8.0155,45.5676],[8.0171,45.568],[8.019,45.5701]]]}},{"type":"Feature","properties":{"i":"096042","n":"Pettinengo"},"geometry":{"type":"MultiPolygon","coordinates":[[[[8.1237,45.6315],[8.1152,45.6215],[8.1128,45.6083],[8.1081,45.6019],[8.106,45.5968],[8.1068,45.5943],[8.0974,45.5967],[8.0974,45.598],[8.0956,45.6007],[8.0879,45.6037],[8.0786,45.5986],[8.0735,45.5989],[8.0711,45.6088],[8.0771,45.6096],[8.084,45.6206],[8.0857,45.6256],[8.0886,45.6255],[8.0995,45.6211],[8.1027,45.6255],[8.105,45.6267],[8.1178,45.6296],[8.1234,45.6325],[8.1237,45.6315]]],[[[7.9555,45.7186],[7.9576,45.7133],[7.9471,45.7101],[7.9506,45.7191],[7.9555,45.7186]]],[[[8.0649,45.7235],[8.0507,45.7239],[8.0363,45.726],[8.0227,45.726],[8.0204,45.7231],[8.0162,45.7203],[8.0007,45.7131],[7.9988,45.7141],[7.9967,45.719],[8.0012,45.7198],[8.0214,45.7377],[8.0359,45.7356],[8.0511,45.7378],[8.0593,45.7406],[8.0636,45.7355],[8.0649,45.7235]]]]}},{"type":"Feature","properties":{"i":"096043","n":"Piatto"},"geometry":{"type":"MultiPolygon","coordinates":[[[[8.1444,45.5947],[8.1447,45.5919],[8.1511,45.5853],[8.1552,45.578],[8.1543,45.575],[8.1479,45.5784],[8.1396,45.5807],[8.134,45.5838],[8.125,45.5929],[8.1352,45.5989],[8.1444,45.5947]]],[[[8.0888,45.6659],[8.0879,45.6579],[8.0829,45.6603],[8.0762,45.6593],[8.0703,45.6598],[8.0787,45.6658],[8.0888,45.6659]]]]}},{"type":"Feature","properties":{"i":"096044","n":"Piedicavallo"},"geometry":{"type":"Polygon","coordinates":[[[8.0074,45.7044],[8.0071,45.7013],[8.0039,45.6975],[7.9924,45.696],[7.9868,45.6915],[7.9778,45.6872],[7.9456,45.6819],[7.9325,45.669],[7.9245,45.6862],[7.9216,45.6942],[7.9203,45.7019],[7.9239,45.7063],[7.9284,45.7047],[7.9352,45.7053],[7.9382,45.707],[7.9396,45.7109],[7.9386,45.7125],[7.9471,45.7101],[7.9576,45.7133],[7.9777,45.7095],[7.9882,45.7094],[7.9988,45.7141],[8.0036,45.7113],[8.0074,45.7044]]]}},{"type":"Feature","properties":{"i":"096046","n":"Pollone"},"geometry":{"type":"MultiPolygon","coordinates":[[[[8.019,45.5701],[8.0171,45.568],[8.0155,45.5676],[8.0012,45.5712],[7.9894,45.5772],[7.9882,45.5796],[7.9773,45.5871],[7.9718,45.5923],[7.9645,45.6024],[7.9625,45.6103],[7.9645,45.6105],[7.9691,45.608],[7.9888,45.6015],[8.0025,45.5978],[8.0095,45.5942],[8.0146,45.5876],[8.0163,45.584],[8.0194,45.5721],[8.019,45.5701]]],[[[7.9361,45.6357],[7.9352,45.6321],[7.9366,45.6282],[7.9419,45.6241],[7.9447,45.6204],[7.932,45.6157],[7.9164,45.608],[7.9066,45.607],[7.8967,45.6114],[7.9085,45.6244],[7.915,45.6327],[7.9275,45.6359],[7.9361,45.6357]]]]}},{"type":"Feature","properties":{"i":"096047","n":"Ponderano"},"geometry":{"type":"Polygon","coordinates":[[[8.0697,45.5464],[8.0674,45.545],[8.0642,45.539],[8.0675,45.5261],[8.0648,45.5274],[8.0605,45.5258],[8.0613,45.517],[8.0564,45.5125],[8.0524,45.5115],[8.0495,45.5175],[8.0464,45.5187],[8.039,45.52],[8.0329,45.5201],[8.0327,45.5298],[8.034,45.5368],[8.0355,45.5389],[8.0414,45.5414],[8.0611,45.5471],[8.0687,45.5472],[8.0697,45.5464]]]}},{"type":"Feature","properties":{"i":"096048","n":"Portula"},"geometry":{"type":"Polygon","coordinates":[[[8.1912,45.6822],[8.1855,45.6774],[8.1853,45.6717],[8.1875,45.6678],[8.1869,45.6669],[8.1851,45.6668],[8.1819,45.6679],[8.1633,45.6762],[8.1536,45.6816],[8.1501,45.6859],[8.1504,45.6905],[8.1498,45.692],[8.1438,45.6956],[8.1331,45.6944],[8.1282,45.6925],[8.1201,45.6958],[8.1135,45.6997],[8.1039,45.7138],[8.1023,45.7191],[8.1084,45.725],[8.114,45.7265],[8.1151,45.7258],[8.1167,45.7223],[8.1167,45.7173],[8.1187,45.7134],[8.1259,45.7108],[8.1342,45.7047],[8.1345,45.7029],[8.1358,45.7011],[8.1479,45.6979],[8.1554,45.7002],[8.1591,45.7004],[8.1632,45.6992],[8.1725,45.6915],[8.1747,45.687],[8.1856,45.6825],[8.1912,45.6822]]]}},{"type":"Feature","properties":{"i":"096049","n":"Pralungo"},"geometry":{"type":"Polygon","coordinates":[[[8.014,45.625],[8.0193,45.6226],[8.0214,45.6195],[8.0259,45.6172],[8.0328,45.6166],[8.035,45.6142],[8.0364,45.6114],[8.0371,45.6072],[8.0365,45.6064],[8.039,45.5979],[8.0493,45.5836],[8.0506,45.5811],[8.0504,45.5792],[8.0468,45.5802],[8.034,45.5895],[8.0302,45.5939],[8.0282,45.5986],[8.0257,45.6011],[8.0144,45.6041],[8.0076,45.6036],[7.9981,45.6092],[7.9995,45.613],[8.0068,45.6245],[8.014,45.625]]]}},{"type":"Feature","properties":{"i":"096050","n":"Pray"},"geometry":{"type":"Polygon","coordinates":[[[8.2331,45.6839],[8.2307,45.6808],[8.2299,45.6782],[8.2311,45.6685],[8.2267,45.6677],[8.2168,45.6595],[8.2104,45.6572],[8.206,45.6592],[8.1979,45.6588],[8.1989,45.6577],[8.1975,45.6566],[8.1964,45.6567],[8.1876,45.6658],[8.1875,45.6678],[8.1853,45.6717],[8.1855,45.6774],[8.1912,45.6822],[8.1939,45.6809],[8.199,45.6807],[8.2036,45.6848],[8.2013,45.6937],[8.2067,45.6899],[8.2203,45.6861],[8.2291,45.6854],[8.2331,45.6839]]]}},{"type":"Feature","properties":{"i":"096053","n":"Ronco Biellese"},"geometry":{"type":"Polygon","coordinates":[[[8.1059,45.5941],[8.1033,45.5894],[8.1033,45.5861],[8.1077,45.5842],[8.1147,45.5855],[8.1172,45.5852],[8.1175,45.5809],[8.0931,45.5745],[8.0857,45.5765],[8.0705,45.5844],[8.0725,45.5889],[8.093,45.5857],[8.0961,45.5879],[8.0974,45.5967],[8.1059,45.5941]]]}},{"type":"Feature","properties":{"i":"096054","n":"Roppolo"},"geometry":{"type":"Polygon","coordinates":[[[8.0718,45.4464],[8.0831,45.4434],[8.0828,45.4354],[8.0863,45.4325],[8.0892,45.4287],[8.0896,45.4237],[8.0905,45.422],[8.0782,45.4124],[8.0736,45.4096],[8.0685,45.4078],[8.0648,45.4051],[8.0573,45.3961],[8.0529,45.3979],[8.0564,45.4157],[8.0595,45.4216],[8.0658,45.4257],[8.0688,45.4266],[8.0717,45.4304],[8.0642,45.4361],[8.0576,45.4393],[8.0529,45.4427],[8.0539,45.4442],[8.0605,45.447],[8.0718,45.4464]]]}},{"type":"Feature","properties":{"i":"096055","n":"Rosazza"},"geometry":{"type":"Polygon","coordinates":[[[7.9336,45.6645],[7.9325,45.669],[7.9456,45.6819],[7.9778,45.6872],[7.9868,45.6915],[7.9924,45.696],[8.0039,45.6975],[7.9948,45.6917],[7.984,45.6774],[7.9825,45.6727],[7.9787,45.6698],[7.9705,45.6705],[7.9637,45.6672],[7.9594,45.6622],[7.955,45.6592],[7.9416,45.6593],[7.9336,45.6645]]]}},{"type":"Feature","properties":{"i":"096056","n":"Sagliano Micca"},"geometry":{"type":"MultiPolygon","coordinates":[[[[8.0519,45.6168],[8.0472,45.6131],[8.0477,45.6149],[8.0371,45.6271],[8.0372,45.6243],[8.0403,45.6131],[8.04,45.6116],[8.0443,45.6083],[8.0473,45.609],[8.0482,45.6067],[8.044,45.6075],[8.0387,45.6115],[8.0364,45.6152],[8.0309,45.621],[8.0279,45.622],[8.0193,45.6226],[8.0033,45.6304],[8.0064,45.6332],[8.0142,45.6354],[8.0169,45.6346],[8.0229,45.6346],[8.0301,45.6371],[8.0309,45.6391],[8.0369,45.6441],[8.033,45.6507],[8.0332,45.6529],[8.0476,45.6636],[8.0518,45.6629],[8.0518,45.6578],[8.0549,45.6527],[8.0534,45.6449],[8.0502,45.6413],[8.0466,45.6351],[8.0461,45.6313],[8.0484,45.6208],[8.0519,45.6168]]],[[[7.9203,45.7019],[7.9216,45.6942],[7.9245,45.6862],[7.9334,45.6671],[7.9275,45.663],[7.9259,45.6552],[7.9209,45.6606],[7.922,45.6643],[7.9216,45.6664],[7.9119,45.6707],[7.9111,45.6798],[7.9052,45.682],[7.9048,45.6847],[7.9073,45.6931],[7.9118,45.7008],[7.9203,45.7019]]]]}},{"type":"Feature","properties":{"i":"096057","n":"Sala Biellese"},"geometry":{"type":"Polygon","coordinates":[[[7.9876,45.5033],[7.9742,45.4955],[7.9704,45.4957],[7.958,45.5033],[7.9319,45.5116],[7.9206,45.5143],[7.9234,45.5215],[7.9476,45.5213],[7.9667,45.5176],[7.987,45.5113],[7.9876,45.5033]]]}},{"type":"Feature","properties":{"i":"096058","n":"Salussola"},"geometry":{"type":"Polygon","coordinates":[[[8.1793,45.4657],[8.1876,45.4604],[8.1935,45.4581],[8.2091,45.4565],[8.2178,45.457],[8.2204,45.4563],[8.2178,45.4537],[8.2034,45.4467],[8.1942,45.4486],[8.1824,45.4463],[8.166,45.4342],[8.1614,45.4246],[8.1644,45.4225],[8.1529,45.4202],[8.1415,45.4201],[8.1345,45.4274],[8.1192,45.4289],[8.112,45.4322],[8.0957,45.4366],[8.09,45.4351],[8.0863,45.4325],[8.0828,45.4354],[8.0831,45.4434],[8.0718,45.4464],[8.0914,45.4528],[8.105,45.4633],[8.1057,45.4639],[8.1063,45.4725],[8.1097,45.4768],[8.1117,45.481],[8.1357,45.4842],[8.1399,45.4787],[8.148,45.4739],[8.1598,45.4711],[8.1664,45.4724],[8.1734,45.4667],[8.1793,45.4657]]]}},{"type":"Feature","properties":{"i":"096059","n":"Sandigliano"},"geometry":{"type":"Polygon","coordinates":[[[8.0994,45.5172],[8.0989,45.508],[8.1005,45.5001],[8.0815,45.4969],[8.0661,45.4975],[8.0584,45.5023],[8.0559,45.5028],[8.0524,45.5115],[8.0564,45.5125],[8.0613,45.517],[8.0605,45.5258],[8.0648,45.5274],[8.0675,45.5261],[8.0733,45.5256],[8.0743,45.5264],[8.0745,45.5304],[8.0901,45.527],[8.0971,45.5208],[8.0994,45.5172]]]}},{"type":"Feature","properties":{"i":"096063","n":"Sordevolo"},"geometry":{"type":"Polygon","coordinates":[[[7.9625,45.6103],[7.9645,45.6024],[7.9636,45.5932],[7.9648,45.591],[7.9709,45.5845],[7.9807,45.5833],[7.9843,45.5816],[7.9858,45.5783],[7.9848,45.5769],[7.9862,45.5698],[7.9883,45.5677],[7.9856,45.5649],[7.9718,45.5687],[7.9658,45.5746],[7.964,45.5785],[7.9556,45.5812],[7.9485,45.5865],[7.9436,45.5915],[7.9404,45.5902],[7.9222,45.5943],[7.9325,45.5974],[7.9312,45.6001],[7.9301,45.6007],[7.9183,45.6047],[7.9052,45.6033],[7.9026,45.6039],[7.8974,45.6063],[7.8967,45.6114],[7.9066,45.607],[7.9164,45.608],[7.932,45.6157],[7.9447,45.6204],[7.9556,45.6175],[7.9616,45.6129],[7.9625,45.6103]]]}},{"type":"Feature","properties":{"i":"096064","n":"Sostegno"},"geometry":{"type":"MultiPolygon","coordinates":[[[[8.3127,45.6316],[8.3089,45.6317],[8.3033,45.6299],[8.2968,45.6249],[8.296,45.6237],[8.2969,45.6215],[8.2947,45.6208],[8.2873,45.6249],[8.2887,45.6276],[8.2894,45.6318],[8.2884,45.6323],[8.2972,45.6363],[8.3118,45.6351],[8.3127,45.6316]]],[[[8.3266,45.6453],[8.3159,45.6407],[8.3114,45.6414],[8.2959,45.6409],[8.2932,45.6392],[8.2913,45.6368],[8.2827,45.6345],[8.2709,45.6326],[8.2613,45.6333],[8.2483,45.6636],[8.2449,45.6677],[8.2669,45.6725],[8.2691,45.6761],[8.2686,45.6793],[8.2701,45.6818],[8.2839,45.6699],[8.2894,45.6686],[8.293,45.6659],[8.2963,45.6618],[8.2976,45.6578],[8.3204,45.6493],[8.324,45.6489],[8.3279,45.6469],[8.3274,45.6454],[8.3266,45.6453]]]]}},{"type":"Feature","properties":{"i":"096065","n":"Strona"},"geometry":{"type":"Polygon","coordinates":[[[8.1851,45.6175],[8.1856,45.6133],[8.1775,45.6149],[8.1748,45.6142],[8.1775,45.6099],[8.1675,45.6109],[8.1616,45.6159],[8.1599,45.619],[8.1598,45.6212],[8.1628,45.6253],[8.1665,45.638],[8.1747,45.641],[8.1785,45.6357],[8.1782,45.6335],[8.1759,45.6308],[8.1793,45.6217],[8.1824,45.6206],[8.1854,45.6184],[8.1851,45.6175]]]}},{"type":"Feature","properties":{"i":"096066","n":"Tavigliano"},"geometry":{"type":"MultiPolygon","coordinates":[[[[8.0652,45.6748],[8.0619,45.6674],[8.0627,45.6639],[8.0651,45.6618],[8.0688,45.6554],[8.0705,45.6475],[8.0691,45.6369],[8.0716,45.6334],[8.0715,45.6302],[8.0686,45.6243],[8.0662,45.6226],[8.059,45.6181],[8.0521,45.6168],[8.0484,45.6208],[8.0461,45.6313],[8.0466,45.6351],[8.0502,45.6413],[8.0534,45.6449],[8.0549,45.6527],[8.0518,45.6578],[8.0518,45.6629],[8.054,45.6637],[8.056,45.6657],[8.0546,45.6665],[8.0559,45.674],[8.0652,45.6748]]],[[[7.9967,45.719],[7.9988,45.7141],[7.9882,45.7094],[7.9777,45.7095],[7.9576,45.7133],[7.9555,45.7186],[7.9631,45.7203],[7.9841,45.7209],[7.9967,45.719]]]]}},{"type":"Feature","properties":{"i":"096067","n":"Ternengo"},"geometry":{"type":"Polygon","coordinates":[[[8.125,45.5929],[8.1306,45.5875],[8.1178,45.5833],[8.1169,45.5853],[8.1077,45.5842],[8.1042,45.5852],[8.103,45.5867],[8.1033,45.5894],[8.1059,45.5941],[8.125,45.5929]]]}},{"type":"Feature","properties":{"i":"096068","n":"Tollegno"},"geometry":{"type":"Polygon","coordinates":[[[8.0482,45.6067],[8.0507,45.6003],[8.0574,45.5933],[8.0559,45.589],[8.0561,45.5826],[8.053,45.5798],[8.0506,45.5811],[8.039,45.5979],[8.0365,45.6064],[8.0371,45.6072],[8.0364,45.6114],[8.035,45.6142],[8.0328,45.6166],[8.0259,45.6172],[8.0214,45.6195],[8.0193,45.6226],[8.0279,45.622],[8.0309,45.621],[8.0364,45.6152],[8.0387,45.6115],[8.044,45.6075],[8.0482,45.6067]]]}},{"type":"Feature","properties":{"i":"096069","n":"Torrazzo"},"geometry":{"type":"Polygon","coordinates":[[[7.9742,45.4955],[7.9734,45.4859],[7.9663,45.482],[7.9222,45.5073],[7.9191,45.5116],[7.9206,45.5143],[7.9319,45.5116],[7.958,45.5033],[7.9692,45.4962],[7.9742,45.4955]]]}},{"type":"Feature","properties":{"i":"096071","n":"Valdengo"},"geometry":{"type":"Polygon","coordinates":[[[8.1543,45.575],[8.1515,45.5721],[8.149,45.5713],[8.1492,45.5621],[8.151,45.5604],[8.1588,45.5486],[8.1621,45.5461],[8.1352,45.5489],[8.1345,45.5553],[8.1323,45.5588],[8.1278,45.5619],[8.1265,45.5638],[8.1252,45.5691],[8.1256,45.5743],[8.1233,45.5754],[8.1151,45.5767],[8.1087,45.576],[8.1062,45.5775],[8.1175,45.5809],[8.1178,45.5833],[8.1306,45.5875],[8.134,45.5838],[8.1396,45.5807],[8.1479,45.5784],[8.1543,45.575]]]}},{"type":"Feature","properties":{"i":"096072","n":"Vallanzengo"},"geometry":{"type":"MultiPolygon","coordinates":[[[[8.1577,45.606],[8.1555,45.6017],[8.1554,45.5965],[8.1492,45.5959],[8.1482,45.5964],[8.1449,45.6033],[8.1566,45.6091],[8.1585,45.6084],[8.1585,45.6066],[8.1577,45.606]]],[[[8.1323,45.6307],[8.1441,45.63],[8.1322,45.6291],[8.1323,45.6307]]],[[[8.0878,45.6663],[8.0787,45.6658],[8.0703,45.6598],[8.0729,45.666],[8.0723,45.6708],[8.0681,45.6747],[8.0711,45.6764],[8.0766,45.6818],[8.0772,45.6829],[8.0763,45.684],[8.0764,45.6877],[8.0816,45.6912],[8.083,45.6954],[8.088,45.7008],[8.0902,45.7013],[8.092,45.7009],[8.0895,45.6929],[8.0885,45.6774],[8.0836,45.6709],[8.0852,45.6682],[8.0878,45.6663]]]]}},{"type":"Feature","properties":{"i":"096074","n":"Valle San Nicolao"},"geometry":{"type":"MultiPolygon","coordinates":[[[[8.1616,45.6159],[8.1675,45.6109],[8.1635,45.608],[8.1577,45.606],[8.1585,45.6067],[8.1582,45.6089],[8.1545,45.6084],[8.1449,45.6033],[8.1484,45.5963],[8.1554,45.5965],[8.1573,45.5952],[8.1565,45.59],[8.1532,45.5894],[8.1513,45.59],[8.149,45.5932],[8.1352,45.5989],[8.1366,45.6012],[8.1398,45.6136],[8.1458,45.6207],[8.1521,45.6223],[8.1616,45.6159]]],[[[8.1323,45.6307],[8.1322,45.6291],[8.1349,45.6256],[8.1278,45.6286],[8.122,45.6293],[8.1237,45.6315],[8.1323,45.6307]]],[[[8.0649,45.7235],[8.0769,45.7187],[8.0814,45.7134],[8.0797,45.7115],[8.0737,45.7084],[8.0534,45.7064],[8.0455,45.704],[8.0344,45.7114],[8.0309,45.7126],[8.0153,45.7132],[8.0095,45.7116],[8.0036,45.7113],[8.0007,45.7131],[8.0162,45.7203],[8.0204,45.7231],[8.0227,45.726],[8.0363,45.726],[8.0507,45.7239],[8.0649,45.7235]]]]}},{"type":"Feature","properties":{"i":"096075","n":"Veglio"},"geometry":{"type":"MultiPolygon","coordinates":[[[[8.1234,45.6325],[8.1178,45.6296],[8.1072,45.6376],[8.1016,45.645],[8.0935,45.6512],[8.0911,45.6514],[8.0879,45.6579],[8.0888,45.6659],[8.096,45.6645],[8.1067,45.6586],[8.1082,45.6569],[8.1091,45.6524],[8.1282,45.6396],[8.1289,45.6378],[8.1234,45.6325]]],[[[8.0559,45.674],[8.0546,45.6665],[8.056,45.6657],[8.054,45.6637],[8.0518,45.6629],[8.0476,45.6636],[8.0347,45.67],[8.0426,45.6783],[8.0559,45.674]]]]}},{"type":"Feature","properties":{"i":"096076","n":"Verrone"},"geometry":{"type":"Polygon","coordinates":[[[8.1077,45.5224],[8.113,45.5144],[8.1377,45.4967],[8.142,45.495],[8.1433,45.4918],[8.1373,45.4888],[8.1349,45.4856],[8.1357,45.4842],[8.1117,45.481],[8.1081,45.4883],[8.1005,45.5001],[8.0989,45.508],[8.0994,45.5172],[8.1013,45.5208],[8.1077,45.5224]]]}},{"type":"Feature","properties":{"i":"096077","n":"Vigliano Biellese"},"geometry":{"type":"MultiPolygon","coordinates":[[[[8.1663,45.548],[8.1689,45.5456],[8.1621,45.5461],[8.1588,45.5486],[8.1663,45.548]]],[[[8.1062,45.5775],[8.1087,45.576],[8.1151,45.5767],[8.1233,45.5754],[8.1256,45.5743],[8.1252,45.5691],[8.1265,45.5638],[8.1278,45.5619],[8.1323,45.5588],[8.1345,45.5553],[8.1352,45.5489],[8.1447,45.5479],[8.1329,45.5488],[8.1003,45.5539],[8.0914,45.5536],[8.0865,45.5557],[8.0847,45.5587],[8.0848,45.5609],[8.0892,45.5638],[8.094,45.5694],[8.095,45.5736],[8.0962,45.5753],[8.1062,45.5775]]]]}},{"type":"Feature","properties":{"i":"096078","n":"Villa del Bosco"},"geometry":{"type":"MultiPolygon","coordinates":[[[[8.3123,45.6317],[8.3114,45.621],[8.3077,45.6174],[8.2969,45.6215],[8.296,45.6237],[8.2968,45.6249],[8.3033,45.6299],[8.3089,45.6317],[8.3123,45.6317]]],[[[8.2947,45.6208],[8.294,45.619],[8.2897,45.616],[8.2778,45.6117],[8.2734,45.6135],[8.2633,45.6199],[8.2714,45.6234],[8.2741,45.624],[8.2759,45.6233],[8.2884,45.6323],[8.2894,45.6318],[8.2887,45.6276],[8.2873,45.6249],[8.2947,45.6208]]]]}},{"type":"Feature","properties":{"i":"096079","n":"Villanova Biellese"},"geometry":{"type":"Polygon","coordinates":[[[8.2189,45.4758],[8.2167,45.4691],[8.2187,45.4581],[8.2205,45.4566],[8.2091,45.4565],[8.1935,45.4581],[8.1876,45.4604],[8.1793,45.4657],[8.1868,45.4686],[8.1903,45.4718],[8.1863,45.4762],[8.1822,45.4771],[8.1772,45.4808],[8.1766,45.4834],[8.1879,45.492],[8.2117,45.4775],[8.2189,45.4758]]]}},{"type":"Feature","properties":{"i":"096080","n":"Viverone"},"geometry":{"type":"Polygon","coordinates":[[[8.0539,45.4442],[8.0529,45.4427],[8.0576,45.4393],[8.0642,45.4361],[8.0717,45.4304],[8.0688,45.4266],[8.0658,45.4257],[8.0595,45.4216],[8.0564,45.4157],[8.0529,45.3979],[8.0417,45.397],[8.027,45.4031],[8.0222,45.4186],[8.0222,45.4223],[8.0317,45.4304],[8.0363,45.4361],[8.0349,45.4378],[8.0377,45.441],[8.0539,45.4442]]]}},{"type":"Feature","properties":{"i":"096081","n":"Zimone"},"geometry":{"type":"Polygon","coordinates":[[[8.0605,45.447],[8.0539,45.4442],[8.0384,45.4414],[8.031,45.4469],[8.0299,45.449],[8.0196,45.4532],[8.0319,45.4552],[8.0347,45.4567],[8.0346,45.4582],[8.0334,45.4594],[8.0351,45.4595],[8.0386,45.4584],[8.043,45.4553],[8.0566,45.4521],[8.0604,45.4485],[8.0605,45.447]]]}},{"type":"Feature","properties":{"i":"096082","n":"Zubiena"},"geometry":{"type":"Polygon","coordinates":[[[8.0216,45.5055],[8.0227,45.5019],[8.0188,45.4997],[8.0293,45.4947],[8.033,45.4941],[8.0394,45.488],[8.0369,45.4765],[8.0353,45.4747],[8.0343,45.4753],[8.0328,45.4716],[8.0261,45.4719],[8.0148,45.4769],[7.9789,45.4837],[7.9734,45.4859],[7.9742,45.4955],[7.9876,45.5033],[8.0028,45.506],[8.0133,45.5049],[8.0216,45.5055]]]}},{"type":"Feature","properties":{"i":"096083","n":"Zumaglia"},"geometry":{"type":"Polygon","coordinates":[[[8.0974,45.5967],[8.0961,45.5879],[8.093,45.5857],[8.0725,45.5889],[8.0735,45.5989],[8.0786,45.5986],[8.0879,45.6037],[8.0956,45.6007],[8.0974,45.598],[8.0974,45.5967]]]}},{"type":"Feature","properties":{"i":"096085","n":"Lessona"},"geometry":{"type":"Polygon","coordinates":[[[8.1856,45.6133],[8.1983,45.6041],[8.1987,45.597],[8.1998,45.5945],[8.2105,45.5885],[8.2138,45.5857],[8.2243,45.5748],[8.228,45.5697],[8.2272,45.5664],[8.2285,45.561],[8.2358,45.551],[8.236,45.5418],[8.2345,45.5397],[8.231,45.5376],[8.2314,45.5366],[8.2299,45.5354],[8.2253,45.5353],[8.2228,45.537],[8.2131,45.5343],[8.2106,45.5364],[8.2147,45.5397],[8.2204,45.5461],[8.2183,45.5477],[8.2156,45.5476],[8.2126,45.5492],[8.2071,45.5531],[8.2068,45.5555],[8.2076,45.5561],[8.2111,45.5663],[8.2111,45.5683],[8.203,45.5757],[8.1948,45.5808],[8.1863,45.591],[8.184,45.5942],[8.1833,45.6035],[8.1823,45.6061],[8.1775,45.6099],[8.1746,45.6139],[8.1754,45.6148],[8.1775,45.6149],[8.1856,45.6133]]]}},{"type":"Feature","properties":{"i":"096086","n":"Campiglia Cervo"},"geometry":{"type":"Polygon","coordinates":[[[8.0347,45.67],[8.0476,45.6636],[8.0332,45.6529],[8.033,45.6507],[8.0369,45.6441],[8.0309,45.6391],[8.0301,45.6371],[8.0229,45.6346],[8.0169,45.6346],[8.0142,45.6354],[8.0064,45.6332],[8.0033,45.6304],[7.994,45.6331],[7.9861,45.6413],[7.9791,45.6454],[7.9619,45.645],[7.9616,45.647],[7.9685,45.6475],[7.9718,45.6501],[7.9726,45.652],[7.974,45.6578],[7.9681,45.6615],[7.9654,45.658],[7.9524,45.6547],[7.9421,45.653],[7.936,45.6561],[7.9336,45.6645],[7.9416,45.6593],[7.955,45.6592],[7.9594,45.6622],[7.9637,45.6672],[7.9705,45.6705],[7.9787,45.6698],[7.9825,45.6727],[7.984,45.6774],[7.9948,45.6917],[8.0039,45.6975],[8.0071,45.7013],[8.0155,45.6922],[8.0182,45.6881],[8.0166,45.6838],[8.0167,45.6788],[8.0198,45.6766],[8.0253,45.6761],[8.0347,45.67]]]}},{"type":"Feature","properties":{"i":"096087","n":"Quaregna Cerreto"},"geometry":{"type":"Polygon","coordinates":[[[8.1663,45.548],[8.1588,45.5486],[8.151,45.5604],[8.1496,45.5613],[8.149,45.5713],[8.1515,45.5721],[8.1543,45.575],[8.1552,45.578],[8.1511,45.5853],[8.1447,45.5919],[8.1444,45.5947],[8.149,45.5932],[8.1513,45.59],[8.1532,45.5894],[8.1565,45.59],[8.1575,45.5945],[8.1554,45.5965],[8.1555,45.6017],[8.1577,45.606],[8.1635,45.608],[8.1669,45.6043],[8.175,45.5997],[8.1762,45.5981],[8.1765,45.595],[8.1731,45.5815],[8.1684,45.5708],[8.1689,45.5675],[8.1678,45.5643],[8.1642,45.5601],[8.1635,45.5505],[8.1663,45.548]]]}},{"type":"Feature","properties":{"i":"096088","n":"Valdilana"},"geometry":{"type":"MultiPolygon","coordinates":[[[[8.0426,45.6783],[8.0347,45.67],[8.0253,45.6761],[8.0198,45.6766],[8.0176,45.6781],[8.0167,45.6788],[8.0166,45.6838],[8.0182,45.6881],[8.0155,45.6922],[8.0071,45.7013],[8.0074,45.7044],[8.0103,45.7033],[8.0173,45.7028],[8.0316,45.7053],[8.0383,45.6893],[8.0398,45.6834],[8.0398,45.6798],[8.0426,45.6783]]],[[[8.0958,45.7377],[8.105,45.731],[8.114,45.7265],[8.1071,45.7242],[8.1023,45.7188],[8.1039,45.7138],[8.1135,45.6997],[8.1201,45.6958],[8.1282,45.6925],[8.1331,45.6944],[8.1438,45.6956],[8.1492,45.6929],[8.1504,45.6905],[8.1503,45.6854],[8.1544,45.6811],[8.1633,45.6762],[8.1819,45.6679],[8.1851,45.6668],[8.1869,45.6669],[8.1875,45.6678],[8.1876,45.6658],[8.1964,45.6567],[8.1975,45.6566],[8.1989,45.6577],[8.1979,45.6588],[8.206,45.6592],[8.2104,45.6572],[8.2155,45.6529],[8.2128,45.6287],[8.2117,45.6255],[8.2056,45.6255],[8.1981,45.6324],[8.1984,45.6346],[8.1971,45.6359],[8.1894,45.6396],[8.1754,45.6435],[8.1739,45.6424],[8.1747,45.641],[8.1665,45.638],[8.1628,45.6253],[8.1598,45.6212],[8.1599,45.619],[8.1616,45.6159],[8.1528,45.6221],[8.1441,45.63],[8.1237,45.6315],[8.1234,45.6325],[8.1289,45.6378],[8.1282,45.6396],[8.1091,45.6524],[8.1082,45.6569],[8.1067,45.6586],[8.096,45.6645],[8.0888,45.6659],[8.0852,45.6682],[8.0836,45.6709],[8.0885,45.6774],[8.0895,45.6929],[8.092,45.7009],[8.0902,45.7013],[8.0769,45.7187],[8.0784,45.7292],[8.081,45.7351],[8.0844,45.7384],[8.0894,45.7388],[8.0958,45.7377]]]]}}]}
