{"type":"FeatureCollection","fonte":"Confini comunali ISTAT via openpolis/geojson-italy — CC BY 4.0","features":[{"type":"Feature","properties":{"i":"025001","n":"Agordo"},"geometry":{"type":"Polygon","coordinates":[[[12.0734,46.3311],[12.0732,46.327],[12.0745,46.3223],[12.0806,46.3139],[12.0817,46.3102],[12.0779,46.3029],[12.0746,46.2992],[12.0682,46.2926],[12.0566,46.2842],[12.0529,46.2797],[12.0528,46.2771],[12.0539,46.2764],[12.0535,46.2756],[12.0374,46.2691],[12.0343,46.2706],[12.0267,46.2718],[12.0223,46.2709],[12.0224,46.274],[12.0214,46.2756],[12.0136,46.2793],[12.0007,46.2788],[11.9967,46.2791],[11.9941,46.2804],[11.9964,46.2824],[12.0195,46.2855],[12.0211,46.2885],[12.0186,46.2939],[12.0176,46.2982],[12.026,46.3026],[12.042,46.3197],[12.0416,46.3257],[12.0396,46.3286],[12.0437,46.336],[12.0615,46.3484],[12.0614,46.344],[12.0574,46.3386],[12.0599,46.3352],[12.0646,46.3332],[12.0734,46.3311]]]}},{"type":"Feature","properties":{"i":"025003","n":"Alleghe"},"geometry":{"type":"Polygon","coordinates":[[[12.0061,46.4386],[12.0086,46.4341],[12.0225,46.4327],[12.0327,46.4299],[12.0466,46.4232],[12.0603,46.4236],[12.0652,46.4213],[12.0775,46.4205],[12.0809,46.4214],[12.0855,46.424],[12.0956,46.4249],[12.0983,46.4238],[12.0946,46.4188],[12.079,46.4081],[12.0759,46.4064],[12.0689,46.4052],[12.0657,46.4031],[12.0599,46.3912],[12.0531,46.3799],[12.0319,46.3708],[12.0159,46.3664],[12.0122,46.3689],[12.0096,46.3765],[12.0047,46.3823],[12.0032,46.3838],[11.9974,46.386],[11.9988,46.3887],[12.0026,46.3913],[12.0089,46.3938],[12.0157,46.4012],[12.0156,46.4082],[12.0138,46.4142],[12.0089,46.4224],[11.9889,46.4408],[11.9871,46.4436],[11.9883,46.4445],[12.0061,46.4386]]]}},{"type":"Feature","properties":{"i":"025004","n":"Arsiè"},"geometry":{"type":"Polygon","coordinates":[[[11.7592,46.0158],[11.7589,46.014],[11.7611,46.0119],[11.7683,46.0093],[11.7775,46.0086],[11.7802,46.007],[11.781,46.0035],[11.7792,46.0009],[11.7765,45.9994],[11.7751,45.9974],[11.7734,45.9937],[11.7731,45.9893],[11.7772,45.9839],[11.7865,45.9819],[11.7939,45.979],[11.7992,45.9728],[11.8031,45.9586],[11.8027,45.9566],[11.7986,45.9538],[11.7964,45.9495],[11.7962,45.9438],[11.7869,45.9386],[11.7854,45.9324],[11.7885,45.9283],[11.7873,45.9243],[11.7804,45.9244],[11.7693,45.9221],[11.7675,45.9238],[11.7668,45.9256],[11.763,45.9282],[11.7466,45.9352],[11.744,45.9333],[11.7385,45.932],[11.7289,45.9342],[11.7275,45.9364],[11.729,45.9391],[11.7294,45.9434],[11.7279,45.9481],[11.7222,45.9539],[11.714,45.9558],[11.7105,45.959],[11.7103,45.9598],[11.7124,45.9632],[11.7167,45.9678],[11.716,45.9704],[11.7144,45.9723],[11.7056,45.9766],[11.6935,45.9767],[11.6897,45.9779],[11.6843,45.9841],[11.6896,45.9885],[11.6869,45.9938],[11.6817,45.9991],[11.6711,46.0145],[11.6666,46.0171],[11.6687,46.0176],[11.6969,46.0153],[11.7052,46.0163],[11.7184,46.0204],[11.7186,46.0215],[11.7342,46.027],[11.7361,46.0261],[11.7349,46.0244],[11.738,46.0209],[11.7592,46.0158]]]}},{"type":"Feature","properties":{"i":"025005","n":"Auronzo di Cadore"},"geometry":{"type":"Polygon","coordinates":[[[12.3898,46.6275],[12.394,46.6272],[12.4045,46.621],[12.4178,46.6088],[12.422,46.6084],[12.4261,46.609],[12.4321,46.6053],[12.4334,46.6037],[12.4336,46.5978],[12.4357,46.588],[12.4394,46.5841],[12.447,46.5804],[12.4596,46.5799],[12.4682,46.5782],[12.4774,46.5651],[12.4777,46.5612],[12.4881,46.5581],[12.4904,46.5584],[12.491,46.554],[12.493,46.5503],[12.4989,46.5425],[12.5076,46.5342],[12.5032,46.5325],[12.4885,46.531],[12.4814,46.5288],[12.4805,46.5281],[12.4783,46.5209],[12.4736,46.5158],[12.4572,46.5053],[12.4562,46.5067],[12.4561,46.5093],[12.4615,46.5138],[12.4631,46.5181],[12.463,46.5228],[12.4593,46.5273],[12.4489,46.5326],[12.4447,46.5335],[12.4263,46.5321],[12.4097,46.5335],[12.4024,46.5383],[12.3984,46.5399],[12.389,46.5345],[12.386,46.5247],[12.389,46.5189],[12.3831,46.5129],[12.3643,46.5051],[12.3487,46.504],[12.3285,46.505],[12.3144,46.5012],[12.2989,46.5003],[12.2838,46.5002],[12.277,46.5014],[12.2736,46.5007],[12.265,46.4961],[12.2632,46.4961],[12.2472,46.4973],[12.2426,46.4989],[12.2338,46.5042],[12.2296,46.5053],[12.2342,46.5083],[12.2396,46.5174],[12.2477,46.5274],[12.2578,46.5359],[12.2544,46.5383],[12.2473,46.5482],[12.2452,46.5528],[12.245,46.5595],[12.2441,46.5627],[12.2424,46.5652],[12.2313,46.5716],[12.2264,46.573],[12.2198,46.573],[12.2031,46.575],[12.1972,46.5772],[12.1937,46.5828],[12.1921,46.5911],[12.1922,46.5946],[12.1957,46.5952],[12.2045,46.6002],[12.2088,46.6042],[12.2109,46.6079],[12.2124,46.609],[12.2322,46.614],[12.2557,46.6272],[12.2602,46.6287],[12.2634,46.628],[12.2727,46.6209],[12.2861,46.6179],[12.3055,46.6192],[12.3151,46.6238],[12.3159,46.63],[12.3326,46.629],[12.3414,46.63],[12.348,46.624],[12.3594,46.6197],[12.3719,46.6202],[12.3852,46.6228],[12.3888,46.6245],[12.3898,46.6275]]]}},{"type":"Feature","properties":{"i":"025006","n":"Belluno"},"geometry":{"type":"Polygon","coordinates":[[[12.2296,46.2177],[12.2318,46.214],[12.2343,46.201],[12.2511,46.1924],[12.2682,46.1769],[12.2631,46.1707],[12.2684,46.1659],[12.2729,46.1638],[12.2749,46.1596],[12.2738,46.1565],[12.2822,46.1158],[12.2889,46.1016],[12.2927,46.0985],[12.2974,46.1004],[12.3012,46.1034],[12.3047,46.1013],[12.3065,46.0987],[12.3035,46.0881],[12.3029,46.0845],[12.3039,46.0794],[12.3028,46.0763],[12.2862,46.0584],[12.2786,46.0477],[12.2702,46.0419],[12.2549,46.0365],[12.2486,46.0486],[12.2377,46.0616],[12.2391,46.0671],[12.2425,46.0715],[12.2429,46.0732],[12.2415,46.0787],[12.2399,46.0817],[12.232,46.0909],[12.2192,46.103],[12.2146,46.1046],[12.2011,46.1043],[12.1987,46.1053],[12.1931,46.1123],[12.1903,46.118],[12.1856,46.1206],[12.1826,46.1186],[12.1807,46.1145],[12.1797,46.1103],[12.1739,46.1055],[12.1683,46.1045],[12.1578,46.106],[12.154,46.1056],[12.151,46.104],[12.1403,46.0952],[12.1364,46.0941],[12.1353,46.0992],[12.1303,46.1076],[12.1308,46.1107],[12.1406,46.1139],[12.1494,46.1155],[12.1536,46.1179],[12.1435,46.1254],[12.1196,46.1353],[12.1237,46.139],[12.1272,46.1459],[12.1333,46.148],[12.1415,46.1445],[12.1481,46.143],[12.1525,46.1434],[12.1622,46.1462],[12.1647,46.1483],[12.1647,46.1536],[12.1533,46.1659],[12.1506,46.1699],[12.1477,46.1807],[12.1476,46.1878],[12.1491,46.1957],[12.1584,46.2042],[12.1774,46.2173],[12.1686,46.2221],[12.1817,46.2298],[12.1907,46.2336],[12.1995,46.2311],[12.2031,46.2288],[12.2076,46.2235],[12.2238,46.2221],[12.2283,46.2194],[12.2296,46.2177]]]}},{"type":"Feature","properties":{"i":"025007","n":"Borca di Cadore"},"geometry":{"type":"Polygon","coordinates":[[[12.2621,46.4516],[12.255,46.4431],[12.2518,46.4378],[12.236,46.4244],[12.2274,46.4205],[12.217,46.4189],[12.2105,46.4188],[12.198,46.4211],[12.1935,46.4246],[12.1903,46.4291],[12.1828,46.4358],[12.1777,46.4385],[12.163,46.4432],[12.155,46.4415],[12.1495,46.4362],[12.1455,46.4318],[12.1416,46.4218],[12.1205,46.4151],[12.1162,46.4159],[12.1078,46.4226],[12.1094,46.4271],[12.1042,46.4321],[12.1063,46.4369],[12.1157,46.4429],[12.1181,46.4466],[12.124,46.4526],[12.1496,46.4525],[12.1703,46.4471],[12.1978,46.4452],[12.2165,46.4479],[12.2409,46.445],[12.2413,46.4476],[12.2502,46.4522],[12.2621,46.4516]]]}},{"type":"Feature","properties":{"i":"025008","n":"Calalzo di Cadore"},"geometry":{"type":"Polygon","coordinates":[[[12.3916,46.438],[12.3882,46.4343],[12.3858,46.4334],[12.3738,46.4378],[12.3738,46.4432],[12.369,46.4504],[12.3596,46.456],[12.3355,46.4596],[12.3236,46.4725],[12.3194,46.4725],[12.3044,46.4682],[12.2865,46.4653],[12.2711,46.4581],[12.2688,46.4498],[12.2621,46.4516],[12.2566,46.4599],[12.2549,46.4639],[12.2551,46.4712],[12.2574,46.4762],[12.2616,46.4786],[12.2697,46.4869],[12.2688,46.4892],[12.2643,46.493],[12.2646,46.4955],[12.2662,46.4972],[12.2736,46.5007],[12.277,46.5014],[12.2838,46.5002],[12.2989,46.5003],[12.3144,46.5012],[12.3285,46.505],[12.3487,46.504],[12.3643,46.5051],[12.3679,46.5066],[12.3698,46.5012],[12.3712,46.4911],[12.3709,46.485],[12.3784,46.4794],[12.3842,46.4736],[12.3801,46.4691],[12.3779,46.4653],[12.378,46.464],[12.3802,46.4633],[12.3856,46.4567],[12.3857,46.4492],[12.3966,46.445],[12.3916,46.438]]]}},{"type":"Feature","properties":{"i":"025010","n":"Cencenighe Agordino"},"geometry":{"type":"Polygon","coordinates":[[[12.003,46.3627],[12.0035,46.3608],[12.0012,46.3578],[11.9983,46.3424],[11.9991,46.3389],[12.0017,46.3372],[12.0033,46.3374],[11.9895,46.3285],[11.9816,46.3263],[11.975,46.3286],[11.9557,46.3326],[11.9452,46.3327],[11.9398,46.3295],[11.9319,46.3293],[11.9282,46.3302],[11.9292,46.3359],[11.9294,46.3476],[11.9364,46.3472],[11.9399,46.3487],[11.9428,46.3515],[11.9441,46.3539],[11.9523,46.3615],[11.9586,46.3585],[11.9634,46.3604],[11.9664,46.3634],[11.9822,46.3681],[11.9907,46.3672],[12.003,46.3627]]]}},{"type":"Feature","properties":{"i":"025011","n":"Cesiomaggiore"},"geometry":{"type":"Polygon","coordinates":[[[11.9509,46.1703],[11.952,46.169],[11.954,46.1686],[11.9628,46.1687],[11.9786,46.1712],[11.9865,46.1671],[12.0075,46.1689],[12.0135,46.168],[12.0069,46.1554],[12.0021,46.1519],[12.0002,46.1492],[11.9926,46.1495],[11.9918,46.1459],[11.9864,46.1327],[11.9848,46.1153],[11.9855,46.1107],[11.9938,46.1036],[11.998,46.1014],[12.0,46.0985],[12.0004,46.0935],[11.9978,46.0889],[11.9988,46.0876],[12.0015,46.0876],[12.0084,46.0892],[12.0116,46.0877],[12.0197,46.0784],[12.0161,46.0774],[12.0036,46.0769],[11.9996,46.0757],[11.9987,46.0728],[11.9991,46.0705],[12.0003,46.0689],[12.0037,46.067],[12.0052,46.0636],[12.0037,46.0519],[11.9967,46.0472],[11.9885,46.0396],[11.9868,46.0362],[11.9798,46.0368],[11.9774,46.0386],[11.9775,46.04],[11.9736,46.0465],[11.9615,46.0528],[11.946,46.0574],[11.936,46.0625],[11.9315,46.0661],[11.9327,46.0677],[11.943,46.0736],[11.9444,46.0802],[11.94,46.0874],[11.932,46.0912],[11.9152,46.0953],[11.9061,46.1008],[11.9043,46.1115],[11.9009,46.1164],[11.8984,46.1182],[11.8918,46.1205],[11.8962,46.1243],[11.9055,46.1345],[11.9012,46.1366],[11.9195,46.1486],[11.9198,46.1517],[11.9183,46.1553],[11.9215,46.1614],[11.924,46.1635],[11.9294,46.171],[11.9286,46.1758],[11.9356,46.1751],[11.9374,46.1738],[11.9509,46.1703]]]}},{"type":"Feature","properties":{"i":"025012","n":"Chies d'Alpago"},"geometry":{"type":"Polygon","coordinates":[[[12.4465,46.2078],[12.4452,46.2067],[12.4423,46.1987],[12.4465,46.1866],[12.447,46.1803],[12.4569,46.1706],[12.4628,46.1676],[12.4899,46.1572],[12.4954,46.1505],[12.4986,46.1385],[12.497,46.1329],[12.4754,46.1372],[12.4625,46.1428],[12.4403,46.1467],[12.4357,46.1517],[12.4002,46.15],[12.3988,46.1524],[12.3911,46.1537],[12.3881,46.1521],[12.3811,46.1518],[12.3788,46.1637],[12.3782,46.1713],[12.3719,46.1786],[12.3703,46.1818],[12.374,46.1847],[12.3759,46.1844],[12.377,46.1861],[12.3786,46.1977],[12.3835,46.2072],[12.4003,46.2113],[12.4073,46.207],[12.4252,46.2091],[12.4321,46.2092],[12.4465,46.2078]]]}},{"type":"Feature","properties":{"i":"025013","n":"Cibiana di Cadore"},"geometry":{"type":"Polygon","coordinates":[[[12.3017,46.3663],[12.2896,46.3619],[12.2709,46.3525],[12.2648,46.3514],[12.2566,46.3531],[12.2496,46.3527],[12.241,46.3543],[12.23,46.3718],[12.2315,46.3748],[12.2303,46.3771],[12.2296,46.3857],[12.2376,46.3857],[12.2426,46.3843],[12.2488,46.3839],[12.257,46.3844],[12.2582,46.3857],[12.2734,46.392],[12.2865,46.3963],[12.2947,46.4014],[12.3009,46.3936],[12.3062,46.3908],[12.3124,46.384],[12.3017,46.3663]]]}},{"type":"Feature","properties":{"i":"025014","n":"Colle Santa Lucia"},"geometry":{"type":"Polygon","coordinates":[[[12.0506,46.4909],[12.0543,46.4808],[12.0463,46.4819],[12.0434,46.4816],[12.0398,46.4805],[12.0338,46.4759],[12.0304,46.468],[12.0306,46.4651],[12.0322,46.4605],[12.0314,46.4549],[12.0276,46.4455],[12.0061,46.4386],[11.9883,46.4445],[11.9829,46.4557],[12.0058,46.4617],[12.0084,46.4646],[12.0036,46.4687],[12.0031,46.4716],[12.0073,46.4752],[12.0171,46.4792],[12.0239,46.4853],[12.0232,46.4868],[12.0244,46.4928],[12.0285,46.5009],[12.0348,46.502],[12.0412,46.4996],[12.0506,46.4909]]]}},{"type":"Feature","properties":{"i":"025015","n":"Comelico Superiore"},"geometry":{"type":"Polygon","coordinates":[[[12.5463,46.6593],[12.5429,46.6555],[12.5375,46.6436],[12.5341,46.6436],[12.5297,46.6422],[12.5273,46.6374],[12.5278,46.6247],[12.5319,46.6164],[12.5201,46.5851],[12.5153,46.5862],[12.5142,46.5847],[12.5151,46.5787],[12.5141,46.5751],[12.502,46.5761],[12.4953,46.5815],[12.4926,46.5814],[12.4911,46.577],[12.4922,46.5712],[12.4904,46.5584],[12.4881,46.5581],[12.4777,46.5612],[12.4774,46.5651],[12.4682,46.5782],[12.4596,46.5799],[12.447,46.5804],[12.4394,46.5841],[12.4357,46.588],[12.4336,46.5978],[12.4334,46.6037],[12.4321,46.6053],[12.4261,46.609],[12.422,46.6084],[12.4178,46.6088],[12.4045,46.621],[12.394,46.6272],[12.3898,46.6275],[12.3827,46.6327],[12.3784,46.6367],[12.378,46.6378],[12.3798,46.6429],[12.3816,46.6436],[12.3851,46.6434],[12.3911,46.6416],[12.404,46.643],[12.4068,46.6442],[12.4274,46.6616],[12.4375,46.6689],[12.4776,46.6798],[12.4801,46.6773],[12.4825,46.6769],[12.5137,46.6781],[12.5196,46.6768],[12.5286,46.6734],[12.5463,46.6593]]]}},{"type":"Feature","properties":{"i":"025016","n":"Cortina d'Ampezzo"},"geometry":{"type":"Polygon","coordinates":[[[12.1482,46.6342],[12.1631,46.6362],[12.1713,46.6341],[12.1775,46.6273],[12.1865,46.6208],[12.1944,46.6195],[12.1945,46.6047],[12.1917,46.5965],[12.1934,46.584],[12.1965,46.5777],[12.2031,46.575],[12.2198,46.573],[12.2264,46.573],[12.2313,46.5716],[12.2433,46.5643],[12.245,46.5595],[12.2452,46.5528],[12.2473,46.5482],[12.2544,46.5383],[12.2578,46.5359],[12.2477,46.5274],[12.2396,46.5174],[12.2342,46.5083],[12.2296,46.5053],[12.1984,46.5077],[12.1944,46.5057],[12.1924,46.5008],[12.1888,46.4972],[12.1796,46.4902],[12.1621,46.4813],[12.1579,46.4781],[12.1543,46.4732],[12.148,46.4679],[12.1365,46.4642],[12.1258,46.4621],[12.107,46.4688],[12.0878,46.4915],[12.062,46.4976],[12.0576,46.497],[12.0533,46.4946],[12.0506,46.4909],[12.0412,46.4996],[12.0348,46.502],[12.0285,46.5009],[12.0257,46.5029],[12.0127,46.5087],[12.0062,46.5134],[12.0068,46.5154],[11.9882,46.5264],[11.9889,46.5319],[11.9912,46.5331],[11.9984,46.5329],[11.9996,46.5338],[12.0138,46.5508],[12.0279,46.5653],[12.0342,46.5768],[12.0367,46.5788],[12.0438,46.5819],[12.0467,46.5847],[12.0498,46.5938],[12.0496,46.5995],[12.0466,46.6081],[12.0517,46.6145],[12.0604,46.6201],[12.0657,46.627],[12.0692,46.6401],[12.0714,46.6416],[12.0716,46.6461],[12.0671,46.654],[12.0696,46.6641],[12.0683,46.6751],[12.0755,46.6744],[12.0783,46.6717],[12.1092,46.6556],[12.11,46.6538],[12.1128,46.6519],[12.1272,46.6447],[12.1305,46.6441],[12.1436,46.6355],[12.1464,46.6342],[12.1482,46.6342]]]}},{"type":"Feature","properties":{"i":"025017","n":"Danta di Cadore"},"geometry":{"type":"Polygon","coordinates":[[[12.5141,46.5751],[12.5194,46.5739],[12.524,46.57],[12.5246,46.5705],[12.5291,46.5637],[12.5273,46.5621],[12.5256,46.5574],[12.5182,46.5523],[12.4989,46.5425],[12.491,46.554],[12.4904,46.5584],[12.4922,46.5712],[12.4911,46.577],[12.4922,46.581],[12.4953,46.5815],[12.502,46.5761],[12.5141,46.5751]]]}},{"type":"Feature","properties":{"i":"025018","n":"Domegge di Cadore"},"geometry":{"type":"Polygon","coordinates":[[[12.4419,46.4738],[12.4485,46.4728],[12.4593,46.4678],[12.4644,46.4465],[12.4655,46.4389],[12.4652,46.4351],[12.4682,46.429],[12.4716,46.425],[12.4784,46.4246],[12.4939,46.4261],[12.4925,46.4243],[12.4943,46.4187],[12.4987,46.4122],[12.4953,46.412],[12.4894,46.4087],[12.479,46.4005],[12.4691,46.39],[12.4649,46.3885],[12.4544,46.3918],[12.4426,46.4037],[12.4417,46.4058],[12.4423,46.4089],[12.4453,46.413],[12.4457,46.4149],[12.439,46.4237],[12.4379,46.4244],[12.4347,46.4232],[12.4289,46.4245],[12.4251,46.428],[12.41,46.4346],[12.3916,46.438],[12.3966,46.445],[12.3857,46.4492],[12.3856,46.4567],[12.3802,46.4633],[12.378,46.464],[12.3779,46.4653],[12.3801,46.4691],[12.3842,46.4736],[12.3784,46.4794],[12.3709,46.485],[12.3712,46.4911],[12.3698,46.5012],[12.3679,46.5066],[12.3772,46.5101],[12.3816,46.5093],[12.3955,46.5014],[12.3991,46.4912],[12.399,46.4892],[12.3976,46.4868],[12.4014,46.4837],[12.4077,46.481],[12.4193,46.4857],[12.4235,46.487],[12.4259,46.4865],[12.4281,46.4852],[12.4272,46.4792],[12.4246,46.4779],[12.4208,46.4778],[12.4183,46.4766],[12.4227,46.4739],[12.4373,46.4695],[12.4419,46.4738]]]}},{"type":"Feature","properties":{"i":"025019","n":"Falcade"},"geometry":{"type":"Polygon","coordinates":[[[11.8807,46.4009],[11.8825,46.3958],[11.885,46.3829],[11.8916,46.3754],[11.8978,46.3701],[11.9028,46.3627],[11.9013,46.3609],[11.899,46.36],[11.8909,46.3538],[11.8689,46.3293],[11.8621,46.3251],[11.8601,46.3218],[11.8582,46.3149],[11.8509,46.3089],[11.842,46.3062],[11.8368,46.3082],[11.8325,46.3124],[11.8319,46.3227],[11.8204,46.3285],[11.8028,46.3343],[11.802,46.3405],[11.8,46.3442],[11.7796,46.3515],[11.7744,46.3582],[11.7829,46.3643],[11.7909,46.3667],[11.8045,46.3651],[11.8135,46.3676],[11.8159,46.3746],[11.8178,46.376],[11.8202,46.3766],[11.8249,46.3716],[11.8309,46.3669],[11.8353,46.3659],[11.833,46.3767],[11.8323,46.3876],[11.8368,46.4013],[11.8437,46.4099],[11.8496,46.4102],[11.8562,46.4076],[11.8608,46.4001],[11.8657,46.3973],[11.8807,46.4009]]]}},{"type":"Feature","properties":{"i":"025021","n":"Feltre"},"geometry":{"type":"Polygon","coordinates":[[[11.9868,46.0362],[11.9854,46.0315],[11.9854,46.0266],[11.9818,46.0157],[11.9786,46.0102],[11.9777,46.0072],[11.9804,45.9924],[11.9784,45.9858],[11.9707,45.9822],[11.9521,45.9792],[11.9404,45.975],[11.9107,45.9756],[11.9062,45.9781],[11.8884,45.9924],[11.8802,46.0057],[11.8712,46.0084],[11.8598,46.0057],[11.8463,46.0039],[11.8413,46.0093],[11.8444,46.0117],[11.8585,46.0156],[11.8626,46.0194],[11.8836,46.029],[11.896,46.0317],[11.8967,46.0347],[11.8936,46.0477],[11.8915,46.0515],[11.8881,46.0527],[11.8815,46.0531],[11.8768,46.0553],[11.8745,46.0577],[11.8721,46.0645],[11.8724,46.0726],[11.8713,46.0741],[11.8647,46.0783],[11.8527,46.0806],[11.847,46.0804],[11.8453,46.0816],[11.8456,46.0839],[11.8581,46.0909],[11.8587,46.0934],[11.8565,46.0982],[11.848,46.104],[11.8426,46.109],[11.8415,46.1112],[11.8802,46.1176],[11.8918,46.1205],[11.8984,46.1182],[11.9009,46.1164],[11.9043,46.1115],[11.9061,46.1008],[11.9152,46.0953],[11.932,46.0912],[11.94,46.0874],[11.9436,46.082],[11.9444,46.0802],[11.943,46.0736],[11.9327,46.0677],[11.9315,46.0661],[11.936,46.0625],[11.946,46.0574],[11.9615,46.0528],[11.9736,46.0465],[11.9775,46.04],[11.9774,46.0386],[11.9798,46.0368],[11.9868,46.0362]]]}},{"type":"Feature","properties":{"i":"025022","n":"Fonzaso"},"geometry":{"type":"Polygon","coordinates":[[[11.8444,46.0117],[11.8413,46.0093],[11.8367,46.0038],[11.8235,45.9934],[11.8162,45.9839],[11.8067,45.9632],[11.8088,45.957],[11.8081,45.9554],[11.8025,45.9549],[11.8005,45.9551],[11.8027,45.9566],[11.8031,45.9586],[11.7992,45.9728],[11.7973,45.9753],[11.7939,45.979],[11.7899,45.9807],[11.7772,45.9839],[11.7731,45.9893],[11.7734,45.9937],[11.7751,45.9974],[11.7765,45.9994],[11.7792,46.0009],[11.781,46.0035],[11.7802,46.007],[11.776,46.0089],[11.7683,46.0093],[11.7611,46.0119],[11.7587,46.0144],[11.766,46.0238],[11.7914,46.0266],[11.8026,46.0297],[11.8095,46.0324],[11.8152,46.0365],[11.8212,46.0395],[11.821,46.0368],[11.8223,46.0326],[11.8245,46.0304],[11.831,46.0284],[11.8357,46.0248],[11.84,46.0197],[11.8444,46.0117]]]}},{"type":"Feature","properties":{"i":"025023","n":"Canale d'Agordo"},"geometry":{"type":"Polygon","coordinates":[[[11.9089,46.3979],[11.9105,46.3953],[11.9101,46.3923],[11.909,46.3907],[11.9096,46.3857],[11.9146,46.376],[11.9175,46.3734],[11.9269,46.3687],[11.9297,46.3661],[11.9315,46.3584],[11.9274,46.3515],[11.9297,46.3454],[11.9292,46.3359],[11.9279,46.3315],[11.9,46.3146],[11.8974,46.3095],[11.8842,46.2934],[11.8821,46.286],[11.8852,46.2788],[11.8802,46.2783],[11.8658,46.2731],[11.8536,46.2709],[11.8408,46.2701],[11.8352,46.2741],[11.8263,46.285],[11.8326,46.2973],[11.8414,46.3063],[11.8456,46.3069],[11.8522,46.3095],[11.8582,46.3149],[11.8601,46.3218],[11.8621,46.3251],[11.8689,46.3293],[11.8909,46.3538],[11.899,46.36],[11.9013,46.3609],[11.9028,46.3627],[11.8978,46.3701],[11.8916,46.3754],[11.885,46.3829],[11.8825,46.3958],[11.8807,46.4009],[11.8953,46.3997],[11.8989,46.3984],[11.9089,46.3979]]]}},{"type":"Feature","properties":{"i":"025025","n":"Gosaldo"},"geometry":{"type":"Polygon","coordinates":[[[11.9951,46.2427],[12.0081,46.2341],[12.0157,46.2307],[12.0271,46.2216],[12.0363,46.2125],[12.0555,46.2185],[12.0499,46.207],[12.0472,46.2065],[12.0266,46.2033],[12.0092,46.2046],[11.9922,46.2074],[11.9895,46.2061],[11.9852,46.1982],[11.9951,46.1907],[12.0031,46.1862],[12.0143,46.1759],[12.0159,46.1704],[12.0144,46.1682],[12.0075,46.1689],[11.9865,46.1671],[11.9786,46.1712],[11.9628,46.1687],[11.952,46.169],[11.9509,46.1703],[11.9521,46.1727],[11.9511,46.1761],[11.9558,46.1838],[11.959,46.1848],[11.9624,46.1884],[11.9624,46.1991],[11.9394,46.1988],[11.9349,46.2019],[11.9278,46.209],[11.9264,46.2144],[11.9242,46.2172],[11.9202,46.22],[11.9096,46.2244],[11.9181,46.2383],[11.9248,46.243],[11.9293,46.249],[11.939,46.2449],[11.9464,46.2439],[11.9546,46.2456],[11.9671,46.2428],[11.9745,46.2387],[11.9774,46.2343],[11.9851,46.2342],[11.9893,46.2359],[11.9951,46.2427]]]}},{"type":"Feature","properties":{"i":"025026","n":"Lamon"},"geometry":{"type":"Polygon","coordinates":[[[11.7587,46.0956],[11.7648,46.078],[11.7625,46.0732],[11.7646,46.0528],[11.7623,46.0334],[11.7642,46.027],[11.766,46.0238],[11.7592,46.0158],[11.738,46.0209],[11.7349,46.0244],[11.7361,46.0261],[11.7342,46.027],[11.7186,46.0215],[11.7184,46.0204],[11.7052,46.0163],[11.6969,46.0153],[11.6687,46.0176],[11.6806,46.0256],[11.6819,46.0267],[11.6819,46.0279],[11.673,46.0295],[11.6666,46.0353],[11.6662,46.0362],[11.6672,46.0382],[11.6773,46.0443],[11.7002,46.0446],[11.7055,46.0468],[11.7043,46.0522],[11.6974,46.0596],[11.6865,46.067],[11.6834,46.0764],[11.6823,46.0875],[11.6824,46.0902],[11.6853,46.0936],[11.6891,46.0949],[11.6951,46.0945],[11.7035,46.0905],[11.7115,46.0991],[11.7169,46.103],[11.7508,46.1051],[11.7587,46.0956]]]}},{"type":"Feature","properties":{"i":"025027","n":"La Valle Agordina"},"geometry":{"type":"Polygon","coordinates":[[[12.1515,46.2834],[12.1561,46.2784],[12.158,46.2752],[12.1558,46.2661],[12.1469,46.2659],[12.1428,46.265],[12.1412,46.2638],[12.1394,46.2564],[12.1145,46.2501],[12.1092,46.2477],[12.1065,46.2444],[12.1038,46.2429],[12.0979,46.2464],[12.0903,46.2486],[12.0838,46.2476],[12.0828,46.2468],[12.0785,46.2473],[12.0433,46.258],[12.0398,46.2604],[12.0374,46.2691],[12.0535,46.2756],[12.0539,46.2764],[12.0528,46.2771],[12.0529,46.2797],[12.0566,46.2842],[12.0682,46.2926],[12.0791,46.3049],[12.0817,46.3102],[12.0816,46.3119],[12.0745,46.3223],[12.0732,46.327],[12.0734,46.3311],[12.0742,46.3313],[12.0787,46.3309],[12.1164,46.3189],[12.1215,46.3146],[12.1281,46.3064],[12.1331,46.2954],[12.1347,46.289],[12.1363,46.2871],[12.1408,46.285],[12.1481,46.2849],[12.1515,46.2834]]]}},{"type":"Feature","properties":{"i":"025029","n":"Limana"},"geometry":{"type":"Polygon","coordinates":[[[12.2549,46.0365],[12.253,46.034],[12.2544,46.0287],[12.2541,46.0276],[12.248,46.0281],[12.2385,46.0231],[12.2344,46.0184],[12.2286,46.0143],[12.2253,46.013],[12.2247,46.0141],[12.2272,46.0256],[12.2262,46.0359],[12.2223,46.0441],[12.2166,46.0534],[12.2064,46.0606],[12.1893,46.0656],[12.1838,46.0695],[12.1841,46.0708],[12.1779,46.0751],[12.1579,46.0809],[12.1383,46.0887],[12.133,46.0922],[12.1325,46.0935],[12.1389,46.0944],[12.1451,46.0986],[12.151,46.104],[12.154,46.1056],[12.1578,46.106],[12.1683,46.1045],[12.1739,46.1055],[12.1797,46.1103],[12.1807,46.1145],[12.1826,46.1186],[12.1864,46.1207],[12.1909,46.1173],[12.1931,46.1123],[12.1987,46.1053],[12.2011,46.1043],[12.2146,46.1046],[12.2192,46.103],[12.2232,46.0998],[12.2388,46.0834],[12.2415,46.0787],[12.2429,46.0732],[12.2425,46.0715],[12.2391,46.0671],[12.2377,46.0616],[12.2486,46.0486],[12.2549,46.0365]]]}},{"type":"Feature","properties":{"i":"025030","n":"Livinallongo del Col di Lana"},"geometry":{"type":"Polygon","coordinates":[[[11.9984,46.5329],[11.9912,46.5331],[11.9889,46.5319],[11.9882,46.5264],[12.0068,46.5154],[12.0062,46.5134],[12.0127,46.5087],[12.0257,46.5029],[12.0285,46.5009],[12.0244,46.4928],[12.0232,46.4868],[12.0239,46.4853],[12.0171,46.4792],[12.0073,46.4752],[12.0031,46.4716],[12.0036,46.4687],[12.0084,46.4646],[12.0058,46.4617],[11.9829,46.4557],[11.9821,46.4575],[11.979,46.4607],[11.9674,46.4688],[11.9503,46.4775],[11.9463,46.4755],[11.9385,46.4653],[11.933,46.4603],[11.9259,46.4603],[11.9175,46.4633],[11.8868,46.4646],[11.8827,46.4663],[11.8786,46.4703],[11.8711,46.4732],[11.8438,46.4759],[11.8235,46.4758],[11.8173,46.4766],[11.8132,46.4782],[11.8104,46.4847],[11.8144,46.4941],[11.8192,46.501],[11.8283,46.5089],[11.8514,46.5178],[11.888,46.5228],[11.8971,46.5265],[11.9027,46.5299],[11.9119,46.533],[11.9177,46.5325],[11.9276,46.5289],[11.9339,46.5279],[11.9455,46.5294],[11.9495,46.5392],[11.952,46.5405],[11.9678,46.5446],[11.9876,46.5453],[11.9984,46.5329]]]}},{"type":"Feature","properties":{"i":"025032","n":"Lorenzago di Cadore"},"geometry":{"type":"Polygon","coordinates":[[[12.531,46.4649],[12.5271,46.4595],[12.5281,46.4528],[12.5248,46.4486],[12.5162,46.4467],[12.5059,46.441],[12.4993,46.4343],[12.4964,46.4285],[12.4939,46.4261],[12.4784,46.4246],[12.4716,46.425],[12.4682,46.429],[12.4652,46.4351],[12.4655,46.4389],[12.4644,46.4465],[12.4593,46.4678],[12.4485,46.4728],[12.4419,46.4738],[12.452,46.4853],[12.4526,46.4875],[12.4655,46.4869],[12.4743,46.484],[12.4872,46.481],[12.4944,46.4826],[12.5031,46.482],[12.5108,46.4741],[12.5133,46.473],[12.5214,46.4721],[12.526,46.4702],[12.531,46.4649]]]}},{"type":"Feature","properties":{"i":"025033","n":"Lozzo di Cadore"},"geometry":{"type":"Polygon","coordinates":[[[12.4572,46.5053],[12.4521,46.4915],[12.4526,46.4875],[12.452,46.4853],[12.4407,46.4721],[12.4373,46.4695],[12.4227,46.4739],[12.4183,46.4766],[12.4208,46.4778],[12.4246,46.4779],[12.4272,46.4792],[12.4281,46.4852],[12.4259,46.4865],[12.4235,46.487],[12.4193,46.4857],[12.4077,46.481],[12.4014,46.4837],[12.3976,46.4868],[12.399,46.4892],[12.3991,46.4912],[12.3955,46.5014],[12.3816,46.5093],[12.3772,46.5101],[12.3831,46.5129],[12.389,46.5189],[12.386,46.5247],[12.389,46.5345],[12.3984,46.5399],[12.4024,46.5383],[12.4097,46.5335],[12.4263,46.5321],[12.4447,46.5335],[12.4489,46.5326],[12.4593,46.5273],[12.463,46.5228],[12.4631,46.5181],[12.4615,46.5138],[12.4561,46.5093],[12.4562,46.5067],[12.4572,46.5053]]]}},{"type":"Feature","properties":{"i":"025035","n":"Ospitale di Cadore"},"geometry":{"type":"Polygon","coordinates":[[[12.3209,46.3559],[12.3282,46.3528],[12.336,46.3519],[12.3357,46.3468],[12.3331,46.3443],[12.3323,46.3407],[12.3324,46.3383],[12.3354,46.3293],[12.3381,46.3285],[12.3446,46.3285],[12.3602,46.3302],[12.367,46.3283],[12.3714,46.3261],[12.3633,46.3248],[12.3547,46.3197],[12.3542,46.3177],[12.3556,46.3094],[12.3537,46.2994],[12.3514,46.2938],[12.3481,46.2924],[12.3347,46.2964],[12.316,46.3035],[12.3093,46.3068],[12.3018,46.3069],[12.2907,46.304],[12.2794,46.2987],[12.2762,46.2981],[12.2747,46.2984],[12.2684,46.3033],[12.264,46.3083],[12.263,46.3141],[12.2648,46.3225],[12.2629,46.3291],[12.2636,46.3341],[12.2678,46.3347],[12.2689,46.3385],[12.2675,46.3484],[12.2648,46.3514],[12.2709,46.3525],[12.2896,46.3619],[12.3017,46.3663],[12.31,46.359],[12.3182,46.356],[12.3209,46.3559]]]}},{"type":"Feature","properties":{"i":"025036","n":"Pedavena"},"geometry":{"type":"Polygon","coordinates":[[[11.8444,46.0117],[11.84,46.0197],[11.8357,46.0248],[11.831,46.0284],[11.8245,46.0304],[11.8223,46.0326],[11.821,46.0368],[11.8212,46.0395],[11.8287,46.0576],[11.8282,46.059],[11.8288,46.0608],[11.8305,46.0629],[11.832,46.0639],[11.84,46.0598],[11.8486,46.0646],[11.8508,46.0671],[11.8518,46.0717],[11.8556,46.0799],[11.8647,46.0783],[11.8721,46.0734],[11.8726,46.0621],[11.8745,46.0577],[11.8768,46.0553],[11.8815,46.0531],[11.8881,46.0527],[11.8915,46.0515],[11.8936,46.0477],[11.8967,46.0347],[11.896,46.0317],[11.8836,46.029],[11.8626,46.0194],[11.8585,46.0156],[11.8444,46.0117]]]}},{"type":"Feature","properties":{"i":"025037","n":"Perarolo di Cadore"},"geometry":{"type":"Polygon","coordinates":[[[12.4174,46.3549],[12.4192,46.3526],[12.4212,46.3426],[12.4123,46.3323],[12.4095,46.3306],[12.3992,46.3286],[12.3827,46.3301],[12.3745,46.3293],[12.3714,46.3261],[12.367,46.3283],[12.3602,46.3302],[12.3446,46.3285],[12.3381,46.3285],[12.3354,46.3293],[12.3324,46.3383],[12.3323,46.3407],[12.3331,46.3443],[12.3357,46.3468],[12.336,46.3519],[12.3282,46.3528],[12.3209,46.3559],[12.327,46.3557],[12.3366,46.3668],[12.3382,46.3712],[12.3363,46.3784],[12.3395,46.3843],[12.3407,46.3939],[12.3478,46.4002],[12.3566,46.3987],[12.3617,46.4015],[12.37,46.4013],[12.3721,46.4028],[12.3745,46.4064],[12.3741,46.4089],[12.3785,46.4103],[12.3834,46.4075],[12.3869,46.4041],[12.396,46.3931],[12.3986,46.388],[12.3962,46.3847],[12.3992,46.3765],[12.4094,46.3578],[12.4174,46.3549]]]}},{"type":"Feature","properties":{"i":"025039","n":"Pieve di Cadore"},"geometry":{"type":"Polygon","coordinates":[[[12.3916,46.438],[12.41,46.4346],[12.4251,46.428],[12.4289,46.4245],[12.4347,46.4232],[12.4379,46.4244],[12.439,46.4237],[12.4457,46.4149],[12.4446,46.4119],[12.4428,46.4102],[12.4418,46.4051],[12.455,46.3917],[12.4579,46.3837],[12.4609,46.3786],[12.4629,46.3693],[12.4611,46.3693],[12.4421,46.3597],[12.4287,46.3516],[12.4164,46.355],[12.4094,46.3578],[12.3992,46.3765],[12.3962,46.3847],[12.3986,46.388],[12.3983,46.3891],[12.396,46.3931],[12.3834,46.4075],[12.3785,46.4103],[12.3754,46.4097],[12.3741,46.4089],[12.3745,46.4064],[12.3734,46.4045],[12.37,46.4013],[12.3617,46.4015],[12.3488,46.4132],[12.3412,46.4212],[12.3314,46.4267],[12.3229,46.4355],[12.3217,46.4398],[12.3229,46.4431],[12.3218,46.4473],[12.3205,46.4479],[12.3145,46.4481],[12.3086,46.4433],[12.3046,46.4458],[12.3035,46.4496],[12.292,46.4453],[12.2814,46.438],[12.2688,46.4498],[12.2711,46.4581],[12.2865,46.4653],[12.3044,46.4682],[12.3194,46.4725],[12.3236,46.4725],[12.3355,46.4596],[12.3596,46.456],[12.369,46.4504],[12.3738,46.4432],[12.3738,46.4378],[12.3858,46.4334],[12.3882,46.4343],[12.3916,46.438]]]}},{"type":"Feature","properties":{"i":"025040","n":"Ponte nelle Alpi"},"geometry":{"type":"Polygon","coordinates":[[[12.2911,46.2176],[12.2961,46.2061],[12.2964,46.1958],[12.3003,46.1948],[12.3144,46.1965],[12.3225,46.1991],[12.3344,46.197],[12.3343,46.1953],[12.3366,46.1933],[12.3433,46.1916],[12.34,46.1871],[12.3375,46.1814],[12.3381,46.1771],[12.3407,46.174],[12.3409,46.1701],[12.3349,46.1632],[12.327,46.1597],[12.3248,46.1594],[12.3214,46.151],[12.319,46.1299],[12.3256,46.1157],[12.3284,46.1077],[12.3186,46.0983],[12.3065,46.0935],[12.3043,46.0903],[12.3065,46.0987],[12.3055,46.1006],[12.3012,46.1034],[12.2974,46.1004],[12.2927,46.0985],[12.2889,46.1016],[12.2822,46.1158],[12.2738,46.1565],[12.2749,46.1596],[12.2729,46.1638],[12.2684,46.1659],[12.2631,46.1707],[12.2682,46.1769],[12.2511,46.1924],[12.2343,46.201],[12.2318,46.214],[12.2296,46.2177],[12.237,46.2163],[12.2414,46.2166],[12.2524,46.2214],[12.2655,46.2224],[12.2767,46.2154],[12.2797,46.2146],[12.2911,46.2176]]]}},{"type":"Feature","properties":{"i":"025043","n":"Rivamonte Agordino"},"geometry":{"type":"Polygon","coordinates":[[[12.0374,46.2691],[12.0398,46.2604],[12.0433,46.258],[12.0785,46.2473],[12.0828,46.2468],[12.0844,46.2454],[12.0859,46.2409],[12.0848,46.2388],[12.0826,46.2374],[12.0678,46.2312],[12.0555,46.2185],[12.0363,46.2125],[12.0271,46.2216],[12.0157,46.2307],[12.0081,46.2341],[11.9951,46.2427],[11.9968,46.2461],[11.9991,46.2466],[12.0069,46.2526],[12.0201,46.2665],[12.0223,46.2709],[12.0267,46.2718],[12.0343,46.2706],[12.0374,46.2691]]]}},{"type":"Feature","properties":{"i":"025044","n":"Rocca Pietore"},"geometry":{"type":"Polygon","coordinates":[[[11.9829,46.4557],[11.9883,46.4445],[11.9873,46.4439],[11.9873,46.443],[12.0089,46.4224],[12.0145,46.4121],[12.0156,46.4082],[12.0157,46.4012],[12.0089,46.3938],[12.0026,46.3913],[12.0011,46.3898],[11.9915,46.3968],[11.9908,46.3978],[11.9908,46.4043],[11.9804,46.4063],[11.9607,46.4135],[11.9566,46.4126],[11.9499,46.406],[11.946,46.4004],[11.9414,46.3971],[11.937,46.3984],[11.9241,46.3992],[11.9065,46.3978],[11.8989,46.3984],[11.8953,46.3997],[11.8807,46.4009],[11.8657,46.3973],[11.8608,46.4001],[11.8562,46.4076],[11.8496,46.4102],[11.8437,46.4099],[11.8382,46.4151],[11.8405,46.419],[11.8471,46.4261],[11.8505,46.4343],[11.8709,46.4332],[11.8881,46.4418],[11.8868,46.4646],[11.9175,46.4633],[11.9259,46.4603],[11.933,46.4603],[11.9385,46.4653],[11.9463,46.4755],[11.9503,46.4775],[11.9674,46.4688],[11.979,46.4607],[11.9821,46.4575],[11.9829,46.4557]]]}},{"type":"Feature","properties":{"i":"025045","n":"San Gregorio nelle Alpi"},"geometry":{"type":"Polygon","coordinates":[[[12.0002,46.1492],[12.0021,46.1519],[12.0069,46.1554],[12.0125,46.1667],[12.0148,46.1655],[12.014,46.1558],[12.0317,46.1437],[12.0402,46.1337],[12.0608,46.1193],[12.0649,46.1139],[12.0643,46.1125],[12.06,46.1065],[12.058,46.1058],[12.0484,46.1068],[12.0462,46.1045],[12.0446,46.0953],[12.0436,46.0934],[12.042,46.0924],[12.0322,46.0886],[12.0192,46.093],[12.0167,46.095],[12.0092,46.1252],[12.0116,46.1344],[12.0007,46.1468],[12.0002,46.1492]]]}},{"type":"Feature","properties":{"i":"025046","n":"San Nicolò di Comelico"},"geometry":{"type":"Polygon","coordinates":[[[12.5704,46.6508],[12.5731,46.6481],[12.5714,46.6434],[12.5706,46.6414],[12.5634,46.6332],[12.5607,46.6264],[12.5626,46.6244],[12.5696,46.6217],[12.5733,46.6187],[12.5743,46.6155],[12.5629,46.6042],[12.5615,46.6019],[12.5599,46.5968],[12.5625,46.5909],[12.5622,46.5903],[12.5596,46.5878],[12.5435,46.5832],[12.5382,46.5793],[12.526,46.5722],[12.524,46.57],[12.5194,46.5739],[12.5141,46.5751],[12.5151,46.5787],[12.5142,46.5847],[12.5153,46.5862],[12.5201,46.5851],[12.5319,46.6164],[12.5277,46.6257],[12.5273,46.6374],[12.5297,46.6422],[12.5341,46.6436],[12.5375,46.6436],[12.5429,46.6555],[12.5463,46.6593],[12.5611,46.6521],[12.5704,46.6508]]]}},{"type":"Feature","properties":{"i":"025047","n":"San Pietro di Cadore"},"geometry":{"type":"Polygon","coordinates":[[[12.6622,46.6568],[12.6579,46.647],[12.6527,46.6414],[12.6489,46.6329],[12.6506,46.6274],[12.6497,46.623],[12.645,46.6205],[12.6372,46.6179],[12.6334,46.6156],[12.6299,46.6114],[12.629,46.6077],[12.6302,46.5917],[12.6256,46.5804],[12.6171,46.575],[12.5851,46.5697],[12.5722,46.5735],[12.5631,46.5747],[12.5594,46.5793],[12.5608,46.5835],[12.5663,46.5856],[12.5673,46.5883],[12.566,46.5905],[12.5625,46.5909],[12.5599,46.5968],[12.5615,46.6019],[12.5629,46.6042],[12.5743,46.6155],[12.5733,46.6187],[12.5696,46.6217],[12.5626,46.6244],[12.5607,46.6264],[12.5634,46.6332],[12.5706,46.6414],[12.5731,46.6481],[12.5704,46.6508],[12.5734,46.6534],[12.5789,46.6562],[12.604,46.6557],[12.619,46.6611],[12.6316,46.6604],[12.6331,46.6552],[12.6354,46.6536],[12.6411,46.6521],[12.6489,46.6525],[12.6544,46.6553],[12.6622,46.6568]]]}},{"type":"Feature","properties":{"i":"025048","n":"Santa Giustina"},"geometry":{"type":"Polygon","coordinates":[[[12.0619,46.1183],[12.0762,46.1167],[12.082,46.1153],[12.0822,46.1084],[12.0811,46.1013],[12.0758,46.0905],[12.0759,46.0876],[12.0813,46.0746],[12.0811,46.0722],[12.0791,46.0694],[12.077,46.0679],[12.0711,46.0659],[12.0564,46.0624],[12.0202,46.0579],[12.0119,46.0556],[12.0037,46.0519],[12.0052,46.0636],[12.0037,46.067],[12.0003,46.0689],[11.9991,46.0705],[11.9987,46.0728],[11.9996,46.0757],[12.0036,46.0769],[12.0161,46.0774],[12.0197,46.0784],[12.0116,46.0877],[12.0084,46.0892],[12.0015,46.0876],[11.9988,46.0876],[11.9978,46.0889],[12.0004,46.0935],[12.0,46.0985],[11.998,46.1014],[11.9938,46.1036],[11.9855,46.1107],[11.9848,46.1153],[11.9864,46.1327],[11.9918,46.1459],[11.9926,46.1495],[12.0002,46.1492],[12.0007,46.1468],[12.0116,46.1344],[12.0092,46.1252],[12.0167,46.095],[12.0192,46.093],[12.0322,46.0886],[12.042,46.0924],[12.0436,46.0934],[12.0446,46.0953],[12.0462,46.1045],[12.0484,46.1068],[12.058,46.1058],[12.0606,46.1069],[12.0649,46.1139],[12.0619,46.1183]]]}},{"type":"Feature","properties":{"i":"025049","n":"San Tomaso Agordino"},"geometry":{"type":"Polygon","coordinates":[[[12.0011,46.3898],[11.9988,46.3887],[11.9974,46.386],[12.0032,46.3838],[12.0083,46.3785],[12.0101,46.3755],[12.0122,46.3689],[12.003,46.3627],[11.9907,46.3672],[11.9822,46.3681],[11.9664,46.3634],[11.9634,46.3604],[11.9607,46.3655],[11.9537,46.3734],[11.9491,46.3806],[11.9442,46.3889],[11.9414,46.3971],[11.946,46.4004],[11.9499,46.406],[11.9566,46.4126],[11.9607,46.4135],[11.9804,46.4063],[11.9908,46.4043],[11.9908,46.3978],[11.9915,46.3968],[12.0011,46.3898]]]}},{"type":"Feature","properties":{"i":"025050","n":"Santo Stefano di Cadore"},"geometry":{"type":"Polygon","coordinates":[[[12.732,46.6338],[12.7274,46.6304],[12.7191,46.6286],[12.7114,46.6256],[12.7062,46.6208],[12.7047,46.6184],[12.7072,46.6095],[12.7078,46.602],[12.6875,46.5999],[12.6845,46.5975],[12.68,46.5911],[12.6746,46.5852],[12.6668,46.5817],[12.657,46.5728],[12.646,46.574],[12.6436,46.5758],[12.6369,46.572],[12.6287,46.5606],[12.6194,46.5414],[12.6215,46.5265],[12.5996,46.5193],[12.5949,46.5202],[12.5849,46.5174],[12.5825,46.515],[12.5767,46.5131],[12.538,46.5077],[12.5357,46.5062],[12.5292,46.5066],[12.5205,46.5092],[12.5169,46.5112],[12.5172,46.5129],[12.513,46.5205],[12.5038,46.5299],[12.5032,46.5325],[12.5076,46.5342],[12.4989,46.5425],[12.5182,46.5523],[12.5256,46.5574],[12.5273,46.5621],[12.5291,46.5637],[12.5246,46.5705],[12.5249,46.571],[12.5435,46.5832],[12.5596,46.5878],[12.5625,46.5909],[12.566,46.5905],[12.5673,46.5883],[12.5668,46.5862],[12.5608,46.5835],[12.5593,46.58],[12.5631,46.5747],[12.5722,46.5735],[12.5851,46.5697],[12.6171,46.575],[12.6256,46.5804],[12.6302,46.5917],[12.629,46.6077],[12.6299,46.6114],[12.6334,46.6156],[12.6372,46.6179],[12.645,46.6205],[12.6497,46.623],[12.6506,46.6274],[12.6489,46.6329],[12.6527,46.6414],[12.6579,46.647],[12.6622,46.6568],[12.6668,46.6572],[12.686,46.656],[12.7146,46.6483],[12.7167,46.6476],[12.7284,46.636],[12.732,46.6338]]]}},{"type":"Feature","properties":{"i":"025051","n":"San Vito di Cadore"},"geometry":{"type":"Polygon","coordinates":[[[12.2296,46.5053],[12.2338,46.5042],[12.2426,46.4989],[12.2472,46.4973],[12.265,46.4961],[12.2642,46.4949],[12.2643,46.493],[12.2688,46.4892],[12.2697,46.4869],[12.2616,46.4786],[12.2574,46.4762],[12.2551,46.4712],[12.2549,46.4639],[12.2566,46.4599],[12.2621,46.4516],[12.2502,46.4522],[12.2413,46.4476],[12.2409,46.445],[12.2165,46.4479],[12.1978,46.4452],[12.1703,46.4471],[12.1496,46.4525],[12.1311,46.453],[12.1234,46.4524],[12.1181,46.4466],[12.1139,46.449],[12.109,46.4536],[12.098,46.4603],[12.0911,46.4603],[12.0874,46.4585],[12.0831,46.4594],[12.0821,46.46],[12.0813,46.4622],[12.0813,46.4653],[12.0741,46.4708],[12.0651,46.4702],[12.063,46.475],[12.0631,46.4786],[12.0608,46.4799],[12.0543,46.4808],[12.0506,46.4909],[12.0533,46.4946],[12.0576,46.497],[12.062,46.4976],[12.0878,46.4915],[12.107,46.4688],[12.1258,46.4621],[12.1365,46.4642],[12.148,46.4679],[12.1543,46.4732],[12.1579,46.4781],[12.1621,46.4813],[12.1796,46.4902],[12.1888,46.4972],[12.1924,46.5008],[12.1944,46.5057],[12.1984,46.5077],[12.2296,46.5053]]]}},{"type":"Feature","properties":{"i":"025053","n":"Sedico"},"geometry":{"type":"Polygon","coordinates":[[[12.1907,46.2336],[12.1817,46.2298],[12.1686,46.2221],[12.1774,46.2173],[12.1584,46.2042],[12.1491,46.1957],[12.1476,46.1878],[12.1477,46.1807],[12.1496,46.1724],[12.1533,46.1659],[12.1647,46.1536],[12.1647,46.1483],[12.1622,46.1462],[12.1525,46.1434],[12.1481,46.143],[12.1415,46.1445],[12.1333,46.148],[12.1272,46.1459],[12.1237,46.139],[12.1196,46.1353],[12.1435,46.1254],[12.1472,46.1232],[12.1536,46.1176],[12.1476,46.1149],[12.1406,46.1139],[12.1308,46.1107],[12.1303,46.1076],[12.1353,46.0992],[12.1364,46.0941],[12.1252,46.092],[12.1052,46.0916],[12.1004,46.0904],[12.0916,46.085],[12.0813,46.0746],[12.0759,46.0876],[12.0758,46.0905],[12.0811,46.1013],[12.0818,46.105],[12.082,46.1153],[12.0813,46.1223],[12.0826,46.1285],[12.0881,46.133],[12.1043,46.1352],[12.1218,46.141],[12.1246,46.1451],[12.1264,46.1583],[12.1216,46.161],[12.1178,46.1651],[12.1149,46.1717],[12.1148,46.1794],[12.1108,46.1817],[12.1079,46.1815],[12.0977,46.1838],[12.0876,46.1886],[12.0819,46.1982],[12.0823,46.201],[12.0777,46.2113],[12.0626,46.2181],[12.0555,46.2185],[12.0678,46.2312],[12.0848,46.2388],[12.0858,46.2421],[12.0844,46.2454],[12.0828,46.2468],[12.0838,46.2476],[12.0903,46.2486],[12.0979,46.2464],[12.1038,46.2429],[12.1049,46.2431],[12.1092,46.2477],[12.1145,46.2501],[12.1394,46.2564],[12.1416,46.2644],[12.1459,46.2658],[12.1558,46.2661],[12.1595,46.2629],[12.1606,46.2605],[12.1722,46.2542],[12.1843,46.2494],[12.1905,46.2434],[12.1921,46.2371],[12.1907,46.2336]]]}},{"type":"Feature","properties":{"i":"025054","n":"Selva di Cadore"},"geometry":{"type":"Polygon","coordinates":[[[12.0543,46.4808],[12.0626,46.4794],[12.063,46.475],[12.0651,46.4702],[12.0741,46.4708],[12.0813,46.4653],[12.0813,46.4622],[12.0821,46.46],[12.0831,46.4594],[12.0874,46.4585],[12.0911,46.4603],[12.098,46.4603],[12.109,46.4536],[12.1139,46.449],[12.1181,46.4466],[12.1157,46.4429],[12.1063,46.4369],[12.1042,46.4321],[12.1094,46.4271],[12.1078,46.4226],[12.0983,46.4238],[12.0956,46.4249],[12.0899,46.4247],[12.0855,46.424],[12.0809,46.4214],[12.0775,46.4205],[12.0652,46.4213],[12.0603,46.4236],[12.0466,46.4232],[12.0327,46.4299],[12.0225,46.4327],[12.0086,46.4341],[12.0061,46.4386],[12.026,46.4447],[12.0278,46.4458],[12.0314,46.4549],[12.0322,46.4605],[12.0306,46.4651],[12.0304,46.468],[12.0344,46.4767],[12.0398,46.4805],[12.0434,46.4816],[12.0463,46.4819],[12.0543,46.4808]]]}},{"type":"Feature","properties":{"i":"025055","n":"Seren del Grappa"},"geometry":{"type":"Polygon","coordinates":[[[11.9107,45.9756],[11.8975,45.968],[11.8836,45.9662],[11.877,45.9666],[11.8642,45.9622],[11.8568,45.9572],[11.8565,45.9542],[11.8585,45.9476],[11.8591,45.9356],[11.8531,45.9293],[11.8409,45.926],[11.8395,45.924],[11.8395,45.9216],[11.8322,45.915],[11.8271,45.9129],[11.8254,45.9101],[11.8253,45.9081],[11.8107,45.8887],[11.7996,45.8806],[11.7782,45.8878],[11.7762,45.8949],[11.7803,45.9065],[11.7908,45.9141],[11.792,45.916],[11.7902,45.9205],[11.7873,45.9243],[11.7882,45.9291],[11.7854,45.9324],[11.7869,45.9386],[11.7962,45.9438],[11.7961,45.9486],[11.7986,45.9538],[11.8005,45.9551],[11.8081,45.9554],[11.8088,45.957],[11.8067,45.9632],[11.8162,45.9839],[11.8235,45.9934],[11.8367,46.0038],[11.8413,46.0093],[11.8463,46.0039],[11.8598,46.0057],[11.8712,46.0084],[11.8802,46.0057],[11.8884,45.9924],[11.9062,45.9781],[11.9107,45.9756]]]}},{"type":"Feature","properties":{"i":"025056","n":"Sospirolo"},"geometry":{"type":"Polygon","coordinates":[[[12.082,46.1153],[12.0762,46.1167],[12.0619,46.1183],[12.0402,46.1337],[12.0317,46.1437],[12.014,46.1558],[12.0148,46.1655],[12.0125,46.1667],[12.0135,46.168],[12.0149,46.1685],[12.0159,46.1704],[12.0143,46.1759],[12.0031,46.1862],[11.9951,46.1907],[11.9852,46.1982],[11.9895,46.2061],[11.9922,46.2074],[12.0092,46.2046],[12.0266,46.2033],[12.0472,46.2065],[12.0499,46.207],[12.0555,46.2185],[12.0626,46.2181],[12.0777,46.2113],[12.0823,46.201],[12.0819,46.1982],[12.0876,46.1886],[12.0977,46.1838],[12.1079,46.1815],[12.1108,46.1817],[12.1148,46.1794],[12.1149,46.1717],[12.1178,46.1651],[12.1216,46.161],[12.1264,46.1583],[12.1246,46.1451],[12.1218,46.141],[12.1089,46.1366],[12.1043,46.1352],[12.0881,46.133],[12.0826,46.1285],[12.0813,46.1223],[12.082,46.1153]]]}},{"type":"Feature","properties":{"i":"025057","n":"Soverzene"},"geometry":{"type":"Polygon","coordinates":[[[12.3433,46.1916],[12.3366,46.1933],[12.3343,46.1953],[12.3344,46.197],[12.3225,46.1991],[12.3144,46.1965],[12.3003,46.1948],[12.2964,46.1958],[12.2961,46.2061],[12.2922,46.2147],[12.291,46.2194],[12.2986,46.2207],[12.3179,46.2184],[12.3341,46.2179],[12.3642,46.2192],[12.3699,46.221],[12.3723,46.224],[12.3764,46.2229],[12.3906,46.2281],[12.3856,46.2225],[12.3716,46.2109],[12.3597,46.2037],[12.3505,46.1949],[12.3433,46.1916]]]}},{"type":"Feature","properties":{"i":"025058","n":"Sovramonte"},"geometry":{"type":"Polygon","coordinates":[[[11.8415,46.1112],[11.8426,46.109],[11.848,46.104],[11.8565,46.0982],[11.8587,46.0934],[11.8581,46.0909],[11.8456,46.0839],[11.8453,46.0816],[11.847,46.0804],[11.8556,46.0799],[11.8518,46.0717],[11.8508,46.0671],[11.8486,46.0646],[11.84,46.0598],[11.8316,46.0638],[11.8288,46.0608],[11.8282,46.059],[11.8287,46.0576],[11.8212,46.0395],[11.8152,46.0365],[11.8095,46.0324],[11.8049,46.0304],[11.7914,46.0266],[11.766,46.0238],[11.7642,46.027],[11.7623,46.0334],[11.7646,46.0528],[11.7625,46.0732],[11.7648,46.078],[11.7587,46.0956],[11.7662,46.0993],[11.7709,46.1029],[11.7732,46.1067],[11.7751,46.1044],[11.7797,46.1028],[11.8066,46.1027],[11.815,46.1039],[11.8165,46.1062],[11.819,46.1078],[11.827,46.1074],[11.8415,46.1112]]]}},{"type":"Feature","properties":{"i":"025059","n":"Taibon Agordino"},"geometry":{"type":"Polygon","coordinates":[[[12.0615,46.3484],[12.0437,46.336],[12.0396,46.3286],[12.0416,46.3257],[12.042,46.3197],[12.026,46.3026],[12.0176,46.2982],[12.0186,46.2939],[12.0211,46.2885],[12.0195,46.2855],[11.9964,46.2824],[11.9941,46.2804],[11.9913,46.2817],[11.9833,46.2824],[11.9698,46.2775],[11.9589,46.2764],[11.9473,46.2714],[11.9312,46.2504],[11.9279,46.2486],[11.9216,46.2478],[11.9126,46.2527],[11.9004,46.2541],[11.8947,46.2509],[11.8912,46.2532],[11.8855,46.2596],[11.8849,46.2615],[11.8873,46.2644],[11.8884,46.2725],[11.8821,46.286],[11.8842,46.2934],[11.8974,46.3095],[11.9,46.3146],[11.9264,46.331],[11.9279,46.3315],[11.9284,46.33],[11.9309,46.3294],[11.9398,46.3295],[11.9452,46.3327],[11.9557,46.3326],[11.975,46.3286],[11.9816,46.3263],[11.9895,46.3285],[12.0033,46.3374],[12.0017,46.3372],[11.9991,46.3389],[11.9983,46.3424],[12.0012,46.3578],[12.0035,46.3608],[12.003,46.3627],[12.0122,46.3689],[12.0159,46.3664],[12.0282,46.3696],[12.0531,46.3799],[12.0674,46.3543],[12.0652,46.3504],[12.0615,46.3484]]]}},{"type":"Feature","properties":{"i":"025060","n":"Tambre"},"geometry":{"type":"Polygon","coordinates":[[[12.497,46.1329],[12.4972,46.1298],[12.4942,46.1285],[12.4919,46.125],[12.4917,46.1241],[12.4937,46.1225],[12.4941,46.1209],[12.4912,46.1164],[12.4889,46.1144],[12.4853,46.1065],[12.476,46.1003],[12.4724,46.096],[12.4494,46.0867],[12.4389,46.0846],[12.4356,46.0831],[12.4278,46.0763],[12.4241,46.0682],[12.4172,46.0605],[12.4161,46.0595],[12.4099,46.0591],[12.4066,46.0513],[12.4051,46.0427],[12.4003,46.042],[12.4034,46.0457],[12.4007,46.058],[12.4084,46.0712],[12.4132,46.0773],[12.4139,46.0829],[12.4081,46.0971],[12.4126,46.1049],[12.4179,46.1107],[12.414,46.1156],[12.388,46.12],[12.384,46.1196],[12.3779,46.1201],[12.3772,46.1221],[12.3862,46.1263],[12.3925,46.1279],[12.4011,46.1283],[12.4022,46.1368],[12.3992,46.1445],[12.4002,46.15],[12.4357,46.1517],[12.4403,46.1467],[12.4625,46.1428],[12.4754,46.1372],[12.497,46.1329]]]}},{"type":"Feature","properties":{"i":"025062","n":"Vallada Agordina"},"geometry":{"type":"Polygon","coordinates":[[[11.9414,46.3971],[11.9442,46.3889],[11.9491,46.3806],[11.9537,46.3734],[11.9607,46.3655],[11.9634,46.3604],[11.9586,46.3585],[11.9523,46.3615],[11.9441,46.3539],[11.9428,46.3515],[11.9399,46.3487],[11.9364,46.3472],[11.9294,46.3476],[11.9274,46.3515],[11.9315,46.3584],[11.9297,46.3661],[11.9269,46.3687],[11.9175,46.3734],[11.9146,46.376],[11.9096,46.3857],[11.909,46.3907],[11.9101,46.3923],[11.9105,46.3953],[11.9089,46.3979],[11.9241,46.3992],[11.937,46.3984],[11.9414,46.3971]]]}},{"type":"Feature","properties":{"i":"025063","n":"Valle di Cadore"},"geometry":{"type":"Polygon","coordinates":[[[12.3617,46.4015],[12.3566,46.3987],[12.3478,46.4002],[12.3407,46.3939],[12.3395,46.3843],[12.3363,46.3784],[12.3382,46.3712],[12.3366,46.3668],[12.327,46.3557],[12.3182,46.356],[12.31,46.359],[12.3017,46.3663],[12.3124,46.384],[12.3062,46.3908],[12.3009,46.3936],[12.2947,46.4014],[12.2865,46.3963],[12.2734,46.392],[12.2582,46.3857],[12.257,46.3844],[12.2502,46.384],[12.2426,46.3843],[12.2376,46.3857],[12.2296,46.3857],[12.2269,46.3973],[12.227,46.3995],[12.2286,46.4015],[12.2334,46.4031],[12.2468,46.4063],[12.2725,46.4081],[12.2777,46.4078],[12.2836,46.411],[12.2941,46.4185],[12.2957,46.4251],[12.2913,46.4312],[12.2837,46.4356],[12.2814,46.438],[12.292,46.4453],[12.3035,46.4496],[12.3046,46.4458],[12.3086,46.4433],[12.3145,46.4481],[12.3218,46.4473],[12.3229,46.4431],[12.3217,46.4398],[12.3229,46.4355],[12.3314,46.4267],[12.3412,46.4212],[12.3488,46.4132],[12.3617,46.4015]]]}},{"type":"Feature","properties":{"i":"025065","n":"Vigo di Cadore"},"geometry":{"type":"Polygon","coordinates":[[[12.6215,46.5265],[12.6244,46.5209],[12.63,46.5143],[12.6317,46.5081],[12.6301,46.5008],[12.645,46.4888],[12.6541,46.4844],[12.6566,46.4814],[12.6575,46.4781],[12.6624,46.4692],[12.6624,46.468],[12.6588,46.466],[12.6549,46.4655],[12.649,46.4666],[12.6423,46.4723],[12.6334,46.4744],[12.6208,46.4754],[12.6168,46.4737],[12.6068,46.4643],[12.6019,46.4662],[12.5929,46.4714],[12.5682,46.4757],[12.5483,46.4639],[12.5417,46.4584],[12.5368,46.4597],[12.526,46.4702],[12.5214,46.4721],[12.5133,46.473],[12.5108,46.4741],[12.5031,46.482],[12.4944,46.4826],[12.4872,46.481],[12.4743,46.484],[12.4655,46.4869],[12.4526,46.4875],[12.4521,46.4915],[12.4572,46.5053],[12.4736,46.5158],[12.4783,46.5209],[12.4805,46.5281],[12.4825,46.5295],[12.4885,46.531],[12.5032,46.5325],[12.505,46.5282],[12.513,46.5205],[12.5172,46.5129],[12.5169,46.5112],[12.5205,46.5092],[12.5292,46.5066],[12.5343,46.5062],[12.5357,46.5062],[12.538,46.5077],[12.5767,46.5131],[12.5825,46.515],[12.5849,46.5174],[12.5949,46.5202],[12.5996,46.5193],[12.6215,46.5265]]]}},{"type":"Feature","properties":{"i":"025066","n":"Vodo Cadore"},"geometry":{"type":"Polygon","coordinates":[[[12.2688,46.4498],[12.2837,46.4356],[12.2913,46.4312],[12.2957,46.4251],[12.2949,46.4198],[12.2938,46.4181],[12.2777,46.4078],[12.2725,46.4081],[12.2468,46.4063],[12.2286,46.4015],[12.227,46.3995],[12.2269,46.3973],[12.2296,46.3857],[12.2303,46.3771],[12.1873,46.3742],[12.1899,46.3766],[12.1907,46.3786],[12.1931,46.3889],[12.1886,46.3984],[12.1859,46.4008],[12.1817,46.398],[12.1671,46.3953],[12.1583,46.3909],[12.1579,46.4035],[12.1532,46.4085],[12.1503,46.4087],[12.1461,46.4073],[12.1349,46.4198],[12.1416,46.4218],[12.1455,46.4318],[12.154,46.4407],[12.155,46.4415],[12.163,46.4432],[12.1777,46.4385],[12.1828,46.4358],[12.1903,46.4291],[12.1935,46.4246],[12.198,46.4211],[12.2105,46.4188],[12.217,46.4189],[12.2274,46.4205],[12.236,46.4244],[12.2468,46.433],[12.2518,46.4378],[12.255,46.4431],[12.2621,46.4516],[12.2688,46.4498]]]}},{"type":"Feature","properties":{"i":"025067","n":"Voltago Agordino"},"geometry":{"type":"Polygon","coordinates":[[[11.9941,46.2804],[11.9967,46.2791],[12.0007,46.2788],[12.0136,46.2793],[12.0214,46.2756],[12.0225,46.2726],[12.0201,46.2665],[12.0069,46.2526],[11.9991,46.2466],[11.9968,46.2461],[11.9942,46.2411],[11.9893,46.2359],[11.9851,46.2342],[11.9774,46.2343],[11.9745,46.2387],[11.9671,46.2428],[11.9546,46.2456],[11.9464,46.2439],[11.939,46.2449],[11.9293,46.249],[11.9312,46.2504],[11.9473,46.2714],[11.9589,46.2764],[11.9698,46.2775],[11.9833,46.2824],[11.9913,46.2817],[11.9941,46.2804]]]}},{"type":"Feature","properties":{"i":"025069","n":"Zoppè di Cadore"},"geometry":{"type":"Polygon","coordinates":[[[12.1873,46.3742],[12.1823,46.3761],[12.1713,46.3838],[12.1632,46.3865],[12.1583,46.3909],[12.1671,46.3953],[12.1817,46.398],[12.1859,46.4008],[12.1886,46.3984],[12.1931,46.3889],[12.1907,46.3786],[12.1899,46.3766],[12.1873,46.3742]]]}},{"type":"Feature","properties":{"i":"025071","n":"Longarone"},"geometry":{"type":"Polygon","coordinates":[[[12.264,46.3083],[12.2697,46.3023],[12.2762,46.2981],[12.2794,46.2987],[12.2907,46.304],[12.3018,46.3069],[12.3093,46.3068],[12.316,46.3035],[12.3347,46.2964],[12.3481,46.2924],[12.3393,46.2854],[12.3363,46.2857],[12.329,46.2828],[12.3228,46.2731],[12.3209,46.2689],[12.3213,46.2646],[12.324,46.2562],[12.33,46.2539],[12.3339,46.2474],[12.341,46.2402],[12.3431,46.2406],[12.3523,46.2363],[12.3555,46.2312],[12.3594,46.2295],[12.3649,46.2296],[12.3689,46.2277],[12.3723,46.224],[12.371,46.222],[12.3642,46.2192],[12.3341,46.2179],[12.3179,46.2184],[12.2986,46.2207],[12.291,46.2194],[12.2911,46.2176],[12.2797,46.2146],[12.2767,46.2154],[12.2655,46.2224],[12.2524,46.2214],[12.2414,46.2166],[12.237,46.2163],[12.2296,46.2177],[12.2283,46.2194],[12.2238,46.2221],[12.2076,46.2235],[12.2031,46.2288],[12.1995,46.2311],[12.1907,46.2336],[12.1921,46.2371],[12.1905,46.2434],[12.1843,46.2494],[12.1722,46.2542],[12.1606,46.2605],[12.1595,46.2629],[12.1558,46.2661],[12.158,46.2752],[12.1561,46.2784],[12.1515,46.2834],[12.1734,46.3024],[12.1831,46.3093],[12.231,46.3223],[12.2337,46.3208],[12.2332,46.3199],[12.2283,46.3175],[12.2239,46.3094],[12.2237,46.3074],[12.2239,46.3043],[12.232,46.2972],[12.237,46.2989],[12.2495,46.3055],[12.2583,46.3083],[12.264,46.3083]]]}},{"type":"Feature","properties":{"i":"025072","n":"Alpago"},"geometry":{"type":"Polygon","coordinates":[[[12.4003,46.2113],[12.3835,46.2072],[12.3786,46.1977],[12.377,46.1861],[12.3759,46.1844],[12.374,46.1847],[12.3703,46.1818],[12.3719,46.1786],[12.3782,46.1713],[12.3788,46.1637],[12.3811,46.1518],[12.3881,46.1521],[12.3911,46.1537],[12.3994,46.1521],[12.4002,46.15],[12.3992,46.1445],[12.4022,46.1368],[12.4011,46.1283],[12.3925,46.1279],[12.3862,46.1263],[12.3772,46.1221],[12.3779,46.1201],[12.384,46.1196],[12.388,46.12],[12.414,46.1156],[12.4179,46.1107],[12.4126,46.1049],[12.4081,46.0971],[12.4139,46.0829],[12.4132,46.0773],[12.4084,46.0712],[12.4007,46.058],[12.399,46.0624],[12.387,46.0635],[12.3915,46.0713],[12.3889,46.0719],[12.3659,46.0753],[12.3619,46.0716],[12.3485,46.0792],[12.3285,46.0821],[12.3224,46.0822],[12.3152,46.0808],[12.3095,46.0779],[12.3028,46.0763],[12.3039,46.0794],[12.3029,46.0845],[12.3035,46.0881],[12.3052,46.0924],[12.3081,46.0942],[12.3182,46.098],[12.3284,46.1077],[12.3256,46.1157],[12.319,46.1299],[12.3213,46.1501],[12.3248,46.1594],[12.327,46.1597],[12.3349,46.1632],[12.3409,46.1701],[12.3407,46.174],[12.3381,46.1771],[12.3375,46.1814],[12.34,46.1871],[12.3433,46.1916],[12.3505,46.1949],[12.3597,46.2037],[12.3716,46.2109],[12.3856,46.2225],[12.3906,46.2281],[12.4017,46.229],[12.4087,46.2223],[12.4083,46.2195],[12.4056,46.2179],[12.4003,46.2113]]]}},{"type":"Feature","properties":{"i":"025073","n":"Val di Zoldo"},"geometry":{"type":"Polygon","coordinates":[[[12.1349,46.4198],[12.1461,46.4073],[12.1503,46.4087],[12.1532,46.4085],[12.1579,46.4035],[12.1583,46.3909],[12.1632,46.3865],[12.1713,46.3838],[12.1843,46.375],[12.1873,46.3742],[12.2303,46.3771],[12.2315,46.3748],[12.23,46.3718],[12.241,46.3543],[12.2496,46.3527],[12.2566,46.3531],[12.2648,46.3514],[12.2675,46.3484],[12.2689,46.3385],[12.2678,46.3347],[12.2636,46.3341],[12.2629,46.3291],[12.2648,46.3225],[12.263,46.3141],[12.264,46.3083],[12.2583,46.3083],[12.2495,46.3055],[12.237,46.2989],[12.232,46.2972],[12.2239,46.3043],[12.2239,46.3094],[12.2263,46.3144],[12.2283,46.3175],[12.2332,46.3199],[12.2337,46.3208],[12.231,46.3223],[12.2296,46.3221],[12.1831,46.3093],[12.1734,46.3024],[12.1515,46.2834],[12.1481,46.2849],[12.1408,46.285],[12.1363,46.2871],[12.1347,46.289],[12.1331,46.2954],[12.1281,46.3064],[12.1215,46.3146],[12.1164,46.3189],[12.0787,46.3309],[12.0696,46.3318],[12.0599,46.3352],[12.0574,46.3386],[12.0614,46.344],[12.0615,46.3484],[12.0652,46.3504],[12.0674,46.3543],[12.0531,46.3799],[12.0599,46.3912],[12.0657,46.4031],[12.0689,46.4052],[12.0759,46.4064],[12.079,46.4081],[12.0946,46.4188],[12.0983,46.4238],[12.1078,46.4226],[12.1162,46.4159],[12.1191,46.4149],[12.1349,46.4198]]]}},{"type":"Feature","properties":{"i":"025074","n":"Borgo Valbelluna"},"geometry":{"type":"Polygon","coordinates":[[[12.2247,46.0141],[12.2167,46.0127],[12.1916,46.0046],[12.1909,46.0046],[12.191,46.0057],[12.1887,46.0088],[12.1776,46.0143],[12.1669,46.0136],[12.1682,46.0083],[12.1636,46.0046],[12.1538,46.0013],[12.1456,46.0028],[12.1394,45.9998],[12.1201,46.0036],[12.111,46.0032],[12.1032,45.9976],[12.1054,45.9926],[12.1027,45.9882],[12.0941,45.982],[12.079,45.9768],[12.077,45.9753],[12.0783,45.9727],[12.0655,45.9649],[12.0593,45.9621],[12.0528,45.9651],[12.0508,45.9638],[12.0493,45.9612],[12.0397,45.9692],[12.0327,45.9736],[12.0305,45.9736],[12.0233,45.9707],[12.0217,45.9638],[12.0189,45.9621],[12.0122,45.9649],[12.0111,45.9671],[12.0062,45.9682],[12.0015,45.9682],[11.9949,45.9732],[11.9937,45.975],[11.9935,45.9785],[11.9924,45.9811],[11.989,45.9859],[11.9795,45.9894],[11.9803,45.9943],[11.9777,46.0064],[11.9782,46.0094],[11.9818,46.0157],[11.9854,46.0266],[11.9854,46.0315],[11.9876,46.0382],[11.9967,46.0472],[12.0031,46.0516],[12.0119,46.0556],[12.0202,46.0579],[12.046,46.0607],[12.0564,46.0624],[12.0745,46.067],[12.0791,46.0694],[12.0811,46.0722],[12.0813,46.0746],[12.0916,46.085],[12.0996,46.09],[12.1052,46.0916],[12.1252,46.092],[12.1325,46.0935],[12.133,46.0922],[12.1383,46.0887],[12.1579,46.0809],[12.1779,46.0751],[12.1841,46.0708],[12.1838,46.0695],[12.1893,46.0656],[12.2064,46.0606],[12.2166,46.0534],[12.2223,46.0441],[12.2262,46.0359],[12.2272,46.0256],[12.2247,46.0141]]]}}]}
