{"type":"FeatureCollection","fonte":"Confini comunali ISTAT via openpolis/geojson-italy — CC BY 4.0","features":[{"type":"Feature","properties":{"i":"062001","n":"Airola"},"geometry":{"type":"Polygon","coordinates":[[[14.5966,41.0588],[14.5929,41.0498],[14.5655,41.0415],[14.5614,41.0425],[14.5452,41.0432],[14.5392,41.0446],[14.5377,41.0463],[14.5328,41.0482],[14.5239,41.0488],[14.5247,41.0504],[14.5344,41.0561],[14.5473,41.0736],[14.561,41.0744],[14.5671,41.0709],[14.5783,41.0683],[14.5887,41.0698],[14.589,41.0714],[14.5914,41.0725],[14.5971,41.0643],[14.5975,41.0612],[14.5966,41.0588]]]}},{"type":"Feature","properties":{"i":"062002","n":"Amorosi"},"geometry":{"type":"Polygon","coordinates":[[[14.487,41.2086],[14.4839,41.2044],[14.4801,41.2028],[14.4807,41.1969],[14.4824,41.1926],[14.4783,41.1896],[14.4768,41.1842],[14.473,41.1832],[14.4655,41.1842],[14.4649,41.1822],[14.4658,41.1772],[14.4608,41.1744],[14.4594,41.1748],[14.4581,41.1829],[14.461,41.1864],[14.4575,41.1912],[14.4534,41.1914],[14.448,41.1967],[14.4434,41.2056],[14.4423,41.2103],[14.4454,41.2148],[14.4481,41.2163],[14.4574,41.2158],[14.465,41.2176],[14.466,41.2216],[14.4676,41.2228],[14.471,41.2212],[14.4857,41.218],[14.4878,41.2115],[14.487,41.2086]]]}},{"type":"Feature","properties":{"i":"062003","n":"Apice"},"geometry":{"type":"Polygon","coordinates":[[[14.9695,41.18],[14.9647,41.1787],[14.9621,41.1761],[14.9633,41.1719],[14.9637,41.1667],[14.9619,41.1616],[14.96,41.1595],[14.9569,41.1474],[14.962,41.1468],[14.9638,41.1473],[14.965,41.1488],[14.97,41.1503],[14.9817,41.1515],[14.992,41.1498],[14.9967,41.1461],[14.997,41.1347],[14.9958,41.1337],[14.996,41.1325],[14.9989,41.1298],[15.0031,41.1295],[15.0109,41.1181],[14.9978,41.1102],[14.9882,41.1058],[14.9726,41.0926],[14.9647,41.0896],[14.9512,41.0883],[14.9469,41.086],[14.9452,41.0802],[14.9338,41.0847],[14.9338,41.09],[14.9369,41.0971],[14.9414,41.0978],[14.9433,41.0993],[14.9425,41.1039],[14.9411,41.1062],[14.9403,41.1067],[14.9328,41.1059],[14.9262,41.1028],[14.9224,41.1026],[14.9208,41.1119],[14.9144,41.1171],[14.9092,41.1165],[14.9094,41.1193],[14.9074,41.1233],[14.9139,41.1412],[14.9184,41.1403],[14.9194,41.1385],[14.9238,41.1368],[14.926,41.1382],[14.9363,41.1524],[14.9374,41.1596],[14.9425,41.1656],[14.946,41.1735],[14.9455,41.1768],[14.9467,41.1855],[14.9483,41.1881],[14.9551,41.189],[14.9633,41.187],[14.9679,41.1832],[14.9695,41.18]]]}},{"type":"Feature","properties":{"i":"062004","n":"Apollosa"},"geometry":{"type":"Polygon","coordinates":[[[14.7109,41.1165],[14.7126,41.1143],[14.7124,41.1075],[14.7145,41.1037],[14.7223,41.0994],[14.7421,41.0984],[14.7439,41.0894],[14.7434,41.0861],[14.7412,41.0836],[14.7372,41.0836],[14.7164,41.08],[14.7148,41.0787],[14.7109,41.071],[14.709,41.0614],[14.7058,41.059],[14.7042,41.0594],[14.6827,41.0728],[14.6812,41.0815],[14.6741,41.0876],[14.6706,41.0887],[14.6668,41.0914],[14.6692,41.0933],[14.6716,41.097],[14.6725,41.1002],[14.6721,41.1026],[14.6867,41.1033],[14.6912,41.1046],[14.6902,41.1079],[14.6901,41.1128],[14.6915,41.1159],[14.694,41.1182],[14.7047,41.1197],[14.7109,41.1165]]]}},{"type":"Feature","properties":{"i":"062005","n":"Arpaia"},"geometry":{"type":"Polygon","coordinates":[[[14.5655,41.0415],[14.5624,41.0407],[14.5599,41.0388],[14.5548,41.0324],[14.555,41.027],[14.5577,41.0253],[14.5643,41.0181],[14.5659,41.0151],[14.5631,41.0167],[14.547,41.017],[14.5443,41.0181],[14.5474,41.0265],[14.5433,41.032],[14.5321,41.0379],[14.5323,41.0425],[14.5308,41.0481],[14.5356,41.0473],[14.5392,41.0446],[14.5452,41.0432],[14.5614,41.0425],[14.5655,41.0415]]]}},{"type":"Feature","properties":{"i":"062006","n":"Arpaise"},"geometry":{"type":"Polygon","coordinates":[[[14.7689,41.0221],[14.7696,41.0191],[14.7757,41.0149],[14.7757,41.0141],[14.7708,41.0114],[14.7638,41.0097],[14.7542,41.009],[14.7472,41.011],[14.7452,41.0133],[14.7363,41.0172],[14.7369,41.0207],[14.7303,41.0289],[14.7285,41.0363],[14.7295,41.0422],[14.7349,41.0407],[14.751,41.0302],[14.7556,41.0257],[14.7662,41.0213],[14.7689,41.0221]]]}},{"type":"Feature","properties":{"i":"062007","n":"Baselice"},"geometry":{"type":"Polygon","coordinates":[[[14.9699,41.4243],[14.9708,41.4191],[14.9918,41.4083],[15.001,41.4004],[15.0105,41.389],[15.0101,41.3884],[15.0036,41.3837],[14.9982,41.383],[14.9915,41.3802],[14.9475,41.3677],[14.9377,41.3678],[14.9165,41.3609],[14.9096,41.3596],[14.9038,41.3647],[14.9009,41.3662],[14.8829,41.369],[14.8725,41.364],[14.8747,41.3696],[14.8799,41.3734],[14.884,41.379],[14.8881,41.3865],[14.8945,41.4015],[14.8978,41.4032],[14.8996,41.405],[14.8973,41.4147],[14.8946,41.4205],[14.8941,41.4254],[14.8998,41.4232],[14.9207,41.4105],[14.9265,41.4134],[14.9402,41.4109],[14.9505,41.4125],[14.9568,41.4218],[14.9642,41.4242],[14.9699,41.4243]]]}},{"type":"Feature","properties":{"i":"062008","n":"Benevento"},"geometry":{"type":"Polygon","coordinates":[[[14.7601,41.2242],[14.7755,41.2188],[14.7906,41.2152],[14.7931,41.2129],[14.7951,41.2085],[14.7957,41.2022],[14.7992,41.1982],[14.8048,41.1964],[14.8078,41.1944],[14.8137,41.1932],[14.8158,41.1891],[14.8185,41.1871],[14.8239,41.1889],[14.8302,41.1871],[14.8327,41.183],[14.8414,41.1728],[14.8416,41.1641],[14.8458,41.1632],[14.8519,41.1642],[14.8559,41.1609],[14.846,41.1567],[14.8426,41.1503],[14.8438,41.1469],[14.8508,41.1458],[14.8596,41.1463],[14.862,41.1396],[14.864,41.1379],[14.8688,41.1374],[14.8697,41.1344],[14.8672,41.1295],[14.8688,41.1279],[14.8688,41.1269],[14.8654,41.118],[14.854,41.1113],[14.8349,41.1041],[14.8327,41.1007],[14.8336,41.0984],[14.8331,41.097],[14.8289,41.091],[14.8168,41.0956],[14.8142,41.0974],[14.8111,41.1018],[14.8091,41.1017],[14.804,41.099],[14.8018,41.0968],[14.8011,41.0954],[14.8038,41.092],[14.8034,41.0902],[14.7957,41.0907],[14.7888,41.0926],[14.7885,41.0953],[14.7871,41.0953],[14.7795,41.0946],[14.7784,41.0939],[14.7786,41.0927],[14.7774,41.0915],[14.7725,41.0905],[14.7687,41.0919],[14.77,41.0981],[14.7678,41.0994],[14.7421,41.0984],[14.7223,41.0994],[14.7176,41.1016],[14.7133,41.1053],[14.7124,41.1075],[14.7126,41.1143],[14.7109,41.1165],[14.7189,41.119],[14.7256,41.1288],[14.7242,41.1327],[14.7192,41.1346],[14.709,41.1441],[14.7107,41.1478],[14.7162,41.1485],[14.7184,41.1515],[14.7185,41.1526],[14.7127,41.1637],[14.7143,41.1655],[14.7189,41.165],[14.7205,41.1669],[14.7221,41.1789],[14.7255,41.1843],[14.7237,41.187],[14.719,41.1897],[14.7197,41.1909],[14.7258,41.1956],[14.7311,41.1963],[14.7353,41.1931],[14.74,41.1921],[14.7486,41.1942],[14.75,41.196],[14.7503,41.199],[14.7481,41.2018],[14.7435,41.2042],[14.7444,41.217],[14.7477,41.2214],[14.7569,41.2243],[14.7601,41.2242]]]}},{"type":"Feature","properties":{"i":"062009","n":"Bonea"},"geometry":{"type":"Polygon","coordinates":[[[14.6248,41.0975],[14.6267,41.0964],[14.629,41.0934],[14.6324,41.0846],[14.63,41.0778],[14.6267,41.074],[14.6228,41.0729],[14.6134,41.0647],[14.6136,41.0608],[14.615,41.0567],[14.6108,41.0528],[14.6045,41.051],[14.602,41.0573],[14.5966,41.0588],[14.5975,41.0612],[14.5971,41.0643],[14.5914,41.0725],[14.5958,41.0784],[14.5968,41.0816],[14.5963,41.083],[14.5972,41.091],[14.5995,41.0975],[14.602,41.0994],[14.607,41.1],[14.62,41.0969],[14.6248,41.0975]]]}},{"type":"Feature","properties":{"i":"062010","n":"Bucciano"},"geometry":{"type":"Polygon","coordinates":[[[14.5995,41.0975],[14.5972,41.091],[14.5963,41.083],[14.5968,41.0816],[14.5954,41.0775],[14.5914,41.0725],[14.589,41.0714],[14.5887,41.0698],[14.5783,41.0683],[14.5671,41.0709],[14.561,41.0744],[14.5603,41.0758],[14.5557,41.079],[14.5546,41.084],[14.5722,41.0938],[14.5843,41.0958],[14.5891,41.0976],[14.5995,41.0975]]]}},{"type":"Feature","properties":{"i":"062011","n":"Buonalbergo"},"geometry":{"type":"Polygon","coordinates":[[[15.0049,41.2082],[15.0006,41.2049],[14.9985,41.1993],[14.9793,41.1892],[14.9769,41.1872],[14.9742,41.1829],[14.9695,41.18],[14.9679,41.1832],[14.9633,41.187],[14.9551,41.189],[14.9483,41.1881],[14.9519,41.2035],[14.9508,41.2038],[14.9448,41.2137],[14.9527,41.2175],[14.9536,41.2191],[14.954,41.2256],[14.9554,41.2313],[14.9636,41.2422],[14.9694,41.2515],[14.9762,41.2702],[14.9861,41.2711],[14.9825,41.2663],[14.981,41.2613],[14.9842,41.2534],[14.9846,41.239],[14.9879,41.2319],[14.9992,41.2219],[15.0018,41.216],[15.0017,41.2117],[15.0049,41.2082]]]}},{"type":"Feature","properties":{"i":"062012","n":"Calvi"},"geometry":{"type":"Polygon","coordinates":[[[14.9338,41.0847],[14.927,41.084],[14.9234,41.0817],[14.9192,41.0763],[14.9015,41.0678],[14.8893,41.0651],[14.8739,41.059],[14.86,41.0604],[14.8611,41.0611],[14.8623,41.0646],[14.8609,41.0642],[14.8588,41.0654],[14.8618,41.0724],[14.8644,41.0764],[14.8724,41.0849],[14.8806,41.0959],[14.8902,41.1042],[14.9015,41.1051],[14.9086,41.1114],[14.9095,41.1145],[14.9092,41.1165],[14.9144,41.1171],[14.9208,41.1119],[14.9224,41.1026],[14.9262,41.1028],[14.9328,41.1059],[14.9403,41.1067],[14.9411,41.1062],[14.9425,41.1039],[14.9433,41.0993],[14.9414,41.0978],[14.9369,41.0971],[14.9338,41.09],[14.9338,41.0847]]]}},{"type":"Feature","properties":{"i":"062013","n":"Campolattaro"},"geometry":{"type":"Polygon","coordinates":[[[14.7693,41.3152],[14.7709,41.3141],[14.7602,41.3072],[14.759,41.3041],[14.7607,41.2928],[14.7564,41.2848],[14.7507,41.2774],[14.75,41.2748],[14.7561,41.2702],[14.757,41.2686],[14.7469,41.2595],[14.7371,41.2581],[14.7256,41.2682],[14.7241,41.2712],[14.7235,41.2778],[14.7146,41.2928],[14.7143,41.3041],[14.7186,41.3159],[14.7205,41.3182],[14.7272,41.3193],[14.7336,41.3165],[14.7356,41.311],[14.7421,41.3055],[14.7505,41.302],[14.7537,41.3018],[14.7547,41.3021],[14.7556,41.3049],[14.7622,41.3126],[14.7693,41.3152]]]}},{"type":"Feature","properties":{"i":"062014","n":"Campoli del Monte Taburno"},"geometry":{"type":"Polygon","coordinates":[[[14.6602,41.1335],[14.6591,41.131],[14.6653,41.1278],[14.6681,41.1209],[14.6802,41.1196],[14.679,41.1187],[14.6753,41.1117],[14.6721,41.1026],[14.672,41.0981],[14.6702,41.0947],[14.6668,41.0914],[14.6636,41.0935],[14.6596,41.0939],[14.6602,41.0909],[14.6585,41.0902],[14.648,41.0931],[14.6453,41.0956],[14.6443,41.0991],[14.6448,41.1002],[14.6489,41.0994],[14.6568,41.1094],[14.6556,41.1111],[14.6521,41.1124],[14.6437,41.1193],[14.6435,41.1284],[14.642,41.13],[14.6391,41.1312],[14.643,41.1346],[14.6459,41.1359],[14.6608,41.1377],[14.6602,41.1335]]]}},{"type":"Feature","properties":{"i":"062015","n":"Casalduni"},"geometry":{"type":"Polygon","coordinates":[[[14.7295,41.2645],[14.7306,41.264],[14.7266,41.2609],[14.7357,41.2567],[14.7325,41.2562],[14.7279,41.2536],[14.7185,41.2381],[14.7056,41.2382],[14.6914,41.2367],[14.6873,41.2352],[14.6815,41.2353],[14.6709,41.2361],[14.6624,41.2389],[14.6538,41.2406],[14.661,41.246],[14.6621,41.2488],[14.6595,41.2552],[14.6554,41.26],[14.6543,41.2671],[14.6557,41.2754],[14.6547,41.2843],[14.663,41.2818],[14.6684,41.2791],[14.6959,41.2704],[14.7126,41.269],[14.7295,41.2645]]]}},{"type":"Feature","properties":{"i":"062016","n":"Castelfranco in Miscano"},"geometry":{"type":"Polygon","coordinates":[[[15.1306,41.3172],[15.1268,41.303],[15.1348,41.299],[15.1374,41.2968],[15.1403,41.2919],[15.1377,41.2864],[15.1492,41.2804],[15.1459,41.2725],[15.1381,41.2648],[15.1222,41.2562],[15.1175,41.2561],[15.1063,41.2594],[15.0981,41.2605],[15.0948,41.2597],[15.0817,41.2528],[15.0791,41.2554],[15.0749,41.2621],[15.0711,41.2664],[15.067,41.2693],[15.0665,41.2709],[15.0698,41.2754],[15.07,41.2847],[15.0693,41.2883],[15.0642,41.3017],[15.0619,41.3057],[15.0552,41.3096],[15.0631,41.3148],[15.0702,41.3224],[15.0718,41.3276],[15.0722,41.3325],[15.0794,41.3303],[15.0908,41.3285],[15.0977,41.3284],[15.1016,41.3269],[15.1118,41.3198],[15.1306,41.3172]]]}},{"type":"Feature","properties":{"i":"062017","n":"Castelpagano"},"geometry":{"type":"Polygon","coordinates":[[[14.7902,41.4526],[14.8066,41.4472],[14.8093,41.4454],[14.8115,41.4414],[14.8431,41.4266],[14.8534,41.4251],[14.8603,41.4264],[14.8617,41.4221],[14.8602,41.4163],[14.8587,41.4141],[14.8555,41.4155],[14.8543,41.4152],[14.8524,41.4118],[14.856,41.4078],[14.8645,41.4078],[14.8658,41.4021],[14.8614,41.3998],[14.8545,41.4012],[14.847,41.3996],[14.8347,41.3918],[14.8263,41.388],[14.8151,41.3869],[14.8115,41.3888],[14.8086,41.3882],[14.7927,41.3912],[14.7781,41.3979],[14.774,41.4017],[14.7768,41.4049],[14.7738,41.4121],[14.7647,41.4174],[14.7653,41.4208],[14.7669,41.4265],[14.7723,41.4335],[14.7726,41.4366],[14.7709,41.4404],[14.7735,41.4447],[14.7833,41.4514],[14.787,41.4526],[14.7902,41.4526]]]}},{"type":"Feature","properties":{"i":"062018","n":"Castelpoto"},"geometry":{"type":"Polygon","coordinates":[[[14.7117,41.1481],[14.7099,41.1472],[14.7091,41.1449],[14.7094,41.1434],[14.7192,41.1346],[14.7242,41.1327],[14.7257,41.1297],[14.7189,41.119],[14.7109,41.1165],[14.7047,41.1197],[14.694,41.1182],[14.6915,41.1159],[14.6901,41.1128],[14.6902,41.1079],[14.6912,41.1046],[14.6867,41.1033],[14.6721,41.1026],[14.6753,41.1117],[14.679,41.1187],[14.6837,41.1228],[14.6872,41.1307],[14.6876,41.1367],[14.6895,41.1455],[14.6883,41.1468],[14.6844,41.1465],[14.6851,41.148],[14.7047,41.1541],[14.7087,41.1519],[14.7117,41.1481]]]}},{"type":"Feature","properties":{"i":"062019","n":"Castelvenere"},"geometry":{"type":"Polygon","coordinates":[[[14.5818,41.2105],[14.5631,41.2131],[14.5515,41.2112],[14.5408,41.2167],[14.5351,41.2188],[14.5369,41.2237],[14.5367,41.2263],[14.5336,41.2319],[14.5318,41.2306],[14.5318,41.2279],[14.5296,41.2275],[14.524,41.2304],[14.5221,41.2331],[14.5243,41.2356],[14.5287,41.2363],[14.5315,41.2388],[14.535,41.2454],[14.5384,41.2493],[14.5576,41.2526],[14.561,41.2545],[14.5618,41.2561],[14.566,41.2486],[14.5706,41.2457],[14.5757,41.2364],[14.5778,41.2298],[14.5776,41.2256],[14.5797,41.2177],[14.5815,41.2156],[14.5818,41.2105]]]}},{"type":"Feature","properties":{"i":"062020","n":"Castelvetere in Val Fortore"},"geometry":{"type":"Polygon","coordinates":[[[14.9699,41.4243],[14.9642,41.4242],[14.9568,41.4218],[14.9505,41.4125],[14.9402,41.4109],[14.9265,41.4134],[14.9207,41.4105],[14.8986,41.4238],[14.8941,41.4254],[14.892,41.4245],[14.8866,41.424],[14.8795,41.4266],[14.8746,41.4335],[14.8744,41.4355],[14.8855,41.4449],[14.8903,41.446],[14.8934,41.4478],[14.9083,41.451],[14.9306,41.4527],[14.9469,41.4561],[14.9514,41.458],[14.9583,41.4633],[14.9644,41.4658],[14.9823,41.4691],[14.986,41.4633],[14.9885,41.4555],[14.9874,41.4473],[14.9859,41.4472],[14.9716,41.4347],[14.9704,41.4325],[14.9694,41.4276],[14.9699,41.4243]]]}},{"type":"Feature","properties":{"i":"062021","n":"Cautano"},"geometry":{"type":"Polygon","coordinates":[[[14.6602,41.1335],[14.6608,41.1377],[14.6459,41.1359],[14.643,41.1346],[14.6391,41.1312],[14.6379,41.1332],[14.6363,41.134],[14.6271,41.1355],[14.6162,41.1346],[14.6077,41.1327],[14.6045,41.1306],[14.599,41.1342],[14.5961,41.1373],[14.5844,41.1438],[14.5765,41.1441],[14.5788,41.1515],[14.5739,41.1509],[14.5643,41.1528],[14.563,41.1576],[14.5836,41.1557],[14.59,41.1575],[14.6022,41.1654],[14.6114,41.167],[14.6187,41.1666],[14.6204,41.1651],[14.6219,41.162],[14.628,41.1565],[14.6384,41.1572],[14.6496,41.1619],[14.6534,41.1621],[14.657,41.1607],[14.661,41.1564],[14.661,41.1529],[14.6569,41.1523],[14.6491,41.1488],[14.6637,41.144],[14.669,41.1401],[14.6644,41.1353],[14.6602,41.1335]]]}},{"type":"Feature","properties":{"i":"062022","n":"Ceppaloni"},"geometry":{"type":"Polygon","coordinates":[[[14.7814,41.076],[14.7809,41.0735],[14.7756,41.0638],[14.7742,41.0513],[14.7745,41.0446],[14.7765,41.0427],[14.7765,41.0408],[14.7703,41.0232],[14.7662,41.0213],[14.7556,41.0257],[14.751,41.0302],[14.7349,41.0407],[14.7295,41.0422],[14.7263,41.0475],[14.709,41.0614],[14.7109,41.071],[14.7148,41.0787],[14.7164,41.08],[14.7196,41.0808],[14.7372,41.0836],[14.7408,41.0835],[14.7443,41.0743],[14.7494,41.0682],[14.7556,41.0651],[14.7634,41.0663],[14.766,41.0706],[14.7739,41.0768],[14.7814,41.076]]]}},{"type":"Feature","properties":{"i":"062023","n":"Cerreto Sannita"},"geometry":{"type":"Polygon","coordinates":[[[14.6238,41.3031],[14.6259,41.3005],[14.624,41.2954],[14.6071,41.2765],[14.6058,41.2775],[14.604,41.2775],[14.5866,41.2747],[14.5734,41.2683],[14.5695,41.265],[14.562,41.2652],[14.5575,41.2664],[14.5498,41.2711],[14.5487,41.2748],[14.5528,41.2803],[14.5554,41.2853],[14.5556,41.2882],[14.5539,41.2908],[14.5525,41.2916],[14.5494,41.2891],[14.5435,41.2885],[14.5386,41.2886],[14.5344,41.2898],[14.5403,41.2953],[14.545,41.3017],[14.5485,41.3035],[14.5568,41.3041],[14.5568,41.3051],[14.5495,41.3132],[14.5484,41.3218],[14.5587,41.3253],[14.5674,41.324],[14.5689,41.323],[14.5772,41.3223],[14.5869,41.3246],[14.6015,41.3171],[14.6091,41.3172],[14.6139,41.3235],[14.6144,41.3272],[14.6136,41.33],[14.6167,41.3302],[14.6209,41.3279],[14.6208,41.3223],[14.6185,41.3155],[14.6213,41.3034],[14.6238,41.3031]]]}},{"type":"Feature","properties":{"i":"062024","n":"Circello"},"geometry":{"type":"Polygon","coordinates":[[[14.8224,41.3394],[14.8215,41.334],[14.82,41.3311],[14.8183,41.3097],[14.8148,41.3013],[14.8125,41.298],[14.8043,41.2953],[14.7959,41.2781],[14.793,41.2822],[14.7906,41.2945],[14.7777,41.3136],[14.7752,41.3144],[14.7709,41.3141],[14.7693,41.3152],[14.7649,41.3292],[14.769,41.3352],[14.7781,41.3389],[14.7803,41.3416],[14.7851,41.3531],[14.7782,41.3596],[14.7627,41.364],[14.7613,41.3649],[14.7597,41.3678],[14.7596,41.3734],[14.7613,41.3771],[14.7589,41.3838],[14.7574,41.3928],[14.7672,41.4089],[14.7693,41.4142],[14.7738,41.4121],[14.7768,41.4049],[14.774,41.4017],[14.7781,41.3979],[14.7927,41.3912],[14.8086,41.3882],[14.8092,41.3857],[14.8103,41.3846],[14.8139,41.3834],[14.816,41.3815],[14.8189,41.3762],[14.8195,41.3723],[14.819,41.3648],[14.8215,41.3486],[14.8202,41.3421],[14.8224,41.3394]]]}},{"type":"Feature","properties":{"i":"062025","n":"Colle Sannita"},"geometry":{"type":"Polygon","coordinates":[[[14.8941,41.4254],[14.8946,41.4205],[14.8973,41.4147],[14.8996,41.405],[14.8978,41.4032],[14.8945,41.4015],[14.8881,41.3865],[14.884,41.379],[14.8799,41.3734],[14.8747,41.3696],[14.8724,41.3646],[14.8716,41.3606],[14.865,41.3607],[14.8589,41.3594],[14.8537,41.3576],[14.8487,41.3543],[14.8384,41.3382],[14.8385,41.3359],[14.8365,41.3328],[14.8324,41.334],[14.8224,41.3394],[14.8202,41.3421],[14.8215,41.3486],[14.819,41.3648],[14.8195,41.3723],[14.8189,41.3762],[14.816,41.3815],[14.8139,41.3834],[14.8103,41.3846],[14.8092,41.3857],[14.8086,41.3882],[14.8115,41.3888],[14.8151,41.3869],[14.8263,41.388],[14.8347,41.3918],[14.847,41.3996],[14.8545,41.4012],[14.8614,41.3998],[14.8658,41.4021],[14.8645,41.4078],[14.856,41.4078],[14.8524,41.4118],[14.8543,41.4152],[14.8555,41.4155],[14.8587,41.4141],[14.8602,41.4163],[14.8617,41.4221],[14.8603,41.4264],[14.8657,41.4267],[14.8746,41.4335],[14.8784,41.4274],[14.8846,41.4244],[14.8908,41.4243],[14.8941,41.4254]]]}},{"type":"Feature","properties":{"i":"062026","n":"Cusano Mutri"},"geometry":{"type":"Polygon","coordinates":[[[14.5484,41.3218],[14.5495,41.3132],[14.5568,41.3051],[14.5568,41.3041],[14.5485,41.3035],[14.545,41.3017],[14.5403,41.2953],[14.5366,41.2919],[14.5295,41.296],[14.519,41.2945],[14.5147,41.2968],[14.4921,41.2999],[14.4891,41.3006],[14.4901,41.3051],[14.4895,41.3078],[14.4774,41.3209],[14.475,41.3382],[14.4685,41.3455],[14.4581,41.3418],[14.4535,41.3447],[14.4395,41.3443],[14.4392,41.3459],[14.4472,41.36],[14.4502,41.3625],[14.4538,41.3685],[14.4535,41.3691],[14.4561,41.3718],[14.464,41.3752],[14.4669,41.3757],[14.4735,41.3735],[14.4778,41.3798],[14.4902,41.3752],[14.4949,41.3743],[14.4979,41.3761],[14.4974,41.3778],[14.5012,41.3828],[14.509,41.3816],[14.5228,41.3853],[14.5284,41.3843],[14.5307,41.3835],[14.5312,41.3799],[14.5345,41.3729],[14.5368,41.3711],[14.5425,41.3718],[14.5442,41.3712],[14.548,41.3667],[14.5479,41.3655],[14.5383,41.3565],[14.5369,41.3506],[14.5375,41.3437],[14.5389,41.3384],[14.5422,41.3367],[14.5472,41.3325],[14.5484,41.3218]]]}},{"type":"Feature","properties":{"i":"062027","n":"Dugenta"},"geometry":{"type":"Polygon","coordinates":[[[14.493,41.1503],[14.4875,41.1486],[14.4841,41.1464],[14.4838,41.1446],[14.4853,41.1442],[14.4846,41.1424],[14.4798,41.1366],[14.4691,41.1325],[14.4662,41.1294],[14.4639,41.119],[14.4506,41.1186],[14.4437,41.1173],[14.4411,41.1177],[14.4288,41.126],[14.4306,41.1283],[14.4283,41.1313],[14.4231,41.1353],[14.4272,41.136],[14.429,41.1373],[14.4303,41.1408],[14.4307,41.1497],[14.4349,41.1541],[14.4379,41.1552],[14.4496,41.1539],[14.465,41.1568],[14.4863,41.1534],[14.493,41.1503]]]}},{"type":"Feature","properties":{"i":"062028","n":"Durazzano"},"geometry":{"type":"Polygon","coordinates":[[[14.478,41.0513],[14.4784,41.0463],[14.4746,41.0434],[14.4702,41.0439],[14.4558,41.0427],[14.4566,41.0459],[14.4541,41.0485],[14.4494,41.0463],[14.44,41.0495],[14.4186,41.0544],[14.4165,41.0562],[14.413,41.0572],[14.4202,41.0629],[14.4326,41.0688],[14.4398,41.0711],[14.4457,41.0718],[14.4522,41.071],[14.4776,41.0729],[14.4803,41.0724],[14.4828,41.0707],[14.4837,41.0663],[14.4765,41.0554],[14.478,41.0513]]]}},{"type":"Feature","properties":{"i":"062029","n":"Faicchio"},"geometry":{"type":"Polygon","coordinates":[[[14.519,41.2945],[14.5219,41.2911],[14.5213,41.2895],[14.52,41.2887],[14.5156,41.2744],[14.5249,41.2659],[14.5289,41.2548],[14.5285,41.2467],[14.5266,41.2451],[14.5142,41.2521],[14.507,41.2546],[14.497,41.2593],[14.485,41.2551],[14.4728,41.2489],[14.4712,41.247],[14.4656,41.2482],[14.4595,41.2471],[14.4468,41.2363],[14.4344,41.2284],[14.431,41.227],[14.4284,41.2235],[14.4241,41.2207],[14.4201,41.2208],[14.4185,41.2216],[14.419,41.2415],[14.4239,41.25],[14.421,41.2542],[14.4199,41.2544],[14.4262,41.2624],[14.4312,41.2635],[14.4326,41.2648],[14.4356,41.273],[14.4354,41.2759],[14.4388,41.2823],[14.4484,41.2905],[14.4537,41.2937],[14.4736,41.2995],[14.4891,41.3006],[14.5147,41.2968],[14.519,41.2945]]]}},{"type":"Feature","properties":{"i":"062030","n":"Foglianise"},"geometry":{"type":"Polygon","coordinates":[[[14.7143,41.1655],[14.7127,41.1637],[14.7185,41.1526],[14.7162,41.1485],[14.7117,41.1481],[14.7077,41.1527],[14.7059,41.1538],[14.7034,41.1539],[14.6851,41.148],[14.6834,41.1454],[14.6765,41.1426],[14.6718,41.142],[14.6696,41.1426],[14.6591,41.1623],[14.658,41.1661],[14.6579,41.174],[14.658,41.1747],[14.6594,41.1746],[14.6604,41.1733],[14.6652,41.1708],[14.6675,41.1716],[14.6702,41.1752],[14.6723,41.1717],[14.6851,41.173],[14.6973,41.1722],[14.7108,41.168],[14.7143,41.1655]]]}},{"type":"Feature","properties":{"i":"062031","n":"Foiano di Val Fortore"},"geometry":{"type":"Polygon","coordinates":[[[15.0036,41.3837],[15.0036,41.3822],[15.0007,41.3762],[15.0051,41.3716],[15.013,41.3679],[15.0169,41.367],[15.0266,41.3655],[15.0336,41.3663],[15.0539,41.3705],[15.0585,41.3721],[15.0639,41.3572],[15.0668,41.3528],[15.0617,41.3515],[15.0418,41.3549],[15.0126,41.3518],[14.9993,41.3446],[14.9864,41.3325],[14.9671,41.3239],[14.9656,41.3209],[14.9614,41.3191],[14.9507,41.327],[14.9379,41.334],[14.9228,41.3404],[14.9189,41.3449],[14.9153,41.3477],[14.9108,41.3544],[14.9096,41.3596],[14.9165,41.3609],[14.9377,41.3678],[14.9475,41.3677],[14.9915,41.3802],[14.9982,41.383],[15.0036,41.3837]]]}},{"type":"Feature","properties":{"i":"062032","n":"Forchia"},"geometry":{"type":"Polygon","coordinates":[[[14.5308,41.0481],[14.5323,41.0425],[14.5321,41.0379],[14.5433,41.032],[14.5474,41.0265],[14.5443,41.0181],[14.5406,41.0198],[14.5348,41.0177],[14.5312,41.0133],[14.5283,41.0171],[14.5165,41.0391],[14.5175,41.0417],[14.5182,41.0488],[14.5308,41.0481]]]}},{"type":"Feature","properties":{"i":"062033","n":"Fragneto l'Abate"},"geometry":{"type":"Polygon","coordinates":[[[14.7959,41.2781],[14.7936,41.2769],[14.7934,41.2734],[14.801,41.263],[14.801,41.2578],[14.8052,41.2549],[14.8128,41.2543],[14.8141,41.2537],[14.8141,41.2526],[14.8094,41.2444],[14.8012,41.2388],[14.7893,41.2375],[14.7887,41.242],[14.7836,41.2472],[14.773,41.2636],[14.7681,41.2656],[14.7582,41.268],[14.75,41.2748],[14.7507,41.2774],[14.7564,41.2848],[14.7607,41.2928],[14.759,41.3041],[14.7602,41.3072],[14.7709,41.3141],[14.7752,41.3144],[14.7777,41.3136],[14.7906,41.2945],[14.793,41.2822],[14.7959,41.2781]]]}},{"type":"Feature","properties":{"i":"062034","n":"Fragneto Monforte"},"geometry":{"type":"Polygon","coordinates":[[[14.7893,41.2375],[14.7925,41.2226],[14.7931,41.2129],[14.7906,41.2152],[14.7678,41.2211],[14.7546,41.2262],[14.7433,41.2253],[14.7316,41.2199],[14.7288,41.2157],[14.7246,41.2137],[14.7186,41.2268],[14.7185,41.2381],[14.7279,41.2536],[14.7325,41.2562],[14.7357,41.2567],[14.7371,41.2581],[14.7469,41.2595],[14.757,41.2686],[14.773,41.2636],[14.7836,41.2472],[14.7887,41.242],[14.7893,41.2375]]]}},{"type":"Feature","properties":{"i":"062035","n":"Frasso Telesino"},"geometry":{"type":"Polygon","coordinates":[[[14.5648,41.1642],[14.563,41.1576],[14.5643,41.1528],[14.5739,41.1509],[14.5788,41.1515],[14.5757,41.1419],[14.5722,41.1442],[14.5664,41.1404],[14.5646,41.1383],[14.5592,41.1395],[14.5545,41.1395],[14.5415,41.1304],[14.5345,41.1268],[14.5261,41.1257],[14.5215,41.1259],[14.5185,41.1288],[14.5113,41.1315],[14.509,41.132],[14.5013,41.1315],[14.4911,41.136],[14.4835,41.1355],[14.4798,41.1366],[14.4846,41.1424],[14.4853,41.1442],[14.4838,41.1446],[14.4835,41.1456],[14.4875,41.1486],[14.493,41.1503],[14.504,41.1507],[14.5064,41.152],[14.5066,41.1551],[14.5076,41.1558],[14.516,41.159],[14.5182,41.1562],[14.522,41.1573],[14.5251,41.1635],[14.5252,41.1671],[14.5238,41.1678],[14.5255,41.169],[14.5295,41.1697],[14.5549,41.164],[14.5648,41.1642]]]}},{"type":"Feature","properties":{"i":"062036","n":"Ginestra degli Schiavoni"},"geometry":{"type":"Polygon","coordinates":[[[15.0665,41.2709],[15.051,41.2582],[15.0501,41.2599],[15.0469,41.262],[15.0347,41.2642],[15.0262,41.2621],[15.0203,41.2628],[15.0088,41.2694],[15.0091,41.271],[15.0258,41.2753],[15.0356,41.2753],[15.0373,41.2764],[15.0356,41.2826],[15.0311,41.2864],[15.0318,41.288],[15.0365,41.2947],[15.0453,41.3044],[15.0531,41.3104],[15.0588,41.308],[15.0619,41.3057],[15.0642,41.3017],[15.069,41.2892],[15.07,41.2847],[15.0698,41.2754],[15.0665,41.2709]]]}},{"type":"Feature","properties":{"i":"062037","n":"Guardia Sanframondi"},"geometry":{"type":"Polygon","coordinates":[[[14.6072,41.2221],[14.603,41.2132],[14.5974,41.2082],[14.5938,41.2074],[14.5877,41.2103],[14.5818,41.2105],[14.5815,41.2156],[14.5797,41.2177],[14.5776,41.2256],[14.5778,41.2298],[14.5757,41.2364],[14.5706,41.2457],[14.566,41.2486],[14.5618,41.2561],[14.56,41.2616],[14.5615,41.2633],[14.5641,41.2628],[14.5684,41.2638],[14.5734,41.2683],[14.5866,41.2747],[14.604,41.2775],[14.6067,41.2772],[14.6085,41.2713],[14.6074,41.2645],[14.6108,41.2598],[14.6116,41.2549],[14.6108,41.2522],[14.6089,41.2531],[14.608,41.2499],[14.6085,41.2453],[14.6103,41.2414],[14.6062,41.2253],[14.6061,41.2231],[14.6072,41.2221]]]}},{"type":"Feature","properties":{"i":"062038","n":"Limatola"},"geometry":{"type":"Polygon","coordinates":[[[14.4231,41.1353],[14.4283,41.1313],[14.4306,41.1283],[14.4288,41.126],[14.4396,41.1193],[14.44,41.1182],[14.4342,41.1078],[14.4286,41.1076],[14.4198,41.1091],[14.4092,41.1135],[14.3938,41.1158],[14.3962,41.1186],[14.3972,41.1214],[14.3882,41.1343],[14.3761,41.1369],[14.3696,41.1371],[14.3632,41.1401],[14.3585,41.1438],[14.352,41.1521],[14.3554,41.1566],[14.3784,41.1614],[14.3812,41.1563],[14.3867,41.1529],[14.3992,41.1496],[14.4041,41.143],[14.4102,41.1423],[14.421,41.1384],[14.4231,41.1353]]]}},{"type":"Feature","properties":{"i":"062039","n":"Melizzano"},"geometry":{"type":"Polygon","coordinates":[[[14.4954,41.1893],[14.4963,41.1838],[14.4973,41.1825],[14.505,41.1792],[14.5164,41.1781],[14.5206,41.1791],[14.5323,41.1765],[14.5347,41.1747],[14.5335,41.1687],[14.5295,41.1697],[14.5255,41.169],[14.5238,41.1678],[14.5252,41.1671],[14.5251,41.1635],[14.522,41.1573],[14.5182,41.1562],[14.516,41.159],[14.5098,41.157],[14.5066,41.1551],[14.5068,41.153],[14.5055,41.1513],[14.5018,41.1504],[14.493,41.1503],[14.4863,41.1534],[14.4636,41.1569],[14.4589,41.1602],[14.4588,41.1639],[14.4632,41.1675],[14.4649,41.1677],[14.4682,41.1735],[14.4679,41.1761],[14.4658,41.1772],[14.4651,41.1797],[14.4655,41.1842],[14.4697,41.1833],[14.4756,41.1835],[14.4772,41.1852],[14.4783,41.1896],[14.4824,41.1926],[14.4924,41.1927],[14.4954,41.1893]]]}},{"type":"Feature","properties":{"i":"062040","n":"Moiano"},"geometry":{"type":"Polygon","coordinates":[[[14.5891,41.0976],[14.5843,41.0958],[14.5722,41.0938],[14.5546,41.084],[14.5557,41.079],[14.5603,41.0758],[14.561,41.0744],[14.5473,41.0736],[14.5344,41.0561],[14.5247,41.0504],[14.5239,41.0488],[14.5152,41.0486],[14.5127,41.0513],[14.5119,41.0532],[14.5072,41.0557],[14.5029,41.0534],[14.5098,41.0683],[14.519,41.0837],[14.5233,41.0902],[14.5292,41.0961],[14.546,41.1039],[14.5542,41.1061],[14.5635,41.1112],[14.5694,41.1122],[14.5757,41.1086],[14.5758,41.1062],[14.5748,41.1046],[14.5817,41.0995],[14.5891,41.0976]]]}},{"type":"Feature","properties":{"i":"062041","n":"Molinara"},"geometry":{"type":"Polygon","coordinates":[[[14.9614,41.3191],[14.9534,41.3178],[14.9495,41.3159],[14.9468,41.3138],[14.9439,41.309],[14.9131,41.2814],[14.8947,41.2708],[14.8973,41.2758],[14.8979,41.2818],[14.8961,41.2841],[14.8922,41.2857],[14.8891,41.289],[14.8878,41.293],[14.8916,41.3063],[14.8913,41.3095],[14.8947,41.317],[14.9065,41.3362],[14.9152,41.3439],[14.9181,41.3456],[14.9228,41.3404],[14.9379,41.334],[14.9507,41.327],[14.9614,41.3191]]]}},{"type":"Feature","properties":{"i":"062042","n":"Montefalcone di Val Fortore"},"geometry":{"type":"Polygon","coordinates":[[[15.0668,41.3528],[15.0683,41.3506],[15.0675,41.3476],[15.0697,41.3383],[15.0722,41.3325],[15.0718,41.3276],[15.0702,41.3224],[15.0631,41.3148],[15.0552,41.3096],[15.053,41.3104],[15.0467,41.3058],[15.0365,41.2947],[15.0311,41.2864],[15.0116,41.2963],[15.0023,41.2973],[14.9939,41.3037],[14.9906,41.3054],[14.9751,41.3095],[14.9653,41.3096],[14.9628,41.3136],[14.9636,41.317],[14.9671,41.3239],[14.9864,41.3325],[14.9993,41.3446],[15.0126,41.3518],[15.0418,41.3549],[15.0617,41.3515],[15.0668,41.3528]]]}},{"type":"Feature","properties":{"i":"062043","n":"Montesarchio"},"geometry":{"type":"Polygon","coordinates":[[[14.6448,41.1002],[14.6443,41.0991],[14.6453,41.0956],[14.648,41.0931],[14.6593,41.0902],[14.6604,41.0922],[14.6596,41.0939],[14.6636,41.0935],[14.6677,41.0903],[14.6741,41.0876],[14.6812,41.0815],[14.6827,41.0728],[14.7042,41.0594],[14.7058,41.059],[14.7014,41.0554],[14.6902,41.0549],[14.6766,41.0548],[14.6672,41.058],[14.6621,41.0556],[14.6596,41.0503],[14.6499,41.0456],[14.6401,41.0425],[14.6379,41.0449],[14.6189,41.0491],[14.6172,41.0505],[14.6108,41.0528],[14.615,41.0567],[14.6136,41.0608],[14.6134,41.0647],[14.6228,41.0729],[14.6267,41.074],[14.63,41.0778],[14.6324,41.0846],[14.629,41.0934],[14.6267,41.0964],[14.6248,41.0975],[14.6448,41.1002]]]}},{"type":"Feature","properties":{"i":"062044","n":"Morcone"},"geometry":{"type":"Polygon","coordinates":[[[14.6996,41.4108],[14.7062,41.4048],[14.7144,41.4011],[14.711,41.3968],[14.7087,41.3828],[14.7099,41.3783],[14.7142,41.3711],[14.7281,41.3688],[14.7419,41.3717],[14.7507,41.3746],[14.7602,41.3803],[14.7613,41.3771],[14.7596,41.3734],[14.7596,41.3696],[14.7613,41.3649],[14.7678,41.3622],[14.7782,41.3596],[14.7851,41.3531],[14.7803,41.3416],[14.7781,41.3389],[14.769,41.3352],[14.7649,41.3292],[14.7693,41.3152],[14.7622,41.3126],[14.7556,41.3049],[14.7541,41.3018],[14.7505,41.302],[14.7421,41.3055],[14.7356,41.311],[14.7336,41.3165],[14.7272,41.3193],[14.7205,41.3182],[14.7195,41.3173],[14.7143,41.3041],[14.7075,41.3123],[14.6935,41.3145],[14.6621,41.3165],[14.6542,41.3145],[14.6409,41.3076],[14.6238,41.3031],[14.6213,41.3034],[14.6185,41.3155],[14.6208,41.3223],[14.6209,41.3279],[14.6158,41.3305],[14.6136,41.33],[14.611,41.334],[14.6032,41.3511],[14.6009,41.3584],[14.603,41.364],[14.6146,41.3682],[14.6314,41.3669],[14.6392,41.3622],[14.6464,41.3602],[14.6667,41.3567],[14.6697,41.3571],[14.6792,41.3643],[14.6783,41.3663],[14.6749,41.368],[14.6712,41.3719],[14.6685,41.3798],[14.668,41.3837],[14.6611,41.3903],[14.6609,41.3932],[14.6657,41.3977],[14.6652,41.4003],[14.6661,41.4065],[14.6752,41.4074],[14.6842,41.4107],[14.6996,41.4108]]]}},{"type":"Feature","properties":{"i":"062045","n":"Paduli"},"geometry":{"type":"Polygon","coordinates":[[[14.9448,41.2137],[14.9508,41.2038],[14.9365,41.1992],[14.9272,41.1982],[14.9206,41.1954],[14.9174,41.1918],[14.9197,41.1839],[14.9238,41.1755],[14.9261,41.1663],[14.9302,41.1588],[14.9304,41.1535],[14.9253,41.1414],[14.9217,41.1402],[14.9184,41.1403],[14.9042,41.1439],[14.8873,41.1407],[14.8697,41.1344],[14.8688,41.1374],[14.864,41.1379],[14.862,41.1396],[14.8596,41.1463],[14.8508,41.1458],[14.8438,41.1469],[14.8426,41.1503],[14.846,41.1567],[14.8559,41.1609],[14.8525,41.1641],[14.8505,41.1642],[14.8539,41.1663],[14.8566,41.1722],[14.884,41.1958],[14.8912,41.2073],[14.898,41.2056],[14.8996,41.206],[14.9005,41.2095],[14.9003,41.216],[14.8985,41.221],[14.9008,41.2237],[14.909,41.2258],[14.9233,41.2227],[14.9396,41.2178],[14.9448,41.2137]]]}},{"type":"Feature","properties":{"i":"062046","n":"Pago Veiano"},"geometry":{"type":"Polygon","coordinates":[[[14.8868,41.2601],[14.8929,41.2591],[14.8956,41.2595],[14.9011,41.2578],[14.9027,41.2513],[14.9035,41.2465],[14.9025,41.2454],[14.9014,41.2375],[14.9043,41.2305],[14.9069,41.2268],[14.9058,41.2251],[14.9008,41.2237],[14.8985,41.221],[14.9003,41.216],[14.9,41.2066],[14.898,41.2056],[14.8912,41.2073],[14.8894,41.2087],[14.8853,41.21],[14.877,41.2113],[14.8722,41.2114],[14.8647,41.2087],[14.86,41.209],[14.8529,41.2138],[14.8561,41.2178],[14.8612,41.2212],[14.8622,41.2259],[14.8611,41.228],[14.8536,41.2333],[14.8461,41.2335],[14.8466,41.2368],[14.8439,41.243],[14.8442,41.249],[14.8527,41.255],[14.8616,41.2589],[14.8671,41.2623],[14.8776,41.2631],[14.8868,41.2601]]]}},{"type":"Feature","properties":{"i":"062047","n":"Pannarano"},"geometry":{"type":"Polygon","coordinates":[[[14.7156,41.007],[14.7058,40.9898],[14.694,40.9773],[14.6936,40.9751],[14.6798,40.9817],[14.6803,40.9935],[14.6796,40.9982],[14.6812,41.0021],[14.6863,41.0088],[14.6855,41.0121],[14.684,41.0146],[14.6789,41.0195],[14.6925,41.0277],[14.6957,41.0339],[14.7051,41.0235],[14.7156,41.007]]]}},{"type":"Feature","properties":{"i":"062048","n":"Paolisi"},"geometry":{"type":"Polygon","coordinates":[[[14.5719,41.0095],[14.5659,41.0151],[14.5643,41.0181],[14.5577,41.0253],[14.555,41.027],[14.5551,41.0332],[14.5624,41.0407],[14.5929,41.0498],[14.5917,41.0479],[14.5915,41.0415],[14.5886,41.0355],[14.5685,41.0206],[14.5696,41.0153],[14.5719,41.0095]]]}},{"type":"Feature","properties":{"i":"062049","n":"Paupisi"},"geometry":{"type":"MultiPolygon","coordinates":[[[[14.6665,41.21],[14.6696,41.2074],[14.6699,41.2003],[14.6692,41.1921],[14.6668,41.1906],[14.663,41.1932],[14.6575,41.1985],[14.6468,41.2009],[14.6454,41.2002],[14.6434,41.1952],[14.6375,41.1887],[14.6328,41.1912],[14.6332,41.1934],[14.6321,41.1997],[14.6266,41.2117],[14.6318,41.2123],[14.6398,41.2194],[14.6451,41.2184],[14.6466,41.2149],[14.6531,41.2127],[14.6597,41.2121],[14.6601,41.2097],[14.6613,41.2082],[14.6641,41.2084],[14.6665,41.21]]]]}},{"type":"Feature","properties":{"i":"062050","n":"Pesco Sannita"},"geometry":{"type":"Polygon","coordinates":[[[14.8616,41.2589],[14.8527,41.255],[14.8442,41.249],[14.8439,41.243],[14.8466,41.2368],[14.8461,41.2335],[14.8441,41.2339],[14.8393,41.2301],[14.8331,41.2227],[14.8187,41.2169],[14.8133,41.2184],[14.809,41.2183],[14.8075,41.2031],[14.8078,41.1944],[14.8048,41.1964],[14.7992,41.1982],[14.7957,41.2022],[14.7951,41.2085],[14.7931,41.2129],[14.7925,41.2226],[14.7893,41.2375],[14.8004,41.2384],[14.8094,41.2444],[14.8134,41.2507],[14.8141,41.2537],[14.8245,41.2685],[14.8398,41.2807],[14.8523,41.2783],[14.8578,41.2644],[14.8616,41.2589]]]}},{"type":"Feature","properties":{"i":"062051","n":"Pietraroja"},"geometry":{"type":"Polygon","coordinates":[[[14.603,41.364],[14.6009,41.3584],[14.6024,41.3531],[14.6144,41.3272],[14.6139,41.3235],[14.6095,41.3174],[14.6015,41.3171],[14.5869,41.3246],[14.5772,41.3223],[14.5689,41.323],[14.5674,41.324],[14.5587,41.3253],[14.5484,41.3218],[14.5472,41.3325],[14.5422,41.3367],[14.5389,41.3384],[14.5375,41.3437],[14.5369,41.3506],[14.5383,41.3565],[14.5479,41.3655],[14.548,41.3667],[14.5442,41.3712],[14.5425,41.3718],[14.5368,41.3711],[14.5338,41.3734],[14.5312,41.3799],[14.5307,41.3835],[14.5513,41.3795],[14.5663,41.3921],[14.5743,41.3902],[14.5849,41.3815],[14.5878,41.3737],[14.5916,41.3694],[14.603,41.364]]]}},{"type":"Feature","properties":{"i":"062052","n":"Pietrelcina"},"geometry":{"type":"Polygon","coordinates":[[[14.8461,41.2335],[14.8536,41.2333],[14.8617,41.2271],[14.8623,41.2246],[14.8612,41.2212],[14.8561,41.2178],[14.8529,41.2138],[14.86,41.209],[14.8647,41.2087],[14.8722,41.2114],[14.877,41.2113],[14.8853,41.21],[14.8894,41.2087],[14.8912,41.2073],[14.884,41.1958],[14.8566,41.1722],[14.8536,41.1659],[14.8505,41.1642],[14.8446,41.1632],[14.8416,41.1641],[14.8414,41.1728],[14.8327,41.183],[14.8302,41.1871],[14.8239,41.1889],[14.8185,41.1871],[14.8158,41.1891],[14.8137,41.1932],[14.8078,41.1944],[14.8075,41.2031],[14.809,41.2183],[14.8133,41.2184],[14.8187,41.2169],[14.8272,41.2198],[14.8331,41.2227],[14.8358,41.2267],[14.8441,41.2339],[14.8461,41.2335]]]}},{"type":"Feature","properties":{"i":"062053","n":"Ponte"},"geometry":{"type":"Polygon","coordinates":[[[14.7185,41.2381],[14.7186,41.2268],[14.7246,41.2137],[14.7197,41.2088],[14.7107,41.2078],[14.7069,41.2118],[14.6943,41.2128],[14.6911,41.2114],[14.673,41.2111],[14.6679,41.2104],[14.6626,41.2079],[14.6606,41.2088],[14.6597,41.2121],[14.6531,41.2127],[14.6466,41.2149],[14.6451,41.2184],[14.6497,41.2277],[14.6538,41.2406],[14.6624,41.2389],[14.6709,41.2361],[14.6815,41.2353],[14.6873,41.2352],[14.6914,41.2367],[14.7056,41.2382],[14.7185,41.2381]]]}},{"type":"Feature","properties":{"i":"062054","n":"Pontelandolfo"},"geometry":{"type":"MultiPolygon","coordinates":[[[[14.7357,41.2567],[14.7266,41.2609],[14.7306,41.264],[14.7371,41.2581],[14.7357,41.2567]]],[[[14.7143,41.3041],[14.7146,41.2928],[14.7235,41.2778],[14.7241,41.2712],[14.725,41.2692],[14.7295,41.2645],[14.7126,41.269],[14.6959,41.2704],[14.6684,41.2791],[14.663,41.2818],[14.651,41.2859],[14.6459,41.2839],[14.6348,41.2892],[14.6323,41.2919],[14.63,41.2967],[14.6238,41.3031],[14.6409,41.3076],[14.6542,41.3145],[14.6621,41.3165],[14.6935,41.3145],[14.7075,41.3123],[14.7143,41.3041]]]]}},{"type":"Feature","properties":{"i":"062055","n":"Puglianello"},"geometry":{"type":"Polygon","coordinates":[[[14.4712,41.247],[14.4711,41.2384],[14.4735,41.2317],[14.4733,41.2288],[14.4702,41.2241],[14.466,41.2216],[14.465,41.2176],[14.4574,41.2158],[14.4481,41.2163],[14.4454,41.2148],[14.4423,41.2103],[14.4365,41.2127],[14.4346,41.218],[14.4357,41.2214],[14.4352,41.2227],[14.4284,41.2235],[14.4305,41.2266],[14.4344,41.2284],[14.4468,41.2363],[14.4595,41.2471],[14.4656,41.2482],[14.4712,41.247]]]}},{"type":"Feature","properties":{"i":"062056","n":"Reino"},"geometry":{"type":"MultiPolygon","coordinates":[[[[14.8224,41.3394],[14.8324,41.334],[14.8365,41.3328],[14.834,41.3272],[14.8309,41.3246],[14.8303,41.3217],[14.8319,41.3078],[14.8332,41.3071],[14.8435,41.309],[14.8531,41.3148],[14.8564,41.3127],[14.8535,41.3046],[14.8482,41.2976],[14.8435,41.2835],[14.8245,41.2685],[14.8141,41.2537],[14.8078,41.2551],[14.8052,41.2549],[14.801,41.2578],[14.801,41.263],[14.7934,41.2734],[14.793,41.2749],[14.7936,41.2769],[14.7959,41.2781],[14.8043,41.2953],[14.8125,41.298],[14.8148,41.3013],[14.8183,41.3097],[14.82,41.3311],[14.8215,41.334],[14.8224,41.3394]]],[[[14.8385,41.3359],[14.8384,41.3382],[14.8487,41.3543],[14.853,41.3569],[14.8638,41.3504],[14.8565,41.3443],[14.8515,41.3382],[14.8483,41.3328],[14.8385,41.3359]]]]}},{"type":"Feature","properties":{"i":"062057","n":"San Bartolomeo in Galdo"},"geometry":{"type":"Polygon","coordinates":[[[15.0983,41.434],[15.1008,41.4297],[15.103,41.4209],[15.0917,41.4179],[15.0879,41.411],[15.0865,41.4046],[15.0895,41.4008],[15.0949,41.3964],[15.0983,41.3906],[15.0799,41.3881],[15.0678,41.3762],[15.0577,41.3717],[15.0412,41.3677],[15.0266,41.3655],[15.013,41.3679],[15.0051,41.3716],[15.0007,41.3762],[15.0036,41.3822],[15.0036,41.3837],[15.0083,41.3867],[15.0105,41.389],[15.001,41.4004],[14.9918,41.4083],[14.9708,41.4191],[14.9694,41.4276],[14.9704,41.4325],[14.9716,41.4347],[14.9859,41.4472],[14.9874,41.4473],[14.9885,41.4555],[14.986,41.4633],[14.9823,41.4691],[14.9844,41.4723],[14.9843,41.4743],[14.9897,41.4799],[15.001,41.4847],[15.0076,41.4864],[15.0233,41.4773],[15.0287,41.4676],[15.03,41.4612],[15.0301,41.4561],[15.0324,41.4527],[15.0378,41.4543],[15.0433,41.4505],[15.0505,41.4434],[15.0627,41.4407],[15.0656,41.4392],[15.0688,41.4357],[15.0757,41.4329],[15.0835,41.4324],[15.0983,41.434]]]}},{"type":"Feature","properties":{"i":"062058","n":"San Giorgio del Sannio"},"geometry":{"type":"Polygon","coordinates":[[[14.9139,41.1412],[14.9074,41.1233],[14.9094,41.1193],[14.9095,41.1145],[14.9086,41.1114],[14.901,41.1049],[14.8902,41.1042],[14.8806,41.0959],[14.8724,41.0849],[14.8644,41.0764],[14.8618,41.0724],[14.8588,41.0654],[14.8609,41.0642],[14.8623,41.0646],[14.8611,41.0611],[14.8499,41.053],[14.8429,41.0547],[14.8436,41.0575],[14.8481,41.0616],[14.8493,41.0675],[14.8478,41.069],[14.845,41.07],[14.8399,41.0776],[14.8439,41.0869],[14.8491,41.0937],[14.8594,41.1046],[14.8702,41.1123],[14.8746,41.1178],[14.8786,41.1237],[14.8809,41.1296],[14.8808,41.1389],[14.8947,41.1426],[14.9042,41.1439],[14.9139,41.1412]]]}},{"type":"Feature","properties":{"i":"062059","n":"San Giorgio La Molara"},"geometry":{"type":"Polygon","coordinates":[[[15.0311,41.2864],[15.0356,41.2826],[15.0373,41.2764],[15.0356,41.2753],[15.0258,41.2753],[15.0091,41.271],[15.0024,41.2704],[14.992,41.2714],[14.9762,41.2702],[14.9694,41.2515],[14.9636,41.2422],[14.9554,41.2313],[14.954,41.2256],[14.9536,41.2191],[14.9527,41.2175],[14.9448,41.2137],[14.9396,41.2178],[14.9286,41.2212],[14.9104,41.2256],[14.9058,41.2251],[14.9069,41.2268],[14.9043,41.2305],[14.9014,41.2375],[14.9014,41.2406],[14.9035,41.2474],[14.9011,41.2578],[14.8956,41.2595],[14.8929,41.2591],[14.8868,41.2601],[14.8947,41.2708],[14.9131,41.2814],[14.9439,41.309],[14.9468,41.3138],[14.9495,41.3159],[14.9534,41.3178],[14.9614,41.3191],[14.9656,41.3209],[14.9628,41.3136],[14.9653,41.3096],[14.9751,41.3095],[14.9906,41.3054],[14.9939,41.3037],[15.0023,41.2973],[15.0116,41.2963],[15.0311,41.2864]]]}},{"type":"Feature","properties":{"i":"062060","n":"San Leucio del Sannio"},"geometry":{"type":"Polygon","coordinates":[[[14.7888,41.0926],[14.7812,41.0794],[14.7814,41.076],[14.7739,41.0768],[14.766,41.0706],[14.7634,41.0663],[14.7593,41.0652],[14.755,41.0652],[14.7494,41.0682],[14.7443,41.0743],[14.7408,41.0835],[14.7434,41.0861],[14.7439,41.0894],[14.7421,41.0984],[14.7678,41.0994],[14.77,41.0981],[14.7687,41.0919],[14.7716,41.0908],[14.7765,41.0911],[14.7786,41.0927],[14.7786,41.0942],[14.7832,41.0953],[14.7885,41.0953],[14.7888,41.0926]]]}},{"type":"Feature","properties":{"i":"062061","n":"San Lorenzello"},"geometry":{"type":"Polygon","coordinates":[[[14.5366,41.2919],[14.5344,41.2898],[14.5386,41.2886],[14.5476,41.2887],[14.551,41.29],[14.5525,41.2916],[14.5539,41.2908],[14.5556,41.2882],[14.5554,41.2853],[14.5528,41.2803],[14.5487,41.2748],[14.5498,41.2711],[14.5575,41.2664],[14.562,41.2652],[14.5695,41.265],[14.5684,41.2638],[14.5641,41.2628],[14.5615,41.2633],[14.56,41.2616],[14.5618,41.2553],[14.559,41.253],[14.5384,41.2493],[14.535,41.2454],[14.5315,41.2388],[14.5287,41.2363],[14.5266,41.2451],[14.5285,41.2467],[14.5289,41.2548],[14.5249,41.2659],[14.5156,41.2744],[14.52,41.2887],[14.5213,41.2895],[14.5219,41.2911],[14.519,41.2945],[14.5295,41.296],[14.5366,41.2919]]]}},{"type":"Feature","properties":{"i":"062062","n":"San Lorenzo Maggiore"},"geometry":{"type":"Polygon","coordinates":[[[14.6497,41.2277],[14.6451,41.2184],[14.6398,41.2194],[14.6318,41.2123],[14.6266,41.2117],[14.6214,41.2095],[14.6186,41.2102],[14.6154,41.2141],[14.6122,41.2218],[14.6107,41.223],[14.6072,41.2221],[14.6064,41.2226],[14.6067,41.2278],[14.6103,41.2414],[14.6085,41.2453],[14.6081,41.2507],[14.6089,41.2531],[14.6108,41.2522],[14.6116,41.2549],[14.6108,41.2598],[14.6074,41.2645],[14.6085,41.2713],[14.607,41.2762],[14.6153,41.2732],[14.6274,41.2657],[14.6287,41.2619],[14.6289,41.2559],[14.6326,41.2498],[14.6415,41.2461],[14.6466,41.2411],[14.6479,41.2312],[14.6497,41.2277]]]}},{"type":"Feature","properties":{"i":"062063","n":"San Lupo"},"geometry":{"type":"Polygon","coordinates":[[[14.6547,41.2843],[14.6557,41.2754],[14.6543,41.2671],[14.6554,41.26],[14.6595,41.2552],[14.6621,41.2488],[14.661,41.246],[14.6538,41.2406],[14.6497,41.2277],[14.6479,41.2312],[14.6466,41.2411],[14.6415,41.2461],[14.6326,41.2498],[14.6289,41.2559],[14.6287,41.2619],[14.6274,41.2657],[14.6153,41.2732],[14.607,41.2762],[14.6221,41.2928],[14.624,41.2954],[14.6259,41.3005],[14.63,41.2967],[14.6323,41.2919],[14.6348,41.2892],[14.6459,41.2839],[14.6481,41.2845],[14.6502,41.2861],[14.6542,41.2851],[14.6547,41.2843]]]}},{"type":"Feature","properties":{"i":"062064","n":"San Marco dei Cavoti"},"geometry":{"type":"Polygon","coordinates":[[[14.9096,41.3596],[14.9113,41.3535],[14.9153,41.3477],[14.9181,41.3456],[14.9065,41.3362],[14.8947,41.317],[14.8913,41.3095],[14.8916,41.3063],[14.8878,41.2939],[14.8881,41.2906],[14.8891,41.289],[14.8922,41.2857],[14.8961,41.2841],[14.8979,41.2818],[14.8973,41.2758],[14.8947,41.2708],[14.8868,41.2601],[14.8776,41.2631],[14.8671,41.2623],[14.8616,41.2589],[14.8578,41.2644],[14.8523,41.2783],[14.8398,41.2807],[14.8441,41.2843],[14.8443,41.287],[14.8482,41.2976],[14.8535,41.3046],[14.8564,41.3127],[14.8531,41.3148],[14.8435,41.309],[14.8332,41.3071],[14.8319,41.3078],[14.8305,41.3182],[14.8309,41.3246],[14.834,41.3272],[14.8385,41.3359],[14.8483,41.3328],[14.8515,41.3382],[14.8565,41.3443],[14.8638,41.3504],[14.853,41.3569],[14.8537,41.3576],[14.8641,41.3606],[14.8716,41.3606],[14.8725,41.364],[14.8829,41.369],[14.9009,41.3662],[14.9038,41.3647],[14.9096,41.3596]]]}},{"type":"Feature","properties":{"i":"062065","n":"San Martino Sannita"},"geometry":{"type":"Polygon","coordinates":[[[14.8458,41.0696],[14.8478,41.069],[14.8493,41.0675],[14.8487,41.0631],[14.8478,41.0612],[14.8436,41.0575],[14.8428,41.055],[14.8499,41.053],[14.8472,41.0458],[14.8327,41.0347],[14.8293,41.0351],[14.8266,41.0391],[14.8308,41.0454],[14.8312,41.0488],[14.8266,41.0571],[14.8245,41.0579],[14.8229,41.0619],[14.8178,41.0634],[14.8179,41.065],[14.8208,41.0672],[14.8218,41.0693],[14.8251,41.0709],[14.8309,41.0717],[14.8393,41.0715],[14.8425,41.0684],[14.841,41.0664],[14.8423,41.0653],[14.8445,41.0659],[14.8458,41.0696]]]}},{"type":"Feature","properties":{"i":"062066","n":"San Nazzaro"},"geometry":{"type":"Polygon","coordinates":[[[14.8719,41.0589],[14.8689,41.0577],[14.8666,41.0549],[14.8635,41.0486],[14.8598,41.0462],[14.8573,41.0456],[14.8478,41.0477],[14.8499,41.053],[14.86,41.0604],[14.8719,41.0589]]]}},{"type":"Feature","properties":{"i":"062067","n":"San Nicola Manfredi"},"geometry":{"type":"MultiPolygon","coordinates":[[[[14.8245,41.0579],[14.8266,41.0571],[14.8312,41.0488],[14.8308,41.0454],[14.8266,41.0391],[14.8293,41.0351],[14.8251,41.037],[14.8145,41.0395],[14.8106,41.0392],[14.8063,41.0408],[14.8057,41.0446],[14.8071,41.0484],[14.806,41.0588],[14.8135,41.0602],[14.8203,41.0566],[14.8221,41.0564],[14.8245,41.0579]]],[[[14.7968,41.0603],[14.7941,41.0582],[14.7926,41.0583],[14.7891,41.0597],[14.7873,41.0624],[14.7844,41.064],[14.7809,41.0652],[14.7761,41.065],[14.7809,41.0735],[14.786,41.0726],[14.7907,41.0715],[14.7957,41.0684],[14.7971,41.0649],[14.7968,41.0603]]],[[[14.8808,41.1389],[14.8809,41.1296],[14.8786,41.1237],[14.8746,41.1178],[14.8702,41.1123],[14.8594,41.1046],[14.8491,41.0937],[14.8439,41.0869],[14.8399,41.0776],[14.8458,41.0696],[14.8445,41.0659],[14.8423,41.0653],[14.8412,41.0661],[14.8425,41.0684],[14.8393,41.0715],[14.8309,41.0717],[14.8251,41.0709],[14.8218,41.0693],[14.8188,41.0652],[14.8158,41.0633],[14.8125,41.0621],[14.809,41.0623],[14.8082,41.0659],[14.8098,41.0752],[14.8128,41.078],[14.818,41.078],[14.8211,41.0805],[14.8167,41.0905],[14.8109,41.0998],[14.8118,41.1003],[14.8168,41.0956],[14.8289,41.091],[14.8331,41.097],[14.8336,41.0984],[14.8327,41.1007],[14.8349,41.1041],[14.854,41.1113],[14.8645,41.1173],[14.8663,41.1196],[14.8688,41.1269],[14.8688,41.1279],[14.8672,41.1295],[14.8687,41.1333],[14.8697,41.1344],[14.8808,41.1389]]]]}},{"type":"Feature","properties":{"i":"062068","n":"San Salvatore Telesino"},"geometry":{"type":"Polygon","coordinates":[[[14.5266,41.2451],[14.5287,41.2363],[14.5243,41.2356],[14.5221,41.2327],[14.524,41.2304],[14.5286,41.2279],[14.5318,41.2279],[14.5301,41.2243],[14.5199,41.2204],[14.5114,41.2205],[14.487,41.2086],[14.4878,41.2115],[14.4857,41.218],[14.471,41.2212],[14.4676,41.2228],[14.4702,41.2241],[14.4726,41.2269],[14.4734,41.2291],[14.4735,41.2317],[14.4711,41.2384],[14.4712,41.247],[14.4728,41.2489],[14.485,41.2551],[14.497,41.2593],[14.507,41.2546],[14.5142,41.2521],[14.5266,41.2451]]]}},{"type":"Feature","properties":{"i":"062069","n":"Santa Croce del Sannio"},"geometry":{"type":"Polygon","coordinates":[[[14.7602,41.3803],[14.7507,41.3746],[14.7419,41.3717],[14.7281,41.3688],[14.7142,41.3711],[14.7099,41.3783],[14.7087,41.3828],[14.711,41.3968],[14.7144,41.4011],[14.7173,41.4008],[14.7379,41.4077],[14.7481,41.4084],[14.7566,41.4132],[14.7585,41.4154],[14.7647,41.4174],[14.7693,41.4142],[14.7672,41.4089],[14.7574,41.3928],[14.7578,41.3883],[14.7602,41.3803]]]}},{"type":"Feature","properties":{"i":"062070","n":"Sant'Agata de' Goti"},"geometry":{"type":"Polygon","coordinates":[[[14.5741,41.11],[14.5694,41.1122],[14.5635,41.1112],[14.5542,41.1061],[14.546,41.1039],[14.5292,41.0961],[14.5233,41.0902],[14.519,41.0837],[14.5098,41.0683],[14.5029,41.0534],[14.496,41.0516],[14.4932,41.0475],[14.4921,41.0472],[14.4879,41.0478],[14.478,41.0513],[14.4773,41.0523],[14.4765,41.0554],[14.4837,41.0663],[14.4832,41.0701],[14.4803,41.0724],[14.4776,41.0729],[14.4522,41.071],[14.4457,41.0718],[14.4398,41.0711],[14.4368,41.0763],[14.4323,41.0796],[14.4327,41.0856],[14.435,41.0893],[14.437,41.0962],[14.4358,41.1023],[14.4346,41.1031],[14.4342,41.1078],[14.44,41.1182],[14.4437,41.1173],[14.4506,41.1186],[14.4639,41.119],[14.4662,41.1294],[14.4691,41.1325],[14.4798,41.1366],[14.4835,41.1355],[14.4911,41.136],[14.5013,41.1315],[14.509,41.132],[14.5113,41.1315],[14.5185,41.1288],[14.5205,41.1262],[14.5261,41.1257],[14.5367,41.1277],[14.5545,41.1395],[14.5592,41.1395],[14.5583,41.1354],[14.5592,41.1325],[14.567,41.1291],[14.5738,41.1245],[14.5757,41.1217],[14.5783,41.1151],[14.5741,41.11]]]}},{"type":"Feature","properties":{"i":"062071","n":"Sant'Angelo a Cupolo"},"geometry":{"type":"MultiPolygon","coordinates":[[[[14.7941,41.0582],[14.7957,41.0577],[14.796,41.0508],[14.7945,41.0493],[14.7915,41.0482],[14.7747,41.0546],[14.7761,41.065],[14.7809,41.0652],[14.7844,41.064],[14.7873,41.0624],[14.7891,41.0597],[14.7941,41.0582]]],[[[14.8118,41.1003],[14.8109,41.0998],[14.8167,41.0905],[14.8211,41.0805],[14.818,41.078],[14.8128,41.078],[14.8098,41.0752],[14.8083,41.0647],[14.809,41.0623],[14.8125,41.0621],[14.8158,41.0633],[14.8179,41.065],[14.8178,41.0634],[14.8229,41.0619],[14.8245,41.0579],[14.8221,41.0564],[14.8183,41.0574],[14.8135,41.0602],[14.806,41.0588],[14.7968,41.0603],[14.7971,41.0649],[14.7957,41.0684],[14.7907,41.0715],[14.7809,41.0735],[14.7812,41.0794],[14.7888,41.0926],[14.7957,41.0907],[14.8034,41.0902],[14.8038,41.092],[14.8011,41.0954],[14.8024,41.0976],[14.8091,41.1017],[14.8114,41.1018],[14.8118,41.1003]]]]}},{"type":"Feature","properties":{"i":"062072","n":"Sassinoro"},"geometry":{"type":"Polygon","coordinates":[[[14.6609,41.3932],[14.6611,41.3903],[14.668,41.3837],[14.6685,41.3798],[14.6712,41.3719],[14.6749,41.368],[14.6783,41.3663],[14.6792,41.3643],[14.6708,41.3577],[14.6667,41.3567],[14.6464,41.3602],[14.6392,41.3622],[14.6314,41.3669],[14.6146,41.3682],[14.6295,41.381],[14.6306,41.384],[14.6338,41.3874],[14.6434,41.394],[14.6512,41.3975],[14.6531,41.3977],[14.657,41.3967],[14.6609,41.3932]]]}},{"type":"Feature","properties":{"i":"062073","n":"Solopaca"},"geometry":{"type":"Polygon","coordinates":[[[14.5818,41.2105],[14.5877,41.2103],[14.5938,41.2074],[14.5974,41.2082],[14.5986,41.2012],[14.5968,41.1945],[14.594,41.1939],[14.5913,41.1911],[14.5926,41.1842],[14.5896,41.1782],[14.5776,41.1757],[14.5695,41.1727],[14.5648,41.1642],[14.5549,41.164],[14.5335,41.1687],[14.5347,41.1747],[14.5323,41.1765],[14.5206,41.1791],[14.5164,41.1781],[14.505,41.1792],[14.4973,41.1825],[14.4963,41.1838],[14.4954,41.1893],[14.4986,41.189],[14.5011,41.1896],[14.5087,41.1958],[14.51,41.198],[14.5104,41.2007],[14.5193,41.2039],[14.5295,41.2033],[14.5378,41.2086],[14.5361,41.2124],[14.5328,41.2155],[14.533,41.2174],[14.5351,41.2188],[14.5408,41.2167],[14.5515,41.2112],[14.5631,41.2131],[14.5818,41.2105]]]}},{"type":"Feature","properties":{"i":"062074","n":"Telese Terme"},"geometry":{"type":"Polygon","coordinates":[[[14.5351,41.2188],[14.533,41.2174],[14.5328,41.2155],[14.5361,41.2124],[14.5378,41.2086],[14.5295,41.2033],[14.5193,41.2039],[14.5104,41.2007],[14.51,41.198],[14.5087,41.1958],[14.5,41.1891],[14.4954,41.1893],[14.4924,41.1927],[14.4824,41.1926],[14.4815,41.1939],[14.4801,41.2028],[14.4839,41.2044],[14.487,41.2086],[14.5114,41.2205],[14.5199,41.2204],[14.5301,41.2243],[14.5328,41.2319],[14.5346,41.2309],[14.5367,41.2263],[14.5369,41.2237],[14.5351,41.2188]]]}},{"type":"Feature","properties":{"i":"062075","n":"Tocco Caudio"},"geometry":{"type":"Polygon","coordinates":[[[14.5765,41.1441],[14.5844,41.1438],[14.5961,41.1373],[14.599,41.1342],[14.6045,41.1306],[14.6077,41.1327],[14.6162,41.1346],[14.6271,41.1355],[14.6369,41.1337],[14.6391,41.1312],[14.642,41.13],[14.6435,41.1284],[14.6437,41.1193],[14.6521,41.1124],[14.6556,41.1111],[14.6568,41.1094],[14.6489,41.0994],[14.6448,41.1002],[14.62,41.0969],[14.607,41.1],[14.602,41.0994],[14.5995,41.0975],[14.5891,41.0976],[14.5817,41.0995],[14.5748,41.1046],[14.5758,41.1062],[14.5757,41.1086],[14.5741,41.11],[14.5783,41.1151],[14.5741,41.1241],[14.565,41.1304],[14.5616,41.131],[14.5592,41.1325],[14.5584,41.1343],[14.5592,41.1395],[14.5646,41.1383],[14.5664,41.1404],[14.5722,41.1442],[14.5757,41.1419],[14.5765,41.1441]]]}},{"type":"Feature","properties":{"i":"062076","n":"Torrecuso"},"geometry":{"type":"Polygon","coordinates":[[[14.7601,41.2242],[14.7569,41.2243],[14.7477,41.2214],[14.7444,41.217],[14.7435,41.2042],[14.7481,41.2018],[14.7503,41.199],[14.75,41.196],[14.7486,41.1942],[14.74,41.1921],[14.7353,41.1931],[14.7311,41.1963],[14.7249,41.1954],[14.7197,41.1909],[14.719,41.1897],[14.7237,41.187],[14.7255,41.1843],[14.7221,41.1789],[14.7209,41.1677],[14.7182,41.1648],[14.7143,41.1655],[14.7108,41.168],[14.6973,41.1722],[14.6851,41.173],[14.6723,41.1717],[14.6702,41.1752],[14.6663,41.1791],[14.6572,41.1867],[14.6459,41.1856],[14.6414,41.1866],[14.6375,41.1887],[14.6434,41.1952],[14.6454,41.2002],[14.6468,41.2009],[14.6575,41.1985],[14.663,41.1932],[14.6668,41.1906],[14.6692,41.1921],[14.6699,41.2003],[14.6696,41.2074],[14.667,41.2101],[14.673,41.2111],[14.6911,41.2114],[14.6943,41.2128],[14.7069,41.2118],[14.7107,41.2078],[14.7197,41.2088],[14.7246,41.2137],[14.7288,41.2157],[14.7316,41.2199],[14.7433,41.2253],[14.7551,41.2262],[14.7601,41.2242]]]}},{"type":"Feature","properties":{"i":"062077","n":"Vitulano"},"geometry":{"type":"Polygon","coordinates":[[[14.6266,41.2117],[14.6321,41.1997],[14.6332,41.1934],[14.6328,41.1912],[14.64,41.1872],[14.6459,41.1856],[14.6572,41.1867],[14.6702,41.1752],[14.6675,41.1716],[14.6652,41.1708],[14.6585,41.1749],[14.6577,41.172],[14.658,41.1661],[14.6591,41.1623],[14.6696,41.1426],[14.6748,41.142],[14.686,41.147],[14.6883,41.1468],[14.6895,41.1455],[14.6876,41.1367],[14.6872,41.1307],[14.6837,41.1228],[14.6802,41.1196],[14.6681,41.1209],[14.6653,41.1278],[14.6591,41.131],[14.6602,41.1335],[14.6644,41.1353],[14.669,41.1401],[14.6637,41.144],[14.6491,41.1488],[14.6569,41.1523],[14.661,41.1529],[14.661,41.1564],[14.657,41.1607],[14.6534,41.1621],[14.6496,41.1619],[14.6384,41.1572],[14.628,41.1565],[14.6219,41.162],[14.6204,41.1651],[14.6187,41.1666],[14.6114,41.167],[14.6022,41.1654],[14.59,41.1575],[14.5836,41.1557],[14.563,41.1576],[14.5648,41.1642],[14.5695,41.1727],[14.5776,41.1757],[14.5896,41.1782],[14.5926,41.1842],[14.5913,41.1911],[14.594,41.1939],[14.5963,41.194],[14.5972,41.1957],[14.5986,41.2021],[14.5974,41.2082],[14.603,41.2132],[14.6072,41.2221],[14.6107,41.223],[14.6122,41.2218],[14.6154,41.2141],[14.6186,41.2102],[14.6214,41.2095],[14.6266,41.2117]]]}},{"type":"Feature","properties":{"i":"062078","n":"Sant'Arcangelo Trimonte"},"geometry":{"type":"Polygon","coordinates":[[[14.9483,41.1881],[14.9467,41.1855],[14.9455,41.1768],[14.946,41.1735],[14.9425,41.1656],[14.9374,41.1596],[14.9363,41.1524],[14.926,41.1382],[14.9238,41.1368],[14.9194,41.1385],[14.9184,41.1403],[14.9217,41.1402],[14.9253,41.1414],[14.9302,41.1526],[14.9307,41.1556],[14.9302,41.1588],[14.9261,41.1663],[14.9238,41.1755],[14.9197,41.1839],[14.9174,41.1918],[14.9206,41.1954],[14.9272,41.1982],[14.9365,41.1992],[14.9512,41.2039],[14.9519,41.2035],[14.9483,41.1881]]]}}]}
