{"type":"FeatureCollection","fonte":"Confini comunali ISTAT via openpolis/geojson-italy — CC BY 4.0","features":[{"type":"Feature","properties":{"i":"074001","n":"Brindisi"},"geometry":{"type":"MultiPolygon","coordinates":[[[[18.0026,40.6539],[18.0024,40.6547],[18.0034,40.6552],[18.0026,40.6539]]],[[[17.9946,40.656],[17.9943,40.6552],[17.9931,40.6562],[17.9939,40.6571],[17.9946,40.656]]],[[[17.8256,40.7031],[17.824,40.7032],[17.8247,40.7039],[17.8256,40.7031]]],[[[18.0423,40.5586],[18.0384,40.5558],[18.0224,40.5501],[18.0214,40.5469],[18.0186,40.5463],[18.0116,40.5482],[18.0061,40.548],[18.0015,40.5473],[17.9935,40.5443],[17.9857,40.5369],[17.9767,40.5328],[17.9676,40.5249],[17.9592,40.5216],[17.9555,40.518],[17.9287,40.5087],[17.9103,40.5034],[17.8942,40.4969],[17.884,40.4905],[17.8799,40.4869],[17.8785,40.4783],[17.8598,40.4814],[17.8596,40.4848],[17.8539,40.4932],[17.8526,40.4968],[17.8713,40.4993],[17.8751,40.5089],[17.8767,40.5199],[17.8785,40.5214],[17.8828,40.5218],[17.8819,40.5259],[17.8706,40.5328],[17.8654,40.5378],[17.866,40.5416],[17.8627,40.5526],[17.8578,40.5561],[17.8479,40.5569],[17.8461,40.5579],[17.8455,40.5597],[17.8473,40.5613],[17.8482,40.5659],[17.8485,40.5843],[17.8461,40.5888],[17.843,40.5911],[17.8336,40.5884],[17.8236,40.5872],[17.8209,40.5889],[17.8188,40.5925],[17.8169,40.5985],[17.8056,40.601],[17.7871,40.6099],[17.7752,40.6074],[17.7695,40.6021],[17.763,40.6014],[17.7508,40.6044],[17.7496,40.6192],[17.7481,40.6232],[17.7406,40.6267],[17.7368,40.6235],[17.7339,40.6238],[17.7316,40.6263],[17.7352,40.6278],[17.748,40.6299],[17.752,40.6313],[17.7532,40.6368],[17.7497,40.6417],[17.7497,40.6437],[17.7523,40.6445],[17.7537,40.6476],[17.7659,40.6515],[17.7709,40.6606],[17.7759,40.6759],[17.7764,40.6847],[17.7788,40.7005],[17.7851,40.7021],[17.7932,40.7023],[17.7965,40.704],[17.8011,40.7083],[17.814,40.7015],[17.8316,40.694],[17.8435,40.6901],[17.8965,40.6824],[17.9258,40.6795],[17.9339,40.681],[17.9351,40.6831],[17.9332,40.6848],[17.9336,40.6858],[17.9356,40.6862],[17.942,40.682],[17.9473,40.6694],[17.9538,40.664],[17.9647,40.6629],[17.9764,40.663],[17.9677,40.657],[17.9673,40.6626],[17.9623,40.6626],[17.9603,40.6551],[17.952,40.6474],[17.9462,40.6442],[17.9308,40.6425],[17.9272,40.6398],[17.9334,40.6391],[17.9443,40.6425],[17.9477,40.6412],[17.9507,40.637],[17.9533,40.645],[17.9586,40.6453],[17.9691,40.6495],[17.9835,40.6436],[17.9877,40.645],[17.9885,40.6465],[17.9872,40.6481],[17.9908,40.6499],[17.9986,40.649],[18.0066,40.6431],[18.0141,40.6418],[18.0169,40.6397],[18.015,40.6377],[18.0139,40.6336],[18.0152,40.6273],[18.0179,40.6224],[18.0209,40.6185],[18.0312,40.6085],[18.0448,40.5976],[18.0417,40.584],[18.0353,40.5751],[18.0346,40.5715],[18.035,40.5688],[18.0374,40.564],[18.0423,40.5586]]]]}},{"type":"Feature","properties":{"i":"074002","n":"Carovigno"},"geometry":{"type":"MultiPolygon","coordinates":[[[[17.8101,40.7123],[17.8091,40.7119],[17.8093,40.7128],[17.8101,40.7123]]],[[[17.8054,40.7145],[17.806,40.7131],[17.8047,40.714],[17.8054,40.7145]]],[[[17.8011,40.7083],[17.7965,40.704],[17.7932,40.7023],[17.7851,40.7021],[17.7788,40.7005],[17.7764,40.6847],[17.7759,40.6759],[17.7743,40.6694],[17.7685,40.6551],[17.7659,40.6515],[17.7537,40.6476],[17.7523,40.6445],[17.7449,40.6618],[17.7486,40.674],[17.7517,40.6781],[17.7546,40.6793],[17.755,40.6786],[17.7608,40.6792],[17.7659,40.6842],[17.7304,40.6911],[17.7123,40.6935],[17.7065,40.6897],[17.7066,40.6818],[17.7001,40.6748],[17.6876,40.6676],[17.6776,40.664],[17.665,40.6619],[17.6613,40.6562],[17.6573,40.652],[17.6545,40.6515],[17.6485,40.6536],[17.6447,40.6539],[17.6435,40.6619],[17.6438,40.6656],[17.6376,40.667],[17.6309,40.6672],[17.6268,40.6727],[17.6295,40.675],[17.6304,40.6776],[17.6262,40.6816],[17.6241,40.6825],[17.6254,40.6868],[17.6319,40.6894],[17.6305,40.7138],[17.6331,40.7227],[17.6454,40.7269],[17.6523,40.7369],[17.6597,40.7534],[17.6627,40.7576],[17.667,40.7604],[17.6717,40.7598],[17.6769,40.7687],[17.7011,40.7597],[17.7072,40.7582],[17.7195,40.7525],[17.7258,40.748],[17.7326,40.7449],[17.7485,40.7331],[17.7747,40.7205],[17.7986,40.7147],[17.797,40.7136],[17.7971,40.7115],[17.8011,40.7083]]]]}},{"type":"Feature","properties":{"i":"074003","n":"Ceglie Messapica"},"geometry":{"type":"Polygon","coordinates":[[[17.6346,40.648],[17.6312,40.6473],[17.6252,40.6439],[17.6254,40.6414],[17.6285,40.6381],[17.6271,40.6329],[17.6223,40.6328],[17.6209,40.6339],[17.6178,40.6312],[17.6122,40.624],[17.6057,40.6077],[17.5904,40.6055],[17.5722,40.601],[17.5408,40.5965],[17.5175,40.5951],[17.5074,40.5963],[17.4717,40.6112],[17.4669,40.6135],[17.4642,40.6161],[17.4536,40.6209],[17.4386,40.624],[17.4308,40.6289],[17.427,40.6336],[17.4188,40.6776],[17.4236,40.6817],[17.4246,40.6812],[17.4257,40.6825],[17.4266,40.6846],[17.4257,40.6882],[17.4283,40.6935],[17.4306,40.6964],[17.4511,40.6964],[17.4597,40.6953],[17.4846,40.6885],[17.487,40.6891],[17.4966,40.6943],[17.5017,40.6902],[17.5045,40.686],[17.5125,40.6783],[17.5179,40.6806],[17.5278,40.6808],[17.5349,40.6781],[17.5385,40.6758],[17.5383,40.6739],[17.5392,40.6716],[17.5403,40.6699],[17.5427,40.6685],[17.5491,40.6688],[17.5723,40.6611],[17.5804,40.6501],[17.5901,40.6521],[17.5929,40.6544],[17.5993,40.656],[17.6121,40.6577],[17.6317,40.6543],[17.6346,40.648]]]}},{"type":"Feature","properties":{"i":"074004","n":"Cellino San Marco"},"geometry":{"type":"Polygon","coordinates":[[[17.991,40.465],[17.9755,40.4546],[17.9652,40.4566],[17.9555,40.4568],[17.9374,40.4663],[17.9315,40.4676],[17.9203,40.465],[17.9119,40.4652],[17.903,40.4673],[17.8926,40.4735],[17.8785,40.4783],[17.8797,40.4865],[17.8851,40.4913],[17.9008,40.5001],[17.9287,40.5087],[17.9555,40.518],[17.9595,40.5056],[17.974,40.4869],[17.9874,40.4719],[17.9902,40.4677],[17.991,40.465]]]}},{"type":"Feature","properties":{"i":"074005","n":"Cisternino"},"geometry":{"type":"Polygon","coordinates":[[[17.4762,40.7609],[17.4766,40.757],[17.4802,40.7576],[17.4843,40.7557],[17.4914,40.7501],[17.4968,40.7443],[17.4971,40.7429],[17.4932,40.738],[17.4893,40.7407],[17.484,40.7407],[17.4805,40.7397],[17.4706,40.7339],[17.4689,40.7273],[17.4724,40.7251],[17.475,40.7245],[17.4742,40.7196],[17.4554,40.7136],[17.4473,40.7154],[17.4384,40.7229],[17.4209,40.7272],[17.4124,40.7261],[17.4098,40.7228],[17.4065,40.7206],[17.4031,40.7197],[17.396,40.7279],[17.3934,40.7324],[17.3945,40.7357],[17.3937,40.7378],[17.3929,40.738],[17.387,40.7381],[17.3792,40.7354],[17.3701,40.7291],[17.366,40.7283],[17.3533,40.7314],[17.3497,40.7332],[17.3502,40.7456],[17.3509,40.7474],[17.3536,40.7486],[17.363,40.7481],[17.367,40.7496],[17.3749,40.7504],[17.3846,40.7498],[17.3915,40.7475],[17.3937,40.7485],[17.3956,40.7569],[17.3919,40.7594],[17.3873,40.771],[17.3915,40.7728],[17.3942,40.7723],[17.3977,40.7751],[17.3985,40.7767],[17.3979,40.7786],[17.4059,40.7888],[17.4066,40.7921],[17.4138,40.7959],[17.4228,40.7984],[17.4323,40.797],[17.4328,40.7953],[17.4322,40.7926],[17.4254,40.7854],[17.4366,40.7728],[17.4385,40.7672],[17.4417,40.7685],[17.4455,40.7716],[17.4487,40.7787],[17.4494,40.779],[17.4531,40.7777],[17.4564,40.7742],[17.4597,40.7692],[17.4608,40.7667],[17.4582,40.7637],[17.4607,40.7624],[17.4706,40.7604],[17.4762,40.7609]]]}},{"type":"Feature","properties":{"i":"074006","n":"Erchie"},"geometry":{"type":"Polygon","coordinates":[[[17.7835,40.4395],[17.7843,40.4258],[17.784,40.416],[17.7805,40.4028],[17.77,40.3963],[17.7504,40.3945],[17.7334,40.3915],[17.7286,40.3916],[17.7294,40.3946],[17.7187,40.4054],[17.7127,40.4082],[17.6934,40.4123],[17.6838,40.4307],[17.6821,40.4378],[17.6827,40.4441],[17.6834,40.4445],[17.6897,40.4437],[17.6995,40.4491],[17.6983,40.4519],[17.6934,40.4577],[17.6922,40.4618],[17.7045,40.4631],[17.7102,40.4569],[17.7224,40.4488],[17.727,40.4481],[17.7313,40.4495],[17.7539,40.4496],[17.7579,40.4444],[17.7662,40.4412],[17.7835,40.4395]]]}},{"type":"Feature","properties":{"i":"074007","n":"Fasano"},"geometry":{"type":"Polygon","coordinates":[[[17.515,40.8144],[17.5086,40.8058],[17.5013,40.8061],[17.4977,40.8018],[17.4925,40.7929],[17.4869,40.7878],[17.4849,40.7844],[17.4789,40.7703],[17.4762,40.7609],[17.4706,40.7604],[17.4607,40.7624],[17.4582,40.7637],[17.4608,40.7667],[17.4597,40.7692],[17.4564,40.7742],[17.4531,40.7777],[17.4494,40.779],[17.4487,40.7787],[17.4455,40.7716],[17.4417,40.7685],[17.4385,40.7672],[17.4366,40.7728],[17.4254,40.7854],[17.4322,40.7926],[17.4328,40.7953],[17.4322,40.7972],[17.4228,40.7984],[17.4138,40.7959],[17.4066,40.7921],[17.4059,40.7888],[17.3979,40.7786],[17.3998,40.7845],[17.3986,40.7857],[17.3877,40.7857],[17.3762,40.7876],[17.3649,40.7864],[17.357,40.7907],[17.3459,40.7992],[17.333,40.8068],[17.3102,40.8109],[17.2957,40.817],[17.2957,40.8179],[17.3003,40.8224],[17.3104,40.829],[17.3121,40.841],[17.3216,40.8431],[17.3391,40.8585],[17.3416,40.8617],[17.3415,40.8634],[17.3467,40.869],[17.3542,40.8745],[17.3547,40.8768],[17.3703,40.8855],[17.3892,40.8923],[17.4105,40.8741],[17.4219,40.8658],[17.4365,40.8576],[17.4509,40.8522],[17.4656,40.8439],[17.4704,40.84],[17.4682,40.8394],[17.4681,40.8369],[17.4728,40.8322],[17.515,40.8144]]]}},{"type":"Feature","properties":{"i":"074008","n":"Francavilla Fontana"},"geometry":{"type":"Polygon","coordinates":[[[17.6644,40.5713],[17.6713,40.5606],[17.6608,40.5602],[17.6602,40.5579],[17.661,40.5537],[17.6628,40.5528],[17.6651,40.5468],[17.6667,40.5399],[17.662,40.5377],[17.6588,40.5377],[17.6553,40.5466],[17.655,40.5497],[17.6546,40.5504],[17.6531,40.5501],[17.6521,40.542],[17.6554,40.5404],[17.6546,40.5356],[17.6506,40.5314],[17.6398,40.5305],[17.6389,40.5275],[17.6425,40.5196],[17.6351,40.5242],[17.6328,40.528],[17.6309,40.5294],[17.6225,40.5272],[17.6206,40.5221],[17.6241,40.5148],[17.6145,40.5079],[17.6133,40.503],[17.6152,40.5015],[17.6156,40.5],[17.6082,40.496],[17.5987,40.494],[17.5959,40.4873],[17.5833,40.4761],[17.5838,40.4602],[17.5824,40.4564],[17.5902,40.4494],[17.5773,40.4385],[17.573,40.442],[17.5654,40.443],[17.5643,40.4376],[17.561,40.4369],[17.5592,40.4375],[17.5571,40.4417],[17.554,40.4451],[17.5496,40.4465],[17.5421,40.4453],[17.5428,40.4445],[17.5468,40.4435],[17.5464,40.4384],[17.5323,40.4477],[17.5239,40.4548],[17.5199,40.4606],[17.5202,40.4681],[17.5192,40.4715],[17.5117,40.4781],[17.487,40.4822],[17.487,40.4846],[17.4849,40.491],[17.4796,40.5034],[17.472,40.5099],[17.4648,40.5221],[17.4691,40.5232],[17.488,40.5232],[17.4852,40.5297],[17.4846,40.5337],[17.5037,40.5336],[17.5045,40.5409],[17.511,40.5463],[17.5108,40.5504],[17.5086,40.5553],[17.505,40.5749],[17.5051,40.5872],[17.5078,40.5916],[17.5074,40.5963],[17.5175,40.5951],[17.5408,40.5965],[17.5722,40.601],[17.5904,40.6055],[17.6057,40.6077],[17.6061,40.6005],[17.6044,40.5934],[17.6103,40.5912],[17.6179,40.592],[17.6268,40.5809],[17.6281,40.5744],[17.6469,40.5695],[17.6644,40.5713]]]}},{"type":"Feature","properties":{"i":"074009","n":"Latiano"},"geometry":{"type":"Polygon","coordinates":[[[17.7508,40.6044],[17.763,40.6014],[17.7551,40.5907],[17.7504,40.5892],[17.7472,40.5864],[17.7424,40.5775],[17.7408,40.5701],[17.7462,40.5627],[17.7507,40.5586],[17.734,40.5582],[17.7305,40.5564],[17.7361,40.5457],[17.7291,40.5408],[17.7084,40.5336],[17.678,40.5194],[17.6749,40.5213],[17.6699,40.5265],[17.6696,40.5319],[17.671,40.5387],[17.6737,40.5439],[17.6743,40.5515],[17.6713,40.5606],[17.6644,40.5713],[17.6671,40.5726],[17.6744,40.5794],[17.6755,40.5838],[17.6708,40.5897],[17.6753,40.6002],[17.6733,40.6006],[17.6719,40.6081],[17.6772,40.6172],[17.678,40.6238],[17.6791,40.6268],[17.6932,40.6229],[17.7044,40.6169],[17.7112,40.6065],[17.7133,40.6009],[17.7146,40.6],[17.7342,40.601],[17.7361,40.6018],[17.7369,40.6036],[17.7444,40.6055],[17.7508,40.6044]]]}},{"type":"Feature","properties":{"i":"074010","n":"Mesagne"},"geometry":{"type":"Polygon","coordinates":[[[17.8598,40.4814],[17.8541,40.4832],[17.8511,40.4822],[17.8479,40.4756],[17.8472,40.4717],[17.8344,40.4732],[17.8252,40.477],[17.817,40.4771],[17.8156,40.4733],[17.8081,40.4681],[17.8083,40.4606],[17.8064,40.4566],[17.793,40.464],[17.7899,40.4702],[17.7807,40.469],[17.78,40.474],[17.7804,40.4808],[17.7786,40.4931],[17.7819,40.5061],[17.7871,40.5153],[17.7876,40.5218],[17.7831,40.5287],[17.7796,40.5299],[17.7721,40.5306],[17.7707,40.53],[17.7688,40.527],[17.7687,40.5241],[17.7555,40.5197],[17.7521,40.5195],[17.7497,40.5197],[17.7496,40.5232],[17.7461,40.5305],[17.7265,40.5316],[17.7225,40.5386],[17.7291,40.5408],[17.7361,40.5457],[17.7305,40.5564],[17.734,40.5582],[17.7507,40.5586],[17.7462,40.5627],[17.7408,40.5701],[17.7424,40.5775],[17.7472,40.5864],[17.7504,40.5892],[17.7551,40.5907],[17.763,40.6014],[17.77,40.6022],[17.7752,40.6074],[17.7871,40.6099],[17.8056,40.601],[17.8169,40.5985],[17.8188,40.5925],[17.8209,40.5889],[17.8236,40.5872],[17.8336,40.5884],[17.843,40.5911],[17.8461,40.5888],[17.8485,40.5843],[17.8482,40.5659],[17.8473,40.5613],[17.8455,40.5597],[17.8461,40.5579],[17.8479,40.5569],[17.8578,40.5561],[17.8627,40.5526],[17.866,40.5416],[17.8654,40.5378],[17.8706,40.5328],[17.8819,40.5259],[17.8828,40.5218],[17.8785,40.5214],[17.8767,40.5199],[17.8751,40.5089],[17.8713,40.4993],[17.8526,40.4968],[17.8539,40.4932],[17.8596,40.4848],[17.8598,40.4814]]]}},{"type":"Feature","properties":{"i":"074011","n":"Oria"},"geometry":{"type":"Polygon","coordinates":[[[17.7225,40.5386],[17.7265,40.5316],[17.7258,40.528],[17.7228,40.527],[17.7126,40.526],[17.7115,40.5208],[17.7131,40.5137],[17.7204,40.5137],[17.7271,40.5103],[17.7302,40.5014],[17.7298,40.4954],[17.7156,40.4936],[17.7122,40.4906],[17.71,40.4823],[17.7019,40.4765],[17.7011,40.4749],[17.6992,40.4675],[17.7045,40.4631],[17.6922,40.4618],[17.6934,40.4577],[17.6983,40.4519],[17.6995,40.4491],[17.6897,40.4437],[17.6834,40.4445],[17.6827,40.4441],[17.6826,40.4408],[17.6768,40.4422],[17.676,40.4413],[17.6764,40.4397],[17.6741,40.4391],[17.6699,40.4407],[17.6521,40.4511],[17.6466,40.451],[17.6379,40.4533],[17.6384,40.4571],[17.6351,40.4599],[17.6271,40.4619],[17.6018,40.4623],[17.5976,40.4599],[17.5838,40.4602],[17.5833,40.4761],[17.5959,40.4873],[17.5987,40.494],[17.6082,40.496],[17.6156,40.5],[17.6152,40.5015],[17.6133,40.503],[17.6145,40.5079],[17.6241,40.5148],[17.6206,40.5221],[17.6225,40.5272],[17.6309,40.5294],[17.6328,40.528],[17.6351,40.5242],[17.6425,40.5196],[17.6389,40.5275],[17.6398,40.5305],[17.6506,40.5314],[17.6546,40.5356],[17.6554,40.5404],[17.6521,40.542],[17.6531,40.5501],[17.6546,40.5504],[17.655,40.5497],[17.6553,40.5466],[17.6588,40.5377],[17.662,40.5377],[17.6667,40.5399],[17.6628,40.5528],[17.661,40.5537],[17.6602,40.5579],[17.6608,40.5602],[17.6713,40.5606],[17.6723,40.5582],[17.6743,40.5515],[17.674,40.5453],[17.671,40.5387],[17.6697,40.5339],[17.6699,40.5265],[17.6749,40.5213],[17.678,40.5194],[17.7084,40.5336],[17.7225,40.5386]]]}},{"type":"Feature","properties":{"i":"074012","n":"Ostuni"},"geometry":{"type":"Polygon","coordinates":[[[17.6769,40.7687],[17.6717,40.7598],[17.667,40.7604],[17.6627,40.7576],[17.6597,40.7534],[17.6523,40.7369],[17.6454,40.7269],[17.6331,40.7227],[17.6305,40.7138],[17.6319,40.6894],[17.6254,40.6868],[17.6241,40.6825],[17.6262,40.6816],[17.6304,40.6776],[17.6295,40.675],[17.6268,40.6727],[17.6309,40.6672],[17.6376,40.667],[17.6438,40.6656],[17.6435,40.6619],[17.6447,40.6539],[17.6515,40.6528],[17.6507,40.6505],[17.6532,40.6452],[17.6573,40.6459],[17.6577,40.6481],[17.6608,40.6476],[17.662,40.6434],[17.6563,40.6421],[17.6545,40.6421],[17.6538,40.644],[17.6463,40.6448],[17.6346,40.648],[17.6317,40.6543],[17.6133,40.6576],[17.5993,40.656],[17.5929,40.6544],[17.5901,40.6521],[17.5804,40.6501],[17.5723,40.6611],[17.5491,40.6688],[17.5427,40.6685],[17.5403,40.6699],[17.5392,40.6716],[17.5383,40.6739],[17.5385,40.6758],[17.5349,40.6781],[17.5278,40.6808],[17.5179,40.6806],[17.5125,40.6783],[17.5045,40.686],[17.5017,40.6902],[17.4966,40.6943],[17.487,40.6891],[17.4846,40.6885],[17.4597,40.6953],[17.4511,40.6964],[17.4306,40.6964],[17.4279,40.6929],[17.4257,40.6879],[17.4243,40.6889],[17.422,40.689],[17.414,40.6843],[17.4045,40.6885],[17.3968,40.695],[17.3916,40.7065],[17.3899,40.7171],[17.3869,40.721],[17.3799,40.7237],[17.3746,40.7229],[17.366,40.7283],[17.3701,40.7291],[17.3792,40.7354],[17.387,40.7381],[17.3929,40.738],[17.3937,40.7378],[17.3945,40.7357],[17.3934,40.7324],[17.396,40.7279],[17.4031,40.7197],[17.4065,40.7206],[17.4098,40.7228],[17.4124,40.7261],[17.4209,40.7272],[17.4384,40.7229],[17.4473,40.7154],[17.4547,40.7136],[17.4641,40.716],[17.4742,40.7196],[17.475,40.7245],[17.4724,40.7251],[17.4689,40.7273],[17.4706,40.7339],[17.4805,40.7397],[17.484,40.7407],[17.4893,40.7407],[17.4932,40.738],[17.4972,40.7436],[17.491,40.7504],[17.4843,40.7557],[17.4802,40.7576],[17.4785,40.7569],[17.4762,40.7574],[17.4762,40.7609],[17.4777,40.7669],[17.4849,40.7844],[17.4869,40.7878],[17.4925,40.7929],[17.4954,40.7987],[17.5013,40.8061],[17.5086,40.8058],[17.515,40.8144],[17.5454,40.8041],[17.5524,40.8004],[17.5571,40.7988],[17.5608,40.7978],[17.5659,40.7977],[17.6014,40.7871],[17.6226,40.7832],[17.6692,40.77],[17.6769,40.7687]]]}},{"type":"Feature","properties":{"i":"074013","n":"San Donaci"},"geometry":{"type":"Polygon","coordinates":[[[17.8598,40.4814],[17.8738,40.4793],[17.8855,40.4764],[17.8934,40.4731],[17.9002,40.4684],[17.9119,40.4652],[17.9203,40.465],[17.9303,40.4677],[17.9374,40.4663],[17.9533,40.4576],[17.9471,40.451],[17.9388,40.4388],[17.9356,40.4289],[17.9261,40.4264],[17.9069,40.4251],[17.8945,40.4233],[17.8917,40.4263],[17.8848,40.4262],[17.8831,40.4337],[17.8831,40.4373],[17.8798,40.4419],[17.8732,40.4487],[17.8702,40.4566],[17.8572,40.4543],[17.8461,40.462],[17.8381,40.4726],[17.8472,40.4717],[17.8479,40.4756],[17.8511,40.4822],[17.8525,40.4831],[17.8598,40.4814]]]}},{"type":"Feature","properties":{"i":"074014","n":"San Michele Salentino"},"geometry":{"type":"Polygon","coordinates":[[[17.6463,40.6448],[17.6482,40.6344],[17.6554,40.6334],[17.6592,40.6233],[17.6573,40.6183],[17.6499,40.613],[17.6394,40.5999],[17.6341,40.5916],[17.6395,40.5883],[17.6457,40.5875],[17.6537,40.5897],[17.6629,40.5907],[17.6708,40.5897],[17.6755,40.5838],[17.6744,40.5794],[17.6671,40.5726],[17.6644,40.5713],[17.6469,40.5695],[17.6281,40.5744],[17.6268,40.5809],[17.6179,40.592],[17.6103,40.5912],[17.6044,40.5934],[17.6061,40.6005],[17.6057,40.6077],[17.6128,40.625],[17.6209,40.6339],[17.6223,40.6328],[17.6271,40.6329],[17.6285,40.6381],[17.6254,40.6414],[17.6252,40.6439],[17.6312,40.6473],[17.6339,40.648],[17.6463,40.6448]]]}},{"type":"Feature","properties":{"i":"074015","n":"San Pancrazio Salentino"},"geometry":{"type":"Polygon","coordinates":[[[17.8381,40.4726],[17.8461,40.462],[17.8572,40.4543],[17.8702,40.4566],[17.8732,40.4487],[17.8798,40.4419],[17.8831,40.4373],[17.8831,40.4337],[17.8848,40.4262],[17.8917,40.4263],[17.8945,40.4233],[17.8864,40.4227],[17.879,40.4164],[17.8648,40.4156],[17.8465,40.4087],[17.8225,40.4034],[17.8213,40.3968],[17.8197,40.3946],[17.8121,40.3913],[17.8046,40.3851],[17.8037,40.3808],[17.7983,40.3796],[17.7977,40.3846],[17.7929,40.3899],[17.7906,40.3911],[17.7776,40.3882],[17.7714,40.3931],[17.7715,40.397],[17.7796,40.4021],[17.7815,40.4048],[17.7842,40.4193],[17.7835,40.4395],[17.7881,40.4398],[17.7935,40.4414],[17.7961,40.4454],[17.7928,40.4527],[17.7902,40.4531],[17.789,40.4555],[17.793,40.464],[17.8064,40.4566],[17.8083,40.4606],[17.8081,40.4681],[17.8156,40.4733],[17.8167,40.4769],[17.8252,40.477],[17.8328,40.4736],[17.8381,40.4726]]]}},{"type":"Feature","properties":{"i":"074016","n":"San Pietro Vernotico"},"geometry":{"type":"Polygon","coordinates":[[[18.0723,40.5399],[18.0584,40.5315],[18.053,40.5269],[18.0443,40.5231],[18.0297,40.5218],[18.0208,40.5237],[18.0193,40.5276],[18.0179,40.5283],[18.0156,40.5279],[18.0137,40.5232],[18.0152,40.5193],[18.0127,40.5132],[18.0107,40.5128],[18.0097,40.5106],[18.0142,40.4991],[18.02,40.4889],[18.0292,40.4854],[18.0313,40.4817],[18.0266,40.4774],[18.0279,40.4717],[18.0266,40.4686],[18.0194,40.4638],[18.0149,40.4645],[18.0119,40.4666],[18.0031,40.4687],[17.9935,40.4677],[17.991,40.465],[17.9902,40.4677],[17.9874,40.4719],[17.974,40.4869],[17.9595,40.5056],[17.9555,40.518],[17.9592,40.5216],[17.9676,40.5249],[17.9767,40.5328],[17.9857,40.5369],[17.9935,40.5443],[18.0015,40.5473],[18.0061,40.548],[18.0116,40.5482],[18.0186,40.5463],[18.0214,40.5469],[18.0224,40.5501],[18.0384,40.5558],[18.0423,40.5586],[18.055,40.5486],[18.0639,40.5432],[18.0723,40.5399]]]}},{"type":"Feature","properties":{"i":"074017","n":"San Vito dei Normanni"},"geometry":{"type":"Polygon","coordinates":[[[17.7523,40.6445],[17.7497,40.6437],[17.7497,40.6417],[17.7532,40.6368],[17.752,40.6313],[17.748,40.6299],[17.7352,40.6278],[17.7316,40.6263],[17.7339,40.6238],[17.7368,40.6235],[17.7406,40.6267],[17.7481,40.6232],[17.7496,40.6192],[17.7508,40.6044],[17.7444,40.6055],[17.7369,40.6036],[17.7361,40.6018],[17.7342,40.601],[17.7146,40.6],[17.7133,40.6009],[17.7112,40.6065],[17.7044,40.6169],[17.6932,40.6229],[17.6791,40.6268],[17.678,40.6238],[17.6772,40.6172],[17.6719,40.6081],[17.6733,40.6006],[17.6753,40.6002],[17.6708,40.5897],[17.6629,40.5907],[17.6537,40.5897],[17.6457,40.5875],[17.6395,40.5883],[17.6341,40.5916],[17.6394,40.5999],[17.6499,40.613],[17.6573,40.6183],[17.6592,40.6233],[17.6554,40.6334],[17.6482,40.6344],[17.6463,40.6448],[17.6538,40.644],[17.6545,40.6421],[17.662,40.6434],[17.6608,40.6476],[17.6598,40.6479],[17.6577,40.6481],[17.6573,40.6459],[17.6532,40.6452],[17.6507,40.6505],[17.6514,40.6521],[17.6545,40.6515],[17.6573,40.652],[17.6613,40.6562],[17.665,40.6619],[17.6776,40.664],[17.6876,40.6676],[17.7001,40.6748],[17.7066,40.6818],[17.7065,40.6897],[17.7123,40.6935],[17.7304,40.6911],[17.7659,40.6842],[17.7608,40.6792],[17.755,40.6786],[17.7546,40.6793],[17.7517,40.6781],[17.7486,40.674],[17.7449,40.6618],[17.7523,40.6445]]]}},{"type":"Feature","properties":{"i":"074018","n":"Torchiarolo"},"geometry":{"type":"Polygon","coordinates":[[[18.0974,40.5154],[18.0921,40.5125],[18.0909,40.5088],[18.084,40.4999],[18.0798,40.4921],[18.0727,40.4868],[18.0802,40.4915],[18.0835,40.4885],[18.081,40.4871],[18.0743,40.4763],[18.0729,40.4767],[18.0725,40.4777],[18.0707,40.4879],[18.0589,40.4796],[18.0625,40.4778],[18.0655,40.4771],[18.0694,40.4779],[18.0742,40.4759],[18.0721,40.4712],[18.0753,40.4645],[18.0691,40.4604],[18.0597,40.4668],[18.0614,40.47],[18.0566,40.4771],[18.0495,40.4741],[18.0429,40.486],[18.0401,40.4878],[18.0313,40.4817],[18.0292,40.4854],[18.02,40.4889],[18.0142,40.4991],[18.0097,40.5106],[18.0107,40.5128],[18.0127,40.5132],[18.0152,40.5193],[18.0137,40.5232],[18.0156,40.5279],[18.0179,40.5283],[18.0193,40.5276],[18.0208,40.5237],[18.0297,40.5218],[18.0443,40.5231],[18.053,40.5269],[18.0584,40.5315],[18.0723,40.5399],[18.0743,40.539],[18.076,40.537],[18.0788,40.5277],[18.0798,40.5263],[18.0867,40.5212],[18.0974,40.5154]]]}},{"type":"Feature","properties":{"i":"074019","n":"Torre Santa Susanna"},"geometry":{"type":"Polygon","coordinates":[[[17.793,40.464],[17.789,40.4555],[17.7902,40.4531],[17.7928,40.4527],[17.7961,40.4454],[17.7935,40.4414],[17.7865,40.4396],[17.7662,40.4412],[17.7579,40.4444],[17.7539,40.4496],[17.7313,40.4495],[17.727,40.4481],[17.7224,40.4488],[17.7102,40.4569],[17.6992,40.4675],[17.7013,40.4756],[17.71,40.4823],[17.7122,40.4906],[17.7156,40.4936],[17.7298,40.4954],[17.7302,40.5014],[17.7271,40.5103],[17.7204,40.5137],[17.7131,40.5137],[17.7115,40.5208],[17.7126,40.526],[17.7252,40.5274],[17.7265,40.5296],[17.7265,40.5316],[17.7461,40.5305],[17.7496,40.5232],[17.7497,40.5197],[17.7531,40.5196],[17.7577,40.5204],[17.7687,40.5241],[17.7688,40.527],[17.7707,40.53],[17.7721,40.5306],[17.7796,40.5299],[17.7831,40.5287],[17.7876,40.5218],[17.7871,40.5153],[17.7819,40.5061],[17.7786,40.4931],[17.7804,40.4808],[17.78,40.474],[17.7807,40.469],[17.7899,40.4702],[17.793,40.464]]]}},{"type":"Feature","properties":{"i":"074020","n":"Villa Castelli"},"geometry":{"type":"Polygon","coordinates":[[[17.5074,40.5963],[17.5078,40.5916],[17.5051,40.5872],[17.505,40.5749],[17.5086,40.5553],[17.5108,40.5504],[17.511,40.5463],[17.5045,40.5409],[17.5037,40.5336],[17.4846,40.5337],[17.4852,40.5297],[17.488,40.5232],[17.4691,40.5232],[17.4648,40.5221],[17.4609,40.5334],[17.4522,40.5426],[17.4483,40.5549],[17.4575,40.581],[17.4645,40.5902],[17.4733,40.5958],[17.4747,40.6002],[17.4734,40.6106],[17.5074,40.5963]]]}}]}
