{"type":"FeatureCollection","fonte":"Confini comunali ISTAT via openpolis/geojson-italy — CC BY 4.0","features":[{"type":"Feature","properties":{"i":"110001","n":"Andria"},"geometry":{"type":"Polygon","coordinates":[[[16.3269,41.2693],[16.3287,41.2691],[16.3334,41.266],[16.3335,41.2628],[16.3382,41.2539],[16.3429,41.2498],[16.3457,41.2487],[16.3456,41.2469],[16.3428,41.2435],[16.3405,41.2419],[16.3384,41.2429],[16.3374,41.2407],[16.3388,41.2372],[16.3417,41.2352],[16.3476,41.2332],[16.3494,41.23],[16.3458,41.2293],[16.3403,41.2263],[16.3396,41.224],[16.3408,41.2203],[16.3461,41.2125],[16.3496,41.209],[16.3552,41.2072],[16.3634,41.1979],[16.3519,41.1897],[16.3502,41.1797],[16.3442,41.1746],[16.34,41.1665],[16.3417,41.1564],[16.3377,41.1514],[16.3404,41.143],[16.3466,41.1391],[16.3517,41.1347],[16.3473,41.1253],[16.3437,41.1215],[16.3228,41.1068],[16.313,41.0902],[16.3075,41.0874],[16.2987,41.0845],[16.3,41.0792],[16.2991,41.0741],[16.2787,41.054],[16.2652,41.0373],[16.2632,41.0332],[16.2675,41.0288],[16.2666,41.0239],[16.2567,41.0175],[16.254,41.0148],[16.2417,41.0193],[16.234,41.0186],[16.2222,41.0201],[16.217,41.0227],[16.2101,41.0228],[16.2062,41.015],[16.1971,41.0102],[16.1916,41.0088],[16.1885,41.0116],[16.1845,41.0233],[16.1811,41.0272],[16.1836,41.0344],[16.1882,41.0422],[16.2089,41.0624],[16.209,41.0633],[16.2065,41.066],[16.2004,41.0657],[16.1915,41.0667],[16.1827,41.0722],[16.1757,41.0816],[16.1698,41.0829],[16.1579,41.0904],[16.1601,41.0943],[16.1637,41.1051],[16.1645,41.1093],[16.1639,41.1117],[16.1396,41.1242],[16.1335,41.131],[16.1124,41.1433],[16.0956,41.1559],[16.0912,41.1606],[16.0869,41.1674],[16.0848,41.1712],[16.0841,41.1751],[16.1003,41.1836],[16.1127,41.1958],[16.1214,41.2076],[16.1267,41.2173],[16.1256,41.223],[16.1294,41.2303],[16.1447,41.2319],[16.157,41.2304],[16.1768,41.2297],[16.1814,41.2381],[16.1846,41.2481],[16.1884,41.2526],[16.1942,41.2533],[16.1962,41.2544],[16.2055,41.2612],[16.2109,41.2669],[16.2167,41.2715],[16.2311,41.2655],[16.2458,41.2628],[16.2576,41.2657],[16.2604,41.2684],[16.266,41.2689],[16.2742,41.2677],[16.2751,41.2667],[16.2751,41.2637],[16.2727,41.2629],[16.2705,41.2639],[16.2758,41.2598],[16.2856,41.2575],[16.2896,41.2578],[16.2879,41.2601],[16.2868,41.2599],[16.2856,41.2632],[16.2891,41.2658],[16.2919,41.2658],[16.2977,41.2616],[16.3001,41.2582],[16.3034,41.2567],[16.3088,41.2573],[16.3081,41.2578],[16.3146,41.2653],[16.3211,41.2697],[16.3252,41.2712],[16.3269,41.2693]]]}},{"type":"Feature","properties":{"i":"110002","n":"Barletta"},"geometry":{"type":"Polygon","coordinates":[[[16.3548,41.3058],[16.3428,41.2945],[16.34,41.2891],[16.3367,41.2856],[16.3309,41.2812],[16.3277,41.2758],[16.3303,41.2734],[16.3304,41.2726],[16.3289,41.2709],[16.3269,41.2693],[16.3252,41.2712],[16.3211,41.2697],[16.3146,41.2653],[16.3081,41.2578],[16.3088,41.2573],[16.3034,41.2567],[16.3001,41.2582],[16.2977,41.2616],[16.2919,41.2658],[16.2891,41.2658],[16.2856,41.2632],[16.2868,41.2599],[16.2879,41.2601],[16.2896,41.2578],[16.2856,41.2575],[16.2758,41.2598],[16.2705,41.2639],[16.2727,41.2629],[16.2751,41.2637],[16.2751,41.2667],[16.2742,41.2677],[16.266,41.2689],[16.2604,41.2684],[16.2576,41.2657],[16.2458,41.2628],[16.2311,41.2655],[16.2167,41.2715],[16.2109,41.2669],[16.2055,41.2612],[16.1962,41.2544],[16.1942,41.2533],[16.1884,41.2526],[16.1846,41.2481],[16.1814,41.2381],[16.1778,41.2307],[16.1762,41.2296],[16.157,41.2304],[16.1447,41.2319],[16.1433,41.2348],[16.132,41.2351],[16.1242,41.2369],[16.1182,41.2424],[16.1147,41.252],[16.1065,41.2604],[16.1,41.2708],[16.0939,41.2763],[16.0772,41.2712],[16.067,41.2751],[16.0693,41.2769],[16.0729,41.2767],[16.0734,41.2761],[16.0797,41.2801],[16.08,41.2841],[16.0844,41.2831],[16.1123,41.2855],[16.1174,41.288],[16.1189,41.2905],[16.1266,41.2928],[16.1258,41.2905],[16.1266,41.288],[16.1323,41.2898],[16.1332,41.2929],[16.1317,41.2962],[16.1318,41.2989],[16.1363,41.3012],[16.1399,41.298],[16.1482,41.301],[16.1473,41.3051],[16.1485,41.3093],[16.1583,41.3128],[16.1645,41.3142],[16.1697,41.3136],[16.1761,41.3161],[16.1766,41.3176],[16.176,41.3191],[16.1744,41.3198],[16.1717,41.3194],[16.169,41.3239],[16.1748,41.3283],[16.1814,41.3279],[16.1911,41.3258],[16.195,41.331],[16.1955,41.335],[16.1968,41.3366],[16.1992,41.3361],[16.2007,41.3323],[16.2029,41.3321],[16.2068,41.3336],[16.2081,41.3351],[16.2079,41.3373],[16.2062,41.3399],[16.2043,41.3547],[16.2023,41.3598],[16.2126,41.357],[16.2432,41.3374],[16.2632,41.3283],[16.2768,41.3244],[16.2806,41.3241],[16.2845,41.3253],[16.291,41.3219],[16.2976,41.3215],[16.3079,41.3175],[16.3277,41.3125],[16.34,41.3106],[16.3548,41.3058]]]}},{"type":"Feature","properties":{"i":"110003","n":"Bisceglie"},"geometry":{"type":"Polygon","coordinates":[[[16.5423,41.2295],[16.5393,41.2226],[16.5387,41.2201],[16.5395,41.2173],[16.5377,41.2124],[16.5338,41.2074],[16.5303,41.2049],[16.5173,41.1923],[16.5109,41.183],[16.5142,41.1748],[16.517,41.1725],[16.5081,41.1594],[16.5038,41.1513],[16.4827,41.1536],[16.4748,41.1524],[16.4724,41.1494],[16.4705,41.1489],[16.4656,41.1564],[16.4637,41.1636],[16.4599,41.1704],[16.4565,41.1739],[16.4434,41.1798],[16.4363,41.1882],[16.4288,41.1903],[16.431,41.1966],[16.4357,41.2054],[16.431,41.2126],[16.429,41.219],[16.4338,41.2217],[16.4372,41.2212],[16.4434,41.2186],[16.4421,41.2153],[16.4393,41.216],[16.4371,41.2133],[16.4341,41.2088],[16.4354,41.2078],[16.4377,41.2068],[16.4438,41.2111],[16.4468,41.2149],[16.446,41.216],[16.4558,41.2266],[16.4502,41.234],[16.4568,41.243],[16.4659,41.2527],[16.4676,41.2558],[16.4732,41.2551],[16.4777,41.2557],[16.4853,41.2512],[16.497,41.2496],[16.5015,41.2482],[16.505,41.247],[16.5054,41.2435],[16.5166,41.2435],[16.5252,41.2413],[16.5312,41.239],[16.5423,41.2295]]]}},{"type":"Feature","properties":{"i":"110004","n":"Canosa di Puglia"},"geometry":{"type":"Polygon","coordinates":[[[16.1447,41.2319],[16.1294,41.2303],[16.1256,41.223],[16.1267,41.2173],[16.1214,41.2076],[16.1127,41.1958],[16.1003,41.1836],[16.0771,41.172],[16.0758,41.1706],[16.0696,41.1686],[16.0499,41.163],[16.0316,41.1637],[16.0119,41.158],[16.0022,41.1535],[15.9953,41.1489],[15.981,41.1481],[15.9788,41.1404],[15.9461,41.1195],[15.9318,41.109],[15.9214,41.1115],[15.9008,41.1264],[15.8944,41.1233],[15.8777,41.1377],[15.8749,41.1368],[15.8703,41.1399],[15.8733,41.1437],[15.8838,41.1508],[15.8929,41.154],[15.9035,41.1628],[15.9105,41.1661],[15.9134,41.1685],[15.9176,41.1741],[15.9271,41.1808],[15.932,41.183],[15.9429,41.1841],[15.9505,41.1834],[15.9624,41.1863],[15.9686,41.1894],[15.977,41.1914],[15.9816,41.1949],[15.9883,41.1967],[15.9916,41.1954],[15.9965,41.1994],[15.9954,41.206],[16.0046,41.2095],[16.008,41.2089],[16.0129,41.2118],[16.0204,41.2205],[16.0198,41.2294],[16.0228,41.2351],[16.0283,41.238],[16.0326,41.2382],[16.0402,41.2406],[16.0498,41.2466],[16.0604,41.2561],[16.0586,41.26],[16.0572,41.2675],[16.067,41.2751],[16.0772,41.2712],[16.0939,41.2763],[16.1,41.2708],[16.1065,41.2604],[16.1147,41.252],[16.1182,41.2424],[16.1242,41.2369],[16.132,41.2351],[16.1433,41.2348],[16.1447,41.2319]]]}},{"type":"Feature","properties":{"i":"110005","n":"Margherita di Savoia"},"geometry":{"type":"Polygon","coordinates":[[[16.2023,41.3598],[16.2043,41.3547],[16.2062,41.3399],[16.2075,41.3383],[16.2081,41.3355],[16.2068,41.3336],[16.2037,41.3323],[16.2007,41.3323],[16.1998,41.3366],[16.1974,41.3375],[16.1862,41.3378],[16.1696,41.3401],[16.156,41.3433],[16.1547,41.346],[16.1547,41.348],[16.1445,41.36],[16.1261,41.372],[16.1132,41.3751],[16.0971,41.3819],[16.0915,41.3771],[16.0584,41.3936],[16.0248,41.4214],[16.0248,41.4258],[16.0501,41.4181],[16.1293,41.3866],[16.1336,41.3862],[16.1351,41.3876],[16.1512,41.3781],[16.1713,41.3686],[16.1959,41.361],[16.2023,41.3598]]]}},{"type":"Feature","properties":{"i":"110006","n":"Minervino Murge"},"geometry":{"type":"Polygon","coordinates":[[[16.1855,41.0188],[16.1503,41.0027],[16.147,41.0004],[16.1453,40.9966],[16.1316,40.9919],[16.1165,40.9899],[16.1134,40.986],[16.1083,40.9825],[16.1064,40.9823],[16.104,40.9832],[16.0961,40.9897],[16.0646,41.0022],[16.048,41.0132],[16.0436,41.0199],[16.0417,41.0244],[16.0399,41.0341],[16.0348,41.0411],[16.0269,41.0479],[16.0094,41.0572],[15.9987,41.0548],[15.9823,41.0774],[15.9802,41.0816],[15.9822,41.0828],[15.9836,41.0854],[15.983,41.0887],[15.9763,41.0942],[15.9582,41.0928],[15.9541,41.0931],[15.9584,41.0971],[15.96,41.1001],[15.9585,41.1037],[15.9541,41.1094],[15.9522,41.1106],[15.9375,41.1136],[15.9788,41.1404],[15.981,41.1481],[15.9953,41.1489],[16.0022,41.1535],[16.0119,41.158],[16.0316,41.1637],[16.0499,41.163],[16.0758,41.1706],[16.0771,41.172],[16.0841,41.1751],[16.0848,41.1712],[16.0869,41.1674],[16.0912,41.1606],[16.0956,41.1559],[16.1124,41.1433],[16.1335,41.131],[16.1396,41.1242],[16.1639,41.1117],[16.1645,41.1093],[16.1637,41.1051],[16.1601,41.0943],[16.1579,41.0904],[16.1698,41.0829],[16.1757,41.0816],[16.1827,41.0722],[16.1915,41.0667],[16.2004,41.0657],[16.2065,41.066],[16.209,41.0633],[16.2089,41.0624],[16.1882,41.0422],[16.1836,41.0344],[16.1811,41.0272],[16.1845,41.0233],[16.1855,41.0188]]]}},{"type":"Feature","properties":{"i":"110007","n":"San Ferdinando di Puglia"},"geometry":{"type":"Polygon","coordinates":[[[16.08,41.2841],[16.0797,41.2801],[16.0734,41.2761],[16.0729,41.2767],[16.0693,41.2769],[16.0572,41.2675],[16.0586,41.26],[16.0604,41.2561],[16.0498,41.2466],[16.0402,41.2406],[16.0326,41.2382],[16.0283,41.238],[16.0228,41.2351],[16.0198,41.2294],[16.0166,41.2302],[16.0176,41.2394],[16.022,41.2426],[16.027,41.2483],[16.0402,41.2699],[16.0306,41.2681],[16.0224,41.264],[16.0125,41.2643],[16.0089,41.269],[16.008,41.2736],[15.9947,41.2934],[15.991,41.297],[15.9876,41.3046],[16.0017,41.3026],[16.0109,41.3031],[16.0328,41.3081],[16.0311,41.314],[16.0372,41.3179],[16.0487,41.3223],[16.0784,41.3205],[16.0873,41.3175],[16.0808,41.2993],[16.0761,41.2904],[16.078,41.2858],[16.08,41.2841]]]}},{"type":"Feature","properties":{"i":"110008","n":"Spinazzola"},"geometry":{"type":"Polygon","coordinates":[[[16.254,41.0148],[16.2574,41.0106],[16.2664,41.0053],[16.2519,40.9622],[16.2331,40.9519],[16.2261,40.946],[16.2102,40.9301],[16.2025,40.9175],[16.1806,40.9232],[16.1697,40.9275],[16.163,40.9286],[16.1619,40.9282],[16.1603,40.9254],[16.1556,40.9227],[16.1487,40.9235],[16.1445,40.9224],[16.1381,40.9184],[16.1351,40.914],[16.135,40.9076],[16.1343,40.9066],[16.1286,40.9031],[16.1232,40.9016],[16.1213,40.8992],[16.1211,40.8977],[16.1179,40.901],[16.1057,40.9098],[16.0994,40.9169],[16.0919,40.921],[16.0802,40.9247],[16.0711,40.926],[16.0618,40.9285],[16.049,40.9354],[16.0261,40.9435],[16.0186,40.9446],[16.0051,40.9496],[15.9832,40.9545],[15.9766,40.9585],[15.9718,40.9721],[15.9809,40.9702],[15.9934,40.97],[16.0029,40.9702],[16.0086,40.9723],[16.0103,40.9757],[16.0244,40.9882],[16.0312,40.998],[16.0312,41.0052],[16.0276,41.0116],[16.0271,41.0173],[16.0279,41.0241],[16.0299,41.0262],[16.0331,41.0275],[16.0405,41.0284],[16.0436,41.0199],[16.0473,41.014],[16.0646,41.0022],[16.0961,40.9897],[16.1035,40.9835],[16.1064,40.9823],[16.1083,40.9825],[16.1134,40.986],[16.1165,40.9899],[16.1316,40.9919],[16.1453,40.9966],[16.147,41.0004],[16.1503,41.0027],[16.1855,41.0188],[16.1885,41.0116],[16.1916,41.0088],[16.1971,41.0102],[16.2062,41.015],[16.2101,41.0228],[16.217,41.0227],[16.2222,41.0201],[16.234,41.0186],[16.2417,41.0193],[16.254,41.0148]]]}},{"type":"Feature","properties":{"i":"110009","n":"Trani"},"geometry":{"type":"Polygon","coordinates":[[[16.4676,41.2558],[16.4659,41.2527],[16.4568,41.243],[16.4502,41.234],[16.4558,41.2266],[16.446,41.216],[16.4468,41.2149],[16.4438,41.2111],[16.4377,41.2068],[16.4354,41.2078],[16.4341,41.2088],[16.4371,41.2133],[16.4393,41.216],[16.4421,41.2153],[16.4434,41.2186],[16.4372,41.2212],[16.4338,41.2217],[16.429,41.219],[16.431,41.2126],[16.4357,41.2054],[16.431,41.1966],[16.4288,41.1903],[16.4262,41.1888],[16.4197,41.1872],[16.4027,41.188],[16.3981,41.1894],[16.3971,41.1941],[16.3916,41.1961],[16.3879,41.1947],[16.3859,41.1917],[16.3812,41.1817],[16.3849,41.18],[16.3828,41.1773],[16.3755,41.1768],[16.3638,41.1712],[16.3605,41.1683],[16.3587,41.1643],[16.3492,41.1639],[16.34,41.1665],[16.3442,41.1746],[16.3502,41.1797],[16.3519,41.1897],[16.3634,41.1979],[16.3552,41.2072],[16.3496,41.209],[16.3461,41.2125],[16.3408,41.2203],[16.3396,41.224],[16.3403,41.2263],[16.3458,41.2293],[16.3494,41.23],[16.3476,41.2332],[16.3417,41.2352],[16.3388,41.2372],[16.3374,41.2407],[16.3384,41.2429],[16.3405,41.2419],[16.3428,41.2435],[16.3456,41.2469],[16.3457,41.2487],[16.3429,41.2498],[16.3382,41.2539],[16.3335,41.2628],[16.3334,41.266],[16.3287,41.2691],[16.3269,41.2693],[16.3304,41.2726],[16.3277,41.2758],[16.3309,41.2812],[16.3367,41.2856],[16.34,41.2891],[16.3428,41.2945],[16.3548,41.3058],[16.3647,41.3019],[16.3869,41.2904],[16.4009,41.2851],[16.4194,41.2825],[16.426,41.2769],[16.4478,41.2623],[16.4521,41.2606],[16.4587,41.2595],[16.4676,41.2558]]]}},{"type":"Feature","properties":{"i":"110010","n":"Trinitapoli"},"geometry":{"type":"Polygon","coordinates":[[[16.0248,41.4214],[16.0584,41.3936],[16.0915,41.3771],[16.0971,41.3819],[16.1132,41.3751],[16.1251,41.3724],[16.1276,41.3711],[16.1445,41.36],[16.1547,41.348],[16.1547,41.346],[16.156,41.3433],[16.1696,41.3401],[16.1862,41.3378],[16.1974,41.3375],[16.1998,41.3366],[16.2006,41.333],[16.199,41.3363],[16.1966,41.3365],[16.1955,41.335],[16.195,41.331],[16.1911,41.3258],[16.1814,41.3279],[16.1748,41.3283],[16.169,41.3239],[16.1717,41.3194],[16.1744,41.3198],[16.176,41.3191],[16.1766,41.3176],[16.1761,41.3161],[16.1697,41.3136],[16.1645,41.3142],[16.1583,41.3128],[16.1485,41.3093],[16.1473,41.3051],[16.1482,41.301],[16.1399,41.298],[16.1363,41.3012],[16.1318,41.2989],[16.1317,41.2962],[16.1332,41.2929],[16.1323,41.2898],[16.1266,41.288],[16.1258,41.2905],[16.1266,41.2928],[16.1189,41.2905],[16.1174,41.288],[16.1123,41.2855],[16.0844,41.2831],[16.08,41.2841],[16.078,41.2858],[16.0761,41.2904],[16.0808,41.2993],[16.0873,41.3175],[16.0784,41.3205],[16.0487,41.3223],[16.0372,41.3179],[16.0311,41.314],[16.0328,41.3081],[16.0109,41.3031],[16.0017,41.3026],[15.9945,41.3039],[15.9834,41.3047],[15.9819,41.3608],[15.9852,41.3602],[15.9921,41.361],[16.0311,41.3739],[16.0344,41.376],[16.0373,41.3834],[16.0177,41.3899],[15.9999,41.4008],[15.9899,41.4028],[15.9836,41.4055],[15.9818,41.4097],[15.9764,41.4139],[15.9727,41.414],[15.9375,41.4247],[15.937,41.4258],[15.9427,41.4327],[15.9522,41.4412],[15.9792,41.4383],[15.9881,41.4359],[15.9994,41.4302],[16.0248,41.4214]]]}}]}
