{"type":"FeatureCollection","fonte":"Confini comunali ISTAT via openpolis/geojson-italy — CC BY 4.0","features":[{"type":"Feature","properties":{"i":"092003","n":"Assemini"},"geometry":{"type":"MultiPolygon","coordinates":[[[[8.9618,39.1848],[8.9576,39.1849],[8.952,39.1831],[8.944,39.1768],[8.9435,39.1716],[8.9446,39.1662],[8.9435,39.1649],[8.9381,39.1618],[8.9339,39.1604],[8.9265,39.1493],[8.9238,39.1398],[8.9239,39.1335],[8.9254,39.1309],[8.9199,39.127],[8.9099,39.1264],[8.9043,39.127],[8.8941,39.123],[8.8936,39.12],[8.8973,39.1147],[8.8943,39.1131],[8.8916,39.1139],[8.8887,39.1127],[8.8851,39.107],[8.8806,39.1062],[8.8759,39.1081],[8.8641,39.1055],[8.853,39.1019],[8.8487,39.0992],[8.8374,39.1104],[8.8317,39.1116],[8.8222,39.1186],[8.8222,39.1245],[8.8202,39.1301],[8.822,39.1412],[8.8263,39.1468],[8.8263,39.1487],[8.8424,39.1478],[8.8746,39.151],[8.8825,39.1569],[8.8932,39.1581],[8.9001,39.1562],[8.9056,39.1573],[8.9083,39.1595],[8.9118,39.1684],[8.9231,39.1772],[8.9312,39.1885],[8.933,39.1933],[8.9425,39.2035],[8.9468,39.2019],[8.951,39.1963],[8.9611,39.1896],[8.9618,39.1848]]],[[[9.0752,39.2712],[9.0582,39.2722],[9.0451,39.2805],[9.0336,39.2849],[9.0299,39.2843],[9.0243,39.2807],[9.015,39.2678],[9.011,39.2658],[9.0214,39.2523],[9.0263,39.2524],[9.0293,39.2514],[9.0212,39.2474],[9.015,39.2467],[9.0124,39.2476],[9.0115,39.247],[9.0112,39.2446],[9.0116,39.2406],[9.0143,39.2381],[9.0245,39.2342],[9.0284,39.2298],[9.0321,39.227],[9.0359,39.2292],[9.0398,39.2343],[9.0403,39.2306],[9.0353,39.2223],[9.0284,39.218],[9.0237,39.2012],[9.0319,39.1971],[9.0307,39.1895],[9.0292,39.1884],[9.0017,39.1932],[8.9853,39.1909],[8.982,39.1869],[8.9777,39.1856],[8.976,39.1865],[8.9718,39.1952],[8.9711,39.2118],[8.9773,39.2137],[8.9864,39.2186],[8.9839,39.2228],[8.9769,39.2407],[8.9749,39.2507],[8.9816,39.2573],[8.9879,39.26],[8.9917,39.27],[8.9856,39.271],[8.9807,39.2743],[8.9819,39.2782],[8.9848,39.2807],[8.9785,39.2892],[8.9703,39.2959],[8.9769,39.302],[8.9861,39.3131],[8.9925,39.3194],[9.001,39.325],[9.0201,39.3306],[9.0232,39.3334],[9.027,39.3329],[9.0283,39.3316],[9.0305,39.3263],[9.0465,39.3066],[9.0544,39.2951],[9.0586,39.2871],[9.0641,39.2821],[9.0689,39.2794],[9.0726,39.2761],[9.0752,39.2712]]]]}},{"type":"Feature","properties":{"i":"092009","n":"Cagliari"},"geometry":{"type":"Polygon","coordinates":[[[9.0982,39.2816],[9.099,39.2776],[9.1025,39.2747],[9.1052,39.2687],[9.1047,39.2653],[9.1017,39.2635],[9.1031,39.2516],[9.1085,39.2499],[9.1129,39.2548],[9.1141,39.2593],[9.1166,39.2635],[9.1236,39.262],[9.1277,39.2578],[9.1338,39.2532],[9.1554,39.2433],[9.1544,39.2436],[9.1516,39.2176],[9.1567,39.2209],[9.1644,39.2199],[9.1785,39.2248],[9.182,39.2164],[9.1729,39.2104],[9.1653,39.2042],[9.1615,39.2],[9.16,39.1962],[9.1599,39.1937],[9.1643,39.1914],[9.1683,39.1907],[9.1695,39.1887],[9.1644,39.1834],[9.1587,39.1813],[9.1493,39.1844],[9.1399,39.189],[9.1313,39.1964],[9.1255,39.1999],[9.1269,39.2022],[9.1238,39.2057],[9.1109,39.2136],[9.1027,39.211],[9.0984,39.211],[9.0924,39.2094],[9.0933,39.208],[9.0829,39.2057],[9.0774,39.2001],[9.0738,39.2008],[9.0679,39.1976],[9.0393,39.1734],[9.026,39.158],[9.0251,39.1596],[9.0206,39.1605],[9.0191,39.1587],[9.0168,39.1588],[9.0159,39.1598],[9.0171,39.1667],[9.0204,39.1704],[9.0246,39.1785],[9.026,39.1838],[9.0307,39.1895],[9.0313,39.1915],[9.0319,39.1971],[9.0237,39.2012],[9.0284,39.218],[9.0353,39.2223],[9.0403,39.2306],[9.0398,39.2343],[9.0359,39.2292],[9.0321,39.227],[9.0284,39.2298],[9.0245,39.2342],[9.015,39.2376],[9.0118,39.2403],[9.0112,39.2446],[9.0117,39.2473],[9.015,39.2467],[9.0212,39.2474],[9.0293,39.2514],[9.0263,39.2524],[9.0214,39.2523],[9.011,39.2658],[9.015,39.2678],[9.0214,39.2666],[9.0306,39.2666],[9.0316,39.2696],[9.0332,39.2697],[9.0399,39.2634],[9.0468,39.2549],[9.0484,39.2449],[9.0587,39.2399],[9.0643,39.2383],[9.0661,39.242],[9.0681,39.2435],[9.0719,39.2456],[9.0803,39.2476],[9.0828,39.2566],[9.0753,39.2711],[9.0819,39.2712],[9.0837,39.2733],[9.0833,39.2761],[9.0919,39.2821],[9.0953,39.2828],[9.0982,39.2816]]]}},{"type":"Feature","properties":{"i":"092011","n":"Capoterra"},"geometry":{"type":"Polygon","coordinates":[[[9.0292,39.1884],[9.026,39.1838],[9.0246,39.1785],[9.0204,39.1704],[9.0171,39.1667],[9.016,39.1623],[9.0159,39.1598],[9.0174,39.1585],[9.0191,39.1587],[9.0206,39.1605],[9.0251,39.1596],[9.0265,39.1576],[9.0182,39.1474],[9.0143,39.1314],[9.0091,39.1237],[9.0089,39.1213],[8.9964,39.1189],[8.9731,39.1117],[8.9649,39.1081],[8.9532,39.1059],[8.932,39.1043],[8.922,39.1022],[8.9163,39.1043],[8.9095,39.1086],[8.9061,39.1143],[8.899,39.1158],[8.8973,39.1147],[8.8936,39.12],[8.8941,39.123],[8.8995,39.1254],[8.9043,39.127],[8.9099,39.1264],[8.9199,39.127],[8.9254,39.1309],[8.9239,39.1335],[8.9238,39.1398],[8.9265,39.1493],[8.9339,39.1604],[8.9381,39.1618],[8.9443,39.1658],[8.9449,39.1669],[8.9435,39.1716],[8.9438,39.1765],[8.9508,39.1825],[8.9585,39.185],[8.9618,39.1848],[8.976,39.1865],[8.9777,39.1856],[8.9823,39.1871],[8.9853,39.1909],[9.0017,39.1932],[9.0292,39.1884]]]}},{"type":"Feature","properties":{"i":"092015","n":"Decimomannu"},"geometry":{"type":"MultiPolygon","coordinates":[[[[8.8606,39.2308],[8.8517,39.2353],[8.8516,39.2378],[8.8527,39.2512],[8.8555,39.261],[8.861,39.2729],[8.8658,39.2785],[8.8696,39.2802],[8.8734,39.28],[8.8806,39.2821],[8.8905,39.2869],[8.8779,39.259],[8.8758,39.2453],[8.8705,39.2373],[8.8606,39.2308]]],[[[9.0062,39.327],[8.999,39.324],[8.9922,39.3191],[8.9861,39.3131],[8.9769,39.302],[8.9703,39.2959],[8.9601,39.2998],[8.9533,39.306],[8.9501,39.306],[8.9427,39.3041],[8.9409,39.3088],[8.9423,39.3166],[8.9405,39.3202],[8.9402,39.3252],[8.9506,39.3345],[8.9615,39.342],[8.9724,39.3445],[8.9754,39.3431],[8.9783,39.3431],[8.9878,39.3362],[9.0024,39.3299],[9.0059,39.3282],[9.0062,39.327]]]]}},{"type":"Feature","properties":{"i":"092108","n":"Elmas"},"geometry":{"type":"Polygon","coordinates":[[[9.0752,39.2712],[9.0828,39.2566],[9.0803,39.2476],[9.0719,39.2456],[9.0681,39.2435],[9.0661,39.242],[9.0648,39.2387],[9.0637,39.2383],[9.0484,39.2449],[9.0468,39.2549],[9.0399,39.2634],[9.0332,39.2697],[9.0316,39.2696],[9.0306,39.2666],[9.0214,39.2666],[9.015,39.2678],[9.0243,39.2807],[9.0299,39.2843],[9.0336,39.2849],[9.0451,39.2805],[9.0582,39.2722],[9.0752,39.2712]]]}},{"type":"Feature","properties":{"i":"092037","n":"Maracalagonis"},"geometry":{"type":"Polygon","coordinates":[[[9.4651,39.2398],[9.4864,39.2071],[9.4768,39.1858],[9.4403,39.1859],[9.4289,39.1809],[9.4254,39.1776],[9.4217,39.1725],[9.4152,39.1688],[9.414,39.1637],[9.4162,39.157],[9.4144,39.1535],[9.4123,39.1529],[9.4042,39.1533],[9.4033,39.1504],[9.4035,39.1446],[9.4015,39.1412],[9.3922,39.1447],[9.3924,39.1492],[9.3904,39.1575],[9.3852,39.1603],[9.3843,39.1627],[9.3844,39.1751],[9.382,39.1823],[9.379,39.1836],[9.3772,39.1853],[9.3781,39.1896],[9.3818,39.1982],[9.3968,39.2182],[9.3971,39.2232],[9.3949,39.2267],[9.3931,39.2278],[9.3886,39.2364],[9.3884,39.2405],[9.3858,39.2499],[9.3685,39.2561],[9.3593,39.2579],[9.3512,39.258],[9.3447,39.2555],[9.3391,39.2544],[9.3377,39.2566],[9.3286,39.2619],[9.3126,39.2628],[9.2997,39.2614],[9.295,39.2667],[9.2868,39.2647],[9.2585,39.2666],[9.2557,39.2659],[9.2514,39.2634],[9.2503,39.2624],[9.251,39.2619],[9.2487,39.2606],[9.2318,39.2626],[9.2295,39.2631],[9.2289,39.2651],[9.2207,39.2747],[9.2054,39.283],[9.2335,39.2961],[9.2496,39.3026],[9.2545,39.2939],[9.2541,39.2892],[9.2612,39.2853],[9.2881,39.2903],[9.293,39.2938],[9.3104,39.2981],[9.3233,39.2882],[9.3319,39.2797],[9.3377,39.276],[9.3552,39.2748],[9.3698,39.2763],[9.3827,39.2735],[9.3919,39.263],[9.397,39.2415],[9.4185,39.2444],[9.4298,39.24],[9.4375,39.2329],[9.4651,39.2398]]]}},{"type":"Feature","properties":{"i":"092109","n":"Monserrato"},"geometry":{"type":"Polygon","coordinates":[[[9.1536,39.2459],[9.1533,39.2445],[9.1357,39.2523],[9.1277,39.2578],[9.1236,39.262],[9.1172,39.2729],[9.1155,39.2742],[9.115,39.2776],[9.1196,39.2821],[9.1232,39.2837],[9.1312,39.2811],[9.1402,39.2731],[9.1428,39.2696],[9.1488,39.2575],[9.1501,39.2508],[9.1496,39.2491],[9.1536,39.2459]]]}},{"type":"Feature","properties":{"i":"092050","n":"Pula"},"geometry":{"type":"MultiPolygon","coordinates":[[[[9.0317,39.0025],[9.0315,39.004],[9.0329,39.0044],[9.0328,39.0029],[9.0317,39.0025]]],[[[9.019,39.0232],[9.0244,39.0202],[9.0251,39.014],[9.0248,39.0027],[9.027,39.0008],[9.0231,38.9972],[9.0176,38.9962],[9.014,38.9904],[9.0143,38.9872],[9.0137,38.9857],[9.0119,38.9869],[9.0004,38.9862],[8.9956,38.981],[8.9941,38.9757],[8.9489,38.9439],[8.9403,38.9359],[8.9238,38.9273],[8.9155,38.9206],[8.9109,38.9155],[8.9059,38.9185],[8.9037,38.9242],[8.9111,38.941],[8.9119,38.9522],[8.9098,38.9571],[8.8868,38.9774],[8.8814,38.9856],[8.8621,39.0098],[8.8487,39.0248],[8.8319,39.0474],[8.8467,39.0716],[8.8531,39.0845],[8.8675,39.0842],[8.8783,39.0811],[8.8857,39.0766],[8.8978,39.0667],[8.9099,39.0581],[8.9494,39.0327],[8.9593,39.0319],[8.9908,39.0231],[9.0165,39.0217],[9.019,39.0232]]]]}},{"type":"Feature","properties":{"i":"092051","n":"Quartu Sant'Elena"},"geometry":{"type":"Polygon","coordinates":[[[9.2295,39.2631],[9.2487,39.2606],[9.251,39.2619],[9.2708,39.2498],[9.2904,39.2393],[9.2988,39.2366],[9.3041,39.2371],[9.3133,39.2397],[9.3499,39.2523],[9.3858,39.2499],[9.3884,39.2405],[9.3886,39.2364],[9.3931,39.2278],[9.3949,39.2267],[9.3973,39.2221],[9.3968,39.2182],[9.3958,39.2163],[9.3818,39.1982],[9.3773,39.1868],[9.3775,39.1847],[9.382,39.1823],[9.3844,39.1751],[9.3843,39.1627],[9.3689,39.1751],[9.363,39.1773],[9.3566,39.1787],[9.3529,39.1773],[9.3474,39.1803],[9.3424,39.1854],[9.3387,39.1934],[9.3283,39.1973],[9.3232,39.2009],[9.3232,39.2029],[9.3216,39.2041],[9.3099,39.2056],[9.3047,39.205],[9.2993,39.2119],[9.2965,39.2132],[9.2467,39.2168],[9.2431,39.2182],[9.2373,39.2251],[9.2309,39.2278],[9.2258,39.2282],[9.213,39.2273],[9.2055,39.2257],[9.1921,39.2212],[9.182,39.2164],[9.1785,39.2248],[9.1644,39.2199],[9.1567,39.2209],[9.1516,39.2176],[9.1544,39.2436],[9.1642,39.2435],[9.1769,39.2464],[9.1854,39.2516],[9.1934,39.2582],[9.2008,39.2612],[9.2126,39.263],[9.2295,39.2631]]]}},{"type":"Feature","properties":{"i":"092105","n":"Quartucciu"},"geometry":{"type":"MultiPolygon","coordinates":[[[[9.3835,39.2504],[9.3499,39.2523],[9.3133,39.2397],[9.3041,39.2371],[9.2988,39.2366],[9.2904,39.2393],[9.2708,39.2498],[9.2503,39.2624],[9.2557,39.2659],[9.2585,39.2666],[9.2868,39.2647],[9.295,39.2667],[9.2997,39.2614],[9.3126,39.2628],[9.3286,39.2619],[9.3377,39.2566],[9.3391,39.2544],[9.3447,39.2555],[9.3512,39.258],[9.3593,39.2579],[9.3685,39.2561],[9.3841,39.2504],[9.3835,39.2504]]],[[[9.2063,39.2838],[9.2054,39.283],[9.2062,39.2822],[9.2215,39.274],[9.2289,39.2651],[9.2295,39.2631],[9.2126,39.263],[9.2008,39.2612],[9.1934,39.2582],[9.1854,39.2516],[9.1769,39.2464],[9.1642,39.2435],[9.1554,39.2433],[9.1533,39.2445],[9.1536,39.2459],[9.1555,39.2442],[9.1628,39.2473],[9.1755,39.2552],[9.178,39.2576],[9.1806,39.2608],[9.1815,39.2634],[9.1791,39.2716],[9.1837,39.2744],[9.1851,39.2765],[9.1903,39.2803],[9.2009,39.2871],[9.2018,39.2872],[9.2063,39.2838]]]]}},{"type":"Feature","properties":{"i":"092066","n":"Sarroch"},"geometry":{"type":"Polygon","coordinates":[[[9.0244,39.0202],[9.019,39.0232],[9.0008,39.0388],[8.9617,39.062],[8.932,39.0761],[8.9097,39.0855],[8.9035,39.0857],[8.8993,39.0891],[8.8867,39.1052],[8.8856,39.1075],[8.8872,39.1106],[8.8891,39.113],[8.8916,39.1139],[8.8943,39.1131],[8.899,39.1158],[8.9061,39.1143],[8.9095,39.1086],[8.9163,39.1043],[8.922,39.1022],[8.932,39.1043],[8.9532,39.1059],[8.9649,39.1081],[8.9731,39.1117],[8.9964,39.1189],[9.0089,39.1213],[9.0142,39.1115],[9.0164,39.1049],[9.0148,39.0974],[9.0166,39.0866],[9.0244,39.0824],[9.0374,39.088],[9.0489,39.0888],[9.0539,39.0852],[9.0523,39.0833],[9.0485,39.0871],[9.0382,39.0864],[9.0252,39.0811],[9.028,39.074],[9.0457,39.056],[9.0435,39.0491],[9.0391,39.0404],[9.0295,39.0294],[9.0244,39.0202]]]}},{"type":"Feature","properties":{"i":"092068","n":"Selargius"},"geometry":{"type":"Polygon","coordinates":[[[9.1791,39.2716],[9.1815,39.2634],[9.1806,39.2608],[9.178,39.2576],[9.1755,39.2552],[9.1628,39.2473],[9.1555,39.2442],[9.1498,39.2487],[9.1501,39.2508],[9.1488,39.2575],[9.1452,39.2656],[9.1402,39.2731],[9.1312,39.2811],[9.1232,39.2837],[9.1183,39.2811],[9.115,39.2776],[9.1149,39.2752],[9.1172,39.2729],[9.1236,39.262],[9.1166,39.2635],[9.1141,39.2593],[9.1129,39.2548],[9.1085,39.2499],[9.1028,39.2518],[9.1017,39.2635],[9.1047,39.2653],[9.1052,39.2687],[9.1025,39.2747],[9.099,39.2776],[9.0982,39.2816],[9.1055,39.2871],[9.1096,39.2886],[9.1152,39.2973],[9.1277,39.309],[9.131,39.3173],[9.1315,39.3237],[9.1411,39.3192],[9.1408,39.3181],[9.1418,39.3148],[9.1487,39.3025],[9.1726,39.2746],[9.1791,39.2716]]]}},{"type":"Feature","properties":{"i":"092074","n":"Sestu"},"geometry":{"type":"Polygon","coordinates":[[[9.1337,39.3329],[9.1315,39.3237],[9.131,39.3173],[9.1278,39.3091],[9.1264,39.3074],[9.1228,39.305],[9.1152,39.2973],[9.1096,39.2886],[9.1055,39.2871],[9.0982,39.2816],[9.0953,39.2828],[9.0908,39.2815],[9.0833,39.2761],[9.0837,39.2733],[9.0819,39.2712],[9.0797,39.271],[9.0753,39.2711],[9.0726,39.2761],[9.0589,39.2867],[9.0544,39.2951],[9.0465,39.3066],[9.0305,39.3263],[9.0283,39.3316],[9.0344,39.3346],[9.0431,39.3373],[9.0476,39.3369],[9.0554,39.3379],[9.0715,39.3481],[9.0766,39.3525],[9.0806,39.3532],[9.0948,39.3516],[9.0991,39.3495],[9.1092,39.342],[9.1188,39.3369],[9.1337,39.3329]]]}},{"type":"Feature","properties":{"i":"092075","n":"Settimo San Pietro"},"geometry":{"type":"Polygon","coordinates":[[[9.1873,39.3279],[9.1868,39.3183],[9.1843,39.3155],[9.1838,39.3128],[9.2018,39.2872],[9.1999,39.2867],[9.1903,39.2803],[9.1851,39.2765],[9.1837,39.2744],[9.1786,39.2715],[9.1726,39.2746],[9.1487,39.3025],[9.1418,39.3148],[9.1408,39.3181],[9.1411,39.3192],[9.1315,39.3237],[9.1337,39.3329],[9.1497,39.3417],[9.1511,39.332],[9.1544,39.3302],[9.1686,39.3328],[9.178,39.3333],[9.185,39.3285],[9.1873,39.3279]]]}},{"type":"Feature","properties":{"i":"092080","n":"Sinnai"},"geometry":{"type":"MultiPolygon","coordinates":[[[[9.4768,39.1858],[9.4736,39.1598],[9.4638,39.1489],[9.4587,39.1449],[9.4498,39.1414],[9.4429,39.1318],[9.4422,39.1265],[9.439,39.122],[9.4373,39.1222],[9.434,39.1255],[9.4339,39.1301],[9.4237,39.1348],[9.4172,39.1361],[9.4085,39.1432],[9.4035,39.1446],[9.4033,39.1504],[9.4042,39.1533],[9.4123,39.1529],[9.4144,39.1535],[9.4162,39.157],[9.414,39.1637],[9.4152,39.1688],[9.4217,39.1725],[9.4254,39.1776],[9.4289,39.1809],[9.4403,39.1859],[9.4768,39.1858]]],[[[9.4276,39.307],[9.429,39.3026],[9.4432,39.2939],[9.4459,39.2818],[9.4449,39.277],[9.4463,39.268],[9.4651,39.2398],[9.4375,39.2329],[9.4298,39.24],[9.4185,39.2444],[9.397,39.2415],[9.3919,39.263],[9.3827,39.2735],[9.3698,39.2763],[9.3552,39.2748],[9.3377,39.276],[9.3319,39.2797],[9.3233,39.2882],[9.3104,39.2981],[9.293,39.2938],[9.2881,39.2903],[9.2612,39.2853],[9.2541,39.2892],[9.2545,39.2939],[9.2496,39.3026],[9.2335,39.2961],[9.2063,39.2838],[9.2018,39.2872],[9.1838,39.3128],[9.1843,39.3155],[9.1868,39.3183],[9.1873,39.3279],[9.1885,39.3292],[9.1953,39.333],[9.2041,39.333],[9.2119,39.3346],[9.2233,39.3442],[9.2397,39.3467],[9.2428,39.3484],[9.2496,39.3611],[9.2588,39.3666],[9.2666,39.376],[9.2721,39.3923],[9.274,39.4088],[9.281,39.4132],[9.2929,39.411],[9.2985,39.411],[9.3687,39.4234],[9.3704,39.3961],[9.3313,39.3501],[9.3475,39.3342],[9.3603,39.3195],[9.3664,39.3151],[9.3755,39.3123],[9.392,39.3148],[9.3987,39.3181],[9.4053,39.3174],[9.4108,39.3155],[9.4136,39.3102],[9.42,39.3066],[9.4276,39.307]]]]}},{"type":"Feature","properties":{"i":"092090","n":"Uta"},"geometry":{"type":"Polygon","coordinates":[[[8.9703,39.2959],[8.9785,39.2892],[8.9848,39.2807],[8.9819,39.2782],[8.9807,39.2743],[8.9856,39.271],[8.9917,39.27],[8.9879,39.26],[8.9816,39.2573],[8.9749,39.2507],[8.9769,39.2407],[8.9839,39.2228],[8.9864,39.2186],[8.9773,39.2137],[8.9711,39.2118],[8.9718,39.1952],[8.976,39.1865],[8.9618,39.1848],[8.9611,39.1896],[8.951,39.1963],[8.9468,39.2019],[8.9425,39.2035],[8.933,39.1933],[8.9312,39.1885],[8.9231,39.1772],[8.9118,39.1684],[8.9083,39.1595],[8.9056,39.1573],[8.9001,39.1562],[8.8932,39.1581],[8.8825,39.1569],[8.8746,39.151],[8.8376,39.1479],[8.8408,39.1651],[8.8422,39.1684],[8.8456,39.1715],[8.8503,39.1734],[8.8547,39.1805],[8.8525,39.1903],[8.8546,39.1936],[8.855,39.1985],[8.8538,39.2094],[8.8606,39.2308],[8.8705,39.2373],[8.8758,39.2453],[8.8779,39.259],[8.8905,39.2869],[8.8945,39.2892],[8.9042,39.289],[8.909,39.2898],[8.9438,39.3045],[8.9506,39.3061],[8.9533,39.306],[8.9601,39.2998],[8.9703,39.2959]]]}},{"type":"Feature","properties":{"i":"092099","n":"Villa San Pietro"},"geometry":{"type":"Polygon","coordinates":[[[8.8856,39.1075],[8.8993,39.0891],[8.9035,39.0857],[8.9097,39.0855],[8.932,39.0761],[8.9617,39.062],[9.0008,39.0388],[9.019,39.0232],[9.0165,39.0217],[8.9908,39.0231],[8.9593,39.0319],[8.9494,39.0327],[8.9099,39.0581],[8.8978,39.0667],[8.8874,39.0754],[8.8789,39.0808],[8.8675,39.0842],[8.8531,39.0845],[8.8502,39.0884],[8.8478,39.0968],[8.8487,39.0992],[8.8506,39.1007],[8.8641,39.1055],[8.8759,39.1081],[8.8806,39.1062],[8.8856,39.1075]]]}}]}
