{"type":"FeatureCollection","fonte":"Confini comunali ISTAT via openpolis/geojson-italy — CC BY 4.0","features":[{"type":"Feature","properties":{"i":"061001","n":"Ailano"},"geometry":{"type":"Polygon","coordinates":[[[14.2299,41.3965],[14.2331,41.3905],[14.233,41.3886],[14.2191,41.3824],[14.2092,41.3809],[14.2022,41.3777],[14.1979,41.3744],[14.1952,41.3701],[14.1939,41.3664],[14.1885,41.3646],[14.1829,41.3656],[14.1813,41.3679],[14.1759,41.3719],[14.1667,41.3704],[14.1642,41.3683],[14.1436,41.3591],[14.1427,41.3654],[14.1584,41.3766],[14.1871,41.4014],[14.1944,41.4034],[14.2169,41.3997],[14.2253,41.3963],[14.2299,41.3965]]]}},{"type":"Feature","properties":{"i":"061002","n":"Alife"},"geometry":{"type":"Polygon","coordinates":[[[14.3708,41.3226],[14.3839,41.3133],[14.3885,41.3017],[14.3924,41.2957],[14.393,41.288],[14.3835,41.2752],[14.3741,41.2703],[14.3761,41.275],[14.3712,41.279],[14.3637,41.2753],[14.3528,41.2762],[14.3502,41.2773],[14.3516,41.2796],[14.3511,41.2803],[14.3468,41.2806],[14.3448,41.2795],[14.3409,41.2822],[14.3395,41.2822],[14.3392,41.2793],[14.3377,41.278],[14.3359,41.2778],[14.3334,41.2787],[14.3318,41.2808],[14.3369,41.2847],[14.3373,41.286],[14.3365,41.2876],[14.3096,41.2917],[14.3074,41.2963],[14.3082,41.3006],[14.3001,41.3029],[14.3029,41.3097],[14.2864,41.3125],[14.2811,41.3193],[14.2758,41.3198],[14.2759,41.3233],[14.2883,41.3421],[14.2983,41.3528],[14.3023,41.3684],[14.3034,41.383],[14.3025,41.3849],[14.307,41.3869],[14.3228,41.3823],[14.3278,41.3817],[14.3359,41.3746],[14.3403,41.3655],[14.3474,41.3468],[14.3626,41.334],[14.3708,41.3226]]]}},{"type":"Feature","properties":{"i":"061003","n":"Alvignano"},"geometry":{"type":"Polygon","coordinates":[[[14.3741,41.2703],[14.3697,41.267],[14.3804,41.2613],[14.3865,41.2592],[14.3853,41.2606],[14.385,41.2666],[14.388,41.2684],[14.3909,41.2677],[14.398,41.2588],[14.396,41.2567],[14.397,41.2537],[14.4013,41.2496],[14.395,41.2492],[14.3931,41.2474],[14.3934,41.2457],[14.3989,41.2396],[14.3906,41.2181],[14.3828,41.2161],[14.3797,41.2093],[14.3797,41.2074],[14.3706,41.2105],[14.3629,41.2164],[14.3591,41.2183],[14.3561,41.2185],[14.3496,41.216],[14.3415,41.2143],[14.3359,41.2198],[14.3317,41.222],[14.3287,41.2224],[14.3255,41.2204],[14.3158,41.2284],[14.3138,41.2325],[14.3197,41.2375],[14.3132,41.2481],[14.3137,41.2511],[14.3197,41.2522],[14.3245,41.2545],[14.337,41.2676],[14.3454,41.28],[14.3468,41.2806],[14.3511,41.2803],[14.3516,41.2796],[14.3502,41.2773],[14.3584,41.2753],[14.3637,41.2753],[14.3712,41.279],[14.3761,41.275],[14.3741,41.2703]]]}},{"type":"Feature","properties":{"i":"061004","n":"Arienzo"},"geometry":{"type":"Polygon","coordinates":[[[14.5182,41.0488],[14.5175,41.0417],[14.5165,41.0391],[14.5283,41.0171],[14.5312,41.0133],[14.5327,41.004],[14.521,40.9992],[14.5175,40.9986],[14.5114,41.0017],[14.51,41.0046],[14.5011,41.0147],[14.4992,41.0162],[14.4921,41.0187],[14.4913,41.0201],[14.4923,41.0231],[14.492,41.0255],[14.4884,41.037],[14.4833,41.0486],[14.4835,41.0494],[14.4879,41.0478],[14.4932,41.0475],[14.496,41.0516],[14.5029,41.0534],[14.5072,41.0557],[14.5119,41.0532],[14.5127,41.0513],[14.5152,41.0486],[14.5182,41.0488]]]}},{"type":"Feature","properties":{"i":"061005","n":"Aversa"},"geometry":{"type":"Polygon","coordinates":[[[14.2143,40.9859],[14.2146,40.9826],[14.2129,40.9803],[14.2192,40.979],[14.2246,40.9795],[14.2246,40.9705],[14.2262,40.9655],[14.2166,40.9624],[14.2163,40.9562],[14.2168,40.9551],[14.2199,40.9538],[14.22,40.951],[14.2143,40.9493],[14.1972,40.9539],[14.1968,40.9594],[14.1992,40.9726],[14.1906,40.9729],[14.194,40.9782],[14.1938,40.9795],[14.1896,40.9846],[14.1841,40.9893],[14.1828,40.9915],[14.1909,40.9911],[14.199,40.9862],[14.2037,40.992],[14.2077,40.9921],[14.2076,40.9857],[14.2143,40.9859]]]}},{"type":"Feature","properties":{"i":"061006","n":"Baia e Latina"},"geometry":{"type":"Polygon","coordinates":[[[14.2758,41.3198],[14.2811,41.3193],[14.2864,41.3125],[14.3029,41.3097],[14.3001,41.3029],[14.3082,41.3006],[14.3074,41.2963],[14.3056,41.2967],[14.3011,41.2949],[14.2881,41.287],[14.2848,41.2832],[14.2826,41.2772],[14.2787,41.2771],[14.2613,41.2822],[14.2575,41.2867],[14.2456,41.2884],[14.2249,41.2975],[14.2216,41.3012],[14.2246,41.3068],[14.2203,41.3089],[14.2195,41.3126],[14.2198,41.3157],[14.2264,41.3239],[14.2298,41.3261],[14.2483,41.3208],[14.2624,41.3222],[14.2718,41.3197],[14.2758,41.3198]]]}},{"type":"Feature","properties":{"i":"061007","n":"Bellona"},"geometry":{"type":"Polygon","coordinates":[[[14.242,41.1714],[14.2444,41.169],[14.2494,41.1612],[14.25,41.1516],[14.2542,41.1434],[14.2563,41.1416],[14.2676,41.1384],[14.2695,41.1358],[14.2699,41.1333],[14.261,41.1317],[14.2573,41.1321],[14.252,41.134],[14.248,41.1341],[14.2384,41.1334],[14.231,41.1318],[14.2288,41.1305],[14.2286,41.1285],[14.2335,41.1241],[14.2347,41.1208],[14.2342,41.1186],[14.2307,41.1167],[14.2248,41.1245],[14.2206,41.1283],[14.2186,41.1286],[14.2176,41.1277],[14.2219,41.1392],[14.2259,41.1543],[14.2265,41.1594],[14.2295,41.1678],[14.2278,41.1735],[14.2397,41.1728],[14.242,41.1714]]]}},{"type":"Feature","properties":{"i":"061008","n":"Caianello"},"geometry":{"type":"Polygon","coordinates":[[[14.1213,41.2917],[14.1166,41.2913],[14.0958,41.2847],[14.0813,41.2859],[14.0717,41.2889],[14.0694,41.2908],[14.0615,41.2918],[14.0464,41.2889],[14.037,41.288],[14.032,41.2929],[14.0356,41.2933],[14.0419,41.2961],[14.0384,41.3029],[14.042,41.3052],[14.0484,41.3061],[14.0491,41.3056],[14.0476,41.3008],[14.045,41.3007],[14.0454,41.2985],[14.0511,41.2986],[14.0571,41.3008],[14.0628,41.3067],[14.0745,41.3098],[14.0968,41.3205],[14.1069,41.3129],[14.1213,41.2917]],[[14.0397,41.2931],[14.0411,41.2928],[14.0429,41.2945],[14.0412,41.2944],[14.0397,41.2931]],[[14.039,41.2897],[14.0401,41.2909],[14.0385,41.2911],[14.0382,41.2904],[14.039,41.2897]]]}},{"type":"Feature","properties":{"i":"061009","n":"Caiazzo"},"geometry":{"type":"Polygon","coordinates":[[[14.3797,41.2074],[14.3809,41.2019],[14.3828,41.199],[14.3883,41.1949],[14.4004,41.192],[14.4048,41.1919],[14.4106,41.1941],[14.4172,41.1919],[14.4184,41.1889],[14.4168,41.183],[14.4196,41.1796],[14.4196,41.1781],[14.4119,41.1622],[14.4125,41.1558],[14.4068,41.1466],[14.4028,41.1454],[14.3992,41.1496],[14.3867,41.1529],[14.3812,41.1563],[14.3784,41.1614],[14.3554,41.1566],[14.352,41.1521],[14.3477,41.1534],[14.3439,41.1717],[14.3412,41.1744],[14.3363,41.1834],[14.3371,41.1867],[14.3422,41.1986],[14.3323,41.2005],[14.3266,41.2043],[14.3267,41.2139],[14.3255,41.2204],[14.3287,41.2224],[14.3317,41.222],[14.3359,41.2198],[14.3415,41.2143],[14.3496,41.216],[14.3561,41.2185],[14.3591,41.2183],[14.3629,41.2164],[14.3706,41.2105],[14.3797,41.2074]]]}},{"type":"Feature","properties":{"i":"061010","n":"Calvi Risorta"},"geometry":{"type":"Polygon","coordinates":[[[14.1617,41.2245],[14.155,41.2123],[14.1537,41.2111],[14.1471,41.2101],[14.1346,41.1969],[14.1311,41.1913],[14.1202,41.1633],[14.1178,41.1542],[14.1152,41.1509],[14.1062,41.1462],[14.1108,41.1525],[14.1166,41.1656],[14.1173,41.1742],[14.1215,41.182],[14.1248,41.1863],[14.1262,41.1909],[14.1209,41.2003],[14.1166,41.2044],[14.1105,41.2066],[14.0983,41.2073],[14.093,41.2063],[14.0896,41.2155],[14.1045,41.2199],[14.1089,41.2225],[14.1114,41.2257],[14.1202,41.227],[14.1255,41.2298],[14.1407,41.2339],[14.1421,41.2321],[14.1428,41.2296],[14.1479,41.2273],[14.156,41.2246],[14.1617,41.2245]]]}},{"type":"Feature","properties":{"i":"061011","n":"Camigliano"},"geometry":{"type":"Polygon","coordinates":[[[14.242,41.1714],[14.2397,41.1728],[14.2278,41.1735],[14.2239,41.1711],[14.2146,41.1701],[14.2035,41.1732],[14.2008,41.1732],[14.2003,41.1721],[14.1962,41.1742],[14.1964,41.1757],[14.1999,41.1792],[14.2099,41.1852],[14.2127,41.1884],[14.2117,41.1913],[14.2096,41.1931],[14.2159,41.2011],[14.242,41.1714]]]}},{"type":"Feature","properties":{"i":"061012","n":"Cancello ed Arnone"},"geometry":{"type":"Polygon","coordinates":[[[14.028,41.1058],[14.0285,41.1011],[14.0329,41.0956],[14.0334,41.0935],[14.0306,41.0808],[14.0337,41.0742],[14.0357,41.0724],[14.0388,41.072],[14.0401,41.0736],[14.0387,41.0761],[14.0354,41.0792],[14.0352,41.08],[14.0381,41.0823],[14.0587,41.0911],[14.0616,41.0908],[14.0639,41.0888],[14.0635,41.0823],[14.0617,41.077],[14.06,41.0728],[14.0582,41.0722],[14.0563,41.0699],[14.0589,41.0626],[14.0647,41.0646],[14.0655,41.0638],[14.0673,41.0607],[14.0676,41.0513],[14.0799,41.0489],[14.0808,41.0326],[14.0315,41.0237],[14.0036,41.0091],[14.0047,41.0217],[14.0045,41.0616],[14.0071,41.0693],[14.006,41.0708],[14.0009,41.0737],[13.9932,41.076],[13.9915,41.0774],[13.9884,41.083],[13.9744,41.0899],[13.968,41.09],[13.9686,41.0927],[13.9728,41.1009],[13.9762,41.1017],[13.9853,41.1022],[13.9924,41.1012],[14.0119,41.1083],[14.0212,41.1048],[14.028,41.1058]]]}},{"type":"Feature","properties":{"i":"061013","n":"Capodrise"},"geometry":{"type":"Polygon","coordinates":[[[14.3144,41.0478],[14.3151,41.0437],[14.3246,41.0438],[14.3246,41.0375],[14.3083,41.0372],[14.2995,41.0419],[14.2866,41.0394],[14.2783,41.0434],[14.2825,41.0435],[14.2828,41.0487],[14.2897,41.0485],[14.2914,41.0498],[14.3024,41.0498],[14.3036,41.0484],[14.3144,41.0478]]]}},{"type":"Feature","properties":{"i":"061014","n":"Capriati a Volturno"},"geometry":{"type":"Polygon","coordinates":[[[14.1657,41.4794],[14.1766,41.4762],[14.1666,41.4596],[14.1609,41.463],[14.1571,41.4604],[14.1449,41.4595],[14.1369,41.4645],[14.1219,41.4691],[14.1166,41.4699],[14.109,41.4703],[14.1027,41.4697],[14.0896,41.4623],[14.0868,41.4597],[14.0858,41.4625],[14.0824,41.4655],[14.0948,41.4726],[14.1034,41.4837],[14.1073,41.4854],[14.1119,41.4889],[14.1155,41.4955],[14.1186,41.5051],[14.1208,41.507],[14.1253,41.5074],[14.137,41.4951],[14.1495,41.4853],[14.1516,41.4827],[14.1601,41.4796],[14.165,41.4788],[14.1657,41.4794]]]}},{"type":"Feature","properties":{"i":"061015","n":"Capua"},"geometry":{"type":"Polygon","coordinates":[[[14.3186,41.1401],[14.3079,41.1324],[14.3028,41.1322],[14.301,41.1239],[14.2962,41.1205],[14.2904,41.1214],[14.2842,41.1172],[14.282,41.1144],[14.2782,41.116],[14.2727,41.1151],[14.2577,41.1071],[14.2572,41.1018],[14.2434,41.0983],[14.2347,41.0943],[14.2312,41.088],[14.2283,41.0884],[14.2255,41.0917],[14.2222,41.0927],[14.2162,41.0928],[14.2077,41.0916],[14.1796,41.0939],[14.1788,41.096],[14.1735,41.0989],[14.1676,41.0985],[14.1646,41.0992],[14.1622,41.1005],[14.1578,41.1049],[14.1552,41.1055],[14.1516,41.1052],[14.1497,41.1041],[14.1498,41.1009],[14.1454,41.094],[14.1357,41.0971],[14.1348,41.1011],[14.1387,41.1019],[14.1379,41.1036],[14.1336,41.1057],[14.1293,41.1043],[14.125,41.1049],[14.1219,41.108],[14.1254,41.1157],[14.1282,41.1162],[14.1289,41.1237],[14.1276,41.1252],[14.1281,41.1279],[14.1292,41.1295],[14.1543,41.1338],[14.1636,41.1302],[14.1759,41.1286],[14.1962,41.1299],[14.201,41.1178],[14.2029,41.1181],[14.2138,41.1242],[14.2186,41.1286],[14.2199,41.1285],[14.2248,41.1245],[14.2307,41.1167],[14.2342,41.1186],[14.2345,41.122],[14.2335,41.1241],[14.2283,41.1295],[14.2298,41.1312],[14.2338,41.1327],[14.2498,41.1341],[14.2589,41.1318],[14.2632,41.1318],[14.2697,41.1331],[14.2794,41.1334],[14.3048,41.1385],[14.3054,41.1394],[14.3048,41.141],[14.3015,41.1433],[14.2963,41.1452],[14.2946,41.1484],[14.2997,41.1474],[14.3186,41.1401]],[[14.2869,41.127],[14.2857,41.1271],[14.2856,41.1263],[14.2902,41.1258],[14.2914,41.1264],[14.288,41.1274],[14.2869,41.127]],[[14.2838,41.1247],[14.2804,41.1246],[14.2794,41.1227],[14.2847,41.124],[14.2838,41.1247]],[[14.2777,41.1212],[14.2811,41.1214],[14.2789,41.122],[14.2777,41.1212]]]}},{"type":"Feature","properties":{"i":"061016","n":"Carinaro"},"geometry":{"type":"Polygon","coordinates":[[[14.2246,40.9795],[14.2192,40.979],[14.2129,40.9803],[14.2146,40.9826],[14.2143,40.9859],[14.2159,40.9859],[14.2161,40.9872],[14.2157,41.0052],[14.2287,41.0046],[14.2312,41.0051],[14.2287,41.017],[14.2253,41.0223],[14.2315,41.0319],[14.244,41.0243],[14.2413,41.0184],[14.2407,41.0123],[14.2352,41.0065],[14.2315,40.9976],[14.2327,40.9955],[14.2328,40.986],[14.2247,40.986],[14.2246,40.9795]]]}},{"type":"Feature","properties":{"i":"061017","n":"Carinola"},"geometry":{"type":"Polygon","coordinates":[[[14.0402,41.1757],[14.0368,41.1636],[14.0248,41.1522],[14.0194,41.1397],[14.0192,41.1327],[14.0242,41.1294],[14.0245,41.1281],[14.0231,41.1204],[14.0272,41.1134],[14.0153,41.1259],[14.0035,41.1285],[13.9956,41.1366],[13.9852,41.1455],[13.9793,41.1536],[13.9769,41.1608],[13.9733,41.1616],[13.9699,41.1649],[13.9638,41.1832],[13.9587,41.1814],[13.9462,41.183],[13.9358,41.1888],[13.9354,41.1904],[13.9285,41.1908],[13.93,41.1971],[13.9349,41.2046],[13.9532,41.2193],[13.9664,41.2245],[13.9704,41.229],[13.9792,41.2333],[13.9844,41.2336],[13.9977,41.2365],[14.0013,41.2313],[14.0036,41.2232],[14.0083,41.2141],[14.0124,41.2103],[14.0234,41.2037],[14.0274,41.1981],[14.0291,41.1902],[14.0402,41.1757]]]}},{"type":"Feature","properties":{"i":"061018","n":"Casagiove"},"geometry":{"type":"Polygon","coordinates":[[[14.3112,41.0631],[14.2992,41.0691],[14.2995,41.0791],[14.2975,41.0924],[14.2942,41.0922],[14.2918,41.0933],[14.2898,41.0949],[14.2881,41.099],[14.2881,41.1018],[14.2915,41.1076],[14.2938,41.1065],[14.2979,41.0981],[14.3013,41.0957],[14.3076,41.0959],[14.3153,41.0929],[14.3209,41.0815],[14.321,41.0761],[14.32,41.0756],[14.316,41.0666],[14.3112,41.0631]]]}},{"type":"Feature","properties":{"i":"061019","n":"Casal di Principe"},"geometry":{"type":"Polygon","coordinates":[[[14.1028,41.0484],[14.1122,41.046],[14.1196,41.0397],[14.1231,41.0387],[14.1375,41.0399],[14.1401,41.0428],[14.1402,41.0399],[14.1485,41.0236],[14.1488,41.0056],[14.132,41.0054],[14.1228,41.0043],[14.1191,41.0031],[14.1133,40.9983],[14.0983,40.9983],[14.0981,41.0054],[14.096,41.0099],[14.0895,41.0166],[14.0815,41.0266],[14.0806,41.0316],[14.0799,41.0489],[14.1028,41.0484]]]}},{"type":"Feature","properties":{"i":"061020","n":"Casaluce"},"geometry":{"type":"Polygon","coordinates":[[[14.2191,41.0398],[14.2203,41.0383],[14.2192,41.0369],[14.2199,41.0307],[14.2185,41.0278],[14.2109,41.019],[14.2075,41.0098],[14.2075,40.9983],[14.2043,40.9984],[14.1992,40.9943],[14.199,40.9862],[14.1909,40.9911],[14.1904,41.0174],[14.1934,41.0314],[14.1935,41.0363],[14.1928,41.0398],[14.1904,41.0414],[14.2149,41.0417],[14.2191,41.0398]]]}},{"type":"Feature","properties":{"i":"061021","n":"Casapulla"},"geometry":{"type":"Polygon","coordinates":[[[14.2992,41.0691],[14.2822,41.069],[14.2824,41.0856],[14.2865,41.0853],[14.2907,41.0875],[14.2942,41.0922],[14.2973,41.0928],[14.2995,41.0791],[14.2992,41.0691]]]}},{"type":"Feature","properties":{"i":"061022","n":"Caserta"},"geometry":{"type":"MultiPolygon","coordinates":[[[[14.2777,41.1212],[14.2789,41.122],[14.2811,41.1214],[14.2777,41.1212]]],[[[14.2838,41.1247],[14.2847,41.124],[14.2794,41.1227],[14.2804,41.1246],[14.2838,41.1247]]],[[[14.2869,41.127],[14.288,41.1274],[14.2914,41.1264],[14.2902,41.1258],[14.2856,41.1263],[14.2857,41.1271],[14.2869,41.127]]],[[[14.3938,41.1158],[14.4092,41.1135],[14.4198,41.1091],[14.4286,41.1076],[14.4342,41.1078],[14.4346,41.1031],[14.4339,41.1013],[14.4244,41.0925],[14.4044,41.0828],[14.3936,41.0759],[14.3921,41.0699],[14.3928,41.0616],[14.3986,41.0557],[14.3793,41.0578],[14.3694,41.0567],[14.3664,41.0525],[14.3682,41.0488],[14.3586,41.0452],[14.3553,41.0428],[14.3441,41.0482],[14.3407,41.0586],[14.3386,41.0613],[14.3331,41.0611],[14.3331,41.059],[14.3321,41.057],[14.3262,41.0567],[14.3112,41.0631],[14.316,41.0666],[14.32,41.0756],[14.321,41.0761],[14.3209,41.0815],[14.3153,41.0929],[14.3076,41.0959],[14.3013,41.0957],[14.2979,41.0981],[14.2935,41.1069],[14.2915,41.1076],[14.282,41.1144],[14.2842,41.1172],[14.2904,41.1214],[14.2962,41.1205],[14.2995,41.1226],[14.301,41.1239],[14.3023,41.1316],[14.3052,41.1327],[14.3079,41.1324],[14.3075,41.125],[14.3085,41.1224],[14.3139,41.1177],[14.3266,41.1095],[14.3612,41.1032],[14.3727,41.1026],[14.3784,41.1045],[14.3831,41.1119],[14.3846,41.1129],[14.3938,41.1158]]]]}},{"type":"Feature","properties":{"i":"061023","n":"Castel Campagnano"},"geometry":{"type":"Polygon","coordinates":[[[14.4658,41.1772],[14.4674,41.1767],[14.4682,41.1752],[14.4671,41.1707],[14.4649,41.1677],[14.4632,41.1675],[14.4586,41.1636],[14.4589,41.1602],[14.4636,41.1569],[14.4621,41.1559],[14.4496,41.1539],[14.4392,41.1555],[14.436,41.1547],[14.4307,41.1497],[14.4303,41.1408],[14.4282,41.1365],[14.4231,41.1353],[14.421,41.1384],[14.4102,41.1423],[14.4037,41.1435],[14.4028,41.1454],[14.4078,41.1473],[14.4125,41.1558],[14.4119,41.1622],[14.4149,41.1691],[14.4173,41.1725],[14.4196,41.1796],[14.4253,41.1808],[14.4314,41.1841],[14.4326,41.1856],[14.4522,41.1927],[14.4534,41.1914],[14.4575,41.1912],[14.461,41.1864],[14.4581,41.1829],[14.4594,41.1748],[14.4617,41.1747],[14.4658,41.1772]]]}},{"type":"Feature","properties":{"i":"061024","n":"Castel di Sasso"},"geometry":{"type":"Polygon","coordinates":[[[14.3267,41.2139],[14.3265,41.2031],[14.3086,41.1998],[14.3063,41.1918],[14.3058,41.1857],[14.3087,41.1823],[14.3099,41.1786],[14.3028,41.1754],[14.2955,41.1702],[14.2917,41.1661],[14.2888,41.1578],[14.2936,41.1544],[14.2946,41.1484],[14.2963,41.1452],[14.2956,41.1433],[14.2915,41.1433],[14.2845,41.1467],[14.2741,41.1535],[14.2671,41.1782],[14.2741,41.1847],[14.2792,41.1945],[14.2792,41.1989],[14.2752,41.2032],[14.2695,41.2063],[14.2677,41.2042],[14.2656,41.2036],[14.263,41.2045],[14.2628,41.2067],[14.2646,41.2103],[14.2675,41.2128],[14.2963,41.2136],[14.2967,41.2128],[14.3014,41.2128],[14.315,41.214],[14.3169,41.2146],[14.3171,41.2155],[14.3157,41.2172],[14.3172,41.2184],[14.3237,41.2176],[14.3267,41.2139]]]}},{"type":"Feature","properties":{"i":"061025","n":"Castello del Matese"},"geometry":{"type":"Polygon","coordinates":[[[14.478,41.4102],[14.4723,41.4073],[14.4607,41.4058],[14.4572,41.4036],[14.4584,41.3939],[14.4606,41.3901],[14.4426,41.3805],[14.4347,41.379],[14.4287,41.3643],[14.4203,41.3613],[14.4159,41.3606],[14.4033,41.3713],[14.3924,41.377],[14.3847,41.377],[14.3799,41.3742],[14.3793,41.3723],[14.3826,41.3689],[14.3802,41.3634],[14.3768,41.3623],[14.3672,41.3692],[14.3627,41.3734],[14.363,41.3787],[14.3653,41.377],[14.3681,41.3779],[14.3686,41.3795],[14.3742,41.382],[14.3913,41.3819],[14.4183,41.3837],[14.4209,41.3997],[14.42,41.4067],[14.4215,41.4087],[14.428,41.4104],[14.4372,41.4108],[14.4421,41.4092],[14.4505,41.4131],[14.4588,41.4203],[14.459,41.4212],[14.4566,41.4261],[14.4708,41.4201],[14.4773,41.419],[14.4824,41.414],[14.4805,41.4113],[14.478,41.4102]]]}},{"type":"Feature","properties":{"i":"061026","n":"Castel Morrone"},"geometry":{"type":"Polygon","coordinates":[[[14.3938,41.1158],[14.3846,41.1129],[14.3831,41.1119],[14.3784,41.1045],[14.3727,41.1026],[14.3612,41.1032],[14.3266,41.1095],[14.3139,41.1177],[14.3085,41.1224],[14.3075,41.125],[14.3079,41.1324],[14.3241,41.1433],[14.3378,41.143],[14.3463,41.1446],[14.3486,41.1497],[14.352,41.1521],[14.3585,41.1438],[14.3632,41.1401],[14.3696,41.1371],[14.3761,41.1369],[14.3882,41.1343],[14.3972,41.1214],[14.3962,41.1186],[14.3938,41.1158]]]}},{"type":"Feature","properties":{"i":"061027","n":"Castel Volturno"},"geometry":{"type":"Polygon","coordinates":[[[14.0036,41.0091],[14.0017,41.0053],[13.9961,41.0007],[13.994,40.9949],[13.994,40.9908],[13.9967,40.9822],[14.0082,40.9622],[14.0232,40.9512],[14.018,40.9479],[14.0183,40.9439],[14.0288,40.9249],[14.0273,40.9214],[14.0271,40.9171],[14.0354,40.9003],[14.0319,40.8988],[14.0248,40.9134],[14.0157,40.9287],[14.0069,40.9418],[13.9938,40.9583],[13.9848,40.9677],[13.9733,40.976],[13.9682,40.9832],[13.9549,40.9978],[13.9357,41.0129],[13.922,41.0263],[13.9184,41.0357],[13.9159,41.0467],[13.9022,41.0754],[13.9093,41.0759],[13.9129,41.0714],[13.9261,41.0504],[13.9302,41.0465],[13.9329,41.0464],[13.9342,41.047],[13.9341,41.0533],[13.9365,41.0616],[13.9415,41.0641],[13.9455,41.0701],[13.945,41.0779],[13.947,41.0848],[13.9525,41.0868],[13.968,41.09],[13.9744,41.0899],[13.9884,41.083],[13.9915,41.0774],[13.9932,41.076],[14.0009,41.0737],[14.006,41.0708],[14.0071,41.0693],[14.0045,41.0616],[14.0047,41.0217],[14.0036,41.0091]]]}},{"type":"Feature","properties":{"i":"061028","n":"Cervino"},"geometry":{"type":"Polygon","coordinates":[[[14.4558,41.0427],[14.455,41.0397],[14.4468,41.027],[14.4395,41.0261],[14.4315,41.0263],[14.4215,41.0318],[14.4132,41.0383],[14.4128,41.0396],[14.4176,41.0403],[14.4183,41.042],[14.4095,41.0512],[14.4094,41.0523],[14.4126,41.0557],[14.413,41.0572],[14.4165,41.0562],[14.4186,41.0544],[14.44,41.0495],[14.4494,41.0463],[14.4541,41.0485],[14.4566,41.0459],[14.4558,41.0427]]]}},{"type":"Feature","properties":{"i":"061029","n":"Cesa"},"geometry":{"type":"Polygon","coordinates":[[[14.233,40.9702],[14.2343,40.9648],[14.2415,40.9606],[14.2413,40.9548],[14.2328,40.9588],[14.2319,40.9535],[14.2252,40.9509],[14.2206,40.9505],[14.2199,40.9538],[14.2168,40.9551],[14.2163,40.9562],[14.2166,40.9624],[14.2262,40.9655],[14.2246,40.9705],[14.233,40.9702]]]}},{"type":"Feature","properties":{"i":"061030","n":"Ciorlano"},"geometry":{"type":"Polygon","coordinates":[[[14.1666,41.4596],[14.1684,41.4567],[14.1711,41.4428],[14.1761,41.4364],[14.1715,41.4313],[14.1629,41.4249],[14.1577,41.4247],[14.1541,41.4261],[14.1537,41.4291],[14.1476,41.4335],[14.1435,41.4339],[14.1318,41.4325],[14.1015,41.4248],[14.0867,41.4378],[14.0801,41.4441],[14.0784,41.4471],[14.0792,41.4499],[14.0838,41.4571],[14.0896,41.4623],[14.1027,41.4697],[14.109,41.4703],[14.1219,41.4691],[14.1369,41.4645],[14.1449,41.4595],[14.1571,41.4604],[14.1609,41.463],[14.1666,41.4596]]]}},{"type":"Feature","properties":{"i":"061031","n":"Conca della Campania"},"geometry":{"type":"Polygon","coordinates":[[[14.0301,41.3653],[14.0284,41.3613],[14.025,41.3586],[14.0159,41.3544],[14.0092,41.3481],[14.0044,41.3309],[14.0104,41.3218],[14.0164,41.3233],[14.0119,41.3202],[14.0021,41.3164],[13.9999,41.3137],[13.99,41.3103],[13.9833,41.3113],[13.978,41.3146],[13.9772,41.3173],[13.9728,41.3213],[13.9663,41.3295],[13.9655,41.331],[13.9663,41.3417],[13.9686,41.3447],[13.9712,41.3465],[13.9749,41.3475],[13.9795,41.3518],[13.9804,41.3559],[13.99,41.3644],[13.9971,41.3749],[13.9993,41.3764],[14.0064,41.3788],[14.0217,41.3857],[14.0308,41.3906],[14.0382,41.3913],[14.044,41.3843],[14.0462,41.3799],[14.0464,41.3778],[14.0452,41.3747],[14.0289,41.3666],[14.0301,41.3653]]]}},{"type":"Feature","properties":{"i":"061032","n":"Curti"},"geometry":{"type":"Polygon","coordinates":[[[14.2824,41.0796],[14.2822,41.069],[14.2657,41.0692],[14.2655,41.0734],[14.2699,41.0819],[14.2824,41.0796]]]}},{"type":"Feature","properties":{"i":"061033","n":"Dragoni"},"geometry":{"type":"Polygon","coordinates":[[[14.3448,41.2795],[14.337,41.2676],[14.3245,41.2545],[14.3197,41.2522],[14.3137,41.2511],[14.3132,41.2481],[14.3197,41.2375],[14.3138,41.2325],[14.3166,41.2269],[14.3141,41.2266],[14.3104,41.2311],[14.2798,41.2443],[14.2696,41.253],[14.2772,41.2683],[14.2807,41.2728],[14.2856,41.2845],[14.2881,41.287],[14.3047,41.2964],[14.3074,41.2963],[14.3096,41.2917],[14.3365,41.2876],[14.3373,41.286],[14.3369,41.2847],[14.3318,41.2808],[14.3324,41.2794],[14.3348,41.2781],[14.3366,41.2777],[14.339,41.2789],[14.3395,41.2822],[14.3425,41.2816],[14.3448,41.2795]]]}},{"type":"Feature","properties":{"i":"061034","n":"Fontegreca"},"geometry":{"type":"Polygon","coordinates":[[[14.2106,41.4545],[14.1988,41.4493],[14.1811,41.4375],[14.1761,41.4367],[14.1711,41.4428],[14.1684,41.4567],[14.1666,41.4596],[14.1766,41.4762],[14.1812,41.474],[14.1856,41.4739],[14.1897,41.4751],[14.193,41.4739],[14.2005,41.4679],[14.209,41.4559],[14.2106,41.4545]]]}},{"type":"Feature","properties":{"i":"061035","n":"Formicola"},"geometry":{"type":"Polygon","coordinates":[[[14.2225,41.1944],[14.2085,41.2096],[14.1971,41.2163],[14.1948,41.2191],[14.197,41.2268],[14.1967,41.2361],[14.2001,41.2424],[14.2116,41.244],[14.2198,41.2441],[14.2343,41.2336],[14.2428,41.226],[14.2482,41.2172],[14.2484,41.2157],[14.2461,41.2116],[14.2356,41.2013],[14.2225,41.1944]]]}},{"type":"Feature","properties":{"i":"061036","n":"Francolise"},"geometry":{"type":"Polygon","coordinates":[[[14.0896,41.2145],[14.093,41.2063],[14.0797,41.1921],[14.0809,41.1865],[14.0898,41.1797],[14.0986,41.1747],[14.0798,41.1544],[14.0781,41.1354],[14.0814,41.1286],[14.0772,41.1259],[14.0634,41.1213],[14.0317,41.1085],[14.0258,41.1151],[14.0231,41.1204],[14.0245,41.1281],[14.0242,41.1294],[14.0192,41.1327],[14.0194,41.1397],[14.0248,41.1522],[14.0368,41.1636],[14.0402,41.1757],[14.0434,41.1778],[14.049,41.1878],[14.0559,41.1899],[14.0603,41.1924],[14.0666,41.1977],[14.068,41.2003],[14.0669,41.2059],[14.0686,41.2095],[14.0746,41.2138],[14.0783,41.215],[14.0808,41.2155],[14.0896,41.2145]]]}},{"type":"Feature","properties":{"i":"061037","n":"Frignano"},"geometry":{"type":"Polygon","coordinates":[[[14.1909,40.9911],[14.1742,40.9924],[14.1738,41.003],[14.1726,41.0048],[14.1668,41.009],[14.1653,41.0206],[14.1656,41.0324],[14.1649,41.0382],[14.1701,41.0366],[14.1768,41.036],[14.1906,41.0408],[14.1928,41.0398],[14.1934,41.0314],[14.1904,41.0174],[14.1909,40.9911]]]}},{"type":"Feature","properties":{"i":"061038","n":"Gallo Matese"},"geometry":{"type":"Polygon","coordinates":[[[14.216,41.4968],[14.2307,41.4981],[14.2407,41.4972],[14.2472,41.486],[14.2494,41.4846],[14.2611,41.4842],[14.2791,41.4864],[14.2811,41.4841],[14.2921,41.4763],[14.2893,41.4732],[14.2843,41.4721],[14.2837,41.4699],[14.2819,41.4703],[14.2778,41.4747],[14.278,41.4753],[14.2731,41.4757],[14.2547,41.4647],[14.2416,41.4578],[14.2376,41.4565],[14.227,41.4492],[14.2192,41.4508],[14.2096,41.4553],[14.2005,41.4679],[14.1922,41.4744],[14.1887,41.4751],[14.1856,41.4739],[14.1812,41.474],[14.1766,41.4762],[14.1657,41.4794],[14.1673,41.4944],[14.1724,41.4992],[14.1748,41.4995],[14.178,41.4972],[14.1908,41.4965],[14.195,41.4984],[14.2049,41.4999],[14.216,41.4968]]]}},{"type":"Feature","properties":{"i":"061039","n":"Galluccio"},"geometry":{"type":"Polygon","coordinates":[[[13.9971,41.3749],[13.99,41.3644],[13.9804,41.3559],[13.9795,41.3518],[13.9749,41.3475],[13.9712,41.3465],[13.9686,41.3447],[13.9663,41.3417],[13.9655,41.331],[13.9712,41.3232],[13.9772,41.3173],[13.9667,41.317],[13.9589,41.3151],[13.9522,41.3121],[13.9478,41.3088],[13.946,41.306],[13.9419,41.3146],[13.9392,41.3171],[13.9346,41.3186],[13.914,41.3206],[13.9136,41.323],[13.9089,41.3267],[13.901,41.3301],[13.8877,41.3325],[13.8863,41.3359],[13.8859,41.3392],[13.9092,41.3472],[13.9141,41.348],[13.9206,41.3526],[13.9208,41.3587],[13.9268,41.3626],[13.9323,41.361],[13.9404,41.356],[13.9451,41.3574],[13.9481,41.3597],[13.9479,41.3712],[13.9615,41.368],[13.9656,41.3678],[13.9715,41.3715],[13.974,41.3754],[13.9832,41.3784],[13.9971,41.3749]]]}},{"type":"Feature","properties":{"i":"061040","n":"Giano Vetusto"},"geometry":{"type":"Polygon","coordinates":[[[14.1957,41.2175],[14.2085,41.2096],[14.2159,41.2011],[14.2089,41.1919],[14.2043,41.1885],[14.1946,41.1901],[14.1904,41.192],[14.1737,41.2058],[14.1674,41.2101],[14.1587,41.2128],[14.155,41.2123],[14.1631,41.2268],[14.1693,41.2277],[14.1785,41.2268],[14.188,41.2178],[14.1922,41.2155],[14.1938,41.2153],[14.1957,41.2175]]]}},{"type":"Feature","properties":{"i":"061041","n":"Gioia Sannitica"},"geometry":{"type":"Polygon","coordinates":[[[14.4891,41.3006],[14.4736,41.2995],[14.4537,41.2937],[14.4484,41.2905],[14.4388,41.2823],[14.4354,41.2759],[14.4356,41.273],[14.4326,41.2648],[14.4312,41.2635],[14.4262,41.2624],[14.4214,41.2566],[14.4183,41.2508],[14.4123,41.2473],[14.4058,41.2469],[14.3981,41.2521],[14.396,41.2555],[14.396,41.2567],[14.398,41.2588],[14.3932,41.2654],[14.3894,41.2684],[14.3869,41.2681],[14.385,41.2666],[14.3853,41.2606],[14.3865,41.2592],[14.3804,41.2613],[14.3697,41.267],[14.3741,41.2703],[14.3835,41.2752],[14.393,41.288],[14.3924,41.2957],[14.3885,41.3017],[14.3845,41.3111],[14.3869,41.3127],[14.3931,41.3138],[14.3973,41.3155],[14.4048,41.3205],[14.4074,41.3235],[14.4086,41.3263],[14.4111,41.3286],[14.4256,41.3401],[14.4324,41.3443],[14.4365,41.345],[14.4395,41.3443],[14.4525,41.3449],[14.4581,41.3418],[14.4685,41.3455],[14.475,41.3382],[14.4774,41.3209],[14.4895,41.3078],[14.4901,41.3051],[14.4891,41.3006]]]}},{"type":"Feature","properties":{"i":"061042","n":"Grazzanise"},"geometry":{"type":"Polygon","coordinates":[[[14.1293,41.1043],[14.1294,41.101],[14.1286,41.0997],[14.1171,41.0994],[14.115,41.1],[14.1141,41.1013],[14.1158,41.1059],[14.1159,41.1085],[14.1131,41.1086],[14.1084,41.1051],[14.1079,41.103],[14.1109,41.0937],[14.1115,41.0811],[14.1102,41.0769],[14.1061,41.0713],[14.1058,41.0634],[14.1096,41.0587],[14.1028,41.0484],[14.0843,41.0483],[14.0676,41.0513],[14.0673,41.0607],[14.0655,41.0638],[14.0647,41.0646],[14.0589,41.0626],[14.0563,41.0699],[14.0582,41.0722],[14.06,41.0728],[14.0635,41.0823],[14.0639,41.0888],[14.0616,41.0908],[14.0587,41.0911],[14.0423,41.0845],[14.0368,41.0815],[14.0352,41.08],[14.0354,41.0792],[14.0396,41.075],[14.0401,41.0736],[14.0388,41.072],[14.0357,41.0724],[14.0339,41.0737],[14.0306,41.0808],[14.0334,41.0935],[14.0329,41.0956],[14.0285,41.1011],[14.028,41.1058],[14.0317,41.1085],[14.0634,41.1213],[14.0772,41.1259],[14.0814,41.1286],[14.0866,41.1299],[14.094,41.1297],[14.1062,41.1261],[14.1183,41.1283],[14.1247,41.1325],[14.1292,41.1295],[14.1281,41.1279],[14.1276,41.1252],[14.1289,41.1237],[14.1282,41.1162],[14.1254,41.1157],[14.1219,41.108],[14.125,41.1049],[14.1293,41.1043]]]}},{"type":"Feature","properties":{"i":"061043","n":"Gricignano di Aversa"},"geometry":{"type":"Polygon","coordinates":[[[14.258,41.0158],[14.2567,41.0123],[14.2563,40.9922],[14.2512,40.9887],[14.2478,40.9797],[14.2492,40.9727],[14.2349,40.9703],[14.2246,40.9705],[14.2247,40.986],[14.2328,40.986],[14.2327,40.9955],[14.2315,40.9976],[14.2352,41.0065],[14.2407,41.0123],[14.2413,41.0184],[14.244,41.0243],[14.258,41.0158]]]}},{"type":"Feature","properties":{"i":"061044","n":"Letino"},"geometry":{"type":"Polygon","coordinates":[[[14.2843,41.4721],[14.2893,41.4695],[14.2979,41.4687],[14.3047,41.4664],[14.3272,41.4534],[14.3422,41.4541],[14.353,41.4499],[14.3591,41.4485],[14.3563,41.4456],[14.3553,41.4433],[14.3563,41.4421],[14.352,41.4362],[14.3391,41.427],[14.3319,41.427],[14.3158,41.4306],[14.3089,41.431],[14.3022,41.4372],[14.2821,41.4379],[14.273,41.4368],[14.2615,41.4389],[14.2498,41.4374],[14.2412,41.4388],[14.236,41.4406],[14.235,41.4433],[14.227,41.4492],[14.2376,41.4565],[14.2416,41.4578],[14.2547,41.4647],[14.2731,41.4757],[14.278,41.4753],[14.2778,41.4747],[14.2819,41.4703],[14.2837,41.4699],[14.2843,41.4721]]]}},{"type":"Feature","properties":{"i":"061045","n":"Liberi"},"geometry":{"type":"Polygon","coordinates":[[[14.2696,41.253],[14.2798,41.2443],[14.3104,41.2311],[14.3141,41.2266],[14.3169,41.227],[14.3255,41.2204],[14.3267,41.2139],[14.3237,41.2176],[14.3172,41.2184],[14.3157,41.2172],[14.3171,41.2155],[14.3169,41.2146],[14.3124,41.2137],[14.3014,41.2128],[14.2967,41.2128],[14.2963,41.2136],[14.2675,41.2128],[14.2656,41.2152],[14.2663,41.2184],[14.2656,41.2268],[14.264,41.2294],[14.2586,41.2341],[14.2398,41.2435],[14.2362,41.2475],[14.2359,41.2507],[14.2519,41.2559],[14.2617,41.2531],[14.2696,41.253]]]}},{"type":"Feature","properties":{"i":"061046","n":"Lusciano"},"geometry":{"type":"Polygon","coordinates":[[[14.1972,40.9539],[14.189,40.953],[14.1722,40.954],[14.1689,40.9666],[14.1808,40.9728],[14.1986,40.9729],[14.1991,40.972],[14.1968,40.9594],[14.1972,40.9539]]]}},{"type":"Feature","properties":{"i":"061047","n":"Macerata Campania"},"geometry":{"type":"Polygon","coordinates":[[[14.2912,41.0508],[14.2881,41.052],[14.2864,41.0575],[14.2783,41.0625],[14.2742,41.0625],[14.2741,41.0435],[14.2574,41.0413],[14.2488,41.0372],[14.242,41.0368],[14.2423,41.0386],[14.2464,41.0453],[14.2547,41.0496],[14.2626,41.0695],[14.2992,41.0691],[14.2994,41.0565],[14.2911,41.0584],[14.2912,41.0508]]]}},{"type":"Feature","properties":{"i":"061048","n":"Maddaloni"},"geometry":{"type":"Polygon","coordinates":[[[14.3986,41.0557],[14.4126,41.0557],[14.4098,41.0531],[14.4095,41.0512],[14.4177,41.0429],[14.4184,41.041],[14.4134,41.04],[14.4128,41.0388],[14.4215,41.0318],[14.4315,41.0263],[14.4443,41.0264],[14.4494,41.0236],[14.4461,41.0198],[14.4438,41.0188],[14.44,41.0186],[14.4365,41.0163],[14.4356,41.0119],[14.4379,41.0093],[14.4318,41.0063],[14.4252,41.0042],[14.4142,41.0037],[14.4148,40.997],[14.4117,40.9998],[14.4062,41.0014],[14.3625,41.0007],[14.3566,41.0014],[14.3557,41.0018],[14.3544,41.0067],[14.3505,41.008],[14.3419,41.0136],[14.3417,41.0183],[14.3538,41.0219],[14.3583,41.0246],[14.3584,41.038],[14.3541,41.0405],[14.3539,41.0415],[14.3586,41.0452],[14.3682,41.0488],[14.3664,41.0525],[14.3694,41.0567],[14.3793,41.0578],[14.3986,41.0557]]]}},{"type":"Feature","properties":{"i":"061049","n":"Marcianise"},"geometry":{"type":"Polygon","coordinates":[[[14.2783,41.0434],[14.2866,41.0394],[14.2995,41.0419],[14.3083,41.0372],[14.3246,41.0375],[14.3247,41.0245],[14.3418,41.0246],[14.3419,41.0136],[14.3505,41.008],[14.3544,41.0067],[14.3557,41.0018],[14.3478,41.0001],[14.335,41.0018],[14.3266,41.0001],[14.2976,41.0047],[14.2928,41.0031],[14.2848,41.0038],[14.273,41.0084],[14.258,41.0158],[14.2315,41.0319],[14.242,41.0368],[14.2488,41.0372],[14.2574,41.0413],[14.2709,41.0433],[14.2783,41.0434]]]}},{"type":"Feature","properties":{"i":"061050","n":"Marzano Appio"},"geometry":{"type":"Polygon","coordinates":[[[14.0968,41.3205],[14.0745,41.3098],[14.0628,41.3067],[14.0571,41.3008],[14.0511,41.2986],[14.0454,41.2985],[14.045,41.3007],[14.0476,41.3008],[14.0491,41.3056],[14.0484,41.3061],[14.042,41.3052],[14.0384,41.3029],[14.0406,41.2978],[14.042,41.2968],[14.0411,41.2953],[14.0356,41.2933],[14.0241,41.2924],[14.0141,41.2878],[14.0096,41.2916],[14.0117,41.2988],[14.0128,41.3],[14.0023,41.3122],[13.9999,41.3137],[14.0021,41.3164],[14.0119,41.3202],[14.0312,41.3318],[14.0353,41.3321],[14.0473,41.3359],[14.0554,41.3443],[14.0599,41.3458],[14.0712,41.3426],[14.0884,41.3474],[14.0963,41.3479],[14.0915,41.3419],[14.0918,41.3344],[14.0968,41.3305],[14.0991,41.3252],[14.0968,41.3205]],[[14.0108,41.2916],[14.013,41.2915],[14.0137,41.2935],[14.0115,41.2934],[14.0108,41.2916]]]}},{"type":"Feature","properties":{"i":"061051","n":"Mignano Monte Lungo"},"geometry":{"type":"Polygon","coordinates":[[[14.0007,41.4309],[14.0057,41.4246],[14.013,41.4238],[14.0266,41.4167],[14.03,41.4119],[14.0287,41.4084],[14.0424,41.3928],[14.0382,41.3913],[14.0308,41.3906],[14.0217,41.3857],[14.0064,41.3788],[13.9993,41.3764],[13.9971,41.3749],[13.9832,41.3784],[13.974,41.3754],[13.9715,41.3715],[13.9656,41.3678],[13.9615,41.368],[13.9479,41.3712],[13.9469,41.374],[13.9479,41.3792],[13.9521,41.3859],[13.9509,41.3919],[13.9445,41.3998],[13.9376,41.4044],[13.9308,41.4066],[13.9228,41.4075],[13.917,41.4109],[13.9105,41.4165],[13.9111,41.4309],[13.9136,41.4332],[13.9239,41.4374],[13.9284,41.4384],[13.9312,41.4402],[13.9452,41.4408],[13.9537,41.4397],[13.9621,41.437],[13.9704,41.436],[13.9827,41.4359],[14.0007,41.4309]]]}},{"type":"Feature","properties":{"i":"061052","n":"Mondragone"},"geometry":{"type":"Polygon","coordinates":[[[13.9865,41.102],[13.9805,41.1023],[13.9728,41.1009],[13.9691,41.0946],[13.968,41.09],[13.9525,41.0868],[13.947,41.0848],[13.945,41.0779],[13.9455,41.0701],[13.9415,41.0641],[13.9365,41.0616],[13.9341,41.0533],[13.9341,41.0467],[13.9302,41.0465],[13.926,41.0505],[13.9129,41.0714],[13.9093,41.0759],[13.9022,41.0754],[13.8938,41.0902],[13.8864,41.1007],[13.8695,41.1197],[13.8531,41.1398],[13.8596,41.1438],[13.8603,41.145],[13.8598,41.1475],[13.866,41.1501],[13.8944,41.1435],[13.9166,41.1631],[13.9302,41.1437],[13.9303,41.141],[13.9413,41.121],[13.9456,41.1116],[13.9484,41.11],[13.9627,41.1109],[13.9615,41.1076],[13.967,41.103],[13.9716,41.104],[13.9738,41.1059],[13.9799,41.1076],[13.9865,41.102]]]}},{"type":"Feature","properties":{"i":"061053","n":"Orta di Atella"},"geometry":{"type":"Polygon","coordinates":[[[14.2976,41.0047],[14.2937,41.0017],[14.2913,40.9935],[14.2919,40.9843],[14.2938,40.9763],[14.293,40.9697],[14.2845,40.9603],[14.2635,40.9616],[14.2618,40.9647],[14.2617,40.9685],[14.2631,40.9752],[14.2714,41.0054],[14.273,41.0084],[14.2848,41.0038],[14.2928,41.0031],[14.2976,41.0047]]]}},{"type":"Feature","properties":{"i":"061054","n":"Parete"},"geometry":{"type":"Polygon","coordinates":[[[14.1689,40.9666],[14.1732,40.9521],[14.1731,40.9496],[14.1683,40.9455],[14.1663,40.9456],[14.1666,40.9526],[14.1565,40.9511],[14.1444,40.9436],[14.1374,40.9449],[14.1297,40.9499],[14.1389,40.956],[14.1441,40.9571],[14.1469,40.9594],[14.1442,40.9672],[14.1689,40.9666]]]}},{"type":"Feature","properties":{"i":"061055","n":"Pastorano"},"geometry":{"type":"Polygon","coordinates":[[[14.2003,41.1721],[14.2002,41.168],[14.1908,41.1551],[14.1841,41.1585],[14.1775,41.1604],[14.1695,41.1534],[14.1637,41.1454],[14.1645,41.1413],[14.1548,41.1375],[14.1525,41.1372],[14.1494,41.1386],[14.147,41.1415],[14.1427,41.1423],[14.1372,41.1409],[14.1316,41.1371],[14.1301,41.1425],[14.1309,41.1472],[14.1419,41.1489],[14.1525,41.1518],[14.1549,41.1535],[14.1568,41.1556],[14.1582,41.1628],[14.1604,41.1664],[14.1639,41.1699],[14.1685,41.1715],[14.1745,41.1774],[14.1797,41.1874],[14.1823,41.1892],[14.1839,41.1882],[14.1854,41.1886],[14.1891,41.1928],[14.1935,41.1904],[14.2033,41.1885],[14.2073,41.1903],[14.2096,41.1931],[14.2117,41.1913],[14.2127,41.1884],[14.2099,41.1852],[14.1999,41.1792],[14.1964,41.1757],[14.1962,41.1742],[14.2003,41.1721]]]}},{"type":"Feature","properties":{"i":"061056","n":"Piana di Monte Verna"},"geometry":{"type":"Polygon","coordinates":[[[14.352,41.1521],[14.3486,41.1497],[14.3463,41.1446],[14.3378,41.143],[14.3241,41.1433],[14.3186,41.1401],[14.2997,41.1474],[14.2946,41.1484],[14.2936,41.1544],[14.2894,41.157],[14.2887,41.1589],[14.2917,41.1661],[14.2955,41.1702],[14.3028,41.1754],[14.3099,41.1786],[14.3087,41.1823],[14.3058,41.1857],[14.3063,41.1918],[14.3086,41.1998],[14.3143,41.2013],[14.3255,41.2025],[14.3266,41.2033],[14.3266,41.2043],[14.3323,41.2005],[14.3422,41.1986],[14.3371,41.1867],[14.3363,41.1834],[14.3412,41.1744],[14.3439,41.1717],[14.3477,41.1534],[14.352,41.1521]]]}},{"type":"Feature","properties":{"i":"061057","n":"Piedimonte Matese"},"geometry":{"type":"MultiPolygon","coordinates":[[[[14.363,41.3787],[14.3625,41.3743],[14.3632,41.3726],[14.3762,41.3623],[14.3802,41.3634],[14.3826,41.3689],[14.3793,41.3723],[14.3799,41.3742],[14.3847,41.377],[14.3915,41.3771],[14.4033,41.3713],[14.4159,41.3606],[14.4074,41.3574],[14.4021,41.3496],[14.3947,41.344],[14.381,41.3362],[14.3748,41.3319],[14.3729,41.3249],[14.3708,41.3226],[14.3626,41.334],[14.3474,41.3468],[14.3403,41.3655],[14.3362,41.3742],[14.3278,41.3817],[14.3228,41.3823],[14.307,41.3869],[14.3025,41.3849],[14.2986,41.3858],[14.2874,41.3931],[14.2914,41.4007],[14.2962,41.4001],[14.3036,41.4017],[14.3138,41.4025],[14.3233,41.4016],[14.3303,41.3983],[14.3317,41.4032],[14.3472,41.4081],[14.3495,41.4073],[14.3501,41.4058],[14.3464,41.401],[14.3468,41.3994],[14.349,41.3961],[14.3534,41.3938],[14.3552,41.3937],[14.3612,41.3866],[14.3605,41.3807],[14.3608,41.3765],[14.363,41.3787]]],[[[14.4828,41.4029],[14.4845,41.3981],[14.4886,41.3907],[14.5004,41.3876],[14.5035,41.385],[14.5049,41.3826],[14.5012,41.3828],[14.4974,41.3778],[14.4979,41.3761],[14.4949,41.3743],[14.4902,41.3752],[14.4778,41.3798],[14.4793,41.3811],[14.4778,41.3833],[14.4597,41.3908],[14.4584,41.3939],[14.4572,41.4036],[14.4607,41.4058],[14.4723,41.4073],[14.478,41.4102],[14.4828,41.4029]]]]}},{"type":"Feature","properties":{"i":"061058","n":"Pietramelara"},"geometry":{"type":"Polygon","coordinates":[[[14.213,41.2439],[14.2001,41.2424],[14.1967,41.2356],[14.1946,41.2351],[14.175,41.2372],[14.1679,41.2411],[14.1629,41.2452],[14.167,41.2528],[14.1653,41.2655],[14.1589,41.2775],[14.154,41.2827],[14.1501,41.2844],[14.1522,41.2903],[14.1609,41.2943],[14.1701,41.2944],[14.1782,41.2914],[14.1829,41.2914],[14.1914,41.2974],[14.1962,41.2995],[14.2014,41.2977],[14.2022,41.2939],[14.2023,41.2793],[14.2107,41.2607],[14.2115,41.2484],[14.213,41.2439]]]}},{"type":"Feature","properties":{"i":"061059","n":"Pietravairano"},"geometry":{"type":"Polygon","coordinates":[[[14.2276,41.3428],[14.2305,41.3416],[14.2312,41.329],[14.2298,41.3261],[14.2264,41.3239],[14.2198,41.3157],[14.2195,41.3126],[14.2203,41.3089],[14.2144,41.3081],[14.2063,41.3055],[14.1914,41.2974],[14.1829,41.2914],[14.1782,41.2914],[14.1701,41.2944],[14.1598,41.294],[14.1623,41.2957],[14.1608,41.2975],[14.1543,41.2959],[14.1504,41.2973],[14.1556,41.3],[14.1556,41.3044],[14.1526,41.3054],[14.1447,41.3113],[14.1456,41.3219],[14.1489,41.3252],[14.1709,41.3382],[14.1849,41.3511],[14.1914,41.3553],[14.198,41.3628],[14.2022,41.3599],[14.2047,41.3604],[14.2059,41.3617],[14.208,41.3609],[14.2123,41.3564],[14.213,41.3545],[14.2121,41.3518],[14.2145,41.3468],[14.2234,41.3435],[14.2276,41.3428]]]}},{"type":"Feature","properties":{"i":"061060","n":"Pignataro Maggiore"},"geometry":{"type":"Polygon","coordinates":[[[14.1891,41.1928],[14.1854,41.1886],[14.1839,41.1882],[14.1823,41.1892],[14.1797,41.1874],[14.1745,41.1774],[14.1685,41.1715],[14.1639,41.1699],[14.1604,41.1664],[14.1582,41.1628],[14.1568,41.1556],[14.1557,41.1542],[14.1525,41.1518],[14.1419,41.1489],[14.1314,41.1476],[14.1304,41.1464],[14.1301,41.1441],[14.1316,41.1371],[14.1183,41.1283],[14.1062,41.1261],[14.094,41.1297],[14.0866,41.1299],[14.0814,41.1286],[14.0781,41.1354],[14.0999,41.1462],[14.1037,41.1441],[14.1062,41.1462],[14.1152,41.1509],[14.1178,41.1542],[14.1202,41.1633],[14.1311,41.1913],[14.1346,41.1969],[14.1471,41.2101],[14.1537,41.2111],[14.155,41.2123],[14.1587,41.2128],[14.1674,41.2101],[14.1737,41.2058],[14.1891,41.1928]]]}},{"type":"Feature","properties":{"i":"061061","n":"Pontelatone"},"geometry":{"type":"Polygon","coordinates":[[[14.2675,41.2128],[14.2646,41.2103],[14.2628,41.2067],[14.263,41.2045],[14.2656,41.2036],[14.2677,41.2042],[14.2695,41.2063],[14.2752,41.2032],[14.2792,41.1989],[14.2792,41.1945],[14.2741,41.1847],[14.2671,41.1782],[14.2741,41.1535],[14.2845,41.1467],[14.2915,41.1433],[14.2956,41.1433],[14.2963,41.1452],[14.3015,41.1433],[14.3053,41.1402],[14.3054,41.1394],[14.3038,41.1379],[14.3012,41.1383],[14.2794,41.1334],[14.2697,41.1331],[14.2695,41.1358],[14.2676,41.1384],[14.2549,41.1425],[14.25,41.1516],[14.2494,41.1608],[14.2481,41.1632],[14.2444,41.169],[14.2253,41.1897],[14.2225,41.1944],[14.2356,41.2013],[14.2453,41.2107],[14.2484,41.2166],[14.2428,41.226],[14.2343,41.2336],[14.2198,41.2441],[14.2225,41.2467],[14.2284,41.2494],[14.2302,41.2489],[14.236,41.25],[14.2362,41.2475],[14.2398,41.2435],[14.2586,41.2341],[14.264,41.2294],[14.2656,41.2268],[14.2663,41.2184],[14.2656,41.2152],[14.2675,41.2128]]]}},{"type":"Feature","properties":{"i":"061062","n":"Portico di Caserta"},"geometry":{"type":"Polygon","coordinates":[[[14.2912,41.0508],[14.2914,41.0498],[14.2897,41.0485],[14.2828,41.0487],[14.2825,41.0435],[14.2741,41.0435],[14.2742,41.0625],[14.2783,41.0625],[14.2864,41.0575],[14.2881,41.052],[14.2912,41.0508]]]}},{"type":"Feature","properties":{"i":"061063","n":"Prata Sannita"},"geometry":{"type":"Polygon","coordinates":[[[14.227,41.4492],[14.235,41.4433],[14.2273,41.4427],[14.2224,41.4398],[14.2202,41.4365],[14.2198,41.4356],[14.2209,41.4338],[14.2295,41.4286],[14.2301,41.4245],[14.2247,41.4219],[14.2208,41.4135],[14.2227,41.4073],[14.2329,41.3995],[14.2299,41.3965],[14.2253,41.3963],[14.2169,41.3997],[14.1944,41.4034],[14.1932,41.4085],[14.1861,41.4135],[14.1755,41.4175],[14.156,41.4227],[14.1541,41.4261],[14.1577,41.4247],[14.1629,41.4249],[14.1715,41.4313],[14.1749,41.4345],[14.1761,41.4367],[14.1811,41.4375],[14.1988,41.4493],[14.2106,41.4545],[14.2192,41.4508],[14.227,41.4492]]]}},{"type":"Feature","properties":{"i":"061064","n":"Pratella"},"geometry":{"type":"Polygon","coordinates":[[[14.1944,41.4034],[14.1871,41.4014],[14.1584,41.3766],[14.1427,41.3654],[14.1418,41.3674],[14.1396,41.3672],[14.1394,41.3647],[14.1379,41.3641],[14.1348,41.3653],[14.1311,41.3692],[14.13,41.3747],[14.1262,41.3819],[14.1245,41.3828],[14.1255,41.3862],[14.128,41.3879],[14.1278,41.3885],[14.1256,41.39],[14.1193,41.3914],[14.1178,41.3913],[14.1137,41.3887],[14.1126,41.3918],[14.1056,41.4012],[14.1039,41.4056],[14.107,41.4175],[14.1052,41.4233],[14.1015,41.4248],[14.134,41.433],[14.1462,41.4338],[14.1537,41.4291],[14.1541,41.4261],[14.156,41.4227],[14.1755,41.4175],[14.1861,41.4135],[14.1932,41.4085],[14.1944,41.4034]]]}},{"type":"Feature","properties":{"i":"061065","n":"Presenzano"},"geometry":{"type":"Polygon","coordinates":[[[14.1137,41.3887],[14.1178,41.3913],[14.1193,41.3914],[14.1256,41.39],[14.1278,41.3885],[14.128,41.3879],[14.1255,41.3862],[14.1245,41.3828],[14.1228,41.3821],[14.1188,41.3782],[14.1222,41.3715],[14.1191,41.3678],[14.1148,41.368],[14.1104,41.3671],[14.1064,41.363],[14.1048,41.3596],[14.1042,41.3554],[14.1003,41.3498],[14.0963,41.3479],[14.0884,41.3474],[14.0712,41.3426],[14.0679,41.343],[14.0648,41.3446],[14.0576,41.3514],[14.0301,41.3653],[14.0289,41.3666],[14.0452,41.3747],[14.0464,41.3778],[14.0462,41.3799],[14.0433,41.3854],[14.0382,41.3913],[14.0491,41.3946],[14.0623,41.3979],[14.0732,41.3983],[14.0848,41.4],[14.0894,41.3982],[14.0919,41.3949],[14.1006,41.3904],[14.1114,41.3864],[14.1137,41.3887]]]}},{"type":"Feature","properties":{"i":"061066","n":"Raviscanina"},"geometry":{"type":"Polygon","coordinates":[[[14.2848,41.4072],[14.2514,41.3649],[14.2383,41.3571],[14.2292,41.347],[14.2276,41.3428],[14.2234,41.3435],[14.2145,41.3468],[14.2121,41.3518],[14.2128,41.3553],[14.2095,41.3597],[14.2059,41.3617],[14.2039,41.36],[14.2014,41.3601],[14.1939,41.3664],[14.1952,41.3701],[14.1979,41.3744],[14.2022,41.3777],[14.2092,41.3809],[14.2191,41.3824],[14.233,41.3886],[14.2331,41.3905],[14.2299,41.3965],[14.2385,41.4034],[14.2408,41.4075],[14.2459,41.4118],[14.2481,41.4122],[14.2636,41.4041],[14.2675,41.4028],[14.2704,41.4031],[14.2773,41.4065],[14.2848,41.4072]]]}},{"type":"Feature","properties":{"i":"061067","n":"Recale"},"geometry":{"type":"Polygon","coordinates":[[[14.3144,41.0478],[14.3036,41.0484],[14.3024,41.0498],[14.2914,41.0498],[14.2911,41.0584],[14.2994,41.0565],[14.2992,41.0691],[14.3112,41.0631],[14.3102,41.0625],[14.3192,41.0553],[14.3188,41.05],[14.3145,41.05],[14.3144,41.0478]]]}},{"type":"Feature","properties":{"i":"061068","n":"Riardo"},"geometry":{"type":"Polygon","coordinates":[[[14.1598,41.294],[14.1522,41.2903],[14.1501,41.2844],[14.154,41.2827],[14.1589,41.2775],[14.1653,41.2655],[14.167,41.2528],[14.1629,41.2452],[14.1585,41.2453],[14.1513,41.2431],[14.1424,41.2463],[14.1228,41.2505],[14.1243,41.2528],[14.125,41.258],[14.1229,41.2617],[14.1192,41.263],[14.1221,41.2698],[14.1277,41.277],[14.1294,41.2842],[14.1293,41.2875],[14.1247,41.2913],[14.1291,41.2911],[14.1311,41.2923],[14.1346,41.2966],[14.1381,41.2979],[14.1465,41.2967],[14.1504,41.2973],[14.1543,41.2959],[14.1608,41.2975],[14.1623,41.2957],[14.1598,41.294]]]}},{"type":"Feature","properties":{"i":"061069","n":"Rocca d'Evandro"},"geometry":{"type":"Polygon","coordinates":[[[13.9479,41.3712],[13.9481,41.3597],[13.9451,41.3574],[13.9404,41.356],[13.9323,41.361],[13.9268,41.3626],[13.9208,41.3587],[13.9206,41.3526],[13.9141,41.348],[13.9092,41.3472],[13.8859,41.3392],[13.8877,41.3325],[13.901,41.3301],[13.9089,41.3267],[13.9136,41.323],[13.914,41.3206],[13.9087,41.3202],[13.9006,41.3221],[13.8919,41.3223],[13.8878,41.3196],[13.8837,41.3245],[13.8785,41.3288],[13.8734,41.3363],[13.8737,41.3383],[13.8774,41.3391],[13.8779,41.3413],[13.8772,41.3445],[13.8753,41.3458],[13.8726,41.3529],[13.8708,41.3647],[13.8745,41.3761],[13.8769,41.3795],[13.8841,41.3832],[13.8758,41.3948],[13.8756,41.3961],[13.8772,41.3973],[13.8854,41.3998],[13.8796,41.4031],[13.8774,41.4018],[13.8693,41.405],[13.863,41.4099],[13.8612,41.4166],[13.8633,41.4188],[13.8766,41.4262],[13.8873,41.4267],[13.8915,41.425],[13.9039,41.4256],[13.9083,41.4286],[13.9109,41.4287],[13.9102,41.4195],[13.9105,41.4165],[13.9121,41.4148],[13.9228,41.4075],[13.9308,41.4066],[13.9401,41.4033],[13.9454,41.3989],[13.9509,41.3919],[13.9521,41.3859],[13.9479,41.3792],[13.9469,41.374],[13.9479,41.3712]]]}},{"type":"Feature","properties":{"i":"061070","n":"Roccamonfina"},"geometry":{"type":"MultiPolygon","coordinates":[[[[14.0108,41.2916],[14.0115,41.2934],[14.0137,41.2935],[14.013,41.2915],[14.0108,41.2916]]],[[[13.9772,41.3173],[13.978,41.3146],[13.9833,41.3113],[13.99,41.3103],[13.9999,41.3137],[14.0023,41.3122],[14.0128,41.3],[14.0117,41.2988],[14.0096,41.2916],[14.0141,41.2878],[14.0241,41.2924],[14.031,41.2931],[14.032,41.2929],[14.0385,41.2864],[14.0385,41.2802],[14.0335,41.2787],[14.0251,41.2799],[14.0166,41.279],[14.0038,41.2742],[14.0051,41.2536],[14.0001,41.2484],[13.9882,41.2449],[13.99,41.2492],[13.99,41.2623],[13.989,41.2645],[13.9585,41.274],[13.9498,41.2817],[13.9466,41.2864],[13.9445,41.2911],[13.9443,41.3019],[13.9478,41.3088],[13.9522,41.3121],[13.9605,41.3156],[13.9667,41.317],[13.9772,41.3173]]]]}},{"type":"Feature","properties":{"i":"061071","n":"Roccaromana"},"geometry":{"type":"Polygon","coordinates":[[[14.2203,41.3089],[14.2246,41.3068],[14.2216,41.3012],[14.2249,41.2975],[14.2456,41.2884],[14.2575,41.2867],[14.2613,41.2822],[14.2787,41.2771],[14.2826,41.2772],[14.2807,41.2728],[14.2772,41.2683],[14.2696,41.253],[14.2617,41.2531],[14.2519,41.2559],[14.2372,41.2513],[14.2348,41.2496],[14.2302,41.2489],[14.2284,41.2494],[14.2225,41.2467],[14.2198,41.2441],[14.213,41.2439],[14.2115,41.2484],[14.2107,41.2607],[14.2023,41.2793],[14.2022,41.2939],[14.2014,41.2977],[14.1962,41.2995],[14.2063,41.3055],[14.2144,41.3081],[14.2203,41.3089]]]}},{"type":"Feature","properties":{"i":"061072","n":"Rocchetta e Croce"},"geometry":{"type":"Polygon","coordinates":[[[14.1629,41.2452],[14.1679,41.2411],[14.175,41.2372],[14.1926,41.2351],[14.1967,41.2356],[14.197,41.2268],[14.1953,41.2224],[14.1952,41.2166],[14.1934,41.2151],[14.188,41.2178],[14.1785,41.2268],[14.1693,41.2277],[14.1631,41.2268],[14.1617,41.2245],[14.156,41.2246],[14.1428,41.2296],[14.1421,41.2321],[14.1407,41.2339],[14.1255,41.2298],[14.1202,41.227],[14.1157,41.2261],[14.1114,41.2257],[14.1092,41.2284],[14.1146,41.235],[14.1162,41.2393],[14.116,41.2414],[14.1182,41.2456],[14.1228,41.2505],[14.1424,41.2463],[14.1513,41.2431],[14.1585,41.2453],[14.1629,41.2452]]]}},{"type":"Feature","properties":{"i":"061073","n":"Ruviano"},"geometry":{"type":"Polygon","coordinates":[[[14.4284,41.2235],[14.4334,41.2233],[14.4356,41.2222],[14.4346,41.218],[14.4365,41.2127],[14.4423,41.2103],[14.4434,41.2056],[14.448,41.1967],[14.4522,41.1927],[14.4326,41.1856],[14.4314,41.1841],[14.4253,41.1808],[14.4196,41.1796],[14.4168,41.183],[14.4184,41.1889],[14.4172,41.1919],[14.4159,41.1927],[14.4106,41.1941],[14.4048,41.1919],[14.3978,41.1922],[14.3883,41.1949],[14.3828,41.199],[14.3809,41.2019],[14.3797,41.2093],[14.3823,41.2156],[14.3906,41.2181],[14.3989,41.2396],[14.393,41.2463],[14.395,41.2492],[14.4013,41.2496],[14.4058,41.2469],[14.4123,41.2473],[14.4183,41.2508],[14.4199,41.2544],[14.421,41.2542],[14.4239,41.25],[14.419,41.2415],[14.4182,41.2223],[14.4201,41.2208],[14.4232,41.2203],[14.4284,41.2235]]]}},{"type":"Feature","properties":{"i":"061074","n":"San Cipriano d'Aversa"},"geometry":{"type":"Polygon","coordinates":[[[14.1467,40.9959],[14.1228,40.9962],[14.1234,40.9872],[14.1277,40.9873],[14.1287,40.9792],[14.1122,40.979],[14.1177,40.9853],[14.0982,40.9851],[14.0983,40.9983],[14.1133,40.9983],[14.1191,41.0031],[14.1228,41.0043],[14.132,41.0054],[14.1423,41.0055],[14.1467,40.9959]]]}},{"type":"Feature","properties":{"i":"061075","n":"San Felice a Cancello"},"geometry":{"type":"Polygon","coordinates":[[[14.5327,41.004],[14.5342,40.9968],[14.5224,40.9892],[14.5174,40.9889],[14.5011,40.9933],[14.492,40.9942],[14.4834,40.9924],[14.4771,40.9815],[14.4687,40.9817],[14.4599,40.9835],[14.4333,40.9848],[14.4289,40.9841],[14.427,40.9813],[14.4247,40.9809],[14.4185,40.9816],[14.4048,40.9861],[14.4065,40.9889],[14.4146,40.9955],[14.4142,41.0037],[14.4252,41.0042],[14.4318,41.0063],[14.4435,41.012],[14.4489,41.0135],[14.4564,41.014],[14.482,41.0201],[14.4819,41.0249],[14.4921,41.0227],[14.4913,41.0201],[14.4921,41.0187],[14.4992,41.0162],[14.5022,41.0138],[14.51,41.0046],[14.5114,41.0017],[14.5163,40.9988],[14.5199,40.9988],[14.5327,41.004]]]}},{"type":"Feature","properties":{"i":"061076","n":"San Gregorio Matese"},"geometry":{"type":"Polygon","coordinates":[[[14.4125,41.4412],[14.4193,41.4351],[14.4263,41.4318],[14.4273,41.43],[14.4307,41.4287],[14.442,41.4268],[14.4553,41.4278],[14.459,41.4212],[14.4583,41.4197],[14.451,41.4134],[14.4421,41.4092],[14.4372,41.4108],[14.428,41.4104],[14.4215,41.4087],[14.42,41.4067],[14.4209,41.3997],[14.4183,41.3837],[14.3913,41.3819],[14.3742,41.382],[14.3686,41.3795],[14.3681,41.3779],[14.3653,41.377],[14.363,41.3787],[14.3608,41.3765],[14.3605,41.3807],[14.3612,41.3866],[14.3552,41.3937],[14.3534,41.3938],[14.349,41.3961],[14.3462,41.4006],[14.3501,41.4058],[14.3486,41.4078],[14.3461,41.408],[14.3317,41.4032],[14.3303,41.3983],[14.3233,41.4016],[14.3138,41.4025],[14.2935,41.4002],[14.2914,41.4007],[14.2848,41.4072],[14.3034,41.4107],[14.3076,41.4172],[14.3089,41.431],[14.3158,41.4306],[14.3319,41.427],[14.3391,41.427],[14.352,41.4362],[14.3563,41.4421],[14.3553,41.4433],[14.3563,41.4456],[14.3591,41.4485],[14.3825,41.4433],[14.3873,41.4432],[14.4009,41.4372],[14.4125,41.4412]]]}},{"type":"Feature","properties":{"i":"061077","n":"San Marcellino"},"geometry":{"type":"Polygon","coordinates":[[[14.1828,40.9915],[14.1841,40.9893],[14.1825,40.9856],[14.1827,40.9796],[14.1574,40.9796],[14.1529,40.9856],[14.1493,40.9855],[14.1491,40.992],[14.1577,40.9951],[14.1573,40.9976],[14.1739,40.998],[14.1742,40.9924],[14.1828,40.9915]]]}},{"type":"Feature","properties":{"i":"061078","n":"San Nicola la Strada"},"geometry":{"type":"Polygon","coordinates":[[[14.3503,41.0453],[14.3494,41.042],[14.3431,41.0416],[14.3276,41.0374],[14.3246,41.0375],[14.3246,41.0438],[14.3151,41.0437],[14.3145,41.05],[14.3188,41.05],[14.3192,41.0553],[14.3102,41.0625],[14.3112,41.0631],[14.3158,41.0615],[14.3262,41.0567],[14.3321,41.057],[14.3331,41.059],[14.3331,41.0611],[14.3386,41.0613],[14.3407,41.0586],[14.3441,41.0482],[14.3503,41.0453]]]}},{"type":"Feature","properties":{"i":"061079","n":"San Pietro Infine"},"geometry":{"type":"Polygon","coordinates":[[[13.9779,41.4625],[13.9844,41.4586],[14.0027,41.4538],[14.007,41.4519],[14.0092,41.4456],[14.008,41.4396],[14.0049,41.4346],[14.0013,41.4313],[13.9827,41.4359],[13.9704,41.436],[13.9621,41.437],[13.9537,41.4397],[13.9452,41.4408],[13.9312,41.4402],[13.933,41.4423],[13.9498,41.4535],[13.9612,41.4639],[13.975,41.4634],[13.9779,41.4625]]]}},{"type":"Feature","properties":{"i":"061080","n":"San Potito Sannitico"},"geometry":{"type":"Polygon","coordinates":[[[14.4778,41.3798],[14.4735,41.3735],[14.4687,41.3753],[14.4651,41.3757],[14.4561,41.3718],[14.4535,41.3691],[14.4538,41.3685],[14.4502,41.3625],[14.4472,41.36],[14.4392,41.3459],[14.4395,41.3443],[14.4365,41.345],[14.4324,41.3443],[14.427,41.3411],[14.4086,41.3263],[14.4074,41.3235],[14.4048,41.3205],[14.3973,41.3155],[14.3931,41.3138],[14.3869,41.3127],[14.3845,41.3111],[14.3839,41.3133],[14.3708,41.3226],[14.3729,41.3249],[14.3748,41.3319],[14.381,41.3362],[14.3947,41.344],[14.4021,41.3496],[14.4074,41.3574],[14.4107,41.3591],[14.4203,41.3613],[14.4287,41.3643],[14.4347,41.379],[14.4426,41.3805],[14.4606,41.3901],[14.4778,41.3833],[14.4793,41.3811],[14.4778,41.3798]]]}},{"type":"Feature","properties":{"i":"061081","n":"San Prisco"},"geometry":{"type":"Polygon","coordinates":[[[14.2942,41.0922],[14.2907,41.0875],[14.2865,41.0853],[14.2824,41.0856],[14.2824,41.0796],[14.2699,41.0819],[14.2675,41.0863],[14.2652,41.0944],[14.2624,41.1001],[14.2605,41.1017],[14.2572,41.1018],[14.2577,41.1071],[14.2727,41.1151],[14.2782,41.116],[14.282,41.1144],[14.2915,41.1076],[14.2881,41.1018],[14.2881,41.099],[14.2898,41.0949],[14.2942,41.0922]]]}},{"type":"Feature","properties":{"i":"061082","n":"Santa Maria a Vico"},"geometry":{"type":"Polygon","coordinates":[[[14.4921,41.0227],[14.4819,41.0249],[14.482,41.0201],[14.4564,41.014],[14.4489,41.0135],[14.4435,41.012],[14.4379,41.0093],[14.4354,41.0128],[14.4374,41.0172],[14.44,41.0186],[14.4438,41.0188],[14.4461,41.0198],[14.4489,41.0227],[14.4494,41.0236],[14.4443,41.0264],[14.4468,41.027],[14.4511,41.0332],[14.455,41.0397],[14.4558,41.0427],[14.4702,41.0439],[14.4746,41.0434],[14.4784,41.0463],[14.478,41.0513],[14.4835,41.0494],[14.4846,41.0449],[14.4884,41.037],[14.492,41.0255],[14.4921,41.0227]]]}},{"type":"Feature","properties":{"i":"061083","n":"Santa Maria Capua Vetere"},"geometry":{"type":"Polygon","coordinates":[[[14.2699,41.0819],[14.2655,41.0734],[14.2657,41.0692],[14.2626,41.0695],[14.2547,41.0496],[14.2464,41.0453],[14.2423,41.0386],[14.242,41.0368],[14.2315,41.0319],[14.2308,41.031],[14.2203,41.0383],[14.2191,41.0398],[14.2211,41.0427],[14.2249,41.0442],[14.2302,41.0439],[14.2382,41.0465],[14.2302,41.0687],[14.2397,41.0741],[14.2404,41.0754],[14.2394,41.0792],[14.2312,41.088],[14.2347,41.0943],[14.2434,41.0983],[14.2572,41.1018],[14.2605,41.1017],[14.2624,41.1001],[14.2651,41.0949],[14.2675,41.0863],[14.2699,41.0819]]]}},{"type":"Feature","properties":{"i":"061084","n":"Santa Maria la Fossa"},"geometry":{"type":"Polygon","coordinates":[[[14.1293,41.1043],[14.1336,41.1057],[14.1379,41.1036],[14.1387,41.1019],[14.1348,41.1011],[14.1357,41.0971],[14.1454,41.094],[14.1498,41.1009],[14.1497,41.1041],[14.1516,41.1052],[14.1552,41.1055],[14.1578,41.1049],[14.1632,41.0997],[14.1676,41.0985],[14.1735,41.0989],[14.1788,41.096],[14.1797,41.0943],[14.1749,41.0945],[14.1743,41.0897],[14.1653,41.0725],[14.1582,41.0616],[14.1481,41.0506],[14.1413,41.0468],[14.1401,41.0428],[14.1375,41.0399],[14.1231,41.0387],[14.1196,41.0397],[14.1122,41.046],[14.1028,41.0484],[14.1096,41.0587],[14.1058,41.0634],[14.1061,41.0713],[14.1102,41.0769],[14.1115,41.0811],[14.1109,41.0937],[14.1079,41.103],[14.1095,41.1064],[14.1146,41.109],[14.1159,41.1085],[14.116,41.1073],[14.1141,41.1013],[14.1162,41.0995],[14.1279,41.0994],[14.1294,41.101],[14.1293,41.1043]]]}},{"type":"Feature","properties":{"i":"061085","n":"San Tammaro"},"geometry":{"type":"Polygon","coordinates":[[[14.2312,41.088],[14.2404,41.0773],[14.2397,41.0741],[14.2302,41.0687],[14.2382,41.0465],[14.2302,41.0439],[14.2249,41.0442],[14.2211,41.0427],[14.2191,41.0398],[14.2149,41.0417],[14.1927,41.0417],[14.1904,41.0414],[14.1906,41.0408],[14.1768,41.036],[14.1701,41.0366],[14.1598,41.0402],[14.1533,41.0384],[14.1402,41.0399],[14.1401,41.0428],[14.1413,41.0468],[14.1468,41.0498],[14.1497,41.0524],[14.1582,41.0616],[14.1653,41.0725],[14.1743,41.0897],[14.1749,41.0945],[14.2077,41.0916],[14.2162,41.0928],[14.2222,41.0927],[14.2255,41.0917],[14.2283,41.0884],[14.2312,41.088]]]}},{"type":"Feature","properties":{"i":"061086","n":"Sant'Angelo d'Alife"},"geometry":{"type":"Polygon","coordinates":[[[14.2914,41.4007],[14.2874,41.3931],[14.2986,41.3858],[14.3025,41.3849],[14.3034,41.383],[14.3023,41.3684],[14.2983,41.3528],[14.2883,41.3421],[14.2759,41.3233],[14.2758,41.3198],[14.2718,41.3197],[14.2624,41.3222],[14.2483,41.3208],[14.2298,41.3261],[14.2312,41.329],[14.2305,41.3416],[14.2276,41.3428],[14.2292,41.347],[14.2383,41.3571],[14.2514,41.3649],[14.2848,41.4072],[14.2914,41.4007]]]}},{"type":"Feature","properties":{"i":"061087","n":"Sant'Arpino"},"geometry":{"type":"Polygon","coordinates":[[[14.2618,40.9647],[14.2635,40.9616],[14.2584,40.9582],[14.2613,40.9531],[14.2641,40.9519],[14.2522,40.9461],[14.2413,40.9548],[14.2415,40.9606],[14.2343,40.9648],[14.2333,40.9681],[14.2494,40.967],[14.2496,40.9653],[14.2567,40.9629],[14.2618,40.9647]]]}},{"type":"Feature","properties":{"i":"061088","n":"Sessa Aurunca"},"geometry":{"type":"Polygon","coordinates":[[[13.914,41.3206],[13.9346,41.3186],[13.9405,41.3163],[13.946,41.306],[13.944,41.3001],[13.9445,41.2911],[13.9466,41.2864],[13.9498,41.2817],[13.9585,41.274],[13.989,41.2645],[13.99,41.2623],[13.99,41.2492],[13.9882,41.2449],[13.9882,41.2349],[13.9844,41.2336],[13.9792,41.2333],[13.9736,41.2311],[13.968,41.2268],[13.9664,41.2245],[13.9532,41.2193],[13.9349,41.2046],[13.93,41.1971],[13.9285,41.1908],[13.9252,41.1872],[13.9137,41.1777],[13.9118,41.1703],[13.9138,41.1685],[13.9162,41.1679],[13.9166,41.1631],[13.8944,41.1435],[13.866,41.1501],[13.8598,41.1475],[13.8603,41.145],[13.8596,41.1438],[13.8531,41.1398],[13.84,41.1568],[13.8413,41.1588],[13.846,41.1615],[13.8479,41.1611],[13.8546,41.1645],[13.8562,41.1742],[13.85,41.1806],[13.854,41.1842],[13.8672,41.1912],[13.8787,41.2041],[13.878,41.2132],[13.8785,41.2209],[13.8677,41.2215],[13.8575,41.2248],[13.842,41.2357],[13.8308,41.2255],[13.8285,41.2225],[13.8271,41.2183],[13.8228,41.2152],[13.8221,41.215],[13.8153,41.221],[13.8153,41.228],[13.8058,41.2324],[13.7942,41.2298],[13.7933,41.2306],[13.7756,41.2202],[13.792,41.2067],[13.8116,41.1937],[13.8174,41.1881],[13.8168,41.1857],[13.8137,41.1844],[13.7887,41.2043],[13.7621,41.2226],[13.77,41.235],[13.771,41.2409],[13.772,41.2421],[13.7783,41.2435],[13.7882,41.242],[13.7949,41.2452],[13.8049,41.2469],[13.811,41.2468],[13.815,41.2445],[13.8336,41.255],[13.8356,41.2602],[13.8383,41.2593],[13.84,41.2624],[13.834,41.2669],[13.8307,41.2664],[13.8287,41.2697],[13.8276,41.2775],[13.8284,41.281],[13.8336,41.2812],[13.8404,41.2835],[13.8511,41.2896],[13.8823,41.2909],[13.8867,41.2936],[13.8897,41.2975],[13.8947,41.3105],[13.8948,41.3116],[13.8927,41.3148],[13.8878,41.3196],[13.8919,41.3223],[13.9006,41.3221],[13.9087,41.3202],[13.914,41.3206]]]}},{"type":"Feature","properties":{"i":"061089","n":"Sparanise"},"geometry":{"type":"Polygon","coordinates":[[[14.1062,41.1462],[14.1037,41.1441],[14.0999,41.1462],[14.0781,41.1354],[14.0798,41.1544],[14.0986,41.1747],[14.0898,41.1797],[14.0809,41.1865],[14.0797,41.1921],[14.093,41.2063],[14.0983,41.2073],[14.1105,41.2066],[14.1166,41.2044],[14.1209,41.2003],[14.1262,41.1909],[14.1248,41.1863],[14.1215,41.182],[14.1173,41.1742],[14.1166,41.1656],[14.1108,41.1525],[14.1062,41.1462]]]}},{"type":"Feature","properties":{"i":"061090","n":"Succivo"},"geometry":{"type":"Polygon","coordinates":[[[14.273,41.0084],[14.2714,41.0054],[14.264,40.9793],[14.2617,40.9685],[14.2618,40.9647],[14.2567,40.9629],[14.2496,40.9653],[14.2494,40.967],[14.2333,40.9681],[14.233,40.9702],[14.2412,40.9709],[14.2492,40.9727],[14.2478,40.9797],[14.2512,40.9887],[14.2563,40.9922],[14.2567,41.0123],[14.258,41.0158],[14.273,41.0084]]]}},{"type":"Feature","properties":{"i":"061091","n":"Teano"},"geometry":{"type":"MultiPolygon","coordinates":[[[[14.039,41.2897],[14.0382,41.2904],[14.0385,41.2911],[14.0401,41.2909],[14.039,41.2897]]],[[[14.0397,41.2931],[14.0412,41.2944],[14.0429,41.2945],[14.0411,41.2928],[14.0397,41.2931]]],[[[14.1213,41.2917],[14.1247,41.2913],[14.1293,41.2875],[14.1294,41.2842],[14.1277,41.277],[14.1221,41.2698],[14.1192,41.263],[14.1229,41.2617],[14.125,41.258],[14.1243,41.2528],[14.1182,41.2456],[14.116,41.2414],[14.1162,41.2393],[14.1146,41.235],[14.1092,41.2284],[14.1114,41.2257],[14.1089,41.2225],[14.1045,41.2199],[14.0902,41.216],[14.0896,41.2145],[14.0808,41.2155],[14.0746,41.2138],[14.0686,41.2095],[14.0669,41.2059],[14.068,41.2003],[14.0666,41.1977],[14.0603,41.1924],[14.0559,41.1899],[14.049,41.1878],[14.0434,41.1778],[14.0402,41.1757],[14.0291,41.1902],[14.0274,41.1981],[14.0234,41.2037],[14.0124,41.2103],[14.0083,41.2141],[14.0036,41.2232],[14.0013,41.2313],[13.9977,41.2365],[13.9882,41.2349],[13.9882,41.2449],[14.0001,41.2484],[14.0051,41.2536],[14.0055,41.2557],[14.0035,41.2737],[14.006,41.2755],[14.0166,41.279],[14.0251,41.2799],[14.0335,41.2787],[14.0385,41.2802],[14.0385,41.2864],[14.037,41.288],[14.0464,41.2889],[14.0548,41.2909],[14.0615,41.2918],[14.068,41.2912],[14.0703,41.2904],[14.0717,41.2889],[14.0813,41.2859],[14.0958,41.2847],[14.1166,41.2913],[14.1213,41.2917]]]]}},{"type":"Feature","properties":{"i":"061092","n":"Teverola"},"geometry":{"type":"Polygon","coordinates":[[[14.2308,41.031],[14.2253,41.0223],[14.2287,41.017],[14.2312,41.0051],[14.2287,41.0046],[14.2157,41.0052],[14.2159,40.9859],[14.2076,40.9857],[14.2077,40.9921],[14.2037,40.992],[14.199,40.9862],[14.1992,40.9943],[14.2043,40.9984],[14.2075,40.9983],[14.2075,41.0098],[14.2109,41.019],[14.2185,41.0278],[14.2199,41.0307],[14.2192,41.0369],[14.2203,41.0383],[14.2308,41.031]]]}},{"type":"Feature","properties":{"i":"061093","n":"Tora e Piccilli"},"geometry":{"type":"Polygon","coordinates":[[[14.0648,41.3446],[14.0599,41.3458],[14.0554,41.3443],[14.0473,41.3359],[14.0353,41.3321],[14.0312,41.3318],[14.02,41.3247],[14.0104,41.3218],[14.0044,41.3309],[14.0092,41.3481],[14.0159,41.3544],[14.025,41.3586],[14.0284,41.3613],[14.0301,41.3653],[14.0576,41.3514],[14.0648,41.3446]]]}},{"type":"Feature","properties":{"i":"061094","n":"Trentola Ducenta"},"geometry":{"type":"Polygon","coordinates":[[[14.1841,40.9893],[14.1896,40.9846],[14.1937,40.9797],[14.1934,40.977],[14.1906,40.9729],[14.1808,40.9728],[14.1689,40.9666],[14.1442,40.9672],[14.1403,40.9791],[14.1377,40.9827],[14.1392,40.9851],[14.1529,40.9856],[14.1574,40.9796],[14.1827,40.9796],[14.1825,40.9856],[14.1841,40.9893]]]}},{"type":"Feature","properties":{"i":"061095","n":"Vairano Patenora"},"geometry":{"type":"Polygon","coordinates":[[[14.1427,41.3654],[14.1436,41.3591],[14.1642,41.3683],[14.1667,41.3704],[14.1759,41.3719],[14.1813,41.3679],[14.1829,41.3656],[14.1885,41.3646],[14.1939,41.3664],[14.198,41.3628],[14.1914,41.3553],[14.1849,41.3511],[14.1709,41.3382],[14.1489,41.3252],[14.1456,41.3219],[14.1447,41.3113],[14.1526,41.3054],[14.1556,41.3044],[14.1556,41.3],[14.1504,41.2973],[14.1465,41.2967],[14.1381,41.2979],[14.1346,41.2966],[14.1311,41.2923],[14.1283,41.2909],[14.1213,41.2917],[14.1069,41.3129],[14.0968,41.3205],[14.0991,41.3252],[14.0968,41.3305],[14.0918,41.3344],[14.0915,41.3419],[14.0963,41.3479],[14.1003,41.3498],[14.1042,41.3554],[14.1048,41.3596],[14.1064,41.363],[14.1104,41.3671],[14.1197,41.3681],[14.1222,41.3715],[14.1188,41.3782],[14.1228,41.3821],[14.1245,41.3828],[14.1262,41.3819],[14.13,41.3747],[14.1307,41.3699],[14.1348,41.3653],[14.1388,41.3641],[14.1396,41.3672],[14.1405,41.3676],[14.1418,41.3674],[14.1427,41.3654]]]}},{"type":"Feature","properties":{"i":"061096","n":"Valle Agricola"},"geometry":{"type":"Polygon","coordinates":[[[14.3089,41.431],[14.3076,41.4172],[14.3034,41.4107],[14.2893,41.4079],[14.2773,41.4065],[14.2704,41.4031],[14.2675,41.4028],[14.2645,41.4037],[14.2471,41.4122],[14.2442,41.4108],[14.2408,41.4075],[14.2385,41.4034],[14.2329,41.3995],[14.2227,41.4073],[14.2208,41.4135],[14.2247,41.4219],[14.2301,41.4245],[14.2295,41.4286],[14.2209,41.4338],[14.2198,41.4356],[14.2224,41.4398],[14.2273,41.4427],[14.235,41.4433],[14.236,41.4406],[14.2498,41.4374],[14.2615,41.4389],[14.273,41.4368],[14.2821,41.4379],[14.3022,41.4372],[14.3089,41.431]]]}},{"type":"Feature","properties":{"i":"061097","n":"Valle di Maddaloni"},"geometry":{"type":"Polygon","coordinates":[[[14.4398,41.0711],[14.4326,41.0688],[14.4202,41.0629],[14.4134,41.0578],[14.4126,41.0557],[14.3986,41.0557],[14.3928,41.0616],[14.3921,41.0699],[14.3936,41.0759],[14.4044,41.0828],[14.4244,41.0925],[14.4339,41.1013],[14.4346,41.1031],[14.4358,41.1023],[14.437,41.0962],[14.435,41.0893],[14.4327,41.0856],[14.4323,41.0796],[14.4368,41.0763],[14.4398,41.0711]]]}},{"type":"Feature","properties":{"i":"061098","n":"Villa di Briano"},"geometry":{"type":"Polygon","coordinates":[[[14.1649,41.0382],[14.1656,41.0324],[14.1653,41.0206],[14.1668,41.009],[14.1726,41.0048],[14.1738,41.003],[14.1739,40.998],[14.1573,40.9976],[14.1577,40.9951],[14.1491,40.992],[14.1423,41.0055],[14.1488,41.0056],[14.1485,41.0236],[14.1402,41.0399],[14.1533,41.0384],[14.1598,41.0402],[14.1649,41.0382]]]}},{"type":"Feature","properties":{"i":"061099","n":"Villa Literno"},"geometry":{"type":"Polygon","coordinates":[[[14.0983,40.9983],[14.0982,40.9851],[14.1177,40.9853],[14.1086,40.975],[14.0988,40.9623],[14.0897,40.9598],[14.0616,40.9601],[14.0474,40.9592],[14.043,40.9577],[14.0456,40.9537],[14.0347,40.9489],[14.0277,40.9483],[14.0082,40.9622],[13.9967,40.9822],[13.9937,40.992],[13.994,40.9949],[13.9961,41.0007],[14.0017,41.0053],[14.0036,41.0091],[14.0298,41.023],[14.0808,41.0326],[14.0815,41.0266],[14.0895,41.0166],[14.096,41.0099],[14.0981,41.0054],[14.0983,40.9983]]]}},{"type":"Feature","properties":{"i":"061100","n":"Vitulazio"},"geometry":{"type":"Polygon","coordinates":[[[14.2176,41.1277],[14.2138,41.1242],[14.2029,41.1181],[14.201,41.1178],[14.1962,41.1299],[14.1759,41.1286],[14.1636,41.1302],[14.1543,41.1338],[14.1292,41.1295],[14.1247,41.1325],[14.1372,41.1409],[14.1398,41.1418],[14.1457,41.142],[14.1482,41.1404],[14.1494,41.1386],[14.1525,41.1372],[14.1548,41.1375],[14.1645,41.1413],[14.1637,41.1454],[14.1695,41.1534],[14.1775,41.1604],[14.1841,41.1585],[14.1908,41.1551],[14.2002,41.168],[14.2008,41.1732],[14.2035,41.1732],[14.2128,41.1703],[14.2163,41.17],[14.2239,41.1711],[14.2278,41.1735],[14.2295,41.1678],[14.2265,41.1594],[14.2259,41.1543],[14.2219,41.1392],[14.2176,41.1277]]]}},{"type":"Feature","properties":{"i":"061101","n":"Falciano del Massico"},"geometry":{"type":"Polygon","coordinates":[[[14.0272,41.1134],[14.0317,41.1085],[14.0274,41.1055],[14.0212,41.1048],[14.0119,41.1083],[13.9924,41.1012],[13.9865,41.102],[13.9799,41.1076],[13.9738,41.1059],[13.9716,41.104],[13.967,41.103],[13.9615,41.1076],[13.9627,41.1109],[13.9476,41.1104],[13.9453,41.1121],[13.9413,41.121],[13.9353,41.131],[13.9303,41.141],[13.9302,41.1437],[13.9166,41.1631],[13.9162,41.1679],[13.9138,41.1685],[13.9118,41.1703],[13.9137,41.1777],[13.9252,41.1872],[13.9285,41.1908],[13.9354,41.1904],[13.9358,41.1888],[13.9462,41.183],[13.9587,41.1814],[13.9638,41.1832],[13.9699,41.1649],[13.9733,41.1616],[13.9769,41.1608],[13.9793,41.1536],[13.9852,41.1455],[13.9956,41.1366],[14.0035,41.1285],[14.0153,41.1259],[14.0272,41.1134]]]}},{"type":"Feature","properties":{"i":"061102","n":"Cellole"},"geometry":{"type":"Polygon","coordinates":[[[13.84,41.1568],[13.8317,41.1674],[13.8137,41.1844],[13.8168,41.1857],[13.8174,41.1881],[13.8116,41.1937],[13.792,41.2067],[13.7756,41.2202],[13.7933,41.2306],[13.7942,41.2298],[13.8058,41.2324],[13.8153,41.228],[13.8153,41.221],[13.8221,41.215],[13.8228,41.2152],[13.8271,41.2183],[13.8285,41.2225],[13.8308,41.2255],[13.842,41.2357],[13.8575,41.2248],[13.8677,41.2215],[13.8785,41.2209],[13.878,41.2132],[13.8787,41.2041],[13.8672,41.1912],[13.854,41.1842],[13.85,41.1806],[13.8562,41.1742],[13.8546,41.1645],[13.8479,41.1611],[13.846,41.1615],[13.8413,41.1588],[13.84,41.1568]]]}},{"type":"Feature","properties":{"i":"061103","n":"Casapesenna"},"geometry":{"type":"Polygon","coordinates":[[[14.1467,40.9959],[14.1491,40.992],[14.1493,40.9855],[14.1392,40.9851],[14.1377,40.9827],[14.1403,40.9791],[14.1287,40.9792],[14.1277,40.9873],[14.1234,40.9872],[14.1228,40.9962],[14.1467,40.9959]]]}},{"type":"Feature","properties":{"i":"061104","n":"San Marco Evangelista"},"geometry":{"type":"Polygon","coordinates":[[[14.3417,41.0183],[14.3418,41.0246],[14.3247,41.0245],[14.3246,41.0375],[14.3276,41.0374],[14.3431,41.0416],[14.3494,41.042],[14.3503,41.0453],[14.3553,41.0428],[14.3538,41.0408],[14.3584,41.038],[14.3583,41.0246],[14.3538,41.0219],[14.3417,41.0183]]]}}]}
