{"type":"FeatureCollection","fonte":"Confini comunali ISTAT via openpolis/geojson-italy — CC BY 4.0","features":[{"type":"Feature","properties":{"i":"069001","n":"Altino"},"geometry":{"type":"Polygon","coordinates":[[[14.3902,42.1223],[14.3876,42.1196],[14.3836,42.1174],[14.3737,42.1152],[14.3688,42.1123],[14.366,42.1091],[14.3645,42.1096],[14.3559,42.0925],[14.3488,42.0817],[14.3447,42.084],[14.333,42.0848],[14.3164,42.0882],[14.3109,42.0904],[14.3134,42.094],[14.3211,42.1011],[14.3211,42.1044],[14.3252,42.108],[14.3342,42.1135],[14.3384,42.1204],[14.3636,42.1231],[14.3741,42.1227],[14.3767,42.1246],[14.3773,42.1292],[14.3935,42.1344],[14.3892,42.1244],[14.3902,42.1223]]]}},{"type":"Feature","properties":{"i":"069002","n":"Archi"},"geometry":{"type":"Polygon","coordinates":[[[14.4005,42.0522],[14.3998,42.0517],[14.3949,42.0554],[14.3897,42.0579],[14.3818,42.0597],[14.3697,42.0566],[14.3522,42.0591],[14.344,42.0663],[14.3442,42.071],[14.3476,42.0798],[14.3559,42.0925],[14.3645,42.1096],[14.3802,42.1037],[14.4031,42.0988],[14.4101,42.0945],[14.4119,42.0943],[14.4185,42.096],[14.4198,42.0993],[14.42,42.1033],[14.415,42.1068],[14.4153,42.1078],[14.4281,42.1102],[14.4334,42.1096],[14.4337,42.101],[14.4331,42.0995],[14.427,42.0959],[14.4213,42.0895],[14.4154,42.0787],[14.4082,42.0596],[14.4047,42.0555],[14.4005,42.0522]]]}},{"type":"Feature","properties":{"i":"069003","n":"Ari"},"geometry":{"type":"Polygon","coordinates":[[[14.2641,42.3122],[14.2648,42.3064],[14.2699,42.3015],[14.2736,42.2949],[14.2735,42.2923],[14.2712,42.2887],[14.2719,42.2875],[14.2759,42.2859],[14.274,42.2841],[14.2646,42.279],[14.2638,42.277],[14.2647,42.2686],[14.2643,42.2655],[14.2619,42.2599],[14.2547,42.2597],[14.2527,42.2585],[14.2462,42.257],[14.2427,42.2577],[14.2414,42.2632],[14.2469,42.2741],[14.2425,42.2837],[14.2379,42.2881],[14.2384,42.2896],[14.2458,42.2977],[14.2538,42.3041],[14.2535,42.3057],[14.2519,42.3072],[14.2574,42.3126],[14.2489,42.3114],[14.2461,42.313],[14.2509,42.3205],[14.2641,42.3122]]]}},{"type":"Feature","properties":{"i":"069004","n":"Arielli"},"geometry":{"type":"Polygon","coordinates":[[[14.3271,42.2688],[14.3238,42.266],[14.3236,42.2639],[14.3194,42.2569],[14.3104,42.2464],[14.3067,42.2382],[14.304,42.2358],[14.2991,42.234],[14.2815,42.2424],[14.2778,42.2432],[14.278,42.2521],[14.2797,42.2568],[14.2825,42.2577],[14.2857,42.2601],[14.2934,42.2704],[14.2962,42.2763],[14.3014,42.2784],[14.3069,42.2789],[14.3125,42.2807],[14.3133,42.2758],[14.3147,42.2733],[14.3164,42.2721],[14.3271,42.2688]]]}},{"type":"Feature","properties":{"i":"069005","n":"Atessa"},"geometry":{"type":"MultiPolygon","coordinates":[[[[14.4676,42.0124],[14.461,42.0058],[14.4566,42.0035],[14.4492,42.0019],[14.4271,41.9941],[14.4166,41.9882],[14.411,41.9837],[14.4111,41.9868],[14.4084,41.9964],[14.404,42.0001],[14.3942,41.9986],[14.3918,41.9999],[14.3882,42.0062],[14.3823,42.0094],[14.3776,42.0082],[14.3689,42.0033],[14.3603,42.0019],[14.3569,42.0111],[14.3631,42.0152],[14.3727,42.0173],[14.3806,42.0175],[14.3858,42.0203],[14.3865,42.0178],[14.3959,42.0137],[14.4058,42.0067],[14.4214,42.0022],[14.4197,42.0008],[14.4197,41.9993],[14.4275,41.9975],[14.4377,42.0007],[14.4465,42.0074],[14.4466,42.0147],[14.4512,42.0185],[14.4573,42.0214],[14.4606,42.0197],[14.4676,42.0124]]],[[[14.4916,42.1324],[14.4913,42.13],[14.4934,42.1272],[14.5278,42.1262],[14.5327,42.1269],[14.5369,42.1184],[14.5358,42.1146],[14.5242,42.0965],[14.5259,42.0924],[14.5324,42.084],[14.5365,42.0824],[14.5447,42.082],[14.552,42.0831],[14.5527,42.082],[14.5522,42.0777],[14.5403,42.0749],[14.5371,42.0782],[14.535,42.0784],[14.528,42.0752],[14.5239,42.0728],[14.5209,42.0696],[14.5198,42.0671],[14.5207,42.0655],[14.5204,42.0621],[14.515,42.0548],[14.5105,42.0527],[14.5035,42.0507],[14.4988,42.0504],[14.4936,42.0518],[14.4896,42.0494],[14.4817,42.0417],[14.4808,42.0402],[14.4809,42.0374],[14.4774,42.0348],[14.4649,42.0322],[14.4536,42.0281],[14.4509,42.0315],[14.4508,42.0334],[14.453,42.0328],[14.4605,42.0342],[14.4586,42.0427],[14.4384,42.0542],[14.4303,42.0562],[14.42,42.057],[14.4113,42.056],[14.4005,42.0522],[14.4047,42.0555],[14.4082,42.0596],[14.4154,42.0787],[14.4213,42.0895],[14.427,42.0959],[14.4331,42.0995],[14.4336,42.1089],[14.433,42.1101],[14.4281,42.1102],[14.4153,42.1078],[14.395,42.1181],[14.391,42.1211],[14.3893,42.1236],[14.3935,42.1344],[14.4029,42.1371],[14.4088,42.1426],[14.4303,42.1516],[14.4332,42.1546],[14.4357,42.159],[14.4457,42.1611],[14.4543,42.1507],[14.4647,42.1428],[14.468,42.1383],[14.4689,42.1349],[14.4715,42.1332],[14.4806,42.128],[14.4916,42.1324]]]]}},{"type":"Feature","properties":{"i":"069006","n":"Bomba"},"geometry":{"type":"Polygon","coordinates":[[[14.3998,42.0517],[14.3967,42.0499],[14.3923,42.0417],[14.3906,42.0331],[14.3922,42.0268],[14.391,42.0239],[14.3806,42.0175],[14.3727,42.0173],[14.3631,42.0152],[14.3569,42.0111],[14.3529,42.0144],[14.3488,42.0223],[14.3477,42.0263],[14.3486,42.029],[14.3434,42.0352],[14.3465,42.0419],[14.3489,42.0573],[14.3522,42.0591],[14.3697,42.0566],[14.3818,42.0597],[14.3909,42.0574],[14.3998,42.0517]]]}},{"type":"Feature","properties":{"i":"069007","n":"Borrello"},"geometry":{"type":"Polygon","coordinates":[[[14.3449,41.9237],[14.3443,41.9221],[14.3463,41.918],[14.346,41.9155],[14.3447,41.9139],[14.3394,41.9115],[14.3358,41.9107],[14.3329,41.9118],[14.329,41.9105],[14.3289,41.9039],[14.3246,41.8969],[14.3147,41.8933],[14.306,41.893],[14.3032,41.8938],[14.3002,41.8989],[14.291,41.9028],[14.2847,41.909],[14.2842,41.9108],[14.2866,41.9116],[14.2884,41.9132],[14.292,41.927],[14.303,41.9317],[14.3052,41.9316],[14.3165,41.9276],[14.3223,41.9278],[14.3342,41.9358],[14.334,41.9328],[14.3366,41.9261],[14.3431,41.9231],[14.3449,41.9237]]]}},{"type":"Feature","properties":{"i":"069008","n":"Bucchianico"},"geometry":{"type":"Polygon","coordinates":[[[14.2149,42.3412],[14.2142,42.3392],[14.2097,42.3338],[14.2102,42.3219],[14.2093,42.3163],[14.2095,42.315],[14.2142,42.3144],[14.2121,42.3131],[14.2204,42.3052],[14.2186,42.2985],[14.2144,42.2925],[14.2107,42.2902],[14.2048,42.283],[14.1934,42.2718],[14.1902,42.273],[14.1817,42.273],[14.176,42.2718],[14.1702,42.2691],[14.1632,42.2684],[14.1599,42.2756],[14.1572,42.2794],[14.1539,42.2818],[14.1539,42.284],[14.1504,42.2882],[14.1442,42.2899],[14.1396,42.2962],[14.1396,42.2979],[14.1384,42.3001],[14.127,42.3082],[14.1214,42.3112],[14.1198,42.3164],[14.1205,42.3187],[14.1218,42.3197],[14.1346,42.3205],[14.1419,42.3238],[14.1524,42.327],[14.1634,42.3272],[14.1725,42.3244],[14.1808,42.3229],[14.1823,42.324],[14.1879,42.3322],[14.2027,42.3408],[14.2071,42.348],[14.2149,42.3412]]]}},{"type":"Feature","properties":{"i":"069009","n":"Montebello sul Sangro"},"geometry":{"type":"Polygon","coordinates":[[[14.3394,41.9973],[14.3422,41.9847],[14.3402,41.9838],[14.3265,41.9796],[14.313,41.9764],[14.3034,41.9751],[14.299,41.9804],[14.3021,41.9834],[14.3281,41.9993],[14.3394,41.9973]]]}},{"type":"Feature","properties":{"i":"069010","n":"Canosa Sannita"},"geometry":{"type":"Polygon","coordinates":[[[14.3217,42.3205],[14.3186,42.3168],[14.3147,42.3023],[14.3112,42.2967],[14.3142,42.2887],[14.3168,42.2864],[14.3131,42.2812],[14.3069,42.2789],[14.3014,42.2784],[14.2962,42.2763],[14.2934,42.2704],[14.2862,42.2607],[14.2814,42.2571],[14.2688,42.2635],[14.2746,42.2709],[14.2691,42.2752],[14.2638,42.277],[14.2646,42.279],[14.274,42.2841],[14.2759,42.2859],[14.2952,42.2977],[14.2967,42.3047],[14.2925,42.3125],[14.2948,42.3165],[14.3011,42.3216],[14.3058,42.3193],[14.3217,42.3205]]]}},{"type":"Feature","properties":{"i":"069011","n":"Carpineto Sinello"},"geometry":{"type":"Polygon","coordinates":[[[14.5231,42.0273],[14.5257,42.0238],[14.5273,42.0163],[14.5255,42.0055],[14.5302,42.0008],[14.5356,41.9978],[14.538,41.9973],[14.5371,41.9936],[14.5449,41.9851],[14.5433,41.984],[14.538,41.9831],[14.5312,41.9757],[14.5348,41.9657],[14.5108,41.9554],[14.5062,41.9541],[14.5042,41.9543],[14.4884,41.965],[14.487,41.969],[14.4875,41.9719],[14.4922,41.971],[14.5002,41.9726],[14.5076,41.9757],[14.5097,41.9777],[14.5032,41.988],[14.4987,41.9905],[14.4936,41.9964],[14.4919,42.002],[14.4929,42.0048],[14.492,42.0081],[14.4874,42.0117],[14.4782,42.0148],[14.4731,42.0145],[14.4676,42.0124],[14.4606,42.0197],[14.4573,42.0214],[14.4536,42.0281],[14.4649,42.0322],[14.4774,42.0348],[14.4809,42.0374],[14.4835,42.0375],[14.5024,42.0318],[14.5125,42.0191],[14.5231,42.0273]]]}},{"type":"Feature","properties":{"i":"069012","n":"Carunchio"},"geometry":{"type":"Polygon","coordinates":[[[14.5587,41.9393],[14.564,41.9309],[14.5836,41.91],[14.5751,41.9115],[14.5625,41.9096],[14.554,41.9026],[14.5528,41.8996],[14.5403,41.8942],[14.5335,41.8857],[14.5125,41.8773],[14.5069,41.878],[14.5089,41.8905],[14.5077,41.8995],[14.5092,41.906],[14.5132,41.9137],[14.5142,41.9204],[14.5068,41.9298],[14.5044,41.9303],[14.503,41.9327],[14.5007,41.9437],[14.5032,41.9532],[14.5042,41.9543],[14.5062,41.9541],[14.5108,41.9554],[14.5242,41.9611],[14.5338,41.9549],[14.5398,41.9437],[14.5475,41.9384],[14.5587,41.9393]]]}},{"type":"Feature","properties":{"i":"069013","n":"Casacanditella"},"geometry":{"type":"Polygon","coordinates":[[[14.2383,42.2609],[14.2404,42.2575],[14.2378,42.2551],[14.2229,42.256],[14.2242,42.2484],[14.2202,42.2472],[14.206,42.2393],[14.1973,42.2376],[14.1948,42.2386],[14.1936,42.2468],[14.1947,42.2591],[14.1918,42.2678],[14.1934,42.2718],[14.2048,42.283],[14.2107,42.2902],[14.2214,42.2827],[14.2272,42.2756],[14.2261,42.273],[14.2245,42.2725],[14.2243,42.2707],[14.2282,42.264],[14.2304,42.2625],[14.2383,42.2609]]]}},{"type":"Feature","properties":{"i":"069014","n":"Casalanguida"},"geometry":{"type":"Polygon","coordinates":[[[14.5231,42.0273],[14.5125,42.0191],[14.5024,42.0318],[14.4873,42.0366],[14.4809,42.0374],[14.4808,42.0402],[14.4886,42.0485],[14.4936,42.0518],[14.4988,42.0504],[14.5035,42.0507],[14.5105,42.0527],[14.515,42.0548],[14.5204,42.0621],[14.5207,42.0655],[14.5198,42.0671],[14.5209,42.0696],[14.5239,42.0728],[14.527,42.0747],[14.535,42.0784],[14.5366,42.0783],[14.5403,42.0749],[14.5397,42.0704],[14.5347,42.0644],[14.5316,42.0633],[14.5304,42.0609],[14.5309,42.058],[14.5345,42.0555],[14.5372,42.0502],[14.5353,42.0448],[14.5259,42.0302],[14.5231,42.0273]]]}},{"type":"Feature","properties":{"i":"069015","n":"Casalbordino"},"geometry":{"type":"Polygon","coordinates":[[[14.6472,42.192],[14.6469,42.1892],[14.6501,42.184],[14.6424,42.1711],[14.6449,42.1605],[14.6435,42.159],[14.6397,42.1584],[14.6355,42.1595],[14.6263,42.1557],[14.6129,42.1484],[14.5941,42.144],[14.5662,42.1453],[14.56,42.1437],[14.5547,42.1387],[14.5537,42.1366],[14.5367,42.1268],[14.5278,42.1262],[14.4934,42.1272],[14.4913,42.13],[14.4916,42.1324],[14.4949,42.1359],[14.499,42.1468],[14.5103,42.1526],[14.5163,42.1535],[14.5236,42.1586],[14.528,42.1663],[14.5321,42.1646],[14.5328,42.1624],[14.5302,42.1574],[14.5306,42.1557],[14.5345,42.1544],[14.5389,42.1548],[14.5461,42.1529],[14.5495,42.1516],[14.5508,42.1498],[14.5556,42.15],[14.5686,42.1526],[14.5729,42.1556],[14.574,42.1565],[14.5734,42.1607],[14.5801,42.1674],[14.5836,42.1694],[14.5864,42.1819],[14.5884,42.1854],[14.5938,42.1903],[14.5874,42.1909],[14.5832,42.1884],[14.5744,42.181],[14.5715,42.1823],[14.5687,42.1848],[14.5685,42.1864],[14.576,42.1979],[14.5765,42.2025],[14.5833,42.2032],[14.5915,42.1997],[14.5933,42.1996],[14.5994,42.2002],[14.6036,42.2018],[14.6072,42.2046],[14.6304,42.196],[14.6437,42.1922],[14.6472,42.192]]]}},{"type":"Feature","properties":{"i":"069016","n":"Casalincontrada"},"geometry":{"type":"Polygon","coordinates":[[[14.1218,42.3197],[14.1205,42.3187],[14.1198,42.3164],[14.1214,42.3112],[14.127,42.3082],[14.1384,42.3001],[14.1396,42.2979],[14.1396,42.2962],[14.1442,42.2899],[14.1504,42.2882],[14.1539,42.284],[14.1537,42.2804],[14.1519,42.2786],[14.1463,42.2771],[14.1432,42.2782],[14.131,42.2772],[14.127,42.2747],[14.119,42.2733],[14.1137,42.2744],[14.1077,42.2745],[14.1063,42.2757],[14.0925,42.2783],[14.0852,42.2784],[14.104,42.2861],[14.1113,42.2914],[14.1122,42.2935],[14.1103,42.2967],[14.0952,42.3032],[14.0856,42.3125],[14.0846,42.3167],[14.087,42.3171],[14.0909,42.3204],[14.0989,42.3215],[14.1053,42.3171],[14.1112,42.3183],[14.1173,42.3208],[14.1218,42.3197]]]}},{"type":"Feature","properties":{"i":"069017","n":"Casoli"},"geometry":{"type":"Polygon","coordinates":[[[14.3014,42.1621],[14.3036,42.1592],[14.3075,42.1579],[14.3376,42.1552],[14.3531,42.1475],[14.3662,42.1388],[14.3667,42.1315],[14.3744,42.1291],[14.3773,42.1292],[14.3767,42.1246],[14.3731,42.1225],[14.3636,42.1231],[14.3384,42.1204],[14.3342,42.1135],[14.3252,42.108],[14.3211,42.1044],[14.3173,42.1043],[14.3042,42.1014],[14.301,42.1026],[14.2961,42.1009],[14.294,42.0971],[14.2944,42.0885],[14.2968,42.0816],[14.2837,42.0822],[14.2759,42.0838],[14.2723,42.0834],[14.2562,42.0796],[14.249,42.0745],[14.2462,42.078],[14.2492,42.0881],[14.249,42.0913],[14.2394,42.1021],[14.236,42.1048],[14.2441,42.1088],[14.2526,42.1165],[14.2556,42.1321],[14.2398,42.142],[14.238,42.1462],[14.2338,42.147],[14.234,42.15],[14.2449,42.1674],[14.2501,42.1705],[14.2582,42.1737],[14.2633,42.1729],[14.272,42.1654],[14.2826,42.16],[14.294,42.1598],[14.3014,42.1621]]]}},{"type":"Feature","properties":{"i":"069018","n":"Castel Frentano"},"geometry":{"type":"Polygon","coordinates":[[[14.3865,42.1675],[14.373,42.1675],[14.3579,42.1658],[14.3497,42.168],[14.3417,42.172],[14.3374,42.1752],[14.3325,42.1803],[14.3304,42.1849],[14.3279,42.1883],[14.325,42.1883],[14.3209,42.1859],[14.3181,42.1878],[14.32,42.1951],[14.3238,42.2011],[14.3256,42.2085],[14.3316,42.211],[14.3338,42.2131],[14.3378,42.2249],[14.3386,42.231],[14.3518,42.2297],[14.3523,42.222],[14.3515,42.2179],[14.3558,42.2152],[14.3596,42.2152],[14.3626,42.2142],[14.3641,42.2105],[14.3636,42.2073],[14.3647,42.2019],[14.3705,42.1993],[14.3745,42.1957],[14.3788,42.1839],[14.3803,42.1772],[14.3865,42.1675]]]}},{"type":"Feature","properties":{"i":"069019","n":"Castelguidone"},"geometry":{"type":"Polygon","coordinates":[[[14.5522,41.8356],[14.5563,41.8327],[14.5652,41.8291],[14.5731,41.824],[14.568,41.8181],[14.5643,41.8195],[14.561,41.8194],[14.5541,41.8175],[14.5497,41.8153],[14.5431,41.8087],[14.539,41.8023],[14.5335,41.7997],[14.531,41.8007],[14.5288,41.804],[14.5022,41.8328],[14.4964,41.8459],[14.4975,41.849],[14.4996,41.8503],[14.5058,41.8464],[14.5091,41.8425],[14.513,41.8402],[14.5239,41.8401],[14.5522,41.8356]]]}},{"type":"Feature","properties":{"i":"069020","n":"Castiglione Messer Marino"},"geometry":{"type":"Polygon","coordinates":[[[14.468,41.8888],[14.4735,41.8856],[14.4763,41.8789],[14.4789,41.8785],[14.4893,41.8793],[14.5003,41.8774],[14.5072,41.8779],[14.5138,41.8658],[14.5075,41.8616],[14.4997,41.8518],[14.4996,41.8503],[14.4975,41.849],[14.4925,41.8504],[14.4789,41.8478],[14.4522,41.8377],[14.4468,41.8344],[14.4457,41.8378],[14.4423,41.8413],[14.4337,41.8415],[14.4207,41.8553],[14.4013,41.8679],[14.3974,41.8697],[14.3936,41.8705],[14.3914,41.8686],[14.3879,41.8674],[14.3837,41.8661],[14.3789,41.8659],[14.3773,41.8681],[14.3758,41.8749],[14.3767,41.8829],[14.382,41.8828],[14.3962,41.8861],[14.3957,41.89],[14.3936,41.8918],[14.3917,41.898],[14.3973,41.8973],[14.4009,41.8979],[14.4045,41.9018],[14.4055,41.9042],[14.4137,41.9054],[14.4235,41.9098],[14.4396,41.8951],[14.463,41.8879],[14.468,41.8888]]]}},{"type":"Feature","properties":{"i":"069021","n":"Celenza sul Trigno"},"geometry":{"type":"Polygon","coordinates":[[[14.5836,41.91],[14.6029,41.9033],[14.6047,41.9007],[14.6179,41.8915],[14.6142,41.8892],[14.6113,41.8802],[14.5992,41.8634],[14.598,41.8516],[14.5964,41.8499],[14.5929,41.8483],[14.5828,41.855],[14.5646,41.8603],[14.5605,41.8715],[14.5587,41.874],[14.5565,41.8838],[14.565,41.8872],[14.5669,41.8887],[14.5717,41.8973],[14.5541,41.8984],[14.5528,41.8996],[14.554,41.9026],[14.5625,41.9096],[14.5751,41.9115],[14.5836,41.91]]]}},{"type":"Feature","properties":{"i":"069022","n":"Chieti"},"geometry":{"type":"Polygon","coordinates":[[[14.2127,42.3964],[14.2138,42.3952],[14.2137,42.393],[14.2052,42.3849],[14.1954,42.3808],[14.1956,42.3787],[14.1973,42.3772],[14.213,42.3724],[14.2164,42.3698],[14.2227,42.3629],[14.2071,42.348],[14.2027,42.3408],[14.1879,42.3322],[14.1823,42.324],[14.1808,42.3229],[14.1725,42.3244],[14.1634,42.3272],[14.1579,42.3273],[14.1499,42.3265],[14.1346,42.3205],[14.1218,42.3197],[14.1173,42.3208],[14.1112,42.3183],[14.1053,42.3171],[14.0989,42.3215],[14.0909,42.3204],[14.086,42.3167],[14.0795,42.3168],[14.0762,42.3206],[14.0757,42.3251],[14.0837,42.3321],[14.0936,42.3348],[14.1113,42.3317],[14.1139,42.3322],[14.1197,42.3349],[14.1199,42.3362],[14.1175,42.3397],[14.1216,42.3458],[14.127,42.3487],[14.1274,42.3525],[14.1255,42.3577],[14.1199,42.3583],[14.1172,42.3614],[14.1191,42.364],[14.1277,42.3685],[14.1297,42.3809],[14.1329,42.3863],[14.1361,42.3888],[14.1564,42.3931],[14.1576,42.3942],[14.1579,42.3968],[14.1604,42.3948],[14.1668,42.392],[14.1759,42.3896],[14.1824,42.3899],[14.2056,42.409],[14.2185,42.4169],[14.2213,42.4195],[14.2287,42.4155],[14.2243,42.4088],[14.2133,42.4003],[14.2083,42.3977],[14.2107,42.3952],[14.2127,42.3964]]]}},{"type":"Feature","properties":{"i":"069023","n":"Civitaluparella"},"geometry":{"type":"Polygon","coordinates":[[[14.299,41.9804],[14.3034,41.9751],[14.3078,41.9677],[14.3062,41.9631],[14.3133,41.9521],[14.3127,41.9402],[14.3136,41.9381],[14.3181,41.934],[14.3235,41.9328],[14.3271,41.9305],[14.3234,41.9283],[14.3165,41.9276],[14.3041,41.9318],[14.2976,41.9299],[14.2926,41.9275],[14.2917,41.9287],[14.2825,41.9308],[14.2741,41.9388],[14.2638,41.9439],[14.2569,41.9423],[14.2419,41.9533],[14.2536,41.963],[14.2715,41.9727],[14.2842,41.9768],[14.287,41.9809],[14.286,41.9819],[14.2884,41.9842],[14.299,41.9804]]]}},{"type":"Feature","properties":{"i":"069024","n":"Civitella Messer Raimondo"},"geometry":{"type":"Polygon","coordinates":[[[14.2462,42.078],[14.2298,42.0668],[14.2274,42.0645],[14.227,42.0632],[14.2084,42.0666],[14.1936,42.0721],[14.1808,42.0758],[14.1862,42.0805],[14.1987,42.0829],[14.208,42.0867],[14.2106,42.0899],[14.2133,42.0914],[14.222,42.0948],[14.2351,42.0973],[14.2356,42.0978],[14.234,42.1044],[14.236,42.1048],[14.2394,42.1021],[14.249,42.0913],[14.2492,42.0881],[14.2462,42.078]]]}},{"type":"Feature","properties":{"i":"069025","n":"Colledimacine"},"geometry":{"type":"Polygon","coordinates":[[[14.2023,42.023],[14.2096,42.0183],[14.2133,42.015],[14.2143,42.0135],[14.2144,42.0114],[14.2201,42.0045],[14.2246,42.0013],[14.2276,41.9952],[14.2293,41.9896],[14.2193,41.9826],[14.2088,41.977],[14.1912,41.9866],[14.1895,41.9925],[14.189,41.998],[14.1899,42.0068],[14.1933,42.0198],[14.191,42.0236],[14.2023,42.023]]]}},{"type":"Feature","properties":{"i":"069026","n":"Colledimezzo"},"geometry":{"type":"Polygon","coordinates":[[[14.411,41.9837],[14.4084,41.9807],[14.4108,41.9759],[14.4104,41.9744],[14.4068,41.9684],[14.4044,41.9679],[14.3928,41.9693],[14.3897,41.9729],[14.3883,41.9801],[14.3858,41.9824],[14.3763,41.9849],[14.3687,41.9832],[14.3664,41.9818],[14.3633,41.995],[14.3603,42.0019],[14.3689,42.0033],[14.3776,42.0082],[14.3806,42.0092],[14.3833,42.0092],[14.3882,42.0062],[14.3918,41.9999],[14.3942,41.9986],[14.404,42.0001],[14.4065,41.9983],[14.4084,41.9964],[14.4092,41.9942],[14.4111,41.9868],[14.411,41.9837]]]}},{"type":"Feature","properties":{"i":"069027","n":"Crecchio"},"geometry":{"type":"Polygon","coordinates":[[[14.3587,42.2775],[14.3574,42.2718],[14.3538,42.2682],[14.3504,42.2589],[14.3473,42.2596],[14.3428,42.262],[14.3421,42.2647],[14.3396,42.267],[14.3315,42.2698],[14.3271,42.2688],[14.3164,42.2721],[14.3147,42.2733],[14.3133,42.2758],[14.3125,42.2807],[14.3168,42.2864],[14.3142,42.2887],[14.3112,42.2967],[14.3147,42.3023],[14.3186,42.3168],[14.3228,42.3224],[14.3258,42.3243],[14.3359,42.3253],[14.3372,42.3269],[14.3366,42.3279],[14.338,42.3284],[14.3411,42.3278],[14.354,42.2896],[14.3546,42.2834],[14.3533,42.2802],[14.3552,42.2785],[14.3587,42.2775]]]}},{"type":"Feature","properties":{"i":"069028","n":"Cupello"},"geometry":{"type":"Polygon","coordinates":[[[14.7124,42.0417],[14.7145,42.0387],[14.7379,42.0337],[14.7424,42.0319],[14.7477,42.026],[14.7522,42.0182],[14.7521,42.0134],[14.7472,42.009],[14.744,42.0077],[14.7331,42.0061],[14.7272,42.0032],[14.7237,42.0],[14.7219,42.0013],[14.7061,42.0046],[14.6618,42.0162],[14.6517,42.021],[14.6562,42.0233],[14.6568,42.0259],[14.6561,42.0296],[14.6524,42.034],[14.6393,42.0422],[14.6299,42.0456],[14.6233,42.054],[14.6241,42.0689],[14.6413,42.0684],[14.6525,42.0695],[14.6529,42.0711],[14.6717,42.0805],[14.6769,42.0815],[14.6819,42.0814],[14.6833,42.0824],[14.6837,42.0848],[14.686,42.0842],[14.6877,42.0834],[14.6892,42.0745],[14.6893,42.0692],[14.6873,42.0593],[14.6986,42.0548],[14.7047,42.0488],[14.7055,42.0462],[14.7086,42.0414],[14.7124,42.0417]]]}},{"type":"Feature","properties":{"i":"069029","n":"Dogliola"},"geometry":{"type":"Polygon","coordinates":[[[14.6729,41.95],[14.6686,41.9466],[14.6655,41.9411],[14.6654,41.9383],[14.6671,41.9335],[14.6659,41.9275],[14.6619,41.9298],[14.6374,41.9371],[14.626,41.9363],[14.6249,41.9416],[14.6204,41.9439],[14.6216,41.9584],[14.6224,41.9603],[14.6246,41.9635],[14.6284,41.9655],[14.6335,41.9695],[14.6349,41.9725],[14.647,41.9615],[14.6534,41.9605],[14.6667,41.952],[14.6697,41.9505],[14.6729,41.95]]]}},{"type":"Feature","properties":{"i":"069030","n":"Fara Filiorum Petri"},"geometry":{"type":"Polygon","coordinates":[[[14.1934,42.2718],[14.1918,42.2678],[14.1947,42.2591],[14.1936,42.2468],[14.1948,42.2386],[14.1983,42.2377],[14.2074,42.2398],[14.1974,42.2333],[14.1941,42.2353],[14.1901,42.2352],[14.183,42.2273],[14.1801,42.2266],[14.1731,42.2291],[14.163,42.2345],[14.1623,42.2355],[14.167,42.239],[14.1667,42.2397],[14.1587,42.2397],[14.1508,42.237],[14.1473,42.2377],[14.1435,42.2409],[14.1414,42.2486],[14.1419,42.2509],[14.1523,42.2532],[14.1584,42.2568],[14.1632,42.2684],[14.1702,42.2691],[14.176,42.2718],[14.1817,42.273],[14.1902,42.273],[14.1934,42.2718]]]}},{"type":"Feature","properties":{"i":"069031","n":"Fara San Martino"},"geometry":{"type":"Polygon","coordinates":[[[14.234,42.1044],[14.2356,42.0978],[14.2351,42.0973],[14.222,42.0948],[14.2114,42.0906],[14.208,42.0867],[14.1987,42.0829],[14.1862,42.0805],[14.169,42.0657],[14.1598,42.0626],[14.1511,42.0624],[14.131,42.0669],[14.1217,42.0698],[14.1171,42.0738],[14.1178,42.0771],[14.1192,42.078],[14.0911,42.084],[14.0852,42.0867],[14.0833,42.0893],[14.0837,42.0909],[14.0886,42.0936],[14.0902,42.0987],[14.1025,42.0998],[14.1068,42.0989],[14.1115,42.1027],[14.1149,42.1072],[14.1194,42.1052],[14.1242,42.1061],[14.134,42.1125],[14.1415,42.1131],[14.1591,42.1102],[14.1712,42.1108],[14.1908,42.1187],[14.2134,42.117],[14.2221,42.1134],[14.234,42.1044]]]}},{"type":"Feature","properties":{"i":"069032","n":"Filetto"},"geometry":{"type":"Polygon","coordinates":[[[14.2619,42.2599],[14.2607,42.2429],[14.2573,42.2273],[14.2578,42.2152],[14.2601,42.211],[14.2564,42.2056],[14.2488,42.2055],[14.2434,42.208],[14.2395,42.213],[14.2323,42.217],[14.231,42.2211],[14.2312,42.2271],[14.2298,42.2378],[14.2242,42.2484],[14.2229,42.256],[14.2378,42.2551],[14.2404,42.2575],[14.2383,42.2609],[14.2414,42.2626],[14.2424,42.2579],[14.245,42.257],[14.2527,42.2585],[14.2547,42.2597],[14.2619,42.2599]]]}},{"type":"Feature","properties":{"i":"069033","n":"Fossacesia"},"geometry":{"type":"Polygon","coordinates":[[[14.5013,42.2645],[14.5012,42.2605],[14.5096,42.2515],[14.5214,42.2451],[14.544,42.2355],[14.5403,42.2345],[14.533,42.2292],[14.5213,42.2171],[14.516,42.2088],[14.5141,42.2096],[14.5109,42.2095],[14.4833,42.2066],[14.4818,42.2075],[14.4758,42.2179],[14.4693,42.2222],[14.4647,42.2237],[14.4584,42.2243],[14.442,42.2232],[14.4353,42.2242],[14.4261,42.2207],[14.4223,42.2147],[14.4216,42.2148],[14.4273,42.2252],[14.4236,42.2288],[14.424,42.2327],[14.436,42.2414],[14.4418,42.2433],[14.4455,42.2422],[14.4485,42.2398],[14.4513,42.2362],[14.4522,42.2341],[14.4491,42.2315],[14.449,42.2302],[14.4501,42.2291],[14.4522,42.2291],[14.4599,42.2351],[14.4641,42.2404],[14.4751,42.2499],[14.4859,42.2619],[14.4902,42.2643],[14.5013,42.2645]]]}},{"type":"Feature","properties":{"i":"069034","n":"Fraine"},"geometry":{"type":"Polygon","coordinates":[[[14.5069,41.878],[14.5003,41.8774],[14.4893,41.8793],[14.4789,41.8785],[14.4763,41.8789],[14.4735,41.8856],[14.4668,41.8902],[14.4673,41.9081],[14.4687,41.9112],[14.481,41.9156],[14.4862,41.9187],[14.4891,41.9237],[14.4931,41.9285],[14.5062,41.9301],[14.5142,41.9204],[14.5132,41.9137],[14.5092,41.906],[14.5077,41.8995],[14.5089,41.8905],[14.5069,41.878]]]}},{"type":"Feature","properties":{"i":"069035","n":"Francavilla al Mare"},"geometry":{"type":"Polygon","coordinates":[[[14.2543,42.4449],[14.2897,42.4225],[14.3209,42.405],[14.3204,42.3936],[14.3215,42.3886],[14.3035,42.3943],[14.2849,42.3936],[14.2832,42.3883],[14.2796,42.3842],[14.2761,42.3816],[14.2698,42.3805],[14.267,42.3818],[14.2653,42.3846],[14.2676,42.3868],[14.2695,42.3906],[14.2568,42.3951],[14.2608,42.3988],[14.264,42.4046],[14.2644,42.4093],[14.2618,42.4125],[14.2511,42.4167],[14.2461,42.4162],[14.2328,42.4111],[14.2264,42.4124],[14.2318,42.4197],[14.2413,42.4268],[14.2441,42.4266],[14.2462,42.4278],[14.2441,42.4368],[14.2509,42.4431],[14.2543,42.4449]]]}},{"type":"Feature","properties":{"i":"069036","n":"Fresagrandinaria"},"geometry":{"type":"Polygon","coordinates":[[[14.6618,42.0162],[14.6572,42.0122],[14.6562,42.0097],[14.6676,41.9914],[14.7011,41.9768],[14.7006,41.9742],[14.6904,41.9672],[14.6786,41.9544],[14.6724,41.9497],[14.6667,41.952],[14.6534,41.9605],[14.647,41.9615],[14.6455,41.9626],[14.6349,41.9725],[14.6376,41.974],[14.64,41.9823],[14.6399,41.9841],[14.6365,41.9893],[14.6319,41.9923],[14.6151,41.9981],[14.6185,42.0041],[14.6317,42.0122],[14.6396,42.0196],[14.6517,42.021],[14.6618,42.0162]]]}},{"type":"Feature","properties":{"i":"069037","n":"Frisa"},"geometry":{"type":"Polygon","coordinates":[[[14.3508,42.2561],[14.3504,42.2589],[14.3524,42.2649],[14.3544,42.269],[14.3574,42.2718],[14.3587,42.2775],[14.3613,42.2818],[14.3736,42.2835],[14.3781,42.2795],[14.3771,42.2706],[14.3835,42.2741],[14.392,42.2768],[14.3967,42.2812],[14.4001,42.2859],[14.4104,42.2792],[14.4032,42.2697],[14.3951,42.2655],[14.3873,42.2572],[14.3836,42.2493],[14.3788,42.2446],[14.3743,42.2461],[14.3707,42.2493],[14.3508,42.2561]]]}},{"type":"Feature","properties":{"i":"069038","n":"Furci"},"geometry":{"type":"Polygon","coordinates":[[[14.6517,42.021],[14.6396,42.0196],[14.6234,42.0259],[14.617,42.0335],[14.6086,42.0355],[14.6044,42.0343],[14.6035,42.033],[14.5995,42.0226],[14.599,42.014],[14.6,42.0125],[14.6113,42.0042],[14.6127,42.0037],[14.6185,42.0041],[14.6151,41.9981],[14.6074,41.9949],[14.6052,41.9961],[14.5971,41.9961],[14.586,41.9992],[14.5817,42.0011],[14.5669,42.0017],[14.5679,42.0062],[14.5732,42.0183],[14.58,42.029],[14.5777,42.0337],[14.5746,42.0435],[14.5772,42.0476],[14.5819,42.0513],[14.5894,42.0534],[14.592,42.0534],[14.5924,42.0524],[14.5976,42.0499],[14.6028,42.0518],[14.6076,42.055],[14.6138,42.061],[14.6158,42.0657],[14.6151,42.0678],[14.6241,42.0689],[14.6233,42.054],[14.6299,42.0456],[14.6393,42.0422],[14.6524,42.034],[14.6549,42.0314],[14.6563,42.0289],[14.6565,42.0238],[14.6517,42.021]]]}},{"type":"Feature","properties":{"i":"069039","n":"Gamberale"},"geometry":{"type":"Polygon","coordinates":[[[14.2522,41.8885],[14.2448,41.8819],[14.2378,41.8786],[14.2297,41.8771],[14.2114,41.8906],[14.1844,41.9032],[14.1803,41.9032],[14.1677,41.9009],[14.1674,41.9111],[14.17,41.915],[14.1917,41.926],[14.1947,41.9286],[14.2259,41.9019],[14.2522,41.8885]]]}},{"type":"Feature","properties":{"i":"069040","n":"Gessopalena"},"geometry":{"type":"Polygon","coordinates":[[[14.2968,42.0816],[14.3009,42.0768],[14.3015,42.0734],[14.3002,42.06],[14.3052,42.0483],[14.3095,42.0445],[14.3107,42.0444],[14.3101,42.0403],[14.3086,42.036],[14.3073,42.0346],[14.3043,42.0328],[14.3022,42.0327],[14.2983,42.029],[14.2966,42.0263],[14.2966,42.0237],[14.2935,42.0198],[14.2846,42.0146],[14.2786,42.0172],[14.2784,42.019],[14.2681,42.0254],[14.262,42.0346],[14.2584,42.0435],[14.2528,42.0461],[14.2482,42.0458],[14.2462,42.044],[14.2426,42.0435],[14.2405,42.0436],[14.2371,42.0451],[14.2344,42.0489],[14.2298,42.0585],[14.23,42.0597],[14.227,42.0632],[14.2274,42.0645],[14.2298,42.0668],[14.2462,42.078],[14.249,42.0745],[14.2562,42.0796],[14.2723,42.0834],[14.2759,42.0838],[14.2837,42.0822],[14.2968,42.0816]]]}},{"type":"Feature","properties":{"i":"069041","n":"Gissi"},"geometry":{"type":"Polygon","coordinates":[[[14.5997,42.0758],[14.608,42.0702],[14.6151,42.0678],[14.6158,42.0657],[14.6138,42.061],[14.6076,42.055],[14.601,42.0509],[14.5976,42.0499],[14.5924,42.0524],[14.592,42.0534],[14.5894,42.0534],[14.5819,42.0513],[14.5772,42.0476],[14.5746,42.0435],[14.5777,42.0337],[14.58,42.029],[14.5732,42.0183],[14.5679,42.0062],[14.5669,42.0017],[14.5552,42.0005],[14.5526,41.9983],[14.5493,41.9973],[14.5378,41.9973],[14.5302,42.0008],[14.5259,42.0049],[14.5254,42.0073],[14.5273,42.0163],[14.5257,42.0238],[14.5231,42.0273],[14.5259,42.0302],[14.5353,42.0448],[14.5372,42.0502],[14.5345,42.0555],[14.5309,42.058],[14.5309,42.0624],[14.5316,42.0633],[14.5347,42.0644],[14.5397,42.0704],[14.5403,42.0749],[14.5522,42.0777],[14.5527,42.082],[14.551,42.0841],[14.5501,42.0877],[14.5595,42.0902],[14.5647,42.0901],[14.5646,42.0831],[14.5602,42.0782],[14.561,42.0736],[14.574,42.0632],[14.5788,42.0605],[14.5825,42.0604],[14.5891,42.0635],[14.5967,42.0733],[14.5997,42.0758]]]}},{"type":"Feature","properties":{"i":"069042","n":"Giuliano Teatino"},"geometry":{"type":"Polygon","coordinates":[[[14.3011,42.3216],[14.2948,42.3165],[14.2925,42.3125],[14.2967,42.3047],[14.2952,42.2977],[14.2769,42.2862],[14.2759,42.2859],[14.2719,42.2875],[14.2712,42.2887],[14.2735,42.2923],[14.2736,42.2949],[14.2699,42.3015],[14.2648,42.3064],[14.2639,42.3114],[14.266,42.3144],[14.2845,42.3298],[14.2855,42.332],[14.2921,42.3395],[14.2953,42.3391],[14.3003,42.3313],[14.3006,42.3272],[14.2992,42.3249],[14.3011,42.3216]]]}},{"type":"Feature","properties":{"i":"069043","n":"Guardiagrele"},"geometry":{"type":"Polygon","coordinates":[[[14.2323,42.217],[14.2395,42.213],[14.2434,42.208],[14.2464,42.2065],[14.2502,42.2054],[14.2564,42.2057],[14.259,42.2034],[14.2623,42.2024],[14.2643,42.2042],[14.2656,42.2069],[14.2757,42.2116],[14.2866,42.2113],[14.2966,42.2054],[14.3003,42.204],[14.3176,42.2031],[14.3239,42.2067],[14.3256,42.2085],[14.3258,42.2074],[14.3235,42.2003],[14.32,42.1951],[14.3179,42.1884],[14.3209,42.1859],[14.3187,42.1824],[14.3161,42.1792],[14.3081,42.1798],[14.3044,42.1781],[14.3054,42.1754],[14.3072,42.1738],[14.3077,42.1683],[14.3014,42.1621],[14.294,42.1598],[14.2826,42.16],[14.272,42.1654],[14.2633,42.1729],[14.2591,42.1739],[14.2501,42.1705],[14.2449,42.1674],[14.234,42.15],[14.2338,42.147],[14.2238,42.1484],[14.2218,42.1491],[14.2175,42.1534],[14.2189,42.1572],[14.221,42.1599],[14.2262,42.164],[14.2353,42.1683],[14.2106,42.1775],[14.1997,42.1783],[14.1682,42.1681],[14.1642,42.1661],[14.1568,42.1595],[14.1346,42.1609],[14.1351,42.1654],[14.1385,42.1711],[14.147,42.1735],[14.1543,42.1743],[14.1682,42.181],[14.1729,42.1807],[14.1866,42.1927],[14.1912,42.2013],[14.1935,42.2019],[14.1965,42.2015],[14.199,42.2034],[14.2023,42.2103],[14.2049,42.2245],[14.2036,42.228],[14.2064,42.2275],[14.2083,42.2259],[14.213,42.2193],[14.2143,42.2144],[14.2139,42.21],[14.2263,42.2089],[14.2318,42.2125],[14.2323,42.217]]]}},{"type":"Feature","properties":{"i":"069044","n":"Guilmi"},"geometry":{"type":"Polygon","coordinates":[[[14.4875,41.9719],[14.477,41.9728],[14.4746,41.9767],[14.4627,41.9866],[14.4609,41.9941],[14.4615,42.0011],[14.461,42.0058],[14.4676,42.0124],[14.4731,42.0145],[14.4782,42.0148],[14.4874,42.0117],[14.491,42.0091],[14.492,42.0081],[14.4929,42.0048],[14.4919,42.002],[14.4936,41.9964],[14.4987,41.9905],[14.5032,41.988],[14.5096,41.9784],[14.5086,41.9763],[14.5002,41.9726],[14.4922,41.971],[14.4875,41.9719]]]}},{"type":"Feature","properties":{"i":"069045","n":"Lama dei Peligni"},"geometry":{"type":"Polygon","coordinates":[[[14.1808,42.0758],[14.1936,42.0721],[14.2084,42.0666],[14.227,42.0632],[14.23,42.0597],[14.2285,42.0594],[14.2272,42.0572],[14.2263,42.0521],[14.2255,42.0447],[14.2273,42.0362],[14.2263,42.0319],[14.2048,42.0251],[14.2023,42.023],[14.191,42.0236],[14.1893,42.0267],[14.186,42.029],[14.1695,42.0328],[14.1608,42.0356],[14.156,42.0397],[14.1493,42.0437],[14.145,42.0452],[14.135,42.0568],[14.1278,42.0629],[14.1233,42.0653],[14.101,42.0741],[14.0911,42.084],[14.1192,42.078],[14.1178,42.0771],[14.1171,42.0738],[14.1217,42.0698],[14.131,42.0669],[14.1511,42.0624],[14.1598,42.0626],[14.169,42.0657],[14.1808,42.0758]]]}},{"type":"Feature","properties":{"i":"069046","n":"Lanciano"},"geometry":{"type":"Polygon","coordinates":[[[14.4265,42.2523],[14.4297,42.2514],[14.4279,42.2457],[14.4284,42.2451],[14.4312,42.2417],[14.4351,42.2408],[14.424,42.2327],[14.4236,42.2288],[14.4273,42.2252],[14.4216,42.2148],[14.4189,42.2132],[14.4155,42.2063],[14.4163,42.2041],[14.419,42.2002],[14.421,42.2],[14.4311,42.1952],[14.4428,42.1876],[14.4604,42.1736],[14.467,42.1709],[14.4457,42.1611],[14.4357,42.159],[14.4332,42.1546],[14.4303,42.1516],[14.4088,42.1426],[14.4027,42.1485],[14.394,42.162],[14.3865,42.1675],[14.383,42.1726],[14.3803,42.1772],[14.3788,42.1839],[14.3745,42.1957],[14.3705,42.1993],[14.3647,42.2019],[14.3636,42.2073],[14.3641,42.2105],[14.3626,42.2142],[14.3596,42.2152],[14.3558,42.2152],[14.3515,42.2179],[14.3523,42.222],[14.3518,42.2297],[14.3386,42.231],[14.3404,42.2374],[14.3464,42.2453],[14.3508,42.2561],[14.3707,42.2493],[14.3743,42.2461],[14.3788,42.2446],[14.3836,42.2493],[14.3873,42.2572],[14.3951,42.2655],[14.4032,42.2697],[14.4104,42.2792],[14.4147,42.2737],[14.4106,42.2684],[14.4082,42.2631],[14.4088,42.262],[14.4101,42.261],[14.414,42.261],[14.4181,42.2645],[14.4194,42.264],[14.4203,42.2623],[14.4201,42.2598],[14.4129,42.246],[14.4226,42.2496],[14.4265,42.2523]]]}},{"type":"Feature","properties":{"i":"069047","n":"Lentella"},"geometry":{"type":"Polygon","coordinates":[[[14.7237,42.0],[14.7011,41.9768],[14.6745,41.9888],[14.6682,41.9909],[14.6564,42.0092],[14.6562,42.0107],[14.6618,42.0162],[14.7061,42.0046],[14.7219,42.0013],[14.7237,42.0]]]}},{"type":"Feature","properties":{"i":"069048","n":"Lettopalena"},"geometry":{"type":"Polygon","coordinates":[[[14.1895,41.9942],[14.1912,41.9866],[14.2088,41.977],[14.2033,41.9707],[14.2003,41.9553],[14.1898,41.9607],[14.1757,41.9706],[14.1752,41.9739],[14.1709,41.9786],[14.1513,41.9936],[14.1466,41.9996],[14.1314,42.0124],[14.1203,42.023],[14.1039,42.0448],[14.1043,42.0455],[14.1188,42.0371],[14.1217,42.0368],[14.1264,42.0349],[14.1578,42.0191],[14.1668,42.0127],[14.176,42.0018],[14.1775,41.9993],[14.1779,41.9965],[14.1824,41.9933],[14.1895,41.9942]]]}},{"type":"Feature","properties":{"i":"069049","n":"Liscia"},"geometry":{"type":"Polygon","coordinates":[[[14.5805,41.961],[14.5752,41.952],[14.5635,41.9421],[14.5587,41.9393],[14.5475,41.9384],[14.5398,41.9437],[14.5338,41.9549],[14.5242,41.9611],[14.5348,41.9657],[14.5462,41.9651],[14.5581,41.9617],[14.575,41.9604],[14.5805,41.961]]]}},{"type":"Feature","properties":{"i":"069050","n":"Miglianico"},"geometry":{"type":"Polygon","coordinates":[[[14.3215,42.3886],[14.3118,42.3794],[14.3127,42.3756],[14.3166,42.3714],[14.3071,42.3657],[14.3061,42.3581],[14.3065,42.3549],[14.3005,42.3462],[14.2936,42.3395],[14.2918,42.3393],[14.2855,42.332],[14.2845,42.3298],[14.2736,42.3213],[14.2641,42.3122],[14.2509,42.3205],[14.2549,42.3221],[14.2586,42.3393],[14.2534,42.3477],[14.257,42.349],[14.2623,42.3494],[14.2693,42.3487],[14.2731,42.3475],[14.2773,42.3511],[14.2804,42.3579],[14.2779,42.3642],[14.2807,42.3656],[14.2805,42.3677],[14.2749,42.3758],[14.2699,42.3777],[14.2698,42.3805],[14.2761,42.3816],[14.2796,42.3842],[14.2832,42.3883],[14.2849,42.3936],[14.3035,42.3943],[14.3215,42.3886]]]}},{"type":"Feature","properties":{"i":"069051","n":"Montazzoli"},"geometry":{"type":"Polygon","coordinates":[[[14.477,41.9728],[14.4746,41.9688],[14.4672,41.9605],[14.4583,41.9559],[14.4512,41.9507],[14.436,41.9309],[14.4235,41.9098],[14.4137,41.9054],[14.4055,41.9042],[14.4067,41.9064],[14.4064,41.9087],[14.4002,41.926],[14.3993,41.9404],[14.3968,41.9491],[14.3988,41.9518],[14.4006,41.9528],[14.4042,41.9582],[14.4048,41.9613],[14.4044,41.9679],[14.4068,41.9684],[14.4104,41.9744],[14.4108,41.9759],[14.4084,41.9807],[14.4097,41.9829],[14.4166,41.9882],[14.4271,41.9941],[14.4492,42.0019],[14.4566,42.0035],[14.461,42.0058],[14.4615,42.0011],[14.4609,41.9941],[14.4627,41.9866],[14.4746,41.9767],[14.477,41.9728]]]}},{"type":"Feature","properties":{"i":"069052","n":"Monteferrante"},"geometry":{"type":"Polygon","coordinates":[[[14.4055,41.9042],[14.4045,41.9018],[14.4009,41.8979],[14.3973,41.8973],[14.3917,41.898],[14.3893,41.91],[14.3898,41.9167],[14.3882,41.9229],[14.3809,41.925],[14.376,41.9276],[14.3724,41.9305],[14.3697,41.936],[14.3679,41.9411],[14.3655,41.9631],[14.3672,41.9653],[14.3768,41.9625],[14.3889,41.9619],[14.3947,41.9661],[14.3928,41.9693],[14.4044,41.9679],[14.4048,41.9613],[14.4042,41.9582],[14.4006,41.9528],[14.3988,41.9518],[14.3968,41.9491],[14.3993,41.9404],[14.4002,41.926],[14.4064,41.9087],[14.4067,41.9064],[14.4055,41.9042]]]}},{"type":"Feature","properties":{"i":"069053","n":"Montelapiano"},"geometry":{"type":"Polygon","coordinates":[[[14.3415,41.9498],[14.3399,41.9515],[14.3317,41.9559],[14.3201,41.9604],[14.3103,41.9653],[14.3078,41.9677],[14.3034,41.9751],[14.313,41.9764],[14.3265,41.9796],[14.3422,41.9847],[14.3431,41.9808],[14.3467,41.9772],[14.3469,41.9658],[14.3484,41.9497],[14.3447,41.9488],[14.3415,41.9498]]]}},{"type":"Feature","properties":{"i":"069054","n":"Montenerodomo"},"geometry":{"type":"Polygon","coordinates":[[[14.2927,41.9942],[14.2892,41.99],[14.2822,41.9862],[14.2827,41.9837],[14.287,41.9814],[14.2842,41.9768],[14.2715,41.9727],[14.2536,41.963],[14.2419,41.9533],[14.2391,41.9559],[14.2287,41.9594],[14.2208,41.959],[14.2145,41.9576],[14.2034,41.9519],[14.1953,41.9361],[14.1936,41.9315],[14.1947,41.9286],[14.1917,41.926],[14.17,41.915],[14.172,41.9231],[14.1791,41.9301],[14.186,41.9464],[14.1875,41.9573],[14.1873,41.9624],[14.2003,41.9553],[14.2033,41.9707],[14.2088,41.977],[14.2193,41.9826],[14.2293,41.9896],[14.226,41.9981],[14.2396,41.9966],[14.2432,41.9969],[14.2467,41.9983],[14.2571,42.0049],[14.26,42.0056],[14.2927,41.9942]]]}},{"type":"Feature","properties":{"i":"069055","n":"Monteodorisio"},"geometry":{"type":"Polygon","coordinates":[[[14.6837,42.0848],[14.6833,42.0824],[14.6819,42.0814],[14.6725,42.0808],[14.6529,42.0711],[14.6525,42.0695],[14.6413,42.0684],[14.6241,42.0689],[14.6151,42.0678],[14.608,42.0702],[14.5997,42.0758],[14.5992,42.0784],[14.6007,42.0796],[14.6057,42.0782],[14.6128,42.0782],[14.618,42.0817],[14.6191,42.0864],[14.6217,42.0913],[14.629,42.0943],[14.6332,42.0949],[14.6414,42.1022],[14.6422,42.1184],[14.6434,42.1214],[14.6417,42.1225],[14.6429,42.127],[14.645,42.1282],[14.6481,42.1329],[14.6504,42.1334],[14.6563,42.1323],[14.662,42.1296],[14.6799,42.1055],[14.6847,42.0964],[14.6834,42.0881],[14.6837,42.0848]]]}},{"type":"Feature","properties":{"i":"069056","n":"Mozzagrogna"},"geometry":{"type":"Polygon","coordinates":[[[14.4762,42.2011],[14.4775,42.2003],[14.4772,42.1997],[14.4715,42.1945],[14.4706,42.1928],[14.4715,42.1892],[14.4754,42.1845],[14.4755,42.1818],[14.4707,42.1716],[14.467,42.1709],[14.4604,42.1736],[14.4428,42.1876],[14.4311,42.1952],[14.421,42.2],[14.419,42.2002],[14.4155,42.2063],[14.4189,42.2132],[14.4216,42.2148],[14.4498,42.2159],[14.4514,42.2155],[14.4701,42.2039],[14.4762,42.2011]]]}},{"type":"Feature","properties":{"i":"069057","n":"Orsogna"},"geometry":{"type":"Polygon","coordinates":[[[14.3404,42.2374],[14.3378,42.2249],[14.3338,42.2131],[14.3316,42.211],[14.3256,42.2085],[14.3239,42.2067],[14.3176,42.2031],[14.3003,42.204],[14.2966,42.2054],[14.2875,42.211],[14.28,42.2117],[14.2757,42.2116],[14.2698,42.2093],[14.2656,42.2069],[14.2643,42.2042],[14.2623,42.2024],[14.259,42.2034],[14.2564,42.2057],[14.2601,42.211],[14.2578,42.2152],[14.2573,42.2273],[14.2607,42.2429],[14.2619,42.2599],[14.2643,42.2655],[14.2647,42.2686],[14.2638,42.277],[14.2691,42.2752],[14.2746,42.2709],[14.2688,42.2635],[14.2814,42.2571],[14.2797,42.2568],[14.2785,42.2543],[14.2778,42.2432],[14.2815,42.2424],[14.3037,42.232],[14.3194,42.2315],[14.3265,42.2325],[14.3404,42.2374]]]}},{"type":"Feature","properties":{"i":"069058","n":"Ortona"},"geometry":{"type":"Polygon","coordinates":[[[14.4412,42.3123],[14.4306,42.3134],[14.4258,42.3127],[14.4205,42.3061],[14.4143,42.3031],[14.4066,42.3035],[14.3999,42.3002],[14.398,42.2985],[14.3946,42.2911],[14.3951,42.2896],[14.4001,42.2859],[14.3967,42.2812],[14.3915,42.2766],[14.3835,42.2741],[14.3771,42.2706],[14.3781,42.2795],[14.3736,42.2835],[14.3613,42.2818],[14.3587,42.2775],[14.3552,42.2785],[14.3533,42.2802],[14.3546,42.2834],[14.354,42.2896],[14.3507,42.2979],[14.3488,42.3066],[14.3432,42.3229],[14.3411,42.3278],[14.338,42.3284],[14.3366,42.3279],[14.3338,42.33],[14.3329,42.333],[14.3332,42.339],[14.3421,42.3653],[14.3402,42.3671],[14.3351,42.3669],[14.3182,42.3704],[14.3131,42.375],[14.3118,42.3781],[14.312,42.3797],[14.3145,42.3825],[14.3215,42.3886],[14.3204,42.3936],[14.3209,42.405],[14.373,42.3786],[14.3804,42.377],[14.391,42.3726],[14.3936,42.3709],[14.3947,42.368],[14.3981,42.3643],[14.4027,42.3615],[14.4115,42.3574],[14.421,42.3554],[14.4235,42.3512],[14.4116,42.357],[14.4098,42.355],[14.4101,42.3479],[14.4117,42.3455],[14.4141,42.3459],[14.4243,42.3315],[14.426,42.3259],[14.4412,42.3123]]]}},{"type":"Feature","properties":{"i":"069059","n":"Paglieta"},"geometry":{"type":"Polygon","coordinates":[[[14.516,42.2088],[14.5153,42.2051],[14.5109,42.1988],[14.5162,42.1887],[14.5245,42.176],[14.528,42.1663],[14.5236,42.1586],[14.5163,42.1535],[14.5103,42.1526],[14.499,42.1468],[14.4949,42.1359],[14.4916,42.1324],[14.4806,42.128],[14.4689,42.1349],[14.468,42.1383],[14.4647,42.1428],[14.4543,42.1507],[14.4457,42.1611],[14.467,42.1709],[14.4707,42.1716],[14.4758,42.183],[14.4744,42.186],[14.4715,42.1892],[14.4707,42.1935],[14.4772,42.1997],[14.4775,42.2003],[14.4762,42.2011],[14.4833,42.2066],[14.5109,42.2095],[14.5141,42.2096],[14.516,42.2088]]]}},{"type":"Feature","properties":{"i":"069060","n":"Palena"},"geometry":{"type":"Polygon","coordinates":[[[14.1873,41.9624],[14.1875,41.9573],[14.186,41.9464],[14.1791,41.9301],[14.172,41.9231],[14.17,41.915],[14.1674,41.9111],[14.1677,41.9009],[14.161,41.8966],[14.1527,41.8948],[14.1383,41.8872],[14.1255,41.8909],[14.1063,41.8934],[14.1,41.9046],[14.0949,41.9223],[14.0909,41.9283],[14.0818,41.9394],[14.0872,41.9432],[14.0979,41.9458],[14.0979,41.9523],[14.0958,41.9624],[14.0939,41.9778],[14.0907,41.9828],[14.0888,41.9934],[14.0896,41.9943],[14.0899,41.9975],[14.0874,41.9999],[14.081,42.0017],[14.0802,42.0091],[14.0815,42.0183],[14.0863,42.024],[14.0887,42.0306],[14.0906,42.0327],[14.0906,42.041],[14.0931,42.0436],[14.104,42.048],[14.1039,42.0448],[14.1203,42.023],[14.1314,42.0124],[14.1466,41.9996],[14.1513,41.9936],[14.1709,41.9786],[14.1752,41.9739],[14.1757,41.9706],[14.1873,41.9624]]]}},{"type":"Feature","properties":{"i":"069061","n":"Palmoli"},"geometry":{"type":"Polygon","coordinates":[[[14.6151,41.9981],[14.6319,41.9923],[14.6365,41.9893],[14.6399,41.9841],[14.64,41.9823],[14.6376,41.974],[14.6349,41.9725],[14.6335,41.9695],[14.6238,41.9628],[14.6224,41.9603],[14.6216,41.9584],[14.6204,41.9439],[14.6145,41.945],[14.6044,41.9429],[14.6038,41.9422],[14.5996,41.9242],[14.5986,41.9228],[14.5989,41.9151],[14.6065,41.905],[14.6047,41.9007],[14.6029,41.9033],[14.5836,41.91],[14.564,41.9309],[14.5587,41.9393],[14.5635,41.9421],[14.5752,41.952],[14.5805,41.961],[14.579,41.9734],[14.5863,41.9799],[14.5958,41.986],[14.5994,41.9871],[14.6023,41.9889],[14.6074,41.9949],[14.6151,41.9981]]]}},{"type":"Feature","properties":{"i":"069062","n":"Palombaro"},"geometry":{"type":"Polygon","coordinates":[[[14.2338,42.147],[14.238,42.1462],[14.2398,42.142],[14.2556,42.1321],[14.2526,42.1165],[14.2441,42.1088],[14.236,42.1048],[14.234,42.1044],[14.2221,42.1134],[14.2134,42.117],[14.1908,42.1187],[14.1784,42.1137],[14.1762,42.1164],[14.1702,42.1283],[14.1757,42.1309],[14.187,42.133],[14.21,42.1345],[14.2257,42.142],[14.2282,42.1448],[14.2289,42.1473],[14.2238,42.1484],[14.2338,42.147]]]}},{"type":"Feature","properties":{"i":"069063","n":"Pennadomo"},"geometry":{"type":"Polygon","coordinates":[[[14.3394,41.9973],[14.3281,41.9993],[14.3021,41.9834],[14.299,41.9804],[14.2949,41.9815],[14.2906,41.9838],[14.2884,41.9842],[14.2853,41.9818],[14.2826,41.9839],[14.2824,41.9865],[14.2892,41.99],[14.2927,41.9942],[14.2958,42.0007],[14.3041,42.0042],[14.3081,42.0027],[14.3172,42.0039],[14.3229,42.007],[14.3248,42.0102],[14.3238,42.014],[14.3268,42.0211],[14.3311,42.0258],[14.3417,42.0305],[14.3446,42.0341],[14.3486,42.029],[14.3477,42.0263],[14.3488,42.0223],[14.3529,42.0133],[14.3486,42.0116],[14.3428,42.0117],[14.3411,42.0107],[14.3396,42.0077],[14.3394,41.9973]]]}},{"type":"Feature","properties":{"i":"069064","n":"Pennapiedimonte"},"geometry":{"type":"Polygon","coordinates":[[[14.2238,42.1484],[14.2289,42.1473],[14.2282,42.1448],[14.2257,42.142],[14.21,42.1345],[14.187,42.133],[14.1757,42.1309],[14.1702,42.1283],[14.1762,42.1164],[14.1784,42.1137],[14.1712,42.1108],[14.1591,42.1102],[14.1415,42.1131],[14.1377,42.1131],[14.1334,42.1123],[14.1299,42.1094],[14.1242,42.1061],[14.1194,42.1052],[14.1149,42.1072],[14.1156,42.1201],[14.1118,42.1297],[14.1096,42.1379],[14.1099,42.1428],[14.1156,42.1504],[14.1292,42.1588],[14.1339,42.1591],[14.1346,42.1609],[14.1568,42.1595],[14.1642,42.1661],[14.1689,42.1683],[14.1997,42.1783],[14.2106,42.1775],[14.2353,42.1683],[14.2262,42.164],[14.221,42.1599],[14.2189,42.1572],[14.2175,42.1534],[14.2218,42.1491],[14.2238,42.1484]]]}},{"type":"Feature","properties":{"i":"069065","n":"Perano"},"geometry":{"type":"Polygon","coordinates":[[[14.366,42.1091],[14.3688,42.1123],[14.3737,42.1152],[14.3836,42.1174],[14.3876,42.1196],[14.3902,42.1223],[14.395,42.1181],[14.4153,42.1078],[14.415,42.1068],[14.42,42.1033],[14.4198,42.0993],[14.4185,42.096],[14.4142,42.0945],[14.4101,42.0945],[14.4031,42.0988],[14.3802,42.1037],[14.366,42.1091]]]}},{"type":"Feature","properties":{"i":"069066","n":"Pizzoferrato"},"geometry":{"type":"Polygon","coordinates":[[[14.2419,41.9533],[14.2569,41.9423],[14.2568,41.9402],[14.2537,41.9361],[14.2517,41.9297],[14.2598,41.921],[14.2703,41.9161],[14.2793,41.9095],[14.273,41.9035],[14.2692,41.8987],[14.2657,41.8959],[14.2611,41.8933],[14.2553,41.8922],[14.2522,41.8885],[14.2259,41.9019],[14.2002,41.9234],[14.1947,41.9286],[14.1936,41.9315],[14.2023,41.9507],[14.2064,41.9537],[14.2145,41.9576],[14.2208,41.959],[14.2303,41.9592],[14.2391,41.9559],[14.2419,41.9533]]]}},{"type":"Feature","properties":{"i":"069067","n":"Poggiofiorito"},"geometry":{"type":"Polygon","coordinates":[[[14.3504,42.2589],[14.3508,42.2561],[14.3464,42.2453],[14.3404,42.2374],[14.3265,42.2325],[14.3194,42.2315],[14.3037,42.232],[14.2991,42.234],[14.3051,42.2364],[14.3067,42.2382],[14.3099,42.2456],[14.3194,42.2569],[14.3236,42.2639],[14.3238,42.266],[14.3271,42.2688],[14.3315,42.2698],[14.3396,42.267],[14.3421,42.2647],[14.3428,42.262],[14.3473,42.2596],[14.3504,42.2589]]]}},{"type":"Feature","properties":{"i":"069068","n":"Pollutri"},"geometry":{"type":"Polygon","coordinates":[[[14.6469,42.1304],[14.6429,42.127],[14.6417,42.1225],[14.6434,42.1214],[14.6348,42.1229],[14.6128,42.1246],[14.5915,42.1185],[14.5812,42.1182],[14.5797,42.1189],[14.5663,42.1175],[14.5612,42.115],[14.5498,42.1142],[14.5488,42.1154],[14.5423,42.1185],[14.5395,42.119],[14.5369,42.1184],[14.5327,42.1269],[14.5367,42.1268],[14.5501,42.1343],[14.5537,42.1366],[14.5547,42.1387],[14.56,42.1437],[14.5662,42.1453],[14.5941,42.144],[14.6129,42.1484],[14.6263,42.1557],[14.6355,42.1595],[14.6411,42.1585],[14.6435,42.159],[14.6449,42.1605],[14.6481,42.142],[14.6463,42.1416],[14.6436,42.1382],[14.6429,42.1339],[14.6438,42.1312],[14.6469,42.1304]]]}},{"type":"Feature","properties":{"i":"069069","n":"Pretoro"},"geometry":{"type":"Polygon","coordinates":[[[14.1801,42.2266],[14.1751,42.2256],[14.173,42.2241],[14.1652,42.2131],[14.1569,42.2043],[14.1534,42.201],[14.1494,42.2009],[14.1394,42.1904],[14.1384,42.1862],[14.1323,42.1762],[14.1303,42.1752],[14.1261,42.1696],[14.1272,42.1652],[14.1312,42.1629],[14.1339,42.1591],[14.1292,42.1588],[14.1165,42.17],[14.1066,42.177],[14.1025,42.1789],[14.0987,42.1795],[14.0963,42.1813],[14.0961,42.1859],[14.1008,42.1892],[14.1066,42.1886],[14.1059,42.1909],[14.102,42.1947],[14.0936,42.2009],[14.094,42.2052],[14.0954,42.2067],[14.1039,42.2095],[14.1061,42.2091],[14.1116,42.2115],[14.1148,42.2145],[14.1159,42.2198],[14.1173,42.222],[14.1216,42.2245],[14.1281,42.2256],[14.1345,42.2239],[14.1399,42.2243],[14.1424,42.2262],[14.1508,42.237],[14.1597,42.2398],[14.1672,42.2395],[14.1623,42.2355],[14.163,42.2345],[14.1731,42.2291],[14.1801,42.2266]]]}},{"type":"Feature","properties":{"i":"069070","n":"Quadri"},"geometry":{"type":"Polygon","coordinates":[[[14.2926,41.9275],[14.2912,41.9256],[14.2884,41.9132],[14.2858,41.9112],[14.2793,41.9095],[14.2703,41.9161],[14.2598,41.921],[14.2517,41.9297],[14.2537,41.9361],[14.2568,41.9402],[14.2569,41.9423],[14.2638,41.9439],[14.2741,41.9388],[14.2825,41.9308],[14.2917,41.9287],[14.2926,41.9275]]]}},{"type":"Feature","properties":{"i":"069071","n":"Rapino"},"geometry":{"type":"Polygon","coordinates":[[[14.1974,42.2333],[14.2036,42.228],[14.2049,42.2245],[14.2023,42.2103],[14.199,42.2034],[14.1965,42.2015],[14.1935,42.2019],[14.1912,42.2013],[14.1866,42.1927],[14.1729,42.1807],[14.1682,42.181],[14.1543,42.1743],[14.147,42.1735],[14.1385,42.1711],[14.1351,42.1654],[14.1339,42.1591],[14.1312,42.1629],[14.1278,42.1647],[14.1267,42.1661],[14.1261,42.1696],[14.1303,42.1752],[14.1323,42.1762],[14.1384,42.1862],[14.1394,42.1904],[14.1458,42.1975],[14.1494,42.2009],[14.1534,42.201],[14.1569,42.2043],[14.1652,42.2131],[14.173,42.2241],[14.1751,42.2256],[14.183,42.2273],[14.1901,42.2352],[14.1941,42.2353],[14.1974,42.2333]]]}},{"type":"Feature","properties":{"i":"069072","n":"Ripa Teatina"},"geometry":{"type":"Polygon","coordinates":[[[14.2698,42.3805],[14.2699,42.3777],[14.2749,42.3758],[14.2805,42.3677],[14.2809,42.3661],[14.2779,42.3642],[14.2804,42.3579],[14.2773,42.3511],[14.2731,42.3475],[14.2693,42.3487],[14.2623,42.3494],[14.257,42.349],[14.2534,42.3477],[14.2488,42.3497],[14.2382,42.3453],[14.2149,42.3412],[14.2071,42.348],[14.2227,42.3629],[14.2164,42.3698],[14.218,42.3716],[14.2204,42.3731],[14.2393,42.3791],[14.2418,42.3807],[14.2568,42.3951],[14.2695,42.3906],[14.2676,42.3868],[14.2653,42.3846],[14.267,42.3818],[14.2698,42.3805]]]}},{"type":"Feature","properties":{"i":"069073","n":"Roccamontepiano"},"geometry":{"type":"Polygon","coordinates":[[[14.1632,42.2684],[14.1584,42.2568],[14.1523,42.2532],[14.1419,42.2509],[14.1414,42.2486],[14.1435,42.2409],[14.1473,42.2377],[14.1508,42.237],[14.1424,42.2262],[14.1399,42.2243],[14.1331,42.2243],[14.1114,42.2407],[14.1089,42.2438],[14.1057,42.2574],[14.1094,42.2607],[14.1147,42.2631],[14.1137,42.2744],[14.119,42.2733],[14.127,42.2747],[14.131,42.2772],[14.1432,42.2782],[14.1463,42.2771],[14.1519,42.2786],[14.154,42.2807],[14.1539,42.2818],[14.1565,42.2801],[14.1593,42.2765],[14.1632,42.2684]]]}},{"type":"Feature","properties":{"i":"069074","n":"Rocca San Giovanni"},"geometry":{"type":"Polygon","coordinates":[[[14.5013,42.2645],[14.4902,42.2643],[14.4859,42.2619],[14.4751,42.2499],[14.4641,42.2404],[14.4599,42.2351],[14.4522,42.2291],[14.4501,42.2291],[14.449,42.2302],[14.4491,42.2315],[14.4522,42.2341],[14.4485,42.2398],[14.4432,42.2434],[14.4351,42.2408],[14.4321,42.2412],[14.4279,42.2457],[14.4297,42.2514],[14.4265,42.2523],[14.4288,42.2552],[14.4363,42.2747],[14.4389,42.2744],[14.4452,42.2761],[14.4757,42.2903],[14.4844,42.2853],[14.4995,42.2737],[14.5025,42.268],[14.5013,42.2645]]]}},{"type":"Feature","properties":{"i":"069075","n":"Roccascalegna"},"geometry":{"type":"Polygon","coordinates":[[[14.3488,42.0817],[14.3442,42.071],[14.344,42.0663],[14.3522,42.0591],[14.3489,42.0573],[14.3465,42.0419],[14.3434,42.0352],[14.3316,42.0364],[14.3169,42.04],[14.3099,42.0393],[14.3107,42.0444],[14.3095,42.0445],[14.3052,42.0483],[14.3002,42.06],[14.3015,42.0734],[14.3009,42.0768],[14.2968,42.0816],[14.2944,42.0885],[14.294,42.0971],[14.2959,42.1007],[14.301,42.1026],[14.3042,42.1014],[14.3173,42.1043],[14.3211,42.1044],[14.3211,42.1011],[14.3134,42.094],[14.3109,42.0904],[14.3164,42.0882],[14.333,42.0848],[14.3447,42.084],[14.3488,42.0817]]]}},{"type":"Feature","properties":{"i":"069076","n":"Roccaspinalveti"},"geometry":{"type":"Polygon","coordinates":[[[14.4875,41.9719],[14.487,41.969],[14.4884,41.965],[14.5042,41.9543],[14.5025,41.952],[14.5007,41.9437],[14.503,41.9327],[14.5044,41.9303],[14.4931,41.9285],[14.4891,41.9237],[14.4862,41.9187],[14.481,41.9156],[14.4687,41.9112],[14.4673,41.9081],[14.4665,41.8942],[14.4668,41.8902],[14.468,41.8888],[14.463,41.8879],[14.4396,41.8951],[14.4235,41.9098],[14.436,41.9309],[14.4525,41.9522],[14.4672,41.9605],[14.4746,41.9688],[14.477,41.9728],[14.4875,41.9719]]]}},{"type":"Feature","properties":{"i":"069077","n":"Roio del Sangro"},"geometry":{"type":"Polygon","coordinates":[[[14.3694,41.9379],[14.3709,41.9327],[14.376,41.9276],[14.3809,41.925],[14.3882,41.9229],[14.3896,41.9181],[14.3893,41.91],[14.392,41.8954],[14.394,41.891],[14.3957,41.89],[14.3962,41.8861],[14.382,41.8828],[14.3767,41.8829],[14.3777,41.8847],[14.3778,41.888],[14.3771,41.89],[14.3737,41.8932],[14.3709,41.893],[14.3673,41.8943],[14.3564,41.9007],[14.3582,41.9042],[14.3652,41.9102],[14.3688,41.9162],[14.3685,41.9178],[14.365,41.9287],[14.3626,41.9306],[14.3591,41.9316],[14.3558,41.9304],[14.3543,41.929],[14.3527,41.9291],[14.348,41.9378],[14.3478,41.9424],[14.3491,41.9449],[14.3517,41.9468],[14.3531,41.9466],[14.3568,41.9441],[14.3577,41.9412],[14.3624,41.9386],[14.3694,41.9379]]]}},{"type":"Feature","properties":{"i":"069078","n":"Rosello"},"geometry":{"type":"Polygon","coordinates":[[[14.3767,41.8829],[14.3767,41.8799],[14.366,41.8772],[14.3611,41.8743],[14.3641,41.8713],[14.3645,41.8691],[14.3586,41.8607],[14.3501,41.8623],[14.343,41.8625],[14.3433,41.8686],[14.3277,41.8859],[14.3249,41.8947],[14.3237,41.8964],[14.3253,41.8979],[14.3289,41.9039],[14.329,41.9105],[14.3329,41.9118],[14.3358,41.9107],[14.3438,41.9133],[14.3461,41.9162],[14.3463,41.918],[14.3443,41.9221],[14.3449,41.9237],[14.3515,41.9248],[14.3555,41.9282],[14.3558,41.9304],[14.3591,41.9316],[14.3617,41.9312],[14.365,41.9287],[14.3688,41.9162],[14.3652,41.9102],[14.3582,41.9042],[14.3564,41.9007],[14.3673,41.8943],[14.3709,41.893],[14.3737,41.8932],[14.3771,41.89],[14.3778,41.888],[14.3777,41.8847],[14.3767,41.8829]]]}},{"type":"Feature","properties":{"i":"069079","n":"San Buono"},"geometry":{"type":"MultiPolygon","coordinates":[[[[14.6074,41.9949],[14.6023,41.9889],[14.5994,41.9871],[14.5958,41.986],[14.5863,41.9799],[14.579,41.9734],[14.5805,41.961],[14.575,41.9604],[14.5581,41.9617],[14.5462,41.9651],[14.5348,41.9657],[14.5312,41.9746],[14.5315,41.9763],[14.538,41.9831],[14.5433,41.984],[14.5449,41.9851],[14.5371,41.9936],[14.538,41.9973],[14.5493,41.9973],[14.5526,41.9983],[14.5552,42.0005],[14.5669,42.0017],[14.5817,42.0011],[14.586,41.9992],[14.5971,41.9961],[14.6052,41.9961],[14.6074,41.9949]]],[[[14.6396,42.0196],[14.6317,42.0122],[14.6185,42.0041],[14.6127,42.0037],[14.6113,42.0042],[14.6,42.0125],[14.599,42.014],[14.5995,42.0226],[14.6035,42.033],[14.6044,42.0343],[14.6086,42.0355],[14.617,42.0335],[14.6234,42.0259],[14.6396,42.0196]]]]}},{"type":"Feature","properties":{"i":"069080","n":"San Giovanni Lipioni"},"geometry":{"type":"Polygon","coordinates":[[[14.5929,41.8483],[14.5898,41.8468],[14.5847,41.8421],[14.5774,41.8281],[14.5731,41.824],[14.5652,41.8291],[14.5563,41.8327],[14.5507,41.8363],[14.5485,41.8483],[14.5532,41.8529],[14.5646,41.8603],[14.5828,41.855],[14.5929,41.8483]]]}},{"type":"Feature","properties":{"i":"069081","n":"San Giovanni Teatino"},"geometry":{"type":"MultiPolygon","coordinates":[[[[14.2264,42.4124],[14.2328,42.4111],[14.2203,42.4022],[14.2142,42.3969],[14.2107,42.3952],[14.2083,42.3977],[14.2133,42.4003],[14.2243,42.4088],[14.2264,42.4124]]],[[[14.2213,42.4195],[14.2185,42.4169],[14.2056,42.409],[14.1824,42.3899],[14.1759,42.3896],[14.1668,42.392],[14.1604,42.3948],[14.1579,42.3968],[14.1553,42.4081],[14.156,42.4124],[14.1591,42.4146],[14.1596,42.4171],[14.1569,42.4168],[14.1687,42.426],[14.1685,42.4296],[14.1661,42.4299],[14.1645,42.4321],[14.1715,42.4366],[14.1843,42.4274],[14.1922,42.4338],[14.1962,42.4335],[14.1988,42.4289],[14.2085,42.4254],[14.2151,42.4277],[14.2236,42.4275],[14.2233,42.4231],[14.2213,42.4195]]]]}},{"type":"Feature","properties":{"i":"069082","n":"San Martino sulla Marrucina"},"geometry":{"type":"Polygon","coordinates":[[[14.2323,42.217],[14.2318,42.2125],[14.2263,42.2089],[14.2139,42.21],[14.2143,42.2144],[14.213,42.2193],[14.207,42.2271],[14.2036,42.228],[14.1974,42.2333],[14.2128,42.2434],[14.2242,42.2484],[14.2298,42.2378],[14.2312,42.2271],[14.231,42.2211],[14.2323,42.217]]]}},{"type":"Feature","properties":{"i":"069083","n":"San Salvo"},"geometry":{"type":"Polygon","coordinates":[[[14.7792,42.0702],[14.7724,42.0632],[14.7623,42.0446],[14.7639,42.0416],[14.7744,42.0393],[14.7822,42.0351],[14.7829,42.0332],[14.7785,42.028],[14.7662,42.0184],[14.7584,42.0163],[14.7521,42.0134],[14.7522,42.0182],[14.7477,42.026],[14.7424,42.0319],[14.7379,42.0337],[14.7145,42.0387],[14.7124,42.0417],[14.7184,42.0436],[14.7246,42.0519],[14.7355,42.0588],[14.7436,42.0662],[14.7493,42.0728],[14.7515,42.0806],[14.7792,42.0702]]]}},{"type":"Feature","properties":{"i":"069084","n":"Santa Maria Imbaro"},"geometry":{"type":"Polygon","coordinates":[[[14.4833,42.2066],[14.4762,42.2011],[14.4701,42.2039],[14.4507,42.2157],[14.4223,42.2147],[14.4261,42.2207],[14.4353,42.2242],[14.442,42.2232],[14.4584,42.2243],[14.4647,42.2237],[14.4693,42.2222],[14.4758,42.2179],[14.4818,42.2075],[14.4833,42.2066]]]}},{"type":"Feature","properties":{"i":"069085","n":"Sant'Eusanio del Sangro"},"geometry":{"type":"Polygon","coordinates":[[[14.3865,42.1675],[14.394,42.162],[14.4027,42.1485],[14.4088,42.1426],[14.4029,42.1371],[14.3755,42.129],[14.3667,42.1315],[14.3662,42.1388],[14.3531,42.1475],[14.3376,42.1552],[14.3075,42.1579],[14.3036,42.1592],[14.3014,42.1621],[14.3077,42.1683],[14.3072,42.1738],[14.3054,42.1754],[14.3044,42.1781],[14.3081,42.1798],[14.3161,42.1792],[14.3209,42.1859],[14.325,42.1883],[14.3271,42.1884],[14.3301,42.1856],[14.3325,42.1803],[14.3374,42.1752],[14.3417,42.172],[14.3497,42.168],[14.3579,42.1658],[14.373,42.1675],[14.3865,42.1675]]]}},{"type":"Feature","properties":{"i":"069086","n":"San Vito Chietino"},"geometry":{"type":"Polygon","coordinates":[[[14.4412,42.3123],[14.4557,42.3024],[14.4757,42.2903],[14.4472,42.2769],[14.4403,42.2748],[14.4363,42.2747],[14.4365,42.279],[14.4276,42.2817],[14.4147,42.2737],[14.4104,42.2792],[14.3951,42.2896],[14.3946,42.2911],[14.398,42.2985],[14.4066,42.3035],[14.4143,42.3031],[14.4205,42.3061],[14.4258,42.3127],[14.4306,42.3134],[14.4412,42.3123]]]}},{"type":"Feature","properties":{"i":"069087","n":"Scerni"},"geometry":{"type":"Polygon","coordinates":[[[14.6434,42.1214],[14.6422,42.1184],[14.6414,42.1022],[14.6332,42.0949],[14.629,42.0943],[14.6217,42.0913],[14.6191,42.0864],[14.618,42.0817],[14.6128,42.0782],[14.6057,42.0782],[14.6003,42.0796],[14.5992,42.0784],[14.5997,42.0758],[14.5967,42.0733],[14.5903,42.0647],[14.5891,42.0635],[14.5825,42.0604],[14.5788,42.0605],[14.574,42.0632],[14.561,42.0736],[14.5602,42.0782],[14.5646,42.0831],[14.5647,42.0901],[14.5595,42.0902],[14.5501,42.0877],[14.551,42.0841],[14.552,42.0831],[14.5459,42.082],[14.5365,42.0824],[14.5323,42.0842],[14.5259,42.0924],[14.5242,42.0965],[14.5358,42.1146],[14.5369,42.1184],[14.5395,42.119],[14.5439,42.1179],[14.5488,42.1154],[14.5498,42.1142],[14.5612,42.115],[14.5663,42.1175],[14.5797,42.1189],[14.5812,42.1182],[14.5915,42.1185],[14.6128,42.1246],[14.6348,42.1229],[14.6434,42.1214]]]}},{"type":"Feature","properties":{"i":"069088","n":"Schiavi di Abruzzo"},"geometry":{"type":"Polygon","coordinates":[[[14.4975,41.849],[14.4964,41.8459],[14.5022,41.8328],[14.5288,41.804],[14.5329,41.798],[14.5336,41.792],[14.53,41.7883],[14.5047,41.776],[14.5019,41.7735],[14.4987,41.7723],[14.4969,41.7702],[14.4958,41.7666],[14.4888,41.7607],[14.4853,41.7597],[14.4704,41.7633],[14.4563,41.7624],[14.4548,41.7634],[14.4545,41.765],[14.4585,41.7719],[14.4644,41.777],[14.4547,41.7958],[14.4508,41.816],[14.4505,41.8214],[14.4468,41.8344],[14.4522,41.8377],[14.4789,41.8478],[14.4925,41.8504],[14.4975,41.849]]]}},{"type":"Feature","properties":{"i":"069089","n":"Taranta Peligna"},"geometry":{"type":"Polygon","coordinates":[[[14.191,42.0236],[14.1933,42.0198],[14.1899,42.0068],[14.189,41.998],[14.1895,41.9942],[14.1824,41.9933],[14.1779,41.9965],[14.1775,41.9993],[14.176,42.0018],[14.1643,42.015],[14.1347,42.0309],[14.1217,42.0368],[14.1188,42.0371],[14.1043,42.0455],[14.099,42.0639],[14.1004,42.0697],[14.1002,42.0747],[14.1278,42.0629],[14.135,42.0568],[14.145,42.0452],[14.1493,42.0437],[14.156,42.0397],[14.1608,42.0356],[14.1728,42.0319],[14.1852,42.0293],[14.1893,42.0267],[14.191,42.0236]]]}},{"type":"Feature","properties":{"i":"069090","n":"Tollo"},"geometry":{"type":"Polygon","coordinates":[[[14.3366,42.3279],[14.3372,42.3269],[14.3359,42.3253],[14.3258,42.3243],[14.3228,42.3224],[14.3217,42.3205],[14.3058,42.3193],[14.3011,42.3216],[14.2992,42.3249],[14.3006,42.3272],[14.3003,42.3313],[14.2958,42.3385],[14.2936,42.3395],[14.3005,42.3462],[14.3065,42.3549],[14.3061,42.3581],[14.3071,42.3657],[14.3166,42.3714],[14.3258,42.3684],[14.3351,42.3669],[14.3402,42.3671],[14.3419,42.3657],[14.3332,42.339],[14.3329,42.333],[14.3336,42.3304],[14.3366,42.3279]]]}},{"type":"Feature","properties":{"i":"069091","n":"Torino di Sangro"},"geometry":{"type":"Polygon","coordinates":[[[14.6072,42.2046],[14.6036,42.2018],[14.5994,42.2002],[14.5933,42.1996],[14.5915,42.1997],[14.5833,42.2032],[14.5765,42.2025],[14.5691,42.2041],[14.5679,42.2007],[14.568,42.1966],[14.5655,42.1941],[14.5604,42.1935],[14.5574,42.1972],[14.5563,42.1904],[14.5586,42.158],[14.5563,42.1541],[14.5509,42.1516],[14.5389,42.1548],[14.5345,42.1544],[14.5306,42.1557],[14.5302,42.1574],[14.5328,42.1624],[14.5321,42.1646],[14.528,42.1663],[14.5245,42.176],[14.5162,42.1887],[14.5109,42.1988],[14.5153,42.2051],[14.5166,42.2101],[14.5213,42.2171],[14.5362,42.232],[14.5403,42.2345],[14.544,42.2355],[14.5502,42.2307],[14.563,42.2238],[14.6072,42.2046]]]}},{"type":"Feature","properties":{"i":"069092","n":"Tornareccio"},"geometry":{"type":"Polygon","coordinates":[[[14.4536,42.0281],[14.4573,42.0214],[14.4512,42.0185],[14.4466,42.0147],[14.4465,42.0074],[14.4377,42.0007],[14.4286,41.9977],[14.4252,41.9977],[14.4197,41.9993],[14.4197,42.0008],[14.4214,42.0022],[14.4058,42.0067],[14.3959,42.0137],[14.3865,42.0178],[14.3858,42.0203],[14.391,42.0239],[14.3921,42.0263],[14.3906,42.0331],[14.3923,42.0417],[14.3967,42.0499],[14.4069,42.0548],[14.418,42.0568],[14.4303,42.0562],[14.4384,42.0542],[14.4586,42.0427],[14.4605,42.0342],[14.453,42.0328],[14.4508,42.0334],[14.4509,42.0315],[14.4536,42.0281]]]}},{"type":"Feature","properties":{"i":"069093","n":"Torrebruna"},"geometry":{"type":"Polygon","coordinates":[[[14.5646,41.8603],[14.5532,41.8529],[14.5485,41.8487],[14.5505,41.8368],[14.5522,41.8356],[14.5239,41.8401],[14.513,41.8402],[14.5091,41.8425],[14.5058,41.8464],[14.4996,41.8503],[14.4997,41.8518],[14.5075,41.8616],[14.5138,41.8658],[14.5072,41.8779],[14.5125,41.8773],[14.5301,41.8839],[14.5335,41.8857],[14.5403,41.8942],[14.5528,41.8996],[14.5541,41.8984],[14.5717,41.8973],[14.5669,41.8887],[14.565,41.8872],[14.5565,41.8838],[14.5587,41.874],[14.5605,41.8715],[14.5646,41.8603]]]}},{"type":"Feature","properties":{"i":"069094","n":"Torrevecchia Teatina"},"geometry":{"type":"Polygon","coordinates":[[[14.2568,42.3951],[14.2418,42.3807],[14.2393,42.3791],[14.2204,42.3731],[14.2164,42.3698],[14.213,42.3724],[14.1973,42.3772],[14.1956,42.3787],[14.1954,42.3808],[14.2052,42.3849],[14.2138,42.3932],[14.2138,42.3952],[14.2127,42.3964],[14.2185,42.4001],[14.2227,42.404],[14.2334,42.4114],[14.2461,42.4162],[14.2511,42.4167],[14.2618,42.4125],[14.2644,42.4093],[14.264,42.4046],[14.2608,42.3988],[14.2568,42.3951]]]}},{"type":"Feature","properties":{"i":"069095","n":"Torricella Peligna"},"geometry":{"type":"Polygon","coordinates":[[[14.3099,42.0393],[14.3169,42.04],[14.3316,42.0364],[14.3434,42.0352],[14.3446,42.0341],[14.3417,42.0305],[14.3311,42.0258],[14.3268,42.0211],[14.3238,42.014],[14.3248,42.0102],[14.3229,42.007],[14.3172,42.0039],[14.3081,42.0027],[14.3041,42.0042],[14.2958,42.0007],[14.2927,41.9942],[14.26,42.0056],[14.2571,42.0049],[14.2467,41.9983],[14.2432,41.9969],[14.2396,41.9966],[14.226,41.9981],[14.2246,42.0013],[14.2201,42.0045],[14.2144,42.0114],[14.2143,42.0135],[14.2133,42.015],[14.2096,42.0183],[14.2023,42.023],[14.2048,42.0251],[14.2263,42.0319],[14.2273,42.0362],[14.2255,42.0447],[14.2263,42.0521],[14.2272,42.0572],[14.2285,42.0594],[14.23,42.0597],[14.2298,42.0585],[14.2344,42.0489],[14.2371,42.0451],[14.2405,42.0436],[14.2426,42.0435],[14.2462,42.044],[14.2482,42.0458],[14.2528,42.0461],[14.2584,42.0435],[14.262,42.0346],[14.2681,42.0254],[14.2784,42.019],[14.2786,42.0172],[14.2846,42.0146],[14.2935,42.0198],[14.2966,42.0237],[14.2966,42.0263],[14.2983,42.029],[14.3022,42.0327],[14.3043,42.0328],[14.3073,42.0346],[14.3099,42.0393]]]}},{"type":"Feature","properties":{"i":"069096","n":"Treglio"},"geometry":{"type":"Polygon","coordinates":[[[14.4363,42.2747],[14.4288,42.2552],[14.4272,42.253],[14.4226,42.2496],[14.4129,42.246],[14.4201,42.2598],[14.4203,42.2623],[14.4194,42.264],[14.4181,42.2645],[14.414,42.261],[14.4101,42.261],[14.4088,42.262],[14.4082,42.2631],[14.4106,42.2684],[14.414,42.273],[14.4276,42.2817],[14.4365,42.279],[14.4363,42.2747]]]}},{"type":"Feature","properties":{"i":"069097","n":"Tufillo"},"geometry":{"type":"Polygon","coordinates":[[[14.6659,41.9275],[14.6638,41.9163],[14.6548,41.9109],[14.6524,41.9068],[14.6416,41.9004],[14.6228,41.8942],[14.6179,41.8915],[14.6047,41.9007],[14.6065,41.905],[14.5989,41.9151],[14.5986,41.9228],[14.5996,41.9242],[14.604,41.9426],[14.6138,41.9449],[14.6168,41.9449],[14.6235,41.9427],[14.6254,41.9409],[14.6249,41.9394],[14.626,41.9363],[14.6374,41.9371],[14.6619,41.9298],[14.6659,41.9275]]]}},{"type":"Feature","properties":{"i":"069098","n":"Vacri"},"geometry":{"type":"Polygon","coordinates":[[[14.2461,42.313],[14.2489,42.3114],[14.2498,42.3086],[14.2531,42.3063],[14.2538,42.3041],[14.2458,42.2977],[14.2384,42.2896],[14.2379,42.2881],[14.2425,42.2837],[14.2469,42.2741],[14.2427,42.2665],[14.2414,42.2626],[14.2383,42.2609],[14.2304,42.2625],[14.2282,42.264],[14.2243,42.2707],[14.2245,42.2725],[14.2261,42.273],[14.2272,42.2756],[14.2214,42.2827],[14.2107,42.2902],[14.2144,42.2925],[14.2186,42.2985],[14.2204,42.3052],[14.2151,42.3096],[14.2122,42.3134],[14.2277,42.3202],[14.2379,42.3081],[14.2461,42.313]]]}},{"type":"Feature","properties":{"i":"069099","n":"Vasto"},"geometry":{"type":"Polygon","coordinates":[[[14.7515,42.0806],[14.7493,42.0728],[14.7436,42.0662],[14.7355,42.0588],[14.7246,42.0519],[14.7184,42.0436],[14.7141,42.042],[14.7086,42.0414],[14.7055,42.0462],[14.7047,42.0488],[14.6986,42.0548],[14.6873,42.0593],[14.6893,42.0692],[14.6892,42.0745],[14.6877,42.0834],[14.6837,42.0848],[14.6834,42.0881],[14.6847,42.0964],[14.6812,42.1035],[14.6638,42.1278],[14.6612,42.1302],[14.6563,42.1323],[14.6504,42.1334],[14.6481,42.1329],[14.6469,42.1304],[14.6446,42.1307],[14.6433,42.1321],[14.6433,42.1376],[14.6463,42.1416],[14.6481,42.142],[14.6424,42.1711],[14.6501,42.184],[14.6469,42.1892],[14.6472,42.192],[14.6581,42.1877],[14.6958,42.1756],[14.7089,42.1739],[14.7112,42.176],[14.7107,42.1763],[14.7115,42.1774],[14.7128,42.1769],[14.7162,42.1731],[14.7172,42.1702],[14.7192,42.1589],[14.7194,42.153],[14.7173,42.1493],[14.7188,42.1359],[14.7224,42.1294],[14.7226,42.1244],[14.7181,42.1099],[14.7183,42.1058],[14.7243,42.0988],[14.7284,42.0955],[14.7426,42.0856],[14.7515,42.0806]]]}},{"type":"Feature","properties":{"i":"069100","n":"Villalfonsina"},"geometry":{"type":"Polygon","coordinates":[[[14.5765,42.2025],[14.576,42.1979],[14.5685,42.1864],[14.5687,42.1848],[14.5715,42.1823],[14.5744,42.181],[14.5832,42.1884],[14.5874,42.1909],[14.5938,42.1903],[14.5884,42.1854],[14.5864,42.1819],[14.5836,42.1694],[14.5754,42.1633],[14.5734,42.1607],[14.574,42.1565],[14.5686,42.1526],[14.5556,42.15],[14.5508,42.1498],[14.5495,42.1516],[14.5526,42.152],[14.5563,42.1541],[14.5586,42.158],[14.5563,42.1904],[14.5573,42.1969],[14.5604,42.1935],[14.5637,42.1935],[14.5655,42.1941],[14.568,42.1966],[14.5679,42.2007],[14.5691,42.2041],[14.5765,42.2025]]]}},{"type":"Feature","properties":{"i":"069101","n":"Villamagna"},"geometry":{"type":"MultiPolygon","coordinates":[[[[14.2519,42.3072],[14.2498,42.3086],[14.2489,42.3114],[14.2574,42.3126],[14.2519,42.3072]]],[[[14.2534,42.3477],[14.2586,42.3393],[14.258,42.3356],[14.2549,42.3221],[14.2509,42.3205],[14.2461,42.313],[14.2379,42.3081],[14.2277,42.3202],[14.2142,42.3144],[14.2095,42.315],[14.2102,42.3219],[14.2097,42.3338],[14.2142,42.3392],[14.2149,42.3412],[14.2382,42.3453],[14.2488,42.3497],[14.2534,42.3477]]]]}},{"type":"Feature","properties":{"i":"069102","n":"Villa Santa Maria"},"geometry":{"type":"Polygon","coordinates":[[[14.3569,42.0111],[14.3633,41.995],[14.3684,41.9761],[14.3658,41.9671],[14.3672,41.9653],[14.3655,41.9631],[14.3679,41.9411],[14.3694,41.9379],[14.3624,41.9386],[14.3577,41.9412],[14.3568,41.9441],[14.355,41.9455],[14.3517,41.9468],[14.3485,41.944],[14.3476,41.9391],[14.3524,41.9295],[14.3543,41.929],[14.3555,41.9301],[14.3555,41.9282],[14.3515,41.9248],[14.3431,41.9231],[14.3366,41.9261],[14.334,41.9328],[14.3342,41.9358],[14.3415,41.9498],[14.3447,41.9488],[14.3484,41.9497],[14.3469,41.9658],[14.3467,41.9772],[14.3431,41.9808],[14.3422,41.9833],[14.3392,41.9991],[14.3396,42.0077],[14.3422,42.0116],[14.3486,42.0116],[14.3525,42.0127],[14.3529,42.0144],[14.3569,42.0111]]]}},{"type":"Feature","properties":{"i":"069103","n":"Pietraferrazzana"},"geometry":{"type":"Polygon","coordinates":[[[14.3928,41.9693],[14.3947,41.9661],[14.3889,41.9619],[14.3768,41.9625],[14.3672,41.9653],[14.3658,41.9671],[14.3685,41.9752],[14.3664,41.9818],[14.3687,41.9832],[14.3763,41.9849],[14.3858,41.9824],[14.3883,41.9801],[14.3897,41.9729],[14.3928,41.9693]]]}},{"type":"Feature","properties":{"i":"069104","n":"Fallo"},"geometry":{"type":"Polygon","coordinates":[[[14.3415,41.9498],[14.3342,41.9358],[14.3271,41.9305],[14.3235,41.9328],[14.3181,41.934],[14.3136,41.9381],[14.3127,41.9402],[14.3133,41.9521],[14.3062,41.9631],[14.3072,41.9669],[14.3078,41.9677],[14.3131,41.9635],[14.3317,41.9559],[14.3399,41.9515],[14.3415,41.9498]]]}}]}
