{"type":"FeatureCollection","fonte":"Confini comunali ISTAT via openpolis/geojson-italy — CC BY 4.0","features":[{"type":"Feature","properties":{"i":"085001","n":"Acquaviva Platani"},"geometry":{"type":"Polygon","coordinates":[[[13.72,37.5844],[13.7201,37.5758],[13.7104,37.5726],[13.7091,37.5713],[13.7118,37.5618],[13.7147,37.5605],[13.7241,37.5614],[13.7206,37.5606],[13.7204,37.5538],[13.7194,37.552],[13.7107,37.5449],[13.6984,37.5401],[13.6918,37.5388],[13.6891,37.5522],[13.6853,37.56],[13.677,37.5676],[13.6699,37.571],[13.6684,37.5742],[13.6692,37.5761],[13.6721,37.5805],[13.6806,37.5868],[13.6819,37.587],[13.6897,37.5865],[13.6955,37.5844],[13.7081,37.583],[13.72,37.5844]]]}},{"type":"Feature","properties":{"i":"085002","n":"Bompensiere"},"geometry":{"type":"Polygon","coordinates":[[[13.8105,37.4749],[13.8124,37.4703],[13.8108,37.465],[13.8079,37.4643],[13.8052,37.4609],[13.8038,37.4466],[13.8059,37.4444],[13.8066,37.4396],[13.8054,37.4356],[13.8042,37.4344],[13.8023,37.4336],[13.7993,37.4338],[13.7899,37.437],[13.7741,37.4406],[13.7594,37.4368],[13.7608,37.4444],[13.7637,37.4517],[13.7699,37.4559],[13.7679,37.4632],[13.7701,37.4704],[13.7719,37.4727],[13.7726,37.4766],[13.772,37.4778],[13.7691,37.4794],[13.7678,37.479],[13.765,37.4815],[13.7648,37.4931],[13.7662,37.4944],[13.7721,37.4976],[13.7734,37.4994],[13.7749,37.499],[13.7788,37.4968],[13.7807,37.4943],[13.7819,37.4907],[13.7928,37.4814],[13.8027,37.4767],[13.8094,37.4759],[13.8105,37.4749]]]}},{"type":"Feature","properties":{"i":"085003","n":"Butera"},"geometry":{"type":"Polygon","coordinates":[[[14.2992,37.1638],[14.2991,37.1622],[14.2973,37.1605],[14.2941,37.1605],[14.2867,37.1636],[14.2791,37.165],[14.2589,37.1669],[14.2493,37.1616],[14.2427,37.1538],[14.2368,37.1492],[14.214,37.1483],[14.2032,37.1464],[14.1862,37.15],[14.178,37.1531],[14.1584,37.1514],[14.1543,37.1495],[14.151,37.1468],[14.1488,37.1385],[14.1461,37.132],[14.1384,37.1287],[14.1336,37.1255],[14.1299,37.1225],[14.126,37.1179],[14.117,37.1124],[14.1153,37.106],[14.1158,37.1027],[14.0789,37.1099],[14.0668,37.1109],[14.0391,37.1077],[14.0363,37.1061],[14.0375,37.1197],[14.0367,37.1277],[14.0346,37.143],[14.03,37.1546],[14.024,37.159],[14.0209,37.1594],[14.0174,37.1578],[14.0112,37.16],[14.0073,37.1687],[14.0003,37.1777],[13.9823,37.1931],[13.9856,37.1925],[13.9915,37.1951],[13.9937,37.1952],[13.9941,37.1939],[13.9959,37.1926],[13.999,37.1919],[14.003,37.1925],[14.0043,37.1936],[14.0027,37.1975],[13.9978,37.2],[13.9946,37.2038],[13.9936,37.2069],[13.9925,37.2205],[13.9997,37.2238],[14.0075,37.2261],[14.0126,37.226],[14.0156,37.2275],[14.0213,37.2267],[14.0291,37.2245],[14.031,37.2229],[14.0341,37.2226],[14.0416,37.2243],[14.0441,37.2262],[14.0616,37.2301],[14.0747,37.2389],[14.0753,37.242],[14.0736,37.2451],[14.0706,37.2477],[14.0661,37.2499],[14.075,37.2521],[14.0852,37.253],[14.0934,37.2582],[14.1019,37.2611],[14.1147,37.2634],[14.1202,37.2634],[14.1231,37.2692],[14.1232,37.273],[14.1246,37.277],[14.1259,37.2794],[14.1287,37.2821],[14.1431,37.2891],[14.1494,37.2904],[14.1544,37.2905],[14.157,37.2859],[14.1628,37.2802],[14.1594,37.2773],[14.1541,37.2747],[14.1483,37.2694],[14.156,37.265],[14.1609,37.2688],[14.1646,37.269],[14.1727,37.2631],[14.1775,37.2576],[14.1792,37.2543],[14.1833,37.2511],[14.1896,37.2492],[14.2013,37.2491],[14.2027,37.2552],[14.2099,37.2529],[14.2213,37.2564],[14.2257,37.2566],[14.231,37.2531],[14.2327,37.2507],[14.2377,37.2362],[14.2414,37.2195],[14.2495,37.2054],[14.2509,37.1956],[14.252,37.1945],[14.2582,37.1933],[14.271,37.1938],[14.2801,37.1891],[14.2847,37.1842],[14.2855,37.1747],[14.2867,37.1719],[14.2961,37.1682],[14.295,37.1649],[14.2992,37.1638]]]}},{"type":"Feature","properties":{"i":"085004","n":"Caltanissetta"},"geometry":{"type":"Polygon","coordinates":[[[14.1,37.5534],[14.0949,37.5561],[14.0897,37.5574],[14.0874,37.5561],[14.0867,37.5544],[14.0894,37.5457],[14.0986,37.5376],[14.0997,37.5371],[14.1064,37.5397],[14.1084,37.5397],[14.117,37.5382],[14.127,37.5344],[14.1275,37.5331],[14.1251,37.5304],[14.1249,37.5278],[14.1273,37.5214],[14.1326,37.5161],[14.1374,37.5153],[14.1435,37.507],[14.1436,37.5061],[14.1402,37.5033],[14.1422,37.4984],[14.1542,37.4838],[14.1594,37.481],[14.1579,37.4798],[14.1507,37.4777],[14.1491,37.4784],[14.1418,37.4771],[14.1319,37.4714],[14.1204,37.4606],[14.0786,37.4283],[14.0708,37.4213],[14.0697,37.4104],[14.0718,37.4074],[14.0718,37.4058],[14.0664,37.4034],[14.064,37.4038],[14.0621,37.4048],[14.0613,37.4067],[14.0614,37.4085],[14.06,37.4097],[14.056,37.4069],[14.057,37.4032],[14.0738,37.3871],[14.0774,37.38],[14.072,37.3745],[14.0818,37.3692],[14.0825,37.3672],[14.0819,37.3657],[14.077,37.367],[14.0571,37.3638],[14.0446,37.3503],[14.0417,37.3366],[14.0396,37.3343],[14.0288,37.3381],[14.0118,37.3425],[14.0095,37.3436],[14.0084,37.3462],[14.0008,37.3499],[13.9856,37.3496],[13.9746,37.3505],[13.9644,37.3496],[13.9626,37.3455],[13.9604,37.3329],[13.9615,37.3303],[13.947,37.33],[13.9435,37.3311],[13.9392,37.3406],[13.9354,37.3453],[13.937,37.3649],[13.9268,37.3706],[13.9194,37.3723],[13.8936,37.3664],[13.8927,37.3659],[13.892,37.3629],[13.8972,37.3597],[13.8982,37.3577],[13.8954,37.3516],[13.8853,37.3565],[13.8822,37.359],[13.8817,37.3598],[13.883,37.3619],[13.8878,37.3676],[13.8866,37.375],[13.8903,37.3785],[13.8973,37.3789],[13.901,37.3803],[13.9055,37.3831],[13.9094,37.3871],[13.9047,37.3959],[13.896,37.403],[13.8883,37.4044],[13.8752,37.4044],[13.8669,37.4031],[13.8622,37.4033],[13.862,37.4059],[13.8646,37.415],[13.8749,37.427],[13.888,37.437],[13.9136,37.4516],[13.9136,37.453],[13.9051,37.4567],[13.9003,37.4603],[13.8987,37.4623],[13.9005,37.4646],[13.9024,37.466],[13.9094,37.4684],[13.9117,37.4677],[13.9293,37.4663],[13.9346,37.4666],[13.9454,37.4686],[13.9515,37.472],[13.9553,37.4762],[13.9581,37.477],[13.965,37.4757],[13.9861,37.4751],[13.9924,37.4722],[13.9939,37.4706],[13.9946,37.4676],[13.997,37.4691],[14.004,37.4821],[14.0101,37.4914],[14.0028,37.4994],[13.9962,37.503],[13.9883,37.4982],[13.9771,37.4972],[13.9761,37.5079],[13.9778,37.5179],[13.9772,37.5218],[13.9542,37.5296],[13.9411,37.5305],[13.9375,37.5283],[13.9368,37.5242],[13.9236,37.516],[13.9187,37.5177],[13.916,37.5196],[13.9162,37.5324],[13.9087,37.5408],[13.9077,37.5437],[13.9085,37.5468],[13.9119,37.5511],[13.9124,37.5536],[13.9114,37.5578],[13.9086,37.5602],[13.901,37.5606],[13.8951,37.5639],[13.8909,37.5647],[13.8941,37.5661],[13.8998,37.567],[13.905,37.5704],[13.9064,37.574],[13.905,37.578],[13.9018,37.5794],[13.8965,37.58],[13.8934,37.5839],[13.8934,37.5862],[13.8961,37.5871],[13.9053,37.5881],[13.917,37.5925],[13.9233,37.5965],[13.9395,37.5932],[13.9498,37.5896],[13.9557,37.5861],[13.961,37.5857],[13.9789,37.5897],[13.9919,37.5956],[14.01,37.5987],[14.0131,37.5965],[14.012,37.5936],[14.0123,37.5817],[14.013,37.5808],[14.0165,37.579],[14.0294,37.5756],[14.0379,37.5748],[14.0393,37.5749],[14.0548,37.5843],[14.0621,37.5857],[14.0695,37.5842],[14.0791,37.5883],[14.0881,37.59],[14.0909,37.5886],[14.1004,37.5792],[14.1061,37.5695],[14.1014,37.5587],[14.1,37.5534]],[[13.941,37.4615],[13.9436,37.4611],[13.946,37.4594],[13.9477,37.4567],[13.9504,37.4439],[13.9393,37.4317],[13.939,37.4277],[13.9428,37.4237],[13.9492,37.4232],[13.9523,37.4238],[13.9624,37.4291],[13.9732,37.4429],[13.9759,37.4561],[13.9752,37.4589],[13.9738,37.4613],[13.9663,37.4598],[13.9583,37.461],[13.9539,37.4634],[13.951,37.4638],[13.9454,37.4631],[13.941,37.4615]]]}},{"type":"Feature","properties":{"i":"085005","n":"Campofranco"},"geometry":{"type":"Polygon","coordinates":[[[13.7222,37.4878],[13.7195,37.4857],[13.7103,37.4826],[13.7083,37.4804],[13.707,37.4706],[13.7082,37.4639],[13.7144,37.4644],[13.7172,37.4585],[13.716,37.4517],[13.7125,37.4431],[13.7157,37.4401],[13.7114,37.4409],[13.7088,37.4401],[13.705,37.4405],[13.7017,37.4428],[13.6869,37.4584],[13.6673,37.4605],[13.6516,37.46],[13.6506,37.4612],[13.6537,37.464],[13.6557,37.4673],[13.657,37.4715],[13.6564,37.4763],[13.6602,37.4749],[13.6644,37.4763],[13.6638,37.4776],[13.6643,37.4801],[13.6758,37.4907],[13.6789,37.4924],[13.6859,37.4923],[13.6904,37.5008],[13.6901,37.5117],[13.6928,37.5173],[13.6934,37.5231],[13.6906,37.5311],[13.6982,37.5326],[13.712,37.5318],[13.7189,37.5268],[13.7214,37.5217],[13.7264,37.5172],[13.7306,37.5158],[13.7383,37.5116],[13.7494,37.5022],[13.7483,37.4973],[13.7395,37.493],[13.7354,37.4921],[13.7336,37.4935],[13.7322,37.4967],[13.7281,37.4971],[13.7252,37.4943],[13.7222,37.4878]]]}},{"type":"Feature","properties":{"i":"085006","n":"Delia"},"geometry":{"type":"Polygon","coordinates":[[[13.9435,37.3311],[13.9271,37.3313],[13.9212,37.3377],[13.8954,37.3516],[13.8982,37.3577],[13.8972,37.3597],[13.8924,37.3623],[13.8927,37.3659],[13.9194,37.3723],[13.9268,37.3706],[13.937,37.3649],[13.9354,37.3453],[13.9392,37.3406],[13.9435,37.3311]]]}},{"type":"Feature","properties":{"i":"085007","n":"Gela"},"geometry":{"type":"Polygon","coordinates":[[[14.3486,37.1712],[14.3527,37.1613],[14.356,37.1574],[14.3578,37.1564],[14.3599,37.1456],[14.3626,37.119],[14.3655,37.1152],[14.3729,37.1129],[14.374,37.1113],[14.3731,37.1082],[14.3681,37.1029],[14.3685,37.0943],[14.3791,37.0864],[14.3859,37.0848],[14.3981,37.0839],[14.414,37.0862],[14.4196,37.0884],[14.4283,37.0939],[14.433,37.081],[14.4374,37.0732],[14.4423,37.0677],[14.4436,37.0648],[14.4428,37.0606],[14.441,37.0568],[14.4422,37.0543],[14.4441,37.0529],[14.442,37.0509],[14.4131,37.0296],[14.3945,37.0268],[14.39,37.0247],[14.3761,37.0142],[14.3654,37.005],[14.3398,37.0028],[14.3379,37.0016],[14.3152,37.022],[14.2968,37.0368],[14.2706,37.0504],[14.2631,37.0456],[14.2684,37.0519],[14.2586,37.0583],[14.2463,37.0635],[14.234,37.0666],[14.2274,37.0658],[14.2205,37.0705],[14.209,37.0766],[14.1706,37.0911],[14.1458,37.0977],[14.127,37.0999],[14.1158,37.1027],[14.1153,37.106],[14.117,37.1124],[14.126,37.1179],[14.1299,37.1225],[14.1336,37.1255],[14.1384,37.1287],[14.1461,37.132],[14.1488,37.1385],[14.151,37.1468],[14.1543,37.1495],[14.1584,37.1514],[14.178,37.1531],[14.1862,37.15],[14.2032,37.1464],[14.214,37.1483],[14.2368,37.1492],[14.2427,37.1538],[14.2493,37.1616],[14.2589,37.1669],[14.2791,37.165],[14.2867,37.1636],[14.2941,37.1605],[14.2973,37.1605],[14.2991,37.1622],[14.2992,37.1638],[14.3074,37.1668],[14.3418,37.1718],[14.3456,37.172],[14.3486,37.1712]]]}},{"type":"Feature","properties":{"i":"085008","n":"Marianopoli"},"geometry":{"type":"Polygon","coordinates":[[[13.9233,37.5965],[13.917,37.5925],[13.9053,37.5881],[13.8961,37.5871],[13.8934,37.5862],[13.8718,37.5853],[13.8686,37.5858],[13.8639,37.588],[13.87,37.5939],[13.8737,37.6006],[13.8738,37.6025],[13.876,37.6045],[13.8821,37.6136],[13.8947,37.6194],[13.8993,37.6181],[13.904,37.6153],[13.9152,37.6104],[13.9246,37.609],[13.9304,37.6069],[13.9258,37.602],[13.9233,37.5965]]]}},{"type":"Feature","properties":{"i":"085009","n":"Mazzarino"},"geometry":{"type":"MultiPolygon","coordinates":[[[[14.0661,37.2499],[14.0706,37.2477],[14.0736,37.2451],[14.0753,37.242],[14.0747,37.2389],[14.0616,37.2301],[14.0441,37.2262],[14.0421,37.2245],[14.0381,37.2231],[14.0316,37.2227],[14.0291,37.2245],[14.0156,37.2275],[14.0158,37.2297],[14.0082,37.2338],[14.0067,37.2414],[14.0138,37.2499],[14.0176,37.2559],[14.0178,37.2581],[14.0146,37.2614],[14.0123,37.2599],[14.0095,37.2611],[14.0096,37.2625],[14.0281,37.2749],[14.0283,37.2765],[14.036,37.2759],[14.043,37.2678],[14.0523,37.2617],[14.0586,37.2616],[14.0605,37.2584],[14.0608,37.2519],[14.0634,37.2502],[14.0661,37.2499]]],[[[14.3527,37.3061],[14.3528,37.2781],[14.3597,37.2779],[14.3735,37.2804],[14.3801,37.2835],[14.3817,37.2861],[14.3837,37.2835],[14.3928,37.2619],[14.3868,37.2594],[14.3834,37.2569],[14.3823,37.2501],[14.382,37.2435],[14.3827,37.2397],[14.3754,37.2063],[14.3712,37.2023],[14.3636,37.2004],[14.3562,37.2011],[14.3536,37.1999],[14.3542,37.1933],[14.3535,37.19],[14.349,37.1843],[14.3428,37.1795],[14.3486,37.1712],[14.3456,37.172],[14.3418,37.1718],[14.3074,37.1668],[14.2992,37.1638],[14.295,37.1649],[14.2961,37.1682],[14.2867,37.1719],[14.2855,37.1747],[14.2847,37.1842],[14.2801,37.1891],[14.271,37.1938],[14.2582,37.1933],[14.252,37.1945],[14.2509,37.1956],[14.2495,37.2054],[14.2414,37.2195],[14.2377,37.2362],[14.2327,37.2507],[14.231,37.2531],[14.2257,37.2566],[14.2213,37.2564],[14.2099,37.2529],[14.2027,37.2552],[14.2013,37.2491],[14.1896,37.2492],[14.1833,37.2511],[14.1792,37.2543],[14.1775,37.2576],[14.1727,37.2631],[14.1646,37.269],[14.1609,37.2688],[14.156,37.265],[14.1483,37.2694],[14.1541,37.2747],[14.1594,37.2773],[14.1628,37.2802],[14.157,37.2859],[14.1547,37.2897],[14.1518,37.3032],[14.1492,37.3081],[14.1426,37.3105],[14.139,37.314],[14.1323,37.328],[14.132,37.3335],[14.133,37.3351],[14.1421,37.3355],[14.1456,37.3335],[14.1502,37.3289],[14.1557,37.3265],[14.1672,37.324],[14.186,37.3308],[14.2048,37.3345],[14.2075,37.3339],[14.2159,37.3362],[14.2191,37.3378],[14.2299,37.3473],[14.2414,37.347],[14.2641,37.343],[14.2651,37.3422],[14.2673,37.3369],[14.2672,37.3336],[14.2751,37.3304],[14.2784,37.3321],[14.2832,37.3317],[14.2878,37.3293],[14.2997,37.3277],[14.3127,37.3272],[14.3163,37.3257],[14.3151,37.3104],[14.3158,37.303],[14.3228,37.3023],[14.3397,37.3031],[14.342,37.304],[14.345,37.307],[14.3527,37.3061]]],[[[14.0819,37.3657],[14.0833,37.3554],[14.083,37.3513],[14.088,37.3492],[14.0889,37.35],[14.0902,37.3495],[14.0892,37.3437],[14.0851,37.3407],[14.0886,37.3374],[14.0908,37.3366],[14.0926,37.3242],[14.0925,37.3143],[14.0918,37.3125],[14.0786,37.3103],[14.074,37.3114],[14.0608,37.3202],[14.0591,37.325],[14.046,37.3291],[14.0396,37.3343],[14.0417,37.3366],[14.0446,37.3503],[14.0571,37.3638],[14.077,37.367],[14.0819,37.3657]]]]}},{"type":"Feature","properties":{"i":"085010","n":"Milena"},"geometry":{"type":"Polygon","coordinates":[[[13.7691,37.4794],[13.772,37.4778],[13.7726,37.4766],[13.7719,37.4727],[13.7701,37.4704],[13.7679,37.4632],[13.7699,37.4559],[13.7637,37.4517],[13.7608,37.4444],[13.759,37.4331],[13.7572,37.4314],[13.7516,37.4283],[13.7481,37.4284],[13.7386,37.4312],[13.734,37.4353],[13.7298,37.4375],[13.7157,37.4401],[13.7127,37.4423],[13.7126,37.4439],[13.716,37.4517],[13.7172,37.4585],[13.7144,37.4644],[13.7089,37.4638],[13.7079,37.4648],[13.707,37.4706],[13.7083,37.4804],[13.7103,37.4826],[13.7195,37.4857],[13.7222,37.4878],[13.7279,37.4815],[13.7382,37.4777],[13.7559,37.4793],[13.7559,37.4783],[13.7569,37.4782],[13.7682,37.4781],[13.7691,37.4794]]]}},{"type":"Feature","properties":{"i":"085011","n":"Montedoro"},"geometry":{"type":"Polygon","coordinates":[[[13.8345,37.4362],[13.8266,37.4324],[13.8123,37.4314],[13.8054,37.4356],[13.8066,37.4396],[13.8059,37.4444],[13.8038,37.4466],[13.8052,37.4609],[13.8079,37.4643],[13.8108,37.465],[13.8124,37.4703],[13.8105,37.4749],[13.8215,37.4783],[13.8319,37.4755],[13.8391,37.4687],[13.8406,37.4637],[13.8391,37.4638],[13.8358,37.4618],[13.8359,37.4582],[13.8441,37.4548],[13.8493,37.4542],[13.8526,37.4507],[13.8469,37.4469],[13.8345,37.4362]]]}},{"type":"Feature","properties":{"i":"085012","n":"Mussomeli"},"geometry":{"type":"Polygon","coordinates":[[[13.8738,37.6025],[13.8737,37.6006],[13.87,37.5939],[13.8639,37.588],[13.8686,37.5858],[13.8718,37.5853],[13.8934,37.5862],[13.8934,37.5839],[13.8965,37.58],[13.9018,37.5794],[13.905,37.578],[13.9064,37.574],[13.905,37.5704],[13.8998,37.567],[13.8941,37.5661],[13.8909,37.5647],[13.8951,37.5639],[13.8925,37.5589],[13.8951,37.554],[13.8967,37.5485],[13.896,37.5466],[13.8936,37.5446],[13.8867,37.5315],[13.882,37.5258],[13.8792,37.5127],[13.8797,37.5105],[13.8781,37.5073],[13.8706,37.5056],[13.8669,37.5022],[13.8657,37.4999],[13.8659,37.4973],[13.8671,37.4961],[13.8611,37.4969],[13.8473,37.4955],[13.838,37.4879],[13.8202,37.4795],[13.8215,37.4783],[13.8105,37.4749],[13.8094,37.4759],[13.8027,37.4767],[13.7928,37.4814],[13.7819,37.4907],[13.7807,37.4943],[13.7788,37.4968],[13.7734,37.4994],[13.7725,37.5058],[13.7828,37.5232],[13.7844,37.5239],[13.7861,37.5265],[13.7868,37.5363],[13.7852,37.5418],[13.7779,37.5435],[13.7642,37.5445],[13.7634,37.5398],[13.7592,37.5362],[13.7548,37.5338],[13.7479,37.5327],[13.7441,37.5396],[13.7449,37.5533],[13.7403,37.5569],[13.7241,37.5614],[13.7147,37.5605],[13.7118,37.5618],[13.7092,37.57],[13.7097,37.5722],[13.7201,37.5758],[13.7205,37.5856],[13.7433,37.5922],[13.7486,37.5924],[13.753,37.5914],[13.7647,37.5969],[13.7654,37.5993],[13.7623,37.6068],[13.7668,37.6098],[13.771,37.607],[13.7755,37.6064],[13.7769,37.6069],[13.7798,37.6095],[13.7805,37.6155],[13.7886,37.6235],[13.8095,37.6178],[13.8248,37.615],[13.8309,37.6186],[13.8315,37.6243],[13.8294,37.6292],[13.8414,37.6275],[13.8515,37.6231],[13.8601,37.6156],[13.8696,37.6054],[13.8738,37.6025]]]}},{"type":"Feature","properties":{"i":"085013","n":"Niscemi"},"geometry":{"type":"Polygon","coordinates":[[[14.4283,37.0939],[14.4196,37.0884],[14.414,37.0862],[14.3981,37.0839],[14.3859,37.0848],[14.3791,37.0864],[14.3685,37.0943],[14.3681,37.1029],[14.3731,37.1082],[14.374,37.1113],[14.3729,37.1129],[14.3655,37.1152],[14.3626,37.119],[14.3599,37.1456],[14.3578,37.1564],[14.356,37.1574],[14.3527,37.1613],[14.3486,37.1712],[14.3428,37.1795],[14.349,37.1843],[14.3535,37.19],[14.3542,37.1933],[14.3533,37.1978],[14.3542,37.2005],[14.3562,37.2011],[14.3636,37.2004],[14.3712,37.2023],[14.3737,37.2047],[14.3761,37.205],[14.3797,37.2037],[14.3836,37.2013],[14.3826,37.1977],[14.3813,37.197],[14.3804,37.195],[14.3815,37.1922],[14.3865,37.1889],[14.389,37.1893],[14.3926,37.1873],[14.3964,37.1836],[14.3984,37.1791],[14.4038,37.1781],[14.4125,37.1773],[14.4172,37.1784],[14.419,37.1792],[14.4231,37.1835],[14.4319,37.1898],[14.4324,37.185],[14.4383,37.179],[14.4469,37.1737],[14.4514,37.1691],[14.4587,37.1555],[14.4683,37.1427],[14.474,37.1374],[14.4756,37.1317],[14.4685,37.1202],[14.4566,37.1085],[14.4528,37.098],[14.4487,37.0975],[14.433,37.0985],[14.4283,37.0939]]]}},{"type":"Feature","properties":{"i":"085014","n":"Resuttano"},"geometry":{"type":"MultiPolygon","coordinates":[[[[14.0781,37.6442],[14.0868,37.6349],[14.0806,37.6309],[14.0713,37.6301],[14.0624,37.633],[14.0537,37.6321],[14.0487,37.6297],[14.0449,37.6235],[14.0367,37.6342],[14.036,37.6368],[14.0383,37.6401],[14.0434,37.6446],[14.0543,37.6477],[14.0649,37.6473],[14.071,37.6452],[14.0781,37.6442]]],[[[14.066,37.7212],[14.0671,37.7135],[14.0686,37.7123],[14.0798,37.7129],[14.0892,37.7076],[14.0912,37.7043],[14.0913,37.6986],[14.0907,37.6976],[14.0843,37.695],[14.0796,37.6945],[14.0776,37.6904],[14.0778,37.6879],[14.0849,37.6841],[14.0878,37.681],[14.0878,37.6798],[14.0861,37.6776],[14.081,37.6759],[14.0748,37.6768],[14.0605,37.6743],[14.0491,37.6679],[14.0335,37.6555],[14.0214,37.6562],[14.018,37.6574],[14.0076,37.6704],[14.0069,37.6731],[14.0077,37.6847],[14.009,37.6876],[14.0121,37.6898],[14.0277,37.6907],[14.0415,37.6894],[14.043,37.6927],[14.0415,37.6978],[14.0366,37.7012],[14.0293,37.7044],[14.0359,37.7204],[14.0435,37.7259],[14.0455,37.7241],[14.05,37.7225],[14.066,37.7212]]]]}},{"type":"Feature","properties":{"i":"085015","n":"Riesi"},"geometry":{"type":"Polygon","coordinates":[[[14.133,37.3351],[14.132,37.3335],[14.1323,37.328],[14.137,37.318],[14.139,37.314],[14.1415,37.3113],[14.1492,37.3081],[14.1518,37.3032],[14.1544,37.2905],[14.1494,37.2904],[14.1431,37.2891],[14.1287,37.2821],[14.1259,37.2794],[14.1246,37.277],[14.1232,37.273],[14.1231,37.2692],[14.1202,37.2634],[14.1147,37.2634],[14.1019,37.2611],[14.0934,37.2582],[14.0852,37.253],[14.075,37.2521],[14.0661,37.2499],[14.0634,37.2502],[14.0605,37.2524],[14.0605,37.2584],[14.0586,37.2616],[14.0523,37.2617],[14.043,37.2678],[14.036,37.2759],[14.0283,37.2765],[14.0312,37.2833],[14.0315,37.2922],[14.0245,37.293],[14.0223,37.2876],[14.0202,37.288],[14.0192,37.2895],[14.0192,37.2936],[14.0204,37.2958],[14.0348,37.3012],[14.048,37.3101],[14.0512,37.3242],[14.0531,37.326],[14.0591,37.325],[14.0608,37.3202],[14.074,37.3114],[14.0786,37.3103],[14.0923,37.3129],[14.0926,37.3242],[14.0908,37.3366],[14.0954,37.338],[14.1107,37.3339],[14.115,37.3341],[14.1269,37.3388],[14.1283,37.3412],[14.1279,37.3453],[14.1288,37.3454],[14.1315,37.3433],[14.1338,37.3368],[14.133,37.3351]]]}},{"type":"Feature","properties":{"i":"085016","n":"San Cataldo"},"geometry":{"type":"Polygon","coordinates":[[[13.8987,37.4623],[13.8964,37.4638],[13.8889,37.465],[13.8855,37.4638],[13.8806,37.4636],[13.8752,37.4644],[13.8667,37.4686],[13.8637,37.4722],[13.8646,37.4758],[13.8715,37.4796],[13.8728,37.4818],[13.8703,37.4881],[13.8669,37.4922],[13.8671,37.4961],[13.8659,37.4973],[13.8657,37.4999],[13.8669,37.5022],[13.8706,37.5056],[13.8781,37.5073],[13.8797,37.5105],[13.8792,37.5127],[13.882,37.5258],[13.8867,37.5315],[13.8936,37.5446],[13.896,37.5466],[13.8967,37.5485],[13.8951,37.554],[13.8925,37.5589],[13.8951,37.5639],[13.901,37.5606],[13.9086,37.5602],[13.9114,37.5578],[13.9124,37.5536],[13.9119,37.5511],[13.9085,37.5468],[13.9077,37.5437],[13.9087,37.5408],[13.9162,37.5324],[13.916,37.5196],[13.9187,37.5177],[13.9236,37.516],[13.9368,37.5242],[13.9375,37.5283],[13.9411,37.5305],[13.9542,37.5296],[13.9772,37.5218],[13.9778,37.5179],[13.9761,37.5079],[13.9771,37.4972],[13.9883,37.4982],[13.9962,37.503],[14.0028,37.4994],[14.01,37.4918],[13.997,37.4691],[13.9946,37.4676],[13.9939,37.4706],[13.9924,37.4722],[13.9861,37.4751],[13.965,37.4757],[13.957,37.4769],[13.9534,37.4748],[13.9515,37.472],[13.9454,37.4686],[13.9346,37.4666],[13.9293,37.4663],[13.9117,37.4677],[13.9094,37.4684],[13.9024,37.466],[13.8987,37.4623]]]}},{"type":"Feature","properties":{"i":"085017","n":"Santa Caterina Villarmosa"},"geometry":{"type":"Polygon","coordinates":[[[14.135,37.6167],[14.1479,37.613],[14.164,37.6121],[14.1594,37.6051],[14.1604,37.6019],[14.1607,37.5909],[14.1593,37.5857],[14.1562,37.5837],[14.1416,37.5822],[14.1385,37.5808],[14.1355,37.5683],[14.1404,37.5573],[14.1399,37.5528],[14.1386,37.5479],[14.1359,37.5451],[14.1334,37.5397],[14.1326,37.5329],[14.1251,37.5304],[14.1275,37.5331],[14.1262,37.5348],[14.117,37.5382],[14.1064,37.5397],[14.1043,37.5482],[14.1,37.5534],[14.1014,37.5587],[14.1061,37.5695],[14.1004,37.5792],[14.0892,37.5897],[14.0791,37.5883],[14.0695,37.5842],[14.0621,37.5857],[14.0548,37.5843],[14.0393,37.5749],[14.0294,37.5756],[14.0165,37.579],[14.0123,37.5817],[14.012,37.5936],[14.0131,37.5965],[14.0276,37.6023],[14.0275,37.6048],[14.0204,37.6176],[14.0202,37.6201],[14.0215,37.6236],[14.0254,37.6316],[14.036,37.6368],[14.0367,37.6342],[14.0449,37.6235],[14.0487,37.6297],[14.0537,37.6321],[14.0624,37.633],[14.0713,37.6301],[14.0806,37.6309],[14.0868,37.6349],[14.09,37.6353],[14.0929,37.6346],[14.1014,37.627],[14.1043,37.6261],[14.1094,37.6266],[14.1147,37.631],[14.1203,37.6291],[14.1224,37.6272],[14.1225,37.6207],[14.1241,37.6117],[14.1319,37.6116],[14.135,37.6167]]]}},{"type":"Feature","properties":{"i":"085018","n":"Serradifalco"},"geometry":{"type":"MultiPolygon","coordinates":[[[[13.941,37.4615],[13.9454,37.4631],[13.951,37.4638],[13.9539,37.4634],[13.9583,37.461],[13.9663,37.4598],[13.9738,37.4613],[13.9752,37.4589],[13.9759,37.4561],[13.9732,37.4429],[13.9624,37.4291],[13.9523,37.4238],[13.9492,37.4232],[13.9428,37.4237],[13.939,37.4277],[13.9393,37.4317],[13.9504,37.4439],[13.9477,37.4567],[13.946,37.4594],[13.9436,37.4611],[13.941,37.4615]]],[[[13.8671,37.4961],[13.8669,37.4922],[13.8703,37.4881],[13.8728,37.4818],[13.8715,37.4796],[13.8666,37.4775],[13.8645,37.4756],[13.8637,37.4722],[13.8667,37.4686],[13.8752,37.4644],[13.8781,37.4639],[13.8855,37.4638],[13.8889,37.465],[13.8964,37.4638],[13.9051,37.4567],[13.9139,37.4525],[13.9118,37.4503],[13.888,37.437],[13.8749,37.427],[13.8646,37.415],[13.8626,37.4092],[13.8622,37.4033],[13.8506,37.4192],[13.8459,37.4288],[13.8481,37.4308],[13.8498,37.4355],[13.849,37.4371],[13.8413,37.4384],[13.8375,37.4339],[13.8358,37.4343],[13.8345,37.4362],[13.8469,37.4469],[13.8526,37.4507],[13.8493,37.4542],[13.8441,37.4548],[13.8359,37.4582],[13.8358,37.4618],[13.8391,37.4638],[13.8406,37.4637],[13.8391,37.4687],[13.8319,37.4755],[13.8215,37.4783],[13.8202,37.4795],[13.838,37.4879],[13.8473,37.4955],[13.8611,37.4969],[13.8671,37.4961]]]]}},{"type":"Feature","properties":{"i":"085019","n":"Sommatino"},"geometry":{"type":"Polygon","coordinates":[[[14.0396,37.3343],[14.046,37.3291],[14.0543,37.3262],[14.0524,37.3256],[14.0512,37.3242],[14.048,37.3101],[14.0348,37.3012],[14.0204,37.2958],[14.0192,37.2936],[14.0192,37.2895],[14.0211,37.2875],[14.0228,37.2878],[14.0222,37.2865],[14.0181,37.2856],[14.0156,37.2862],[14.0062,37.2924],[13.9967,37.2931],[13.9958,37.2938],[13.9936,37.2961],[13.9918,37.2998],[13.9916,37.3005],[13.9934,37.3028],[13.9919,37.3078],[13.983,37.3137],[13.9779,37.3142],[13.9719,37.3198],[13.9643,37.3289],[13.9615,37.3303],[13.9604,37.3329],[13.9626,37.3455],[13.9644,37.3496],[13.9746,37.3505],[13.9856,37.3496],[14.0008,37.3499],[14.0084,37.3462],[14.0095,37.3436],[14.0118,37.3425],[14.0288,37.3381],[14.0396,37.3343]]]}},{"type":"Feature","properties":{"i":"085020","n":"Sutera"},"geometry":{"type":"Polygon","coordinates":[[[13.7734,37.4994],[13.7721,37.4976],[13.7648,37.4931],[13.765,37.4815],[13.7678,37.479],[13.7691,37.4794],[13.7688,37.4782],[13.7569,37.4782],[13.7559,37.4783],[13.7559,37.4793],[13.7396,37.4775],[13.736,37.4781],[13.7279,37.4815],[13.7222,37.4878],[13.7252,37.4943],[13.7281,37.4971],[13.7322,37.4967],[13.7344,37.4925],[13.7395,37.493],[13.7483,37.4973],[13.7494,37.5022],[13.7383,37.5116],[13.7306,37.5158],[13.7264,37.5172],[13.7214,37.5217],[13.7189,37.5268],[13.712,37.5318],[13.6982,37.5326],[13.6906,37.5311],[13.6874,37.5346],[13.6931,37.5353],[13.6939,37.5367],[13.6918,37.5388],[13.6984,37.5401],[13.7107,37.5449],[13.7194,37.552],[13.7204,37.5538],[13.7206,37.5606],[13.7241,37.5614],[13.7403,37.5569],[13.7449,37.5533],[13.7441,37.5396],[13.7479,37.5327],[13.7548,37.5338],[13.7592,37.5362],[13.7634,37.5398],[13.7642,37.5445],[13.7779,37.5435],[13.7852,37.5418],[13.7868,37.5363],[13.7861,37.5265],[13.7844,37.5239],[13.7828,37.5232],[13.7725,37.5058],[13.7734,37.4994]]]}},{"type":"Feature","properties":{"i":"085021","n":"Vallelunga Pratameno"},"geometry":{"type":"Polygon","coordinates":[[[13.8181,37.7204],[13.8174,37.7185],[13.8192,37.7149],[13.816,37.7082],[13.82,37.7033],[13.8289,37.6979],[13.8351,37.6952],[13.8581,37.6897],[13.8684,37.6862],[13.8732,37.6829],[13.8771,37.6818],[13.8793,37.68],[13.8822,37.6738],[13.8819,37.6717],[13.8778,37.6737],[13.8439,37.6737],[13.8235,37.6751],[13.8212,37.6764],[13.8166,37.677],[13.8094,37.676],[13.8049,37.6801],[13.8049,37.6837],[13.804,37.685],[13.7996,37.6883],[13.7893,37.6882],[13.7879,37.6854],[13.7847,37.6838],[13.7707,37.6829],[13.7611,37.6792],[13.7501,37.6798],[13.7325,37.6829],[13.7422,37.6927],[13.7446,37.6989],[13.7437,37.7021],[13.7437,37.7066],[13.7663,37.6995],[13.7726,37.7002],[13.7766,37.7017],[13.7772,37.7067],[13.7745,37.7131],[13.7763,37.7211],[13.7802,37.7247],[13.7903,37.7309],[13.8019,37.7426],[13.8047,37.7441],[13.8081,37.7451],[13.808,37.7433],[13.81,37.7398],[13.816,37.733],[13.8185,37.7269],[13.8181,37.7204]]]}},{"type":"Feature","properties":{"i":"085022","n":"Villalba"},"geometry":{"type":"Polygon","coordinates":[[[13.8819,37.6717],[13.8868,37.6698],[13.8885,37.6636],[13.8934,37.6592],[13.8952,37.6584],[13.9012,37.6585],[13.9045,37.6575],[13.9018,37.6513],[13.8992,37.6476],[13.9032,37.634],[13.9033,37.6305],[13.9047,37.6285],[13.904,37.6265],[13.9031,37.6265],[13.8984,37.6224],[13.8993,37.6181],[13.8947,37.6194],[13.8821,37.6136],[13.876,37.6045],[13.8738,37.6025],[13.8696,37.6054],[13.8601,37.6156],[13.8515,37.6231],[13.8414,37.6275],[13.8294,37.6292],[13.8182,37.6377],[13.8144,37.6392],[13.8111,37.6416],[13.8161,37.6504],[13.8211,37.655],[13.8248,37.6668],[13.8232,37.6699],[13.8235,37.6751],[13.8439,37.6737],[13.8778,37.6737],[13.8819,37.6717]]]}}]}
