{"type":"FeatureCollection","fonte":"Confini comunali ISTAT via openpolis/geojson-italy — CC BY 4.0","features":[{"type":"Feature","properties":{"i":"013003","n":"Albavilla"},"geometry":{"type":"Polygon","coordinates":[[[9.2151,45.7878],[9.2083,45.7843],[9.2032,45.7851],[9.1929,45.7887],[9.1869,45.7887],[9.1857,45.786],[9.1826,45.7836],[9.1803,45.7833],[9.1774,45.7841],[9.1763,45.7955],[9.1736,45.8024],[9.1746,45.8145],[9.1743,45.8225],[9.1669,45.8229],[9.1646,45.8277],[9.166,45.8346],[9.1696,45.8365],[9.183,45.8378],[9.1846,45.8365],[9.1873,45.8325],[9.187,45.8229],[9.1906,45.8193],[9.2011,45.8147],[9.2021,45.8121],[9.2021,45.8093],[9.1968,45.8024],[9.1956,45.798],[9.1976,45.7935],[9.202,45.7918],[9.2042,45.7936],[9.2076,45.7929],[9.2111,45.7916],[9.2151,45.7878]]]}},{"type":"Feature","properties":{"i":"013004","n":"Albese con Cassano"},"geometry":{"type":"Polygon","coordinates":[[[9.1774,45.7841],[9.1641,45.7846],[9.1533,45.7876],[9.1504,45.7896],[9.1502,45.7915],[9.1551,45.8032],[9.1568,45.8056],[9.161,45.8086],[9.1624,45.8145],[9.1617,45.8163],[9.1571,45.8202],[9.1513,45.8239],[9.1499,45.8271],[9.1504,45.832],[9.1558,45.8377],[9.1696,45.8365],[9.1657,45.8343],[9.1646,45.8277],[9.1669,45.8229],[9.1743,45.8225],[9.1746,45.8145],[9.1736,45.8024],[9.1763,45.7955],[9.1774,45.7841]]]}},{"type":"Feature","properties":{"i":"013005","n":"Albiolo"},"geometry":{"type":"Polygon","coordinates":[[[8.9536,45.809],[8.9531,45.8],[8.941,45.7961],[8.9357,45.799],[8.9285,45.8014],[8.9281,45.8025],[8.9295,45.8066],[8.9337,45.8108],[8.9429,45.8144],[8.9478,45.8153],[8.9536,45.809]]]}},{"type":"Feature","properties":{"i":"013006","n":"Alserio"},"geometry":{"type":"Polygon","coordinates":[[[9.2136,45.7868],[9.2142,45.7786],[9.2094,45.7775],[9.2059,45.7737],[9.2039,45.7729],[9.2014,45.7727],[9.1949,45.7747],[9.196,45.7875],[9.2032,45.7851],[9.2083,45.7843],[9.2136,45.7868]]]}},{"type":"Feature","properties":{"i":"013007","n":"Alzate Brianza"},"geometry":{"type":"Polygon","coordinates":[[[9.1887,45.7715],[9.1896,45.7695],[9.1996,45.7644],[9.2128,45.7619],[9.2123,45.7605],[9.209,45.7592],[9.1988,45.7509],[9.1983,45.75],[9.2021,45.7484],[9.1952,45.7419],[9.192,45.7449],[9.191,45.7498],[9.1883,45.7546],[9.1795,45.7544],[9.1735,45.7491],[9.1711,45.7485],[9.1675,45.7552],[9.1625,45.762],[9.1596,45.7629],[9.1577,45.7659],[9.1581,45.7679],[9.1626,45.7745],[9.1688,45.7771],[9.1704,45.7745],[9.1771,45.7714],[9.1859,45.7701],[9.1887,45.7715]]]}},{"type":"Feature","properties":{"i":"013009","n":"Anzano del Parco"},"geometry":{"type":"Polygon","coordinates":[[[9.2142,45.7786],[9.2165,45.7786],[9.2195,45.7773],[9.2212,45.772],[9.2256,45.7674],[9.2243,45.7653],[9.2123,45.7605],[9.2128,45.7619],[9.1996,45.7644],[9.1896,45.7695],[9.1887,45.7715],[9.1946,45.776],[9.1949,45.7747],[9.1972,45.7736],[9.2039,45.7729],[9.2059,45.7737],[9.2094,45.7775],[9.2142,45.7786]]]}},{"type":"Feature","properties":{"i":"013010","n":"Appiano Gentile"},"geometry":{"type":"Polygon","coordinates":[[[8.9862,45.749],[8.997,45.7387],[8.9967,45.732],[8.9985,45.7261],[8.9965,45.7236],[8.9927,45.7263],[8.9896,45.7275],[8.9834,45.7243],[8.9807,45.7207],[8.9691,45.7187],[8.9596,45.7147],[8.9607,45.7191],[8.957,45.7202],[8.9506,45.7207],[8.9509,45.7255],[8.9477,45.7331],[8.9437,45.7341],[8.9395,45.7372],[8.9393,45.7395],[8.9412,45.7443],[8.9427,45.745],[8.9442,45.7489],[8.9499,45.757],[8.9502,45.7598],[8.9583,45.7501],[8.9825,45.7483],[8.9862,45.749]]]}},{"type":"Feature","properties":{"i":"013011","n":"Argegno"},"geometry":{"type":"Polygon","coordinates":[[[9.148,45.9436],[9.1442,45.9413],[9.1387,45.934],[9.1228,45.9347],[9.1174,45.9331],[9.1061,45.9333],[9.1021,45.9337],[9.1009,45.9349],[9.1014,45.9373],[9.1041,45.9391],[9.111,45.9417],[9.121,45.9429],[9.1357,45.9509],[9.1363,45.9532],[9.1413,45.9515],[9.1439,45.9497],[9.1492,45.9443],[9.148,45.9436]]]}},{"type":"Feature","properties":{"i":"013012","n":"Arosio"},"geometry":{"type":"Polygon","coordinates":[[[9.2295,45.7173],[9.2141,45.715],[9.2042,45.7092],[9.2015,45.7199],[9.2025,45.7276],[9.2046,45.7305],[9.2099,45.7349],[9.2128,45.7352],[9.2123,45.7261],[9.2145,45.722],[9.2187,45.7201],[9.2279,45.7189],[9.2295,45.7173]]]}},{"type":"Feature","properties":{"i":"013013","n":"Asso"},"geometry":{"type":"Polygon","coordinates":[[[9.2869,45.8568],[9.2771,45.8573],[9.2696,45.8566],[9.2556,45.8476],[9.2533,45.8493],[9.2438,45.8487],[9.2467,45.8496],[9.2511,45.8526],[9.2535,45.8563],[9.2537,45.8579],[9.2531,45.8579],[9.2479,45.8558],[9.2469,45.8561],[9.2478,45.862],[9.2516,45.8642],[9.2584,45.8665],[9.2484,45.8698],[9.2468,45.8729],[9.252,45.8763],[9.2537,45.8783],[9.2572,45.8798],[9.2601,45.8762],[9.2663,45.8743],[9.2724,45.8747],[9.2862,45.8876],[9.2839,45.8799],[9.282,45.8766],[9.2761,45.8701],[9.2781,45.8655],[9.2806,45.8649],[9.2869,45.8568]]]}},{"type":"Feature","properties":{"i":"013015","n":"Barni"},"geometry":{"type":"Polygon","coordinates":[[[9.2841,45.8988],[9.2815,45.8954],[9.2744,45.8951],[9.2547,45.8988],[9.249,45.8988],[9.2493,45.9011],[9.247,45.9107],[9.2451,45.9119],[9.2503,45.9125],[9.2672,45.9172],[9.2717,45.9215],[9.2802,45.9127],[9.2854,45.9025],[9.2854,45.9],[9.2841,45.8988]]]}},{"type":"Feature","properties":{"i":"013021","n":"Bene Lario"},"geometry":{"type":"Polygon","coordinates":[[[9.1796,46.0363],[9.1853,46.0354],[9.1896,46.0333],[9.1891,46.0293],[9.1829,46.018],[9.1831,46.017],[9.1818,46.0144],[9.1659,46.0099],[9.1607,46.0118],[9.158,46.0209],[9.1561,46.0324],[9.1656,46.0346],[9.169,46.0373],[9.1796,46.0363]]]}},{"type":"Feature","properties":{"i":"013022","n":"Beregazzo con Figliaro"},"geometry":{"type":"Polygon","coordinates":[[[8.9699,45.7624],[8.9643,45.7624],[8.9568,45.7562],[8.9541,45.7555],[8.9502,45.7598],[8.953,45.7614],[8.9546,45.7648],[8.9527,45.769],[8.9492,45.7723],[8.9412,45.7706],[8.9381,45.7707],[8.9386,45.7765],[8.9375,45.7785],[8.9326,45.7826],[8.9441,45.7865],[8.9612,45.7755],[8.9663,45.7711],[8.9676,45.7644],[8.9699,45.7624]]]}},{"type":"Feature","properties":{"i":"013023","n":"Binago"},"geometry":{"type":"Polygon","coordinates":[[[8.9326,45.7826],[8.9375,45.7785],[8.9388,45.7758],[8.9381,45.7707],[8.9353,45.7641],[8.9293,45.7543],[8.9217,45.7551],[8.9221,45.7605],[8.9138,45.7694],[8.9061,45.7684],[8.9075,45.7765],[8.9033,45.7826],[8.9004,45.7848],[8.9087,45.7933],[8.9122,45.7911],[8.9233,45.7894],[8.9316,45.7841],[8.9326,45.7826]]]}},{"type":"Feature","properties":{"i":"013024","n":"Bizzarone"},"geometry":{"type":"Polygon","coordinates":[[[8.9623,45.838],[8.9575,45.8372],[8.952,45.8315],[8.9477,45.8292],[8.9292,45.8293],[8.9293,45.8342],[8.9344,45.8391],[8.9482,45.8432],[8.9557,45.8425],[8.9623,45.838]]]}},{"type":"Feature","properties":{"i":"013025","n":"Blessagno"},"geometry":{"type":"Polygon","coordinates":[[[9.1076,45.9543],[9.1043,45.9529],[9.0979,45.9551],[9.093,45.9586],[9.0894,45.9624],[9.0886,45.9654],[9.0924,45.9722],[9.0993,45.9729],[9.1069,45.9748],[9.1156,45.9789],[9.1152,45.9804],[9.1166,45.9814],[9.119,45.979],[9.1142,45.9744],[9.1106,45.9605],[9.1084,45.9587],[9.1068,45.9558],[9.1076,45.9543]]]}},{"type":"Feature","properties":{"i":"013026","n":"Blevio"},"geometry":{"type":"Polygon","coordinates":[[[9.1148,45.8284],[9.1114,45.8267],[9.0957,45.8276],[9.0909,45.8294],[9.0858,45.8336],[9.0903,45.8404],[9.0957,45.8431],[9.0985,45.8472],[9.0956,45.848],[9.104,45.8535],[9.1197,45.8435],[9.1219,45.8393],[9.1248,45.8361],[9.1148,45.8284]]]}},{"type":"Feature","properties":{"i":"013028","n":"Bregnano"},"geometry":{"type":"Polygon","coordinates":[[[9.0655,45.7132],[9.0635,45.7079],[9.0646,45.7014],[9.066,45.6996],[9.067,45.6851],[9.0638,45.6733],[9.0585,45.6724],[9.0457,45.68],[9.0496,45.6849],[9.05,45.689],[9.0473,45.6958],[9.0476,45.7009],[9.0501,45.7049],[9.0482,45.7086],[9.0495,45.7142],[9.0561,45.7168],[9.0588,45.717],[9.0644,45.7158],[9.0655,45.7132]]]}},{"type":"Feature","properties":{"i":"013029","n":"Brenna"},"geometry":{"type":"Polygon","coordinates":[[[9.1952,45.7419],[9.1965,45.7332],[9.196,45.7283],[9.1929,45.7253],[9.1914,45.7247],[9.1892,45.7258],[9.1847,45.7313],[9.1814,45.7313],[9.1808,45.7249],[9.1732,45.7272],[9.1699,45.7386],[9.1704,45.7466],[9.1711,45.7485],[9.1735,45.7491],[9.1795,45.7544],[9.1883,45.7546],[9.191,45.7498],[9.192,45.7449],[9.1952,45.7419]]]}},{"type":"Feature","properties":{"i":"013030","n":"Brienno"},"geometry":{"type":"Polygon","coordinates":[[[9.1387,45.934],[9.14,45.9313],[9.142,45.9184],[9.1422,45.9078],[9.1461,45.8999],[9.1382,45.8988],[9.1224,45.9002],[9.1158,45.8988],[9.1134,45.8952],[9.1067,45.8989],[9.1052,45.9024],[9.1052,45.9057],[9.1139,45.9141],[9.1161,45.9192],[9.1174,45.9331],[9.1228,45.9347],[9.1387,45.934]]]}},{"type":"Feature","properties":{"i":"013032","n":"Brunate"},"geometry":{"type":"Polygon","coordinates":[[[9.0957,45.8276],[9.1114,45.8267],[9.1148,45.8284],[9.1074,45.821],[9.1064,45.815],[9.1042,45.8111],[9.1014,45.8139],[9.0973,45.8161],[9.0916,45.8176],[9.085,45.8225],[9.085,45.8234],[9.0894,45.8241],[9.0947,45.8264],[9.0957,45.8276]]]}},{"type":"Feature","properties":{"i":"013034","n":"Bulgarograsso"},"geometry":{"type":"Polygon","coordinates":[[[9.0269,45.7383],[9.0204,45.7413],[9.0126,45.741],[8.997,45.7387],[8.9888,45.7465],[8.9908,45.7508],[8.9942,45.7539],[9.0102,45.761],[9.0111,45.7605],[9.0106,45.758],[9.0131,45.7509],[9.0201,45.7467],[9.0266,45.7413],[9.0277,45.74],[9.0269,45.7383]]]}},{"type":"Feature","properties":{"i":"013035","n":"Cabiate"},"geometry":{"type":"Polygon","coordinates":[[[9.1866,45.6656],[9.1797,45.6635],[9.1782,45.6656],[9.1684,45.6699],[9.1638,45.673],[9.1538,45.6866],[9.1545,45.6874],[9.1593,45.6877],[9.1798,45.6784],[9.1851,45.6713],[9.1866,45.6656]]]}},{"type":"Feature","properties":{"i":"013036","n":"Cadorago"},"geometry":{"type":"Polygon","coordinates":[[[9.0598,45.7256],[9.062,45.7233],[9.0683,45.7224],[9.0724,45.7205],[9.0714,45.7144],[9.0655,45.7132],[9.0644,45.7158],[9.0588,45.717],[9.0561,45.7168],[9.0495,45.7142],[9.0482,45.7086],[9.043,45.7079],[9.0398,45.704],[9.0333,45.7078],[9.0304,45.7125],[9.0233,45.7148],[9.0271,45.7364],[9.0289,45.7354],[9.0297,45.7372],[9.0316,45.7387],[9.0384,45.7391],[9.0448,45.7315],[9.0524,45.7257],[9.0598,45.7256]]]}},{"type":"Feature","properties":{"i":"013037","n":"Caglio"},"geometry":{"type":"Polygon","coordinates":[[[9.2468,45.8729],[9.2484,45.8698],[9.2442,45.8702],[9.2364,45.8666],[9.2298,45.8632],[9.2294,45.8615],[9.2251,45.858],[9.2204,45.8565],[9.2015,45.8621],[9.202,45.8683],[9.2058,45.8714],[9.209,45.8835],[9.2133,45.8856],[9.216,45.8857],[9.2331,45.8787],[9.2408,45.8752],[9.2442,45.8724],[9.2456,45.8721],[9.2468,45.8729]]]}},{"type":"Feature","properties":{"i":"013040","n":"Campione d'Italia"},"geometry":{"type":"Polygon","coordinates":[[[8.9738,45.9835],[8.9773,45.9815],[8.9778,45.9686],[8.9761,45.9625],[8.9752,45.9616],[8.9703,45.9616],[8.9579,45.9647],[8.9668,45.984],[8.9738,45.9835]]]}},{"type":"Feature","properties":{"i":"013041","n":"Cantù"},"geometry":{"type":"Polygon","coordinates":[[[9.1596,45.7629],[9.1625,45.762],[9.1675,45.7552],[9.1711,45.7485],[9.1699,45.7386],[9.1732,45.7272],[9.17,45.7191],[9.1669,45.7183],[9.1617,45.711],[9.158,45.709],[9.1519,45.7092],[9.1522,45.7113],[9.1391,45.7247],[9.1344,45.7256],[9.1258,45.7239],[9.1214,45.7219],[9.1221,45.7252],[9.1215,45.7263],[9.1149,45.7237],[9.1117,45.7234],[9.1081,45.7247],[9.1066,45.724],[9.1026,45.7202],[9.1025,45.7176],[9.1035,45.715],[9.1026,45.712],[9.1007,45.7105],[9.097,45.7113],[9.0951,45.7158],[9.0983,45.7226],[9.1012,45.7249],[9.1109,45.736],[9.1111,45.7422],[9.1007,45.7533],[9.1166,45.7616],[9.1207,45.7613],[9.1213,45.7598],[9.1241,45.7584],[9.1337,45.7568],[9.1378,45.7573],[9.1395,45.7609],[9.1481,45.7665],[9.1521,45.768],[9.1596,45.7629]]]}},{"type":"Feature","properties":{"i":"013042","n":"Canzo"},"geometry":{"type":"Polygon","coordinates":[[[9.3275,45.8624],[9.3265,45.859],[9.3225,45.8532],[9.3185,45.8503],[9.3175,45.8467],[9.3204,45.8436],[9.3095,45.8414],[9.3033,45.839],[9.3016,45.837],[9.2905,45.8348],[9.2681,45.8367],[9.2579,45.8389],[9.2567,45.8409],[9.2536,45.8435],[9.2543,45.846],[9.2556,45.8476],[9.2696,45.8566],[9.2771,45.8573],[9.2869,45.8568],[9.3142,45.8621],[9.3275,45.8624]]]}},{"type":"Feature","properties":{"i":"013043","n":"Capiago Intimiano"},"geometry":{"type":"Polygon","coordinates":[[[9.1296,45.7818],[9.1331,45.7809],[9.1338,45.7791],[9.1336,45.7783],[9.1313,45.7787],[9.1308,45.7778],[9.1392,45.7736],[9.1492,45.7702],[9.1521,45.768],[9.1481,45.7665],[9.1395,45.7609],[9.1378,45.7573],[9.1337,45.7568],[9.1241,45.7584],[9.1213,45.7598],[9.1207,45.7613],[9.1166,45.7616],[9.1096,45.7731],[9.1135,45.7847],[9.1272,45.783],[9.1296,45.7818]]]}},{"type":"Feature","properties":{"i":"013044","n":"Carate Urio"},"geometry":{"type":"Polygon","coordinates":[[[9.1067,45.8989],[9.1134,45.8952],[9.1166,45.8873],[9.1212,45.8814],[9.131,45.8768],[9.1411,45.8706],[9.1366,45.8677],[9.1134,45.8623],[9.1083,45.8664],[9.096,45.8803],[9.0986,45.8872],[9.1025,45.8907],[9.0987,45.894],[9.0917,45.8982],[9.1067,45.8989]]]}},{"type":"Feature","properties":{"i":"013045","n":"Carbonate"},"geometry":{"type":"Polygon","coordinates":[[[8.9596,45.7147],[8.9595,45.7107],[8.9571,45.7109],[8.953,45.7087],[8.9507,45.7034],[8.949,45.6971],[8.952,45.6887],[8.9492,45.6824],[8.9416,45.6766],[8.9219,45.6701],[8.9174,45.6709],[8.9117,45.6708],[8.9092,45.6716],[8.9077,45.6748],[8.9112,45.6759],[8.914,45.6752],[8.931,45.6813],[8.9458,45.6992],[8.9481,45.705],[8.9474,45.7078],[8.9508,45.7125],[8.9515,45.7147],[8.9506,45.7207],[8.957,45.7202],[8.9607,45.7191],[8.9596,45.7147]]]}},{"type":"Feature","properties":{"i":"013046","n":"Carimate"},"geometry":{"type":"Polygon","coordinates":[[[9.1214,45.7219],[9.1202,45.7096],[9.1175,45.7036],[9.1175,45.6988],[9.118,45.6962],[9.1215,45.6907],[9.1242,45.6894],[9.1218,45.6885],[9.1085,45.6923],[9.1032,45.6969],[9.1024,45.7004],[9.1007,45.7026],[9.0983,45.7036],[9.0959,45.7078],[9.097,45.7113],[9.1007,45.7105],[9.1031,45.7126],[9.1035,45.715],[9.1025,45.7176],[9.1026,45.7202],[9.1066,45.724],[9.1081,45.7247],[9.1117,45.7234],[9.1149,45.7237],[9.1215,45.7263],[9.1221,45.7252],[9.1214,45.7219]]]}},{"type":"Feature","properties":{"i":"013047","n":"Carlazzo"},"geometry":{"type":"Polygon","coordinates":[[[9.1718,46.0693],[9.181,46.0629],[9.1864,46.0562],[9.1849,46.0467],[9.1796,46.0363],[9.169,46.0373],[9.1656,46.0346],[9.1619,46.0334],[9.1463,46.0309],[9.1392,46.0328],[9.1379,46.0341],[9.1407,46.0369],[9.1402,46.0428],[9.1447,46.048],[9.1462,46.0536],[9.1294,46.0653],[9.1234,46.0714],[9.1306,46.0737],[9.1389,46.0777],[9.1421,46.0767],[9.1456,46.0731],[9.1456,46.0707],[9.1476,46.0641],[9.1545,46.0617],[9.1588,46.0615],[9.167,46.0619],[9.1681,46.0626],[9.1718,46.0693]]]}},{"type":"Feature","properties":{"i":"013048","n":"Carugo"},"geometry":{"type":"Polygon","coordinates":[[[9.1965,45.7332],[9.2046,45.7305],[9.2025,45.7276],[9.2015,45.7199],[9.2042,45.7092],[9.1953,45.6983],[9.1884,45.7036],[9.1852,45.7114],[9.187,45.7152],[9.1853,45.7224],[9.1839,45.7242],[9.1808,45.7249],[9.1814,45.7313],[9.1847,45.7313],[9.1885,45.7263],[9.1918,45.7247],[9.196,45.7283],[9.1965,45.7332]]]}},{"type":"Feature","properties":{"i":"013052","n":"Caslino d'Erba"},"geometry":{"type":"Polygon","coordinates":[[[9.2438,45.8487],[9.2533,45.8493],[9.2556,45.8476],[9.2543,45.846],[9.2409,45.838],[9.2355,45.836],[9.2302,45.8352],[9.2196,45.8367],[9.2205,45.8381],[9.2127,45.8401],[9.2048,45.8399],[9.1979,45.8431],[9.1955,45.8488],[9.1954,45.8526],[9.1968,45.8543],[9.2076,45.8602],[9.2122,45.8592],[9.211,45.8575],[9.2151,45.8537],[9.2199,45.8538],[9.2244,45.8567],[9.2269,45.8562],[9.2309,45.8522],[9.2318,45.8488],[9.231,45.8477],[9.2323,45.8456],[9.2438,45.8487]]]}},{"type":"Feature","properties":{"i":"013053","n":"Casnate con Bernate"},"geometry":{"type":"Polygon","coordinates":[[[9.0913,45.7589],[9.0844,45.7549],[9.0843,45.7496],[9.0852,45.7487],[9.0844,45.7469],[9.0789,45.7482],[9.0631,45.7498],[9.0596,45.751],[9.0572,45.7537],[9.0575,45.7571],[9.0561,45.7636],[9.0719,45.7717],[9.0777,45.7735],[9.0888,45.7655],[9.0913,45.7589]]]}},{"type":"Feature","properties":{"i":"013055","n":"Cassina Rizzardi"},"geometry":{"type":"Polygon","coordinates":[[[9.044,45.7524],[9.0402,45.7498],[9.041,45.7475],[9.0354,45.743],[9.0271,45.7381],[9.0277,45.74],[9.0266,45.7413],[9.0201,45.7467],[9.0131,45.7509],[9.0105,45.7595],[9.0111,45.7605],[9.0285,45.7576],[9.0313,45.7559],[9.0383,45.756],[9.0409,45.7554],[9.044,45.7524]]]}},{"type":"Feature","properties":{"i":"013058","n":"Castelmarte"},"geometry":{"type":"Polygon","coordinates":[[[9.2579,45.8389],[9.2564,45.8372],[9.2393,45.8291],[9.2379,45.826],[9.2372,45.8276],[9.2311,45.8296],[9.2292,45.8311],[9.2279,45.834],[9.2409,45.838],[9.2543,45.846],[9.2536,45.8435],[9.2567,45.8409],[9.2579,45.8389]]]}},{"type":"Feature","properties":{"i":"013059","n":"Castelnuovo Bozzente"},"geometry":{"type":"Polygon","coordinates":[[[8.9502,45.7598],[8.9499,45.757],[8.9442,45.7489],[8.9427,45.745],[8.93,45.7475],[8.9293,45.7543],[8.9353,45.7641],[8.9381,45.7707],[8.9412,45.7706],[8.9492,45.7723],[8.9527,45.769],[8.9547,45.7655],[8.953,45.7614],[8.9502,45.7598]]]}},{"type":"Feature","properties":{"i":"013062","n":"Cavargna"},"geometry":{"type":"Polygon","coordinates":[[[9.118,46.0778],[9.0894,46.085],[9.0899,46.0876],[9.0892,46.0901],[9.0801,46.1058],[9.0734,46.1136],[9.0716,46.1195],[9.1006,46.1284],[9.1052,46.1318],[9.1153,46.135],[9.1174,46.1311],[9.1192,46.1172],[9.1179,46.0987],[9.1204,46.093],[9.1215,46.0868],[9.1181,46.0838],[9.1172,46.0816],[9.118,46.0778]]]}},{"type":"Feature","properties":{"i":"013063","n":"Cerano d'Intelvi"},"geometry":{"type":"Polygon","coordinates":[[[9.0941,45.9508],[9.0952,45.9415],[9.0874,45.9397],[9.0866,45.9365],[9.0879,45.9328],[9.0809,45.9261],[9.0729,45.9264],[9.0733,45.9216],[9.0671,45.9183],[9.0688,45.9131],[9.0765,45.9135],[9.082,45.9164],[9.0795,45.9068],[9.0779,45.904],[9.0763,45.9035],[9.075,45.9063],[9.0699,45.912],[9.0543,45.9202],[9.0496,45.9212],[9.0537,45.9236],[9.0579,45.9279],[9.0557,45.9337],[9.0635,45.9332],[9.0667,45.9304],[9.0752,45.9339],[9.0792,45.9399],[9.0805,45.9453],[9.0782,45.9486],[9.0769,45.9521],[9.084,45.9531],[9.0941,45.9508]]]}},{"type":"Feature","properties":{"i":"013064","n":"Cermenate"},"geometry":{"type":"Polygon","coordinates":[[[9.0951,45.7158],[9.097,45.7113],[9.0959,45.7078],[9.0963,45.7064],[9.0983,45.7036],[9.1007,45.7026],[9.1024,45.7004],[9.1032,45.6969],[9.0913,45.6863],[9.0883,45.6855],[9.067,45.6851],[9.066,45.6996],[9.0646,45.7014],[9.0635,45.7079],[9.0655,45.7132],[9.0714,45.7144],[9.0723,45.7135],[9.0825,45.7147],[9.0912,45.7165],[9.0951,45.7158]]]}},{"type":"Feature","properties":{"i":"013065","n":"Cernobbio"},"geometry":{"type":"Polygon","coordinates":[[[9.0956,45.848],[9.0985,45.8472],[9.0957,45.8431],[9.0903,45.8404],[9.0858,45.8336],[9.0909,45.8294],[9.0683,45.8369],[9.0631,45.8382],[9.0562,45.8387],[9.0558,45.8459],[9.0521,45.8503],[9.0493,45.8522],[9.0499,45.8542],[9.0485,45.8625],[9.0543,45.8723],[9.0588,45.8753],[9.0666,45.8762],[9.0778,45.8856],[9.0791,45.8823],[9.0817,45.8789],[9.082,45.8733],[9.0785,45.8705],[9.0771,45.8612],[9.0872,45.8532],[9.0884,45.8496],[9.0956,45.848]]]}},{"type":"Feature","properties":{"i":"013068","n":"Cirimido"},"geometry":{"type":"Polygon","coordinates":[[[9.0193,45.7113],[9.0207,45.7088],[9.0204,45.7037],[9.0173,45.6965],[9.016,45.6816],[9.0133,45.6789],[9.011,45.6799],[9.0081,45.6837],[9.0071,45.6923],[9.0079,45.703],[9.0066,45.7054],[9.0083,45.71],[9.0193,45.7113]]]}},{"type":"Feature","properties":{"i":"013071","n":"Claino con Osteno"},"geometry":{"type":"Polygon","coordinates":[[[9.1363,46.0069],[9.1348,46.0037],[9.1284,46.0006],[9.1195,45.9996],[9.1139,46.0],[9.1121,46.0009],[9.0884,45.9977],[9.0854,45.9966],[9.0818,45.994],[9.0745,45.9928],[9.0769,45.9986],[9.0761,46.0032],[9.0561,46.0067],[9.0514,46.0068],[9.0494,46.0085],[9.0488,46.0138],[9.05,46.0177],[9.0771,46.0158],[9.0799,46.0165],[9.0871,46.0158],[9.0922,46.0168],[9.0963,46.0179],[9.1153,46.0285],[9.1243,46.0216],[9.1252,46.0205],[9.125,46.0164],[9.1298,46.0101],[9.1339,46.0075],[9.1363,46.0069]]]}},{"type":"Feature","properties":{"i":"013074","n":"Colonno"},"geometry":{"type":"Polygon","coordinates":[[[9.1677,45.9509],[9.1484,45.9431],[9.148,45.9436],[9.1492,45.9443],[9.1439,45.9497],[9.1402,45.952],[9.1374,45.9526],[9.1419,45.9555],[9.1425,45.9589],[9.1324,45.9634],[9.1296,45.9682],[9.1273,45.9792],[9.1333,45.9804],[9.133,45.9852],[9.1316,45.9873],[9.133,45.9878],[9.1342,45.9855],[9.1421,45.9793],[9.155,45.9597],[9.1574,45.9599],[9.1593,45.959],[9.167,45.9525],[9.1677,45.9509]]]}},{"type":"Feature","properties":{"i":"013075","n":"Como"},"geometry":{"type":"Polygon","coordinates":[[[9.0562,45.8387],[9.0631,45.8382],[9.0683,45.8369],[9.0957,45.8276],[9.0947,45.8264],[9.0894,45.8241],[9.085,45.8234],[9.085,45.8225],[9.0916,45.8176],[9.0973,45.8161],[9.1014,45.8139],[9.1042,45.8111],[9.1064,45.815],[9.1074,45.821],[9.1148,45.8284],[9.1248,45.8361],[9.1317,45.836],[9.1276,45.8307],[9.123,45.8294],[9.1217,45.8263],[9.1217,45.8194],[9.1233,45.8154],[9.1239,45.8081],[9.1198,45.8076],[9.1368,45.7997],[9.1358,45.7984],[9.1304,45.7974],[9.1203,45.7986],[9.1141,45.7985],[9.1117,45.796],[9.1111,45.7906],[9.1112,45.7895],[9.1138,45.7878],[9.114,45.7862],[9.1096,45.7731],[9.1076,45.7715],[9.1009,45.7694],[9.0994,45.7625],[9.0947,45.7596],[9.0913,45.7589],[9.0888,45.7655],[9.0777,45.7735],[9.0719,45.7717],[9.0705,45.7742],[9.066,45.7787],[9.0617,45.7807],[9.0591,45.7814],[9.0505,45.7812],[9.051,45.7827],[9.0493,45.787],[9.0474,45.7896],[9.0469,45.7924],[9.0507,45.8004],[9.0535,45.8032],[9.058,45.8061],[9.0405,45.8194],[9.0312,45.8246],[9.0358,45.8384],[9.0358,45.8412],[9.0366,45.8416],[9.0388,45.8422],[9.0428,45.8417],[9.0464,45.8409],[9.0492,45.839],[9.0562,45.8387]]]}},{"type":"Feature","properties":{"i":"013077","n":"Corrido"},"geometry":{"type":"Polygon","coordinates":[[[9.1402,46.0428],[9.1184,46.045],[9.1141,46.0505],[9.103,46.0549],[9.0998,46.0555],[9.1036,46.0601],[9.1084,46.0632],[9.1135,46.066],[9.1197,46.0673],[9.1237,46.0705],[9.1302,46.0647],[9.1462,46.0536],[9.1447,46.048],[9.1402,46.0428]]]}},{"type":"Feature","properties":{"i":"013083","n":"Cremia"},"geometry":{"type":"Polygon","coordinates":[[[9.2952,46.0916],[9.294,46.0829],[9.2902,46.0759],[9.2729,46.0766],[9.266,46.0779],[9.2634,46.0796],[9.2562,46.0807],[9.2375,46.0799],[9.2317,46.0786],[9.2244,46.0817],[9.2251,46.0844],[9.2232,46.0954],[9.2209,46.0973],[9.2222,46.1008],[9.2303,46.1014],[9.2503,46.0954],[9.2594,46.0936],[9.2673,46.0927],[9.28,46.0928],[9.2952,46.0916]]]}},{"type":"Feature","properties":{"i":"013084","n":"Cucciago"},"geometry":{"type":"Polygon","coordinates":[[[9.1007,45.7533],[9.1111,45.7422],[9.1109,45.736],[9.1012,45.7249],[9.0983,45.7226],[9.0884,45.7331],[9.0853,45.7341],[9.0823,45.7387],[9.0844,45.7469],[9.0863,45.7499],[9.0965,45.7538],[9.1007,45.7533]]]}},{"type":"Feature","properties":{"i":"013085","n":"Cusino"},"geometry":{"type":"Polygon","coordinates":[[[9.1718,46.0693],[9.1681,46.0626],[9.167,46.0619],[9.1545,46.0617],[9.1476,46.0641],[9.1456,46.0707],[9.1456,46.0731],[9.1484,46.078],[9.1511,46.079],[9.1583,46.0805],[9.16,46.0798],[9.1596,46.079],[9.1629,46.0786],[9.1656,46.0803],[9.1765,46.0937],[9.1764,46.096],[9.1721,46.101],[9.1752,46.1059],[9.1822,46.1095],[9.1856,46.1125],[9.1905,46.1128],[9.1993,46.1058],[9.2045,46.1006],[9.1971,46.0958],[9.1844,46.0837],[9.1813,46.0804],[9.1782,46.075],[9.1718,46.0693]]]}},{"type":"Feature","properties":{"i":"013087","n":"Dizzasco"},"geometry":{"type":"Polygon","coordinates":[[[9.1363,45.9532],[9.1357,45.9509],[9.121,45.9429],[9.111,45.9417],[9.1041,45.9391],[9.0952,45.9415],[9.0941,45.9508],[9.1043,45.9529],[9.1076,45.9543],[9.1083,45.956],[9.1092,45.9564],[9.1118,45.9566],[9.1281,45.9534],[9.1322,45.9542],[9.1363,45.9532]]]}},{"type":"Feature","properties":{"i":"013089","n":"Domaso"},"geometry":{"type":"Polygon","coordinates":[[[9.3572,46.1504],[9.327,46.136],[9.3226,46.1357],[9.3156,46.1529],[9.3161,46.1564],[9.3131,46.1583],[9.3032,46.1576],[9.2999,46.1622],[9.3122,46.1616],[9.3179,46.1643],[9.3246,46.1602],[9.3281,46.1559],[9.339,46.1587],[9.3477,46.159],[9.3572,46.1504]]]}},{"type":"Feature","properties":{"i":"013090","n":"Dongo"},"geometry":{"type":"Polygon","coordinates":[[[9.2996,46.1241],[9.2923,46.1158],[9.2803,46.1165],[9.2619,46.1213],[9.2531,46.1193],[9.2448,46.1145],[9.2325,46.1101],[9.2398,46.1217],[9.2453,46.1286],[9.2588,46.1297],[9.2675,46.1323],[9.2755,46.1326],[9.2837,46.1392],[9.29,46.1358],[9.2996,46.1241]]]}},{"type":"Feature","properties":{"i":"013092","n":"Dosso del Liro"},"geometry":{"type":"Polygon","coordinates":[[[9.2461,46.2322],[9.2555,46.204],[9.2534,46.2025],[9.2516,46.1962],[9.2518,46.19],[9.2533,46.1865],[9.2603,46.1843],[9.2693,46.1727],[9.2798,46.1618],[9.2827,46.1598],[9.2827,46.1578],[9.2513,46.1616],[9.2361,46.1685],[9.2342,46.1708],[9.2348,46.1793],[9.2267,46.1904],[9.2226,46.1932],[9.2116,46.1913],[9.2073,46.1882],[9.1962,46.1879],[9.1942,46.19],[9.1939,46.194],[9.2,46.2063],[9.207,46.2105],[9.2148,46.2118],[9.2182,46.2147],[9.2216,46.226],[9.2206,46.2281],[9.2213,46.2299],[9.2348,46.2338],[9.2461,46.2322]]]}},{"type":"Feature","properties":{"i":"013095","n":"Erba"},"geometry":{"type":"Polygon","coordinates":[[[9.2372,45.8276],[9.2386,45.8247],[9.2451,45.8229],[9.2464,45.8218],[9.2447,45.8175],[9.2448,45.8137],[9.2498,45.813],[9.2547,45.8109],[9.2532,45.8085],[9.25,45.7981],[9.2538,45.7928],[9.2498,45.7912],[9.2442,45.7948],[9.2414,45.7957],[9.2388,45.7946],[9.2379,45.7917],[9.2386,45.7876],[9.233,45.79],[9.2186,45.7888],[9.2151,45.7878],[9.2111,45.7916],[9.2076,45.7929],[9.2042,45.7936],[9.202,45.7918],[9.1976,45.7935],[9.1956,45.798],[9.1968,45.8024],[9.2021,45.8093],[9.2021,45.8121],[9.2011,45.8147],[9.1906,45.8193],[9.187,45.8229],[9.1873,45.8325],[9.183,45.8378],[9.1847,45.8402],[9.1874,45.8421],[9.1932,45.8445],[9.1973,45.8435],[9.2048,45.8399],[9.2055,45.8367],[9.2127,45.8211],[9.22,45.8188],[9.2261,45.8201],[9.2372,45.8276]]]}},{"type":"Feature","properties":{"i":"013097","n":"Eupilio"},"geometry":{"type":"Polygon","coordinates":[[[9.2905,45.8348],[9.2868,45.8325],[9.2795,45.8186],[9.2764,45.8158],[9.2678,45.8128],[9.2645,45.8108],[9.2642,45.8101],[9.2659,45.8086],[9.2742,45.8041],[9.2736,45.802],[9.2583,45.7925],[9.2538,45.7928],[9.25,45.7981],[9.2532,45.8085],[9.2547,45.8109],[9.2552,45.8165],[9.2623,45.8279],[9.268,45.8318],[9.2729,45.8367],[9.2905,45.8348]]]}},{"type":"Feature","properties":{"i":"013098","n":"Faggeto Lario"},"geometry":{"type":"Polygon","coordinates":[[[9.2058,45.8714],[9.202,45.8683],[9.2015,45.8621],[9.2076,45.8602],[9.1968,45.8543],[9.1954,45.8526],[9.1955,45.8488],[9.1979,45.8431],[9.1932,45.8445],[9.1874,45.8421],[9.1847,45.8402],[9.183,45.8378],[9.1696,45.8365],[9.1558,45.8377],[9.1466,45.8359],[9.1477,45.8389],[9.1366,45.8677],[9.1411,45.8706],[9.1447,45.8744],[9.1621,45.8712],[9.1685,45.8719],[9.1803,45.8765],[9.184,45.88],[9.1884,45.8773],[9.1989,45.8749],[9.2058,45.8714]]]}},{"type":"Feature","properties":{"i":"013099","n":"Faloppio"},"geometry":{"type":"Polygon","coordinates":[[[8.9818,45.8155],[8.9879,45.8118],[8.9875,45.8069],[8.9845,45.8043],[8.9858,45.802],[8.9602,45.7993],[8.9531,45.8],[8.9536,45.809],[8.9591,45.812],[8.9597,45.8157],[8.9614,45.8172],[8.9695,45.8189],[8.9745,45.8112],[8.977,45.8145],[8.9818,45.8155]]]}},{"type":"Feature","properties":{"i":"013100","n":"Fenegrò"},"geometry":{"type":"Polygon","coordinates":[[[9.0083,45.71],[9.0066,45.7054],[9.0079,45.703],[9.008,45.6988],[9.0071,45.6923],[9.0081,45.6837],[9.011,45.6799],[9.0065,45.6751],[9.0038,45.6751],[9.0013,45.6789],[8.9972,45.6818],[8.9923,45.6824],[8.99,45.6818],[8.9875,45.6862],[8.987,45.6934],[8.9921,45.7084],[8.9937,45.7083],[8.9943,45.7121],[8.9933,45.7157],[8.9966,45.7169],[8.9994,45.7169],[9.0059,45.711],[9.0083,45.71]]]}},{"type":"Feature","properties":{"i":"013101","n":"Figino Serenza"},"geometry":{"type":"Polygon","coordinates":[[[9.1519,45.7092],[9.1483,45.7042],[9.1456,45.7045],[9.14,45.7012],[9.1271,45.7018],[9.1202,45.7096],[9.1214,45.7219],[9.1258,45.7239],[9.1344,45.7256],[9.1391,45.7247],[9.1522,45.7113],[9.1519,45.7092]]]}},{"type":"Feature","properties":{"i":"013102","n":"Fino Mornasco"},"geometry":{"type":"Polygon","coordinates":[[[9.0575,45.7571],[9.0572,45.7537],[9.0596,45.751],[9.0631,45.7498],[9.0789,45.7482],[9.0844,45.7469],[9.0823,45.7387],[9.0711,45.7433],[9.067,45.7418],[9.0667,45.7368],[9.0652,45.7311],[9.0598,45.7256],[9.0524,45.7257],[9.0448,45.7315],[9.0384,45.7391],[9.0316,45.7387],[9.0297,45.7372],[9.0289,45.7354],[9.0271,45.7364],[9.0271,45.7381],[9.0354,45.743],[9.041,45.7475],[9.0402,45.7498],[9.052,45.759],[9.0554,45.7588],[9.0575,45.7571]]]}},{"type":"Feature","properties":{"i":"013106","n":"Garzeno"},"geometry":{"type":"Polygon","coordinates":[[[9.2588,46.1297],[9.2453,46.1286],[9.2398,46.1217],[9.2325,46.1101],[9.2214,46.1102],[9.2145,46.1014],[9.2222,46.1008],[9.2209,46.0973],[9.2045,46.1006],[9.1993,46.1058],[9.1905,46.1128],[9.1856,46.1125],[9.1732,46.1166],[9.1576,46.1184],[9.1447,46.1267],[9.1409,46.1307],[9.147,46.1404],[9.1599,46.1448],[9.1659,46.1433],[9.1696,46.1441],[9.1712,46.1452],[9.1704,46.1488],[9.1572,46.1534],[9.1579,46.1579],[9.1588,46.159],[9.1974,46.1497],[9.2063,46.1409],[9.2075,46.1364],[9.2092,46.1339],[9.2124,46.1345],[9.2137,46.1378],[9.218,46.139],[9.2277,46.1393],[9.2494,46.1369],[9.2568,46.1334],[9.2588,46.1297]]]}},{"type":"Feature","properties":{"i":"013107","n":"Gera Lario"},"geometry":{"type":"Polygon","coordinates":[[[9.4242,46.1551],[9.4204,46.1463],[9.4141,46.1369],[9.4106,46.1443],[9.4102,46.1499],[9.3786,46.1521],[9.3717,46.1539],[9.3658,46.1569],[9.3619,46.1574],[9.3491,46.1675],[9.3626,46.1709],[9.3666,46.1729],[9.3779,46.175],[9.3762,46.173],[9.3765,46.1677],[9.3819,46.1562],[9.3932,46.1538],[9.401,46.1615],[9.403,46.1654],[9.4016,46.1672],[9.4036,46.1719],[9.408,46.1744],[9.4123,46.1718],[9.4051,46.1676],[9.4072,46.1625],[9.4123,46.155],[9.416,46.1547],[9.4204,46.1581],[9.4242,46.1551]]]}},{"type":"Feature","properties":{"i":"013110","n":"Grandate"},"geometry":{"type":"Polygon","coordinates":[[[9.0719,45.7717],[9.0561,45.7636],[9.0527,45.7605],[9.0493,45.762],[9.0471,45.7665],[9.0447,45.7753],[9.0505,45.7812],[9.0591,45.7814],[9.066,45.7787],[9.0705,45.7742],[9.0719,45.7717]]]}},{"type":"Feature","properties":{"i":"013111","n":"Grandola ed Uniti"},"geometry":{"type":"Polygon","coordinates":[[[9.2164,46.0307],[9.213,46.0283],[9.2146,46.0264],[9.2197,46.0241],[9.22,46.0226],[9.2176,46.0169],[9.215,46.0143],[9.2112,46.0134],[9.2098,46.0149],[9.2076,46.0152],[9.2007,46.011],[9.1955,46.006],[9.1863,46.0025],[9.1816,46.0031],[9.1696,46.0074],[9.1659,46.0099],[9.1818,46.0144],[9.1831,46.017],[9.1829,46.018],[9.1891,46.0293],[9.1896,46.0333],[9.1853,46.0354],[9.1796,46.0363],[9.1849,46.0467],[9.1864,46.0562],[9.181,46.0629],[9.1718,46.0693],[9.1782,46.075],[9.1813,46.0804],[9.1844,46.0837],[9.1971,46.0958],[9.2045,46.1006],[9.2099,46.0849],[9.1917,46.072],[9.187,46.0627],[9.19,46.0565],[9.1939,46.0516],[9.1986,46.0495],[9.2022,46.0492],[9.207,46.0457],[9.2127,46.0328],[9.2164,46.0307]]]}},{"type":"Feature","properties":{"i":"013113","n":"Griante"},"geometry":{"type":"Polygon","coordinates":[[[9.2612,46.0089],[9.2646,46.0008],[9.2563,45.9991],[9.243,45.9833],[9.2391,45.9812],[9.2285,45.9899],[9.222,45.9976],[9.2194,45.9983],[9.2174,46.0035],[9.2179,46.0058],[9.2267,46.009],[9.2612,46.0089]]]}},{"type":"Feature","properties":{"i":"013114","n":"Guanzate"},"geometry":{"type":"Polygon","coordinates":[[[9.0269,45.7383],[9.0271,45.7364],[9.0233,45.7148],[9.0193,45.7113],[9.0083,45.71],[9.0059,45.711],[8.9994,45.7169],[8.9974,45.717],[8.9965,45.7236],[8.9985,45.7261],[8.9967,45.732],[8.997,45.7387],[9.0126,45.741],[9.0204,45.7413],[9.0269,45.7383]]]}},{"type":"Feature","properties":{"i":"013118","n":"Inverigo"},"geometry":{"type":"Polygon","coordinates":[[[9.2552,45.7543],[9.2567,45.7522],[9.2567,45.751],[9.2471,45.7426],[9.2425,45.7293],[9.2352,45.727],[9.2316,45.7175],[9.2295,45.7173],[9.2279,45.7189],[9.2187,45.7201],[9.2145,45.722],[9.2123,45.7261],[9.2128,45.7352],[9.2099,45.7349],[9.2046,45.7305],[9.1965,45.7332],[9.1952,45.7419],[9.2021,45.7484],[9.207,45.7482],[9.2138,45.744],[9.2206,45.7485],[9.2322,45.7498],[9.2364,45.753],[9.2436,45.7522],[9.2513,45.7549],[9.2552,45.7543]]]}},{"type":"Feature","properties":{"i":"013119","n":"Laglio"},"geometry":{"type":"Polygon","coordinates":[[[9.1461,45.8999],[9.1501,45.8918],[9.1447,45.8744],[9.1411,45.8706],[9.131,45.8768],[9.1212,45.8814],[9.1166,45.8873],[9.1134,45.8952],[9.1158,45.8988],[9.1224,45.9002],[9.1382,45.8988],[9.1461,45.8999]]]}},{"type":"Feature","properties":{"i":"013120","n":"Laino"},"geometry":{"type":"Polygon","coordinates":[[[9.0818,45.994],[9.0805,45.9916],[9.0816,45.9888],[9.0873,45.9856],[9.0946,45.9844],[9.1009,45.9871],[9.108,45.9888],[9.1191,45.9905],[9.125,45.9905],[9.1316,45.9873],[9.133,45.9852],[9.1333,45.9804],[9.119,45.979],[9.1166,45.9814],[9.1152,45.9804],[9.1156,45.9789],[9.1069,45.9748],[9.0993,45.9729],[9.0924,45.9722],[9.0879,45.9755],[9.0746,45.9765],[9.0693,45.9754],[9.0745,45.9928],[9.0818,45.994]]]}},{"type":"Feature","properties":{"i":"013121","n":"Lambrugo"},"geometry":{"type":"Polygon","coordinates":[[[9.2442,45.7673],[9.2535,45.7579],[9.2552,45.7543],[9.2513,45.7549],[9.2436,45.7522],[9.2364,45.753],[9.2363,45.7709],[9.2442,45.7673]]]}},{"type":"Feature","properties":{"i":"013123","n":"Lasnigo"},"geometry":{"type":"Polygon","coordinates":[[[9.2841,45.8988],[9.2865,45.8959],[9.2862,45.8876],[9.2713,45.8743],[9.2663,45.8743],[9.2601,45.8762],[9.2485,45.8886],[9.2494,45.8962],[9.249,45.8988],[9.2547,45.8988],[9.2744,45.8951],[9.2815,45.8954],[9.2841,45.8988]]]}},{"type":"Feature","properties":{"i":"013126","n":"Lezzeno"},"geometry":{"type":"Polygon","coordinates":[[[9.2095,45.9156],[9.2051,45.9175],[9.1971,45.924],[9.193,45.9254],[9.18,45.9272],[9.1752,45.9268],[9.1637,45.9279],[9.1603,45.9289],[9.152,45.933],[9.1442,45.9413],[9.148,45.9436],[9.1484,45.9431],[9.1777,45.9548],[9.2018,45.9568],[9.2158,45.9695],[9.2325,45.9588],[9.2337,45.955],[9.2314,45.9468],[9.2202,45.9323],[9.2136,45.9209],[9.2109,45.9185],[9.2095,45.9156]]]}},{"type":"Feature","properties":{"i":"013128","n":"Limido Comasco"},"geometry":{"type":"Polygon","coordinates":[[[8.9878,45.6954],[8.987,45.6934],[8.9875,45.6862],[8.99,45.6818],[8.994,45.6823],[8.9979,45.6811],[8.9975,45.6786],[8.9851,45.6705],[8.9839,45.6754],[8.9796,45.6786],[8.9778,45.6798],[8.9717,45.6808],[8.9662,45.684],[8.9608,45.6912],[8.9593,45.6992],[8.963,45.7],[8.9779,45.6962],[8.9862,45.6969],[8.9878,45.6954]]]}},{"type":"Feature","properties":{"i":"013129","n":"Lipomo"},"geometry":{"type":"Polygon","coordinates":[[[9.1304,45.7974],[9.1322,45.7957],[9.1321,45.7947],[9.1298,45.793],[9.1271,45.7926],[9.1284,45.79],[9.1343,45.7865],[9.1296,45.7818],[9.1272,45.783],[9.1135,45.7847],[9.114,45.787],[9.113,45.7887],[9.1112,45.7895],[9.1112,45.794],[9.1117,45.796],[9.1141,45.7985],[9.1203,45.7986],[9.1304,45.7974]]]}},{"type":"Feature","properties":{"i":"013130","n":"Livo"},"geometry":{"type":"Polygon","coordinates":[[[9.3097,46.2373],[9.3171,46.2349],[9.3334,46.2348],[9.3357,46.2331],[9.3309,46.2153],[9.3286,46.2113],[9.3267,46.1971],[9.3165,46.1893],[9.3156,46.1873],[9.3146,46.1804],[9.3153,46.1764],[9.317,46.1744],[9.3179,46.1643],[9.3136,46.162],[9.3108,46.1615],[9.2999,46.1622],[9.2975,46.1645],[9.2949,46.1698],[9.2931,46.1742],[9.3013,46.1775],[9.3032,46.1796],[9.3009,46.1831],[9.2944,46.1839],[9.2904,46.1854],[9.2824,46.1902],[9.2802,46.1918],[9.2803,46.1934],[9.2785,46.1965],[9.2727,46.202],[9.2683,46.2035],[9.2597,46.2029],[9.2555,46.204],[9.2461,46.2322],[9.2476,46.2336],[9.2555,46.2323],[9.2617,46.2333],[9.2752,46.2396],[9.303,46.2356],[9.3097,46.2373]]]}},{"type":"Feature","properties":{"i":"013131","n":"Locate Varesino"},"geometry":{"type":"Polygon","coordinates":[[[8.9479,45.7066],[8.9481,45.705],[8.9458,45.6992],[8.931,45.6813],[8.914,45.6752],[8.9112,45.6759],[8.9077,45.6748],[8.8987,45.6767],[8.8963,45.6802],[8.8947,45.6846],[8.9055,45.6856],[8.9151,45.6887],[8.9319,45.6969],[8.9312,45.7065],[8.9319,45.7068],[8.9402,45.7106],[8.9479,45.7066]]]}},{"type":"Feature","properties":{"i":"013133","n":"Lomazzo"},"geometry":{"type":"Polygon","coordinates":[[[9.0482,45.7086],[9.0501,45.7049],[9.0476,45.7009],[9.0473,45.6958],[9.05,45.689],[9.0496,45.6849],[9.0442,45.678],[9.0445,45.6711],[9.0431,45.6696],[9.0337,45.671],[9.0331,45.6724],[9.0296,45.6749],[9.0252,45.6749],[9.0133,45.6789],[9.016,45.6816],[9.0173,45.6965],[9.0204,45.7037],[9.0207,45.7088],[9.0193,45.7113],[9.0233,45.7148],[9.0304,45.7125],[9.0333,45.7078],[9.0398,45.704],[9.043,45.7079],[9.0482,45.7086]]]}},{"type":"Feature","properties":{"i":"013134","n":"Longone al Segrino"},"geometry":{"type":"Polygon","coordinates":[[[9.2729,45.8367],[9.268,45.8318],[9.2623,45.8279],[9.2552,45.8165],[9.2547,45.8109],[9.2498,45.813],[9.2448,45.8137],[9.2447,45.8175],[9.2462,45.8217],[9.2484,45.8211],[9.2571,45.8254],[9.2681,45.8367],[9.2729,45.8367]]]}},{"type":"Feature","properties":{"i":"013135","n":"Luisago"},"geometry":{"type":"Polygon","coordinates":[[[9.0471,45.7665],[9.0493,45.762],[9.0527,45.7605],[9.0561,45.7636],[9.0575,45.7571],[9.0554,45.7588],[9.052,45.759],[9.044,45.7524],[9.0409,45.7554],[9.0313,45.7559],[9.0285,45.7576],[9.033,45.766],[9.0354,45.7687],[9.0389,45.7688],[9.0442,45.766],[9.0471,45.7665]]]}},{"type":"Feature","properties":{"i":"013136","n":"Lurago d'Erba"},"geometry":{"type":"Polygon","coordinates":[[[9.2363,45.7709],[9.2364,45.753],[9.2322,45.7498],[9.2206,45.7485],[9.2138,45.744],[9.207,45.7482],[9.2021,45.7484],[9.1983,45.75],[9.209,45.7592],[9.2243,45.7653],[9.2367,45.7713],[9.2363,45.7709]]]}},{"type":"Feature","properties":{"i":"013137","n":"Lurago Marinone"},"geometry":{"type":"Polygon","coordinates":[[[8.9921,45.7084],[8.9878,45.6954],[8.9862,45.6969],[8.9779,45.6962],[8.9609,45.7],[8.9596,45.7147],[8.9605,45.7153],[8.9609,45.7134],[8.9638,45.7117],[8.9731,45.7105],[8.9858,45.7125],[8.9878,45.7122],[8.9921,45.7084]]]}},{"type":"Feature","properties":{"i":"013138","n":"Lurate Caccivio"},"geometry":{"type":"Polygon","coordinates":[[[9.0102,45.761],[8.9942,45.7539],[8.9908,45.7508],[8.9888,45.7465],[8.9855,45.7503],[8.987,45.7544],[8.986,45.7572],[8.9708,45.7605],[8.9699,45.7622],[8.9718,45.7642],[8.9866,45.7729],[8.9942,45.7802],[8.9953,45.783],[8.9979,45.7835],[9.011,45.7694],[9.0102,45.761]]]}},{"type":"Feature","properties":{"i":"013139","n":"Magreglio"},"geometry":{"type":"Polygon","coordinates":[[[9.2717,45.9215],[9.2672,45.9172],[9.2417,45.9109],[9.2196,45.9119],[9.2175,45.9137],[9.2229,45.9124],[9.2323,45.9132],[9.2378,45.9145],[9.2404,45.9155],[9.2379,45.9193],[9.2388,45.9212],[9.2468,45.9242],[9.258,45.9258],[9.2629,45.9263],[9.2683,45.9255],[9.2717,45.9215]]]}},{"type":"Feature","properties":{"i":"013143","n":"Mariano Comense"},"geometry":{"type":"Polygon","coordinates":[[[9.1808,45.7249],[9.1839,45.7242],[9.1853,45.7224],[9.187,45.7152],[9.1852,45.7114],[9.1884,45.7036],[9.1953,45.6983],[9.1965,45.6949],[9.1961,45.6871],[9.1918,45.6784],[9.1944,45.6677],[9.1866,45.6656],[9.1851,45.6713],[9.1798,45.6784],[9.1593,45.6877],[9.1545,45.6874],[9.1538,45.6866],[9.1473,45.6917],[9.1503,45.6931],[9.149,45.6973],[9.1475,45.6988],[9.1471,45.7028],[9.1519,45.7092],[9.158,45.709],[9.1617,45.711],[9.1669,45.7183],[9.17,45.7191],[9.1732,45.7272],[9.1808,45.7249]]]}},{"type":"Feature","properties":{"i":"013144","n":"Maslianico"},"geometry":{"type":"Polygon","coordinates":[[[9.0562,45.8387],[9.0492,45.839],[9.0464,45.8409],[9.0388,45.8422],[9.0383,45.8437],[9.0405,45.8466],[9.0493,45.8522],[9.0521,45.8503],[9.0558,45.8459],[9.0562,45.8387]]]}},{"type":"Feature","properties":{"i":"013145","n":"Menaggio"},"geometry":{"type":"Polygon","coordinates":[[[9.2685,46.0324],[9.2648,46.0301],[9.2631,46.0245],[9.2639,46.0228],[9.2632,46.0186],[9.2609,46.0145],[9.2612,46.0089],[9.2267,46.009],[9.2174,46.0054],[9.2119,46.0054],[9.2012,46.0059],[9.1984,46.0093],[9.2076,46.0152],[9.2098,46.0149],[9.2112,46.0134],[9.215,46.0143],[9.2176,46.0169],[9.22,46.0226],[9.2197,46.0241],[9.2146,46.0264],[9.2132,46.0278],[9.2136,46.0288],[9.2164,46.0307],[9.2219,46.0323],[9.2334,46.033],[9.2443,46.0421],[9.2483,46.0387],[9.2685,46.0324]]]}},{"type":"Feature","properties":{"i":"013147","n":"Merone"},"geometry":{"type":"Polygon","coordinates":[[[9.2538,45.7928],[9.2583,45.7925],[9.2619,45.7896],[9.2629,45.7863],[9.2619,45.7808],[9.2585,45.781],[9.2503,45.7791],[9.2495,45.7756],[9.2442,45.7673],[9.2363,45.7709],[9.2411,45.7731],[9.2414,45.777],[9.2386,45.7842],[9.2379,45.7917],[9.2388,45.7946],[9.2414,45.7957],[9.2442,45.7948],[9.2498,45.7912],[9.2538,45.7928]]]}},{"type":"Feature","properties":{"i":"013152","n":"Moltrasio"},"geometry":{"type":"Polygon","coordinates":[[[9.1134,45.8623],[9.104,45.8535],[9.0956,45.848],[9.0884,45.8496],[9.0872,45.8532],[9.0771,45.8612],[9.0785,45.8705],[9.082,45.8733],[9.0817,45.8789],[9.0791,45.8823],[9.0778,45.8856],[9.0783,45.8875],[9.0818,45.8922],[9.0867,45.8966],[9.0888,45.9007],[9.1025,45.8907],[9.0986,45.8872],[9.096,45.8803],[9.1083,45.8664],[9.1134,45.8623]]]}},{"type":"Feature","properties":{"i":"013153","n":"Monguzzo"},"geometry":{"type":"Polygon","coordinates":[[[9.2386,45.7876],[9.2386,45.7842],[9.2414,45.777],[9.2411,45.7731],[9.2243,45.7653],[9.2256,45.7674],[9.2212,45.772],[9.2195,45.7773],[9.2165,45.7786],[9.2142,45.7786],[9.2136,45.7868],[9.2171,45.7886],[9.233,45.79],[9.2386,45.7876]]]}},{"type":"Feature","properties":{"i":"013154","n":"Montano Lucino"},"geometry":{"type":"Polygon","coordinates":[[[9.0469,45.7924],[9.0474,45.7896],[9.0493,45.787],[9.051,45.7827],[9.0505,45.7812],[9.0447,45.7753],[9.0371,45.7807],[9.0374,45.7834],[9.0324,45.786],[9.014,45.7886],[9.0078,45.7865],[9.0045,45.7872],[9.0091,45.7909],[9.016,45.7992],[9.0186,45.804],[9.021,45.8046],[9.0258,45.8039],[9.0328,45.8012],[9.0423,45.7958],[9.0414,45.7943],[9.0429,45.7932],[9.0459,45.792],[9.0469,45.7924]]]}},{"type":"Feature","properties":{"i":"013155","n":"Montemezzo"},"geometry":{"type":"Polygon","coordinates":[[[9.3807,46.2124],[9.3791,46.2074],[9.3727,46.1981],[9.3733,46.1955],[9.3812,46.1826],[9.3818,46.1797],[9.3813,46.1758],[9.3666,46.1729],[9.3646,46.1765],[9.3525,46.1825],[9.3517,46.1861],[9.3527,46.1885],[9.3508,46.2066],[9.349,46.2092],[9.3519,46.2193],[9.3548,46.2212],[9.3581,46.2192],[9.3738,46.2131],[9.3807,46.2124]]]}},{"type":"Feature","properties":{"i":"013157","n":"Montorfano"},"geometry":{"type":"Polygon","coordinates":[[[9.1533,45.7876],[9.1641,45.7846],[9.1649,45.7825],[9.1639,45.7806],[9.1607,45.7781],[9.1577,45.7794],[9.1538,45.7761],[9.1492,45.7702],[9.1392,45.7736],[9.1308,45.7778],[9.1313,45.7787],[9.1336,45.7783],[9.1331,45.7809],[9.1296,45.7818],[9.1343,45.7865],[9.1347,45.7894],[9.1395,45.7911],[9.1441,45.7886],[9.1522,45.7866],[9.1533,45.7876]]]}},{"type":"Feature","properties":{"i":"013159","n":"Mozzate"},"geometry":{"type":"Polygon","coordinates":[[[8.9595,45.7107],[8.9609,45.7],[8.9593,45.6992],[8.9606,45.6918],[8.9623,45.6885],[8.9662,45.684],[8.9697,45.6817],[8.9725,45.6805],[8.9778,45.6798],[8.9746,45.6748],[8.9663,45.6655],[8.9558,45.6617],[8.9508,45.6606],[8.9479,45.6609],[8.9432,45.6586],[8.9347,45.6529],[8.935,45.6524],[8.9319,45.6512],[8.928,45.6546],[8.9227,45.6626],[8.9219,45.6701],[8.9416,45.6766],[8.9492,45.6824],[8.952,45.6887],[8.949,45.6971],[8.9507,45.7034],[8.953,45.7087],[8.9571,45.7109],[8.9595,45.7107]]]}},{"type":"Feature","properties":{"i":"013160","n":"Musso"},"geometry":{"type":"Polygon","coordinates":[[[9.2923,46.1158],[9.2951,46.1075],[9.279,46.1079],[9.2419,46.1116],[9.2448,46.1145],[9.2531,46.1193],[9.2619,46.1213],[9.2803,46.1165],[9.2923,46.1158]]]}},{"type":"Feature","properties":{"i":"013161","n":"Nesso"},"geometry":{"type":"Polygon","coordinates":[[[9.1752,45.9268],[9.1732,45.9239],[9.1681,45.9201],[9.1659,45.91],[9.1722,45.904],[9.1755,45.902],[9.2058,45.8885],[9.209,45.8835],[9.2058,45.8714],[9.1989,45.8749],[9.1884,45.8773],[9.1776,45.8846],[9.1707,45.8908],[9.1616,45.8936],[9.1575,45.8938],[9.1541,45.8917],[9.1501,45.8918],[9.1422,45.9078],[9.142,45.9184],[9.14,45.9313],[9.1387,45.934],[9.1442,45.9413],[9.1536,45.932],[9.1637,45.9279],[9.1752,45.9268]]]}},{"type":"Feature","properties":{"i":"013163","n":"Novedrate"},"geometry":{"type":"Polygon","coordinates":[[[9.1483,45.7042],[9.1471,45.7028],[9.1473,45.6999],[9.1478,45.6981],[9.149,45.6973],[9.1503,45.6931],[9.1468,45.6914],[9.1392,45.6948],[9.1296,45.6926],[9.1236,45.6898],[9.1215,45.6907],[9.118,45.6962],[9.1175,45.7036],[9.1202,45.7096],[9.1271,45.7018],[9.129,45.7014],[9.1394,45.7011],[9.1456,45.7045],[9.1483,45.7042]]]}},{"type":"Feature","properties":{"i":"013165","n":"Olgiate Comasco"},"geometry":{"type":"Polygon","coordinates":[[[8.9953,45.783],[8.9942,45.7802],[8.9866,45.7729],[8.9718,45.7642],[8.9699,45.7624],[8.9676,45.7644],[8.9663,45.7711],[8.9612,45.7755],[8.9441,45.7865],[8.941,45.7961],[8.9531,45.8],[8.9602,45.7993],[8.989,45.8018],[8.9912,45.7962],[8.9905,45.7865],[8.9953,45.783]]]}},{"type":"Feature","properties":{"i":"013169","n":"Oltrona di San Mamette"},"geometry":{"type":"Polygon","coordinates":[[[8.9699,45.7622],[8.9708,45.7605],[8.986,45.7572],[8.987,45.7544],[8.9855,45.7503],[8.9862,45.749],[8.9825,45.7483],[8.9583,45.7501],[8.9541,45.7555],[8.9568,45.7562],[8.9643,45.7624],[8.9699,45.7622]]]}},{"type":"Feature","properties":{"i":"013170","n":"Orsenigo"},"geometry":{"type":"Polygon","coordinates":[[[9.196,45.7875],[9.1946,45.776],[9.1863,45.7702],[9.1771,45.7714],[9.1704,45.7745],[9.1688,45.7771],[9.1626,45.7745],[9.1581,45.7679],[9.1577,45.7659],[9.1596,45.7629],[9.1492,45.7702],[9.1538,45.7761],[9.1577,45.7794],[9.1603,45.7779],[9.1639,45.7806],[9.1649,45.7825],[9.1641,45.7846],[9.1774,45.7841],[9.1812,45.7833],[9.1857,45.786],[9.1869,45.7887],[9.1929,45.7887],[9.196,45.7875]]]}},{"type":"Feature","properties":{"i":"013178","n":"Peglio"},"geometry":{"type":"Polygon","coordinates":[[[9.2999,46.1622],[9.3045,46.1563],[9.3025,46.1546],[9.2798,46.1618],[9.2693,46.1727],[9.2603,46.1843],[9.2533,46.1865],[9.2515,46.193],[9.2518,46.1976],[9.2534,46.2025],[9.2555,46.204],[9.2597,46.2029],[9.2683,46.2035],[9.2727,46.202],[9.2785,46.1965],[9.2803,46.1934],[9.2802,46.1918],[9.2824,46.1902],[9.2904,46.1854],[9.2944,46.1839],[9.3009,46.1831],[9.3031,46.1801],[9.3013,46.1775],[9.2931,46.1742],[9.2975,46.1645],[9.2999,46.1622]]]}},{"type":"Feature","properties":{"i":"013183","n":"Pianello del Lario"},"geometry":{"type":"Polygon","coordinates":[[[9.2951,46.1075],[9.2987,46.1045],[9.2981,46.0976],[9.2952,46.0916],[9.28,46.0928],[9.2673,46.0927],[9.2594,46.0936],[9.2503,46.0954],[9.2303,46.1014],[9.2222,46.1008],[9.2145,46.1014],[9.2214,46.1102],[9.2325,46.1101],[9.2448,46.1145],[9.2419,46.1116],[9.279,46.1079],[9.2951,46.1075]]]}},{"type":"Feature","properties":{"i":"013184","n":"Pigra"},"geometry":{"type":"Polygon","coordinates":[[[9.1374,45.9526],[9.1355,45.9538],[9.1322,45.9542],[9.1281,45.9534],[9.1118,45.9566],[9.1083,45.956],[9.1076,45.9543],[9.1068,45.9553],[9.1084,45.9587],[9.1106,45.9605],[9.1142,45.9744],[9.119,45.979],[9.1279,45.9799],[9.1274,45.9782],[9.1292,45.9694],[9.1315,45.9642],[9.1425,45.9589],[9.1419,45.9555],[9.1374,45.9526]]]}},{"type":"Feature","properties":{"i":"013185","n":"Plesio"},"geometry":{"type":"Polygon","coordinates":[[[9.2209,46.0973],[9.2232,46.0954],[9.2251,46.0836],[9.2221,46.0765],[9.2198,46.0668],[9.2328,46.0608],[9.2389,46.0557],[9.2444,46.0495],[9.2439,46.0466],[9.2421,46.0458],[9.2419,46.0447],[9.2428,46.0429],[9.2443,46.0421],[9.2334,46.033],[9.225,46.0328],[9.2164,46.0307],[9.2127,46.0328],[9.207,46.0457],[9.2022,46.0492],[9.1986,46.0495],[9.1939,46.0516],[9.19,46.0565],[9.187,46.0627],[9.1917,46.072],[9.2099,46.0849],[9.205,46.1005],[9.2209,46.0973]]]}},{"type":"Feature","properties":{"i":"013186","n":"Pognana Lario"},"geometry":{"type":"Polygon","coordinates":[[[9.184,45.88],[9.1803,45.8765],[9.1685,45.8719],[9.1621,45.8712],[9.1447,45.8744],[9.1501,45.8918],[9.1541,45.8917],[9.1575,45.8938],[9.1616,45.8936],[9.1718,45.8904],[9.1776,45.8846],[9.184,45.88]]]}},{"type":"Feature","properties":{"i":"013187","n":"Ponna"},"geometry":{"type":"Polygon","coordinates":[[[9.1474,46.0003],[9.1412,45.9982],[9.1367,45.9958],[9.1313,45.9881],[9.133,45.9878],[9.1316,45.9873],[9.125,45.9905],[9.1191,45.9905],[9.1009,45.9871],[9.0946,45.9844],[9.0873,45.9856],[9.0816,45.9888],[9.0805,45.9916],[9.0827,45.995],[9.0884,45.9977],[9.1121,46.0009],[9.1139,46.0],[9.1195,45.9996],[9.1297,46.0009],[9.1348,46.0037],[9.1363,46.0069],[9.1474,46.0003]]]}},{"type":"Feature","properties":{"i":"013188","n":"Ponte Lambro"},"geometry":{"type":"Polygon","coordinates":[[[9.2302,45.8352],[9.2279,45.834],[9.2292,45.8311],[9.2311,45.8296],[9.2372,45.8276],[9.2261,45.8201],[9.22,45.8188],[9.2127,45.8211],[9.2055,45.8367],[9.2048,45.8399],[9.2127,45.8401],[9.2205,45.8381],[9.2196,45.8367],[9.2302,45.8352]]]}},{"type":"Feature","properties":{"i":"013189","n":"Porlezza"},"geometry":{"type":"Polygon","coordinates":[[[9.1402,46.0428],[9.1407,46.0369],[9.1379,46.0341],[9.1392,46.0328],[9.1458,46.0309],[9.1561,46.0324],[9.158,46.0209],[9.1607,46.0118],[9.1474,46.0003],[9.1363,46.0069],[9.1305,46.0094],[9.125,46.0164],[9.1252,46.0205],[9.1243,46.0216],[9.1153,46.0285],[9.0963,46.0179],[9.0871,46.0158],[9.0799,46.0165],[9.0814,46.0313],[9.088,46.0414],[9.099,46.0523],[9.0988,46.0555],[9.103,46.0549],[9.1141,46.0505],[9.1184,46.045],[9.1402,46.0428]]]}},{"type":"Feature","properties":{"i":"013192","n":"Proserpio"},"geometry":{"type":"Polygon","coordinates":[[[9.2462,45.8217],[9.2451,45.8229],[9.2386,45.8247],[9.2379,45.826],[9.2393,45.8291],[9.2564,45.8372],[9.2579,45.8389],[9.2681,45.8367],[9.2571,45.8254],[9.2484,45.8211],[9.2462,45.8217]]]}},{"type":"Feature","properties":{"i":"013193","n":"Pusiano"},"geometry":{"type":"Polygon","coordinates":[[[9.2742,45.8041],[9.2659,45.8086],[9.2642,45.8101],[9.2645,45.8108],[9.2678,45.8128],[9.2764,45.8158],[9.2795,45.8186],[9.2873,45.8331],[9.2905,45.8348],[9.3001,45.8368],[9.2979,45.8315],[9.2944,45.8282],[9.291,45.8265],[9.289,45.8272],[9.2856,45.823],[9.286,45.8179],[9.2879,45.815],[9.2914,45.8156],[9.2935,45.8151],[9.2938,45.8127],[9.2905,45.8105],[9.2742,45.8041]]]}},{"type":"Feature","properties":{"i":"013195","n":"Rezzago"},"geometry":{"type":"Polygon","coordinates":[[[9.2484,45.8698],[9.2584,45.8665],[9.2516,45.8642],[9.2478,45.862],[9.2469,45.8561],[9.2479,45.8558],[9.2531,45.8579],[9.2537,45.8579],[9.2535,45.8563],[9.2511,45.8526],[9.2454,45.849],[9.2323,45.8456],[9.231,45.8477],[9.2318,45.8488],[9.2309,45.8522],[9.2269,45.8562],[9.2244,45.8567],[9.2199,45.8538],[9.2151,45.8537],[9.211,45.8575],[9.2122,45.8592],[9.2204,45.8565],[9.2251,45.858],[9.2294,45.8615],[9.2298,45.8632],[9.2364,45.8666],[9.2442,45.8702],[9.2484,45.8698]]]}},{"type":"Feature","properties":{"i":"013197","n":"Rodero"},"geometry":{"type":"Polygon","coordinates":[[[8.9294,45.8333],[8.9291,45.8213],[8.9191,45.8189],[8.9107,45.8147],[8.907,45.8154],[8.9082,45.8186],[8.9095,45.8296],[8.9124,45.8303],[8.9189,45.8336],[8.9294,45.8333]]]}},{"type":"Feature","properties":{"i":"013201","n":"Rovellasca"},"geometry":{"type":"Polygon","coordinates":[[[9.0457,45.68],[9.0585,45.6724],[9.0638,45.6733],[9.0616,45.6672],[9.0624,45.6632],[9.0609,45.6577],[9.0529,45.6574],[9.0495,45.6611],[9.0403,45.6651],[9.0289,45.6665],[9.0284,45.6694],[9.0296,45.6749],[9.0331,45.6724],[9.0337,45.671],[9.0431,45.6696],[9.0445,45.6711],[9.0442,45.678],[9.0457,45.68]]]}},{"type":"Feature","properties":{"i":"013202","n":"Rovello Porro"},"geometry":{"type":"Polygon","coordinates":[[[9.0296,45.6749],[9.0284,45.6694],[9.0289,45.6665],[9.0403,45.6651],[9.0495,45.6611],[9.0528,45.6581],[9.0559,45.65],[9.0557,45.6465],[9.0433,45.6431],[9.0361,45.6425],[9.0282,45.6432],[9.0284,45.6457],[9.027,45.6489],[9.0255,45.6488],[9.0205,45.6459],[9.0221,45.6481],[9.0251,45.6599],[9.0229,45.6693],[9.0252,45.6749],[9.0296,45.6749]]]}},{"type":"Feature","properties":{"i":"013203","n":"Sala Comacina"},"geometry":{"type":"Polygon","coordinates":[[[9.1715,45.9525],[9.1677,45.9509],[9.167,45.9525],[9.1593,45.959],[9.1574,45.9599],[9.155,45.9597],[9.1421,45.9793],[9.1342,45.9855],[9.133,45.9878],[9.1391,45.9899],[9.1723,45.967],[9.1728,45.9662],[9.1715,45.9525]]]}},{"type":"Feature","properties":{"i":"013204","n":"San Bartolomeo Val Cavargna"},"geometry":{"type":"Polygon","coordinates":[[[9.1856,46.1125],[9.1822,46.1095],[9.1761,46.1067],[9.1723,46.1016],[9.1727,46.1001],[9.1764,46.096],[9.1765,46.0937],[9.164,46.0792],[9.1607,46.0787],[9.1583,46.0805],[9.1511,46.079],[9.1484,46.078],[9.1456,46.0731],[9.1421,46.0767],[9.1389,46.0777],[9.1271,46.0723],[9.1278,46.0742],[9.1307,46.0767],[9.1416,46.0849],[9.1464,46.1102],[9.1493,46.117],[9.1569,46.1184],[9.1696,46.1171],[9.1856,46.1125]]]}},{"type":"Feature","properties":{"i":"013206","n":"San Fermo della Battaglia"},"geometry":{"type":"Polygon","coordinates":[[[9.0469,45.7924],[9.0459,45.792],[9.0429,45.7932],[9.0414,45.7943],[9.0423,45.7958],[9.031,45.802],[9.0258,45.8039],[9.021,45.8046],[9.0186,45.804],[9.0174,45.8068],[9.0214,45.8216],[9.0244,45.8222],[9.0306,45.8208],[9.0338,45.8226],[9.0405,45.8194],[9.058,45.8061],[9.0535,45.8032],[9.0507,45.8004],[9.0469,45.7924]]]}},{"type":"Feature","properties":{"i":"013207","n":"San Nazzaro Val Cavargna"},"geometry":{"type":"Polygon","coordinates":[[[9.1208,46.1346],[9.127,46.1336],[9.1327,46.1347],[9.1391,46.1323],[9.1447,46.1267],[9.1576,46.1184],[9.1529,46.1179],[9.1486,46.1165],[9.1464,46.1102],[9.1416,46.0849],[9.1307,46.0767],[9.1278,46.0742],[9.1271,46.0723],[9.1234,46.0714],[9.118,46.0778],[9.1172,46.0816],[9.1181,46.0838],[9.1215,46.0868],[9.1204,46.093],[9.1179,46.0987],[9.1192,46.1172],[9.1174,46.1311],[9.1153,46.135],[9.1208,46.1346]]]}},{"type":"Feature","properties":{"i":"013211","n":"Schignano"},"geometry":{"type":"Polygon","coordinates":[[[9.1041,45.9391],[9.1011,45.9368],[9.1009,45.9349],[9.1021,45.9337],[9.1174,45.9331],[9.1161,45.9192],[9.1139,45.9141],[9.1052,45.9057],[9.1052,45.9024],[9.1067,45.8989],[9.0917,45.8982],[9.0866,45.9021],[9.078,45.8998],[9.0763,45.9035],[9.0779,45.904],[9.0795,45.9068],[9.082,45.9164],[9.0809,45.9261],[9.0879,45.9328],[9.0866,45.9365],[9.0874,45.9397],[9.0952,45.9415],[9.1041,45.9391]]]}},{"type":"Feature","properties":{"i":"013212","n":"Senna Comasco"},"geometry":{"type":"Polygon","coordinates":[[[9.1096,45.7731],[9.1166,45.7616],[9.1007,45.7533],[9.0965,45.7538],[9.0863,45.7499],[9.0852,45.7487],[9.0843,45.7496],[9.0849,45.7554],[9.0903,45.7585],[9.0947,45.7596],[9.0994,45.7625],[9.1009,45.7694],[9.1076,45.7715],[9.1096,45.7731]]]}},{"type":"Feature","properties":{"i":"013216","n":"Sorico"},"geometry":{"type":"Polygon","coordinates":[[[9.4408,46.2145],[9.4249,46.1899],[9.4242,46.1551],[9.4204,46.1581],[9.416,46.1547],[9.4123,46.155],[9.4072,46.1625],[9.4051,46.1676],[9.4123,46.1718],[9.408,46.1744],[9.4036,46.1719],[9.4016,46.1672],[9.403,46.1654],[9.401,46.1615],[9.3941,46.1542],[9.3922,46.1538],[9.3819,46.1562],[9.3769,46.1663],[9.3762,46.173],[9.3779,46.175],[9.3812,46.1754],[9.3818,46.1797],[9.3812,46.1826],[9.3733,46.1955],[9.3727,46.1981],[9.3791,46.2074],[9.3807,46.2124],[9.3905,46.2111],[9.4002,46.2119],[9.4136,46.2154],[9.4195,46.2198],[9.4244,46.2217],[9.4408,46.2145]]]}},{"type":"Feature","properties":{"i":"013217","n":"Sormano"},"geometry":{"type":"Polygon","coordinates":[[[9.2451,45.9119],[9.247,45.9107],[9.2493,45.9011],[9.2485,45.8886],[9.2572,45.8798],[9.2537,45.8783],[9.252,45.8763],[9.2456,45.8721],[9.2367,45.8771],[9.216,45.8857],[9.2133,45.8856],[9.209,45.8835],[9.2058,45.8885],[9.2091,45.8917],[9.2155,45.9012],[9.2155,45.9059],[9.2146,45.9086],[9.2151,45.9119],[9.2164,45.914],[9.2196,45.9119],[9.2417,45.9109],[9.2451,45.9119]]]}},{"type":"Feature","properties":{"i":"013218","n":"Stazzona"},"geometry":{"type":"Polygon","coordinates":[[[9.2837,46.1392],[9.2755,46.1326],[9.2675,46.1323],[9.271,46.1369],[9.2695,46.1381],[9.2625,46.1406],[9.2328,46.1557],[9.2166,46.1549],[9.2135,46.1481],[9.2076,46.1491],[9.2087,46.1542],[9.2083,46.1598],[9.2151,46.1607],[9.2214,46.16],[9.2285,46.1652],[9.2373,46.165],[9.2466,46.1614],[9.2524,46.1566],[9.251,46.1532],[9.2521,46.1516],[9.2609,46.151],[9.2681,46.1542],[9.2741,46.1538],[9.2793,46.151],[9.2849,46.1432],[9.2837,46.1392]]]}},{"type":"Feature","properties":{"i":"013222","n":"Tavernerio"},"geometry":{"type":"Polygon","coordinates":[[[9.1466,45.8359],[9.1558,45.8377],[9.1504,45.832],[9.1499,45.8271],[9.1513,45.8239],[9.1571,45.8202],[9.1624,45.8154],[9.1616,45.8101],[9.1596,45.807],[9.1561,45.805],[9.1516,45.7952],[9.1502,45.7915],[9.1504,45.7896],[9.1533,45.7876],[9.1526,45.7868],[9.1441,45.7886],[9.1395,45.7911],[9.1347,45.7894],[9.1343,45.7865],[9.1332,45.7867],[9.1284,45.79],[9.1271,45.7926],[9.1298,45.793],[9.1321,45.7947],[9.1322,45.7957],[9.1304,45.7974],[9.1358,45.7984],[9.1369,45.8001],[9.1281,45.8033],[9.1198,45.8076],[9.1239,45.8081],[9.1233,45.8154],[9.1217,45.8194],[9.1217,45.8263],[9.123,45.8294],[9.1276,45.8307],[9.1317,45.836],[9.1358,45.8387],[9.138,45.8368],[9.1391,45.834],[9.1428,45.8339],[9.1466,45.8359]]]}},{"type":"Feature","properties":{"i":"013223","n":"Torno"},"geometry":{"type":"Polygon","coordinates":[[[9.1466,45.8359],[9.1428,45.8339],[9.1391,45.834],[9.138,45.8368],[9.1358,45.8387],[9.1317,45.836],[9.1248,45.8361],[9.1219,45.8393],[9.1197,45.8435],[9.104,45.8535],[9.1134,45.8623],[9.1366,45.8677],[9.1477,45.8389],[9.1466,45.8359]]]}},{"type":"Feature","properties":{"i":"013226","n":"Trezzone"},"geometry":{"type":"Polygon","coordinates":[[[9.3491,46.1675],[9.3427,46.1749],[9.3389,46.1855],[9.3396,46.1911],[9.3428,46.193],[9.3467,46.2003],[9.349,46.2092],[9.3508,46.2066],[9.3527,46.1885],[9.3517,46.1861],[9.3525,46.1825],[9.3646,46.1765],[9.3667,46.1736],[9.3666,46.1729],[9.3626,46.1709],[9.3491,46.1675]]]}},{"type":"Feature","properties":{"i":"013227","n":"Turate"},"geometry":{"type":"Polygon","coordinates":[[[9.011,45.6799],[9.0252,45.6749],[9.0229,45.6693],[9.0251,45.6599],[9.0221,45.6481],[9.0201,45.6448],[9.0182,45.644],[9.0026,45.6457],[8.9858,45.6491],[8.9812,45.6455],[8.9783,45.6482],[8.9819,45.6521],[8.9842,45.6533],[8.9858,45.6624],[8.9847,45.6681],[8.9851,45.6705],[8.9975,45.6786],[8.9979,45.6811],[9.0013,45.6789],[9.0038,45.6751],[9.0065,45.6751],[9.011,45.6799]]]}},{"type":"Feature","properties":{"i":"013229","n":"Valbrona"},"geometry":{"type":"Polygon","coordinates":[[[9.3302,45.8635],[9.3275,45.8624],[9.3142,45.8621],[9.2869,45.8568],[9.2806,45.8649],[9.2781,45.8655],[9.2761,45.8701],[9.282,45.8766],[9.2839,45.8799],[9.286,45.8857],[9.2865,45.8959],[9.2894,45.8932],[9.2924,45.8924],[9.3027,45.8936],[9.3043,45.8994],[9.3124,45.9054],[9.3241,45.8958],[9.3158,45.8897],[9.3154,45.8882],[9.3183,45.8823],[9.3209,45.8796],[9.3266,45.8781],[9.3319,45.8728],[9.3328,45.8666],[9.3323,45.8646],[9.3302,45.8635]]]}},{"type":"Feature","properties":{"i":"013232","n":"Valmorea"},"geometry":{"type":"Polygon","coordinates":[[[8.9464,45.8291],[8.9452,45.8244],[8.9454,45.8172],[8.9478,45.8153],[8.9399,45.8137],[8.9337,45.8108],[8.9295,45.8066],[8.9253,45.812],[8.9212,45.8153],[8.9191,45.8189],[8.9291,45.8213],[8.9292,45.8293],[8.9464,45.8291]]]}},{"type":"Feature","properties":{"i":"013233","n":"Val Rezzo"},"geometry":{"type":"Polygon","coordinates":[[[9.118,46.0778],[9.1237,46.0705],[9.1197,46.0673],[9.1135,46.066],[9.1084,46.0632],[9.1036,46.0601],[9.0998,46.0555],[9.0988,46.0555],[9.0961,46.0604],[9.0915,46.0629],[9.0882,46.0641],[9.0779,46.0653],[9.0788,46.0756],[9.0894,46.085],[9.118,46.0778]]]}},{"type":"Feature","properties":{"i":"013234","n":"Valsolda"},"geometry":{"type":"Polygon","coordinates":[[[9.0988,46.0555],[9.099,46.0523],[9.088,46.0414],[9.0814,46.0313],[9.0799,46.0165],[9.0771,46.0158],[9.05,46.0177],[9.0488,46.0138],[9.0494,46.0085],[9.0514,46.0068],[9.0522,46.0045],[9.0399,45.9972],[9.0302,45.9937],[9.0283,45.9937],[9.0253,45.9995],[9.0223,46.0165],[9.0101,46.0261],[9.0082,46.0291],[9.0089,46.0362],[9.0158,46.0464],[9.0238,46.0526],[9.0478,46.0617],[9.0616,46.0612],[9.0725,46.0627],[9.0779,46.0653],[9.0882,46.0641],[9.0961,46.0604],[9.0988,46.0555]]]}},{"type":"Feature","properties":{"i":"013236","n":"Veleso"},"geometry":{"type":"Polygon","coordinates":[[[9.2095,45.9156],[9.1974,45.9052],[9.1963,45.905],[9.1871,45.9044],[9.1746,45.9075],[9.1707,45.9057],[9.1658,45.9106],[9.1681,45.9201],[9.1732,45.9239],[9.1752,45.9268],[9.1857,45.9267],[9.196,45.9244],[9.2051,45.9175],[9.2095,45.9156]]]}},{"type":"Feature","properties":{"i":"013238","n":"Veniano"},"geometry":{"type":"Polygon","coordinates":[[[8.9965,45.7236],[8.9974,45.717],[8.9933,45.7157],[8.9943,45.7121],[8.9937,45.7083],[8.9921,45.7084],[8.9878,45.7122],[8.9858,45.7125],[8.9731,45.7105],[8.9638,45.7117],[8.9609,45.7134],[8.9605,45.7153],[8.9641,45.717],[8.9691,45.7187],[8.9807,45.7207],[8.9834,45.7243],[8.9896,45.7275],[8.9927,45.7263],[8.9965,45.7236]]]}},{"type":"Feature","properties":{"i":"013239","n":"Vercana"},"geometry":{"type":"Polygon","coordinates":[[[9.3491,46.1675],[9.3619,46.1574],[9.3572,46.1504],[9.3477,46.159],[9.339,46.1587],[9.3281,46.1559],[9.3246,46.1602],[9.3179,46.1643],[9.317,46.1744],[9.3153,46.1764],[9.3146,46.1804],[9.316,46.1886],[9.3267,46.1971],[9.3286,46.2113],[9.3309,46.2153],[9.3357,46.2331],[9.3479,46.23],[9.3547,46.2217],[9.3519,46.2193],[9.3467,46.2003],[9.3428,46.193],[9.3396,46.1911],[9.3393,46.1902],[9.3389,46.1855],[9.3427,46.1749],[9.3491,46.1675]]]}},{"type":"Feature","properties":{"i":"013242","n":"Vertemate con Minoprio"},"geometry":{"type":"Polygon","coordinates":[[[9.0823,45.7387],[9.0853,45.7341],[9.0884,45.7331],[9.0983,45.7226],[9.0951,45.7158],[9.0912,45.7165],[9.0723,45.7135],[9.0714,45.7144],[9.0724,45.7205],[9.0683,45.7224],[9.062,45.7233],[9.0598,45.7256],[9.0652,45.7311],[9.0667,45.7368],[9.067,45.7418],[9.0711,45.7433],[9.0823,45.7387]]]}},{"type":"Feature","properties":{"i":"013245","n":"Villa Guardia"},"geometry":{"type":"Polygon","coordinates":[[[9.0447,45.7753],[9.0471,45.7665],[9.0442,45.766],[9.0389,45.7688],[9.0354,45.7687],[9.033,45.766],[9.0285,45.7576],[9.0111,45.7605],[9.0102,45.761],[9.011,45.7694],[8.9979,45.7835],[9.0045,45.7872],[9.0078,45.7865],[9.014,45.7886],[9.0259,45.7873],[9.0324,45.786],[9.0374,45.7834],[9.0371,45.7807],[9.0447,45.7753]]]}},{"type":"Feature","properties":{"i":"013246","n":"Zelbio"},"geometry":{"type":"Polygon","coordinates":[[[9.2058,45.8885],[9.1755,45.902],[9.1707,45.9057],[9.1746,45.9075],[9.1871,45.9044],[9.1974,45.9052],[9.2095,45.9156],[9.2164,45.914],[9.2151,45.9119],[9.2146,45.9086],[9.2155,45.9059],[9.2155,45.9012],[9.2091,45.8917],[9.2058,45.8885]]]}},{"type":"Feature","properties":{"i":"013248","n":"San Siro"},"geometry":{"type":"Polygon","coordinates":[[[9.2902,46.0759],[9.2893,46.0727],[9.2906,46.0659],[9.2896,46.0593],[9.2753,46.04],[9.2682,46.0347],[9.2685,46.0324],[9.2483,46.0387],[9.2428,46.0429],[9.2421,46.0458],[9.2439,46.0466],[9.2444,46.0495],[9.2389,46.0557],[9.2328,46.0608],[9.2198,46.0668],[9.2221,46.0765],[9.2244,46.0817],[9.2317,46.0786],[9.2375,46.0799],[9.2562,46.0807],[9.2634,46.0796],[9.266,46.0779],[9.2729,46.0766],[9.2902,46.0759]]]}},{"type":"Feature","properties":{"i":"013249","n":"Gravedona ed Uniti"},"geometry":{"type":"Polygon","coordinates":[[[9.2798,46.1618],[9.3025,46.1546],[9.3045,46.1563],[9.3032,46.1576],[9.3131,46.1583],[9.3161,46.1564],[9.3156,46.1529],[9.3226,46.1357],[9.3005,46.1259],[9.2996,46.1241],[9.29,46.1358],[9.2837,46.1392],[9.2849,46.1432],[9.2793,46.151],[9.2741,46.1538],[9.2681,46.1542],[9.2609,46.151],[9.2521,46.1516],[9.251,46.1532],[9.2524,46.1566],[9.2466,46.1614],[9.2373,46.165],[9.2327,46.1655],[9.2285,46.1652],[9.2214,46.16],[9.2151,46.1607],[9.2083,46.1598],[9.2087,46.1542],[9.2074,46.1493],[9.2135,46.1481],[9.2166,46.1549],[9.2328,46.1557],[9.2625,46.1406],[9.2695,46.1381],[9.271,46.1369],[9.2675,46.1323],[9.2588,46.1297],[9.2568,46.1334],[9.2494,46.1369],[9.2277,46.1393],[9.218,46.139],[9.2137,46.1378],[9.2124,46.1345],[9.2092,46.1339],[9.2075,46.1364],[9.2063,46.1409],[9.1974,46.1497],[9.1588,46.159],[9.1579,46.1579],[9.1572,46.1534],[9.1704,46.1488],[9.1712,46.1452],[9.1704,46.1446],[9.1659,46.1433],[9.1599,46.1448],[9.147,46.1404],[9.1409,46.1307],[9.1391,46.1323],[9.1327,46.1347],[9.127,46.1336],[9.1208,46.1346],[9.1285,46.1461],[9.1336,46.1511],[9.1372,46.1542],[9.1433,46.1574],[9.1544,46.1616],[9.1596,46.1705],[9.1683,46.1724],[9.1776,46.1708],[9.1835,46.1716],[9.1935,46.1799],[9.1962,46.1879],[9.2073,46.1882],[9.2115,46.1913],[9.2182,46.1926],[9.2238,46.1927],[9.2267,46.1904],[9.2315,46.1845],[9.2348,46.1793],[9.2342,46.1708],[9.2361,46.1685],[9.2513,46.1616],[9.2827,46.1578],[9.2827,46.1598],[9.2798,46.1618]]]}},{"type":"Feature","properties":{"i":"013250","n":"Bellagio"},"geometry":{"type":"Polygon","coordinates":[[[9.2683,45.9255],[9.2597,45.9261],[9.2468,45.9242],[9.242,45.9227],[9.238,45.9205],[9.2385,45.9179],[9.2404,45.9155],[9.2323,45.9132],[9.2229,45.9124],[9.2095,45.9156],[9.2109,45.9185],[9.2136,45.9209],[9.2202,45.9323],[9.2314,45.9468],[9.2337,45.955],[9.2325,45.9588],[9.2158,45.9695],[9.2307,45.9761],[9.243,45.9833],[9.2563,45.9991],[9.2646,46.0008],[9.2727,45.999],[9.2765,45.9943],[9.2799,45.9862],[9.2812,45.9752],[9.2846,45.9671],[9.2671,45.9664],[9.2614,45.9633],[9.2592,45.9595],[9.2565,45.949],[9.2639,45.9493],[9.2698,45.9485],[9.2734,45.947],[9.2765,45.9432],[9.2779,45.9387],[9.2781,45.9376],[9.2768,45.9352],[9.2735,45.9313],[9.2695,45.9292],[9.2683,45.9255]]]}},{"type":"Feature","properties":{"i":"013251","n":"Colverde"},"geometry":{"type":"Polygon","coordinates":[[[9.0211,45.8208],[9.0174,45.8068],[9.0186,45.804],[9.016,45.7992],[9.0091,45.7909],[9.0045,45.7872],[8.9979,45.7835],[8.9953,45.783],[8.9905,45.7865],[8.9912,45.7962],[8.9906,45.798],[8.9892,45.8017],[8.9858,45.802],[8.9845,45.8043],[8.9875,45.8069],[8.9879,45.8118],[8.9818,45.8155],[8.9846,45.8176],[8.9874,45.8212],[8.9941,45.8262],[8.9938,45.8239],[9.0048,45.8202],[9.0148,45.8185],[9.0211,45.8208]]]}},{"type":"Feature","properties":{"i":"013252","n":"Tremezzina"},"geometry":{"type":"Polygon","coordinates":[[[9.1984,46.0093],[9.2012,46.0059],[9.2174,46.0054],[9.2174,46.0035],[9.2194,45.9983],[9.222,45.9976],[9.2285,45.9899],[9.2391,45.9812],[9.2307,45.9761],[9.2158,45.9695],[9.2018,45.9568],[9.1777,45.9548],[9.1715,45.9525],[9.1728,45.9662],[9.1723,45.967],[9.1391,45.9899],[9.133,45.9878],[9.1313,45.9881],[9.1367,45.9958],[9.1412,45.9982],[9.1479,46.0005],[9.1571,46.0093],[9.1607,46.0118],[9.1659,46.0099],[9.1696,46.0074],[9.1816,46.0031],[9.1863,46.0025],[9.1955,46.006],[9.1984,46.0093]]]}},{"type":"Feature","properties":{"i":"013253","n":"Alta Valle Intelvi"},"geometry":{"type":"Polygon","coordinates":[[[9.0745,45.9928],[9.0693,45.9754],[9.0571,45.9699],[9.0572,45.9631],[9.0266,45.9429],[9.0218,45.9376],[9.0146,45.9409],[9.0129,45.9423],[9.0151,45.9506],[9.0141,45.9602],[9.0042,45.9639],[8.994,45.9666],[8.9894,45.9696],[8.9883,45.9716],[8.9884,45.9726],[9.003,45.9796],[9.014,45.9885],[9.0226,45.9927],[9.0302,45.9937],[9.0399,45.9972],[9.0517,46.004],[9.0522,46.0045],[9.0514,46.0068],[9.0561,46.0067],[9.0761,46.0032],[9.0769,45.9986],[9.0745,45.9928]]]}},{"type":"Feature","properties":{"i":"013254","n":"Centro Valle Intelvi"},"geometry":{"type":"MultiPolygon","coordinates":[[[[9.0809,45.9261],[9.082,45.9164],[9.0765,45.9135],[9.0684,45.9135],[9.0671,45.9183],[9.0733,45.9216],[9.0729,45.9264],[9.0809,45.9261]]],[[[9.0924,45.9722],[9.0886,45.9654],[9.0894,45.9624],[9.093,45.9586],[9.0974,45.9554],[9.1043,45.9529],[9.0941,45.9508],[9.084,45.9531],[9.0769,45.9521],[9.0782,45.9486],[9.0805,45.9453],[9.0792,45.9399],[9.0752,45.9339],[9.0667,45.9304],[9.0635,45.9332],[9.0557,45.9337],[9.0579,45.9279],[9.0537,45.9236],[9.0496,45.9212],[9.044,45.9263],[9.0419,45.9271],[9.0304,45.9265],[9.0194,45.9286],[9.02,45.9333],[9.0218,45.9376],[9.0266,45.9429],[9.0572,45.9631],[9.0571,45.9699],[9.0586,45.9709],[9.0699,45.9756],[9.0746,45.9765],[9.0879,45.9755],[9.0924,45.9722]]]]}},{"type":"Feature","properties":{"i":"013255","n":"Solbiate con Cagno"},"geometry":{"type":"Polygon","coordinates":[[[8.9295,45.8066],[8.9281,45.8032],[8.9285,45.8014],[8.9357,45.799],[8.941,45.7961],[8.9441,45.7865],[8.9326,45.7826],[8.9316,45.7841],[8.9233,45.7894],[8.9122,45.7911],[8.9028,45.7969],[8.897,45.8129],[8.907,45.8154],[8.9107,45.8147],[8.9191,45.8189],[8.9212,45.8153],[8.9253,45.812],[8.9295,45.8066]]]}}]}
