{"type":"FeatureCollection","fonte":"Confini comunali ISTAT via openpolis/geojson-italy — CC BY 4.0","features":[{"type":"Feature","properties":{"i":"019001","n":"Acquanegra Cremonese"},"geometry":{"type":"Polygon","coordinates":[[[9.9013,45.1498],[9.9013,45.1461],[9.8985,45.1459],[9.8923,45.1489],[9.8863,45.1568],[9.8727,45.1674],[9.8781,45.1801],[9.8768,45.1844],[9.8796,45.1879],[9.8866,45.1884],[9.895,45.2067],[9.9008,45.2037],[9.9006,45.1918],[9.9015,45.1775],[9.9048,45.1679],[9.9044,45.1638],[9.9017,45.1629],[9.8994,45.1604],[9.9013,45.1498]]]}},{"type":"Feature","properties":{"i":"019002","n":"Agnadello"},"geometry":{"type":"Polygon","coordinates":[[[9.5776,45.4602],[9.5772,45.4584],[9.579,45.4524],[9.5787,45.4416],[9.5798,45.434],[9.5851,45.4227],[9.5844,45.4208],[9.582,45.4186],[9.5798,45.4186],[9.5798,45.4223],[9.575,45.4216],[9.5647,45.4281],[9.5504,45.4338],[9.5408,45.4351],[9.5245,45.4339],[9.5299,45.4405],[9.5331,45.4475],[9.5377,45.4544],[9.548,45.4585],[9.5508,45.4603],[9.5651,45.4598],[9.5776,45.4602]]]}},{"type":"Feature","properties":{"i":"019003","n":"Annicco"},"geometry":{"type":"Polygon","coordinates":[[[9.8865,45.2789],[9.8843,45.2755],[9.8852,45.2733],[9.8979,45.2725],[9.9001,45.2737],[9.9041,45.2743],[9.9093,45.2738],[9.9135,45.2713],[9.9187,45.2697],[9.9165,45.2602],[9.908,45.2534],[9.9,45.2549],[9.897,45.2481],[9.9025,45.2415],[9.9006,45.2387],[9.9004,45.228],[9.903,45.2253],[9.8958,45.227],[9.887,45.2256],[9.8886,45.2241],[9.8853,45.2248],[9.8821,45.2276],[9.8644,45.2345],[9.8556,45.2369],[9.851,45.254],[9.8511,45.2557],[9.8549,45.2617],[9.8586,45.2638],[9.8667,45.2705],[9.8727,45.2739],[9.8865,45.2789]]]}},{"type":"Feature","properties":{"i":"019004","n":"Azzanello"},"geometry":{"type":"Polygon","coordinates":[[[9.9328,45.3289],[9.9406,45.3228],[9.9448,45.3205],[9.9326,45.3177],[9.9278,45.3078],[9.9275,45.3065],[9.9306,45.2963],[9.9397,45.2856],[9.9386,45.2823],[9.9336,45.2839],[9.9281,45.291],[9.9268,45.2915],[9.9221,45.2887],[9.9091,45.2965],[9.9058,45.3039],[9.8998,45.309],[9.9012,45.3109],[9.8958,45.3154],[9.8956,45.3173],[9.897,45.3196],[9.9067,45.3273],[9.9097,45.3354],[9.9114,45.3376],[9.9212,45.3337],[9.9228,45.332],[9.9289,45.3286],[9.9328,45.3289]]]}},{"type":"Feature","properties":{"i":"019005","n":"Bagnolo Cremasco"},"geometry":{"type":"Polygon","coordinates":[[[9.6286,45.3818],[9.6294,45.3726],[9.6325,45.3627],[9.6296,45.3462],[9.6275,45.3463],[9.6248,45.3521],[9.5982,45.3479],[9.5969,45.3476],[9.5976,45.3463],[9.6014,45.3441],[9.6017,45.3432],[9.6,45.3404],[9.5967,45.3399],[9.5905,45.3544],[9.5879,45.3563],[9.5878,45.3599],[9.589,45.3621],[9.5996,45.3636],[9.6032,45.366],[9.6126,45.3771],[9.6119,45.3796],[9.6009,45.3857],[9.6018,45.3886],[9.6181,45.3879],[9.6287,45.3897],[9.6286,45.3818]]]}},{"type":"Feature","properties":{"i":"019006","n":"Bonemerse"},"geometry":{"type":"Polygon","coordinates":[[[10.0845,45.1195],[10.0847,45.1181],[10.0898,45.1164],[10.0911,45.1194],[10.0921,45.1196],[10.1081,45.1174],[10.114,45.1072],[10.1098,45.1014],[10.1083,45.1038],[10.0957,45.1049],[10.0918,45.1029],[10.0895,45.0974],[10.0821,45.0933],[10.073,45.092],[10.0748,45.1036],[10.0746,45.1091],[10.0762,45.1153],[10.0805,45.1196],[10.0845,45.1195]]]}},{"type":"Feature","properties":{"i":"019007","n":"Bordolano"},"geometry":{"type":"Polygon","coordinates":[[[10.0011,45.2882],[9.9995,45.2871],[9.9999,45.2858],[10.003,45.2839],[10.0009,45.2793],[9.997,45.2752],[9.9741,45.2789],[9.9723,45.2757],[9.9573,45.2798],[9.9579,45.2827],[9.9608,45.286],[9.9636,45.2924],[9.9644,45.297],[9.9618,45.2976],[9.961,45.3014],[9.9634,45.3051],[9.9666,45.3069],[9.9747,45.3083],[9.977,45.3045],[9.9813,45.2999],[9.9905,45.297],[10.0011,45.2882]]]}},{"type":"Feature","properties":{"i":"019009","n":"Calvatone"},"geometry":{"type":"Polygon","coordinates":[[[10.4925,45.1324],[10.4882,45.1268],[10.4665,45.1244],[10.4591,45.1199],[10.4566,45.1153],[10.4531,45.1163],[10.4458,45.1133],[10.4229,45.1175],[10.4219,45.1202],[10.4159,45.12],[10.4196,45.1305],[10.4223,45.1328],[10.4223,45.1356],[10.419,45.1396],[10.4213,45.1412],[10.427,45.1398],[10.4312,45.1401],[10.4362,45.1361],[10.4411,45.1352],[10.4455,45.1372],[10.4465,45.1396],[10.4454,45.1419],[10.4497,45.1443],[10.4614,45.1465],[10.4763,45.1457],[10.4799,45.144],[10.486,45.1375],[10.4925,45.1324]]]}},{"type":"Feature","properties":{"i":"019010","n":"Camisano"},"geometry":{"type":"Polygon","coordinates":[[[9.7603,45.4566],[9.7616,45.4566],[9.7627,45.4557],[9.7646,45.4525],[9.7706,45.4381],[9.7707,45.4359],[9.7687,45.4337],[9.7693,45.4302],[9.7671,45.4273],[9.7479,45.4244],[9.7353,45.4309],[9.7304,45.4418],[9.7269,45.4452],[9.728,45.4521],[9.7294,45.4537],[9.7327,45.4546],[9.7345,45.4561],[9.7339,45.4577],[9.7314,45.4597],[9.7359,45.4722],[9.7462,45.4682],[9.748,45.466],[9.7487,45.4623],[9.7533,45.4557],[9.7603,45.4566]]]}},{"type":"Feature","properties":{"i":"019011","n":"Campagnola Cremasca"},"geometry":{"type":"Polygon","coordinates":[[[9.6683,45.4174],[9.6766,45.4147],[9.6822,45.4164],[9.683,45.415],[9.6836,45.4095],[9.6818,45.4033],[9.6836,45.3924],[9.6851,45.3903],[9.6746,45.3899],[9.6651,45.3873],[9.6578,45.3887],[9.6584,45.3979],[9.6662,45.4011],[9.6683,45.4174]]]}},{"type":"Feature","properties":{"i":"019012","n":"Capergnanica"},"geometry":{"type":"Polygon","coordinates":[[[9.6663,45.3416],[9.6609,45.3403],[9.6553,45.3356],[9.6492,45.3256],[9.6498,45.3229],[9.6523,45.3206],[9.6537,45.3206],[9.6529,45.3188],[9.6486,45.3148],[9.6445,45.3141],[9.6405,45.3151],[9.6349,45.3147],[9.6362,45.3169],[9.6357,45.3211],[9.6324,45.3268],[9.6262,45.3301],[9.6257,45.3329],[9.6263,45.3353],[9.6294,45.3376],[9.6301,45.3456],[9.6466,45.3485],[9.6539,45.3463],[9.6653,45.3459],[9.6663,45.3416]]]}},{"type":"Feature","properties":{"i":"019013","n":"Cappella Cantone"},"geometry":{"type":"Polygon","coordinates":[[[9.851,45.254],[9.8556,45.2369],[9.8617,45.2348],[9.8593,45.2307],[9.8541,45.2268],[9.8458,45.228],[9.8373,45.2257],[9.8351,45.2236],[9.8383,45.2204],[9.8358,45.2123],[9.8203,45.2182],[9.8219,45.2196],[9.8231,45.2249],[9.8219,45.2276],[9.827,45.231],[9.8323,45.2322],[9.8351,45.2354],[9.8316,45.2379],[9.8276,45.2373],[9.8231,45.2428],[9.8204,45.2489],[9.8151,45.253],[9.8133,45.2527],[9.8088,45.2566],[9.8079,45.2593],[9.8108,45.2656],[9.8113,45.2711],[9.8145,45.2688],[9.8213,45.2712],[9.8299,45.27],[9.8309,45.2664],[9.8381,45.2663],[9.8405,45.2672],[9.8435,45.266],[9.8469,45.2643],[9.8443,45.255],[9.851,45.254]]]}},{"type":"Feature","properties":{"i":"019014","n":"Cappella de' Picenardi"},"geometry":{"type":"Polygon","coordinates":[[[10.2557,45.1538],[10.2613,45.1527],[10.2609,45.1457],[10.2597,45.1411],[10.2514,45.1253],[10.2395,45.1326],[10.2357,45.1328],[10.23,45.1306],[10.2283,45.1289],[10.228,45.1236],[10.2004,45.1287],[10.202,45.1324],[10.2061,45.133],[10.2117,45.1404],[10.2132,45.1454],[10.2123,45.1474],[10.2127,45.1484],[10.2197,45.1538],[10.2189,45.1555],[10.2163,45.1575],[10.218,45.1626],[10.224,45.1598],[10.2242,45.1627],[10.2216,45.1699],[10.2198,45.1719],[10.2267,45.1736],[10.2287,45.1709],[10.2325,45.1698],[10.2369,45.17],[10.2429,45.1596],[10.2473,45.1553],[10.2557,45.1538]]]}},{"type":"Feature","properties":{"i":"019015","n":"Capralba"},"geometry":{"type":"Polygon","coordinates":[[[9.6503,45.454],[9.6585,45.4404],[9.6618,45.4372],[9.6606,45.4365],[9.6616,45.4319],[9.6646,45.4282],[9.6666,45.424],[9.6683,45.4174],[9.6662,45.4011],[9.6515,45.4179],[9.6359,45.4217],[9.6332,45.4277],[9.6282,45.4322],[9.6246,45.432],[9.6225,45.4299],[9.6213,45.4333],[9.6147,45.4389],[9.6134,45.4398],[9.6105,45.4394],[9.6095,45.443],[9.6266,45.4561],[9.6261,45.4582],[9.6396,45.4584],[9.6435,45.4577],[9.6503,45.454]]]}},{"type":"Feature","properties":{"i":"019016","n":"Casalbuttano ed Uniti"},"geometry":{"type":"Polygon","coordinates":[[[9.9573,45.2798],[9.9723,45.2757],[9.9712,45.2738],[9.9722,45.2701],[9.9788,45.2646],[9.9804,45.2592],[9.9884,45.2571],[9.9972,45.2537],[9.9969,45.2508],[10.0002,45.2437],[9.9989,45.2402],[10.004,45.2314],[9.976,45.238],[9.9707,45.2371],[9.9731,45.232],[9.9766,45.2291],[9.9783,45.2236],[9.9706,45.2159],[9.9637,45.2169],[9.9642,45.2181],[9.9631,45.2202],[9.959,45.2192],[9.9546,45.2094],[9.9514,45.2096],[9.9513,45.2133],[9.9456,45.214],[9.944,45.2164],[9.945,45.2184],[9.9507,45.2221],[9.9485,45.2339],[9.9481,45.244],[9.9467,45.2479],[9.9412,45.2536],[9.9344,45.2587],[9.9291,45.2669],[9.9287,45.2691],[9.9363,45.2717],[9.9374,45.2738],[9.9386,45.2816],[9.9573,45.2798]]]}},{"type":"Feature","properties":{"i":"019017","n":"Casale Cremasco-Vidolasco"},"geometry":{"type":"Polygon","coordinates":[[[9.7314,45.4597],[9.7339,45.4577],[9.7345,45.4561],[9.7327,45.4546],[9.7294,45.4537],[9.728,45.4521],[9.7269,45.4452],[9.7304,45.4418],[9.7353,45.4309],[9.7331,45.4307],[9.735,45.4252],[9.7345,45.423],[9.727,45.4212],[9.7173,45.4213],[9.7159,45.4196],[9.7188,45.415],[9.7109,45.4139],[9.7133,45.4228],[9.7016,45.4416],[9.7006,45.4467],[9.702,45.4544],[9.7034,45.457],[9.7024,45.4588],[9.6993,45.4599],[9.7159,45.4608],[9.7235,45.4579],[9.7302,45.4588],[9.7314,45.4597]]]}},{"type":"Feature","properties":{"i":"019018","n":"Casaletto Ceredano"},"geometry":{"type":"Polygon","coordinates":[[[9.6349,45.3147],[9.6283,45.3028],[9.6292,45.2974],[9.6284,45.2929],[9.6222,45.2934],[9.6174,45.3004],[9.6125,45.3028],[9.6119,45.3062],[9.6085,45.3118],[9.602,45.3172],[9.6055,45.3229],[9.6119,45.3228],[9.6172,45.3272],[9.6262,45.3301],[9.6324,45.3268],[9.6357,45.3211],[9.6362,45.3169],[9.6349,45.3147]]]}},{"type":"Feature","properties":{"i":"019019","n":"Casaletto di Sopra"},"geometry":{"type":"Polygon","coordinates":[[[9.7846,45.4295],[9.7859,45.4278],[9.7896,45.4265],[9.8079,45.4228],[9.8141,45.4177],[9.8185,45.4164],[9.82,45.4107],[9.813,45.41],[9.8123,45.4094],[9.8123,45.4024],[9.8104,45.3999],[9.8074,45.3981],[9.8052,45.3979],[9.8019,45.3985],[9.7945,45.4042],[9.7885,45.4112],[9.7841,45.4088],[9.77,45.4067],[9.7668,45.4124],[9.7672,45.4172],[9.7697,45.4201],[9.7671,45.4273],[9.7693,45.4302],[9.7846,45.4295]]]}},{"type":"Feature","properties":{"i":"019020","n":"Casaletto Vaprio"},"geometry":{"type":"Polygon","coordinates":[[[9.6662,45.4011],[9.6576,45.3979],[9.651,45.3993],[9.6499,45.4016],[9.6425,45.404],[9.6384,45.4041],[9.637,45.402],[9.632,45.4015],[9.6237,45.4073],[9.6207,45.4114],[9.619,45.412],[9.6199,45.4138],[9.6298,45.4194],[9.6359,45.4217],[9.638,45.4215],[9.6515,45.4179],[9.6662,45.4011]]]}},{"type":"Feature","properties":{"i":"019021","n":"Casalmaggiore"},"geometry":{"type":"Polygon","coordinates":[[[10.4644,45.0147],[10.463,45.0118],[10.4589,45.0081],[10.4578,45.0052],[10.4575,44.9968],[10.4586,44.9914],[10.4557,44.9824],[10.4606,44.9809],[10.4691,44.98],[10.4844,44.9803],[10.5124,44.9838],[10.5336,44.992],[10.5393,44.9967],[10.5415,45.0015],[10.5491,45.0052],[10.5552,45.0069],[10.5579,45.0069],[10.571,45.002],[10.5847,45.0043],[10.5969,45.004],[10.5914,45.0027],[10.5821,44.9976],[10.5642,44.9956],[10.5567,44.9913],[10.5546,44.9888],[10.554,44.9865],[10.5313,44.9809],[10.5291,44.9793],[10.5269,44.9734],[10.5234,44.9709],[10.5103,44.9728],[10.5078,44.9724],[10.5013,44.9536],[10.4969,44.9495],[10.4765,44.9468],[10.4717,44.9454],[10.4667,44.9425],[10.464,44.9372],[10.4516,44.9405],[10.4417,44.9408],[10.4357,44.9431],[10.4318,44.9471],[10.4302,44.952],[10.4229,44.9638],[10.4193,44.9736],[10.4168,44.9777],[10.4116,44.9818],[10.4057,44.9845],[10.4013,44.9848],[10.3932,44.9835],[10.384,44.9909],[10.3826,45.0008],[10.3858,45.003],[10.389,45.0087],[10.3901,45.0157],[10.3884,45.032],[10.389,45.0386],[10.3903,45.0375],[10.3937,45.0379],[10.401,45.0416],[10.4088,45.0433],[10.4152,45.0249],[10.437,45.025],[10.4496,45.0238],[10.4567,45.0208],[10.4644,45.0147]]]}},{"type":"Feature","properties":{"i":"019022","n":"Casalmorano"},"geometry":{"type":"Polygon","coordinates":[[[9.8998,45.309],[9.9058,45.3039],[9.9091,45.2965],[9.9221,45.2887],[9.9268,45.2915],[9.9281,45.291],[9.9336,45.2839],[9.9386,45.2823],[9.9374,45.2738],[9.9363,45.2717],[9.9287,45.2691],[9.917,45.2699],[9.9093,45.2738],[9.9041,45.2743],[9.9001,45.2737],[9.8979,45.2725],[9.8852,45.2733],[9.8843,45.2755],[9.89,45.2834],[9.8854,45.2901],[9.8801,45.2939],[9.8789,45.2972],[9.8794,45.3001],[9.8804,45.3012],[9.8874,45.3044],[9.8876,45.308],[9.8848,45.3123],[9.888,45.3166],[9.8916,45.3162],[9.8998,45.309]]]}},{"type":"Feature","properties":{"i":"019023","n":"Casteldidone"},"geometry":{"type":"Polygon","coordinates":[[[10.4168,45.0905],[10.4152,45.0858],[10.4151,45.08],[10.4166,45.0762],[10.4161,45.0667],[10.415,45.0643],[10.4136,45.0568],[10.4121,45.0444],[10.4096,45.0426],[10.4081,45.0434],[10.4048,45.0428],[10.3937,45.0379],[10.3903,45.0375],[10.389,45.0386],[10.3884,45.0464],[10.3859,45.0486],[10.3856,45.0524],[10.3888,45.0708],[10.3922,45.0759],[10.3961,45.0784],[10.4006,45.0844],[10.402,45.0947],[10.3977,45.0987],[10.4028,45.0984],[10.4077,45.0956],[10.4102,45.0933],[10.4108,45.0915],[10.4168,45.0905]]]}},{"type":"Feature","properties":{"i":"019024","n":"Castel Gabbiano"},"geometry":{"type":"Polygon","coordinates":[[[9.7152,45.4827],[9.7198,45.4821],[9.7219,45.4768],[9.73,45.4778],[9.7373,45.4749],[9.7341,45.4683],[9.7311,45.4592],[9.7235,45.4579],[9.7159,45.4608],[9.6993,45.4599],[9.6988,45.4606],[9.6981,45.4639],[9.7054,45.4788],[9.7083,45.4823],[9.7152,45.4827]]]}},{"type":"Feature","properties":{"i":"019025","n":"Castelleone"},"geometry":{"type":"Polygon","coordinates":[[[9.791,45.324],[9.8002,45.3113],[9.8252,45.2965],[9.8254,45.2944],[9.8099,45.2847],[9.8086,45.2778],[9.8094,45.2732],[9.8113,45.2711],[9.8108,45.2656],[9.8079,45.2593],[9.8082,45.2577],[9.7999,45.2542],[9.7808,45.2554],[9.7716,45.255],[9.7668,45.2519],[9.7637,45.2512],[9.7614,45.2564],[9.7547,45.2614],[9.7346,45.2719],[9.7296,45.2884],[9.733,45.295],[9.7396,45.3009],[9.737,45.3046],[9.7308,45.3072],[9.7297,45.3092],[9.729,45.3191],[9.7398,45.3304],[9.7477,45.3361],[9.7551,45.3387],[9.7553,45.333],[9.7581,45.3167],[9.7677,45.318],[9.7708,45.3261],[9.7739,45.3268],[9.791,45.324]]]}},{"type":"Feature","properties":{"i":"019026","n":"Castelverde"},"geometry":{"type":"Polygon","coordinates":[[[10.004,45.2314],[10.0073,45.2223],[10.0143,45.2098],[10.0203,45.2038],[10.0318,45.2007],[10.0376,45.1981],[10.0376,45.1975],[10.0361,45.1973],[10.0363,45.1966],[10.0382,45.1922],[10.0401,45.1914],[10.0347,45.1813],[10.0326,45.179],[10.0241,45.1781],[10.019,45.1788],[10.0197,45.1802],[10.0189,45.1806],[10.0055,45.1836],[9.9922,45.1804],[9.9885,45.1747],[9.9822,45.1707],[9.9742,45.1681],[9.9695,45.1635],[9.9678,45.1639],[9.9681,45.1665],[9.9625,45.1716],[9.9512,45.1733],[9.9501,45.1747],[9.9513,45.1779],[9.9547,45.1817],[9.9653,45.1833],[9.9704,45.1825],[9.971,45.183],[9.9691,45.1862],[9.9568,45.1944],[9.952,45.1963],[9.9512,45.2007],[9.9491,45.2052],[9.9514,45.2096],[9.9546,45.2094],[9.959,45.2192],[9.9631,45.2202],[9.9642,45.2181],[9.9637,45.2169],[9.9706,45.2159],[9.9783,45.2236],[9.9766,45.2291],[9.9731,45.232],[9.9707,45.2371],[9.976,45.238],[10.004,45.2314]]]}},{"type":"Feature","properties":{"i":"019027","n":"Castelvisconti"},"geometry":{"type":"Polygon","coordinates":[[[9.9448,45.3205],[9.9673,45.313],[9.9692,45.3104],[9.9747,45.3083],[9.9666,45.3069],[9.9634,45.3051],[9.961,45.3014],[9.9618,45.2976],[9.9644,45.297],[9.9636,45.2924],[9.9608,45.286],[9.9579,45.2827],[9.9573,45.2798],[9.9386,45.2816],[9.9394,45.2863],[9.9304,45.297],[9.9275,45.3065],[9.9326,45.3177],[9.9448,45.3205]]]}},{"type":"Feature","properties":{"i":"019028","n":"Cella Dati"},"geometry":{"type":"Polygon","coordinates":[[[10.2245,45.1121],[10.2316,45.1115],[10.2351,45.1056],[10.2325,45.1005],[10.2444,45.0934],[10.2422,45.0937],[10.2367,45.0927],[10.234,45.0921],[10.2331,45.091],[10.2424,45.0832],[10.2419,45.0786],[10.2491,45.0664],[10.2477,45.0638],[10.2422,45.0648],[10.2383,45.0677],[10.2314,45.0689],[10.2119,45.0662],[10.1939,45.0676],[10.1785,45.0784],[10.1804,45.0841],[10.1867,45.0925],[10.1982,45.0955],[10.1982,45.1007],[10.1956,45.1034],[10.1982,45.1046],[10.1982,45.1081],[10.2079,45.111],[10.2214,45.1086],[10.2235,45.1101],[10.2245,45.1121]]]}},{"type":"Feature","properties":{"i":"019029","n":"Chieve"},"geometry":{"type":"Polygon","coordinates":[[[9.6296,45.3462],[9.6294,45.3376],[9.6263,45.3353],[9.6257,45.3329],[9.6262,45.3301],[9.6172,45.3272],[9.6119,45.3228],[9.6055,45.3229],[9.6032,45.3267],[9.5984,45.3275],[9.5964,45.336],[9.5967,45.3399],[9.6,45.3404],[9.6017,45.3432],[9.6014,45.3441],[9.5985,45.3454],[9.5969,45.3476],[9.6248,45.3521],[9.6275,45.3463],[9.6296,45.3462]]]}},{"type":"Feature","properties":{"i":"019030","n":"Cicognolo"},"geometry":{"type":"Polygon","coordinates":[[[10.2198,45.1719],[10.2216,45.1699],[10.2242,45.1627],[10.224,45.1598],[10.218,45.1626],[10.2163,45.1575],[10.2189,45.1555],[10.2197,45.1538],[10.2123,45.1474],[10.1981,45.1497],[10.1999,45.1509],[10.1972,45.1569],[10.192,45.1577],[10.18,45.1629],[10.1809,45.1673],[10.1824,45.1686],[10.1844,45.1686],[10.1881,45.173],[10.19,45.1781],[10.2198,45.1719]]]}},{"type":"Feature","properties":{"i":"019031","n":"Cingia de' Botti"},"geometry":{"type":"Polygon","coordinates":[[[10.2979,45.09],[10.294,45.0816],[10.2942,45.0773],[10.2962,45.0706],[10.2951,45.0678],[10.2939,45.0664],[10.2821,45.0628],[10.2781,45.0594],[10.266,45.0619],[10.2564,45.0652],[10.2491,45.0664],[10.2419,45.0786],[10.2424,45.0832],[10.2331,45.091],[10.234,45.0921],[10.2422,45.0937],[10.2539,45.0923],[10.2602,45.0944],[10.2608,45.0978],[10.2766,45.1013],[10.2816,45.1012],[10.2809,45.0955],[10.2815,45.0855],[10.2846,45.0872],[10.2873,45.0903],[10.2979,45.09]]]}},{"type":"Feature","properties":{"i":"019032","n":"Corte de' Cortesi con Cignone"},"geometry":{"type":"Polygon","coordinates":[[[10.0194,45.284],[10.0293,45.2768],[10.0259,45.2761],[10.0248,45.2745],[10.0268,45.2727],[10.0265,45.2607],[10.0301,45.2544],[10.031,45.2505],[10.0302,45.2482],[10.0131,45.2507],[10.0025,45.2506],[9.9989,45.2498],[9.998,45.2474],[9.9969,45.2508],[9.9972,45.2537],[9.9884,45.2571],[9.9804,45.2592],[9.9788,45.2646],[9.9722,45.2701],[9.9712,45.2738],[9.9741,45.2789],[9.997,45.2752],[10.0009,45.2793],[10.003,45.2839],[9.9999,45.2858],[9.9995,45.2871],[10.0011,45.2882],[10.005,45.2867],[10.0127,45.2863],[10.0194,45.284]]]}},{"type":"Feature","properties":{"i":"019033","n":"Corte de' Frati"},"geometry":{"type":"Polygon","coordinates":[[[10.0994,45.2492],[10.1002,45.2478],[10.1039,45.2465],[10.1063,45.2465],[10.1089,45.2475],[10.1229,45.2472],[10.1412,45.2418],[10.1431,45.2419],[10.145,45.2433],[10.1393,45.2247],[10.135,45.2207],[10.1309,45.2197],[10.1312,45.2208],[10.1287,45.2212],[10.1233,45.2204],[10.1202,45.2127],[10.1206,45.208],[10.1177,45.2047],[10.1144,45.2036],[10.1056,45.2036],[10.0932,45.2048],[10.0935,45.2064],[10.0821,45.2082],[10.0824,45.2091],[10.0809,45.2107],[10.0739,45.215],[10.0686,45.2236],[10.0714,45.2259],[10.0722,45.2307],[10.0716,45.2332],[10.0748,45.2327],[10.0844,45.2348],[10.0862,45.2388],[10.0905,45.2428],[10.0904,45.2504],[10.0994,45.2492]]]}},{"type":"Feature","properties":{"i":"019034","n":"Credera Rubbiano"},"geometry":{"type":"Polygon","coordinates":[[[9.6726,45.3171],[9.6744,45.3128],[9.6708,45.3122],[9.6718,45.3058],[9.6739,45.3009],[9.6718,45.2945],[9.6693,45.2908],[9.6654,45.2791],[9.6572,45.2759],[9.6512,45.272],[9.6481,45.2735],[9.6445,45.2805],[9.6403,45.2837],[9.6346,45.2841],[9.6287,45.2815],[9.6255,45.2851],[9.6287,45.287],[9.6305,45.289],[9.6302,45.2915],[9.6284,45.2929],[9.6292,45.2974],[9.6283,45.3028],[9.6349,45.3147],[9.6405,45.3151],[9.6445,45.3141],[9.6486,45.3148],[9.6529,45.3188],[9.6544,45.3217],[9.658,45.3223],[9.6656,45.3217],[9.6726,45.3171]]]}},{"type":"Feature","properties":{"i":"019035","n":"Crema"},"geometry":{"type":"Polygon","coordinates":[[[9.7277,45.3906],[9.7268,45.3706],[9.7287,45.3683],[9.7325,45.3684],[9.7385,45.3655],[9.7372,45.3645],[9.7358,45.3614],[9.7372,45.3569],[9.7394,45.3554],[9.7247,45.3559],[9.7114,45.3525],[9.7103,45.346],[9.704,45.3407],[9.6967,45.3382],[9.6912,45.3393],[9.6942,45.3437],[9.6869,45.346],[9.6807,45.3458],[9.6742,45.3436],[9.6727,45.3403],[9.6692,45.3401],[9.6663,45.3416],[9.6653,45.3459],[9.6539,45.3463],[9.6466,45.3485],[9.6301,45.3456],[9.6296,45.3462],[9.6325,45.3627],[9.6294,45.3726],[9.6286,45.3818],[9.6341,45.3819],[9.635,45.3783],[9.6391,45.3744],[9.6513,45.3765],[9.6588,45.3792],[9.6629,45.3837],[9.6651,45.3873],[9.6746,45.3899],[9.6851,45.3903],[9.6853,45.3895],[9.6937,45.3902],[9.702,45.3925],[9.7116,45.3925],[9.7135,45.3908],[9.7115,45.3898],[9.7112,45.388],[9.7137,45.3846],[9.7159,45.3851],[9.7251,45.3906],[9.7277,45.3906]]]}},{"type":"Feature","properties":{"i":"019036","n":"Cremona"},"geometry":{"type":"Polygon","coordinates":[[[10.0347,45.1813],[10.0406,45.1819],[10.0441,45.1788],[10.044,45.1719],[10.0603,45.1692],[10.0608,45.1707],[10.07,45.1692],[10.066,45.1612],[10.0656,45.159],[10.0671,45.158],[10.077,45.1551],[10.0916,45.1525],[10.0918,45.1489],[10.1076,45.1456],[10.1087,45.1438],[10.1095,45.1336],[10.0912,45.1336],[10.0873,45.1283],[10.0845,45.1195],[10.0805,45.1196],[10.0762,45.1153],[10.0746,45.1091],[10.0748,45.1036],[10.073,45.092],[10.0732,45.0892],[10.0655,45.0902],[10.0607,45.089],[10.0402,45.0949],[10.0374,45.0977],[10.0394,45.0997],[10.0418,45.1062],[10.0421,45.1097],[10.0401,45.1123],[10.0377,45.1131],[10.0178,45.1041],[10.0109,45.1096],[10.0001,45.1227],[9.9911,45.131],[9.9837,45.1337],[9.9742,45.1336],[9.9702,45.1317],[9.9664,45.1275],[9.9542,45.139],[9.9431,45.1449],[9.9433,45.151],[9.9528,45.1565],[9.9629,45.154],[9.968,45.155],[9.9712,45.1599],[9.9674,45.1615],[9.9678,45.1639],[9.9695,45.1635],[9.9742,45.1681],[9.9822,45.1707],[9.9885,45.1747],[9.9922,45.1804],[10.0055,45.1836],[10.0189,45.1806],[10.0197,45.1802],[10.019,45.1788],[10.0241,45.1781],[10.0326,45.179],[10.0347,45.1813]]]}},{"type":"Feature","properties":{"i":"019037","n":"Cremosano"},"geometry":{"type":"Polygon","coordinates":[[[9.6584,45.3979],[9.6578,45.3887],[9.6651,45.3873],[9.6629,45.3837],[9.6588,45.3792],[9.6513,45.3765],[9.6391,45.3744],[9.6356,45.3775],[9.6343,45.3804],[9.6334,45.3875],[9.6293,45.3906],[9.6295,45.3966],[9.6309,45.398],[9.6359,45.3986],[9.6384,45.4041],[9.6443,45.4037],[9.6499,45.4016],[9.651,45.3993],[9.6584,45.3979]]]}},{"type":"Feature","properties":{"i":"019038","n":"Crotta d'Adda"},"geometry":{"type":"Polygon","coordinates":[[[9.8727,45.1674],[9.8863,45.1568],[9.8923,45.1489],[9.8985,45.1459],[9.9013,45.1461],[9.9081,45.1357],[9.8911,45.1309],[9.8879,45.1338],[9.8771,45.1379],[9.8725,45.1406],[9.8711,45.144],[9.8722,45.1502],[9.8719,45.1573],[9.8709,45.1591],[9.869,45.1587],[9.8618,45.153],[9.8572,45.1527],[9.8482,45.1554],[9.8436,45.1521],[9.839,45.15],[9.8277,45.1542],[9.8287,45.1607],[9.8329,45.1618],[9.8367,45.1674],[9.8375,45.1726],[9.8409,45.1771],[9.8623,45.1735],[9.8727,45.1674]]]}},{"type":"Feature","properties":{"i":"019039","n":"Cumignano sul Naviglio"},"geometry":{"type":"Polygon","coordinates":[[[9.8539,45.3524],[9.8531,45.3447],[9.8535,45.3375],[9.8485,45.3285],[9.8458,45.3265],[9.842,45.3291],[9.8387,45.3372],[9.8345,45.3402],[9.8209,45.3543],[9.8164,45.356],[9.8166,45.3568],[9.8182,45.3569],[9.8264,45.3609],[9.8373,45.3643],[9.843,45.3688],[9.8496,45.3625],[9.8474,45.3601],[9.8474,45.3574],[9.8494,45.3548],[9.8539,45.3524]]]}},{"type":"Feature","properties":{"i":"019040","n":"Derovere"},"geometry":{"type":"Polygon","coordinates":[[[10.2514,45.1253],[10.2509,45.1199],[10.2592,45.1185],[10.2646,45.1107],[10.2657,45.1076],[10.2747,45.1008],[10.2608,45.0978],[10.2602,45.0944],[10.2539,45.0923],[10.2444,45.0934],[10.2325,45.1005],[10.2351,45.1056],[10.2316,45.1115],[10.2245,45.1121],[10.2179,45.1254],[10.228,45.1236],[10.2283,45.1289],[10.23,45.1306],[10.2357,45.1328],[10.2405,45.1322],[10.2514,45.1253]]]}},{"type":"Feature","properties":{"i":"019041","n":"Dovera"},"geometry":{"type":"Polygon","coordinates":[[[9.5598,45.3828],[9.5621,45.3777],[9.5602,45.3753],[9.5597,45.3718],[9.5617,45.37],[9.5681,45.3669],[9.5666,45.3636],[9.5633,45.3423],[9.5515,45.3392],[9.5387,45.3435],[9.5354,45.3468],[9.5091,45.3488],[9.5106,45.3603],[9.5089,45.3659],[9.5078,45.3668],[9.5056,45.3664],[9.5053,45.3723],[9.5059,45.3759],[9.5142,45.381],[9.5141,45.3846],[9.5215,45.385],[9.5253,45.3877],[9.5332,45.3904],[9.5519,45.3911],[9.5587,45.3899],[9.5571,45.3846],[9.5598,45.3828]]]}},{"type":"Feature","properties":{"i":"019043","n":"Fiesco"},"geometry":{"type":"Polygon","coordinates":[[[9.8032,45.3476],[9.8038,45.3457],[9.7973,45.3403],[9.796,45.3369],[9.7976,45.3364],[9.7976,45.3344],[9.7962,45.3255],[9.7951,45.3245],[9.7935,45.3235],[9.7739,45.3268],[9.7708,45.3261],[9.7677,45.318],[9.7581,45.3167],[9.7553,45.333],[9.7551,45.3417],[9.7584,45.343],[9.7692,45.3444],[9.7801,45.3431],[9.7868,45.3456],[9.7901,45.35],[9.7979,45.3493],[9.8032,45.3476]]]}},{"type":"Feature","properties":{"i":"019044","n":"Formigara"},"geometry":{"type":"Polygon","coordinates":[[[9.7879,45.2226],[9.7826,45.2176],[9.7807,45.2173],[9.7805,45.2185],[9.7786,45.2184],[9.7769,45.2131],[9.7655,45.2175],[9.7657,45.2205],[9.7638,45.2227],[9.7621,45.2228],[9.7538,45.2204],[9.7498,45.2182],[9.7422,45.2202],[9.7433,45.2247],[9.7404,45.227],[9.7358,45.2276],[9.7322,45.225],[9.7257,45.2266],[9.7168,45.2301],[9.7153,45.2331],[9.7158,45.2339],[9.7221,45.2313],[9.7214,45.2362],[9.7251,45.2379],[9.7285,45.2367],[9.7321,45.2374],[9.7339,45.2388],[9.7321,45.2421],[9.7386,45.2448],[9.7522,45.2475],[9.7575,45.2474],[9.7591,45.2426],[9.7667,45.2435],[9.7726,45.2481],[9.7761,45.2482],[9.7795,45.2446],[9.7794,45.2438],[9.7773,45.2425],[9.7776,45.2363],[9.786,45.234],[9.7879,45.2226]]]}},{"type":"Feature","properties":{"i":"019045","n":"Gabbioneta-Binanuova"},"geometry":{"type":"Polygon","coordinates":[[[10.2198,45.2247],[10.2255,45.2243],[10.2423,45.2183],[10.2433,45.2129],[10.2462,45.2095],[10.2429,45.2094],[10.2365,45.2026],[10.2384,45.1983],[10.2345,45.1952],[10.2342,45.1982],[10.2282,45.2009],[10.2248,45.2014],[10.2252,45.1967],[10.2194,45.1951],[10.2131,45.1947],[10.2112,45.1956],[10.1995,45.2148],[10.1831,45.2156],[10.1749,45.2177],[10.1706,45.2155],[10.1624,45.2154],[10.1654,45.2172],[10.1669,45.2208],[10.167,45.2304],[10.1664,45.2325],[10.1614,45.2339],[10.1603,45.2351],[10.1605,45.2393],[10.1635,45.2419],[10.165,45.2422],[10.1804,45.239],[10.1823,45.2374],[10.1893,45.2343],[10.2049,45.2294],[10.2118,45.228],[10.2198,45.2247]]]}},{"type":"Feature","properties":{"i":"019046","n":"Gadesco-Pieve Delmona"},"geometry":{"type":"Polygon","coordinates":[[[10.1511,45.1462],[10.1409,45.1481],[10.1384,45.1454],[10.132,45.1448],[10.1127,45.1451],[10.1016,45.1463],[10.0918,45.1489],[10.0916,45.1525],[10.0814,45.1544],[10.0886,45.1555],[10.0922,45.1598],[10.0921,45.1662],[10.0896,45.1685],[10.0859,45.1693],[10.0845,45.172],[10.095,45.1787],[10.097,45.1785],[10.1029,45.1736],[10.1053,45.1736],[10.1184,45.1788],[10.1222,45.1811],[10.1235,45.1852],[10.1293,45.1841],[10.1309,45.1793],[10.1354,45.1786],[10.1394,45.182],[10.1448,45.1915],[10.1492,45.1908],[10.1529,45.1774],[10.152,45.1741],[10.1498,45.1698],[10.1411,45.1702],[10.1402,45.1694],[10.1369,45.1628],[10.1363,45.1593],[10.15,45.1524],[10.1517,45.1483],[10.1511,45.1462]]]}},{"type":"Feature","properties":{"i":"019047","n":"Genivolta"},"geometry":{"type":"Polygon","coordinates":[[[9.8833,45.3576],[9.8859,45.3558],[9.8941,45.3421],[9.898,45.3385],[9.9039,45.3376],[9.9114,45.3376],[9.9097,45.3354],[9.9067,45.3273],[9.897,45.3196],[9.8956,45.3173],[9.8958,45.3154],[9.9012,45.3109],[9.9006,45.3096],[9.8998,45.309],[9.8916,45.3162],[9.888,45.3166],[9.8848,45.3123],[9.8653,45.3186],[9.8607,45.3229],[9.8517,45.321],[9.8517,45.3205],[9.8459,45.3221],[9.8458,45.3265],[9.8485,45.3285],[9.8535,45.3375],[9.8531,45.3447],[9.8539,45.3524],[9.8573,45.3508],[9.8598,45.3524],[9.8566,45.3548],[9.8555,45.3568],[9.8557,45.3586],[9.8609,45.3634],[9.8623,45.3605],[9.8635,45.36],[9.8647,45.3641],[9.8637,45.3727],[9.8653,45.3781],[9.8699,45.3773],[9.8777,45.3723],[9.8782,45.3596],[9.8802,45.3582],[9.8833,45.3576]]]}},{"type":"Feature","properties":{"i":"019048","n":"Gerre de' Caprioli"},"geometry":{"type":"Polygon","coordinates":[[[10.0607,45.089],[10.0563,45.0845],[10.0546,45.0769],[10.0529,45.0742],[10.0469,45.0746],[10.0257,45.0703],[10.0229,45.0732],[10.0213,45.0772],[10.0242,45.0822],[10.0278,45.0845],[10.0295,45.0872],[10.0296,45.0935],[10.0285,45.0962],[10.0243,45.1008],[10.0178,45.1041],[10.0377,45.1131],[10.0401,45.1123],[10.0421,45.109],[10.0405,45.1019],[10.0374,45.0977],[10.0402,45.0949],[10.0607,45.089]]]}},{"type":"Feature","properties":{"i":"019049","n":"Gombito"},"geometry":{"type":"MultiPolygon","coordinates":[[[[9.7158,45.2339],[9.7173,45.2352],[9.7214,45.2362],[9.7221,45.2313],[9.7158,45.2339]]],[[[9.7637,45.2512],[9.7667,45.2435],[9.7591,45.2426],[9.7575,45.2474],[9.7508,45.2472],[9.7386,45.2448],[9.7321,45.2421],[9.7339,45.2388],[9.7321,45.2374],[9.7285,45.2367],[9.7251,45.2379],[9.7267,45.2407],[9.7258,45.2429],[9.722,45.2449],[9.7162,45.2456],[9.7121,45.2473],[9.7075,45.2513],[9.7072,45.2541],[9.7087,45.2571],[9.7119,45.2586],[9.714,45.2583],[9.7175,45.2557],[9.7206,45.2565],[9.7224,45.2582],[9.7225,45.2594],[9.7202,45.262],[9.718,45.2633],[9.7339,45.2704],[9.7346,45.2719],[9.7547,45.2614],[9.7614,45.2564],[9.7637,45.2512]]]]}},{"type":"Feature","properties":{"i":"019050","n":"Grontardo"},"geometry":{"type":"Polygon","coordinates":[[[10.1624,45.2154],[10.1706,45.2155],[10.1706,45.214],[10.175,45.2111],[10.1755,45.209],[10.1748,45.2074],[10.167,45.2019],[10.1641,45.1978],[10.1632,45.1943],[10.1637,45.1909],[10.1492,45.1908],[10.1448,45.1915],[10.1394,45.182],[10.1354,45.1786],[10.1309,45.1793],[10.1293,45.1841],[10.1235,45.1852],[10.122,45.1876],[10.1213,45.203],[10.1201,45.2044],[10.1177,45.2047],[10.1206,45.208],[10.1202,45.2127],[10.1233,45.2204],[10.1287,45.2212],[10.1312,45.2208],[10.1309,45.2197],[10.134,45.2174],[10.1373,45.2177],[10.1518,45.2155],[10.154,45.2138],[10.1548,45.2108],[10.1624,45.2154]]]}},{"type":"Feature","properties":{"i":"019051","n":"Grumello Cremonese ed Uniti"},"geometry":{"type":"Polygon","coordinates":[[[9.8886,45.2241],[9.8873,45.2212],[9.8831,45.2182],[9.8816,45.2137],[9.895,45.2067],[9.8866,45.1884],[9.8796,45.1879],[9.8768,45.1844],[9.8781,45.1801],[9.8727,45.1674],[9.8623,45.1735],[9.8347,45.178],[9.8353,45.18],[9.8382,45.1826],[9.8412,45.1869],[9.8395,45.1932],[9.8427,45.2093],[9.835,45.2105],[9.8383,45.2204],[9.8351,45.2236],[9.8373,45.2257],[9.8458,45.228],[9.8541,45.2268],[9.8593,45.2307],[9.8617,45.2348],[9.8644,45.2345],[9.8821,45.2276],[9.8849,45.2249],[9.8886,45.2241]]]}},{"type":"Feature","properties":{"i":"019052","n":"Gussola"},"geometry":{"type":"Polygon","coordinates":[[[10.3605,45.0454],[10.3654,45.0392],[10.3635,45.0326],[10.3666,45.0031],[10.3636,44.9972],[10.3599,44.9833],[10.3588,44.9655],[10.3489,44.9686],[10.3393,44.9762],[10.3308,44.9808],[10.3215,44.9836],[10.3182,44.9838],[10.3234,44.9887],[10.3248,44.9909],[10.3245,45.0007],[10.3235,45.0038],[10.322,45.0053],[10.3179,45.0065],[10.3111,45.012],[10.3121,45.0171],[10.3119,45.023],[10.3172,45.0263],[10.3361,45.0353],[10.3424,45.0445],[10.3605,45.0454]]]}},{"type":"Feature","properties":{"i":"019053","n":"Isola Dovarese"},"geometry":{"type":"Polygon","coordinates":[[[10.3277,45.1843],[10.33,45.1788],[10.3289,45.1781],[10.3266,45.1737],[10.328,45.1689],[10.3313,45.1672],[10.3362,45.1618],[10.3359,45.1567],[10.3336,45.1554],[10.3136,45.1576],[10.3021,45.1603],[10.2854,45.1579],[10.2841,45.1629],[10.2871,45.1698],[10.2895,45.1731],[10.3057,45.1842],[10.3089,45.1874],[10.3097,45.1913],[10.311,45.1929],[10.3124,45.1904],[10.3118,45.1887],[10.3136,45.187],[10.3277,45.1843]]]}},{"type":"Feature","properties":{"i":"019054","n":"Izano"},"geometry":{"type":"Polygon","coordinates":[[[9.7662,45.3673],[9.7674,45.3628],[9.763,45.3621],[9.7632,45.356],[9.7642,45.3511],[9.7697,45.3485],[9.7692,45.3444],[9.7571,45.3426],[9.7551,45.3417],[9.7551,45.3387],[9.7477,45.3361],[9.7481,45.3395],[9.7449,45.3429],[9.741,45.342],[9.7394,45.3554],[9.7372,45.3569],[9.7359,45.3612],[9.7372,45.3645],[9.7385,45.3655],[9.7506,45.3678],[9.7594,45.3685],[9.7662,45.3673]]]}},{"type":"Feature","properties":{"i":"019055","n":"Madignano"},"geometry":{"type":"Polygon","coordinates":[[[9.7394,45.3554],[9.741,45.342],[9.7449,45.3429],[9.7481,45.3395],[9.7477,45.3361],[9.7398,45.3304],[9.729,45.3191],[9.7147,45.3162],[9.712,45.316],[9.7105,45.3168],[9.7101,45.318],[9.711,45.3188],[9.7094,45.3223],[9.6984,45.3352],[9.6967,45.3382],[9.704,45.3407],[9.7103,45.346],[9.7114,45.3525],[9.7247,45.3559],[9.7394,45.3554]]]}},{"type":"Feature","properties":{"i":"019056","n":"Malagnino"},"geometry":{"type":"Polygon","coordinates":[[[10.1511,45.1462],[10.1509,45.1379],[10.1391,45.135],[10.1356,45.1327],[10.1266,45.1295],[10.1249,45.1167],[10.1255,45.1141],[10.114,45.1072],[10.1081,45.1174],[10.0921,45.1196],[10.0911,45.1194],[10.0898,45.1164],[10.0847,45.1181],[10.0845,45.1195],[10.0873,45.1283],[10.0912,45.1336],[10.1095,45.1336],[10.1094,45.1416],[10.1076,45.1456],[10.132,45.1448],[10.1384,45.1454],[10.1409,45.1481],[10.1511,45.1462]]]}},{"type":"Feature","properties":{"i":"019057","n":"Martignana di Po"},"geometry":{"type":"Polygon","coordinates":[[[10.3888,45.0403],[10.3884,45.032],[10.3901,45.0157],[10.389,45.0087],[10.3858,45.003],[10.3826,45.0008],[10.384,44.9909],[10.3932,44.9835],[10.3834,44.9791],[10.368,44.9674],[10.3634,44.9656],[10.3588,44.9655],[10.3599,44.9833],[10.3636,44.9972],[10.3666,45.0031],[10.3635,45.0326],[10.3654,45.0392],[10.3703,45.0424],[10.3791,45.0424],[10.3858,45.0402],[10.3888,45.0403]]]}},{"type":"Feature","properties":{"i":"019058","n":"Monte Cremasco"},"geometry":{"type":"Polygon","coordinates":[[[9.5736,45.3839],[9.5795,45.3821],[9.5804,45.3804],[9.5789,45.3716],[9.5736,45.3687],[9.5719,45.3668],[9.5721,45.3656],[9.561,45.3704],[9.5597,45.3718],[9.5602,45.3753],[9.5621,45.3777],[9.5598,45.3828],[9.5634,45.384],[9.5656,45.3821],[9.5704,45.3818],[9.5736,45.3839]]]}},{"type":"Feature","properties":{"i":"019059","n":"Montodine"},"geometry":{"type":"Polygon","coordinates":[[[9.7129,45.2991],[9.7182,45.2911],[9.7215,45.2905],[9.728,45.2834],[9.7291,45.2766],[9.7186,45.2753],[9.7097,45.2704],[9.7012,45.2583],[9.6973,45.2557],[9.6924,45.2568],[9.6918,45.2579],[9.6917,45.2636],[9.6887,45.2648],[9.686,45.2646],[9.6849,45.2637],[9.6822,45.2583],[9.6795,45.2565],[9.6738,45.2575],[9.6687,45.2613],[9.668,45.2623],[9.6684,45.2637],[9.672,45.2681],[9.6796,45.2694],[9.6911,45.2887],[9.6951,45.302],[9.7129,45.2991]]]}},{"type":"Feature","properties":{"i":"019060","n":"Moscazzano"},"geometry":{"type":"Polygon","coordinates":[[[9.6874,45.3127],[9.6908,45.3099],[9.6951,45.302],[9.6911,45.2887],[9.6796,45.2694],[9.672,45.2681],[9.6655,45.2702],[9.6621,45.2733],[9.6572,45.2759],[9.6654,45.2791],[9.6693,45.2908],[9.6718,45.2945],[9.6739,45.3009],[9.6718,45.3058],[9.6708,45.3122],[9.6744,45.3128],[9.6722,45.3186],[9.6744,45.3191],[9.6815,45.3139],[9.6874,45.3127]]]}},{"type":"Feature","properties":{"i":"019061","n":"Motta Baluffi"},"geometry":{"type":"Polygon","coordinates":[[[10.2491,45.0664],[10.2564,45.0652],[10.266,45.0619],[10.2781,45.0594],[10.2726,45.0513],[10.2704,45.0503],[10.2704,45.0473],[10.2723,45.0466],[10.2614,45.0385],[10.2495,45.038],[10.2431,45.0362],[10.2418,45.0335],[10.2422,45.0228],[10.2111,45.034],[10.2098,45.0428],[10.2148,45.0453],[10.2166,45.054],[10.2156,45.0615],[10.2145,45.0613],[10.2119,45.0626],[10.2119,45.0662],[10.2314,45.0689],[10.2383,45.0677],[10.2422,45.0648],[10.2465,45.0636],[10.2484,45.0643],[10.2491,45.0664]]]}},{"type":"Feature","properties":{"i":"019062","n":"Offanengo"},"geometry":{"type":"Polygon","coordinates":[[[9.7662,45.3673],[9.7594,45.3685],[9.7506,45.3678],[9.7385,45.3655],[9.7325,45.3684],[9.7287,45.3683],[9.7268,45.3706],[9.7277,45.3906],[9.7287,45.3905],[9.7419,45.4015],[9.7423,45.4031],[9.7482,45.4051],[9.7689,45.4084],[9.771,45.4021],[9.7705,45.3935],[9.7687,45.3895],[9.7662,45.3673]]]}},{"type":"Feature","properties":{"i":"019063","n":"Olmeneta"},"geometry":{"type":"Polygon","coordinates":[[[10.0302,45.2482],[10.0473,45.243],[10.0528,45.2436],[10.0573,45.2451],[10.0634,45.2446],[10.0684,45.2425],[10.0658,45.2347],[10.0549,45.2334],[10.0403,45.2329],[10.0339,45.2318],[10.0293,45.2296],[10.0182,45.228],[10.004,45.2314],[9.9989,45.2402],[10.0002,45.2437],[9.998,45.2474],[9.9989,45.2498],[10.0025,45.2506],[10.0131,45.2507],[10.0302,45.2482]]]}},{"type":"Feature","properties":{"i":"019064","n":"Ostiano"},"geometry":{"type":"Polygon","coordinates":[[[10.2635,45.2515],[10.2663,45.2508],[10.2694,45.2417],[10.2783,45.2321],[10.2907,45.2265],[10.2955,45.2254],[10.2935,45.2201],[10.2876,45.2161],[10.2853,45.2122],[10.2826,45.2018],[10.2824,45.1995],[10.2851,45.1967],[10.2893,45.1944],[10.2851,45.1934],[10.2826,45.1913],[10.2791,45.1922],[10.2691,45.1989],[10.2688,45.2041],[10.2604,45.2119],[10.2452,45.2063],[10.244,45.207],[10.2462,45.2095],[10.2433,45.2129],[10.2423,45.2183],[10.2255,45.2243],[10.2198,45.2247],[10.2208,45.2262],[10.2218,45.2333],[10.2219,45.2385],[10.2208,45.2418],[10.2231,45.2402],[10.2409,45.243],[10.246,45.2429],[10.2483,45.2445],[10.2504,45.2508],[10.2575,45.2526],[10.2635,45.2515]]]}},{"type":"Feature","properties":{"i":"019065","n":"Paderno Ponchielli"},"geometry":{"type":"Polygon","coordinates":[[[9.9514,45.2096],[9.9491,45.2052],[9.9512,45.2007],[9.952,45.1963],[9.9481,45.1967],[9.9343,45.1941],[9.9308,45.1941],[9.9219,45.1976],[9.9112,45.2077],[9.9109,45.2175],[9.9104,45.2213],[9.9093,45.223],[9.905,45.2234],[9.9004,45.228],[9.9006,45.2387],[9.9025,45.2415],[9.897,45.2481],[9.9,45.2549],[9.908,45.2534],[9.9165,45.2602],[9.9187,45.2697],[9.9287,45.2691],[9.9291,45.2669],[9.9344,45.2587],[9.9412,45.2536],[9.9467,45.2479],[9.9481,45.244],[9.9485,45.2339],[9.9507,45.2221],[9.945,45.2184],[9.944,45.2164],[9.9456,45.214],[9.9513,45.2133],[9.9514,45.2096]]]}},{"type":"Feature","properties":{"i":"019066","n":"Palazzo Pignano"},"geometry":{"type":"Polygon","coordinates":[[[9.6009,45.4098],[9.6035,45.4094],[9.6038,45.4076],[9.6008,45.3963],[9.6006,45.3918],[9.6018,45.3886],[9.5966,45.3872],[9.5736,45.3839],[9.5704,45.3818],[9.5656,45.3821],[9.5634,45.384],[9.5646,45.3916],[9.5691,45.4043],[9.5698,45.4097],[9.569,45.4147],[9.5726,45.42],[9.575,45.4216],[9.5798,45.4223],[9.5798,45.4186],[9.582,45.4186],[9.5844,45.4208],[9.5851,45.4227],[9.5838,45.4184],[9.5843,45.4149],[9.5881,45.4107],[9.594,45.409],[9.5977,45.4088],[9.6009,45.4098]]]}},{"type":"Feature","properties":{"i":"019067","n":"Pandino"},"geometry":{"type":"Polygon","coordinates":[[[9.575,45.4216],[9.5726,45.42],[9.569,45.4147],[9.5698,45.4097],[9.5691,45.4043],[9.5646,45.3916],[9.5634,45.384],[9.5598,45.3828],[9.5571,45.3846],[9.5587,45.3899],[9.5519,45.3911],[9.5332,45.3904],[9.5253,45.3877],[9.5215,45.385],[9.5119,45.3848],[9.5123,45.3893],[9.5111,45.4003],[9.5079,45.4054],[9.5049,45.4175],[9.5048,45.4209],[9.5052,45.4218],[9.5136,45.4257],[9.5239,45.4283],[9.5245,45.4339],[9.5408,45.4351],[9.5504,45.4338],[9.5647,45.4281],[9.575,45.4216]]]}},{"type":"Feature","properties":{"i":"019068","n":"Persico Dosimo"},"geometry":{"type":"Polygon","coordinates":[[[10.1177,45.2047],[10.1201,45.2044],[10.1216,45.2018],[10.122,45.1876],[10.1235,45.1852],[10.1222,45.1811],[10.1184,45.1788],[10.1053,45.1736],[10.1029,45.1736],[10.097,45.1785],[10.095,45.1787],[10.0845,45.172],[10.0859,45.1693],[10.0896,45.1685],[10.0921,45.1662],[10.0922,45.1598],[10.0886,45.1555],[10.0814,45.1544],[10.0671,45.158],[10.0656,45.159],[10.066,45.1612],[10.07,45.1692],[10.0608,45.1707],[10.0603,45.1692],[10.044,45.1719],[10.0441,45.1788],[10.0406,45.1819],[10.0347,45.1813],[10.0401,45.1914],[10.0468,45.1902],[10.0728,45.1878],[10.0761,45.1895],[10.0774,45.1959],[10.077,45.2032],[10.0821,45.2082],[10.0935,45.2064],[10.0932,45.2048],[10.1056,45.2036],[10.1144,45.2036],[10.1177,45.2047]]]}},{"type":"Feature","properties":{"i":"019069","n":"Pescarolo ed Uniti"},"geometry":{"type":"Polygon","coordinates":[[[10.2345,45.1952],[10.2342,45.1897],[10.2324,45.1803],[10.2263,45.1766],[10.2258,45.175],[10.2267,45.1736],[10.2198,45.1719],[10.19,45.1781],[10.1901,45.1809],[10.1783,45.1868],[10.1692,45.1867],[10.1652,45.1888],[10.1637,45.1909],[10.1632,45.1943],[10.1641,45.1978],[10.167,45.2019],[10.1748,45.2074],[10.1755,45.209],[10.175,45.2111],[10.1706,45.214],[10.1706,45.2155],[10.1749,45.2177],[10.1831,45.2156],[10.1995,45.2148],[10.2112,45.1956],[10.2131,45.1947],[10.2194,45.1951],[10.2252,45.1967],[10.2248,45.2014],[10.2282,45.2009],[10.2342,45.1982],[10.2345,45.1952]]]}},{"type":"Feature","properties":{"i":"019070","n":"Pessina Cremonese"},"geometry":{"type":"Polygon","coordinates":[[[10.2893,45.1944],[10.2937,45.1948],[10.2956,45.1936],[10.2943,45.1917],[10.2883,45.1905],[10.2871,45.1894],[10.2881,45.1872],[10.2916,45.1864],[10.2971,45.1882],[10.3041,45.1891],[10.3089,45.1874],[10.2986,45.1789],[10.2895,45.1731],[10.2871,45.1698],[10.2841,45.1629],[10.2734,45.1626],[10.2669,45.161],[10.2562,45.1572],[10.2557,45.1538],[10.2473,45.1553],[10.2429,45.1596],[10.2369,45.17],[10.2325,45.1698],[10.2287,45.1709],[10.2258,45.175],[10.2263,45.1766],[10.2324,45.1803],[10.2342,45.1897],[10.2345,45.1952],[10.2384,45.1983],[10.2365,45.2026],[10.2429,45.2094],[10.2462,45.2095],[10.244,45.207],[10.246,45.2062],[10.2604,45.2119],[10.2688,45.2041],[10.2691,45.1989],[10.2791,45.1922],[10.2826,45.1913],[10.2851,45.1934],[10.2893,45.1944]]]}},{"type":"Feature","properties":{"i":"019072","n":"Pianengo"},"geometry":{"type":"Polygon","coordinates":[[[9.7109,45.4139],[9.7189,45.4148],[9.7154,45.4055],[9.7063,45.3946],[9.7076,45.3925],[9.702,45.3925],[9.6937,45.3902],[9.6853,45.3895],[9.6836,45.3924],[9.6818,45.4033],[9.6836,45.4095],[9.683,45.415],[9.6809,45.4217],[9.6857,45.4204],[9.6867,45.4144],[9.6881,45.4133],[9.7106,45.4125],[9.7116,45.4131],[9.7109,45.4139]]]}},{"type":"Feature","properties":{"i":"019073","n":"Pieranica"},"geometry":{"type":"Polygon","coordinates":[[[9.6225,45.4299],[9.6145,45.4245],[9.6114,45.4196],[9.6096,45.4188],[9.6058,45.4188],[9.6024,45.4204],[9.5982,45.4236],[9.597,45.4255],[9.5978,45.4292],[9.6041,45.4371],[9.6097,45.4359],[9.6105,45.4394],[9.6134,45.4398],[9.6147,45.4389],[9.6213,45.4333],[9.6225,45.4299]]]}},{"type":"Feature","properties":{"i":"019074","n":"Pieve d'Olmi"},"geometry":{"type":"Polygon","coordinates":[[[10.1496,45.0775],[10.1433,45.0776],[10.1387,45.0736],[10.1445,45.0579],[10.1507,45.0521],[10.1524,45.0408],[10.1467,45.035],[10.1307,45.0298],[10.1276,45.0587],[10.1244,45.0661],[10.1233,45.0729],[10.1221,45.0754],[10.1125,45.0865],[10.1092,45.0857],[10.1068,45.086],[10.1046,45.0928],[10.1066,45.0958],[10.1082,45.0959],[10.11,45.0995],[10.1098,45.1014],[10.114,45.1072],[10.1255,45.1141],[10.1267,45.1124],[10.1383,45.1124],[10.1383,45.1147],[10.1488,45.1097],[10.153,45.0989],[10.1552,45.0892],[10.1533,45.0841],[10.1496,45.0775]]]}},{"type":"Feature","properties":{"i":"019075","n":"Pieve San Giacomo"},"geometry":{"type":"Polygon","coordinates":[[[10.2123,45.1474],[10.2132,45.1454],[10.2117,45.1404],[10.2061,45.133],[10.202,45.1324],[10.2004,45.1287],[10.2179,45.1254],[10.2245,45.1121],[10.2222,45.1089],[10.2206,45.1085],[10.2079,45.111],[10.1982,45.1081],[10.1982,45.1046],[10.1956,45.1034],[10.1909,45.1045],[10.1771,45.1123],[10.1746,45.1172],[10.1736,45.1236],[10.1636,45.1263],[10.163,45.1246],[10.1581,45.1258],[10.1617,45.1352],[10.1658,45.1346],[10.1737,45.1454],[10.182,45.1454],[10.1913,45.1438],[10.1977,45.1478],[10.1981,45.1497],[10.2123,45.1474]]]}},{"type":"Feature","properties":{"i":"019076","n":"Pizzighettone"},"geometry":{"type":"Polygon","coordinates":[[[9.8203,45.2182],[9.8358,45.2123],[9.835,45.2105],[9.8427,45.2093],[9.8395,45.1932],[9.8412,45.1869],[9.8382,45.1826],[9.8353,45.18],[9.8347,45.178],[9.8409,45.1771],[9.8375,45.1726],[9.8367,45.1674],[9.8329,45.1618],[9.8287,45.1607],[9.8271,45.1632],[9.8231,45.1638],[9.8181,45.1628],[9.8108,45.1593],[9.8062,45.1589],[9.8006,45.1627],[9.7971,45.164],[9.7905,45.1634],[9.7876,45.1639],[9.7843,45.1663],[9.7833,45.1732],[9.7744,45.1888],[9.7677,45.1879],[9.7646,45.1852],[9.7567,45.1812],[9.7529,45.1813],[9.7502,45.1828],[9.7502,45.1853],[9.7554,45.1849],[9.762,45.1923],[9.7649,45.1992],[9.7739,45.2071],[9.7786,45.2184],[9.7805,45.2185],[9.7807,45.2173],[9.7826,45.2176],[9.7879,45.2226],[9.7934,45.2204],[9.8178,45.2201],[9.8199,45.2193],[9.8203,45.2182]]]}},{"type":"Feature","properties":{"i":"019077","n":"Pozzaglio ed Uniti"},"geometry":{"type":"Polygon","coordinates":[[[10.0716,45.2332],[10.0722,45.2307],[10.0714,45.2259],[10.0686,45.2236],[10.0739,45.215],[10.0824,45.2091],[10.077,45.2032],[10.077,45.1918],[10.0761,45.1895],[10.0728,45.1878],[10.0461,45.1902],[10.0382,45.1922],[10.0361,45.1973],[10.0376,45.1975],[10.0376,45.1981],[10.0318,45.2007],[10.0203,45.2038],[10.0143,45.2098],[10.0073,45.2223],[10.004,45.2314],[10.0182,45.228],[10.0293,45.2296],[10.0339,45.2318],[10.0403,45.2329],[10.0549,45.2334],[10.0658,45.2347],[10.0663,45.2361],[10.0716,45.2332]]]}},{"type":"Feature","properties":{"i":"019078","n":"Quintano"},"geometry":{"type":"Polygon","coordinates":[[[9.6359,45.4217],[9.6298,45.4194],[9.6199,45.4138],[9.619,45.412],[9.6198,45.4102],[9.6177,45.4099],[9.6123,45.4126],[9.605,45.4145],[9.6058,45.4188],[9.6114,45.4196],[9.6145,45.4245],[9.6246,45.432],[9.6282,45.4322],[9.6332,45.4277],[9.6359,45.4217]]]}},{"type":"Feature","properties":{"i":"019079","n":"Ricengo"},"geometry":{"type":"Polygon","coordinates":[[[9.7671,45.4273],[9.7697,45.4201],[9.7672,45.4172],[9.7668,45.4124],[9.7689,45.4084],[9.7482,45.4051],[9.7423,45.4031],[9.7419,45.4015],[9.7287,45.3905],[9.7251,45.3906],[9.7146,45.3847],[9.7131,45.3847],[9.7112,45.388],[9.7115,45.3898],[9.7134,45.3904],[9.7128,45.392],[9.7076,45.3925],[9.7067,45.3934],[9.7067,45.3952],[9.7154,45.4055],[9.7186,45.4129],[9.7189,45.4148],[9.7159,45.4196],[9.7162,45.4204],[9.7173,45.4213],[9.727,45.4212],[9.7345,45.423],[9.735,45.4252],[9.7331,45.4307],[9.7353,45.4309],[9.7479,45.4244],[9.7671,45.4273]]]}},{"type":"Feature","properties":{"i":"019080","n":"Ripalta Arpina"},"geometry":{"type":"Polygon","coordinates":[[[9.729,45.3191],[9.7297,45.3092],[9.7308,45.3072],[9.737,45.3046],[9.7396,45.3009],[9.733,45.295],[9.7296,45.2884],[9.7346,45.2719],[9.7339,45.2704],[9.7203,45.2641],[9.7084,45.2622],[9.7012,45.2583],[9.7097,45.2704],[9.7186,45.2753],[9.7291,45.2766],[9.728,45.2834],[9.7215,45.2905],[9.7182,45.2911],[9.7129,45.2991],[9.7182,45.299],[9.7201,45.2999],[9.7177,45.3083],[9.7154,45.3115],[9.7159,45.3141],[9.7178,45.3154],[9.7165,45.317],[9.729,45.3191]]]}},{"type":"Feature","properties":{"i":"019081","n":"Ripalta Cremasca"},"geometry":{"type":"Polygon","coordinates":[[[9.6967,45.3382],[9.6984,45.3352],[9.7094,45.3223],[9.711,45.3188],[9.7101,45.318],[9.7103,45.317],[9.7128,45.316],[9.7165,45.317],[9.7178,45.3154],[9.7033,45.3121],[9.6874,45.3127],[9.6815,45.3139],[9.6744,45.3191],[9.6722,45.3186],[9.6726,45.3171],[9.6656,45.3217],[9.658,45.3223],[9.6544,45.3217],[9.6537,45.3206],[9.6523,45.3206],[9.6498,45.3229],[9.6492,45.3256],[9.6553,45.3356],[9.6609,45.3403],[9.6663,45.3416],[9.6692,45.3401],[9.6727,45.3403],[9.6742,45.3436],[9.6807,45.3458],[9.6869,45.346],[9.6942,45.3437],[9.6912,45.3393],[9.6967,45.3382]]]}},{"type":"Feature","properties":{"i":"019082","n":"Ripalta Guerina"},"geometry":{"type":"Polygon","coordinates":[[[9.7129,45.2991],[9.6951,45.302],[9.6908,45.3099],[9.6874,45.3127],[9.7033,45.3121],[9.7178,45.3154],[9.7159,45.3141],[9.7154,45.3115],[9.7177,45.3083],[9.7201,45.2999],[9.7182,45.299],[9.7129,45.2991]]]}},{"type":"Feature","properties":{"i":"019083","n":"Rivarolo del Re ed Uniti"},"geometry":{"type":"Polygon","coordinates":[[[10.4938,45.0563],[10.5144,45.0458],[10.517,45.0422],[10.5199,45.0408],[10.5212,45.0376],[10.5185,45.0334],[10.5139,45.029],[10.5132,45.0228],[10.5112,45.0183],[10.5025,45.0216],[10.4994,45.0215],[10.4906,45.02],[10.4811,45.0153],[10.4681,45.0139],[10.4644,45.0147],[10.4567,45.0208],[10.4496,45.0238],[10.437,45.025],[10.4152,45.0249],[10.4096,45.0426],[10.4121,45.0444],[10.4132,45.0422],[10.4155,45.0413],[10.4198,45.0414],[10.4388,45.0448],[10.4464,45.0469],[10.4602,45.057],[10.4669,45.0594],[10.4781,45.0568],[10.4938,45.0563]]]}},{"type":"Feature","properties":{"i":"019084","n":"Rivolta d'Adda"},"geometry":{"type":"Polygon","coordinates":[[[9.5451,45.4874],[9.5415,45.4823],[9.5412,45.4791],[9.5454,45.4704],[9.5477,45.4631],[9.5508,45.4603],[9.548,45.4585],[9.5377,45.4544],[9.5331,45.4475],[9.5299,45.4405],[9.5245,45.4339],[9.5239,45.4283],[9.5136,45.4257],[9.5052,45.4218],[9.4982,45.422],[9.4807,45.4189],[9.4805,45.4279],[9.4887,45.4381],[9.4884,45.4401],[9.4871,45.4416],[9.4854,45.442],[9.4816,45.4455],[9.4839,45.4487],[9.4846,45.4519],[9.488,45.4566],[9.4916,45.465],[9.4936,45.4785],[9.4989,45.4872],[9.5036,45.4926],[9.5142,45.5014],[9.5192,45.5045],[9.5265,45.4975],[9.531,45.4942],[9.5422,45.4873],[9.5451,45.4874]]]}},{"type":"Feature","properties":{"i":"019085","n":"Robecco d'Oglio"},"geometry":{"type":"Polygon","coordinates":[[[10.0622,45.2768],[10.0628,45.2743],[10.0721,45.2707],[10.0782,45.2708],[10.0839,45.2696],[10.0871,45.2587],[10.0906,45.2544],[10.0986,45.2536],[10.1005,45.2523],[10.0994,45.2492],[10.0904,45.2504],[10.0905,45.2428],[10.0862,45.2388],[10.0844,45.2348],[10.0752,45.2328],[10.072,45.233],[10.0663,45.2361],[10.0684,45.2425],[10.0634,45.2446],[10.0573,45.2451],[10.0528,45.2436],[10.0473,45.243],[10.0302,45.2482],[10.031,45.2505],[10.0301,45.2544],[10.0265,45.2607],[10.0268,45.2727],[10.0248,45.2745],[10.0259,45.2761],[10.0495,45.2804],[10.0622,45.2768]]]}},{"type":"Feature","properties":{"i":"019086","n":"Romanengo"},"geometry":{"type":"Polygon","coordinates":[[[9.8052,45.3979],[9.8044,45.3961],[9.809,45.3961],[9.8116,45.395],[9.8137,45.3915],[9.8118,45.3868],[9.8087,45.3728],[9.8032,45.3729],[9.7954,45.3664],[9.8035,45.3592],[9.7985,45.356],[9.7761,45.3639],[9.7674,45.3628],[9.766,45.3699],[9.7687,45.3895],[9.7705,45.3935],[9.771,45.4021],[9.77,45.4067],[9.7841,45.4088],[9.7885,45.4112],[9.7945,45.4042],[9.8019,45.3985],[9.8052,45.3979]]]}},{"type":"Feature","properties":{"i":"019087","n":"Salvirola"},"geometry":{"type":"Polygon","coordinates":[[[9.8166,45.3568],[9.8164,45.356],[9.8141,45.3564],[9.8062,45.3459],[9.8041,45.3492],[9.8029,45.3492],[9.8032,45.3476],[9.7979,45.3493],[9.7901,45.35],[9.7868,45.3456],[9.7801,45.3431],[9.777,45.3432],[9.7725,45.3445],[9.7692,45.3444],[9.7697,45.3485],[9.7642,45.3511],[9.7632,45.356],[9.763,45.3621],[9.7761,45.3639],[9.7985,45.356],[9.8035,45.3592],[9.7954,45.3664],[9.8032,45.3729],[9.8087,45.3728],[9.8094,45.3763],[9.8136,45.3758],[9.8128,45.3716],[9.8166,45.3568]]]}},{"type":"Feature","properties":{"i":"019088","n":"San Bassano"},"geometry":{"type":"Polygon","coordinates":[[[9.8082,45.2577],[9.8102,45.255],[9.8133,45.2527],[9.8151,45.253],[9.8204,45.2489],[9.8231,45.2428],[9.8276,45.2373],[9.8316,45.2379],[9.8351,45.2354],[9.8323,45.2322],[9.827,45.231],[9.8219,45.2276],[9.8231,45.2249],[9.8219,45.2196],[9.8203,45.2182],[9.8199,45.2193],[9.8178,45.2201],[9.7934,45.2204],[9.7879,45.2226],[9.786,45.234],[9.7776,45.2363],[9.7773,45.2425],[9.7794,45.2438],[9.7793,45.2453],[9.7761,45.2482],[9.7726,45.2481],[9.7667,45.2435],[9.7637,45.2512],[9.7668,45.2519],[9.7716,45.255],[9.7808,45.2554],[9.7999,45.2542],[9.8082,45.2577]]]}},{"type":"Feature","properties":{"i":"019089","n":"San Daniele Po"},"geometry":{"type":"Polygon","coordinates":[[[10.1496,45.0775],[10.1672,45.0769],[10.1715,45.0784],[10.1785,45.0784],[10.1939,45.0676],[10.2119,45.0662],[10.2119,45.0626],[10.2145,45.0613],[10.2156,45.0615],[10.2166,45.054],[10.2148,45.0453],[10.2098,45.0428],[10.2111,45.034],[10.194,45.0282],[10.1873,45.0282],[10.1772,45.0319],[10.1747,45.0342],[10.1751,45.0357],[10.1742,45.0383],[10.1688,45.0432],[10.1648,45.0443],[10.1577,45.0441],[10.1524,45.0408],[10.1507,45.0521],[10.1445,45.0579],[10.1387,45.0736],[10.1433,45.0776],[10.1496,45.0775]]]}},{"type":"Feature","properties":{"i":"019090","n":"San Giovanni in Croce"},"geometry":{"type":"Polygon","coordinates":[[[10.3977,45.0987],[10.4014,45.0958],[10.4018,45.0919],[10.4006,45.0844],[10.3961,45.0784],[10.3922,45.0759],[10.3888,45.0708],[10.3856,45.0524],[10.3859,45.0486],[10.3884,45.0464],[10.3888,45.0403],[10.3858,45.0402],[10.3791,45.0424],[10.3703,45.0424],[10.3654,45.0392],[10.3605,45.0454],[10.3639,45.0473],[10.3651,45.0577],[10.3622,45.0657],[10.3588,45.0691],[10.3593,45.0738],[10.364,45.0765],[10.366,45.0881],[10.3636,45.0983],[10.367,45.1111],[10.3683,45.111],[10.3714,45.1086],[10.396,45.1012],[10.3977,45.0987]]]}},{"type":"Feature","properties":{"i":"019091","n":"San Martino del Lago"},"geometry":{"type":"Polygon","coordinates":[[[10.3296,45.0884],[10.3303,45.0842],[10.3341,45.0809],[10.3369,45.0761],[10.335,45.0744],[10.3347,45.0682],[10.3365,45.0661],[10.3427,45.0635],[10.3342,45.0619],[10.3088,45.0652],[10.3061,45.0662],[10.2939,45.0664],[10.2962,45.0706],[10.2942,45.0773],[10.294,45.0816],[10.2959,45.0846],[10.2986,45.0931],[10.304,45.0975],[10.3095,45.0989],[10.3126,45.0983],[10.3275,45.0905],[10.3296,45.0884]]]}},{"type":"Feature","properties":{"i":"019092","n":"Scandolara Ravara"},"geometry":{"type":"Polygon","coordinates":[[[10.3427,45.0635],[10.3422,45.0592],[10.3434,45.0477],[10.3424,45.0445],[10.3361,45.0353],[10.3172,45.0263],[10.3119,45.023],[10.3085,45.0267],[10.3026,45.0274],[10.2978,45.0303],[10.2918,45.0404],[10.2904,45.0485],[10.2877,45.0514],[10.2796,45.0492],[10.2767,45.0474],[10.2723,45.0466],[10.2704,45.0473],[10.2704,45.0503],[10.2726,45.0513],[10.2781,45.0594],[10.2821,45.0628],[10.2939,45.0664],[10.3061,45.0662],[10.3088,45.0652],[10.3342,45.0619],[10.3427,45.0635]]]}},{"type":"Feature","properties":{"i":"019093","n":"Scandolara Ripa d'Oglio"},"geometry":{"type":"Polygon","coordinates":[[[10.1605,45.2393],[10.1603,45.2351],[10.1614,45.2339],[10.1664,45.2325],[10.167,45.2304],[10.1672,45.2216],[10.1654,45.2172],[10.1548,45.2108],[10.154,45.2138],[10.1518,45.2155],[10.1373,45.2177],[10.134,45.2174],[10.1309,45.2197],[10.135,45.2207],[10.1393,45.2247],[10.145,45.2433],[10.1538,45.2396],[10.1605,45.2393]]]}},{"type":"Feature","properties":{"i":"019094","n":"Sergnano"},"geometry":{"type":"MultiPolygon","coordinates":[[[[9.7109,45.4139],[9.7116,45.4131],[9.7106,45.4125],[9.6881,45.4133],[9.6867,45.4144],[9.6857,45.4204],[9.6809,45.4217],[9.6822,45.4164],[9.6786,45.4149],[9.6766,45.4147],[9.6683,45.4174],[9.6666,45.424],[9.6646,45.4282],[9.6616,45.4319],[9.6606,45.4365],[9.6821,45.4412],[9.6854,45.4438],[9.6898,45.4584],[9.6988,45.4606],[9.7024,45.4588],[9.7034,45.457],[9.702,45.4544],[9.7006,45.4467],[9.7016,45.4416],[9.7133,45.4228],[9.7109,45.4139]]]]}},{"type":"Feature","properties":{"i":"019095","n":"Sesto ed Uniti"},"geometry":{"type":"Polygon","coordinates":[[[9.903,45.2253],[9.905,45.2234],[9.9093,45.223],[9.9104,45.2213],[9.9109,45.2175],[9.9112,45.2077],[9.9225,45.1971],[9.9308,45.1941],[9.9343,45.1941],[9.9481,45.1967],[9.9533,45.1961],[9.9703,45.185],[9.9712,45.1836],[9.9707,45.1825],[9.9653,45.1833],[9.9547,45.1817],[9.9513,45.1779],[9.9501,45.1747],[9.9525,45.1729],[9.9625,45.1716],[9.9681,45.1665],[9.9674,45.1615],[9.9712,45.1599],[9.968,45.155],[9.9629,45.154],[9.9528,45.1565],[9.9433,45.151],[9.9426,45.1539],[9.9407,45.1556],[9.9234,45.1621],[9.9114,45.1648],[9.9103,45.1615],[9.9126,45.1521],[9.913,45.1468],[9.9116,45.1459],[9.9013,45.1498],[9.8994,45.1604],[9.9017,45.1629],[9.9044,45.1638],[9.9048,45.1679],[9.9015,45.1775],[9.9006,45.1918],[9.9008,45.2037],[9.8816,45.2137],[9.8831,45.2182],[9.8873,45.2212],[9.8886,45.2241],[9.887,45.2256],[9.8958,45.227],[9.903,45.2253]]]}},{"type":"Feature","properties":{"i":"019096","n":"Solarolo Rainerio"},"geometry":{"type":"Polygon","coordinates":[[[10.3605,45.0454],[10.3424,45.0445],[10.3434,45.0477],[10.3422,45.0592],[10.3427,45.0635],[10.3365,45.0661],[10.3347,45.0682],[10.335,45.0744],[10.3369,45.0761],[10.3341,45.0809],[10.3303,45.0842],[10.3296,45.0884],[10.3531,45.0961],[10.3624,45.1002],[10.3635,45.1085],[10.3666,45.1078],[10.3641,45.102],[10.3636,45.0983],[10.366,45.0881],[10.364,45.0765],[10.3593,45.0738],[10.3588,45.0691],[10.3622,45.0657],[10.3651,45.0577],[10.3639,45.0473],[10.3605,45.0454]]]}},{"type":"Feature","properties":{"i":"019097","n":"Soncino"},"geometry":{"type":"Polygon","coordinates":[[[9.8277,45.4552],[9.829,45.4529],[9.8351,45.448],[9.8401,45.4514],[9.8451,45.4522],[9.848,45.4512],[9.8522,45.4468],[9.8536,45.4414],[9.8589,45.4334],[9.8645,45.4311],[9.8735,45.4332],[9.8811,45.4308],[9.8849,45.4282],[9.8896,45.4273],[9.8895,45.4174],[9.8908,45.4137],[9.891,45.4042],[9.893,45.3946],[9.8889,45.3877],[9.8874,45.3787],[9.8869,45.3645],[9.8887,45.3606],[9.8833,45.3576],[9.8785,45.3589],[9.8777,45.3723],[9.8699,45.3773],[9.8653,45.3781],[9.8637,45.3727],[9.8647,45.3641],[9.8635,45.36],[9.8623,45.3605],[9.8609,45.3634],[9.8557,45.3586],[9.8555,45.3568],[9.8566,45.3548],[9.8598,45.3524],[9.8573,45.3508],[9.8494,45.3548],[9.8469,45.3582],[9.8479,45.361],[9.8496,45.3625],[9.8393,45.3721],[9.8306,45.3729],[9.8297,45.3861],[9.8267,45.393],[9.8273,45.3994],[9.8249,45.406],[9.8165,45.4059],[9.8164,45.4101],[9.82,45.4107],[9.8185,45.4164],[9.8141,45.4177],[9.8098,45.4211],[9.8079,45.4228],[9.8074,45.4253],[9.811,45.4386],[9.8209,45.4435],[9.8241,45.4462],[9.8178,45.4494],[9.8142,45.453],[9.8231,45.4565],[9.8277,45.4552]]]}},{"type":"Feature","properties":{"i":"019098","n":"Soresina"},"geometry":{"type":"Polygon","coordinates":[[[9.8848,45.3123],[9.8876,45.308],[9.8874,45.3044],[9.8804,45.3012],[9.8794,45.3001],[9.879,45.2965],[9.8801,45.2939],[9.8834,45.2919],[9.8883,45.2866],[9.89,45.2834],[9.8897,45.2822],[9.8865,45.2789],[9.8727,45.2739],[9.8667,45.2705],[9.8586,45.2638],[9.8549,45.2617],[9.8511,45.2557],[9.851,45.254],[9.8443,45.255],[9.8468,45.2645],[9.8405,45.2672],[9.8381,45.2663],[9.8309,45.2664],[9.8299,45.27],[9.8233,45.2711],[9.8213,45.2712],[9.8145,45.2688],[9.8094,45.2732],[9.8086,45.2778],[9.8099,45.2847],[9.8249,45.2935],[9.8252,45.2965],[9.8215,45.2982],[9.826,45.3013],[9.8345,45.3109],[9.8406,45.3131],[9.8418,45.3153],[9.8428,45.3224],[9.842,45.3291],[9.8458,45.3265],[9.8464,45.3215],[9.8517,45.3205],[9.8517,45.321],[9.8607,45.3229],[9.8653,45.3186],[9.8848,45.3123]]]}},{"type":"Feature","properties":{"i":"019099","n":"Sospiro"},"geometry":{"type":"Polygon","coordinates":[[[10.1617,45.1352],[10.1581,45.1258],[10.163,45.1246],[10.1636,45.1263],[10.1736,45.1236],[10.1746,45.1172],[10.1771,45.1123],[10.1909,45.1045],[10.1956,45.1034],[10.1982,45.1007],[10.1982,45.0955],[10.1867,45.0925],[10.1804,45.0841],[10.1785,45.0784],[10.1715,45.0784],[10.1672,45.0769],[10.1496,45.0775],[10.1533,45.0841],[10.1552,45.0892],[10.153,45.0989],[10.1488,45.1097],[10.1383,45.1147],[10.1383,45.1124],[10.1267,45.1124],[10.1255,45.1141],[10.1249,45.1167],[10.1266,45.1295],[10.1356,45.1327],[10.1391,45.135],[10.1494,45.1379],[10.1617,45.1352]]]}},{"type":"Feature","properties":{"i":"019100","n":"Spinadesco"},"geometry":{"type":"Polygon","coordinates":[[[9.9433,45.151],[9.9431,45.1449],[9.9542,45.139],[9.9664,45.1275],[9.96,45.1214],[9.9358,45.1044],[9.9244,45.1003],[9.9185,45.0996],[9.9158,45.1001],[9.9134,45.1035],[9.9144,45.1094],[9.9216,45.114],[9.9271,45.126],[9.9268,45.1306],[9.9256,45.133],[9.9226,45.1359],[9.9155,45.139],[9.9113,45.1383],[9.9081,45.1357],[9.9013,45.1461],[9.9013,45.1498],[9.9116,45.1459],[9.913,45.1468],[9.9126,45.1521],[9.9103,45.1615],[9.9114,45.1648],[9.9234,45.1621],[9.9407,45.1556],[9.9426,45.1539],[9.9433,45.151]]]}},{"type":"Feature","properties":{"i":"019101","n":"Spineda"},"geometry":{"type":"Polygon","coordinates":[[[10.5331,45.0745],[10.5322,45.072],[10.5348,45.0678],[10.5396,45.0551],[10.5318,45.0516],[10.5343,45.0453],[10.5199,45.0408],[10.517,45.0422],[10.5144,45.0458],[10.4938,45.0563],[10.4951,45.068],[10.492,45.083],[10.4974,45.0759],[10.5019,45.0749],[10.5205,45.0733],[10.5331,45.0745]]]}},{"type":"Feature","properties":{"i":"019102","n":"Spino d'Adda"},"geometry":{"type":"Polygon","coordinates":[[[9.5052,45.4218],[9.5049,45.4175],[9.5074,45.4069],[9.5111,45.4003],[9.5123,45.3893],[9.5119,45.3848],[9.5141,45.3846],[9.5144,45.3822],[9.5142,45.381],[9.5059,45.3759],[9.5056,45.3664],[9.5002,45.3646],[9.4911,45.3679],[9.4795,45.3769],[9.4775,45.3763],[9.4759,45.3744],[9.471,45.374],[9.4665,45.3748],[9.4554,45.3851],[9.4544,45.3867],[9.4616,45.4014],[9.4696,45.4093],[9.4676,45.4133],[9.4802,45.4199],[9.4811,45.4188],[9.4982,45.422],[9.5052,45.4218]]]}},{"type":"Feature","properties":{"i":"019103","n":"Stagno Lombardo"},"geometry":{"type":"Polygon","coordinates":[[[10.1307,45.0298],[10.1062,45.0221],[10.0929,45.0238],[10.0841,45.0329],[10.0835,45.044],[10.0823,45.0466],[10.059,45.0417],[10.0502,45.0413],[10.0529,45.0506],[10.0469,45.0593],[10.0435,45.0631],[10.0327,45.0655],[10.0297,45.0668],[10.0257,45.0703],[10.0469,45.0746],[10.0529,45.0742],[10.0546,45.0769],[10.0563,45.0845],[10.0607,45.089],[10.0655,45.0902],[10.0732,45.0892],[10.073,45.092],[10.0821,45.0933],[10.0895,45.0974],[10.0918,45.1029],[10.0957,45.1049],[10.1083,45.1038],[10.11,45.0995],[10.1082,45.0959],[10.1066,45.0958],[10.1046,45.0928],[10.1068,45.086],[10.1092,45.0857],[10.1125,45.0865],[10.1221,45.0754],[10.1233,45.0729],[10.1244,45.0661],[10.1276,45.0587],[10.1307,45.0298]]]}},{"type":"Feature","properties":{"i":"019104","n":"Ticengo"},"geometry":{"type":"Polygon","coordinates":[[[9.8164,45.4101],[9.8165,45.4059],[9.8249,45.406],[9.8273,45.3994],[9.8267,45.393],[9.8297,45.3861],[9.8306,45.3729],[9.8393,45.3721],[9.843,45.3688],[9.8373,45.3643],[9.8264,45.3609],[9.8182,45.3569],[9.8166,45.3568],[9.8128,45.3716],[9.8136,45.3758],[9.8094,45.3763],[9.8118,45.3868],[9.8137,45.3915],[9.8116,45.395],[9.809,45.3961],[9.8044,45.3961],[9.8052,45.3979],[9.8074,45.3981],[9.8104,45.3999],[9.8123,45.4024],[9.8123,45.4094],[9.813,45.41],[9.8164,45.4101]]]}},{"type":"Feature","properties":{"i":"019105","n":"Torlino Vimercati"},"geometry":{"type":"Polygon","coordinates":[[[9.6095,45.443],[9.6105,45.4394],[9.6097,45.4359],[9.6041,45.4371],[9.5978,45.4292],[9.597,45.4264],[9.5982,45.4236],[9.6058,45.4188],[9.605,45.4145],[9.6004,45.4092],[9.594,45.409],[9.5881,45.4107],[9.5843,45.4149],[9.5838,45.4184],[9.5851,45.4227],[9.5798,45.434],[9.5789,45.4387],[9.5926,45.4405],[9.5985,45.4427],[9.599,45.4453],[9.6088,45.4442],[9.6095,45.443]]]}},{"type":"Feature","properties":{"i":"019106","n":"Tornata"},"geometry":{"type":"Polygon","coordinates":[[[10.4566,45.1153],[10.4576,45.112],[10.4618,45.1058],[10.4667,45.0955],[10.4632,45.0937],[10.4453,45.0922],[10.439,45.091],[10.423,45.091],[10.4173,45.0919],[10.4193,45.0984],[10.4155,45.0992],[10.4115,45.1024],[10.4118,45.1197],[10.4219,45.1202],[10.4229,45.1175],[10.4458,45.1133],[10.4531,45.1163],[10.4566,45.1153]]]}},{"type":"Feature","properties":{"i":"019107","n":"Torre de' Picenardi"},"geometry":{"type":"Polygon","coordinates":[[[10.3336,45.1554],[10.3342,45.1515],[10.3329,45.1435],[10.3309,45.1392],[10.3235,45.1397],[10.3191,45.1338],[10.3194,45.1311],[10.3151,45.1308],[10.3216,45.1211],[10.3207,45.117],[10.3177,45.1149],[10.3148,45.1145],[10.3121,45.1083],[10.3095,45.0989],[10.304,45.0975],[10.2991,45.0937],[10.2979,45.09],[10.2873,45.0903],[10.2846,45.0872],[10.2815,45.0855],[10.2809,45.0955],[10.2816,45.1012],[10.2747,45.1008],[10.2716,45.1027],[10.2657,45.1076],[10.2646,45.1107],[10.2592,45.1185],[10.2509,45.1199],[10.2514,45.1253],[10.2597,45.1411],[10.2609,45.1457],[10.2613,45.1527],[10.2557,45.1538],[10.2562,45.1572],[10.2734,45.1626],[10.2834,45.163],[10.2841,45.1629],[10.2857,45.1579],[10.3021,45.1603],[10.3136,45.1576],[10.3336,45.1554]]]}},{"type":"Feature","properties":{"i":"019108","n":"Torricella del Pizzo"},"geometry":{"type":"Polygon","coordinates":[[[10.3119,45.023],[10.3121,45.0171],[10.3111,45.012],[10.3179,45.0065],[10.322,45.0053],[10.3235,45.0038],[10.3246,45.0002],[10.3248,44.9909],[10.3234,44.9887],[10.3182,44.9838],[10.3089,44.9874],[10.31,44.993],[10.3038,44.9994],[10.2999,45.0003],[10.2739,44.9985],[10.2696,45.0028],[10.2651,45.0048],[10.2585,45.0161],[10.2541,45.0187],[10.2481,45.02],[10.2422,45.0228],[10.2418,45.0343],[10.2431,45.0362],[10.2462,45.0376],[10.2614,45.0385],[10.2723,45.0466],[10.2767,45.0474],[10.2796,45.0492],[10.2877,45.0514],[10.2904,45.0485],[10.2918,45.0404],[10.2978,45.0303],[10.3026,45.0274],[10.3085,45.0267],[10.3119,45.023]]]}},{"type":"Feature","properties":{"i":"019109","n":"Trescore Cremasco"},"geometry":{"type":"Polygon","coordinates":[[[9.619,45.412],[9.6207,45.4114],[9.6237,45.4073],[9.632,45.4015],[9.637,45.402],[9.6359,45.3986],[9.6309,45.398],[9.6295,45.3966],[9.6293,45.3906],[9.6334,45.3875],[9.6341,45.3819],[9.6286,45.3818],[9.6287,45.3897],[9.6181,45.3879],[9.6012,45.389],[9.6008,45.3963],[9.6038,45.4076],[9.6035,45.4094],[9.6009,45.4098],[9.605,45.4145],[9.6123,45.4126],[9.6177,45.4099],[9.6198,45.4102],[9.619,45.412]]]}},{"type":"Feature","properties":{"i":"019110","n":"Trigolo"},"geometry":{"type":"Polygon","coordinates":[[[9.842,45.3291],[9.8428,45.3224],[9.8418,45.3153],[9.8406,45.3131],[9.8345,45.3109],[9.826,45.3013],[9.8215,45.2982],[9.8002,45.3113],[9.791,45.324],[9.7935,45.3235],[9.7962,45.3255],[9.7976,45.3364],[9.796,45.3369],[9.7973,45.3403],[9.8038,45.3457],[9.8029,45.3492],[9.8049,45.3485],[9.8062,45.3459],[9.8112,45.3534],[9.8143,45.3565],[9.8209,45.3543],[9.8345,45.3402],[9.8387,45.3372],[9.842,45.3291]]]}},{"type":"Feature","properties":{"i":"019111","n":"Vaiano Cremasco"},"geometry":{"type":"Polygon","coordinates":[[[9.5879,45.3563],[9.5842,45.3599],[9.5788,45.3634],[9.5721,45.3656],[9.5719,45.3668],[9.5736,45.3687],[9.5789,45.3716],[9.5804,45.3804],[9.5795,45.3821],[9.5736,45.3839],[9.5966,45.3872],[9.6018,45.3886],[9.6009,45.3857],[9.6119,45.3796],[9.6126,45.3771],[9.6037,45.3665],[9.5996,45.3636],[9.589,45.3621],[9.5876,45.3594],[9.5879,45.3563]]]}},{"type":"Feature","properties":{"i":"019112","n":"Vailate"},"geometry":{"type":"Polygon","coordinates":[[[9.6086,45.4755],[9.6076,45.4714],[9.6103,45.4639],[9.62,45.4559],[9.6266,45.4561],[9.6095,45.443],[9.6088,45.4442],[9.599,45.4453],[9.5985,45.4427],[9.5926,45.4405],[9.5789,45.4387],[9.579,45.4524],[9.5772,45.4584],[9.5775,45.4621],[9.5788,45.4651],[9.5863,45.4697],[9.5908,45.4761],[9.5934,45.4737],[9.6086,45.4755]]]}},{"type":"Feature","properties":{"i":"019113","n":"Vescovato"},"geometry":{"type":"Polygon","coordinates":[[[10.19,45.1781],[10.1881,45.173],[10.1844,45.1686],[10.1824,45.1686],[10.1809,45.1673],[10.18,45.1629],[10.192,45.1577],[10.1972,45.1569],[10.1999,45.1509],[10.1981,45.1497],[10.1977,45.1478],[10.1913,45.1438],[10.182,45.1454],[10.1737,45.1454],[10.1658,45.1346],[10.1509,45.1379],[10.1517,45.1483],[10.15,45.1524],[10.1363,45.1593],[10.1369,45.1628],[10.1402,45.1694],[10.1411,45.1702],[10.1498,45.1698],[10.152,45.1741],[10.1529,45.1774],[10.1492,45.1908],[10.1637,45.1909],[10.1652,45.1888],[10.1692,45.1867],[10.1783,45.1868],[10.1901,45.1809],[10.19,45.1781]]]}},{"type":"Feature","properties":{"i":"019114","n":"Volongo"},"geometry":{"type":"Polygon","coordinates":[[[10.3177,45.2047],[10.3141,45.2027],[10.3118,45.1992],[10.3094,45.1928],[10.3089,45.1874],[10.3041,45.1891],[10.2971,45.1882],[10.2916,45.1864],[10.2881,45.1872],[10.2871,45.1894],[10.2883,45.1905],[10.2943,45.1917],[10.2956,45.1936],[10.2937,45.1948],[10.2893,45.1944],[10.2851,45.1967],[10.2824,45.1995],[10.2853,45.2122],[10.2876,45.2161],[10.2935,45.2201],[10.2955,45.2254],[10.3055,45.2239],[10.3184,45.2151],[10.317,45.2063],[10.3177,45.2047]]]}},{"type":"Feature","properties":{"i":"019115","n":"Voltido"},"geometry":{"type":"Polygon","coordinates":[[[10.3194,45.1311],[10.3208,45.1286],[10.3366,45.1304],[10.3414,45.1298],[10.344,45.1279],[10.3414,45.1183],[10.3467,45.1162],[10.3568,45.1165],[10.3596,45.1128],[10.3593,45.1092],[10.3635,45.1085],[10.3624,45.1002],[10.3531,45.0961],[10.3296,45.0884],[10.3275,45.0905],[10.3198,45.0949],[10.3126,45.0983],[10.3095,45.0989],[10.3121,45.1083],[10.3148,45.1145],[10.3177,45.1149],[10.3207,45.117],[10.3216,45.1211],[10.3151,45.1308],[10.3194,45.1311]]]}},{"type":"Feature","properties":{"i":"019116","n":"Piadena Drizzona"},"geometry":{"type":"Polygon","coordinates":[[[10.4196,45.1305],[10.4159,45.12],[10.4118,45.1197],[10.4115,45.1024],[10.4155,45.0992],[10.4193,45.0984],[10.4168,45.0905],[10.4108,45.0915],[10.4102,45.0933],[10.4077,45.0956],[10.4028,45.0984],[10.3977,45.0987],[10.396,45.1012],[10.3714,45.1086],[10.3683,45.111],[10.367,45.1111],[10.3666,45.1078],[10.3593,45.1092],[10.3596,45.1128],[10.3568,45.1165],[10.3467,45.1162],[10.3414,45.1183],[10.344,45.1279],[10.3414,45.1298],[10.3366,45.1304],[10.3214,45.1286],[10.3197,45.1299],[10.3188,45.133],[10.3231,45.1394],[10.3309,45.1392],[10.3329,45.1435],[10.3342,45.1515],[10.3336,45.1554],[10.3359,45.1567],[10.3362,45.1618],[10.3313,45.1672],[10.328,45.1689],[10.3266,45.1737],[10.3289,45.1781],[10.33,45.1788],[10.3347,45.1757],[10.338,45.1721],[10.3532,45.1654],[10.3584,45.1646],[10.3647,45.1617],[10.3654,45.1602],[10.364,45.1577],[10.3656,45.1515],[10.3676,45.1472],[10.3767,45.1415],[10.3836,45.1393],[10.4036,45.1366],[10.4144,45.1333],[10.4164,45.1304],[10.4196,45.1305]]]}}]}
