{"type":"FeatureCollection","fonte":"Confini comunali ISTAT via openpolis/geojson-italy — CC BY 4.0","features":[{"type":"Feature","properties":{"i":"087001","n":"Aci Bonaccorsi"},"geometry":{"type":"Polygon","coordinates":[[[15.115,37.5939],[15.1155,37.5912],[15.1145,37.5889],[15.1061,37.586],[15.1041,37.5909],[15.1051,37.592],[15.1046,37.593],[15.0997,37.5973],[15.1074,37.6066],[15.115,37.5939]]]}},{"type":"Feature","properties":{"i":"087002","n":"Aci Castello"},"geometry":{"type":"MultiPolygon","coordinates":[[[[15.1668,37.562],[15.1677,37.5615],[15.1673,37.5605],[15.1657,37.5611],[15.1658,37.5623],[15.1668,37.562]]],[[[15.1261,37.5346],[15.1186,37.5472],[15.1158,37.5485],[15.1189,37.5513],[15.1215,37.5555],[15.1217,37.5623],[15.1231,37.565],[15.1351,37.5643],[15.1399,37.5651],[15.1522,37.5639],[15.1595,37.5717],[15.1599,37.573],[15.1586,37.579],[15.1628,37.5803],[15.1671,37.5779],[15.1697,37.5744],[15.1663,37.5719],[15.1635,37.5653],[15.1588,37.56],[15.1488,37.5549],[15.1445,37.5451],[15.1431,37.5436],[15.1261,37.5346]]]]}},{"type":"Feature","properties":{"i":"087003","n":"Aci Catena"},"geometry":{"type":"Polygon","coordinates":[[[15.1586,37.579],[15.1599,37.573],[15.1595,37.5717],[15.1522,37.5639],[15.1399,37.5651],[15.1351,37.5643],[15.1365,37.5665],[15.1334,37.5735],[15.13,37.5948],[15.1376,37.6093],[15.1373,37.6149],[15.1363,37.6159],[15.1328,37.6167],[15.1332,37.6179],[15.1366,37.6202],[15.1373,37.6205],[15.1396,37.6176],[15.1423,37.6116],[15.1471,37.5958],[15.1542,37.5806],[15.1586,37.579]]]}},{"type":"Feature","properties":{"i":"087004","n":"Acireale"},"geometry":{"type":"Polygon","coordinates":[[[15.1724,37.6786],[15.1964,37.6717],[15.1995,37.6718],[15.1965,37.6652],[15.1962,37.6627],[15.1971,37.6602],[15.1999,37.6567],[15.1992,37.6543],[15.1943,37.6491],[15.1816,37.639],[15.1788,37.6376],[15.1747,37.6328],[15.176,37.6287],[15.1724,37.6101],[15.174,37.594],[15.1773,37.5841],[15.1774,37.5806],[15.1771,37.5763],[15.1746,37.5743],[15.1697,37.5744],[15.1671,37.5779],[15.1628,37.5803],[15.1586,37.579],[15.1542,37.5806],[15.1471,37.5958],[15.1423,37.6116],[15.1396,37.6176],[15.1344,37.6231],[15.1329,37.6314],[15.1277,37.6382],[15.1177,37.6469],[15.1153,37.6525],[15.1207,37.6574],[15.1218,37.6565],[15.1292,37.6576],[15.1379,37.6571],[15.141,37.6546],[15.1448,37.6563],[15.1446,37.6586],[15.1453,37.6594],[15.1588,37.6586],[15.161,37.6595],[15.1621,37.6633],[15.1572,37.6719],[15.1633,37.6814],[15.1665,37.6833],[15.1724,37.6786]]]}},{"type":"Feature","properties":{"i":"087005","n":"Aci Sant'Antonio"},"geometry":{"type":"Polygon","coordinates":[[[15.1373,37.6205],[15.1332,37.6179],[15.1328,37.6167],[15.1363,37.6159],[15.1373,37.6149],[15.1378,37.6117],[15.1374,37.6086],[15.13,37.5948],[15.115,37.5939],[15.1074,37.6066],[15.1108,37.6231],[15.1106,37.625],[15.1014,37.6366],[15.0935,37.6415],[15.0918,37.6447],[15.092,37.6482],[15.0952,37.6515],[15.1101,37.6515],[15.1153,37.6525],[15.1177,37.6469],[15.1277,37.6382],[15.1329,37.6314],[15.1344,37.6231],[15.1373,37.6205]]]}},{"type":"Feature","properties":{"i":"087006","n":"Adrano"},"geometry":{"type":"Polygon","coordinates":[[[14.8257,37.6307],[14.8255,37.6333],[14.8223,37.6371],[14.8098,37.6422],[14.8048,37.6462],[14.7973,37.646],[14.7924,37.6528],[14.7918,37.6661],[14.7924,37.6756],[14.7979,37.6819],[14.8003,37.683],[14.8025,37.6874],[14.8019,37.6912],[14.8001,37.6913],[14.798,37.7076],[14.7987,37.711],[14.8073,37.7133],[14.8157,37.7182],[14.8469,37.7248],[14.8741,37.7352],[14.9063,37.7351],[14.9442,37.7389],[14.9533,37.7405],[14.9944,37.7512],[14.9414,37.7277],[14.9109,37.7092],[14.9042,37.7025],[14.9038,37.692],[14.8999,37.6855],[14.8875,37.6769],[14.8858,37.6725],[14.8806,37.6686],[14.8665,37.6621],[14.8644,37.6615],[14.8612,37.6622],[14.8546,37.6619],[14.8487,37.66],[14.8478,37.6574],[14.8334,37.6415],[14.8257,37.6307]]]}},{"type":"Feature","properties":{"i":"087007","n":"Belpasso"},"geometry":{"type":"Polygon","coordinates":[[[15.0174,37.597],[15.0177,37.5882],[15.0169,37.581],[15.0042,37.5739],[14.9923,37.5475],[14.9886,37.5433],[14.9865,37.5343],[14.9765,37.5358],[14.9549,37.5314],[14.9503,37.5281],[14.9482,37.5254],[14.9453,37.5172],[14.9447,37.5075],[14.9412,37.5031],[14.939,37.4984],[14.9392,37.485],[14.9421,37.4755],[14.9385,37.4605],[14.9418,37.4516],[14.9487,37.4472],[14.9468,37.4404],[14.9409,37.4413],[14.9376,37.443],[14.9353,37.4429],[14.9341,37.4414],[14.9337,37.4384],[14.9342,37.4327],[14.9346,37.432],[14.9373,37.4314],[14.9468,37.4363],[14.9483,37.4398],[14.9492,37.4382],[14.95,37.4306],[14.9483,37.4269],[14.9414,37.4186],[14.9358,37.4084],[14.9318,37.4085],[14.9258,37.4106],[14.9126,37.412],[14.8927,37.4103],[14.8875,37.4077],[14.8802,37.4063],[14.8764,37.4063],[14.8734,37.4087],[14.8498,37.406],[14.8435,37.4096],[14.8419,37.4115],[14.842,37.4129],[14.8443,37.4196],[14.8443,37.4245],[14.8466,37.4286],[14.8595,37.4431],[14.8708,37.4497],[14.8788,37.4558],[14.88,37.4695],[14.8782,37.4761],[14.8782,37.4849],[14.8856,37.4887],[14.8931,37.5026],[14.8978,37.5177],[14.8989,37.5257],[14.908,37.5358],[14.9118,37.5424],[14.9167,37.558],[14.9239,37.5641],[14.9313,37.5716],[14.9332,37.5777],[14.9328,37.5796],[14.9275,37.5847],[14.9311,37.5961],[14.9355,37.6055],[14.9387,37.6071],[14.9514,37.622],[14.9579,37.6275],[14.9554,37.6302],[14.9566,37.6344],[14.9592,37.6381],[14.9637,37.6396],[14.9679,37.6381],[14.9724,37.6386],[14.9821,37.6488],[14.9809,37.6534],[14.9742,37.6567],[14.9741,37.6604],[14.9802,37.6902],[14.9796,37.692],[14.9802,37.7004],[14.987,37.7135],[14.9952,37.7328],[14.9944,37.7512],[14.9981,37.7394],[14.9996,37.7295],[14.9996,37.7221],[14.9934,37.7088],[14.9959,37.7014],[14.9946,37.6888],[14.9901,37.677],[14.9921,37.6723],[14.9918,37.6626],[14.9889,37.6583],[14.988,37.6545],[14.9882,37.6496],[14.9908,37.6473],[14.9944,37.6319],[14.9985,37.6204],[15.0026,37.6119],[15.002,37.6051],[15.0089,37.5998],[15.0174,37.597]]]}},{"type":"Feature","properties":{"i":"087008","n":"Biancavilla"},"geometry":{"type":"Polygon","coordinates":[[[14.9304,37.6764],[14.9283,37.6742],[14.9279,37.671],[14.919,37.6632],[14.9151,37.6556],[14.9137,37.65],[14.9122,37.6481],[14.9026,37.6433],[14.8961,37.6425],[14.8897,37.6398],[14.8869,37.6363],[14.8862,37.633],[14.882,37.6274],[14.8768,37.624],[14.8712,37.624],[14.8668,37.6223],[14.865,37.6201],[14.8653,37.617],[14.8629,37.6123],[14.8531,37.6068],[14.8519,37.605],[14.8322,37.5876],[14.8274,37.5895],[14.8266,37.5941],[14.8288,37.5982],[14.8281,37.6082],[14.8243,37.6122],[14.822,37.6188],[14.8257,37.6307],[14.8334,37.6415],[14.8478,37.6574],[14.8487,37.66],[14.8546,37.6619],[14.8612,37.6622],[14.8644,37.6615],[14.8806,37.6686],[14.8858,37.6725],[14.8875,37.6769],[14.8999,37.6855],[14.9038,37.692],[14.9042,37.7025],[14.9109,37.7092],[14.9414,37.7277],[14.9944,37.7512],[14.9952,37.7328],[14.9723,37.713],[14.9518,37.6978],[14.9388,37.6847],[14.9327,37.6824],[14.9313,37.6803],[14.9304,37.6764]]]}},{"type":"Feature","properties":{"i":"087009","n":"Bronte"},"geometry":{"type":"Polygon","coordinates":[[[14.9944,37.7512],[14.9566,37.7944],[14.9512,37.799],[14.9199,37.8193],[14.9156,37.8209],[14.9128,37.8208],[14.904,37.8227],[14.8949,37.828],[14.8843,37.836],[14.8773,37.8436],[14.871,37.8472],[14.8636,37.8449],[14.8593,37.8426],[14.8547,37.838],[14.8523,37.8342],[14.8524,37.8303],[14.8533,37.8281],[14.8624,37.8124],[14.8657,37.8117],[14.8732,37.8065],[14.8851,37.795],[14.8922,37.7903],[14.9067,37.786],[14.9183,37.7805],[14.9383,37.7727],[14.9531,37.7683],[14.9944,37.7512],[14.9533,37.7405],[14.9442,37.7389],[14.9063,37.7351],[14.8741,37.7352],[14.8469,37.7248],[14.8157,37.7182],[14.8073,37.7133],[14.7987,37.711],[14.7979,37.7127],[14.7994,37.7162],[14.7949,37.7198],[14.791,37.7215],[14.7861,37.7254],[14.7817,37.7324],[14.7807,37.7361],[14.7834,37.7421],[14.7901,37.7506],[14.7889,37.7528],[14.7852,37.7536],[14.7852,37.7512],[14.7836,37.7492],[14.7743,37.7458],[14.7638,37.7441],[14.7601,37.7462],[14.7343,37.7547],[14.7264,37.7613],[14.7238,37.7617],[14.7164,37.7672],[14.7146,37.7693],[14.7144,37.776],[14.7194,37.781],[14.7263,37.7845],[14.7442,37.7896],[14.7448,37.795],[14.7396,37.8022],[14.7383,37.8123],[14.7423,37.8181],[14.7448,37.8171],[14.7465,37.8176],[14.7503,37.821],[14.7562,37.822],[14.7639,37.8221],[14.7683,37.8206],[14.775,37.8118],[14.7872,37.8087],[14.7931,37.8063],[14.7973,37.8033],[14.8009,37.8047],[14.8028,37.8109],[14.8024,37.8165],[14.7919,37.8388],[14.7928,37.8416],[14.7956,37.8434],[14.805,37.8527],[14.8132,37.8578],[14.8342,37.8637],[14.8422,37.8633],[14.8482,37.8673],[14.8453,37.8674],[14.842,37.8691],[14.8346,37.8866],[14.8303,37.8924],[14.8267,37.8902],[14.8172,37.8865],[14.8073,37.8877],[14.8055,37.8987],[14.8041,37.902],[14.7827,37.9021],[14.7785,37.9041],[14.777,37.9069],[14.774,37.9095],[14.7708,37.9108],[14.7633,37.9119],[14.7579,37.9141],[14.7565,37.9168],[14.7615,37.9233],[14.7628,37.9277],[14.7627,37.9358],[14.7648,37.9402],[14.7808,37.9457],[14.7825,37.9492],[14.7847,37.9512],[14.8009,37.9528],[14.8089,37.9441],[14.8213,37.9368],[14.8285,37.9351],[14.8353,37.9281],[14.8431,37.9128],[14.8374,37.9089],[14.8353,37.9086],[14.8343,37.8968],[14.8354,37.8936],[14.847,37.8921],[14.8582,37.8946],[14.8629,37.8947],[14.8646,37.8857],[14.8624,37.8778],[14.8651,37.874],[14.8781,37.8739],[14.8889,37.8687],[14.894,37.8635],[14.8955,37.8572],[14.9168,37.8307],[14.9249,37.8253],[14.9412,37.8167],[14.955,37.8083],[14.9641,37.8032],[14.9695,37.8012],[14.9865,37.7895],[14.9944,37.7512]]]}},{"type":"Feature","properties":{"i":"087010","n":"Calatabiano"},"geometry":{"type":"Polygon","coordinates":[[[15.2268,37.8425],[15.2323,37.8302],[15.2466,37.8175],[15.2463,37.8128],[15.2528,37.8089],[15.2585,37.807],[15.2485,37.7998],[15.2384,37.7881],[15.2375,37.7908],[15.2238,37.7945],[15.222,37.7963],[15.2209,37.8015],[15.21,37.8036],[15.1955,37.8032],[15.1943,37.8069],[15.1844,37.8226],[15.1666,37.8396],[15.1747,37.8461],[15.2013,37.8455],[15.2268,37.8425]]]}},{"type":"Feature","properties":{"i":"087011","n":"Caltagirone"},"geometry":{"type":"Polygon","coordinates":[[[14.5992,37.2651],[14.5749,37.2472],[14.5718,37.2322],[14.5717,37.2307],[14.5725,37.2296],[14.5757,37.2297],[14.5767,37.2305],[14.5818,37.2368],[14.583,37.2408],[14.585,37.2423],[14.5885,37.2425],[14.5938,37.2402],[14.6001,37.2345],[14.601,37.2334],[14.6022,37.227],[14.5972,37.214],[14.5923,37.206],[14.5808,37.1943],[14.5789,37.1913],[14.5784,37.1897],[14.5795,37.1865],[14.5828,37.1843],[14.5874,37.1856],[14.6016,37.198],[14.6075,37.1987],[14.6182,37.1974],[14.6253,37.2005],[14.6353,37.2026],[14.6397,37.2028],[14.6423,37.2012],[14.6474,37.2029],[14.6601,37.1905],[14.6626,37.1854],[14.6632,37.178],[14.6621,37.1759],[14.6552,37.167],[14.6459,37.1579],[14.6295,37.1454],[14.6259,37.1452],[14.6182,37.1475],[14.6109,37.1483],[14.6063,37.1471],[14.607,37.1445],[14.6115,37.138],[14.6137,37.1363],[14.6173,37.1354],[14.6166,37.1314],[14.6124,37.1289],[14.607,37.1269],[14.6008,37.1267],[14.5868,37.1238],[14.5703,37.1154],[14.5449,37.1117],[14.5388,37.1104],[14.535,37.1087],[14.5349,37.1072],[14.5288,37.0957],[14.5248,37.0924],[14.5256,37.0885],[14.5341,37.0794],[14.5349,37.0763],[14.534,37.0754],[14.5176,37.0711],[14.5043,37.0638],[14.4959,37.0602],[14.4791,37.0548],[14.4757,37.0521],[14.471,37.0505],[14.4644,37.0503],[14.4459,37.0548],[14.4441,37.0529],[14.4426,37.0539],[14.441,37.0568],[14.4428,37.0606],[14.4436,37.0648],[14.4423,37.0677],[14.4374,37.0732],[14.433,37.081],[14.4283,37.0939],[14.433,37.0985],[14.4487,37.0975],[14.4528,37.098],[14.4566,37.1085],[14.4685,37.1202],[14.4756,37.1317],[14.474,37.1374],[14.4683,37.1427],[14.4587,37.1555],[14.4514,37.1691],[14.4469,37.1737],[14.4383,37.179],[14.4324,37.185],[14.4319,37.1898],[14.4231,37.1835],[14.419,37.1792],[14.4138,37.1775],[14.4107,37.1773],[14.3984,37.1791],[14.3964,37.1836],[14.3926,37.1873],[14.389,37.1893],[14.3865,37.1889],[14.3815,37.1922],[14.3804,37.195],[14.3831,37.1989],[14.3832,37.2021],[14.3761,37.205],[14.3737,37.2047],[14.3754,37.2063],[14.377,37.2124],[14.3827,37.2397],[14.382,37.2435],[14.3823,37.2501],[14.3836,37.2573],[14.3954,37.2629],[14.4128,37.265],[14.4186,37.2649],[14.4193,37.2606],[14.4183,37.2547],[14.4192,37.2511],[14.4287,37.2517],[14.4314,37.2531],[14.4427,37.2649],[14.4635,37.2686],[14.4683,37.2704],[14.4731,37.2785],[14.4742,37.2826],[14.4682,37.2895],[14.4652,37.2916],[14.4435,37.2887],[14.4421,37.2888],[14.4366,37.292],[14.433,37.2922],[14.4327,37.2954],[14.4369,37.3005],[14.4422,37.3034],[14.4495,37.3017],[14.4542,37.3032],[14.4751,37.298],[14.4909,37.2954],[14.4964,37.3],[14.4992,37.3061],[14.5018,37.3091],[14.5027,37.3091],[14.5031,37.3061],[14.5054,37.302],[14.5167,37.2925],[14.5231,37.2895],[14.5261,37.289],[14.5366,37.2909],[14.5617,37.2922],[14.5725,37.2958],[14.5801,37.3017],[14.5919,37.3034],[14.5955,37.302],[14.5965,37.3013],[14.5975,37.2979],[14.5982,37.291],[14.6002,37.2845],[14.6025,37.2807],[14.6022,37.2765],[14.5999,37.271],[14.5992,37.2651]]]}},{"type":"Feature","properties":{"i":"087012","n":"Camporotondo Etneo"},"geometry":{"type":"Polygon","coordinates":[[[15.0217,37.5497],[15.0192,37.5477],[15.0076,37.5418],[14.9974,37.5378],[14.99,37.5324],[14.9865,37.5343],[14.9886,37.5433],[14.9923,37.5475],[15.0042,37.5739],[15.0102,37.5773],[15.0109,37.5626],[15.0145,37.5574],[15.0217,37.5497]]]}},{"type":"Feature","properties":{"i":"087013","n":"Castel di Iudica"},"geometry":{"type":"Polygon","coordinates":[[[14.7816,37.5032],[14.779,37.4997],[14.7825,37.4959],[14.7565,37.4865],[14.7334,37.4822],[14.7213,37.4824],[14.7024,37.4748],[14.6867,37.472],[14.679,37.4729],[14.6725,37.4627],[14.6737,37.4577],[14.6711,37.4526],[14.6626,37.454],[14.6509,37.4537],[14.643,37.4563],[14.6426,37.4661],[14.6359,37.4806],[14.6332,37.4845],[14.6241,37.4919],[14.6211,37.4904],[14.6145,37.4922],[14.6072,37.499],[14.6069,37.5059],[14.6083,37.5104],[14.6122,37.5177],[14.609,37.5219],[14.6065,37.5226],[14.5951,37.5218],[14.5908,37.5281],[14.5915,37.5309],[14.5946,37.5334],[14.5945,37.5363],[14.6328,37.5364],[14.6373,37.5431],[14.6532,37.549],[14.6648,37.5513],[14.674,37.558],[14.6797,37.5579],[14.6896,37.5542],[14.695,37.5556],[14.699,37.5552],[14.7011,37.5514],[14.6995,37.5495],[14.7021,37.5489],[14.7074,37.5495],[14.7129,37.5454],[14.7122,37.5423],[14.7148,37.5397],[14.7227,37.5394],[14.7285,37.5351],[14.7288,37.5327],[14.7332,37.5286],[14.7418,37.5271],[14.7577,37.5098],[14.7639,37.5044],[14.767,37.5091],[14.7715,37.5093],[14.7729,37.5087],[14.7746,37.5043],[14.7775,37.502],[14.7816,37.5032]]]}},{"type":"Feature","properties":{"i":"087014","n":"Castiglione di Sicilia"},"geometry":{"type":"Polygon","coordinates":[[[15.1615,37.8896],[15.1739,37.8775],[15.1856,37.8752],[15.1917,37.8711],[15.1959,37.8671],[15.2002,37.8651],[15.2062,37.8608],[15.2096,37.8601],[15.2104,37.8565],[15.2148,37.8533],[15.2211,37.8504],[15.2229,37.8467],[15.2268,37.8425],[15.2013,37.8455],[15.1895,37.8453],[15.1727,37.8466],[15.1561,37.8553],[15.1556,37.8564],[15.1397,37.8676],[15.132,37.8645],[15.1173,37.8525],[15.1209,37.843],[15.1138,37.8405],[15.0994,37.8334],[15.0929,37.8294],[15.0862,37.822],[15.078,37.8162],[15.0712,37.814],[15.0294,37.8064],[15.0178,37.8001],[15.0147,37.7966],[15.0091,37.7837],[15.0082,37.7781],[15.0086,37.7719],[15.011,37.7691],[15.0128,37.7685],[15.017,37.7649],[15.0137,37.7642],[15.0093,37.7618],[14.9944,37.7512],[15.0072,37.8124],[15.0096,37.8511],[15.0113,37.8567],[15.0176,37.8631],[15.0205,37.8683],[15.0191,37.8792],[15.0198,37.8803],[15.0224,37.8807],[15.0229,37.8879],[15.0225,37.8918],[15.018,37.8956],[15.0199,37.8973],[15.0215,37.8981],[15.028,37.8973],[15.0316,37.895],[15.0426,37.8937],[15.0492,37.8948],[15.0715,37.904],[15.0807,37.9023],[15.0971,37.9027],[15.1117,37.9061],[15.1277,37.8976],[15.1306,37.894],[15.1408,37.8936],[15.1454,37.8952],[15.1526,37.8955],[15.1536,37.895],[15.1556,37.8909],[15.1585,37.8896],[15.1615,37.8896]]]}},{"type":"Feature","properties":{"i":"087015","n":"Catania"},"geometry":{"type":"Polygon","coordinates":[[[15.0479,37.5616],[15.051,37.5579],[15.056,37.5547],[15.059,37.5507],[15.0593,37.5449],[15.0558,37.5441],[15.0579,37.5412],[15.061,37.5388],[15.0702,37.5381],[15.0695,37.543],[15.0729,37.5438],[15.0786,37.5424],[15.0861,37.5457],[15.0888,37.545],[15.0904,37.5434],[15.0901,37.5395],[15.0907,37.5385],[15.1008,37.5349],[15.1024,37.5376],[15.1026,37.5398],[15.1158,37.5485],[15.1186,37.5472],[15.1261,37.5346],[15.115,37.5307],[15.1168,37.5272],[15.1175,37.5235],[15.1072,37.5145],[15.0986,37.5012],[15.1003,37.4926],[15.0998,37.4839],[15.0992,37.484],[15.0996,37.4911],[15.0987,37.5003],[15.0976,37.5015],[15.0958,37.5014],[15.0918,37.4972],[15.0911,37.4949],[15.0926,37.4924],[15.0903,37.4871],[15.0875,37.4847],[15.0857,37.4799],[15.0853,37.4729],[15.0866,37.453],[15.091,37.412],[15.0901,37.3927],[15.091,37.3586],[15.0762,37.3588],[15.0482,37.3632],[15.0334,37.3621],[15.0324,37.3625],[15.033,37.3653],[15.0326,37.3713],[15.026,37.3785],[15.0227,37.3723],[15.0146,37.3692],[14.985,37.3736],[14.9641,37.3823],[14.9564,37.3863],[14.9532,37.3931],[14.9414,37.4053],[14.9368,37.4065],[14.9358,37.4084],[14.9414,37.4186],[14.9483,37.4269],[14.95,37.4306],[14.9492,37.4382],[14.9483,37.4398],[14.9475,37.4389],[14.9465,37.4393],[14.9487,37.4472],[14.9517,37.4465],[14.9531,37.4502],[14.953,37.4542],[14.9519,37.4564],[14.9487,37.4592],[14.9465,37.4646],[14.9541,37.4661],[14.9624,37.4639],[14.9661,37.464],[14.9713,37.4577],[14.9785,37.4532],[14.9892,37.4545],[14.9974,37.4584],[15.0085,37.4595],[15.0262,37.4661],[15.0269,37.4811],[15.0238,37.4865],[15.0205,37.4867],[15.0191,37.4887],[15.0197,37.4937],[15.0219,37.4962],[15.0309,37.5019],[15.0332,37.5095],[15.0371,37.516],[15.0391,37.5184],[15.0477,37.5233],[15.0535,37.5284],[15.0566,37.5344],[15.0562,37.5392],[15.0535,37.5398],[15.0497,37.5391],[15.0359,37.5503],[15.0379,37.5544],[15.0397,37.5558],[15.0415,37.5618],[15.0479,37.5616]]]}},{"type":"Feature","properties":{"i":"087016","n":"Fiumefreddo di Sicilia"},"geometry":{"type":"Polygon","coordinates":[[[15.2384,37.7881],[15.2237,37.7683],[15.2199,37.7706],[15.2232,37.781],[15.2199,37.7843],[15.2181,37.7844],[15.2177,37.7832],[15.2195,37.7796],[15.2164,37.7778],[15.2101,37.7754],[15.1983,37.776],[15.1795,37.7841],[15.1762,37.7861],[15.1758,37.7893],[15.176,37.7905],[15.1822,37.7965],[15.1928,37.8003],[15.1955,37.8032],[15.21,37.8036],[15.2209,37.8015],[15.222,37.7963],[15.2238,37.7945],[15.2375,37.7908],[15.2384,37.7881]]]}},{"type":"Feature","properties":{"i":"087017","n":"Giarre"},"geometry":{"type":"Polygon","coordinates":[[[15.1952,37.7379],[15.1963,37.7346],[15.1958,37.7266],[15.197,37.7191],[15.1923,37.7087],[15.185,37.7053],[15.1739,37.7016],[15.1732,37.6935],[15.1772,37.6939],[15.1814,37.6973],[15.1854,37.6986],[15.2004,37.7017],[15.1983,37.6977],[15.1852,37.6849],[15.1743,37.6831],[15.1732,37.6822],[15.1724,37.6786],[15.1665,37.6833],[15.1596,37.6866],[15.1578,37.6915],[15.1593,37.6919],[15.1633,37.6911],[15.1664,37.6923],[15.1668,37.6988],[15.1662,37.7018],[15.1485,37.7076],[15.1192,37.7079],[15.1184,37.7088],[15.1208,37.7124],[15.1336,37.7183],[15.142,37.7277],[15.1427,37.7305],[15.1419,37.7329],[15.1485,37.7321],[15.1516,37.7447],[15.1493,37.7458],[15.1511,37.747],[15.164,37.7486],[15.1858,37.7464],[15.1922,37.7428],[15.1928,37.7391],[15.1952,37.7379]],[[15.1672,37.7332],[15.1698,37.7329],[15.1715,37.7338],[15.172,37.7347],[15.1712,37.7373],[15.167,37.7384],[15.1656,37.7372],[15.1652,37.7352],[15.1672,37.7332]]]}},{"type":"Feature","properties":{"i":"087018","n":"Grammichele"},"geometry":{"type":"Polygon","coordinates":[[[14.6627,37.217],[14.6597,37.2157],[14.6588,37.2129],[14.6522,37.2054],[14.6461,37.2021],[14.6423,37.2012],[14.6397,37.2028],[14.6353,37.2026],[14.6253,37.2005],[14.6182,37.1974],[14.6075,37.1987],[14.6016,37.198],[14.5882,37.1861],[14.5846,37.1845],[14.5824,37.1844],[14.5795,37.1865],[14.5787,37.191],[14.5808,37.1943],[14.5923,37.206],[14.5972,37.214],[14.6022,37.227],[14.601,37.2334],[14.6001,37.2345],[14.5938,37.2402],[14.5885,37.2425],[14.585,37.2423],[14.583,37.2408],[14.5818,37.2368],[14.5767,37.2305],[14.5757,37.2297],[14.5725,37.2296],[14.5717,37.2307],[14.5718,37.2322],[14.5749,37.2472],[14.5992,37.2651],[14.6038,37.2648],[14.6185,37.253],[14.6254,37.2453],[14.6315,37.2408],[14.6334,37.2406],[14.6385,37.2336],[14.6395,37.2294],[14.6485,37.223],[14.6517,37.2218],[14.6587,37.2212],[14.6627,37.217]]]}},{"type":"Feature","properties":{"i":"087019","n":"Gravina di Catania"},"geometry":{"type":"Polygon","coordinates":[[[15.0727,37.56],[15.0736,37.546],[15.0764,37.5431],[15.0729,37.5438],[15.0695,37.543],[15.0702,37.5381],[15.063,37.5385],[15.061,37.5388],[15.0584,37.5407],[15.056,37.5436],[15.0561,37.5445],[15.0593,37.5449],[15.059,37.5507],[15.056,37.5547],[15.051,37.5579],[15.0479,37.5616],[15.047,37.5643],[15.0541,37.5682],[15.0606,37.5676],[15.0648,37.569],[15.0727,37.56]]]}},{"type":"Feature","properties":{"i":"087020","n":"Licodia Eubea"},"geometry":{"type":"Polygon","coordinates":[[[14.7768,37.1283],[14.7845,37.1156],[14.7887,37.1116],[14.795,37.1089],[14.7957,37.1064],[14.7925,37.1051],[14.7891,37.1084],[14.7709,37.1022],[14.7655,37.0993],[14.7651,37.0957],[14.7576,37.0957],[14.7543,37.0967],[14.7512,37.0991],[14.7438,37.101],[14.7317,37.0962],[14.7274,37.096],[14.725,37.102],[14.7292,37.1133],[14.7288,37.1168],[14.7107,37.1256],[14.6927,37.1144],[14.6836,37.1101],[14.6767,37.1012],[14.6631,37.1051],[14.6603,37.1067],[14.6521,37.1028],[14.6487,37.1005],[14.6416,37.0858],[14.639,37.0857],[14.6204,37.0793],[14.6174,37.0805],[14.6132,37.0915],[14.6119,37.0913],[14.6093,37.0882],[14.5913,37.1039],[14.584,37.1081],[14.5828,37.1217],[14.5868,37.1238],[14.6008,37.1267],[14.6076,37.127],[14.616,37.131],[14.6168,37.132],[14.6173,37.1354],[14.6137,37.1363],[14.6115,37.138],[14.607,37.1445],[14.6063,37.1471],[14.6109,37.1483],[14.6182,37.1475],[14.6259,37.1452],[14.6295,37.1454],[14.6459,37.1579],[14.6552,37.167],[14.663,37.1773],[14.6626,37.1854],[14.6601,37.1905],[14.6474,37.2029],[14.6522,37.2054],[14.6588,37.2129],[14.6597,37.2157],[14.6627,37.217],[14.6796,37.2162],[14.6842,37.2194],[14.6897,37.2198],[14.6912,37.2196],[14.6957,37.2158],[14.6984,37.2101],[14.6953,37.203],[14.701,37.182],[14.7,37.1772],[14.6919,37.1703],[14.6911,37.1677],[14.7043,37.1636],[14.709,37.165],[14.7122,37.1711],[14.7143,37.1723],[14.7199,37.1725],[14.7225,37.1707],[14.7248,37.1574],[14.7243,37.1557],[14.7373,37.1479],[14.7379,37.1446],[14.7368,37.1409],[14.7222,37.1249],[14.7221,37.1212],[14.7253,37.1212],[14.7319,37.1252],[14.7335,37.129],[14.7372,37.1336],[14.7478,37.1295],[14.7526,37.1322],[14.7536,37.1369],[14.7618,37.1345],[14.7706,37.1284],[14.7733,37.1276],[14.7768,37.1283]]]}},{"type":"Feature","properties":{"i":"087021","n":"Linguaglossa"},"geometry":{"type":"Polygon","coordinates":[[[15.1747,37.8461],[15.1628,37.8361],[15.1472,37.8184],[15.1314,37.8065],[15.1299,37.7976],[15.1149,37.7937],[15.0974,37.787],[15.0941,37.7865],[15.087,37.7873],[15.0737,37.7843],[15.0383,37.7731],[15.017,37.7649],[15.0128,37.7685],[15.011,37.7691],[15.0086,37.7719],[15.0082,37.7781],[15.0091,37.7837],[15.0147,37.7966],[15.0178,37.8001],[15.0294,37.8064],[15.0712,37.814],[15.078,37.8162],[15.0862,37.822],[15.0929,37.8294],[15.0994,37.8334],[15.1138,37.8405],[15.1209,37.843],[15.1173,37.8525],[15.132,37.8645],[15.1397,37.8676],[15.1556,37.8564],[15.1561,37.8553],[15.1719,37.8468],[15.1747,37.8461]]]}},{"type":"Feature","properties":{"i":"087022","n":"Maletto"},"geometry":{"type":"Polygon","coordinates":[[[14.9944,37.7512],[14.9531,37.7683],[14.9383,37.7727],[14.9183,37.7805],[14.9067,37.786],[14.8922,37.7903],[14.8851,37.795],[14.8732,37.8065],[14.8657,37.8117],[14.8624,37.8124],[14.8533,37.8281],[14.8524,37.8303],[14.8523,37.8342],[14.8547,37.838],[14.8593,37.8426],[14.8636,37.8449],[14.871,37.8472],[14.8773,37.8436],[14.8843,37.836],[14.8949,37.828],[14.904,37.8227],[14.9128,37.8208],[14.9156,37.8209],[14.9199,37.8193],[14.9512,37.799],[14.9566,37.7944],[14.9944,37.7512]]]}},{"type":"Feature","properties":{"i":"087023","n":"Mascali"},"geometry":{"type":"MultiPolygon","coordinates":[[[[15.1672,37.7332],[15.1652,37.7352],[15.1656,37.7372],[15.167,37.7384],[15.1712,37.7373],[15.172,37.7347],[15.1715,37.7338],[15.1698,37.7329],[15.1672,37.7332]]],[[[15.176,37.7905],[15.1762,37.7861],[15.1897,37.7793],[15.1983,37.776],[15.2101,37.7754],[15.2168,37.778],[15.2195,37.7796],[15.2177,37.7832],[15.2186,37.7847],[15.2232,37.781],[15.2199,37.7706],[15.2237,37.7683],[15.2118,37.7535],[15.2053,37.741],[15.2049,37.7374],[15.1952,37.7379],[15.1928,37.7391],[15.1922,37.7428],[15.1858,37.7464],[15.164,37.7486],[15.147,37.7459],[15.1354,37.7511],[15.111,37.7597],[15.1106,37.7631],[15.1124,37.7702],[15.1151,37.7737],[15.1226,37.7792],[15.1259,37.7828],[15.1411,37.7902],[15.1483,37.7929],[15.1535,37.7934],[15.1728,37.7926],[15.176,37.7905]]]]}},{"type":"Feature","properties":{"i":"087024","n":"Mascalucia"},"geometry":{"type":"Polygon","coordinates":[[[15.0637,37.5982],[15.0623,37.594],[15.0557,37.5916],[15.0648,37.569],[15.0606,37.5676],[15.0541,37.5682],[15.0521,37.5677],[15.0471,37.5647],[15.0479,37.5616],[15.0415,37.5618],[15.0397,37.5558],[15.0379,37.5544],[15.0346,37.5563],[15.0298,37.5602],[15.0292,37.5633],[15.0349,37.5683],[15.0333,37.577],[15.0294,37.5808],[15.0247,37.583],[15.0197,37.5836],[15.0182,37.5832],[15.0169,37.581],[15.0177,37.5882],[15.0174,37.597],[15.0219,37.6085],[15.0343,37.6141],[15.037,37.6176],[15.0485,37.6022],[15.0511,37.6007],[15.0637,37.5982]]]}},{"type":"Feature","properties":{"i":"087025","n":"Militello in Val di Catania"},"geometry":{"type":"Polygon","coordinates":[[[14.8211,37.3162],[14.821,37.3144],[14.8162,37.3035],[14.8162,37.2897],[14.8142,37.2837],[14.8171,37.2823],[14.8207,37.2822],[14.8365,37.2844],[14.8559,37.2797],[14.8582,37.277],[14.8565,37.2723],[14.8475,37.26],[14.838,37.2576],[14.8241,37.2579],[14.8121,37.256],[14.809,37.2547],[14.8085,37.2518],[14.8068,37.2522],[14.8024,37.2504],[14.7906,37.2427],[14.784,37.236],[14.7811,37.2298],[14.7799,37.2294],[14.7701,37.2403],[14.7672,37.2445],[14.7582,37.2439],[14.7552,37.2488],[14.7566,37.2542],[14.7558,37.2566],[14.7497,37.2591],[14.7425,37.2606],[14.7403,37.2664],[14.7415,37.2815],[14.7365,37.2914],[14.7433,37.2949],[14.7428,37.299],[14.7412,37.3001],[14.7448,37.3011],[14.7509,37.3011],[14.754,37.3036],[14.7565,37.3114],[14.7548,37.3188],[14.7556,37.3204],[14.7609,37.3235],[14.7656,37.3231],[14.7699,37.3215],[14.7752,37.3217],[14.778,37.3229],[14.7794,37.3245],[14.7834,37.3256],[14.7906,37.3247],[14.7952,37.3198],[14.804,37.3158],[14.8159,37.3183],[14.8193,37.318],[14.8211,37.3162]]]}},{"type":"Feature","properties":{"i":"087026","n":"Milo"},"geometry":{"type":"Polygon","coordinates":[[[15.1419,37.7329],[15.1427,37.7305],[15.142,37.7277],[15.1336,37.7183],[15.1208,37.7124],[15.1184,37.7088],[15.1192,37.7079],[15.1174,37.7061],[15.1148,37.7058],[15.1107,37.7091],[15.1092,37.7137],[15.1062,37.7178],[15.101,37.718],[15.0974,37.7201],[15.0946,37.7252],[15.0938,37.7322],[15.0918,37.737],[15.0898,37.7381],[15.0793,37.7402],[15.0687,37.7459],[15.0645,37.7506],[15.058,37.7524],[15.0595,37.7613],[15.0687,37.7635],[15.0721,37.7628],[15.0779,37.7573],[15.0867,37.7526],[15.0917,37.7516],[15.1093,37.7429],[15.1211,37.7386],[15.1342,37.736],[15.1419,37.7329]]]}},{"type":"Feature","properties":{"i":"087027","n":"Mineo"},"geometry":{"type":"Polygon","coordinates":[[[14.7359,37.3709],[14.7262,37.3658],[14.7264,37.3598],[14.7247,37.3577],[14.7161,37.3531],[14.7135,37.3547],[14.7079,37.3529],[14.7031,37.3464],[14.7056,37.343],[14.7133,37.3369],[14.7205,37.3223],[14.7428,37.299],[14.7433,37.2949],[14.7365,37.2914],[14.7415,37.2815],[14.7403,37.2664],[14.7425,37.2606],[14.7497,37.2591],[14.7558,37.2566],[14.7566,37.2542],[14.7561,37.2526],[14.7537,37.2511],[14.7507,37.2473],[14.7485,37.2425],[14.7402,37.2407],[14.7342,37.2268],[14.7298,37.2269],[14.726,37.2289],[14.7203,37.2295],[14.711,37.2268],[14.7052,37.2217],[14.6982,37.2186],[14.6897,37.2198],[14.6842,37.2194],[14.6796,37.2162],[14.6627,37.217],[14.6587,37.2212],[14.6517,37.2218],[14.6485,37.223],[14.6395,37.2294],[14.6385,37.2336],[14.6334,37.2406],[14.6315,37.2408],[14.6254,37.2453],[14.6185,37.253],[14.6038,37.2648],[14.5992,37.2651],[14.5999,37.271],[14.6022,37.2765],[14.6025,37.2807],[14.6002,37.2845],[14.5982,37.291],[14.5975,37.2979],[14.5965,37.3013],[14.5955,37.302],[14.5919,37.3034],[14.5801,37.3017],[14.5725,37.2958],[14.5617,37.2922],[14.5366,37.2909],[14.5261,37.289],[14.5231,37.2895],[14.5167,37.2925],[14.5054,37.302],[14.5031,37.3061],[14.5027,37.3091],[14.5063,37.3105],[14.5108,37.3142],[14.5112,37.3174],[14.5177,37.3214],[14.5194,37.3251],[14.5123,37.3349],[14.5059,37.3381],[14.4991,37.3403],[14.4958,37.3423],[14.4894,37.35],[14.4918,37.3492],[14.5037,37.3487],[14.5143,37.3513],[14.5322,37.3607],[14.5401,37.364],[14.5554,37.3628],[14.5699,37.3604],[14.5761,37.3619],[14.5814,37.3642],[14.5843,37.371],[14.587,37.3731],[14.5901,37.3741],[14.5966,37.3705],[14.6052,37.3712],[14.6065,37.3726],[14.6092,37.3725],[14.6255,37.368],[14.6305,37.3687],[14.6341,37.3672],[14.6397,37.3634],[14.6639,37.3588],[14.6715,37.3561],[14.6766,37.3579],[14.6771,37.3589],[14.6779,37.3755],[14.6803,37.3786],[14.6903,37.3776],[14.7011,37.3788],[14.7065,37.3849],[14.7135,37.3879],[14.7162,37.3869],[14.7322,37.3747],[14.7359,37.3709]]]}},{"type":"Feature","properties":{"i":"087028","n":"Mirabella Imbaccari"},"geometry":{"type":"Polygon","coordinates":[[[14.5018,37.3091],[14.4992,37.3061],[14.4964,37.3],[14.4909,37.2954],[14.4751,37.298],[14.4542,37.3032],[14.4553,37.3045],[14.4556,37.3092],[14.4488,37.3184],[14.4458,37.3207],[14.4344,37.3248],[14.425,37.3332],[14.4224,37.337],[14.4221,37.3386],[14.4275,37.3404],[14.4373,37.3395],[14.4384,37.3428],[14.4407,37.3455],[14.4463,37.3486],[14.4513,37.3401],[14.4814,37.3172],[14.4866,37.3136],[14.4975,37.3092],[14.5018,37.3091]]]}},{"type":"Feature","properties":{"i":"087029","n":"Misterbianco"},"geometry":{"type":"MultiPolygon","coordinates":[[[[14.9774,37.4748],[14.9743,37.473],[14.9693,37.476],[14.974,37.4782],[14.978,37.476],[14.9774,37.4748]]],[[[15.0359,37.5503],[15.0497,37.5391],[15.0535,37.5398],[15.0562,37.5392],[15.0566,37.5344],[15.0535,37.5284],[15.0477,37.5233],[15.0391,37.5184],[15.0371,37.516],[15.0332,37.5095],[15.0309,37.5019],[15.0219,37.4962],[15.0197,37.4937],[15.0191,37.4887],[15.0205,37.4867],[15.0238,37.4865],[15.0269,37.4811],[15.0262,37.4661],[15.0085,37.4595],[14.9974,37.4584],[14.9892,37.4545],[14.9785,37.4532],[14.9727,37.4565],[14.9661,37.464],[14.9933,37.4779],[14.9962,37.4834],[14.9931,37.4881],[14.9924,37.4979],[14.9942,37.507],[14.9975,37.512],[15.0008,37.5154],[15.0,37.5198],[14.9957,37.5241],[14.99,37.5324],[14.9974,37.5378],[15.0076,37.5418],[15.0192,37.5477],[15.0217,37.5497],[15.0359,37.5503]]]]}},{"type":"Feature","properties":{"i":"087030","n":"Motta Sant'Anastasia"},"geometry":{"type":"MultiPolygon","coordinates":[[[[14.9468,37.4404],[14.9465,37.4393],[14.9475,37.4389],[14.9468,37.4363],[14.9373,37.4314],[14.9346,37.432],[14.9337,37.4384],[14.9346,37.4425],[14.9376,37.443],[14.9409,37.4413],[14.9468,37.4404]]],[[[14.9865,37.5343],[14.99,37.5324],[14.9957,37.5241],[15.0,37.5198],[15.0008,37.5154],[14.9975,37.512],[14.9942,37.507],[14.9924,37.4979],[14.9931,37.4881],[14.9962,37.4834],[14.9933,37.4779],[14.9661,37.464],[14.9624,37.4639],[14.9541,37.4661],[14.9465,37.4646],[14.9487,37.4592],[14.9519,37.4564],[14.953,37.4542],[14.9531,37.4502],[14.9517,37.4465],[14.9496,37.4467],[14.9418,37.4516],[14.9385,37.4605],[14.9421,37.4755],[14.9392,37.485],[14.939,37.4984],[14.9412,37.5031],[14.9447,37.5075],[14.9453,37.5172],[14.9482,37.5254],[14.9503,37.5281],[14.9549,37.5314],[14.9765,37.5358],[14.9865,37.5343]],[[14.9774,37.4748],[14.978,37.476],[14.974,37.4782],[14.9693,37.476],[14.9743,37.473],[14.9774,37.4748]]]]}},{"type":"Feature","properties":{"i":"087031","n":"Nicolosi"},"geometry":{"type":"Polygon","coordinates":[[[15.037,37.6176],[15.0343,37.6141],[15.0219,37.6085],[15.0174,37.597],[15.0089,37.5998],[15.002,37.6051],[15.0026,37.6119],[14.9985,37.6204],[14.9944,37.6319],[14.9908,37.6473],[14.9882,37.6496],[14.988,37.6545],[14.9889,37.6583],[14.9918,37.6626],[14.9921,37.6723],[14.9901,37.677],[14.9946,37.6888],[14.9959,37.7014],[14.9934,37.7088],[14.9996,37.7221],[14.9996,37.7295],[14.9981,37.7394],[14.9944,37.7512],[14.9997,37.7428],[15.0031,37.7345],[15.0114,37.7066],[15.0171,37.6975],[15.0188,37.6958],[15.0302,37.6748],[15.0319,37.6642],[15.0356,37.6547],[15.0432,37.6469],[15.0486,37.639],[15.0492,37.6356],[15.0478,37.6246],[15.0449,37.6217],[15.037,37.6176]]]}},{"type":"Feature","properties":{"i":"087032","n":"Palagonia"},"geometry":{"type":"Polygon","coordinates":[[[14.8429,37.3789],[14.839,37.3701],[14.8413,37.3613],[14.8384,37.3578],[14.8291,37.3546],[14.8179,37.353],[14.8092,37.3499],[14.7902,37.3395],[14.7786,37.3305],[14.7794,37.3245],[14.7761,37.3219],[14.7699,37.3215],[14.7656,37.3231],[14.7609,37.3235],[14.7576,37.3219],[14.7556,37.3204],[14.7548,37.3188],[14.7565,37.3114],[14.754,37.3036],[14.7509,37.3011],[14.7448,37.3011],[14.7412,37.3001],[14.7205,37.3223],[14.7133,37.3369],[14.7056,37.343],[14.7031,37.3464],[14.7079,37.3529],[14.7135,37.3547],[14.7161,37.3531],[14.7247,37.3577],[14.7264,37.3598],[14.7262,37.3658],[14.7346,37.3707],[14.7473,37.3736],[14.7617,37.3722],[14.7641,37.3732],[14.767,37.3762],[14.7699,37.3808],[14.7784,37.3861],[14.7894,37.3866],[14.8105,37.3798],[14.8197,37.3795],[14.8313,37.3774],[14.837,37.3772],[14.8429,37.3789]]]}},{"type":"Feature","properties":{"i":"087033","n":"Paternò"},"geometry":{"type":"Polygon","coordinates":[[[14.9355,37.6055],[14.9311,37.5961],[14.9275,37.5847],[14.9328,37.5796],[14.9332,37.5777],[14.9313,37.5716],[14.9239,37.5641],[14.9167,37.558],[14.9118,37.5424],[14.908,37.5358],[14.8989,37.5257],[14.8978,37.5177],[14.8931,37.5026],[14.8856,37.4887],[14.8782,37.4849],[14.8782,37.4761],[14.88,37.4695],[14.8788,37.4558],[14.8708,37.4497],[14.8595,37.4431],[14.8466,37.4286],[14.8443,37.4245],[14.8373,37.4405],[14.8376,37.445],[14.84,37.4534],[14.8356,37.4655],[14.8273,37.4766],[14.8187,37.4827],[14.8062,37.4893],[14.794,37.486],[14.7832,37.4908],[14.7823,37.4923],[14.7825,37.4959],[14.779,37.4997],[14.7816,37.5032],[14.7845,37.5024],[14.7913,37.5074],[14.7938,37.5146],[14.794,37.5187],[14.7912,37.5263],[14.7912,37.528],[14.7935,37.5305],[14.7991,37.5326],[14.8017,37.5544],[14.7911,37.5594],[14.7911,37.5618],[14.7963,37.5683],[14.8112,37.5818],[14.8256,37.587],[14.829,37.5889],[14.8322,37.5876],[14.8519,37.605],[14.8559,37.6006],[14.8618,37.5971],[14.8758,37.5914],[14.8879,37.59],[14.8992,37.5926],[14.9018,37.5994],[14.9017,37.6025],[14.9055,37.6116],[14.9194,37.6088],[14.9282,37.6084],[14.9295,37.6101],[14.9311,37.6103],[14.9343,37.6086],[14.9355,37.6055]]]}},{"type":"Feature","properties":{"i":"087034","n":"Pedara"},"geometry":{"type":"Polygon","coordinates":[[[15.0773,37.5965],[15.0766,37.5918],[15.0637,37.5982],[15.0511,37.6007],[15.0485,37.6022],[15.037,37.6176],[15.0449,37.6217],[15.0478,37.6246],[15.0492,37.6356],[15.0486,37.639],[15.0467,37.6421],[15.0432,37.6469],[15.0356,37.6547],[15.0319,37.6642],[15.0302,37.6748],[15.0274,37.68],[15.0489,37.6829],[15.0593,37.661],[15.0606,37.6556],[15.0603,37.6502],[15.0667,37.6418],[15.0673,37.6392],[15.0668,37.6335],[15.0646,37.6304],[15.0683,37.6196],[15.0697,37.6071],[15.0726,37.6012],[15.0773,37.5965]]]}},{"type":"Feature","properties":{"i":"087035","n":"Piedimonte Etneo"},"geometry":{"type":"Polygon","coordinates":[[[15.1955,37.8032],[15.1928,37.8003],[15.1822,37.7965],[15.176,37.7905],[15.1728,37.7926],[15.1491,37.7931],[15.1411,37.7902],[15.1259,37.7828],[15.1182,37.7842],[15.1107,37.7842],[15.0909,37.7814],[15.0496,37.773],[15.0412,37.7693],[15.039,37.7654],[15.0289,37.7615],[15.0232,37.7621],[15.017,37.7649],[15.0383,37.7731],[15.0737,37.7843],[15.087,37.7873],[15.0941,37.7865],[15.0974,37.787],[15.1149,37.7937],[15.1299,37.7976],[15.1314,37.8065],[15.1472,37.8184],[15.1531,37.8258],[15.1666,37.8396],[15.1844,37.8226],[15.1943,37.8069],[15.1955,37.8032]]]}},{"type":"Feature","properties":{"i":"087036","n":"Raddusa"},"geometry":{"type":"Polygon","coordinates":[[[14.539,37.454],[14.5374,37.453],[14.5262,37.4615],[14.5178,37.4758],[14.5164,37.4798],[14.5227,37.4928],[14.5263,37.495],[14.5278,37.4969],[14.4954,37.5051],[14.4878,37.5086],[14.4878,37.5102],[14.4907,37.5116],[14.4947,37.5111],[14.5065,37.5125],[14.516,37.5158],[14.5233,37.5166],[14.5265,37.5184],[14.5333,37.5245],[14.5495,37.52],[14.5593,37.5097],[14.5611,37.5032],[14.5524,37.4889],[14.5516,37.4856],[14.5563,37.4782],[14.5568,37.4726],[14.5416,37.462],[14.5396,37.4594],[14.539,37.454]]]}},{"type":"Feature","properties":{"i":"087037","n":"Ramacca"},"geometry":{"type":"Polygon","coordinates":[[[14.5945,37.5363],[14.5946,37.5334],[14.5915,37.5309],[14.5908,37.5276],[14.5944,37.5223],[14.5965,37.5217],[14.6087,37.5222],[14.6122,37.5177],[14.6083,37.5104],[14.6069,37.5059],[14.6072,37.499],[14.6145,37.4922],[14.6211,37.4904],[14.6241,37.4919],[14.6332,37.4845],[14.6359,37.4806],[14.6426,37.4661],[14.643,37.4563],[14.6509,37.4537],[14.6626,37.454],[14.6711,37.4526],[14.6737,37.4577],[14.6725,37.4627],[14.679,37.4729],[14.6867,37.472],[14.7024,37.4748],[14.7213,37.4824],[14.7334,37.4822],[14.7472,37.4844],[14.7565,37.4865],[14.7825,37.4959],[14.7823,37.4923],[14.7832,37.4908],[14.794,37.486],[14.8062,37.4893],[14.8187,37.4827],[14.8273,37.4766],[14.8356,37.4655],[14.8402,37.4527],[14.8376,37.445],[14.8373,37.4405],[14.8443,37.4245],[14.8443,37.4196],[14.8419,37.4115],[14.8435,37.4096],[14.8498,37.406],[14.8734,37.4087],[14.8764,37.4063],[14.8875,37.4077],[14.8875,37.3978],[14.8809,37.3916],[14.8778,37.3896],[14.8684,37.3863],[14.8545,37.3835],[14.837,37.3772],[14.8313,37.3774],[14.8197,37.3795],[14.8105,37.3798],[14.7894,37.3866],[14.7784,37.3861],[14.7699,37.3808],[14.767,37.3762],[14.7641,37.3732],[14.7617,37.3722],[14.7473,37.3736],[14.7359,37.3709],[14.7322,37.3747],[14.7162,37.3869],[14.7135,37.3879],[14.7065,37.3849],[14.7011,37.3788],[14.6903,37.3776],[14.6803,37.3786],[14.6779,37.3755],[14.6771,37.3589],[14.6766,37.3579],[14.6715,37.3561],[14.6639,37.3588],[14.6397,37.3634],[14.6341,37.3672],[14.6305,37.3687],[14.6255,37.368],[14.6092,37.3725],[14.6065,37.3726],[14.6052,37.3712],[14.5966,37.3705],[14.5897,37.3746],[14.5892,37.3799],[14.5908,37.3825],[14.586,37.3877],[14.5813,37.3883],[14.5784,37.3896],[14.5807,37.4001],[14.5828,37.4037],[14.5874,37.4083],[14.6003,37.4125],[14.6055,37.4111],[14.6111,37.4113],[14.616,37.4121],[14.6221,37.4146],[14.6327,37.4246],[14.6329,37.4296],[14.6243,37.4352],[14.6174,37.4351],[14.6129,37.434],[14.6085,37.4404],[14.5998,37.4421],[14.588,37.4501],[14.5818,37.4506],[14.5702,37.4469],[14.5616,37.4468],[14.5548,37.4449],[14.5439,37.4493],[14.5429,37.4537],[14.5421,37.4544],[14.539,37.454],[14.5396,37.4594],[14.5416,37.462],[14.5568,37.4726],[14.5563,37.4782],[14.5516,37.4856],[14.5524,37.4889],[14.5611,37.5032],[14.5593,37.5097],[14.5495,37.52],[14.5376,37.5238],[14.5325,37.5244],[14.5411,37.5403],[14.5467,37.5411],[14.5619,37.5407],[14.5613,37.5434],[14.573,37.5458],[14.5771,37.5447],[14.5797,37.5476],[14.5792,37.5487],[14.5803,37.5497],[14.5825,37.5494],[14.5883,37.5453],[14.5899,37.5436],[14.5914,37.5383],[14.5945,37.5363]]]}},{"type":"Feature","properties":{"i":"087038","n":"Randazzo"},"geometry":{"type":"MultiPolygon","coordinates":[[[[14.7979,37.7127],[14.7611,37.6942],[14.752,37.6864],[14.7477,37.6862],[14.7383,37.6911],[14.7345,37.6909],[14.7334,37.6871],[14.7286,37.6827],[14.7244,37.6814],[14.7149,37.7045],[14.7213,37.7173],[14.7201,37.7206],[14.7177,37.7251],[14.7082,37.7277],[14.7058,37.7298],[14.7063,37.7315],[14.7106,37.735],[14.73,37.7459],[14.7368,37.7536],[14.7601,37.7462],[14.7645,37.7441],[14.7743,37.7458],[14.7806,37.748],[14.7844,37.7498],[14.7852,37.7512],[14.7849,37.7534],[14.7878,37.7534],[14.7897,37.7521],[14.7901,37.7506],[14.7834,37.7421],[14.7807,37.7361],[14.7817,37.7324],[14.7861,37.7254],[14.791,37.7215],[14.7949,37.7198],[14.7994,37.7162],[14.7979,37.7127]]],[[[14.9412,37.9508],[14.9414,37.9426],[14.9427,37.9393],[14.9523,37.9243],[14.9534,37.9179],[14.9557,37.9121],[14.9603,37.9102],[14.9789,37.907],[14.9797,37.9001],[14.979,37.8951],[14.9799,37.8931],[14.9842,37.8915],[14.987,37.8917],[14.9934,37.8931],[15.0022,37.8978],[15.0082,37.8991],[15.0117,37.8994],[15.0215,37.8981],[15.018,37.8956],[15.0225,37.8918],[15.0228,37.8901],[15.023,37.8828],[15.0224,37.8807],[15.0198,37.8803],[15.0191,37.8792],[15.0205,37.8683],[15.0176,37.8631],[15.0113,37.8567],[15.0096,37.8511],[15.0072,37.8124],[14.9944,37.7512],[14.9865,37.7895],[14.9695,37.8012],[14.9641,37.8032],[14.955,37.8083],[14.9412,37.8167],[14.9249,37.8253],[14.9168,37.8307],[14.8955,37.8572],[14.894,37.8635],[14.8889,37.8687],[14.8781,37.8739],[14.8651,37.874],[14.8624,37.8778],[14.8646,37.8857],[14.8629,37.8947],[14.8582,37.8946],[14.847,37.8921],[14.8359,37.8935],[14.8348,37.8947],[14.8343,37.8968],[14.8353,37.9086],[14.8374,37.9089],[14.8431,37.9128],[14.8353,37.9281],[14.8285,37.9351],[14.8346,37.943],[14.8393,37.9513],[14.8397,37.9527],[14.8391,37.955],[14.8405,37.959],[14.8491,37.9568],[14.8513,37.9551],[14.8519,37.9533],[14.8502,37.9497],[14.8483,37.9421],[14.8549,37.931],[14.8625,37.9287],[14.8778,37.9325],[14.8782,37.9347],[14.8958,37.9487],[14.9182,37.9562],[14.9281,37.9607],[14.9301,37.9606],[14.9323,37.9547],[14.9412,37.9508]]]]}},{"type":"Feature","properties":{"i":"087039","n":"Riposto"},"geometry":{"type":"Polygon","coordinates":[[[15.2049,37.7374],[15.2057,37.7336],[15.2174,37.7166],[15.219,37.7121],[15.2183,37.7084],[15.2156,37.7029],[15.2053,37.688],[15.1992,37.6767],[15.1995,37.6718],[15.1964,37.6717],[15.1724,37.6786],[15.1732,37.6822],[15.1743,37.6831],[15.1852,37.6849],[15.1992,37.699],[15.2004,37.7017],[15.1854,37.6986],[15.1814,37.6973],[15.1772,37.6939],[15.1732,37.6935],[15.1739,37.7016],[15.185,37.7053],[15.1923,37.7087],[15.197,37.7191],[15.1958,37.7266],[15.1963,37.7346],[15.1952,37.7379],[15.2049,37.7374]]]}},{"type":"Feature","properties":{"i":"087040","n":"San Cono"},"geometry":{"type":"Polygon","coordinates":[[[14.3848,37.2963],[14.3817,37.2861],[14.3801,37.2835],[14.3735,37.2804],[14.3694,37.2792],[14.3571,37.2777],[14.3528,37.2781],[14.3527,37.3061],[14.359,37.3053],[14.3848,37.2963]]]}},{"type":"Feature","properties":{"i":"087041","n":"San Giovanni la Punta"},"geometry":{"type":"Polygon","coordinates":[[[15.1041,37.5909],[15.1061,37.586],[15.115,37.5796],[15.1165,37.5756],[15.1016,37.5703],[15.0982,37.5603],[15.0974,37.5551],[15.1006,37.5481],[15.1006,37.5464],[15.0987,37.5442],[15.0875,37.5498],[15.0864,37.5659],[15.0868,37.5694],[15.0797,37.5741],[15.0767,37.5811],[15.0758,37.5875],[15.0773,37.5965],[15.0867,37.6003],[15.1041,37.5909]]]}},{"type":"Feature","properties":{"i":"087042","n":"San Gregorio di Catania"},"geometry":{"type":"Polygon","coordinates":[[[15.1231,37.565],[15.1217,37.5623],[15.1215,37.5555],[15.1189,37.5513],[15.1026,37.5398],[15.0987,37.5442],[15.1006,37.5464],[15.1006,37.5481],[15.0974,37.5551],[15.0982,37.5603],[15.1016,37.5703],[15.1165,37.5756],[15.117,37.5741],[15.1149,37.5686],[15.1155,37.5674],[15.1198,37.565],[15.1231,37.565]]]}},{"type":"Feature","properties":{"i":"087043","n":"San Michele di Ganzaria"},"geometry":{"type":"Polygon","coordinates":[[[14.433,37.2922],[14.4366,37.292],[14.4421,37.2888],[14.4435,37.2887],[14.4652,37.2916],[14.4682,37.2895],[14.4742,37.2826],[14.4731,37.2785],[14.4683,37.2704],[14.4635,37.2686],[14.4427,37.2649],[14.4308,37.2527],[14.4274,37.2514],[14.4192,37.2511],[14.4183,37.2547],[14.4193,37.2606],[14.4186,37.2649],[14.4128,37.265],[14.3966,37.2632],[14.3928,37.2619],[14.3837,37.2835],[14.3817,37.2861],[14.3848,37.2963],[14.3931,37.2992],[14.4004,37.2989],[14.4122,37.2942],[14.433,37.2922]]]}},{"type":"Feature","properties":{"i":"087044","n":"San Pietro Clarenza"},"geometry":{"type":"Polygon","coordinates":[[[15.0379,37.5544],[15.0359,37.5503],[15.0217,37.5497],[15.0145,37.5574],[15.0109,37.5626],[15.0102,37.5773],[15.0169,37.581],[15.0182,37.5832],[15.0197,37.5836],[15.0263,37.5826],[15.0294,37.5808],[15.034,37.5755],[15.0349,37.5683],[15.0292,37.5633],[15.0298,37.5602],[15.0379,37.5544]]]}},{"type":"Feature","properties":{"i":"087045","n":"Sant'Agata li Battiati"},"geometry":{"type":"Polygon","coordinates":[[[15.0942,37.546],[15.0904,37.5434],[15.0888,37.545],[15.0847,37.5457],[15.0843,37.5446],[15.0786,37.5424],[15.0764,37.5431],[15.0736,37.546],[15.0727,37.56],[15.0773,37.5621],[15.0807,37.5651],[15.0852,37.5708],[15.0868,37.5693],[15.0864,37.5659],[15.0875,37.5498],[15.0942,37.546]]]}},{"type":"Feature","properties":{"i":"087046","n":"Sant'Alfio"},"geometry":{"type":"Polygon","coordinates":[[[15.1259,37.7828],[15.1226,37.7792],[15.116,37.7745],[15.1131,37.7714],[15.1109,37.7648],[15.111,37.7597],[15.1354,37.7511],[15.147,37.7459],[15.1516,37.7447],[15.1492,37.7335],[15.1479,37.7318],[15.1419,37.7329],[15.1342,37.736],[15.1211,37.7386],[15.1093,37.7429],[15.0917,37.7516],[15.0867,37.7526],[15.0779,37.7573],[15.0721,37.7628],[15.0692,37.7635],[15.0597,37.7615],[15.058,37.7524],[15.0494,37.7535],[15.0455,37.7556],[15.0265,37.7607],[14.9944,37.7512],[15.0137,37.7642],[15.017,37.7649],[15.0232,37.7621],[15.0289,37.7615],[15.039,37.7654],[15.0412,37.7693],[15.0506,37.7733],[15.0909,37.7814],[15.1107,37.7842],[15.1182,37.7842],[15.1259,37.7828]]]}},{"type":"Feature","properties":{"i":"087047","n":"Santa Maria di Licodia"},"geometry":{"type":"Polygon","coordinates":[[[14.9055,37.6116],[14.9017,37.6025],[14.9018,37.5994],[14.8992,37.5926],[14.8879,37.59],[14.8758,37.5914],[14.8618,37.5971],[14.8559,37.6006],[14.8519,37.605],[14.8531,37.6068],[14.8632,37.6126],[14.8653,37.617],[14.865,37.6201],[14.8668,37.6223],[14.8712,37.624],[14.8768,37.624],[14.882,37.6274],[14.8862,37.633],[14.8869,37.6363],[14.8897,37.6398],[14.8961,37.6425],[14.9026,37.6433],[14.9122,37.6481],[14.9137,37.65],[14.9151,37.6556],[14.919,37.6632],[14.9279,37.671],[14.9283,37.6742],[14.9295,37.6759],[14.932,37.676],[14.9377,37.6694],[14.9411,37.6624],[14.9345,37.6508],[14.9323,37.6484],[14.9266,37.6454],[14.9208,37.6401],[14.9176,37.6224],[14.9158,37.6198],[14.9055,37.6116]]]}},{"type":"Feature","properties":{"i":"087048","n":"Santa Venerina"},"geometry":{"type":"Polygon","coordinates":[[[15.1665,37.6833],[15.1633,37.6814],[15.1572,37.6719],[15.1621,37.6633],[15.161,37.6595],[15.1588,37.6586],[15.1453,37.6594],[15.1446,37.6586],[15.1448,37.6563],[15.141,37.6546],[15.1379,37.6571],[15.1292,37.6576],[15.1218,37.6565],[15.1207,37.6574],[15.1226,37.6594],[15.123,37.6628],[15.1284,37.6778],[15.1211,37.6824],[15.1201,37.6947],[15.1248,37.6974],[15.1217,37.7081],[15.1485,37.7076],[15.1662,37.7018],[15.1668,37.6988],[15.1664,37.6923],[15.1633,37.6911],[15.1593,37.6919],[15.1578,37.6915],[15.1596,37.6866],[15.1665,37.6833]]]}},{"type":"Feature","properties":{"i":"087049","n":"Scordia"},"geometry":{"type":"Polygon","coordinates":[[[14.8559,37.2797],[14.8365,37.2844],[14.8207,37.2822],[14.8171,37.2823],[14.8142,37.2837],[14.8162,37.2897],[14.8162,37.3035],[14.821,37.3144],[14.8211,37.3162],[14.8263,37.3189],[14.8416,37.3247],[14.8637,37.3178],[14.8922,37.311],[14.8882,37.3053],[14.8797,37.2957],[14.8817,37.2877],[14.8828,37.2863],[14.8736,37.2824],[14.8559,37.2797]]]}},{"type":"Feature","properties":{"i":"087050","n":"Trecastagni"},"geometry":{"type":"Polygon","coordinates":[[[15.0902,37.658],[15.0849,37.6573],[15.0832,37.6483],[15.0859,37.6441],[15.0854,37.6339],[15.0833,37.6304],[15.0833,37.6284],[15.0875,37.6141],[15.0875,37.6021],[15.0867,37.6003],[15.0773,37.5965],[15.0726,37.6012],[15.0697,37.6071],[15.0683,37.6196],[15.0646,37.6304],[15.0668,37.6335],[15.0673,37.6392],[15.0667,37.6418],[15.0603,37.6502],[15.0606,37.6556],[15.0593,37.661],[15.0425,37.698],[15.0644,37.6849],[15.0739,37.6741],[15.0777,37.6725],[15.0824,37.6724],[15.0909,37.669],[15.092,37.667],[15.0902,37.658]]]}},{"type":"Feature","properties":{"i":"087051","n":"Tremestieri Etneo"},"geometry":{"type":"MultiPolygon","coordinates":[[[[15.0987,37.5442],[15.1026,37.5398],[15.1024,37.5376],[15.1008,37.5349],[15.0907,37.5385],[15.0901,37.5395],[15.0904,37.5434],[15.0942,37.546],[15.0987,37.5442]]],[[[15.0766,37.5918],[15.0758,37.5875],[15.0767,37.5811],[15.0797,37.5741],[15.0852,37.5708],[15.0807,37.5651],[15.0773,37.5621],[15.0727,37.56],[15.0648,37.569],[15.0557,37.5916],[15.0623,37.594],[15.0637,37.5982],[15.0766,37.5918]]]]}},{"type":"Feature","properties":{"i":"087052","n":"Valverde"},"geometry":{"type":"Polygon","coordinates":[[[15.13,37.5948],[15.1334,37.5735],[15.1363,37.5657],[15.1351,37.5643],[15.1198,37.565],[15.1169,37.5663],[15.115,37.5683],[15.117,37.5741],[15.1154,37.5791],[15.1061,37.586],[15.1145,37.5889],[15.1155,37.5912],[15.115,37.5939],[15.13,37.5948]]]}},{"type":"Feature","properties":{"i":"087053","n":"Viagrande"},"geometry":{"type":"Polygon","coordinates":[[[15.0924,37.6489],[15.0917,37.6453],[15.0935,37.6415],[15.1014,37.6366],[15.1107,37.6245],[15.1074,37.6066],[15.0997,37.5973],[15.1046,37.593],[15.1051,37.592],[15.1041,37.5909],[15.0867,37.6003],[15.0875,37.6021],[15.0875,37.6141],[15.0833,37.6284],[15.0833,37.6304],[15.0854,37.6339],[15.0859,37.6441],[15.0832,37.6483],[15.0849,37.6573],[15.0902,37.658],[15.0924,37.6489]]]}},{"type":"Feature","properties":{"i":"087054","n":"Vizzini"},"geometry":{"type":"Polygon","coordinates":[[[14.7799,37.2294],[14.7745,37.2287],[14.773,37.2242],[14.7742,37.2213],[14.783,37.21],[14.786,37.2105],[14.7943,37.2145],[14.8035,37.2139],[14.8208,37.2072],[14.8228,37.2007],[14.8255,37.196],[14.8488,37.2008],[14.8635,37.2088],[14.8668,37.2087],[14.8691,37.2075],[14.8713,37.2048],[14.8708,37.1893],[14.87,37.1858],[14.8657,37.1827],[14.8561,37.1791],[14.8383,37.1672],[14.835,37.1632],[14.8369,37.158],[14.8419,37.1531],[14.846,37.1457],[14.8465,37.1412],[14.8435,37.1301],[14.8368,37.1248],[14.833,37.1242],[14.8248,37.128],[14.8189,37.1267],[14.8084,37.1261],[14.8006,37.1301],[14.7939,37.132],[14.778,37.1396],[14.7754,37.1395],[14.7734,37.1351],[14.7734,37.1333],[14.7768,37.1283],[14.7733,37.1276],[14.7706,37.1284],[14.7618,37.1345],[14.7536,37.1369],[14.7526,37.1322],[14.7478,37.1295],[14.7372,37.1336],[14.7335,37.129],[14.7319,37.1252],[14.7253,37.1212],[14.7221,37.1212],[14.7222,37.1249],[14.7368,37.1409],[14.7379,37.1446],[14.7375,37.1472],[14.7364,37.149],[14.7339,37.1496],[14.7243,37.1557],[14.7248,37.1574],[14.7225,37.1707],[14.7199,37.1725],[14.7143,37.1723],[14.7122,37.1711],[14.709,37.165],[14.7043,37.1636],[14.6911,37.1677],[14.6919,37.1703],[14.7,37.1772],[14.701,37.182],[14.6953,37.203],[14.6984,37.2101],[14.6957,37.2158],[14.6912,37.2196],[14.6982,37.2186],[14.7052,37.2217],[14.711,37.2268],[14.7203,37.2295],[14.726,37.2289],[14.7298,37.2269],[14.7342,37.2268],[14.7402,37.2407],[14.7485,37.2425],[14.7507,37.2473],[14.7537,37.2511],[14.7561,37.2526],[14.7552,37.2488],[14.7582,37.2439],[14.7672,37.2445],[14.7701,37.2403],[14.7799,37.2294]]]}},{"type":"Feature","properties":{"i":"087055","n":"Zafferana Etnea"},"geometry":{"type":"Polygon","coordinates":[[[15.058,37.7524],[15.0645,37.7506],[15.0687,37.7459],[15.0793,37.7402],[15.0898,37.7381],[15.0918,37.737],[15.0938,37.7322],[15.0946,37.7252],[15.0974,37.7201],[15.101,37.718],[15.1062,37.7178],[15.1092,37.7137],[15.1107,37.7091],[15.1148,37.7058],[15.1174,37.7061],[15.1192,37.7079],[15.1217,37.7081],[15.1248,37.6974],[15.1201,37.6947],[15.1211,37.6824],[15.1284,37.6778],[15.123,37.6628],[15.1226,37.6594],[15.1153,37.6525],[15.1101,37.6515],[15.0971,37.6519],[15.0947,37.6512],[15.0924,37.6489],[15.0902,37.658],[15.092,37.667],[15.0909,37.669],[15.0824,37.6724],[15.0777,37.6725],[15.0739,37.6741],[15.0644,37.6849],[15.0425,37.698],[15.0489,37.6829],[15.0274,37.68],[15.0188,37.6958],[15.0171,37.6975],[15.0114,37.7066],[15.0031,37.7345],[14.9997,37.7428],[14.9944,37.7512],[15.0265,37.7607],[15.0455,37.7556],[15.0494,37.7535],[15.058,37.7524]]]}},{"type":"Feature","properties":{"i":"087056","n":"Mazzarrone"},"geometry":{"type":"Polygon","coordinates":[[[14.6093,37.0882],[14.6105,37.0867],[14.6076,37.0839],[14.5863,37.071],[14.5799,37.0658],[14.5713,37.0547],[14.5684,37.0526],[14.5646,37.0518],[14.5589,37.0541],[14.5507,37.0562],[14.5469,37.0552],[14.5441,37.053],[14.5437,37.0555],[14.5407,37.0589],[14.5341,37.0631],[14.5329,37.0653],[14.534,37.0754],[14.5349,37.0763],[14.5342,37.0792],[14.5256,37.0885],[14.5248,37.0924],[14.5288,37.0957],[14.5349,37.1072],[14.535,37.1087],[14.5388,37.1104],[14.5449,37.1117],[14.5703,37.1154],[14.5828,37.1217],[14.584,37.1081],[14.5913,37.1039],[14.6093,37.0882]]]}},{"type":"Feature","properties":{"i":"087057","n":"Maniace"},"geometry":{"type":"Polygon","coordinates":[[[14.7928,37.8416],[14.7889,37.8529],[14.7831,37.8586],[14.7765,37.8631],[14.7603,37.8685],[14.758,37.8681],[14.7545,37.8653],[14.7465,37.8556],[14.7422,37.8474],[14.7387,37.8475],[14.7368,37.8559],[14.7403,37.8765],[14.7385,37.8837],[14.7396,37.8901],[14.738,37.9013],[14.7384,37.9022],[14.7498,37.9],[14.76,37.8998],[14.7636,37.8963],[14.7631,37.8919],[14.7637,37.8908],[14.7645,37.8895],[14.7669,37.8885],[14.7718,37.8906],[14.7721,37.8933],[14.7713,37.8952],[14.7725,37.8987],[14.7755,37.9026],[14.7785,37.9041],[14.7827,37.9021],[14.8041,37.902],[14.8055,37.8987],[14.8073,37.8877],[14.8172,37.8865],[14.8267,37.8902],[14.8303,37.8924],[14.8346,37.8866],[14.842,37.8691],[14.8453,37.8674],[14.8482,37.8673],[14.8422,37.8633],[14.8342,37.8637],[14.8132,37.8578],[14.805,37.8527],[14.7956,37.8434],[14.7928,37.8416]]]}},{"type":"Feature","properties":{"i":"087058","n":"Ragalna"},"geometry":{"type":"Polygon","coordinates":[[[14.9355,37.6055],[14.9343,37.6086],[14.9311,37.6103],[14.9295,37.6101],[14.9282,37.6084],[14.9194,37.6088],[14.9055,37.6116],[14.9158,37.6198],[14.9176,37.6224],[14.9208,37.6401],[14.9266,37.6454],[14.9323,37.6484],[14.9345,37.6508],[14.9411,37.6624],[14.9377,37.6694],[14.932,37.676],[14.9304,37.6764],[14.9313,37.6803],[14.9327,37.6824],[14.9388,37.6847],[14.9518,37.6978],[14.9723,37.713],[14.9952,37.7328],[14.987,37.7135],[14.9802,37.7004],[14.9796,37.692],[14.9802,37.6902],[14.9739,37.6585],[14.9742,37.6567],[14.9809,37.6534],[14.9821,37.6488],[14.9724,37.6386],[14.9679,37.6381],[14.9637,37.6396],[14.9592,37.6381],[14.9566,37.6344],[14.9554,37.6302],[14.9579,37.6275],[14.9514,37.622],[14.9387,37.6071],[14.9355,37.6055]]]}}]}
