{"type":"FeatureCollection","fonte":"Confini comunali ISTAT via openpolis/geojson-italy — CC BY 4.0","features":[{"type":"Feature","properties":{"i":"079002","n":"Albi"},"geometry":{"type":"Polygon","coordinates":[[[16.6357,39.0751],[16.646,39.0686],[16.6467,39.0596],[16.6461,39.0563],[16.6397,39.0546],[16.6263,39.0547],[16.624,39.0581],[16.6233,39.0579],[16.618,39.0512],[16.6186,39.0482],[16.6215,39.0443],[16.6193,39.0373],[16.6171,39.0353],[16.6152,39.036],[16.6088,39.045],[16.6073,39.045],[16.6059,39.0434],[16.606,39.039],[16.6143,39.0294],[16.6125,39.0261],[16.6092,39.024],[16.6072,39.0199],[16.6055,39.0132],[16.6055,39.0059],[16.6085,38.9978],[16.6153,38.9916],[16.6092,38.9874],[16.6048,38.9914],[16.6006,38.9933],[16.5979,38.9957],[16.5884,39.0066],[16.5859,39.013],[16.5891,39.0176],[16.5882,39.0241],[16.5841,39.0276],[16.5816,39.0281],[16.5765,39.0319],[16.5691,39.0423],[16.5698,39.0459],[16.5789,39.0548],[16.576,39.0563],[16.5742,39.0609],[16.5866,39.0643],[16.5861,39.0666],[16.5839,39.0697],[16.5785,39.0747],[16.5792,39.0805],[16.5737,39.0833],[16.5768,39.0848],[16.5905,39.0859],[16.5928,39.0845],[16.5964,39.0753],[16.6026,39.0687],[16.6167,39.0697],[16.6235,39.0709],[16.6346,39.0734],[16.6357,39.0751]]]}},{"type":"Feature","properties":{"i":"079003","n":"Amaroni"},"geometry":{"type":"Polygon","coordinates":[[[16.4676,38.8098],[16.4692,38.8066],[16.4731,38.8041],[16.4778,38.7982],[16.475,38.7955],[16.4588,38.7909],[16.4497,38.7832],[16.4287,38.7785],[16.416,38.7788],[16.4128,38.7803],[16.4036,38.7816],[16.4071,38.7854],[16.4176,38.7868],[16.4195,38.7877],[16.4279,38.7983],[16.4385,38.7993],[16.4502,38.8021],[16.4619,38.8081],[16.4676,38.8098]]]}},{"type":"Feature","properties":{"i":"079004","n":"Amato"},"geometry":{"type":"Polygon","coordinates":[[[16.465,38.9248],[16.4629,38.9215],[16.461,38.9202],[16.4379,38.9132],[16.4248,38.9132],[16.4137,38.9117],[16.4219,38.9231],[16.4283,38.9262],[16.4342,38.9381],[16.4362,38.9455],[16.4404,38.9507],[16.4423,38.9605],[16.446,38.9662],[16.4406,38.9876],[16.4448,38.9857],[16.4577,38.9768],[16.4663,38.9757],[16.47,38.9715],[16.4727,38.9661],[16.4732,38.9606],[16.4703,38.9492],[16.4689,38.9293],[16.465,38.9248]]]}},{"type":"Feature","properties":{"i":"079005","n":"Andali"},"geometry":{"type":"Polygon","coordinates":[[[16.8521,38.9734],[16.8502,38.9663],[16.8478,38.9625],[16.8386,38.953],[16.8282,38.954],[16.8185,38.9658],[16.8129,38.9691],[16.8028,38.9785],[16.8012,38.984],[16.7983,38.9891],[16.7933,38.9951],[16.7898,38.998],[16.7717,39.0049],[16.7638,39.009],[16.76,39.0129],[16.7544,39.0241],[16.7537,39.0281],[16.7641,39.0273],[16.7672,39.0261],[16.7781,39.0156],[16.7842,39.0117],[16.7951,39.0065],[16.8099,39.0034],[16.8119,39.0009],[16.8145,38.9924],[16.8239,38.9843],[16.8395,38.9767],[16.8521,38.9734]]]}},{"type":"Feature","properties":{"i":"079007","n":"Argusto"},"geometry":{"type":"Polygon","coordinates":[[[16.4613,38.6833],[16.4541,38.6784],[16.4467,38.6779],[16.4382,38.6762],[16.437,38.6747],[16.4343,38.6674],[16.4347,38.6625],[16.4328,38.6625],[16.43,38.6643],[16.4277,38.6673],[16.4275,38.6688],[16.424,38.6716],[16.4192,38.6718],[16.4152,38.6696],[16.4131,38.6701],[16.4104,38.6725],[16.4156,38.6782],[16.434,38.6869],[16.4352,38.6896],[16.4341,38.6916],[16.4359,38.6935],[16.4434,38.6949],[16.4498,38.6928],[16.4507,38.6937],[16.4501,38.6961],[16.459,38.6898],[16.4613,38.6833]]]}},{"type":"Feature","properties":{"i":"079008","n":"Badolato"},"geometry":{"type":"Polygon","coordinates":[[[16.5728,38.5607],[16.549,38.5584],[16.5424,38.5548],[16.5314,38.5528],[16.5198,38.5522],[16.515,38.5503],[16.4968,38.5523],[16.475,38.5523],[16.4451,38.5584],[16.4409,38.5634],[16.4385,38.5647],[16.4345,38.5656],[16.4283,38.5652],[16.4298,38.5685],[16.432,38.5796],[16.4316,38.581],[16.4287,38.5833],[16.4357,38.583],[16.4431,38.5767],[16.458,38.5672],[16.4618,38.5664],[16.4663,38.5683],[16.4675,38.5711],[16.4797,38.5795],[16.4945,38.5811],[16.5207,38.5879],[16.5325,38.5898],[16.5387,38.5889],[16.5602,38.5912],[16.5686,38.5941],[16.571,38.589],[16.5702,38.577],[16.5731,38.5642],[16.5728,38.5607]]]}},{"type":"Feature","properties":{"i":"079009","n":"Belcastro"},"geometry":{"type":"Polygon","coordinates":[[[16.8298,39.0206],[16.8322,39.0146],[16.8463,39.007],[16.8495,39.0029],[16.8611,39.0004],[16.8704,38.9931],[16.8837,38.9865],[16.8959,38.9841],[16.8949,38.9794],[16.8915,38.9746],[16.8915,38.9734],[16.9015,38.9674],[16.9061,38.9623],[16.9156,38.9559],[16.9182,38.9566],[16.9205,38.953],[16.9203,38.9521],[16.9122,38.9499],[16.9073,38.9456],[16.908,38.9437],[16.9073,38.9404],[16.9039,38.936],[16.8996,38.9348],[16.8926,38.9344],[16.8911,38.9334],[16.8906,38.928],[16.8764,38.9251],[16.8713,38.9388],[16.8711,38.9418],[16.8658,38.9494],[16.8592,38.9646],[16.8521,38.9734],[16.8395,38.9767],[16.8239,38.9843],[16.8145,38.9924],[16.8119,39.0009],[16.8099,39.0034],[16.7951,39.0065],[16.7842,39.0117],[16.7781,39.0156],[16.7672,39.0261],[16.7641,39.0273],[16.7568,39.0274],[16.7514,39.0292],[16.7482,39.0397],[16.7472,39.0469],[16.7498,39.0445],[16.7506,39.0377],[16.7526,39.0321],[16.7536,39.0328],[16.7538,39.0344],[16.7602,39.0365],[16.7695,39.037],[16.7797,39.0398],[16.7959,39.0394],[16.7975,39.0401],[16.8162,39.0328],[16.8251,39.0268],[16.8298,39.0206]]]}},{"type":"Feature","properties":{"i":"079011","n":"Borgia"},"geometry":{"type":"Polygon","coordinates":[[[16.5769,38.8461],[16.5856,38.8369],[16.5923,38.8256],[16.5986,38.8244],[16.61,38.8153],[16.6035,38.8092],[16.6005,38.8035],[16.5955,38.7972],[16.5883,38.7899],[16.5846,38.7919],[16.5754,38.8033],[16.5678,38.8097],[16.5568,38.8136],[16.5511,38.8131],[16.5523,38.8109],[16.5559,38.8087],[16.5578,38.8085],[16.5594,38.8037],[16.5512,38.7996],[16.5484,38.7999],[16.5405,38.8031],[16.5281,38.8039],[16.5205,38.8071],[16.5094,38.8068],[16.5068,38.8092],[16.5007,38.8121],[16.4957,38.8054],[16.4775,38.8036],[16.4745,38.8058],[16.4738,38.8075],[16.4742,38.8108],[16.481,38.8275],[16.4849,38.8313],[16.4807,38.8353],[16.4781,38.8405],[16.4814,38.8437],[16.5112,38.8377],[16.5133,38.8368],[16.5161,38.834],[16.5202,38.8335],[16.5307,38.8351],[16.5364,38.837],[16.5544,38.8478],[16.5617,38.8466],[16.5706,38.8405],[16.5769,38.8461]]]}},{"type":"Feature","properties":{"i":"079012","n":"Botricello"},"geometry":{"type":"Polygon","coordinates":[[[16.8764,38.9251],[16.8224,38.9113],[16.8314,38.9205],[16.8355,38.9362],[16.8354,38.9422],[16.8346,38.9444],[16.8314,38.9471],[16.8301,38.9499],[16.8302,38.9535],[16.8386,38.953],[16.8478,38.9625],[16.8502,38.9663],[16.8521,38.9734],[16.8592,38.9646],[16.8658,38.9494],[16.8711,38.9418],[16.8713,38.9388],[16.8764,38.9251]]]}},{"type":"Feature","properties":{"i":"079017","n":"Caraffa di Catanzaro"},"geometry":{"type":"Polygon","coordinates":[[[16.4864,38.8984],[16.4933,38.8905],[16.502,38.8917],[16.5086,38.8896],[16.5129,38.8829],[16.5145,38.8791],[16.5196,38.8771],[16.544,38.8823],[16.5474,38.8816],[16.5478,38.8798],[16.5497,38.8774],[16.5535,38.8752],[16.558,38.8701],[16.5605,38.8659],[16.5613,38.8618],[16.5639,38.8572],[16.5595,38.8582],[16.5494,38.8565],[16.5283,38.8569],[16.5257,38.8558],[16.5225,38.8556],[16.507,38.8562],[16.5018,38.8575],[16.4966,38.8603],[16.4847,38.8595],[16.4731,38.8622],[16.4693,38.8635],[16.4799,38.8781],[16.4788,38.881],[16.467,38.8871],[16.4466,38.8952],[16.4504,38.8958],[16.4543,38.8947],[16.4614,38.8967],[16.4714,38.9022],[16.4733,38.9026],[16.4809,38.8989],[16.4864,38.8984]]]}},{"type":"Feature","properties":{"i":"079018","n":"Cardinale"},"geometry":{"type":"Polygon","coordinates":[[[16.4347,38.6625],[16.4362,38.6594],[16.4287,38.6559],[16.4276,38.6539],[16.431,38.6482],[16.4321,38.6423],[16.4296,38.6379],[16.4268,38.6357],[16.4169,38.63],[16.4147,38.624],[16.416,38.6154],[16.4152,38.6109],[16.4196,38.5985],[16.4193,38.5958],[16.418,38.5935],[16.4081,38.5994],[16.4028,38.6013],[16.3968,38.6014],[16.3917,38.5996],[16.384,38.601],[16.3729,38.6072],[16.3698,38.6107],[16.3696,38.6123],[16.3796,38.6241],[16.3741,38.6278],[16.3742,38.6314],[16.3773,38.64],[16.3803,38.6539],[16.3813,38.6559],[16.3873,38.6613],[16.3912,38.6637],[16.4001,38.6649],[16.4034,38.6664],[16.4067,38.6689],[16.4082,38.6713],[16.4104,38.6725],[16.4131,38.6701],[16.4152,38.6696],[16.4192,38.6718],[16.424,38.6716],[16.4275,38.6688],[16.4277,38.6673],[16.43,38.6643],[16.4328,38.6625],[16.4347,38.6625]]]}},{"type":"Feature","properties":{"i":"079020","n":"Carlopoli"},"geometry":{"type":"Polygon","coordinates":[[[16.4425,39.0696],[16.4485,39.0603],[16.4522,39.058],[16.4578,39.0587],[16.4596,39.058],[16.4705,39.0513],[16.4802,39.0439],[16.4818,39.0399],[16.4809,39.0377],[16.4729,39.0364],[16.4684,39.0427],[16.4669,39.0428],[16.4609,39.0401],[16.4621,39.0372],[16.4645,39.0361],[16.4649,39.0328],[16.4634,39.0253],[16.4618,39.0213],[16.4594,39.0196],[16.4524,39.0226],[16.4478,39.0301],[16.4405,39.0325],[16.4356,39.0316],[16.4338,39.0329],[16.4324,39.0394],[16.4295,39.0413],[16.4223,39.0438],[16.4129,39.0516],[16.4096,39.056],[16.4074,39.0709],[16.41,39.0727],[16.4119,39.0734],[16.4257,39.0608],[16.4346,39.0609],[16.437,39.0622],[16.4407,39.0658],[16.4425,39.0696]]]}},{"type":"Feature","properties":{"i":"079023","n":"Catanzaro"},"geometry":{"type":"Polygon","coordinates":[[[16.6214,38.9534],[16.6241,38.9446],[16.6228,38.9379],[16.6247,38.9354],[16.6274,38.9341],[16.6302,38.9288],[16.6292,38.9261],[16.6265,38.9233],[16.6276,38.9198],[16.6407,38.8995],[16.6459,38.8893],[16.6526,38.8724],[16.6555,38.8698],[16.6607,38.8673],[16.6686,38.8526],[16.6724,38.8517],[16.6857,38.8509],[16.6738,38.844],[16.6372,38.8265],[16.6348,38.8257],[16.6349,38.8265],[16.6339,38.8272],[16.6319,38.8273],[16.6243,38.8251],[16.6155,38.8201],[16.61,38.8153],[16.5986,38.8244],[16.5923,38.8256],[16.5856,38.8369],[16.5784,38.8453],[16.5639,38.8572],[16.5613,38.8618],[16.5605,38.8659],[16.558,38.8701],[16.5535,38.8752],[16.5497,38.8774],[16.5478,38.8798],[16.5474,38.8816],[16.5518,38.8902],[16.5564,38.8965],[16.5567,38.9003],[16.5551,38.9059],[16.5531,38.9077],[16.5489,38.9152],[16.5458,38.9265],[16.5382,38.9457],[16.5391,38.9478],[16.541,38.9494],[16.5467,38.9496],[16.5589,38.9471],[16.5695,38.9438],[16.5704,38.9428],[16.5727,38.9427],[16.5776,38.9465],[16.5787,38.9487],[16.5797,38.9546],[16.5795,38.9614],[16.5845,38.9627],[16.5857,38.9638],[16.6006,38.9672],[16.6076,38.9676],[16.6113,38.9668],[16.6186,38.96],[16.6214,38.9534]]]}},{"type":"Feature","properties":{"i":"079024","n":"Cenadi"},"geometry":{"type":"Polygon","coordinates":[[[16.3855,38.7516],[16.3869,38.7525],[16.39,38.7519],[16.391,38.751],[16.3956,38.7423],[16.4067,38.7288],[16.4203,38.7247],[16.4238,38.7227],[16.4262,38.7193],[16.4273,38.7148],[16.431,38.7104],[16.4211,38.7134],[16.412,38.7142],[16.3981,38.7173],[16.3893,38.7246],[16.3785,38.7287],[16.3665,38.7293],[16.3583,38.7353],[16.3647,38.7373],[16.3703,38.7423],[16.3698,38.7469],[16.3687,38.7477],[16.3657,38.7578],[16.3659,38.7594],[16.3855,38.7516]]]}},{"type":"Feature","properties":{"i":"079025","n":"Centrache"},"geometry":{"type":"Polygon","coordinates":[[[16.465,38.7357],[16.4614,38.7348],[16.4557,38.7305],[16.4523,38.725],[16.4442,38.7183],[16.4388,38.7204],[16.4268,38.7278],[16.4177,38.7424],[16.4084,38.7507],[16.4078,38.7525],[16.4107,38.7581],[16.4181,38.7585],[16.4175,38.7567],[16.4224,38.7507],[16.4245,38.7488],[16.4292,38.7465],[16.4453,38.7399],[16.4523,38.7398],[16.4608,38.7381],[16.465,38.7357]]]}},{"type":"Feature","properties":{"i":"079027","n":"Cerva"},"geometry":{"type":"Polygon","coordinates":[[[16.7475,39.0463],[16.7482,39.0397],[16.7513,39.0296],[16.7537,39.0281],[16.7544,39.0241],[16.76,39.0129],[16.7638,39.009],[16.7717,39.0049],[16.7898,38.998],[16.797,38.9912],[16.8012,38.984],[16.8028,38.9785],[16.8129,38.9691],[16.8185,38.9658],[16.8056,38.9662],[16.7978,38.9676],[16.7844,38.9749],[16.7787,38.981],[16.7791,38.9845],[16.7781,38.9897],[16.7674,39.0007],[16.7639,39.0031],[16.7561,39.0052],[16.7461,39.0107],[16.7412,39.0153],[16.7216,39.0261],[16.7164,39.0313],[16.7052,39.0379],[16.7023,39.0387],[16.6936,39.0449],[16.6878,39.0521],[16.6918,39.0545],[16.6989,39.0559],[16.7172,39.045],[16.7217,39.0457],[16.7268,39.0483],[16.7348,39.0496],[16.7389,39.0491],[16.7446,39.0459],[16.7475,39.0463]]]}},{"type":"Feature","properties":{"i":"079029","n":"Chiaravalle Centrale"},"geometry":{"type":"Polygon","coordinates":[[[16.4364,38.7039],[16.4451,38.7048],[16.4476,38.7037],[16.4505,38.6974],[16.4506,38.6933],[16.4487,38.6928],[16.4434,38.6949],[16.4356,38.6934],[16.4341,38.6916],[16.4352,38.6896],[16.434,38.6869],[16.4156,38.6782],[16.4104,38.6725],[16.4082,38.6713],[16.4067,38.6689],[16.4034,38.6664],[16.4001,38.6649],[16.3936,38.6642],[16.39,38.6673],[16.3885,38.672],[16.3793,38.6791],[16.3578,38.6822],[16.3504,38.6874],[16.3438,38.6984],[16.3428,38.703],[16.346,38.7044],[16.349,38.7069],[16.3479,38.7127],[16.3511,38.7122],[16.3545,38.7069],[16.3552,38.7011],[16.3574,38.6989],[16.3591,38.6985],[16.3606,38.6991],[16.3656,38.7052],[16.3721,38.7083],[16.376,38.7078],[16.4008,38.6988],[16.4041,38.6988],[16.4141,38.7042],[16.4213,38.7035],[16.4282,38.7002],[16.4311,38.6996],[16.4334,38.7007],[16.4364,38.7039]]]}},{"type":"Feature","properties":{"i":"079030","n":"Cicala"},"geometry":{"type":"Polygon","coordinates":[[[16.4809,39.0377],[16.4852,39.0295],[16.4984,39.0192],[16.5048,39.0155],[16.509,39.0103],[16.509,39.0081],[16.5022,39.0046],[16.4833,39.0094],[16.4604,39.0175],[16.4524,39.0116],[16.4517,39.012],[16.4504,39.0148],[16.4527,39.0206],[16.4538,39.0216],[16.4594,39.0196],[16.4616,39.0209],[16.4634,39.0253],[16.4649,39.0328],[16.4645,39.0361],[16.4621,39.0372],[16.4609,39.0401],[16.4674,39.0428],[16.4688,39.0425],[16.4729,39.0364],[16.4809,39.0377]]]}},{"type":"Feature","properties":{"i":"079033","n":"Conflenti"},"geometry":{"type":"Polygon","coordinates":[[[16.3144,39.0433],[16.3147,39.0411],[16.3009,39.0398],[16.2982,39.0387],[16.2879,39.0299],[16.2855,39.026],[16.2841,39.017],[16.2845,39.0141],[16.2807,39.0117],[16.2767,39.0077],[16.2775,38.9971],[16.2741,38.995],[16.2713,38.9969],[16.268,39.0052],[16.269,39.012],[16.2728,39.0163],[16.2695,39.0196],[16.2672,39.0193],[16.2627,39.0115],[16.2581,39.0081],[16.2536,39.0154],[16.2533,39.0189],[16.2549,39.0188],[16.2558,39.0198],[16.2529,39.0218],[16.2455,39.0243],[16.2396,39.0225],[16.2319,39.0219],[16.2361,39.025],[16.2438,39.0391],[16.246,39.0385],[16.2507,39.0348],[16.2639,39.044],[16.2695,39.0491],[16.2764,39.0573],[16.2711,39.0641],[16.2659,39.0733],[16.2661,39.0787],[16.262,39.0836],[16.2576,39.0853],[16.2573,39.0882],[16.265,39.0897],[16.2827,39.0776],[16.2948,39.0747],[16.311,39.069],[16.3159,39.0664],[16.3174,39.0645],[16.3201,39.0574],[16.3162,39.0528],[16.3125,39.0441],[16.3144,39.0433]]]}},{"type":"Feature","properties":{"i":"079034","n":"Cortale"},"geometry":{"type":"Polygon","coordinates":[[[16.4693,38.8635],[16.4674,38.8613],[16.4557,38.8554],[16.457,38.8491],[16.4478,38.8496],[16.4351,38.8479],[16.4321,38.8458],[16.4208,38.8323],[16.4175,38.8296],[16.4126,38.8323],[16.4003,38.827],[16.399,38.8219],[16.3903,38.8113],[16.3882,38.8055],[16.3864,38.7896],[16.3885,38.7842],[16.3873,38.778],[16.3821,38.7682],[16.3867,38.7565],[16.3855,38.7516],[16.3659,38.7594],[16.3641,38.763],[16.3672,38.7713],[16.3668,38.7877],[16.3685,38.7939],[16.3707,38.7988],[16.3742,38.8037],[16.3794,38.8079],[16.386,38.8249],[16.3902,38.8279],[16.3923,38.8319],[16.3934,38.837],[16.3926,38.8504],[16.3959,38.8538],[16.3996,38.8542],[16.4001,38.8576],[16.3973,38.8613],[16.3994,38.867],[16.403,38.8699],[16.4096,38.8694],[16.413,38.8708],[16.4175,38.8739],[16.4179,38.8768],[16.4204,38.8771],[16.4262,38.8754],[16.4271,38.8727],[16.4416,38.8636],[16.4637,38.8645],[16.4693,38.8635]]]}},{"type":"Feature","properties":{"i":"079036","n":"Cropani"},"geometry":{"type":"Polygon","coordinates":[[[16.8185,38.9658],[16.8261,38.9561],[16.8282,38.954],[16.8302,38.9535],[16.8301,38.9499],[16.8314,38.9471],[16.8346,38.9444],[16.8354,38.9422],[16.8355,38.9362],[16.8314,38.9205],[16.8224,38.9113],[16.7983,38.9037],[16.8015,38.9094],[16.7984,38.9117],[16.7972,38.9141],[16.7959,38.9183],[16.7938,38.9349],[16.7922,38.9363],[16.7767,38.9356],[16.7719,38.9391],[16.7683,38.9373],[16.7689,38.9346],[16.7647,38.9352],[16.7545,38.9485],[16.7519,38.961],[16.7493,38.9665],[16.7444,38.9732],[16.738,38.9778],[16.7346,38.9823],[16.734,38.9854],[16.735,38.9951],[16.7433,39.0007],[16.7528,38.9991],[16.7578,39.0012],[16.7611,39.0039],[16.7639,39.0031],[16.7674,39.0007],[16.7781,38.9897],[16.7791,38.9845],[16.7787,38.981],[16.7844,38.9749],[16.7978,38.9676],[16.8056,38.9662],[16.8185,38.9658]]]}},{"type":"Feature","properties":{"i":"079039","n":"Curinga"},"geometry":{"type":"Polygon","coordinates":[[[16.3419,38.8292],[16.3469,38.8224],[16.3522,38.8184],[16.356,38.8143],[16.3496,38.798],[16.3443,38.7941],[16.3356,38.7973],[16.3235,38.7988],[16.3214,38.8003],[16.3189,38.8058],[16.2984,38.8203],[16.2861,38.8238],[16.2807,38.8242],[16.2572,38.8199],[16.2596,38.8186],[16.2658,38.8198],[16.2704,38.8178],[16.2742,38.8151],[16.2756,38.8121],[16.2773,38.8038],[16.2757,38.7978],[16.2757,38.7933],[16.2788,38.7917],[16.271,38.7936],[16.2662,38.7957],[16.2524,38.8075],[16.2385,38.8096],[16.2278,38.8124],[16.2152,38.8098],[16.213,38.8106],[16.2178,38.8295],[16.2206,38.8489],[16.2288,38.8485],[16.2349,38.8496],[16.241,38.8532],[16.26,38.8517],[16.2684,38.8502],[16.2734,38.8567],[16.2745,38.8604],[16.2812,38.8635],[16.2825,38.863],[16.2834,38.8611],[16.289,38.8583],[16.2943,38.8585],[16.2976,38.86],[16.3025,38.8601],[16.3104,38.8496],[16.3167,38.8473],[16.328,38.837],[16.3328,38.8288],[16.3385,38.8282],[16.3419,38.8292]]]}},{"type":"Feature","properties":{"i":"079042","n":"Davoli"},"geometry":{"type":"Polygon","coordinates":[[[16.5573,38.6685],[16.5564,38.655],[16.5431,38.6535],[16.5364,38.649],[16.5242,38.6516],[16.5171,38.6511],[16.5016,38.646],[16.4844,38.6424],[16.4571,38.6219],[16.4249,38.6113],[16.4194,38.611],[16.4153,38.6118],[16.4286,38.6167],[16.4327,38.6198],[16.4344,38.622],[16.4367,38.6296],[16.4466,38.6348],[16.4506,38.6424],[16.4581,38.6498],[16.4679,38.6575],[16.4803,38.6578],[16.4877,38.6628],[16.5041,38.6697],[16.543,38.6708],[16.5519,38.67],[16.5573,38.6685]]]}},{"type":"Feature","properties":{"i":"079043","n":"Decollatura"},"geometry":{"type":"Polygon","coordinates":[[[16.3659,39.095],[16.3636,39.0907],[16.3629,39.0876],[16.3638,39.0814],[16.3678,39.0728],[16.3774,39.058],[16.3864,39.0519],[16.4223,39.0339],[16.4289,39.036],[16.4306,39.0342],[16.4314,39.0307],[16.4294,39.0296],[16.4285,39.0269],[16.4314,39.0229],[16.4354,39.0209],[16.4362,39.0186],[16.4355,39.0177],[16.4322,39.0168],[16.423,39.0178],[16.413,39.0167],[16.4061,39.0137],[16.3926,39.0106],[16.3851,39.0101],[16.3817,39.0128],[16.3778,39.0146],[16.3596,39.0146],[16.3512,39.0156],[16.3471,39.0186],[16.3457,39.0209],[16.3395,39.0237],[16.3338,39.0256],[16.328,39.026],[16.3233,39.0281],[16.32,39.0304],[16.3142,39.0365],[16.3144,39.0433],[16.3201,39.0477],[16.323,39.0535],[16.332,39.0658],[16.3286,39.0803],[16.3287,39.0851],[16.3323,39.0887],[16.3372,39.088],[16.3426,39.0931],[16.345,39.0982],[16.3495,39.1032],[16.3525,39.1023],[16.3594,39.0956],[16.3659,39.095]]]}},{"type":"Feature","properties":{"i":"079047","n":"Falerna"},"geometry":{"type":"Polygon","coordinates":[[[16.2201,39.0099],[16.2117,39.0073],[16.2031,39.0028],[16.187,38.9908],[16.1682,38.98],[16.1631,38.9737],[16.1577,38.9712],[16.1484,38.969],[16.1444,38.9748],[16.1355,38.991],[16.1223,39.0029],[16.1385,39.0124],[16.144,39.0142],[16.1849,39.0155],[16.1981,39.0168],[16.2022,39.0187],[16.2077,39.0193],[16.2159,39.017],[16.2269,39.0198],[16.2201,39.0099]]]}},{"type":"Feature","properties":{"i":"079048","n":"Feroleto Antico"},"geometry":{"type":"MultiPolygon","coordinates":[[[[16.417,38.9688],[16.4148,38.9727],[16.4115,38.9714],[16.4152,38.9807],[16.4184,38.9777],[16.4196,38.9728],[16.417,38.9688]]],[[[16.4101,38.9719],[16.4081,38.9664],[16.3958,38.9613],[16.3849,38.9536],[16.3806,38.9486],[16.3638,38.9329],[16.3628,38.9309],[16.3631,38.9281],[16.3588,38.9009],[16.3273,38.8964],[16.3269,38.9],[16.3305,38.907],[16.3358,38.909],[16.3404,38.915],[16.3415,38.9199],[16.3406,38.9262],[16.3411,38.9282],[16.3432,38.9334],[16.3491,38.939],[16.3532,38.9449],[16.3567,38.9575],[16.3618,38.9712],[16.3689,38.9696],[16.3755,38.9712],[16.3797,38.9839],[16.381,38.9848],[16.3889,38.9803],[16.3892,38.9784],[16.4018,38.9796],[16.4055,38.9777],[16.4101,38.9719]]]]}},{"type":"Feature","properties":{"i":"079052","n":"Fossato Serralta"},"geometry":{"type":"MultiPolygon","coordinates":[[[[16.5181,39.0137],[16.509,39.0103],[16.5048,39.0155],[16.5074,39.0162],[16.5102,39.019],[16.5127,39.0182],[16.5181,39.0137]]],[[[16.5859,39.013],[16.5884,39.0066],[16.5979,38.9957],[16.6006,38.9933],[16.6048,38.9914],[16.59,38.9906],[16.5789,38.9927],[16.5741,38.9945],[16.5675,38.9925],[16.567,38.9886],[16.5637,38.9849],[16.5516,38.9854],[16.5489,38.9863],[16.5389,38.9984],[16.5361,38.9996],[16.5342,39.0018],[16.5298,39.0124],[16.5275,39.0126],[16.5296,39.0139],[16.5378,39.0157],[16.5458,39.0033],[16.5465,38.9989],[16.5491,38.9981],[16.5564,39.0006],[16.5639,39.0103],[16.5767,39.0174],[16.5859,39.013]]]]}},{"type":"Feature","properties":{"i":"079055","n":"Gagliato"},"geometry":{"type":"Polygon","coordinates":[[[16.4929,38.6777],[16.4829,38.6726],[16.475,38.6701],[16.4515,38.6651],[16.4449,38.661],[16.4389,38.6594],[16.4362,38.6594],[16.4347,38.6625],[16.4343,38.6674],[16.437,38.6747],[16.4382,38.6762],[16.4467,38.6779],[16.4541,38.6784],[16.4613,38.6833],[16.4627,38.6827],[16.4725,38.6837],[16.4814,38.6832],[16.494,38.6791],[16.4929,38.6777]]]}},{"type":"Feature","properties":{"i":"079056","n":"Gasperina"},"geometry":{"type":"Polygon","coordinates":[[[16.5334,38.7305],[16.5259,38.7254],[16.5237,38.7209],[16.5083,38.7254],[16.5003,38.7363],[16.4915,38.7409],[16.4876,38.7415],[16.4829,38.7385],[16.4754,38.7368],[16.4692,38.7369],[16.4778,38.7445],[16.4814,38.7446],[16.4874,38.7426],[16.4921,38.7427],[16.4947,38.7441],[16.4992,38.7483],[16.4996,38.7492],[16.4988,38.7504],[16.4933,38.7527],[16.4912,38.7555],[16.4901,38.7586],[16.4918,38.7606],[16.4927,38.7605],[16.5081,38.7446],[16.5139,38.7407],[16.5221,38.7375],[16.5256,38.7372],[16.5307,38.7338],[16.5334,38.7305]]]}},{"type":"Feature","properties":{"i":"079058","n":"Gimigliano"},"geometry":{"type":"Polygon","coordinates":[[[16.4538,39.0216],[16.4519,39.0194],[16.4504,39.0148],[16.4519,39.0118],[16.4604,39.0175],[16.4833,39.0094],[16.5022,39.0046],[16.509,39.0081],[16.509,39.0103],[16.5181,39.0137],[16.519,39.01],[16.5237,39.0124],[16.5298,39.0124],[16.5342,39.0018],[16.5361,38.9996],[16.5389,38.9984],[16.5489,38.9863],[16.5511,38.9815],[16.5578,38.9742],[16.5636,38.9704],[16.5722,38.9683],[16.5772,38.966],[16.5795,38.9614],[16.5797,38.9554],[16.5789,38.9493],[16.5778,38.9468],[16.5734,38.943],[16.5704,38.9428],[16.5695,38.9438],[16.5589,38.9471],[16.5467,38.9496],[16.548,38.9574],[16.5454,38.9588],[16.5179,38.9626],[16.5097,38.9664],[16.5064,38.9691],[16.5032,38.9743],[16.5026,38.9788],[16.5031,38.9901],[16.4976,38.9933],[16.4683,39.0063],[16.4523,39.0099],[16.4458,39.0131],[16.444,39.015],[16.441,39.0214],[16.4411,39.0268],[16.4357,39.0295],[16.4314,39.0307],[16.4307,39.0322],[16.4338,39.0329],[16.4356,39.0316],[16.4405,39.0325],[16.4478,39.0301],[16.4524,39.0226],[16.4538,39.0216]]]}},{"type":"Feature","properties":{"i":"079059","n":"Girifalco"},"geometry":{"type":"Polygon","coordinates":[[[16.4781,38.8405],[16.4807,38.8353],[16.4849,38.8313],[16.481,38.8275],[16.4769,38.8169],[16.4699,38.8166],[16.4668,38.8145],[16.4676,38.8098],[16.4619,38.8081],[16.4502,38.8021],[16.4385,38.7993],[16.4279,38.7983],[16.4195,38.7877],[16.4176,38.7868],[16.4071,38.7854],[16.4036,38.7816],[16.4128,38.7803],[16.416,38.7788],[16.4022,38.7658],[16.403,38.7598],[16.4023,38.755],[16.3999,38.7526],[16.3933,38.7525],[16.3867,38.7565],[16.3821,38.7682],[16.3873,38.778],[16.3885,38.7842],[16.3864,38.7896],[16.3882,38.8055],[16.3903,38.8113],[16.399,38.8219],[16.4003,38.827],[16.4126,38.8323],[16.4175,38.8296],[16.4208,38.8323],[16.4321,38.8458],[16.4356,38.8481],[16.449,38.8497],[16.4614,38.8484],[16.4693,38.8497],[16.4758,38.8451],[16.4781,38.8405]]]}},{"type":"Feature","properties":{"i":"079060","n":"Gizzeria"},"geometry":{"type":"Polygon","coordinates":[[[16.2152,38.9261],[16.2112,38.9308],[16.2023,38.9306],[16.1897,38.935],[16.1846,38.9375],[16.1779,38.9424],[16.1744,38.9464],[16.1711,38.9481],[16.1593,38.9493],[16.154,38.9542],[16.1508,38.9656],[16.1484,38.969],[16.1577,38.9712],[16.1631,38.9737],[16.1682,38.98],[16.187,38.9908],[16.2031,39.0028],[16.2117,39.0073],[16.2201,39.0099],[16.2285,38.9999],[16.2245,38.9911],[16.2217,38.9815],[16.2191,38.964],[16.2202,38.9609],[16.2317,38.9461],[16.2319,38.9421],[16.2281,38.9396],[16.2152,38.9261]]]}},{"type":"Feature","properties":{"i":"079061","n":"Guardavalle"},"geometry":{"type":"Polygon","coordinates":[[[16.5775,38.5054],[16.5798,38.5017],[16.5819,38.4698],[16.5784,38.4685],[16.5698,38.4713],[16.5658,38.4712],[16.5604,38.4686],[16.5549,38.4693],[16.5485,38.4723],[16.5453,38.4703],[16.541,38.4633],[16.5354,38.4671],[16.516,38.4762],[16.5134,38.4784],[16.4865,38.4908],[16.4802,38.4921],[16.4867,38.4969],[16.4871,38.4976],[16.4862,38.4996],[16.4815,38.5015],[16.4709,38.5034],[16.464,38.507],[16.4589,38.5112],[16.4556,38.5126],[16.4204,38.5103],[16.4131,38.5111],[16.4094,38.5122],[16.4071,38.514],[16.4065,38.5203],[16.4088,38.5225],[16.4117,38.5206],[16.4168,38.5194],[16.4221,38.5203],[16.423,38.5212],[16.4233,38.5238],[16.421,38.5241],[16.4195,38.5256],[16.4195,38.5274],[16.4386,38.5364],[16.44,38.5384],[16.4198,38.554],[16.4229,38.5633],[16.425,38.5604],[16.4399,38.5568],[16.455,38.5504],[16.4561,38.5452],[16.4622,38.5399],[16.4704,38.5372],[16.485,38.5339],[16.503,38.5217],[16.5077,38.517],[16.5203,38.5094],[16.5282,38.5098],[16.533,38.5127],[16.5384,38.5144],[16.5453,38.5128],[16.5466,38.5115],[16.5602,38.5086],[16.5674,38.5078],[16.5696,38.5069],[16.5735,38.5034],[16.5764,38.5038],[16.5775,38.5054]]]}},{"type":"Feature","properties":{"i":"079063","n":"Isca sullo Ionio"},"geometry":{"type":"Polygon","coordinates":[[[16.5644,38.6095],[16.5676,38.6001],[16.5686,38.5941],[16.5674,38.5933],[16.5602,38.5912],[16.5387,38.5889],[16.5325,38.5898],[16.5207,38.5879],[16.4945,38.5811],[16.4797,38.5795],[16.4675,38.5711],[16.4663,38.5683],[16.4624,38.5665],[16.458,38.5672],[16.4431,38.5767],[16.4357,38.583],[16.4448,38.5834],[16.4495,38.5849],[16.4528,38.5896],[16.4563,38.5872],[16.4614,38.5813],[16.4643,38.5791],[16.4692,38.5795],[16.4818,38.584],[16.4817,38.5885],[16.4783,38.5924],[16.4783,38.5961],[16.4815,38.6006],[16.4847,38.6032],[16.5049,38.6123],[16.5147,38.613],[16.5396,38.6117],[16.5455,38.6066],[16.5468,38.6064],[16.5644,38.6095]]]}},{"type":"Feature","properties":{"i":"079065","n":"Jacurso"},"geometry":{"type":"Polygon","coordinates":[[[16.3996,38.8542],[16.3959,38.8538],[16.3926,38.8504],[16.3934,38.837],[16.3923,38.8319],[16.3902,38.8279],[16.386,38.8249],[16.3794,38.8079],[16.3742,38.8037],[16.3707,38.7988],[16.3685,38.7939],[16.3668,38.7877],[16.3672,38.7713],[16.3641,38.763],[16.3619,38.7678],[16.3567,38.7755],[16.3557,38.7785],[16.3564,38.7805],[16.36,38.7848],[16.3599,38.7918],[16.3576,38.7916],[16.3526,38.789],[16.3481,38.7902],[16.3437,38.7934],[16.3496,38.798],[16.356,38.8143],[16.3522,38.8184],[16.3469,38.8224],[16.3419,38.8292],[16.3509,38.8353],[16.3557,38.8362],[16.3566,38.835],[16.3599,38.8351],[16.3601,38.8364],[16.3637,38.8378],[16.3732,38.8442],[16.3744,38.8459],[16.3725,38.8495],[16.3752,38.8597],[16.3807,38.861],[16.3879,38.8612],[16.3972,38.8579],[16.3996,38.8542]]]}},{"type":"Feature","properties":{"i":"079068","n":"Magisano"},"geometry":{"type":"Polygon","coordinates":[[[16.6758,39.0375],[16.6717,39.0327],[16.6662,39.0282],[16.6613,39.028],[16.6593,39.0264],[16.6577,39.0235],[16.6566,39.0175],[16.657,39.01],[16.6557,39.005],[16.6513,38.9949],[16.6483,38.9931],[16.6453,38.9926],[16.6442,38.9891],[16.6453,38.987],[16.6423,38.9909],[16.6328,38.996],[16.6251,38.995],[16.6153,38.9916],[16.6085,38.9978],[16.6055,39.0059],[16.6055,39.0132],[16.6072,39.0199],[16.6092,39.024],[16.6125,39.0261],[16.6143,39.0294],[16.606,39.039],[16.6059,39.0434],[16.6073,39.045],[16.6088,39.045],[16.6152,39.036],[16.6165,39.0353],[16.6184,39.0362],[16.6215,39.0443],[16.6186,39.0482],[16.618,39.0512],[16.6233,39.0579],[16.624,39.0581],[16.6263,39.0547],[16.6397,39.0546],[16.6461,39.0563],[16.6467,39.0596],[16.646,39.0686],[16.652,39.0723],[16.6556,39.0683],[16.6578,39.0605],[16.6617,39.0546],[16.6735,39.0391],[16.6758,39.0375]]]}},{"type":"Feature","properties":{"i":"079069","n":"Maida"},"geometry":{"type":"Polygon","coordinates":[[[16.4466,38.8952],[16.467,38.8871],[16.4788,38.881],[16.4799,38.8781],[16.4693,38.8635],[16.4637,38.8645],[16.4416,38.8636],[16.4271,38.8727],[16.4262,38.8754],[16.4213,38.877],[16.4179,38.8768],[16.4175,38.8739],[16.413,38.8708],[16.4096,38.8694],[16.403,38.8699],[16.3994,38.867],[16.3973,38.8613],[16.4001,38.8576],[16.3996,38.8542],[16.3972,38.8579],[16.3879,38.8612],[16.3807,38.861],[16.375,38.8595],[16.3725,38.8495],[16.3745,38.8456],[16.3707,38.8422],[16.3637,38.8378],[16.3601,38.8364],[16.3578,38.8437],[16.3576,38.8499],[16.3527,38.8547],[16.3471,38.8575],[16.3419,38.8616],[16.3395,38.87],[16.337,38.8738],[16.3306,38.8752],[16.3255,38.875],[16.3192,38.8718],[16.3159,38.8674],[16.3115,38.8633],[16.3004,38.8638],[16.2969,38.866],[16.2963,38.8674],[16.2956,38.8728],[16.3006,38.883],[16.3144,38.8923],[16.3203,38.8951],[16.3302,38.8972],[16.3554,38.9009],[16.3655,38.9007],[16.3843,38.902],[16.3957,38.9053],[16.4013,38.9083],[16.4073,38.9097],[16.4086,38.9065],[16.4111,38.9035],[16.4223,38.8979],[16.4347,38.8938],[16.4392,38.8958],[16.4466,38.8952]]]}},{"type":"Feature","properties":{"i":"079071","n":"Marcedusa"},"geometry":{"type":"Polygon","coordinates":[[[16.8959,38.9841],[16.8901,38.9848],[16.8812,38.9876],[16.8704,38.9931],[16.8611,39.0004],[16.8495,39.0029],[16.8463,39.007],[16.8322,39.0146],[16.8298,39.0206],[16.8328,39.0245],[16.8333,39.0265],[16.8313,39.029],[16.8284,39.035],[16.8276,39.0456],[16.8294,39.0444],[16.8403,39.042],[16.8649,39.0184],[16.8728,39.0186],[16.8768,39.0126],[16.8861,39.0048],[16.895,39.0028],[16.8945,38.9977],[16.8914,38.9889],[16.8946,38.9869],[16.8985,38.9866],[16.8959,38.9841]]]}},{"type":"Feature","properties":{"i":"079072","n":"Marcellinara"},"geometry":{"type":"Polygon","coordinates":[[[16.5079,38.9255],[16.508,38.922],[16.5072,38.9207],[16.4902,38.9015],[16.4864,38.8984],[16.4809,38.8989],[16.4733,38.9026],[16.4714,38.9022],[16.4614,38.8967],[16.4543,38.8947],[16.4504,38.8958],[16.4466,38.8952],[16.4392,38.8958],[16.4347,38.8938],[16.4223,38.8979],[16.4119,38.9031],[16.4096,38.9051],[16.4072,38.9091],[16.4073,38.9097],[16.4137,38.9117],[16.4185,38.9125],[16.4379,38.9132],[16.456,38.9184],[16.4627,38.9212],[16.465,38.9248],[16.4729,38.926],[16.4781,38.9302],[16.4798,38.9338],[16.4826,38.9365],[16.4835,38.9332],[16.4853,38.9315],[16.4915,38.9328],[16.498,38.937],[16.5025,38.9374],[16.5076,38.9341],[16.5063,38.9303],[16.5079,38.9255]]]}},{"type":"Feature","properties":{"i":"079073","n":"Martirano"},"geometry":{"type":"Polygon","coordinates":[[[16.2454,39.0993],[16.2504,39.0994],[16.2566,39.0936],[16.2575,39.0912],[16.2572,39.0858],[16.2593,39.0841],[16.262,39.0836],[16.2661,39.0787],[16.2659,39.0733],[16.2711,39.0641],[16.2764,39.0573],[16.2695,39.0491],[16.2639,39.044],[16.2507,39.0348],[16.246,39.0385],[16.2438,39.0391],[16.2432,39.0418],[16.2458,39.0462],[16.2498,39.0446],[16.2564,39.048],[16.2467,39.0664],[16.2469,39.0727],[16.2431,39.0753],[16.2398,39.0756],[16.2322,39.0834],[16.2243,39.0849],[16.2158,39.0837],[16.2136,39.0864],[16.2139,39.0999],[16.213,39.1034],[16.216,39.103],[16.2218,39.0995],[16.2235,39.098],[16.2252,39.0925],[16.2269,39.0917],[16.2325,39.0922],[16.2454,39.0993]]]}},{"type":"Feature","properties":{"i":"079074","n":"Martirano Lombardo"},"geometry":{"type":"Polygon","coordinates":[[[16.2438,39.0391],[16.2361,39.025],[16.2319,39.0219],[16.2284,39.0206],[16.2308,39.0229],[16.2316,39.0262],[16.2304,39.03],[16.2177,39.0434],[16.2154,39.048],[16.2114,39.0523],[16.2068,39.0608],[16.1975,39.0618],[16.193,39.0681],[16.1952,39.071],[16.1951,39.0721],[16.1888,39.0747],[16.1963,39.0804],[16.2085,39.0813],[16.2132,39.0823],[16.215,39.084],[16.2179,39.0836],[16.2243,39.0849],[16.2331,39.0829],[16.2398,39.0756],[16.2431,39.0753],[16.2469,39.0727],[16.2467,39.0664],[16.2564,39.048],[16.2498,39.0446],[16.2458,39.0462],[16.2432,39.0418],[16.2438,39.0391]]]}},{"type":"Feature","properties":{"i":"079077","n":"Miglierina"},"geometry":{"type":"Polygon","coordinates":[[[16.4856,38.9749],[16.4885,38.9686],[16.4893,38.951],[16.4834,38.9456],[16.48,38.9407],[16.4826,38.9365],[16.4798,38.9338],[16.4781,38.9302],[16.4724,38.9257],[16.465,38.9248],[16.4689,38.9293],[16.4703,38.9492],[16.4732,38.9606],[16.4727,38.9661],[16.47,38.9715],[16.4659,38.976],[16.4577,38.9768],[16.4448,38.9857],[16.4406,38.9876],[16.4299,38.9899],[16.4294,38.9907],[16.4354,38.9963],[16.441,39.0],[16.4435,38.9984],[16.4545,38.9983],[16.4629,39.0],[16.472,38.9992],[16.4727,38.9981],[16.471,38.9945],[16.4642,38.9921],[16.464,38.9897],[16.4666,38.9841],[16.4805,38.9849],[16.4857,38.9766],[16.4856,38.9749]]]}},{"type":"Feature","properties":{"i":"079080","n":"Montauro"},"geometry":{"type":"Polygon","coordinates":[[[16.5154,38.768],[16.5186,38.7678],[16.5203,38.7632],[16.5276,38.7598],[16.5332,38.7583],[16.5346,38.7566],[16.5359,38.7494],[16.5426,38.7511],[16.5441,38.7522],[16.5479,38.7513],[16.5491,38.7508],[16.5506,38.7484],[16.5525,38.7437],[16.5577,38.7406],[16.546,38.7303],[16.5334,38.7305],[16.5307,38.7338],[16.5256,38.7372],[16.5221,38.7375],[16.5139,38.7407],[16.5081,38.7446],[16.4927,38.7605],[16.4949,38.7643],[16.4997,38.7634],[16.5087,38.7659],[16.5136,38.7682],[16.5154,38.768]]]}},{"type":"Feature","properties":{"i":"079081","n":"Montepaone"},"geometry":{"type":"Polygon","coordinates":[[[16.5334,38.7305],[16.546,38.7303],[16.5402,38.724],[16.5363,38.7171],[16.5349,38.7132],[16.5351,38.7062],[16.5227,38.7043],[16.5119,38.7098],[16.4821,38.7116],[16.475,38.7175],[16.4707,38.7193],[16.4563,38.7227],[16.4523,38.725],[16.4557,38.7305],[16.4614,38.7348],[16.4692,38.7369],[16.4734,38.7365],[16.4786,38.7374],[16.4829,38.7385],[16.488,38.7416],[16.4932,38.7403],[16.5003,38.7363],[16.5083,38.7254],[16.5237,38.7209],[16.5259,38.7254],[16.5334,38.7305]]]}},{"type":"Feature","properties":{"i":"079083","n":"Motta Santa Lucia"},"geometry":{"type":"Polygon","coordinates":[[[16.3492,39.103],[16.345,39.0982],[16.3426,39.0931],[16.3372,39.088],[16.3323,39.0887],[16.3287,39.0851],[16.3286,39.0803],[16.332,39.0658],[16.323,39.0535],[16.3201,39.0477],[16.3144,39.0433],[16.3125,39.0441],[16.3162,39.0528],[16.3201,39.0574],[16.3174,39.0645],[16.3159,39.0664],[16.311,39.069],[16.2948,39.0747],[16.2827,39.0776],[16.265,39.0897],[16.2573,39.0882],[16.2569,39.0933],[16.2504,39.0994],[16.2524,39.1013],[16.254,39.1087],[16.2588,39.1126],[16.2761,39.1055],[16.2878,39.102],[16.2916,39.1046],[16.297,39.1058],[16.2988,39.1055],[16.2991,39.1047],[16.2975,39.1015],[16.2975,39.0997],[16.2985,39.0992],[16.3042,39.1002],[16.3228,39.1065],[16.3264,39.1098],[16.3369,39.1078],[16.3409,39.1102],[16.3473,39.1066],[16.3492,39.103]]]}},{"type":"Feature","properties":{"i":"079087","n":"Nocera Terinese"},"geometry":{"type":"Polygon","coordinates":[[[16.2177,39.0434],[16.2304,39.03],[16.2315,39.0278],[16.2308,39.0229],[16.2269,39.0198],[16.2159,39.017],[16.2077,39.0193],[16.2022,39.0187],[16.1981,39.0168],[16.1849,39.0155],[16.144,39.0142],[16.1385,39.0124],[16.1223,39.0029],[16.1059,39.0234],[16.1013,39.0262],[16.0992,39.0292],[16.0961,39.0489],[16.1013,39.049],[16.1114,39.0515],[16.1241,39.0588],[16.1276,39.0591],[16.128,39.0557],[16.1298,39.0526],[16.1351,39.0488],[16.1437,39.0491],[16.1461,39.0534],[16.1508,39.0526],[16.1589,39.0542],[16.1656,39.0585],[16.1714,39.0592],[16.1735,39.0588],[16.1751,39.0546],[16.178,39.0533],[16.182,39.0529],[16.1887,39.0558],[16.2022,39.0509],[16.2156,39.045],[16.2177,39.0434]]]}},{"type":"Feature","properties":{"i":"079088","n":"Olivadi"},"geometry":{"type":"Polygon","coordinates":[[[16.4442,38.7183],[16.4412,38.7084],[16.431,38.7104],[16.4273,38.7148],[16.4262,38.7193],[16.4238,38.7227],[16.4203,38.7247],[16.4067,38.7288],[16.3991,38.7376],[16.3956,38.7423],[16.3984,38.7497],[16.4078,38.7525],[16.4084,38.7507],[16.4177,38.7424],[16.4268,38.7278],[16.4388,38.7204],[16.4442,38.7183]]]}},{"type":"Feature","properties":{"i":"079089","n":"Palermiti"},"geometry":{"type":"Polygon","coordinates":[[[16.4949,38.7643],[16.4927,38.7605],[16.4913,38.7603],[16.4901,38.7586],[16.4933,38.7527],[16.4978,38.7512],[16.4995,38.7494],[16.4951,38.7445],[16.4925,38.7428],[16.4892,38.7425],[16.4855,38.7429],[16.4814,38.7446],[16.4778,38.7445],[16.4692,38.7369],[16.465,38.7357],[16.4608,38.7381],[16.4523,38.7398],[16.4453,38.7399],[16.4292,38.7465],[16.4245,38.7488],[16.4175,38.7567],[16.4181,38.7585],[16.4207,38.7598],[16.4356,38.7638],[16.4628,38.7687],[16.475,38.7745],[16.4795,38.7729],[16.4917,38.7706],[16.493,38.7692],[16.4949,38.7643]]]}},{"type":"Feature","properties":{"i":"079092","n":"Pentone"},"geometry":{"type":"Polygon","coordinates":[[[16.6048,38.9914],[16.6092,38.9874],[16.6092,38.9725],[16.6113,38.9668],[16.6076,38.9676],[16.5986,38.967],[16.5857,38.9638],[16.5845,38.9627],[16.5795,38.9614],[16.5772,38.966],[16.5722,38.9683],[16.5636,38.9704],[16.5578,38.9742],[16.5511,38.9815],[16.5488,38.986],[16.5532,38.985],[16.5637,38.9849],[16.567,38.9886],[16.5675,38.9925],[16.5741,38.9945],[16.5789,38.9927],[16.59,38.9906],[16.6048,38.9914]]]}},{"type":"Feature","properties":{"i":"079094","n":"Petrizzi"},"geometry":{"type":"Polygon","coordinates":[[[16.5227,38.7043],[16.5208,38.7019],[16.5123,38.6952],[16.5119,38.6935],[16.5129,38.6897],[16.5096,38.6805],[16.5057,38.6788],[16.4929,38.6777],[16.494,38.6791],[16.4814,38.6832],[16.4725,38.6837],[16.4627,38.6827],[16.4613,38.6833],[16.459,38.6898],[16.4501,38.6961],[16.4505,38.6974],[16.4476,38.7037],[16.4451,38.7048],[16.4364,38.7039],[16.4412,38.7084],[16.4442,38.7183],[16.4523,38.725],[16.4563,38.7227],[16.4707,38.7193],[16.475,38.7175],[16.4821,38.7116],[16.5119,38.7098],[16.5227,38.7043]]]}},{"type":"Feature","properties":{"i":"079095","n":"Petronà"},"geometry":{"type":"Polygon","coordinates":[[[16.8276,39.0456],[16.8284,39.035],[16.8313,39.029],[16.8333,39.0265],[16.8328,39.0245],[16.8298,39.0206],[16.8251,39.0268],[16.8162,39.0328],[16.7975,39.0401],[16.7959,39.0394],[16.7797,39.0398],[16.7695,39.037],[16.7602,39.0365],[16.7538,39.0344],[16.7536,39.0328],[16.7526,39.0321],[16.7506,39.0377],[16.7498,39.0445],[16.7473,39.0472],[16.7475,39.0463],[16.7446,39.0459],[16.7386,39.0492],[16.7333,39.0495],[16.7268,39.0483],[16.7217,39.0457],[16.7172,39.045],[16.7113,39.048],[16.7,39.0558],[16.6918,39.0545],[16.6878,39.0521],[16.6795,39.0535],[16.6701,39.0634],[16.6649,39.0709],[16.6654,39.0757],[16.6676,39.0808],[16.6649,39.0869],[16.6443,39.1018],[16.6453,39.103],[16.6457,39.1061],[16.6453,39.1135],[16.6436,39.1184],[16.6507,39.1235],[16.6535,39.1224],[16.6585,39.1186],[16.6748,39.101],[16.6797,39.0932],[16.6937,39.0912],[16.7009,39.0888],[16.7041,39.0865],[16.7059,39.0827],[16.7234,39.069],[16.7293,39.0625],[16.7338,39.0589],[16.7399,39.06],[16.7435,39.0649],[16.7451,39.0656],[16.7609,39.0666],[16.7774,39.0633],[16.7875,39.0579],[16.8065,39.0549],[16.8174,39.0515],[16.8276,39.0456]]]}},{"type":"Feature","properties":{"i":"079096","n":"Pianopoli"},"geometry":{"type":"Polygon","coordinates":[[[16.417,38.9688],[16.4163,38.9655],[16.4093,38.9562],[16.4177,38.9489],[16.4169,38.9476],[16.4074,38.9427],[16.4024,38.9424],[16.3984,38.9412],[16.3943,38.9377],[16.394,38.9367],[16.4069,38.9359],[16.4177,38.93],[16.4199,38.9281],[16.4219,38.9231],[16.4137,38.9117],[16.4013,38.9083],[16.3957,38.9053],[16.3843,38.902],[16.3655,38.9007],[16.3588,38.9009],[16.3631,38.9281],[16.3628,38.9309],[16.3638,38.9329],[16.3806,38.9486],[16.3849,38.9536],[16.3958,38.9613],[16.4081,38.9664],[16.4101,38.9719],[16.4115,38.9714],[16.4148,38.9727],[16.417,38.9688]]]}},{"type":"Feature","properties":{"i":"079099","n":"Platania"},"geometry":{"type":"Polygon","coordinates":[[[16.3596,39.0146],[16.3577,39.0103],[16.3576,39.002],[16.3558,38.9932],[16.3503,38.9944],[16.3391,38.9897],[16.3319,38.9884],[16.3127,38.9879],[16.3019,38.989],[16.2971,38.9855],[16.2946,38.9856],[16.2928,38.9869],[16.2925,38.9962],[16.2899,39.0041],[16.2886,39.0059],[16.2849,39.0081],[16.2838,39.0121],[16.2855,39.026],[16.2879,39.0299],[16.2982,39.0387],[16.3009,39.0398],[16.3147,39.0411],[16.3142,39.0365],[16.32,39.0304],[16.3233,39.0281],[16.328,39.026],[16.3338,39.0256],[16.3395,39.0237],[16.3457,39.0209],[16.3471,39.0186],[16.3512,39.0156],[16.3596,39.0146]]]}},{"type":"Feature","properties":{"i":"079108","n":"San Floro"},"geometry":{"type":"Polygon","coordinates":[[[16.5639,38.8572],[16.5769,38.8461],[16.5706,38.8405],[16.5617,38.8466],[16.5544,38.8478],[16.5364,38.837],[16.5307,38.8351],[16.5199,38.8335],[16.5161,38.834],[16.5133,38.8368],[16.5112,38.8377],[16.483,38.8437],[16.4814,38.8437],[16.4781,38.8405],[16.4758,38.8451],[16.4697,38.8496],[16.4614,38.8484],[16.4571,38.8489],[16.4557,38.8554],[16.4674,38.8613],[16.4693,38.8635],[16.4847,38.8595],[16.4966,38.8603],[16.5018,38.8575],[16.507,38.8562],[16.5225,38.8556],[16.5257,38.8558],[16.5283,38.8569],[16.5494,38.8565],[16.5595,38.8582],[16.5639,38.8572]]]}},{"type":"Feature","properties":{"i":"079110","n":"San Mango d'Aquino"},"geometry":{"type":"Polygon","coordinates":[[[16.2177,39.0434],[16.2156,39.045],[16.2022,39.0509],[16.1887,39.0558],[16.182,39.0529],[16.178,39.0533],[16.1751,39.0546],[16.1728,39.0591],[16.167,39.0589],[16.1589,39.0542],[16.1508,39.0526],[16.1461,39.0534],[16.1481,39.0563],[16.155,39.0604],[16.1822,39.0697],[16.1888,39.0747],[16.1951,39.0721],[16.1952,39.071],[16.193,39.0681],[16.1975,39.0618],[16.2068,39.0608],[16.2114,39.0523],[16.2154,39.048],[16.2177,39.0434]]]}},{"type":"Feature","properties":{"i":"079114","n":"San Pietro a Maida"},"geometry":{"type":"Polygon","coordinates":[[[16.3601,38.8364],[16.3599,38.8351],[16.359,38.8348],[16.3566,38.835],[16.3557,38.8362],[16.3509,38.8353],[16.3401,38.8285],[16.3328,38.8288],[16.328,38.837],[16.3167,38.8473],[16.3104,38.8496],[16.3027,38.8599],[16.2976,38.86],[16.2943,38.8585],[16.289,38.8583],[16.2834,38.8611],[16.2817,38.8636],[16.2745,38.8604],[16.2751,38.8646],[16.2757,38.8662],[16.2926,38.8727],[16.2956,38.8728],[16.2969,38.866],[16.3004,38.8638],[16.3115,38.8633],[16.3159,38.8674],[16.3192,38.8718],[16.3255,38.875],[16.3306,38.8752],[16.337,38.8738],[16.3395,38.87],[16.3419,38.8616],[16.3471,38.8575],[16.3527,38.8547],[16.3576,38.8499],[16.3578,38.8437],[16.3601,38.8364]]]}},{"type":"Feature","properties":{"i":"079115","n":"San Pietro Apostolo"},"geometry":{"type":"Polygon","coordinates":[[[16.5031,38.9764],[16.4987,38.9741],[16.4937,38.973],[16.4917,38.9756],[16.4856,38.9749],[16.4857,38.9766],[16.4799,38.9851],[16.4762,38.9842],[16.4666,38.9841],[16.464,38.9897],[16.4642,38.9921],[16.471,38.9945],[16.4727,38.9981],[16.472,38.9992],[16.4629,39.0],[16.4545,38.9983],[16.4435,38.9984],[16.441,39.0],[16.4418,39.0029],[16.4365,39.0075],[16.4344,39.0084],[16.434,39.0151],[16.4362,39.0186],[16.4354,39.0209],[16.4314,39.0229],[16.4285,39.0269],[16.4294,39.0296],[16.4314,39.0307],[16.4357,39.0295],[16.4411,39.0268],[16.441,39.0214],[16.444,39.015],[16.4454,39.0134],[16.4495,39.0112],[16.4523,39.0099],[16.4683,39.0063],[16.4976,38.9933],[16.5031,38.9901],[16.5026,38.9788],[16.5031,38.9764]]]}},{"type":"Feature","properties":{"i":"079116","n":"San Sostene"},"geometry":{"type":"Polygon","coordinates":[[[16.5585,38.6417],[16.5483,38.6415],[16.5243,38.6375],[16.5203,38.6357],[16.5192,38.6338],[16.5127,38.6317],[16.5036,38.6307],[16.5022,38.6252],[16.4955,38.6172],[16.4875,38.6134],[16.4747,38.6],[16.4662,38.5952],[16.4598,38.595],[16.4523,38.5959],[16.4494,38.5943],[16.4491,38.5932],[16.4513,38.5872],[16.4495,38.5849],[16.4474,38.5842],[16.4448,38.5834],[16.4357,38.583],[16.4271,38.5834],[16.4195,38.5854],[16.4151,38.5886],[16.4193,38.5958],[16.4196,38.5985],[16.4184,38.603],[16.4171,38.6043],[16.4157,38.6081],[16.4153,38.6118],[16.4194,38.611],[16.4249,38.6113],[16.4571,38.6219],[16.4844,38.6424],[16.5016,38.646],[16.5171,38.6511],[16.5242,38.6516],[16.5364,38.649],[16.5431,38.6535],[16.5564,38.655],[16.5585,38.6417]]]}},{"type":"Feature","properties":{"i":"079117","n":"Santa Caterina dello Ionio"},"geometry":{"type":"Polygon","coordinates":[[[16.5775,38.5054],[16.5764,38.5038],[16.5735,38.5034],[16.5696,38.5069],[16.5674,38.5078],[16.5602,38.5086],[16.5466,38.5115],[16.5453,38.5128],[16.5384,38.5144],[16.533,38.5127],[16.5282,38.5098],[16.5203,38.5094],[16.5077,38.517],[16.503,38.5217],[16.485,38.5339],[16.4704,38.5372],[16.4622,38.5399],[16.4561,38.5452],[16.455,38.5504],[16.4399,38.5568],[16.425,38.5604],[16.4229,38.5633],[16.4287,38.5653],[16.4345,38.5656],[16.4409,38.5634],[16.4451,38.5584],[16.475,38.5523],[16.4968,38.5523],[16.5143,38.5503],[16.5198,38.5522],[16.5314,38.5528],[16.5424,38.5548],[16.549,38.5584],[16.5728,38.5607],[16.5716,38.5432],[16.5719,38.535],[16.5756,38.5084],[16.5775,38.5054]]]}},{"type":"Feature","properties":{"i":"079118","n":"Sant'Andrea Apostolo dello Ionio"},"geometry":{"type":"Polygon","coordinates":[[[16.5644,38.6095],[16.5468,38.6064],[16.5455,38.6066],[16.5396,38.6117],[16.5147,38.613],[16.5049,38.6123],[16.4847,38.6032],[16.4815,38.6006],[16.4783,38.5961],[16.4783,38.5924],[16.4817,38.5885],[16.4818,38.584],[16.4692,38.5795],[16.4643,38.5791],[16.4541,38.5892],[16.4528,38.5896],[16.4513,38.5872],[16.4491,38.5932],[16.4494,38.5943],[16.4523,38.5959],[16.4598,38.595],[16.4662,38.5952],[16.4747,38.6],[16.4875,38.6134],[16.4955,38.6172],[16.5022,38.6252],[16.5036,38.6307],[16.5127,38.6317],[16.5192,38.6338],[16.5203,38.6357],[16.5243,38.6375],[16.5483,38.6415],[16.5585,38.6417],[16.5608,38.62],[16.5644,38.6095]]]}},{"type":"Feature","properties":{"i":"079122","n":"San Vito sullo Ionio"},"geometry":{"type":"Polygon","coordinates":[[[16.3583,38.7353],[16.3665,38.7293],[16.3785,38.7287],[16.3893,38.7246],[16.3981,38.7173],[16.412,38.7142],[16.4211,38.7134],[16.431,38.7104],[16.4412,38.7084],[16.4334,38.7007],[16.4311,38.6996],[16.4282,38.7002],[16.4213,38.7035],[16.4141,38.7042],[16.4037,38.6987],[16.4004,38.6989],[16.376,38.7078],[16.3721,38.7083],[16.3656,38.7052],[16.3602,38.6989],[16.3574,38.6989],[16.3552,38.7011],[16.3545,38.7069],[16.3511,38.7122],[16.3479,38.7127],[16.3437,38.7152],[16.3411,38.7191],[16.3385,38.7206],[16.3449,38.7273],[16.3498,38.7344],[16.3556,38.7365],[16.3583,38.7353]]]}},{"type":"Feature","properties":{"i":"079123","n":"Satriano"},"geometry":{"type":"Polygon","coordinates":[[[16.5586,38.6795],[16.5573,38.6685],[16.5519,38.67],[16.543,38.6708],[16.5041,38.6697],[16.4877,38.6628],[16.4803,38.6578],[16.4679,38.6575],[16.4581,38.6498],[16.4506,38.6424],[16.4466,38.6348],[16.4367,38.6296],[16.4344,38.622],[16.4327,38.6198],[16.4286,38.6167],[16.4153,38.6118],[16.416,38.6154],[16.4147,38.624],[16.4158,38.6282],[16.4176,38.6305],[16.423,38.6331],[16.4296,38.6379],[16.4321,38.6423],[16.4321,38.6446],[16.431,38.6482],[16.4277,38.6528],[16.4276,38.6542],[16.4287,38.6559],[16.4351,38.6593],[16.4383,38.6593],[16.4449,38.661],[16.4515,38.6651],[16.475,38.6701],[16.4829,38.6726],[16.4929,38.6777],[16.5057,38.6788],[16.5083,38.6778],[16.5174,38.6782],[16.5261,38.6848],[16.5391,38.6823],[16.5506,38.6785],[16.5586,38.6795]]]}},{"type":"Feature","properties":{"i":"079126","n":"Sellia"},"geometry":{"type":"Polygon","coordinates":[[[16.6453,38.987],[16.6505,38.9813],[16.6571,38.9782],[16.6594,38.9749],[16.6602,38.9731],[16.6592,38.9715],[16.6594,38.9685],[16.6574,38.9643],[16.6457,38.9663],[16.6357,38.9665],[16.6334,38.9644],[16.6307,38.9585],[16.6288,38.9564],[16.6214,38.9534],[16.6186,38.96],[16.6113,38.9668],[16.6092,38.9725],[16.6092,38.9874],[16.6153,38.9916],[16.6213,38.9939],[16.6292,38.9959],[16.6328,38.996],[16.6423,38.9909],[16.6453,38.987]]]}},{"type":"Feature","properties":{"i":"079127","n":"Sellia Marina"},"geometry":{"type":"Polygon","coordinates":[[[16.7311,38.9331],[16.7453,38.9332],[16.753,38.9344],[16.7562,38.9331],[16.7559,38.9285],[16.7569,38.92],[16.7598,38.915],[16.7624,38.9156],[16.7623,38.9181],[16.7672,38.9171],[16.7703,38.9154],[16.7704,38.914],[16.7695,38.9126],[16.7817,38.9051],[16.7837,38.9083],[16.7842,38.9144],[16.7827,38.9229],[16.7689,38.9346],[16.7682,38.9369],[16.7693,38.9382],[16.7723,38.9391],[16.777,38.9355],[16.7922,38.9363],[16.7938,38.9349],[16.7959,38.9183],[16.7972,38.9141],[16.7984,38.9117],[16.8015,38.9092],[16.7983,38.9037],[16.7821,38.8979],[16.7514,38.8847],[16.7273,38.8734],[16.7083,38.8632],[16.7098,38.8651],[16.71,38.8688],[16.709,38.8711],[16.6999,38.8833],[16.6971,38.8886],[16.6873,38.898],[16.6871,38.8991],[16.6886,38.8996],[16.6932,38.8982],[16.6996,38.8947],[16.7121,38.8956],[16.7234,38.8979],[16.7203,38.9051],[16.7158,38.9083],[16.7113,38.9151],[16.7111,38.9201],[16.7121,38.9206],[16.7122,38.9217],[16.7096,38.9259],[16.7027,38.9331],[16.6954,38.9382],[16.6836,38.958],[16.6799,38.96],[16.6734,38.9671],[16.6853,38.9615],[16.7013,38.9523],[16.7042,38.9497],[16.717,38.9332],[16.72,38.9271],[16.7248,38.9259],[16.7311,38.9331]]]}},{"type":"Feature","properties":{"i":"079129","n":"Serrastretta"},"geometry":{"type":"Polygon","coordinates":[[[16.4355,39.0177],[16.434,39.0151],[16.4344,39.0084],[16.4365,39.0075],[16.4418,39.0029],[16.441,39.0],[16.4354,38.9963],[16.4294,38.9904],[16.4406,38.9876],[16.446,38.9662],[16.4423,38.9605],[16.4404,38.9507],[16.4362,38.9455],[16.4342,38.9381],[16.4283,38.9262],[16.4219,38.9231],[16.4199,38.9281],[16.4177,38.93],[16.4069,38.9359],[16.394,38.9367],[16.3943,38.9377],[16.3984,38.9412],[16.4024,38.9424],[16.4074,38.9427],[16.4141,38.9459],[16.4177,38.9489],[16.4093,38.9562],[16.4163,38.9655],[16.417,38.9688],[16.4196,38.9728],[16.4184,38.9777],[16.4152,38.9807],[16.4115,38.9714],[16.4101,38.9719],[16.4055,38.9777],[16.4018,38.9796],[16.3892,38.9784],[16.3889,38.9803],[16.381,38.9848],[16.3797,38.9839],[16.3755,38.9712],[16.3689,38.9696],[16.3618,38.9712],[16.3582,38.9745],[16.358,38.9774],[16.3631,38.9847],[16.3638,38.9846],[16.3675,38.989],[16.3677,38.9924],[16.3631,38.9936],[16.3558,38.9932],[16.3576,39.002],[16.3577,39.0103],[16.3596,39.0146],[16.3778,39.0146],[16.3817,39.0128],[16.3842,39.0104],[16.3871,39.0098],[16.4061,39.0137],[16.413,39.0167],[16.423,39.0178],[16.4322,39.0168],[16.4355,39.0177]]]}},{"type":"Feature","properties":{"i":"079130","n":"Sersale"},"geometry":{"type":"Polygon","coordinates":[[[16.6443,39.1018],[16.6649,39.0869],[16.6676,39.0808],[16.6654,39.0757],[16.6649,39.0709],[16.6701,39.0634],[16.6778,39.0549],[16.6812,39.053],[16.6878,39.0521],[16.6936,39.0449],[16.7023,39.0387],[16.7052,39.0379],[16.7164,39.0313],[16.7216,39.0261],[16.7412,39.0153],[16.7461,39.0107],[16.7561,39.0052],[16.7611,39.0039],[16.7601,39.0026],[16.7534,38.9992],[16.7433,39.0007],[16.7365,38.9965],[16.7349,38.9947],[16.7342,38.9833],[16.738,38.9778],[16.7444,38.9732],[16.7493,38.9665],[16.7519,38.961],[16.7536,38.9503],[16.7624,38.9382],[16.7647,38.9352],[16.7689,38.9346],[16.7827,38.9229],[16.7842,38.9144],[16.7837,38.9083],[16.7817,38.9051],[16.7695,38.9126],[16.7704,38.914],[16.7703,38.9154],[16.7672,38.9171],[16.7623,38.9181],[16.7624,38.9156],[16.7598,38.915],[16.7569,38.92],[16.7559,38.9285],[16.7562,38.9331],[16.753,38.9344],[16.7453,38.9332],[16.7346,38.9327],[16.7311,38.9331],[16.7282,38.9353],[16.7281,38.941],[16.7309,38.9424],[16.7297,38.9474],[16.7271,38.953],[16.723,38.9579],[16.7231,38.9677],[16.7243,38.9727],[16.723,38.9832],[16.7208,38.9829],[16.7167,38.9782],[16.71,38.9801],[16.6991,38.9839],[16.691,38.9944],[16.6893,38.9977],[16.6876,39.0172],[16.6895,39.02],[16.6896,39.0238],[16.6855,39.0317],[16.6788,39.0346],[16.6735,39.0391],[16.6578,39.0605],[16.6556,39.0683],[16.652,39.0723],[16.6497,39.0767],[16.6488,39.08],[16.6501,39.0837],[16.649,39.088],[16.6429,39.0919],[16.6393,39.0975],[16.6377,39.1022],[16.6384,39.1038],[16.6443,39.1018]]]}},{"type":"Feature","properties":{"i":"079131","n":"Settingiano"},"geometry":{"type":"Polygon","coordinates":[[[16.5518,38.8902],[16.5474,38.8816],[16.544,38.8823],[16.52,38.877],[16.5145,38.8791],[16.5129,38.8829],[16.5086,38.8896],[16.502,38.8917],[16.4933,38.8905],[16.4864,38.8984],[16.4902,38.9015],[16.5072,38.9207],[16.508,38.922],[16.5079,38.9255],[16.516,38.9307],[16.5207,38.9289],[16.5214,38.9272],[16.5188,38.9217],[16.52,38.9114],[16.5225,38.9029],[16.5198,38.9002],[16.5201,38.8985],[16.5351,38.8962],[16.5362,38.8979],[16.5407,38.9009],[16.5447,38.9018],[16.5479,38.8985],[16.5478,38.8939],[16.5518,38.8902]]]}},{"type":"Feature","properties":{"i":"079133","n":"Simeri Crichi"},"geometry":{"type":"Polygon","coordinates":[[[16.6574,38.9643],[16.6588,38.9621],[16.6574,38.9564],[16.6684,38.9435],[16.6699,38.9322],[16.6685,38.93],[16.6692,38.9262],[16.6732,38.9175],[16.6753,38.9089],[16.6856,38.8986],[16.6873,38.898],[16.6971,38.8886],[16.6999,38.8833],[16.71,38.8688],[16.7098,38.8651],[16.7083,38.8632],[16.7003,38.8595],[16.6857,38.8509],[16.6724,38.8517],[16.6686,38.8526],[16.6607,38.8673],[16.6555,38.8698],[16.6526,38.8724],[16.6459,38.8893],[16.6407,38.8995],[16.6276,38.9198],[16.6265,38.9233],[16.6292,38.9261],[16.63,38.9295],[16.6274,38.9341],[16.6247,38.9354],[16.6228,38.9379],[16.6241,38.9446],[16.6214,38.9534],[16.6288,38.9564],[16.6351,38.9662],[16.6399,38.9669],[16.6574,38.9643]]]}},{"type":"Feature","properties":{"i":"079134","n":"Sorbo San Basile"},"geometry":{"type":"Polygon","coordinates":[[[16.5106,39.1071],[16.5254,39.0875],[16.5317,39.0818],[16.5404,39.0656],[16.5482,39.0582],[16.5512,39.0569],[16.5602,39.0382],[16.5638,39.0274],[16.5767,39.0174],[16.5639,39.0103],[16.5564,39.0006],[16.5538,38.9993],[16.5491,38.9981],[16.5465,38.9989],[16.5458,39.0033],[16.5378,39.0157],[16.5296,39.0139],[16.5275,39.0126],[16.5237,39.0124],[16.519,39.01],[16.5181,39.0137],[16.5127,39.0182],[16.5102,39.019],[16.5074,39.0162],[16.5048,39.0155],[16.4984,39.0192],[16.4852,39.0295],[16.4809,39.0377],[16.4818,39.0399],[16.4802,39.0439],[16.4705,39.0513],[16.4795,39.0553],[16.4816,39.0589],[16.4787,39.0687],[16.4765,39.0867],[16.4773,39.0875],[16.475,39.0916],[16.4761,39.0932],[16.4777,39.1004],[16.4783,39.1082],[16.4854,39.1056],[16.4918,39.1046],[16.4982,39.1047],[16.5003,39.1068],[16.5028,39.1072],[16.5106,39.1071]]]}},{"type":"Feature","properties":{"i":"079137","n":"Soverato"},"geometry":{"type":"Polygon","coordinates":[[[16.5586,38.6795],[16.5506,38.6785],[16.5391,38.6823],[16.5261,38.6848],[16.5174,38.6782],[16.5083,38.6778],[16.5057,38.6788],[16.5093,38.6802],[16.5105,38.6817],[16.5129,38.6897],[16.5119,38.6935],[16.5123,38.6952],[16.5208,38.7019],[16.5227,38.7043],[16.5351,38.7062],[16.5367,38.7024],[16.5451,38.6942],[16.5499,38.6917],[16.5547,38.6913],[16.5575,38.6854],[16.5586,38.6795]]]}},{"type":"Feature","properties":{"i":"079138","n":"Soveria Mannelli"},"geometry":{"type":"Polygon","coordinates":[[[16.3937,39.104],[16.3934,39.0957],[16.394,39.0935],[16.3985,39.0875],[16.406,39.0832],[16.4119,39.0749],[16.4119,39.0734],[16.4074,39.0709],[16.4096,39.056],[16.4129,39.0516],[16.4223,39.0438],[16.4295,39.0413],[16.4324,39.0394],[16.4338,39.0329],[16.4307,39.0322],[16.4306,39.0342],[16.4289,39.036],[16.4223,39.0339],[16.383,39.0539],[16.3774,39.058],[16.3678,39.0728],[16.3638,39.0814],[16.363,39.0857],[16.3636,39.0907],[16.3659,39.095],[16.3703,39.0993],[16.3834,39.1051],[16.3937,39.104]]]}},{"type":"Feature","properties":{"i":"079139","n":"Soveria Simeri"},"geometry":{"type":"Polygon","coordinates":[[[16.6734,38.9671],[16.6799,38.96],[16.6836,38.958],[16.6954,38.9382],[16.7027,38.9331],[16.7096,38.9259],[16.7122,38.9217],[16.7121,38.9206],[16.7111,38.9201],[16.7113,38.9151],[16.7158,38.9083],[16.7203,38.9051],[16.7234,38.8979],[16.7121,38.8956],[16.6982,38.895],[16.6932,38.8982],[16.6886,38.8996],[16.6871,38.8991],[16.6873,38.898],[16.6856,38.8986],[16.6759,38.9081],[16.6732,38.9175],[16.6692,38.9262],[16.6685,38.93],[16.6699,38.9322],[16.6684,38.9435],[16.6573,38.9567],[16.6588,38.9621],[16.6574,38.9643],[16.6594,38.9685],[16.6592,38.9715],[16.6602,38.9731],[16.6734,38.9671]]]}},{"type":"Feature","properties":{"i":"079142","n":"Squillace"},"geometry":{"type":"Polygon","coordinates":[[[16.5883,38.7899],[16.5722,38.7733],[16.5699,38.7692],[16.5591,38.7771],[16.5464,38.7825],[16.5411,38.7783],[16.5338,38.7753],[16.5282,38.7762],[16.5168,38.7749],[16.5152,38.7736],[16.5154,38.768],[16.5136,38.7682],[16.5087,38.7659],[16.4997,38.7634],[16.4949,38.7643],[16.493,38.7692],[16.4917,38.7706],[16.4795,38.7729],[16.475,38.7745],[16.4725,38.7855],[16.4761,38.794],[16.475,38.7955],[16.4778,38.7982],[16.4731,38.8041],[16.4692,38.8066],[16.4676,38.8098],[16.4668,38.8145],[16.4715,38.8171],[16.4769,38.8169],[16.4742,38.8108],[16.4738,38.8075],[16.4745,38.8058],[16.4775,38.8036],[16.4957,38.8054],[16.5007,38.8121],[16.5068,38.8092],[16.5094,38.8068],[16.5205,38.8071],[16.5281,38.8039],[16.5405,38.8031],[16.5484,38.7999],[16.5512,38.7996],[16.5594,38.8037],[16.5578,38.8085],[16.5559,38.8087],[16.5523,38.8109],[16.5511,38.8131],[16.5568,38.8136],[16.5678,38.8097],[16.5754,38.8033],[16.5846,38.7919],[16.5883,38.7899]]]}},{"type":"Feature","properties":{"i":"079143","n":"Stalettì"},"geometry":{"type":"Polygon","coordinates":[[[16.5699,38.7692],[16.5668,38.7651],[16.5716,38.7609],[16.5703,38.7553],[16.568,38.7537],[16.5645,38.7529],[16.5592,38.7475],[16.5583,38.7457],[16.5597,38.7442],[16.5597,38.7431],[16.5577,38.7406],[16.5525,38.7437],[16.5506,38.7484],[16.5491,38.7508],[16.5479,38.7513],[16.5441,38.7522],[16.5426,38.7511],[16.5359,38.7494],[16.5346,38.7566],[16.5332,38.7583],[16.5276,38.7598],[16.5203,38.7632],[16.5186,38.7678],[16.5154,38.768],[16.515,38.7725],[16.5168,38.7749],[16.5282,38.7762],[16.5338,38.7753],[16.5411,38.7783],[16.5464,38.7825],[16.5591,38.7771],[16.5699,38.7692]]]}},{"type":"Feature","properties":{"i":"079146","n":"Taverna"},"geometry":{"type":"Polygon","coordinates":[[[16.6693,39.156],[16.6688,39.1548],[16.6705,39.1415],[16.6793,39.1356],[16.6802,39.1327],[16.6789,39.1315],[16.6755,39.1326],[16.6692,39.1364],[16.6667,39.1336],[16.6567,39.132],[16.6383,39.1321],[16.6276,39.1343],[16.6243,39.1376],[16.6212,39.1432],[16.6171,39.1416],[16.6158,39.1397],[16.6143,39.1277],[16.6166,39.1261],[16.6221,39.1243],[16.6249,39.1222],[16.6203,39.1126],[16.6189,39.1112],[16.6196,39.1051],[16.6306,39.0939],[16.6279,39.0908],[16.6261,39.0902],[16.6261,39.0837],[16.6303,39.0806],[16.6357,39.0751],[16.6349,39.0736],[16.6167,39.0697],[16.6026,39.0687],[16.5964,39.0753],[16.5928,39.0845],[16.5905,39.0859],[16.5768,39.0848],[16.5737,39.0833],[16.5792,39.0805],[16.5785,39.0747],[16.5839,39.0697],[16.5861,39.0666],[16.5866,39.0643],[16.5742,39.0609],[16.576,39.0563],[16.5789,39.0548],[16.5698,39.0459],[16.5691,39.0423],[16.5765,39.0319],[16.5816,39.0281],[16.5841,39.0276],[16.5882,39.0241],[16.5891,39.0176],[16.5859,39.013],[16.5767,39.0174],[16.5638,39.0274],[16.5602,39.0382],[16.5512,39.0569],[16.5482,39.0582],[16.5404,39.0656],[16.5317,39.0818],[16.5254,39.0875],[16.5106,39.1071],[16.5124,39.1093],[16.5125,39.111],[16.5094,39.1131],[16.4959,39.1136],[16.4846,39.1153],[16.4799,39.1215],[16.4838,39.1313],[16.4883,39.1392],[16.4977,39.1417],[16.5012,39.1417],[16.5023,39.1458],[16.5034,39.1604],[16.5166,39.1635],[16.5238,39.1615],[16.5254,39.1519],[16.5353,39.1463],[16.5381,39.1467],[16.5456,39.15],[16.5472,39.1546],[16.55,39.1578],[16.5623,39.1628],[16.5645,39.1664],[16.5722,39.1691],[16.5808,39.1678],[16.5851,39.1697],[16.5871,39.174],[16.5862,39.1746],[16.5863,39.1761],[16.5891,39.1846],[16.5912,39.1842],[16.5995,39.1921],[16.613,39.1942],[16.6143,39.1893],[16.6171,39.1864],[16.6246,39.1745],[16.6286,39.1627],[16.6369,39.1601],[16.6498,39.153],[16.6615,39.1555],[16.6693,39.156]]]}},{"type":"Feature","properties":{"i":"079147","n":"Tiriolo"},"geometry":{"type":"Polygon","coordinates":[[[16.5467,38.9496],[16.541,38.9494],[16.5391,38.9478],[16.5382,38.9457],[16.5458,38.9265],[16.5489,38.9152],[16.556,38.9035],[16.5567,38.8971],[16.5518,38.8902],[16.5478,38.8939],[16.5479,38.8985],[16.5447,38.9018],[16.5407,38.9009],[16.5362,38.8979],[16.5351,38.8962],[16.5201,38.8985],[16.5198,38.9002],[16.5225,38.9029],[16.52,38.9114],[16.5188,38.9199],[16.5188,38.9217],[16.5214,38.9269],[16.5207,38.9289],[16.5148,38.9306],[16.5079,38.9255],[16.5063,38.9303],[16.5076,38.9341],[16.5025,38.9374],[16.498,38.937],[16.4915,38.9328],[16.4853,38.9315],[16.4835,38.9332],[16.4826,38.9365],[16.48,38.9407],[16.4834,38.9456],[16.4894,38.9514],[16.4885,38.9686],[16.4856,38.9749],[16.4917,38.9756],[16.4937,38.973],[16.495,38.9729],[16.5031,38.9764],[16.5036,38.9734],[16.5064,38.9691],[16.5097,38.9664],[16.5158,38.9632],[16.5454,38.9588],[16.548,38.9574],[16.5467,38.9496]]]}},{"type":"Feature","properties":{"i":"079148","n":"Torre di Ruggiero"},"geometry":{"type":"Polygon","coordinates":[[[16.3936,38.6642],[16.3908,38.6635],[16.3873,38.6613],[16.3813,38.6559],[16.3803,38.6539],[16.3773,38.64],[16.3742,38.6314],[16.3741,38.6278],[16.3796,38.6241],[16.3766,38.621],[16.3668,38.6276],[16.3573,38.6311],[16.3545,38.6292],[16.3479,38.63],[16.3388,38.633],[16.3325,38.6368],[16.329,38.6414],[16.3298,38.6446],[16.3349,38.6487],[16.3395,38.6501],[16.3411,38.6516],[16.3456,38.6583],[16.3456,38.6664],[16.3441,38.6686],[16.334,38.6718],[16.3263,38.6778],[16.3313,38.6824],[16.334,38.6832],[16.3372,38.6855],[16.3378,38.6976],[16.3391,38.7002],[16.3428,38.703],[16.3438,38.6984],[16.3504,38.6874],[16.3578,38.6822],[16.3793,38.6791],[16.3885,38.672],[16.39,38.6673],[16.3936,38.6642]]]}},{"type":"Feature","properties":{"i":"079151","n":"Vallefiorita"},"geometry":{"type":"Polygon","coordinates":[[[16.475,38.7745],[16.4628,38.7687],[16.4356,38.7638],[16.4207,38.7598],[16.4181,38.7585],[16.411,38.7583],[16.4078,38.7525],[16.3984,38.7497],[16.3956,38.7423],[16.3905,38.7516],[16.3869,38.7525],[16.3855,38.7516],[16.3867,38.7565],[16.393,38.7526],[16.3999,38.7526],[16.4023,38.755],[16.403,38.7598],[16.4022,38.7658],[16.416,38.7788],[16.4287,38.7785],[16.4497,38.7832],[16.4588,38.7909],[16.475,38.7955],[16.4761,38.794],[16.4725,38.7855],[16.475,38.7745]]]}},{"type":"Feature","properties":{"i":"079157","n":"Zagarise"},"geometry":{"type":"MultiPolygon","coordinates":[[[[16.7311,38.9331],[16.7248,38.9259],[16.72,38.9271],[16.717,38.9332],[16.7042,38.9497],[16.7013,38.9523],[16.6761,38.9662],[16.6602,38.9731],[16.6571,38.9782],[16.6505,38.9813],[16.6442,38.9891],[16.6453,38.9926],[16.6483,38.9931],[16.6513,38.9949],[16.6557,39.005],[16.657,39.01],[16.6566,39.0175],[16.6577,39.0235],[16.6593,39.0264],[16.6613,39.028],[16.6662,39.0282],[16.6717,39.0327],[16.6758,39.0375],[16.6788,39.0346],[16.6861,39.0311],[16.6896,39.0238],[16.6895,39.02],[16.6876,39.0172],[16.6893,38.9977],[16.691,38.9944],[16.6991,38.9839],[16.7167,38.9782],[16.7208,38.9829],[16.723,38.9832],[16.7243,38.9727],[16.7231,38.9677],[16.723,38.9579],[16.7271,38.953],[16.7297,38.9474],[16.7309,38.9424],[16.7281,38.941],[16.7282,38.9353],[16.7311,38.9331]]],[[[16.6383,39.1321],[16.6392,39.1303],[16.6516,39.1268],[16.6529,39.125],[16.6436,39.1184],[16.6453,39.1135],[16.6451,39.1026],[16.6443,39.1018],[16.6384,39.1038],[16.6377,39.1022],[16.6393,39.0975],[16.6429,39.0919],[16.649,39.088],[16.6501,39.0837],[16.6488,39.08],[16.6505,39.0746],[16.652,39.0723],[16.646,39.0686],[16.6357,39.0751],[16.6303,39.0806],[16.6261,39.0837],[16.6261,39.0902],[16.6279,39.0908],[16.6306,39.0939],[16.62,39.1042],[16.6189,39.1112],[16.6203,39.1126],[16.6249,39.1222],[16.6221,39.1243],[16.6166,39.1261],[16.6143,39.1277],[16.6158,39.1397],[16.6171,39.1416],[16.6212,39.1432],[16.6243,39.1376],[16.6276,39.1343],[16.6383,39.1321]]]]}},{"type":"Feature","properties":{"i":"079160","n":"Lamezia Terme"},"geometry":{"type":"Polygon","coordinates":[[[16.2845,39.0141],[16.2838,39.0121],[16.2849,39.0081],[16.2886,39.0059],[16.2899,39.0041],[16.2925,38.9962],[16.2928,38.9869],[16.2946,38.9856],[16.2971,38.9855],[16.3019,38.989],[16.3127,38.9879],[16.3319,38.9884],[16.3391,38.9897],[16.3503,38.9944],[16.3558,38.9932],[16.3631,38.9936],[16.3677,38.9924],[16.3675,38.989],[16.3638,38.9846],[16.3631,38.9847],[16.358,38.9774],[16.3582,38.9745],[16.3618,38.9712],[16.3567,38.9575],[16.3532,38.9449],[16.3491,38.939],[16.3432,38.9334],[16.3406,38.9267],[16.3415,38.9199],[16.3404,38.915],[16.3358,38.909],[16.3305,38.907],[16.3269,38.9],[16.3273,38.8964],[16.3203,38.8951],[16.3144,38.8923],[16.3006,38.883],[16.2956,38.8728],[16.2926,38.8727],[16.2757,38.8662],[16.2738,38.8576],[16.2686,38.8503],[16.241,38.8532],[16.2349,38.8496],[16.2288,38.8485],[16.2206,38.8489],[16.2213,38.8663],[16.2206,38.9025],[16.2186,38.9188],[16.2152,38.9261],[16.2281,38.9396],[16.2319,38.9421],[16.2317,38.9461],[16.2202,38.9609],[16.2191,38.964],[16.2217,38.9815],[16.2245,38.9911],[16.2285,38.9999],[16.2201,39.0099],[16.2269,39.0198],[16.2319,39.0219],[16.2396,39.0225],[16.2455,39.0243],[16.2529,39.0218],[16.2558,39.0198],[16.2549,39.0188],[16.2533,39.0189],[16.2536,39.0154],[16.2581,39.0081],[16.2627,39.0115],[16.2672,39.0193],[16.2695,39.0196],[16.2728,39.0163],[16.269,39.012],[16.268,39.0052],[16.2713,38.9969],[16.2741,38.995],[16.2775,38.9971],[16.2767,39.0077],[16.2807,39.0117],[16.2845,39.0141]]]}}]}
