{"type":"FeatureCollection","fonte":"Confini comunali ISTAT via openpolis/geojson-italy — CC BY 4.0","features":[{"type":"Feature","properties":{"i":"086001","n":"Agira"},"geometry":{"type":"Polygon","coordinates":[[[14.5416,37.6728],[14.5419,37.6709],[14.5435,37.6693],[14.5463,37.6684],[14.5522,37.6686],[14.5554,37.67],[14.5708,37.6659],[14.5769,37.6651],[14.5815,37.6607],[14.584,37.6541],[14.5839,37.6524],[14.5796,37.635],[14.5789,37.6282],[14.5821,37.6267],[14.5845,37.6195],[14.5856,37.6091],[14.5898,37.6067],[14.5944,37.6023],[14.5921,37.598],[14.595,37.5921],[14.6059,37.5882],[14.6145,37.5896],[14.6174,37.5873],[14.6276,37.5772],[14.6286,37.575],[14.625,37.5664],[14.6286,37.5665],[14.6294,37.5674],[14.6464,37.5661],[14.651,37.5701],[14.6605,37.5677],[14.6666,37.5699],[14.6687,37.5698],[14.6702,37.5686],[14.6714,37.5647],[14.6737,37.561],[14.674,37.558],[14.6648,37.5513],[14.6532,37.549],[14.6373,37.5431],[14.6328,37.5364],[14.5942,37.5364],[14.5914,37.5383],[14.5899,37.5436],[14.5883,37.5453],[14.5811,37.5499],[14.5792,37.5487],[14.5797,37.5476],[14.5771,37.5447],[14.573,37.5458],[14.5613,37.5434],[14.5619,37.5407],[14.5467,37.5411],[14.5411,37.5403],[14.5389,37.5371],[14.5375,37.5392],[14.5261,37.5495],[14.5199,37.5495],[14.5134,37.5554],[14.5019,37.5571],[14.4995,37.5534],[14.4995,37.5561],[14.4873,37.5653],[14.4834,37.5623],[14.4778,37.5659],[14.4769,37.5645],[14.4743,37.5654],[14.472,37.5735],[14.4682,37.5767],[14.4666,37.5802],[14.4679,37.5952],[14.4685,37.5969],[14.4859,37.6042],[14.4902,37.6106],[14.491,37.621],[14.4837,37.6353],[14.483,37.6436],[14.4693,37.6541],[14.4657,37.6579],[14.474,37.6734],[14.4744,37.6756],[14.4735,37.6784],[14.4748,37.6805],[14.4828,37.6855],[14.4877,37.6871],[14.4905,37.6901],[14.495,37.6913],[14.5052,37.6779],[14.5039,37.6755],[14.5058,37.6739],[14.5085,37.6738],[14.5138,37.677],[14.5203,37.6786],[14.5284,37.6736],[14.5374,37.6759],[14.5413,37.6743],[14.5416,37.6728]]]}},{"type":"Feature","properties":{"i":"086002","n":"Aidone"},"geometry":{"type":"Polygon","coordinates":[[[14.539,37.454],[14.5421,37.4544],[14.5429,37.4537],[14.5439,37.4493],[14.5548,37.4449],[14.5616,37.4468],[14.5702,37.4469],[14.5818,37.4506],[14.588,37.4501],[14.5998,37.4421],[14.6085,37.4404],[14.6129,37.434],[14.6174,37.4351],[14.6243,37.4352],[14.6329,37.4296],[14.6327,37.4246],[14.6221,37.4146],[14.616,37.4121],[14.6111,37.4113],[14.6055,37.4111],[14.6003,37.4125],[14.5874,37.4083],[14.5828,37.4037],[14.5807,37.4001],[14.5784,37.3896],[14.5813,37.3883],[14.586,37.3877],[14.5908,37.3825],[14.5892,37.3799],[14.5892,37.3761],[14.5901,37.3741],[14.587,37.3731],[14.5843,37.371],[14.5814,37.3642],[14.5761,37.3619],[14.5692,37.3604],[14.5554,37.3628],[14.5401,37.364],[14.5322,37.3607],[14.5143,37.3513],[14.5037,37.3487],[14.4918,37.3492],[14.4894,37.35],[14.4897,37.3547],[14.4888,37.3592],[14.4874,37.3605],[14.4774,37.3648],[14.4547,37.3642],[14.4522,37.361],[14.4435,37.3569],[14.4321,37.3555],[14.4303,37.3592],[14.4319,37.3632],[14.4329,37.3634],[14.4327,37.3677],[14.4293,37.3784],[14.4293,37.3862],[14.4283,37.3895],[14.4211,37.4019],[14.4135,37.4061],[14.409,37.4062],[14.4015,37.4094],[14.3888,37.421],[14.3862,37.4252],[14.39,37.4304],[14.3897,37.4319],[14.3876,37.4338],[14.4005,37.4498],[14.4039,37.456],[14.4042,37.4656],[14.4054,37.4697],[14.409,37.4716],[14.4188,37.4803],[14.4235,37.4818],[14.429,37.4812],[14.4439,37.4745],[14.4505,37.4741],[14.4532,37.4717],[14.4564,37.4666],[14.4613,37.4686],[14.4618,37.4692],[14.4524,37.4811],[14.4583,37.4855],[14.4673,37.4894],[14.4753,37.4914],[14.4783,37.494],[14.4878,37.5086],[14.4954,37.5051],[14.5278,37.4969],[14.5263,37.495],[14.5227,37.4928],[14.5164,37.4798],[14.5178,37.4758],[14.5262,37.4615],[14.5374,37.453],[14.539,37.454]],[[14.4899,37.4823],[14.4881,37.481],[14.4903,37.4767],[14.5067,37.4586],[14.5109,37.4658],[14.5097,37.4729],[14.5036,37.4784],[14.493,37.4829],[14.4899,37.4823]]]}},{"type":"Feature","properties":{"i":"086003","n":"Assoro"},"geometry":{"type":"MultiPolygon","coordinates":[[[[14.4376,37.5075],[14.4326,37.5006],[14.4289,37.4985],[14.418,37.4961],[14.4134,37.4929],[14.411,37.4886],[14.4022,37.489],[14.4032,37.4906],[14.4056,37.4993],[14.407,37.5108],[14.4045,37.5118],[14.4028,37.5135],[14.3995,37.5194],[14.4086,37.5297],[14.4139,37.5308],[14.4215,37.5194],[14.4244,37.5178],[14.4331,37.5152],[14.4374,37.5099],[14.4376,37.5075]]],[[[14.4995,37.5534],[14.5019,37.5571],[14.5134,37.5554],[14.5199,37.5495],[14.5261,37.5495],[14.5375,37.5392],[14.5389,37.5371],[14.5325,37.5244],[14.5265,37.5184],[14.5233,37.5166],[14.516,37.5158],[14.5065,37.5125],[14.4947,37.5111],[14.4907,37.5116],[14.4878,37.5102],[14.4848,37.5169],[14.4798,37.5186],[14.4717,37.5156],[14.4696,37.513],[14.4636,37.5209],[14.46,37.5232],[14.4562,37.5276],[14.456,37.5356],[14.4585,37.5402],[14.4632,37.5449],[14.4698,37.5483],[14.4712,37.5528],[14.466,37.5568],[14.4615,37.5591],[14.4611,37.5603],[14.4674,37.5616],[14.4795,37.5599],[14.4919,37.5537],[14.4924,37.5531],[14.4917,37.5516],[14.4933,37.5513],[14.4956,37.5512],[14.4995,37.5534]]],[[[14.4743,37.5654],[14.4769,37.5645],[14.474,37.5629],[14.4743,37.5654]]],[[[14.4662,37.6592],[14.4657,37.6579],[14.4665,37.6567],[14.483,37.6436],[14.4837,37.6353],[14.491,37.621],[14.4902,37.6106],[14.4859,37.6042],[14.4685,37.5969],[14.4679,37.5952],[14.4666,37.5802],[14.4682,37.5767],[14.472,37.5735],[14.4736,37.5692],[14.4698,37.5665],[14.4567,37.5618],[14.4464,37.5561],[14.4409,37.5497],[14.4363,37.5427],[14.4341,37.5405],[14.4305,37.5388],[14.427,37.538],[14.4161,37.5402],[14.4094,37.54],[14.4042,37.5418],[14.4009,37.552],[14.4006,37.5554],[14.4043,37.5804],[14.4022,37.5846],[14.3989,37.5874],[14.3933,37.5981],[14.3939,37.6044],[14.3964,37.6092],[14.3971,37.6163],[14.3962,37.6206],[14.3977,37.6251],[14.4005,37.6305],[14.408,37.6358],[14.4102,37.6411],[14.4144,37.659],[14.4153,37.6549],[14.4145,37.6523],[14.415,37.647],[14.4163,37.6433],[14.4211,37.638],[14.4254,37.6373],[14.4399,37.6454],[14.4524,37.6507],[14.4545,37.6548],[14.4593,37.659],[14.4662,37.6592]]]]}},{"type":"Feature","properties":{"i":"086004","n":"Barrafranca"},"geometry":{"type":"Polygon","coordinates":[[[14.2311,37.3476],[14.229,37.3466],[14.2191,37.3378],[14.2159,37.3362],[14.2075,37.3339],[14.2048,37.3345],[14.186,37.3308],[14.1665,37.324],[14.1557,37.3265],[14.1502,37.3289],[14.1456,37.3335],[14.1421,37.3355],[14.133,37.3351],[14.1338,37.3368],[14.1315,37.3433],[14.1294,37.3451],[14.1279,37.3453],[14.1274,37.3512],[14.1298,37.3549],[14.1381,37.358],[14.142,37.3569],[14.1437,37.3535],[14.1452,37.3532],[14.1468,37.3544],[14.1506,37.3593],[14.1534,37.3731],[14.1576,37.3768],[14.1664,37.3749],[14.1685,37.3759],[14.1739,37.3814],[14.1751,37.3845],[14.1746,37.3904],[14.1768,37.3945],[14.1831,37.3972],[14.1887,37.3939],[14.1929,37.3939],[14.1941,37.3915],[14.2153,37.3871],[14.2223,37.3883],[14.2253,37.3899],[14.2265,37.391],[14.2271,37.3984],[14.2298,37.3996],[14.2367,37.3975],[14.2406,37.3951],[14.2473,37.3836],[14.2469,37.3805],[14.2412,37.372],[14.2409,37.3702],[14.2465,37.3675],[14.2526,37.3685],[14.2549,37.368],[14.2542,37.3658],[14.2483,37.362],[14.2454,37.3607],[14.2358,37.3593],[14.2311,37.3476]]]}},{"type":"Feature","properties":{"i":"086005","n":"Calascibetta"},"geometry":{"type":"Polygon","coordinates":[[[14.2389,37.6908],[14.2404,37.6864],[14.2548,37.6769],[14.2597,37.669],[14.2777,37.6559],[14.2793,37.6562],[14.2852,37.6386],[14.2881,37.6367],[14.29,37.6359],[14.296,37.6368],[14.2981,37.6411],[14.3085,37.6514],[14.3163,37.6454],[14.3186,37.6276],[14.3207,37.6222],[14.3233,37.618],[14.3182,37.6173],[14.3137,37.6195],[14.3068,37.612],[14.3025,37.6108],[14.2931,37.6041],[14.2926,37.6033],[14.2943,37.6005],[14.2968,37.6006],[14.2983,37.5997],[14.285,37.5825],[14.2766,37.5798],[14.2648,37.58],[14.2502,37.5828],[14.2452,37.5851],[14.2363,37.5839],[14.2283,37.5791],[14.2253,37.5787],[14.2184,37.5804],[14.2111,37.5839],[14.2066,37.5843],[14.2061,37.5851],[14.2177,37.6014],[14.2353,37.6121],[14.234,37.6143],[14.2242,37.62],[14.2177,37.6206],[14.2136,37.6199],[14.2067,37.6173],[14.2005,37.6189],[14.1997,37.6243],[14.2023,37.6266],[14.2065,37.6342],[14.2083,37.6401],[14.2037,37.6446],[14.199,37.6448],[14.1965,37.6411],[14.1923,37.638],[14.1745,37.6427],[14.164,37.6422],[14.1634,37.6441],[14.1631,37.6577],[14.1611,37.6603],[14.159,37.6615],[14.158,37.6664],[14.1611,37.669],[14.1757,37.6767],[14.1797,37.6725],[14.1843,37.6699],[14.1892,37.6739],[14.1919,37.675],[14.1937,37.6748],[14.1971,37.6678],[14.2033,37.6595],[14.2151,37.6556],[14.2153,37.6539],[14.2178,37.6514],[14.2263,37.6533],[14.2267,37.6543],[14.2229,37.6676],[14.218,37.6736],[14.2165,37.6777],[14.2186,37.6808],[14.2251,37.6857],[14.2347,37.6905],[14.2389,37.6908]]]}},{"type":"Feature","properties":{"i":"086006","n":"Catenanuova"},"geometry":{"type":"Polygon","coordinates":[[[14.7011,37.5514],[14.699,37.5552],[14.695,37.5556],[14.6896,37.5542],[14.6797,37.5579],[14.674,37.558],[14.6737,37.561],[14.6704,37.5677],[14.6788,37.5775],[14.6791,37.579],[14.6771,37.5847],[14.678,37.5874],[14.6986,37.5862],[14.7234,37.5758],[14.7238,37.574],[14.7193,37.5693],[14.7055,37.5625],[14.7038,37.5594],[14.7036,37.5555],[14.7011,37.5514]]]}},{"type":"Feature","properties":{"i":"086007","n":"Centuripe"},"geometry":{"type":"Polygon","coordinates":[[[14.8257,37.6307],[14.822,37.6188],[14.8243,37.6122],[14.8281,37.6082],[14.8288,37.5982],[14.8268,37.5948],[14.8265,37.5929],[14.8272,37.5896],[14.829,37.5889],[14.8256,37.587],[14.8112,37.5818],[14.7963,37.5683],[14.7911,37.5618],[14.7911,37.5594],[14.801,37.5553],[14.8017,37.5539],[14.7991,37.5326],[14.7935,37.5305],[14.7912,37.528],[14.7912,37.5263],[14.794,37.5187],[14.7938,37.5146],[14.7925,37.5102],[14.7905,37.5064],[14.7845,37.5024],[14.7816,37.5032],[14.7775,37.502],[14.7746,37.5043],[14.7729,37.5087],[14.7715,37.5093],[14.767,37.5091],[14.7639,37.5044],[14.7577,37.5098],[14.7418,37.5271],[14.7332,37.5286],[14.7288,37.5327],[14.7285,37.5351],[14.7227,37.5394],[14.7148,37.5397],[14.7122,37.5423],[14.7129,37.5454],[14.7074,37.5495],[14.7021,37.5489],[14.6995,37.5495],[14.7036,37.5555],[14.7038,37.5594],[14.7055,37.5625],[14.7193,37.5693],[14.7238,37.574],[14.7234,37.5758],[14.6986,37.5862],[14.678,37.5874],[14.6779,37.5888],[14.6743,37.5933],[14.6645,37.6032],[14.662,37.6072],[14.6654,37.6121],[14.673,37.6196],[14.6737,37.6215],[14.6726,37.6317],[14.6736,37.6348],[14.6795,37.6399],[14.6889,37.6368],[14.6932,37.6348],[14.697,37.6318],[14.7005,37.6319],[14.7137,37.6369],[14.7152,37.6388],[14.7137,37.644],[14.7164,37.6482],[14.7179,37.6485],[14.7224,37.6454],[14.7305,37.6415],[14.74,37.6392],[14.7421,37.6403],[14.7488,37.6499],[14.7449,37.662],[14.7308,37.6634],[14.7318,37.6708],[14.7273,37.6758],[14.7249,37.6766],[14.7241,37.6786],[14.7244,37.6814],[14.7286,37.6827],[14.7334,37.6871],[14.7345,37.6909],[14.7383,37.6911],[14.7477,37.6862],[14.752,37.6864],[14.7611,37.6942],[14.7979,37.7127],[14.7987,37.711],[14.798,37.7076],[14.8001,37.6913],[14.8019,37.6912],[14.8025,37.6874],[14.8003,37.683],[14.7979,37.6819],[14.7924,37.6756],[14.7918,37.6661],[14.7924,37.6528],[14.7973,37.646],[14.8048,37.6462],[14.8098,37.6422],[14.8223,37.6371],[14.8255,37.6333],[14.8257,37.6307]]]}},{"type":"Feature","properties":{"i":"086008","n":"Cerami"},"geometry":{"type":"Polygon","coordinates":[[[14.5615,37.8365],[14.5573,37.8314],[14.559,37.8272],[14.5569,37.8206],[14.5418,37.8055],[14.5367,37.7971],[14.5355,37.7935],[14.5373,37.7919],[14.5384,37.789],[14.5365,37.783],[14.5352,37.7815],[14.5334,37.7814],[14.5309,37.7732],[14.5311,37.7668],[14.53,37.7659],[14.5257,37.7665],[14.5229,37.7589],[14.5217,37.7574],[14.5189,37.756],[14.513,37.7562],[14.5092,37.7573],[14.5058,37.7565],[14.5053,37.7553],[14.4977,37.7681],[14.4938,37.7766],[14.4863,37.7859],[14.4785,37.784],[14.4752,37.7816],[14.4607,37.7801],[14.4479,37.7824],[14.4237,37.7899],[14.4186,37.8047],[14.4144,37.8096],[14.4144,37.8128],[14.4178,37.8214],[14.4083,37.8365],[14.406,37.8388],[14.4027,37.8601],[14.4063,37.8664],[14.4092,37.8657],[14.4182,37.8617],[14.4218,37.8579],[14.4292,37.8527],[14.4473,37.8488],[14.4614,37.8433],[14.4648,37.8401],[14.4623,37.8344],[14.457,37.8275],[14.4548,37.8219],[14.454,37.8169],[14.4589,37.8145],[14.4735,37.8108],[14.4768,37.811],[14.4822,37.8128],[14.4928,37.8249],[14.5019,37.8448],[14.5071,37.852],[14.5169,37.8585],[14.527,37.8618],[14.5338,37.8605],[14.5405,37.865],[14.5457,37.8728],[14.5511,37.8762],[14.556,37.8781],[14.5615,37.8775],[14.568,37.878],[14.5702,37.8796],[14.5717,37.8776],[14.5722,37.8748],[14.5731,37.8589],[14.5691,37.8566],[14.562,37.8541],[14.5576,37.8512],[14.5527,37.8393],[14.5542,37.837],[14.5581,37.8361],[14.5615,37.8365]]]}},{"type":"Feature","properties":{"i":"086009","n":"Enna"},"geometry":{"type":"MultiPolygon","coordinates":[[[[14.1,37.5534],[14.1043,37.5482],[14.1064,37.5397],[14.0997,37.5371],[14.0959,37.5395],[14.0894,37.5457],[14.0867,37.5544],[14.0874,37.5561],[14.0897,37.5574],[14.0949,37.5561],[14.1,37.5534]]],[[[14.3233,37.618],[14.335,37.6111],[14.3449,37.6098],[14.3576,37.6036],[14.3602,37.6016],[14.3707,37.5854],[14.3762,37.5793],[14.3915,37.5672],[14.4026,37.5655],[14.4008,37.559],[14.4009,37.552],[14.4042,37.5418],[14.4076,37.5403],[14.4161,37.5402],[14.427,37.538],[14.4305,37.5388],[14.4341,37.5405],[14.4363,37.5427],[14.4409,37.5497],[14.4464,37.5561],[14.4567,37.5618],[14.4698,37.5665],[14.4736,37.5692],[14.474,37.5629],[14.4769,37.5645],[14.4778,37.5659],[14.4834,37.5623],[14.4873,37.5653],[14.4995,37.5561],[14.4995,37.5534],[14.4956,37.5512],[14.4933,37.5513],[14.4917,37.5516],[14.4924,37.5531],[14.4919,37.5537],[14.4795,37.5599],[14.4674,37.5616],[14.4611,37.5603],[14.4615,37.5591],[14.466,37.5568],[14.4712,37.5528],[14.4698,37.5483],[14.4621,37.5441],[14.4585,37.5402],[14.456,37.5356],[14.4562,37.5276],[14.46,37.5232],[14.4636,37.5209],[14.4696,37.513],[14.4702,37.5095],[14.4676,37.5084],[14.465,37.5085],[14.4633,37.5107],[14.4596,37.511],[14.4524,37.5105],[14.4475,37.5071],[14.4408,37.5065],[14.4385,37.5071],[14.4376,37.5075],[14.4374,37.5099],[14.4331,37.5152],[14.4244,37.5178],[14.4215,37.5194],[14.4139,37.5308],[14.4095,37.5301],[14.4065,37.5279],[14.3995,37.5194],[14.4012,37.5158],[14.3974,37.5115],[14.3912,37.5118],[14.3896,37.5129],[14.3927,37.5216],[14.4036,37.531],[14.4042,37.5367],[14.4031,37.5373],[14.3989,37.5369],[14.396,37.5354],[14.3931,37.5323],[14.3801,37.5279],[14.3772,37.5242],[14.3753,37.5179],[14.382,37.5029],[14.3791,37.4995],[14.3767,37.4985],[14.3767,37.4971],[14.3813,37.4918],[14.3834,37.4904],[14.3969,37.4885],[14.4018,37.4887],[14.4069,37.4732],[14.4042,37.4656],[14.4039,37.456],[14.4005,37.4498],[14.3868,37.4325],[14.3812,37.4277],[14.3728,37.4255],[14.3672,37.4288],[14.3579,37.4371],[14.3501,37.4396],[14.34,37.4362],[14.3308,37.4309],[14.3202,37.4319],[14.3113,37.4294],[14.3065,37.4304],[14.2976,37.4363],[14.2953,37.4408],[14.291,37.4462],[14.2775,37.4467],[14.2674,37.4433],[14.2637,37.4395],[14.2563,37.4376],[14.2452,37.4384],[14.2352,37.4408],[14.223,37.4405],[14.2216,37.4421],[14.214,37.4431],[14.197,37.4427],[14.1865,37.4455],[14.1848,37.447],[14.1838,37.4493],[14.1842,37.4537],[14.1854,37.4567],[14.1833,37.4646],[14.1801,37.4707],[14.1758,37.4741],[14.1542,37.4838],[14.1416,37.4997],[14.1402,37.5033],[14.1436,37.5061],[14.143,37.5079],[14.1374,37.5153],[14.1326,37.5161],[14.1273,37.5214],[14.1249,37.5278],[14.1251,37.5304],[14.1366,37.5343],[14.1412,37.5381],[14.1427,37.5413],[14.1537,37.5427],[14.1614,37.5422],[14.1734,37.5459],[14.2001,37.5673],[14.2038,37.5723],[14.2062,37.5803],[14.2066,37.5843],[14.2111,37.5839],[14.2184,37.5804],[14.2253,37.5787],[14.2283,37.5791],[14.2363,37.5839],[14.2452,37.5851],[14.2502,37.5828],[14.2648,37.58],[14.2766,37.5798],[14.285,37.5825],[14.2983,37.5997],[14.2968,37.6006],[14.2943,37.6005],[14.2926,37.6033],[14.2931,37.6041],[14.3025,37.6108],[14.3068,37.612],[14.3137,37.6195],[14.3182,37.6173],[14.3233,37.618]],[[14.3407,37.5098],[14.3325,37.5045],[14.3261,37.502],[14.3188,37.5028],[14.3103,37.5026],[14.3057,37.501],[14.2926,37.4917],[14.2915,37.4893],[14.2935,37.4879],[14.2964,37.4877],[14.3047,37.4766],[14.3161,37.4705],[14.3344,37.471],[14.3381,37.4702],[14.3396,37.4661],[14.3456,37.4666],[14.36,37.4733],[14.358,37.4759],[14.3516,37.4804],[14.3396,37.4831],[14.3359,37.4861],[14.33,37.4939],[14.3296,37.4959],[14.3383,37.4975],[14.3425,37.4995],[14.3436,37.5036],[14.3431,37.5085],[14.3407,37.5098]]],[[[14.2165,37.6777],[14.218,37.6736],[14.2229,37.6676],[14.2267,37.6543],[14.2263,37.6533],[14.2185,37.6514],[14.2158,37.6531],[14.2151,37.6556],[14.2033,37.6595],[14.1971,37.6678],[14.1937,37.6748],[14.2024,37.6788],[14.2165,37.6777]]]]}},{"type":"Feature","properties":{"i":"086010","n":"Gagliano Castelferrato"},"geometry":{"type":"Polygon","coordinates":[[[14.53,37.7659],[14.533,37.7654],[14.5374,37.763],[14.5523,37.7536],[14.5572,37.7488],[14.566,37.7431],[14.5823,37.7342],[14.5822,37.7283],[14.5842,37.724],[14.5841,37.7127],[14.5858,37.6987],[14.5796,37.6978],[14.5663,37.7003],[14.5546,37.6989],[14.5506,37.6954],[14.5459,37.6884],[14.5433,37.6811],[14.5455,37.6766],[14.5416,37.6728],[14.5413,37.6743],[14.5374,37.6759],[14.5284,37.6736],[14.5203,37.6786],[14.5138,37.677],[14.5085,37.6738],[14.5067,37.6736],[14.5042,37.6749],[14.5039,37.6762],[14.5052,37.6779],[14.495,37.6913],[14.4886,37.6898],[14.4851,37.692],[14.4812,37.696],[14.4823,37.6986],[14.4865,37.7],[14.4893,37.703],[14.4911,37.7099],[14.4944,37.7177],[14.505,37.7298],[14.5112,37.739],[14.5114,37.7425],[14.5057,37.7475],[14.5055,37.7563],[14.5092,37.7573],[14.513,37.7562],[14.5189,37.756],[14.5217,37.7574],[14.5229,37.7589],[14.5257,37.7665],[14.53,37.7659]]]}},{"type":"Feature","properties":{"i":"086011","n":"Leonforte"},"geometry":{"type":"Polygon","coordinates":[[[14.3864,37.7012],[14.3931,37.6939],[14.3967,37.6844],[14.4063,37.6725],[14.4093,37.671],[14.4148,37.6608],[14.4102,37.6411],[14.408,37.6358],[14.4005,37.6305],[14.3977,37.6251],[14.3962,37.6206],[14.3971,37.6163],[14.3964,37.6092],[14.3939,37.6044],[14.3933,37.5981],[14.3989,37.5874],[14.4022,37.5846],[14.4043,37.5804],[14.4026,37.5655],[14.3915,37.5672],[14.3762,37.5793],[14.3707,37.5854],[14.3602,37.6016],[14.3576,37.6036],[14.3449,37.6098],[14.335,37.6111],[14.3233,37.618],[14.3207,37.6222],[14.3186,37.6276],[14.3163,37.6454],[14.3085,37.6514],[14.3151,37.6649],[14.3236,37.669],[14.3235,37.6725],[14.3202,37.6812],[14.326,37.6863],[14.3359,37.6907],[14.3556,37.6931],[14.3607,37.6974],[14.3597,37.7042],[14.3657,37.7073],[14.3697,37.7079],[14.3761,37.7047],[14.3788,37.7022],[14.3835,37.7011],[14.3864,37.7012]]]}},{"type":"Feature","properties":{"i":"086012","n":"Nicosia"},"geometry":{"type":"Polygon","coordinates":[[[14.5053,37.7553],[14.5057,37.7475],[14.4999,37.7436],[14.4932,37.7421],[14.489,37.742],[14.4818,37.7433],[14.4767,37.7483],[14.474,37.7489],[14.465,37.7494],[14.46,37.7467],[14.4552,37.7395],[14.4463,37.7289],[14.4452,37.7218],[14.4483,37.7131],[14.4571,37.7086],[14.4578,37.706],[14.4574,37.7015],[14.4555,37.7011],[14.452,37.7032],[14.4282,37.7074],[14.4117,37.7081],[14.4023,37.7073],[14.3973,37.7059],[14.3864,37.7012],[14.3835,37.7011],[14.3788,37.7022],[14.3761,37.7047],[14.3697,37.7079],[14.3657,37.7073],[14.3603,37.7049],[14.3597,37.7042],[14.3607,37.6974],[14.3556,37.6931],[14.3359,37.6907],[14.326,37.6863],[14.3202,37.6812],[14.3235,37.6725],[14.3234,37.6686],[14.3151,37.6649],[14.3118,37.6593],[14.3089,37.6517],[14.2981,37.6411],[14.2964,37.6372],[14.2949,37.6364],[14.29,37.6359],[14.2857,37.6382],[14.2793,37.6562],[14.2777,37.6559],[14.2597,37.669],[14.2548,37.6769],[14.2404,37.6864],[14.2387,37.6911],[14.2411,37.6957],[14.249,37.6945],[14.2547,37.6956],[14.2616,37.6989],[14.2671,37.7041],[14.2693,37.7074],[14.2701,37.7128],[14.2728,37.7213],[14.2793,37.7241],[14.2785,37.7201],[14.2846,37.7135],[14.2871,37.7119],[14.29,37.7119],[14.2935,37.7104],[14.2868,37.7017],[14.2789,37.6975],[14.2791,37.6949],[14.2855,37.6915],[14.2949,37.6913],[14.3007,37.6938],[14.3106,37.7005],[14.3157,37.7068],[14.3214,37.7103],[14.3267,37.7109],[14.3245,37.7169],[14.3206,37.7203],[14.3232,37.7242],[14.3305,37.7289],[14.3358,37.7336],[14.3398,37.7386],[14.3453,37.7395],[14.3517,37.7382],[14.3526,37.7388],[14.3581,37.7458],[14.3592,37.7518],[14.3669,37.7584],[14.365,37.766],[14.3606,37.776],[14.3552,37.7812],[14.3563,37.7919],[14.3547,37.7936],[14.3457,37.7943],[14.3406,37.7919],[14.3307,37.7899],[14.3117,37.7906],[14.3047,37.793],[14.2914,37.7939],[14.2712,37.8015],[14.2684,37.8068],[14.2688,37.8111],[14.2672,37.8153],[14.2658,37.8175],[14.2627,37.8197],[14.2637,37.8282],[14.2671,37.8327],[14.2799,37.8401],[14.3013,37.8363],[14.3042,37.8378],[14.3161,37.8403],[14.3224,37.8397],[14.3267,37.8376],[14.3501,37.8477],[14.3583,37.8492],[14.382,37.8515],[14.3921,37.851],[14.3961,37.8483],[14.3996,37.8534],[14.3994,37.8563],[14.4027,37.8601],[14.406,37.8388],[14.4083,37.8365],[14.4178,37.8214],[14.4144,37.8128],[14.4144,37.8096],[14.4186,37.8047],[14.4237,37.7899],[14.4479,37.7824],[14.4607,37.7801],[14.4752,37.7816],[14.4785,37.784],[14.4863,37.7859],[14.4938,37.7766],[14.4977,37.7681],[14.5053,37.7553]]]}},{"type":"Feature","properties":{"i":"086013","n":"Nissoria"},"geometry":{"type":"Polygon","coordinates":[[[14.5057,37.7475],[14.5114,37.7425],[14.5112,37.739],[14.505,37.7298],[14.4944,37.7177],[14.4911,37.7099],[14.4893,37.703],[14.4865,37.7],[14.4823,37.6986],[14.4812,37.696],[14.4861,37.6913],[14.49,37.6898],[14.4897,37.6889],[14.4877,37.6871],[14.4828,37.6855],[14.4748,37.6805],[14.4735,37.6784],[14.4744,37.6756],[14.474,37.6734],[14.4662,37.6592],[14.4593,37.659],[14.4545,37.6548],[14.4524,37.6507],[14.4399,37.6454],[14.4273,37.6379],[14.4254,37.6373],[14.4211,37.638],[14.4163,37.6433],[14.415,37.647],[14.4148,37.6608],[14.411,37.6681],[14.4093,37.671],[14.4063,37.6725],[14.3967,37.6844],[14.3931,37.6939],[14.3864,37.7012],[14.3973,37.7059],[14.4023,37.7073],[14.4117,37.7081],[14.4282,37.7074],[14.452,37.7032],[14.4555,37.7011],[14.4574,37.7015],[14.4578,37.706],[14.4571,37.7086],[14.4483,37.7131],[14.4452,37.7218],[14.4463,37.7289],[14.4552,37.7395],[14.46,37.7467],[14.4661,37.7496],[14.4763,37.7486],[14.4818,37.7433],[14.489,37.742],[14.499,37.7433],[14.5057,37.7475]]]}},{"type":"Feature","properties":{"i":"086014","n":"Piazza Armerina"},"geometry":{"type":"MultiPolygon","coordinates":[[[[14.3876,37.4338],[14.3897,37.4319],[14.39,37.4304],[14.3862,37.4252],[14.3888,37.421],[14.4015,37.4094],[14.409,37.4062],[14.4135,37.4061],[14.4211,37.4019],[14.4283,37.3895],[14.4293,37.3862],[14.4293,37.3784],[14.4327,37.3677],[14.4329,37.3634],[14.4319,37.3632],[14.4303,37.3592],[14.4321,37.3555],[14.4435,37.3569],[14.4522,37.361],[14.4547,37.3642],[14.4774,37.3648],[14.4874,37.3605],[14.4888,37.3592],[14.4897,37.3547],[14.4894,37.35],[14.4958,37.3423],[14.4991,37.3403],[14.5059,37.3381],[14.5123,37.3349],[14.5194,37.3251],[14.5177,37.3214],[14.5112,37.3174],[14.5108,37.3142],[14.5063,37.3105],[14.5001,37.3087],[14.4975,37.3092],[14.4866,37.3136],[14.4595,37.3336],[14.4513,37.3401],[14.4463,37.3486],[14.4407,37.3455],[14.4384,37.3428],[14.4373,37.3395],[14.4275,37.3404],[14.4221,37.3386],[14.4224,37.337],[14.425,37.3332],[14.4344,37.3248],[14.4458,37.3207],[14.4488,37.3184],[14.4556,37.3092],[14.4553,37.3045],[14.4529,37.3024],[14.4495,37.3017],[14.4422,37.3034],[14.4369,37.3005],[14.4327,37.2954],[14.433,37.2922],[14.4122,37.2942],[14.4004,37.2989],[14.3925,37.2991],[14.3848,37.2963],[14.3834,37.2964],[14.3755,37.2998],[14.359,37.3053],[14.3484,37.3071],[14.345,37.307],[14.342,37.304],[14.3397,37.3031],[14.3228,37.3023],[14.3158,37.303],[14.3151,37.3104],[14.3163,37.3257],[14.3127,37.3272],[14.2997,37.3277],[14.2878,37.3293],[14.2832,37.3317],[14.2784,37.3321],[14.2751,37.3304],[14.2672,37.3336],[14.2673,37.3369],[14.2651,37.3422],[14.2641,37.343],[14.2414,37.347],[14.2311,37.3476],[14.2358,37.3593],[14.2454,37.3607],[14.2517,37.3637],[14.2549,37.3666],[14.2547,37.3684],[14.2465,37.3675],[14.2409,37.3702],[14.2412,37.372],[14.2469,37.3805],[14.2473,37.3836],[14.2462,37.3864],[14.2406,37.3951],[14.2367,37.3975],[14.2298,37.3996],[14.2271,37.3984],[14.2265,37.391],[14.2245,37.3892],[14.2208,37.3879],[14.2153,37.3871],[14.1941,37.3915],[14.1929,37.3939],[14.1963,37.4136],[14.2029,37.4113],[14.2034,37.4121],[14.199,37.4181],[14.1877,37.4286],[14.1855,37.4342],[14.1835,37.4442],[14.1848,37.447],[14.1881,37.4446],[14.197,37.4427],[14.214,37.4431],[14.2216,37.4421],[14.223,37.4405],[14.2352,37.4408],[14.2452,37.4384],[14.2563,37.4376],[14.2637,37.4395],[14.2674,37.4433],[14.2775,37.4467],[14.291,37.4462],[14.2953,37.4408],[14.2976,37.4363],[14.3065,37.4304],[14.3113,37.4294],[14.3202,37.4319],[14.3308,37.4309],[14.34,37.4362],[14.3501,37.4396],[14.3579,37.4371],[14.3672,37.4288],[14.3728,37.4255],[14.3825,37.4283],[14.3876,37.4338]]],[[[14.4899,37.4823],[14.493,37.4829],[14.5036,37.4784],[14.5097,37.4729],[14.5109,37.4658],[14.5067,37.4586],[14.4903,37.4767],[14.4881,37.481],[14.4899,37.4823]]],[[[14.3407,37.5098],[14.3431,37.5085],[14.3436,37.5036],[14.3425,37.4995],[14.3383,37.4975],[14.3296,37.4959],[14.33,37.4939],[14.3359,37.4861],[14.3396,37.4831],[14.3516,37.4804],[14.358,37.4759],[14.36,37.4733],[14.3456,37.4666],[14.3396,37.4661],[14.3381,37.4702],[14.3344,37.471],[14.3161,37.4705],[14.3047,37.4766],[14.2964,37.4877],[14.2935,37.4879],[14.2915,37.4893],[14.2926,37.4917],[14.3057,37.501],[14.3103,37.5026],[14.3188,37.5028],[14.3261,37.502],[14.3325,37.5045],[14.3407,37.5098]]],[[[14.4878,37.5102],[14.4878,37.5086],[14.4849,37.5032],[14.4783,37.494],[14.4753,37.4914],[14.4673,37.4894],[14.4583,37.4855],[14.4524,37.4811],[14.4618,37.4692],[14.4613,37.4686],[14.4564,37.4666],[14.4532,37.4717],[14.4505,37.4741],[14.4439,37.4745],[14.429,37.4812],[14.4235,37.4818],[14.4188,37.4803],[14.409,37.4716],[14.4054,37.4697],[14.4069,37.4732],[14.4018,37.4887],[14.411,37.4886],[14.4134,37.4929],[14.418,37.4961],[14.4289,37.4985],[14.4326,37.5006],[14.4376,37.5075],[14.4408,37.5065],[14.4462,37.5068],[14.4498,37.5083],[14.4524,37.5105],[14.4596,37.511],[14.4633,37.5107],[14.4658,37.5083],[14.4688,37.5086],[14.4702,37.5095],[14.4696,37.513],[14.4717,37.5156],[14.4798,37.5186],[14.4848,37.5169],[14.4878,37.5102]]]]}},{"type":"Feature","properties":{"i":"086015","n":"Pietraperzia"},"geometry":{"type":"Polygon","coordinates":[[[14.1848,37.447],[14.1837,37.4433],[14.1871,37.4297],[14.199,37.4181],[14.2034,37.4121],[14.2029,37.4113],[14.1963,37.4136],[14.1929,37.3939],[14.1887,37.3939],[14.1831,37.3972],[14.1768,37.3945],[14.1746,37.3904],[14.1751,37.3845],[14.1739,37.3814],[14.1685,37.3759],[14.1664,37.3749],[14.1576,37.3768],[14.1534,37.3731],[14.1506,37.3593],[14.1468,37.3544],[14.1452,37.3532],[14.1437,37.3535],[14.142,37.3569],[14.1381,37.358],[14.1298,37.3549],[14.1274,37.3512],[14.1285,37.3436],[14.1283,37.3412],[14.1269,37.3388],[14.115,37.3341],[14.1107,37.3339],[14.0954,37.338],[14.0908,37.3366],[14.0886,37.3374],[14.0851,37.3407],[14.0892,37.3437],[14.0902,37.3495],[14.0889,37.35],[14.088,37.3492],[14.083,37.3513],[14.0822,37.3687],[14.072,37.3745],[14.0774,37.38],[14.0738,37.3871],[14.057,37.4032],[14.0559,37.4058],[14.0565,37.4076],[14.06,37.4097],[14.0614,37.4085],[14.0613,37.4067],[14.0621,37.4048],[14.0664,37.4034],[14.0718,37.4058],[14.0718,37.4074],[14.0697,37.4104],[14.0708,37.4213],[14.0825,37.4315],[14.1204,37.4606],[14.1319,37.4714],[14.1418,37.4771],[14.1491,37.4784],[14.1507,37.4777],[14.1579,37.4798],[14.1594,37.481],[14.1649,37.4794],[14.1758,37.4741],[14.1801,37.4707],[14.1833,37.4646],[14.1854,37.4567],[14.1842,37.4537],[14.1838,37.4493],[14.1848,37.447]]]}},{"type":"Feature","properties":{"i":"086016","n":"Regalbuto"},"geometry":{"type":"Polygon","coordinates":[[[14.7154,37.7019],[14.7244,37.6814],[14.7241,37.6786],[14.7249,37.6766],[14.7273,37.6758],[14.7318,37.6708],[14.7308,37.6634],[14.7449,37.662],[14.7488,37.6499],[14.7421,37.6403],[14.74,37.6392],[14.7305,37.6415],[14.7224,37.6454],[14.7179,37.6485],[14.7164,37.6482],[14.7137,37.644],[14.7152,37.6388],[14.7137,37.6369],[14.7005,37.6319],[14.697,37.6318],[14.6932,37.6348],[14.6819,37.6396],[14.6795,37.6399],[14.6744,37.6358],[14.6726,37.6317],[14.6733,37.6203],[14.6648,37.6115],[14.662,37.6072],[14.6645,37.6032],[14.6779,37.5888],[14.6771,37.5847],[14.6784,37.582],[14.679,37.578],[14.6765,37.5743],[14.6704,37.5677],[14.6687,37.5698],[14.6666,37.5699],[14.6605,37.5677],[14.651,37.5701],[14.6464,37.5661],[14.6294,37.5674],[14.6286,37.5665],[14.6247,37.5666],[14.6286,37.575],[14.6276,37.5772],[14.6145,37.5896],[14.6059,37.5882],[14.595,37.5921],[14.5921,37.598],[14.5944,37.6023],[14.5898,37.6067],[14.5856,37.6091],[14.5845,37.6195],[14.5821,37.6267],[14.5789,37.6282],[14.5796,37.635],[14.5839,37.6524],[14.584,37.6541],[14.5815,37.6607],[14.578,37.6644],[14.5758,37.6654],[14.5708,37.6659],[14.5554,37.67],[14.5522,37.6686],[14.5463,37.6684],[14.5435,37.6693],[14.5414,37.6718],[14.5455,37.6766],[14.5433,37.6811],[14.5459,37.6884],[14.5506,37.6954],[14.5546,37.6989],[14.5663,37.7003],[14.5796,37.6978],[14.5858,37.6987],[14.5841,37.7127],[14.5842,37.724],[14.5822,37.7283],[14.5823,37.7342],[14.5837,37.7356],[14.586,37.7364],[14.6005,37.7352],[14.6182,37.7308],[14.6212,37.7309],[14.6272,37.7295],[14.6342,37.7251],[14.6319,37.7226],[14.6308,37.7198],[14.6313,37.7147],[14.6348,37.712],[14.6516,37.7102],[14.6586,37.7128],[14.6637,37.7128],[14.667,37.7086],[14.6792,37.6751],[14.6826,37.6724],[14.6854,37.6724],[14.6882,37.6737],[14.6869,37.6794],[14.683,37.6852],[14.6833,37.6871],[14.6878,37.6959],[14.7154,37.7019]]]}},{"type":"Feature","properties":{"i":"086017","n":"Sperlinga"},"geometry":{"type":"Polygon","coordinates":[[[14.2793,37.7241],[14.2838,37.729],[14.295,37.7463],[14.2906,37.7507],[14.2899,37.7605],[14.2873,37.7654],[14.2823,37.769],[14.2748,37.7721],[14.2697,37.7753],[14.269,37.7769],[14.2702,37.7899],[14.2681,37.7915],[14.2618,37.792],[14.2627,37.7969],[14.2655,37.7999],[14.2722,37.8006],[14.2914,37.7939],[14.3047,37.793],[14.3117,37.7906],[14.3307,37.7899],[14.3406,37.7919],[14.3457,37.7943],[14.354,37.7938],[14.3561,37.7924],[14.3552,37.7812],[14.3606,37.776],[14.365,37.766],[14.3669,37.7584],[14.3592,37.7518],[14.3581,37.7458],[14.3526,37.7388],[14.3517,37.7382],[14.3453,37.7395],[14.3398,37.7386],[14.3358,37.7336],[14.3305,37.7289],[14.3232,37.7242],[14.3206,37.7203],[14.3245,37.7169],[14.327,37.7117],[14.3263,37.7104],[14.3206,37.71],[14.3157,37.7068],[14.3106,37.7005],[14.2973,37.6921],[14.2942,37.6912],[14.2855,37.6915],[14.2791,37.6949],[14.2789,37.6975],[14.2868,37.7017],[14.2935,37.7104],[14.29,37.7119],[14.2871,37.7119],[14.2846,37.7135],[14.2785,37.7201],[14.2793,37.7241]]]}},{"type":"Feature","properties":{"i":"086018","n":"Troina"},"geometry":{"type":"Polygon","coordinates":[[[14.6946,37.8053],[14.7043,37.812],[14.7201,37.8172],[14.7241,37.8164],[14.7411,37.8186],[14.7423,37.8181],[14.7383,37.8123],[14.7393,37.8035],[14.7449,37.794],[14.7442,37.7896],[14.723,37.7833],[14.7194,37.781],[14.7144,37.776],[14.7146,37.7693],[14.7164,37.7672],[14.7238,37.7617],[14.7264,37.7613],[14.7343,37.7547],[14.7368,37.7536],[14.73,37.7459],[14.7145,37.7375],[14.7063,37.7315],[14.7058,37.7293],[14.7065,37.7286],[14.7177,37.7251],[14.7213,37.7173],[14.7149,37.7045],[14.7154,37.7019],[14.6878,37.6959],[14.6833,37.6871],[14.683,37.6852],[14.6858,37.6817],[14.6881,37.6745],[14.6881,37.6736],[14.6854,37.6724],[14.6826,37.6724],[14.6792,37.6751],[14.667,37.7086],[14.6637,37.7128],[14.6586,37.7128],[14.6516,37.7102],[14.6348,37.712],[14.6313,37.7147],[14.6308,37.7198],[14.6319,37.7226],[14.6342,37.7251],[14.6272,37.7295],[14.5959,37.7357],[14.586,37.7364],[14.5837,37.7356],[14.5823,37.7342],[14.566,37.7431],[14.5572,37.7488],[14.5523,37.7536],[14.5374,37.763],[14.533,37.7654],[14.53,37.7659],[14.5311,37.7668],[14.5309,37.7732],[14.5334,37.7814],[14.5352,37.7815],[14.5365,37.783],[14.5384,37.789],[14.5373,37.7919],[14.5355,37.7935],[14.5367,37.7971],[14.5418,37.8055],[14.5569,37.8206],[14.559,37.8272],[14.5573,37.8314],[14.5615,37.8365],[14.5696,37.8326],[14.5756,37.8283],[14.5917,37.8148],[14.6044,37.8089],[14.6228,37.8062],[14.6267,37.8074],[14.645,37.8069],[14.6558,37.8042],[14.6661,37.7996],[14.6805,37.7953],[14.6849,37.7966],[14.6894,37.7999],[14.6946,37.8053]]]}},{"type":"Feature","properties":{"i":"086019","n":"Valguarnera Caropepe"},"geometry":{"type":"Polygon","coordinates":[[[14.4012,37.5158],[14.4045,37.5118],[14.407,37.5108],[14.4056,37.4993],[14.4032,37.4906],[14.4022,37.489],[14.3969,37.4885],[14.3878,37.4895],[14.3834,37.4904],[14.3813,37.4918],[14.3764,37.4979],[14.3772,37.499],[14.3791,37.4995],[14.382,37.5029],[14.3753,37.5179],[14.3772,37.5242],[14.3801,37.5279],[14.3931,37.5323],[14.396,37.5354],[14.3989,37.5369],[14.4031,37.5373],[14.4042,37.5367],[14.4036,37.531],[14.3927,37.5216],[14.3896,37.5129],[14.3912,37.5118],[14.3966,37.5112],[14.4012,37.5158]]]}},{"type":"Feature","properties":{"i":"086020","n":"Villarosa"},"geometry":{"type":"Polygon","coordinates":[[[14.2066,37.5843],[14.2062,37.5803],[14.2038,37.5723],[14.2001,37.5673],[14.1734,37.5459],[14.1614,37.5422],[14.1537,37.5427],[14.1427,37.5413],[14.1396,37.5365],[14.1353,37.5336],[14.1326,37.5329],[14.1334,37.5397],[14.1359,37.5451],[14.1386,37.5479],[14.1404,37.5573],[14.1355,37.5683],[14.1377,37.5789],[14.1399,37.5819],[14.1562,37.5837],[14.1593,37.5857],[14.1607,37.5909],[14.1604,37.6019],[14.1594,37.6051],[14.164,37.6121],[14.1479,37.613],[14.135,37.6167],[14.144,37.6191],[14.1479,37.6212],[14.1606,37.6358],[14.164,37.6422],[14.1745,37.6427],[14.1923,37.638],[14.1965,37.6411],[14.199,37.6448],[14.2037,37.6446],[14.2083,37.6401],[14.2065,37.6342],[14.2023,37.6266],[14.1997,37.6243],[14.2005,37.6189],[14.2067,37.6173],[14.2136,37.6199],[14.2177,37.6206],[14.2242,37.62],[14.234,37.6143],[14.2353,37.6121],[14.2177,37.6014],[14.2061,37.5851],[14.2066,37.5843]]]}}]}
