{"type":"FeatureCollection","fonte":"Confini comunali ISTAT via openpolis/geojson-italy — CC BY 4.0","features":[{"type":"Feature","properties":{"i":"040001","n":"Bagno di Romagna"},"geometry":{"type":"Polygon","coordinates":[[[12.111,43.9487],[12.1125,43.9447],[12.1059,43.9398],[12.1063,43.9349],[12.1084,43.9304],[12.1071,43.9291],[12.0996,43.9255],[12.0961,43.9254],[12.0929,43.9262],[12.0893,43.9286],[12.0836,43.9258],[12.0829,43.9178],[12.07,43.904],[12.0696,43.8935],[12.0721,43.8886],[12.0818,43.8843],[12.0844,43.8738],[12.0827,43.8721],[12.0593,43.8662],[12.056,43.8629],[12.0545,43.8598],[12.0459,43.8556],[12.0392,43.8503],[12.0373,43.8454],[12.0185,43.8246],[12.0143,43.8223],[12.0065,43.8203],[11.991,43.8194],[11.9861,43.8175],[11.9833,43.8134],[11.9824,43.8108],[11.9653,43.7955],[11.9578,43.7892],[11.9512,43.787],[11.9471,43.7909],[11.9335,43.7923],[11.917,43.7961],[11.9125,43.7998],[11.9125,43.8035],[11.9144,43.8083],[11.9104,43.8134],[11.8976,43.8082],[11.887,43.8087],[11.878,43.8105],[11.8712,43.8149],[11.8667,43.8166],[11.8561,43.8159],[11.8533,43.8143],[11.8505,43.811],[11.8463,43.8089],[11.8417,43.808],[11.8352,43.8117],[11.8246,43.8155],[11.8209,43.816],[11.8121,43.8254],[11.7934,43.8389],[11.7885,43.8451],[11.7898,43.8477],[11.7904,43.851],[11.7895,43.854],[11.7904,43.8568],[11.8082,43.8574],[11.822,43.8619],[11.8298,43.8651],[11.8401,43.8754],[11.8385,43.8785],[11.8225,43.8774],[11.8195,43.8793],[11.8175,43.8823],[11.8169,43.885],[11.8222,43.8873],[11.8393,43.8914],[11.8422,43.8881],[11.849,43.8875],[11.8734,43.8884],[11.8827,43.8902],[11.8856,43.8917],[11.8873,43.8953],[11.8872,43.8967],[11.8668,43.9146],[11.8671,43.9174],[11.8727,43.9231],[11.9087,43.9283],[11.9106,43.9308],[11.9122,43.9366],[11.9134,43.9377],[11.9191,43.9365],[11.9211,43.9352],[11.9246,43.9328],[11.9305,43.9251],[11.9471,43.915],[11.9481,43.9139],[11.9483,43.9114],[11.946,43.9079],[11.9479,43.9068],[11.9521,43.9054],[11.9618,43.9086],[11.9685,43.9072],[11.9853,43.9066],[11.9953,43.9075],[12.0015,43.9093],[12.0085,43.9147],[12.0092,43.9228],[12.0086,43.9266],[12.0077,43.9276],[12.0087,43.9361],[12.011,43.9384],[12.0252,43.941],[12.0307,43.9413],[12.0312,43.9344],[12.0282,43.9305],[12.0308,43.9207],[12.0421,43.9188],[12.05,43.9185],[12.0523,43.9191],[12.0503,43.9236],[12.0513,43.9295],[12.0537,43.9307],[12.0603,43.9288],[12.0753,43.9346],[12.0879,43.9413],[12.0954,43.9468],[12.102,43.9496],[12.108,43.9496],[12.111,43.9487]]]}},{"type":"Feature","properties":{"i":"040003","n":"Bertinoro"},"geometry":{"type":"Polygon","coordinates":[[[12.2131,44.2208],[12.2133,44.2151],[12.1967,44.1969],[12.1823,44.1878],[12.1754,44.1809],[12.1745,44.1791],[12.1773,44.174],[12.1832,44.1678],[12.1848,44.161],[12.1816,44.1538],[12.1735,44.1483],[12.1668,44.1382],[12.1671,44.1356],[12.1652,44.1244],[12.1558,44.1217],[12.1555,44.1204],[12.1572,44.1177],[12.1596,44.1175],[12.1601,44.1092],[12.1594,44.1081],[12.1541,44.1061],[12.151,44.106],[12.1486,44.1074],[12.1462,44.1112],[12.1414,44.1125],[12.1258,44.1056],[12.1202,44.107],[12.1189,44.105],[12.1195,44.1029],[12.1021,44.1061],[12.0992,44.1103],[12.0995,44.1117],[12.101,44.1122],[12.1038,44.1183],[12.1053,44.1264],[12.0993,44.1287],[12.0967,44.1283],[12.0866,44.133],[12.0834,44.1356],[12.0832,44.1391],[12.0806,44.1433],[12.0804,44.1457],[12.0811,44.1466],[12.0874,44.1466],[12.0881,44.1542],[12.0867,44.1581],[12.0874,44.1596],[12.0893,44.1611],[12.0928,44.1615],[12.0944,44.1611],[12.0955,44.1595],[12.1006,44.1577],[12.1023,44.1589],[12.1032,44.1607],[12.1081,44.1631],[12.1195,44.1643],[12.1188,44.1716],[12.1347,44.1762],[12.1506,44.1743],[12.1566,44.1749],[12.1622,44.1845],[12.1602,44.1908],[12.1611,44.195],[12.1633,44.2017],[12.1682,44.2088],[12.1701,44.2164],[12.1731,44.2198],[12.1797,44.2237],[12.182,44.2238],[12.1879,44.2213],[12.2008,44.2301],[12.201,44.2282],[12.2073,44.2205],[12.2106,44.2194],[12.2131,44.2208]]]}},{"type":"Feature","properties":{"i":"040004","n":"Borghi"},"geometry":{"type":"Polygon","coordinates":[[[12.3953,44.0302],[12.3872,44.0209],[12.3844,44.0085],[12.3785,44.0029],[12.3735,43.9995],[12.3709,43.9952],[12.3691,43.9895],[12.3668,43.9877],[12.3626,43.9866],[12.3529,43.9861],[12.3533,43.9887],[12.3513,43.9898],[12.3289,43.9885],[12.322,43.9916],[12.3192,43.9997],[12.3208,44.0069],[12.3201,44.0156],[12.3176,44.0189],[12.3139,44.0272],[12.327,44.0322],[12.3581,44.0543],[12.3591,44.0542],[12.3599,44.0505],[12.3642,44.0468],[12.3686,44.0446],[12.37,44.0449],[12.3887,44.033],[12.3953,44.0302]]]}},{"type":"Feature","properties":{"i":"040005","n":"Castrocaro Terme e Terra del Sole"},"geometry":{"type":"Polygon","coordinates":[[[11.9856,44.1599],[11.969,44.1579],[11.9467,44.1422],[11.9434,44.141],[11.9378,44.1406],[11.9353,44.1415],[11.931,44.1394],[11.9295,44.1341],[11.9261,44.1324],[11.9194,44.1307],[11.9109,44.1304],[11.9114,44.1348],[11.9071,44.1401],[11.9059,44.1449],[11.9076,44.1467],[11.9123,44.1488],[11.9111,44.1521],[11.9082,44.1571],[11.9062,44.1589],[11.8947,44.1646],[11.8886,44.1707],[11.8988,44.1895],[11.906,44.1942],[11.9101,44.203],[11.914,44.2083],[11.9215,44.2109],[11.9226,44.208],[11.9254,44.206],[11.9354,44.2026],[11.9365,44.193],[11.936,44.1915],[11.9381,44.1901],[11.9408,44.1914],[11.9471,44.2001],[11.9498,44.2074],[11.9559,44.2079],[11.9585,44.2073],[11.9648,44.202],[11.9701,44.1937],[11.9682,44.1826],[11.9706,44.1729],[11.9801,44.169],[11.9848,44.1632],[11.9856,44.1599]]]}},{"type":"Feature","properties":{"i":"040007","n":"Cesena"},"geometry":{"type":"Polygon","coordinates":[[[12.3493,44.1907],[12.3436,44.1894],[12.343,44.1854],[12.3407,44.1828],[12.333,44.1788],[12.3352,44.1567],[12.3365,44.1559],[12.3468,44.1565],[12.3471,44.1523],[12.3381,44.149],[12.3358,44.1467],[12.3367,44.1448],[12.3395,44.1449],[12.3502,44.1475],[12.3618,44.148],[12.3622,44.1329],[12.3497,44.1314],[12.3263,44.1235],[12.3223,44.1164],[12.3255,44.113],[12.3326,44.11],[12.3315,44.1062],[12.3227,44.1083],[12.3163,44.1043],[12.311,44.0964],[12.3005,44.0949],[12.293,44.088],[12.2915,44.0803],[12.2892,44.0756],[12.2845,44.0697],[12.2818,44.0689],[12.2761,44.0689],[12.2735,44.068],[12.2568,44.0769],[12.247,44.0788],[12.2368,44.0881],[12.232,44.0804],[12.2284,44.0724],[12.2292,44.0689],[12.2278,44.0652],[12.2218,44.0607],[12.2154,44.0599],[12.2132,44.0604],[12.2077,44.0593],[12.211,44.0498],[12.2108,44.0479],[12.2104,44.0458],[12.207,44.0434],[12.2048,44.0421],[12.2019,44.0423],[12.2022,44.0401],[12.2041,44.0379],[12.2065,44.0369],[12.2188,44.0414],[12.2177,44.0437],[12.221,44.0472],[12.2272,44.0501],[12.2281,44.0501],[12.2317,44.0466],[12.2311,44.0449],[12.2281,44.042],[12.2251,44.0414],[12.2188,44.0357],[12.2172,44.0318],[12.2126,44.0277],[12.2053,44.026],[12.2011,44.0276],[12.1973,44.0322],[12.193,44.0342],[12.1881,44.0388],[12.1884,44.0478],[12.1861,44.0512],[12.179,44.0525],[12.1679,44.0461],[12.1621,44.0376],[12.1583,44.0354],[12.1561,44.0362],[12.1524,44.034],[12.1479,44.0296],[12.133,44.0279],[12.1206,44.0285],[12.1169,44.0226],[12.1039,44.0209],[12.099,44.0207],[12.0945,44.0242],[12.0996,44.0343],[12.1053,44.0354],[12.1085,44.0377],[12.1186,44.0509],[12.1188,44.056],[12.1162,44.0623],[12.1204,44.068],[12.1279,44.0699],[12.1304,44.0718],[12.1349,44.0779],[12.1289,44.0876],[12.1205,44.0958],[12.1193,44.0981],[12.1189,44.105],[12.1202,44.107],[12.1258,44.1056],[12.1414,44.1125],[12.1462,44.1112],[12.1486,44.1074],[12.151,44.106],[12.1541,44.1061],[12.1594,44.1081],[12.1601,44.1092],[12.1596,44.1175],[12.1572,44.1177],[12.1555,44.1204],[12.1558,44.1217],[12.1652,44.1244],[12.1671,44.1356],[12.1668,44.1382],[12.1735,44.1483],[12.1816,44.1538],[12.1848,44.161],[12.1832,44.1678],[12.1773,44.174],[12.1745,44.1791],[12.1754,44.1809],[12.1823,44.1878],[12.1967,44.1969],[12.2133,44.2151],[12.2131,44.2208],[12.2159,44.2206],[12.2159,44.217],[12.2264,44.2136],[12.2261,44.215],[12.2283,44.2169],[12.2321,44.2166],[12.2376,44.2175],[12.2394,44.2209],[12.2471,44.2308],[12.2802,44.2332],[12.3493,44.1907]]]}},{"type":"Feature","properties":{"i":"040008","n":"Cesenatico"},"geometry":{"type":"Polygon","coordinates":[[[12.437,44.1741],[12.425,44.1672],[12.396,44.1455],[12.3812,44.1409],[12.3735,44.1369],[12.3639,44.1301],[12.3622,44.1329],[12.3618,44.148],[12.3502,44.1475],[12.3395,44.1449],[12.3367,44.1448],[12.3358,44.1467],[12.3381,44.149],[12.3471,44.1523],[12.3468,44.1565],[12.3365,44.1559],[12.3352,44.1567],[12.333,44.1788],[12.3407,44.1828],[12.343,44.1854],[12.3436,44.1894],[12.3493,44.1907],[12.3522,44.1962],[12.3681,44.2093],[12.3748,44.2183],[12.3839,44.2246],[12.3934,44.212],[12.4002,44.2068],[12.4079,44.2024],[12.421,44.1869],[12.4276,44.1809],[12.437,44.1741]]]}},{"type":"Feature","properties":{"i":"040009","n":"Civitella di Romagna"},"geometry":{"type":"Polygon","coordinates":[[[12.0996,44.0343],[12.0939,44.0233],[12.0796,44.0217],[12.0545,44.0057],[12.044,44.0054],[12.037,44.0066],[12.0363,44.0055],[12.037,43.9994],[12.0367,43.98],[12.0322,43.9756],[12.0429,43.9692],[12.045,43.9727],[12.0482,43.9736],[12.0621,43.9733],[12.0661,43.9704],[12.0663,43.9675],[12.0651,43.962],[12.0618,43.9546],[12.0556,43.9526],[12.0489,43.9478],[12.048,43.9451],[12.0455,43.9444],[12.0189,43.9449],[12.0125,43.9468],[12.0091,43.951],[12.0019,43.957],[11.9941,43.9566],[11.9918,43.9606],[11.9689,43.9673],[11.9642,43.9678],[11.9566,43.9733],[11.9447,43.9836],[11.9346,43.9941],[11.9281,43.9962],[11.9209,44.0007],[11.924,44.01],[11.9316,44.0127],[11.9346,44.0121],[11.9387,44.0134],[11.9393,44.0143],[11.9388,44.022],[11.9349,44.0307],[11.9507,44.0324],[11.9649,44.0389],[11.9657,44.0398],[11.9661,44.0434],[11.9721,44.0501],[11.9816,44.0536],[11.9845,44.0554],[11.9875,44.0601],[11.9902,44.0693],[11.9903,44.0731],[11.9889,44.0745],[11.9897,44.0779],[11.9966,44.0828],[11.9972,44.0798],[12.0005,44.0769],[12.0062,44.0736],[12.0241,44.0713],[12.0244,44.068],[12.0279,44.065],[12.0524,44.0601],[12.0591,44.0669],[12.058,44.0681],[12.0819,44.0679],[12.0858,44.0705],[12.0905,44.0677],[12.0857,44.0615],[12.0912,44.0467],[12.0926,44.0376],[12.0953,44.0349],[12.0996,44.0343]]]}},{"type":"Feature","properties":{"i":"040011","n":"Dovadola"},"geometry":{"type":"Polygon","coordinates":[[[11.9109,44.1304],[11.9082,44.1273],[11.9101,44.1244],[11.9144,44.1222],[11.9149,44.1206],[11.9148,44.114],[11.9117,44.1046],[11.9121,44.0971],[11.911,44.0964],[11.9097,44.0968],[11.9057,44.0999],[11.9028,44.101],[11.8915,44.0962],[11.884,44.0845],[11.8808,44.077],[11.8731,44.0759],[11.8708,44.0765],[11.8637,44.0804],[11.8507,44.0909],[11.8452,44.0917],[11.8423,44.0929],[11.8436,44.0974],[11.8615,44.1038],[11.8606,44.1085],[11.8581,44.1101],[11.845,44.1125],[11.839,44.1114],[11.8337,44.1117],[11.8312,44.1182],[11.8377,44.1247],[11.8489,44.1312],[11.868,44.1458],[11.869,44.1493],[11.867,44.1527],[11.8672,44.1565],[11.8738,44.1628],[11.8888,44.1705],[11.8947,44.1646],[11.9062,44.1589],[11.9082,44.1571],[11.9111,44.1521],[11.9123,44.1488],[11.9076,44.1467],[11.9059,44.1449],[11.9071,44.1401],[11.9114,44.1348],[11.9109,44.1304]]]}},{"type":"Feature","properties":{"i":"040012","n":"Forlì"},"geometry":{"type":"Polygon","coordinates":[[[12.2008,44.2301],[12.1879,44.2213],[12.182,44.2238],[12.1797,44.2237],[12.1731,44.2198],[12.1699,44.2157],[12.1577,44.213],[12.1473,44.213],[12.1428,44.2141],[12.1408,44.2162],[12.138,44.2173],[12.1357,44.2174],[12.1322,44.2138],[12.121,44.2061],[12.1116,44.2097],[12.1014,44.1956],[12.0975,44.1924],[12.0888,44.1771],[12.0883,44.175],[12.091,44.1656],[12.0946,44.1646],[12.0957,44.1631],[12.0947,44.1611],[12.0905,44.1614],[12.087,44.159],[12.0871,44.1558],[12.0881,44.1542],[12.0874,44.1466],[12.0811,44.1466],[12.0804,44.1457],[12.0806,44.1433],[12.0631,44.1484],[12.0592,44.1507],[12.0468,44.1504],[12.0436,44.1462],[12.0375,44.142],[12.0292,44.1373],[12.0238,44.1379],[12.0156,44.1335],[12.012,44.1282],[12.0064,44.1264],[12.0012,44.1261],[12.0003,44.1269],[11.9998,44.1297],[12.0041,44.1321],[12.006,44.1407],[12.001,44.1452],[12.0012,44.15],[12.0025,44.153],[11.9936,44.1559],[11.9869,44.157],[11.9848,44.1632],[11.9805,44.1686],[11.9706,44.1729],[11.9682,44.1826],[11.9701,44.1937],[11.9648,44.202],[11.9585,44.2073],[11.9503,44.2077],[11.9471,44.2001],[11.9421,44.1929],[11.9397,44.1905],[11.9374,44.1901],[11.936,44.1915],[11.9365,44.193],[11.9354,44.2026],[11.9254,44.206],[11.9226,44.208],[11.9215,44.2109],[11.9283,44.2156],[11.9294,44.2191],[11.9256,44.2298],[11.9249,44.2344],[11.9262,44.241],[11.9306,44.2416],[11.9323,44.2408],[11.936,44.2372],[11.9434,44.2358],[11.9476,44.2361],[11.9558,44.2405],[11.9622,44.2471],[11.9789,44.2598],[11.993,44.2789],[11.9983,44.2894],[12.0055,44.2996],[12.018,44.3105],[12.0223,44.3155],[12.0265,44.3209],[12.0274,44.3267],[12.0356,44.3308],[12.0421,44.3284],[12.0483,44.3205],[12.0473,44.3168],[12.0499,44.3115],[12.0611,44.3031],[12.0686,44.3003],[12.0762,44.2987],[12.0826,44.3003],[12.0869,44.3005],[12.0968,44.2961],[12.108,44.2884],[12.1066,44.2822],[12.1037,44.2757],[12.1032,44.272],[12.1409,44.2566],[12.1663,44.2477],[12.171,44.2433],[12.1756,44.2425],[12.177,44.2464],[12.1854,44.2518],[12.1959,44.255],[12.2044,44.2561],[12.2088,44.2556],[12.2111,44.249],[12.21,44.238],[12.2008,44.2301]]]}},{"type":"Feature","properties":{"i":"040013","n":"Forlimpopoli"},"geometry":{"type":"Polygon","coordinates":[[[12.1699,44.2157],[12.1682,44.2088],[12.1633,44.2017],[12.1611,44.195],[12.1602,44.1908],[12.1622,44.1845],[12.1566,44.1749],[12.1506,44.1743],[12.1347,44.1762],[12.1188,44.1716],[12.1195,44.1643],[12.1081,44.1631],[12.1032,44.1607],[12.1023,44.1589],[12.1006,44.1577],[12.0955,44.1595],[12.0944,44.1611],[12.0955,44.1621],[12.0954,44.1639],[12.091,44.1656],[12.0883,44.175],[12.0888,44.1771],[12.0975,44.1924],[12.1014,44.1956],[12.1116,44.2097],[12.121,44.2061],[12.1322,44.2138],[12.1357,44.2174],[12.138,44.2173],[12.1408,44.2162],[12.1428,44.2141],[12.1473,44.213],[12.1577,44.213],[12.1699,44.2157]]]}},{"type":"Feature","properties":{"i":"040014","n":"Galeata"},"geometry":{"type":"Polygon","coordinates":[[[11.9349,44.0307],[11.9388,44.022],[11.9393,44.0143],[11.9387,44.0134],[11.9346,44.0121],[11.9316,44.0127],[11.924,44.01],[11.9209,44.0007],[11.9281,43.9962],[11.9346,43.9941],[11.9447,43.9836],[11.9566,43.9733],[11.9642,43.9678],[11.9689,43.9673],[11.9918,43.9606],[11.9941,43.9566],[11.9877,43.9516],[11.9863,43.9471],[11.9772,43.937],[11.9658,43.9318],[11.9625,43.9333],[11.959,43.939],[11.9558,43.9408],[11.9487,43.9433],[11.9421,43.9436],[11.9328,43.9502],[11.9261,43.9537],[11.9149,43.957],[11.8963,43.9677],[11.878,43.9733],[11.8679,43.9775],[11.8674,43.9793],[11.8699,43.9852],[11.8694,43.9926],[11.8638,43.9958],[11.8604,43.9995],[11.8605,44.003],[11.8591,44.0063],[11.8551,44.0132],[11.8496,44.0191],[11.8511,44.0238],[11.8539,44.0278],[11.8652,44.0348],[11.8711,44.036],[11.8754,44.0386],[11.8784,44.0422],[11.8814,44.0489],[11.888,44.0573],[11.8904,44.0571],[11.8915,44.0562],[11.8916,44.0533],[11.8897,44.0505],[11.8901,44.0476],[11.9003,44.0429],[11.9007,44.039],[11.9038,44.035],[11.919,44.03],[11.9263,44.0292],[11.9322,44.0295],[11.9349,44.0307]]]}},{"type":"Feature","properties":{"i":"040015","n":"Gambettola"},"geometry":{"type":"Polygon","coordinates":[[[12.3639,44.1301],[12.3651,44.1295],[12.3665,44.123],[12.3657,44.1116],[12.3695,44.1075],[12.3704,44.1042],[12.3518,44.1092],[12.3466,44.1094],[12.336,44.1043],[12.3315,44.1061],[12.3326,44.11],[12.3318,44.1108],[12.3255,44.113],[12.3223,44.1164],[12.3263,44.1235],[12.3497,44.1314],[12.3622,44.1329],[12.3639,44.1301]]]}},{"type":"Feature","properties":{"i":"040016","n":"Gatteo"},"geometry":{"type":"Polygon","coordinates":[[[12.443,44.1686],[12.4402,44.167],[12.4323,44.165],[12.4115,44.148],[12.4082,44.1441],[12.406,44.1397],[12.4017,44.1253],[12.3919,44.1063],[12.3826,44.1021],[12.3734,44.1001],[12.3704,44.1042],[12.3695,44.1075],[12.3657,44.1116],[12.3665,44.123],[12.3651,44.1295],[12.3639,44.1301],[12.3735,44.1369],[12.3812,44.1409],[12.396,44.1455],[12.425,44.1672],[12.437,44.1741],[12.443,44.1686]]]}},{"type":"Feature","properties":{"i":"040018","n":"Longiano"},"geometry":{"type":"Polygon","coordinates":[[[12.3734,44.1001],[12.3732,44.097],[12.371,44.0918],[12.3643,44.0829],[12.3622,44.072],[12.3714,44.0681],[12.3639,44.058],[12.3591,44.0542],[12.3554,44.0562],[12.3454,44.053],[12.3354,44.0547],[12.3294,44.0569],[12.3154,44.0688],[12.3123,44.0684],[12.3094,44.0667],[12.3129,44.0699],[12.3147,44.0746],[12.3161,44.0917],[12.3155,44.0943],[12.3132,44.0967],[12.311,44.0964],[12.3163,44.1043],[12.3227,44.1083],[12.3315,44.1062],[12.336,44.1043],[12.3466,44.1094],[12.3518,44.1092],[12.3704,44.1042],[12.3734,44.1001]]]}},{"type":"Feature","properties":{"i":"040019","n":"Meldola"},"geometry":{"type":"Polygon","coordinates":[[[12.0806,44.1433],[12.0832,44.1391],[12.0834,44.1356],[12.0866,44.133],[12.0967,44.1283],[12.0993,44.1287],[12.1053,44.1264],[12.1038,44.1183],[12.101,44.1122],[12.0995,44.1117],[12.0994,44.1094],[12.1021,44.1061],[12.1195,44.1029],[12.1193,44.0981],[12.1205,44.0958],[12.1289,44.0876],[12.135,44.0787],[12.1304,44.0718],[12.1279,44.0699],[12.1204,44.068],[12.1162,44.0623],[12.1188,44.056],[12.1186,44.0509],[12.1085,44.0377],[12.1053,44.0354],[12.0996,44.0343],[12.0953,44.0349],[12.0926,44.0376],[12.0912,44.0467],[12.0857,44.0615],[12.0905,44.0677],[12.0858,44.0705],[12.0819,44.0679],[12.058,44.0681],[12.0591,44.0669],[12.0524,44.0601],[12.0279,44.065],[12.0244,44.068],[12.0241,44.0713],[12.0062,44.0736],[12.0005,44.0769],[11.9972,44.0798],[11.9966,44.0828],[12.003,44.0898],[12.0125,44.1081],[12.0117,44.1106],[12.0017,44.115],[11.9981,44.1182],[11.9971,44.1225],[12.0003,44.1269],[12.0012,44.1261],[12.0106,44.1273],[12.0129,44.1293],[12.0156,44.1335],[12.0238,44.1379],[12.0292,44.1373],[12.0436,44.1462],[12.0468,44.1504],[12.0592,44.1507],[12.0631,44.1484],[12.0806,44.1433]]]}},{"type":"Feature","properties":{"i":"040020","n":"Mercato Saraceno"},"geometry":{"type":"Polygon","coordinates":[[[12.1996,44.0289],[12.1983,44.0283],[12.1942,44.0216],[12.1977,44.0184],[12.2017,44.0177],[12.2028,44.0161],[12.2009,44.0078],[12.2031,44.0045],[12.2235,43.9968],[12.2205,43.986],[12.2198,43.9778],[12.2219,43.9729],[12.2225,43.9677],[12.2163,43.9662],[12.2055,43.9664],[12.202,43.9629],[12.217,43.9454],[12.2237,43.9412],[12.2342,43.9476],[12.2458,43.9501],[12.2508,43.9497],[12.2574,43.9435],[12.2593,43.9379],[12.2702,43.9287],[12.2556,43.9203],[12.2551,43.9183],[12.2557,43.9159],[12.2534,43.9103],[12.2508,43.9107],[12.2387,43.9164],[12.2365,43.9168],[12.2323,43.9259],[12.2297,43.9371],[12.2272,43.9391],[12.2257,43.9391],[12.2202,43.9356],[12.2194,43.9341],[12.2073,43.933],[12.188,43.9412],[12.1732,43.9342],[12.167,43.9367],[12.1653,43.9361],[12.1583,43.9383],[12.1558,43.9447],[12.1563,43.9488],[12.1636,43.9557],[12.1633,43.9567],[12.1609,43.958],[12.1522,43.9604],[12.1453,43.9588],[12.145,43.9563],[12.1461,43.9533],[12.145,43.949],[12.1342,43.9398],[12.1344,43.9365],[12.1331,43.9346],[12.1142,43.9428],[12.1126,43.9444],[12.111,43.9487],[12.1128,43.9498],[12.1214,43.9515],[12.1293,43.9497],[12.1335,43.9501],[12.1332,43.9545],[12.1314,43.9588],[12.1248,43.9631],[12.1207,43.9704],[12.1214,43.9726],[12.1207,43.9739],[12.1104,43.9776],[12.0914,43.9763],[12.0757,43.9801],[12.0771,43.9942],[12.0784,43.9959],[12.0796,43.9972],[12.0816,43.9977],[12.0908,43.9972],[12.095,44.0019],[12.0969,44.007],[12.0961,44.0136],[12.0974,44.0207],[12.1169,44.0226],[12.1206,44.0285],[12.133,44.0279],[12.1479,44.0296],[12.1524,44.034],[12.1561,44.0362],[12.1583,44.0354],[12.1621,44.0376],[12.1679,44.0461],[12.179,44.0525],[12.1861,44.0512],[12.1884,44.0478],[12.1881,44.0388],[12.193,44.0342],[12.1973,44.0322],[12.1996,44.0289]]]}},{"type":"Feature","properties":{"i":"040022","n":"Modigliana"},"geometry":{"type":"Polygon","coordinates":[[[11.8886,44.1707],[11.8763,44.1646],[11.8672,44.1565],[11.867,44.1527],[11.869,44.1493],[11.868,44.1458],[11.8489,44.1312],[11.8377,44.1247],[11.8314,44.1187],[11.8334,44.1119],[11.839,44.1114],[11.8382,44.1054],[11.8389,44.0918],[11.8376,44.089],[11.8327,44.0847],[11.8299,44.0847],[11.8292,44.0873],[11.8297,44.0886],[11.8248,44.0956],[11.8123,44.0971],[11.8058,44.0941],[11.8012,44.0871],[11.7964,44.0864],[11.7938,44.0821],[11.7865,44.0829],[11.7834,44.0854],[11.7832,44.0861],[11.785,44.0876],[11.7855,44.0905],[11.784,44.0952],[11.7817,44.098],[11.7802,44.1035],[11.7856,44.112],[11.7857,44.1154],[11.7764,44.1195],[11.7737,44.1154],[11.7663,44.1171],[11.7581,44.1201],[11.7529,44.1205],[11.7478,44.1249],[11.745,44.126],[11.7353,44.1251],[11.7203,44.1207],[11.7159,44.1225],[11.7211,44.1376],[11.7219,44.1481],[11.7197,44.1564],[11.7202,44.1587],[11.7218,44.1599],[11.7276,44.1689],[11.7452,44.1826],[11.747,44.1875],[11.7525,44.193],[11.7567,44.1949],[11.7714,44.1989],[11.7738,44.1904],[11.7738,44.1868],[11.776,44.1821],[11.7808,44.1805],[11.7959,44.1929],[11.8067,44.1994],[11.8322,44.1974],[11.8643,44.1801],[11.8886,44.1707]]]}},{"type":"Feature","properties":{"i":"040028","n":"Montiano"},"geometry":{"type":"Polygon","coordinates":[[[12.311,44.0964],[12.3132,44.0967],[12.3155,44.0943],[12.3161,44.0917],[12.3147,44.0746],[12.3129,44.0699],[12.3094,44.0667],[12.3068,44.0563],[12.299,44.0534],[12.2845,44.0563],[12.2747,44.0595],[12.2738,44.0661],[12.2761,44.0689],[12.2818,44.0689],[12.2854,44.0706],[12.2892,44.0756],[12.2915,44.0803],[12.293,44.088],[12.3005,44.0949],[12.311,44.0964]]]}},{"type":"Feature","properties":{"i":"040031","n":"Portico e San Benedetto"},"geometry":{"type":"Polygon","coordinates":[[[11.7885,44.0506],[11.7959,44.0228],[11.7978,44.0212],[11.7982,44.0186],[11.7972,44.0149],[11.7882,44.0119],[11.7832,44.0122],[11.7788,44.0041],[11.7711,43.9969],[11.7601,43.9891],[11.7589,43.9865],[11.7536,43.9821],[11.7448,43.9798],[11.7375,43.9793],[11.7307,43.9758],[11.7262,43.9721],[11.724,43.9682],[11.7122,43.9646],[11.7015,43.96],[11.6993,43.9568],[11.6962,43.9541],[11.6926,43.9532],[11.6887,43.959],[11.6834,43.9601],[11.679,43.962],[11.6603,43.9746],[11.6549,43.9747],[11.6503,43.9797],[11.6462,43.9883],[11.646,43.9907],[11.6485,43.9947],[11.6501,44.003],[11.6546,44.0047],[11.6606,44.0036],[11.6639,44.0056],[11.6609,44.0118],[11.6569,44.0164],[11.6577,44.0177],[11.6607,44.0197],[11.6709,44.0216],[11.6819,44.0212],[11.6858,44.0171],[11.6919,44.0133],[11.7127,44.0129],[11.7261,44.0138],[11.7309,44.0179],[11.731,44.0197],[11.726,44.0215],[11.7294,44.0252],[11.7359,44.0275],[11.7409,44.0282],[11.753,44.0259],[11.7547,44.0265],[11.7579,44.0303],[11.7603,44.037],[11.7587,44.0396],[11.7569,44.0407],[11.7567,44.0418],[11.7581,44.0488],[11.7616,44.0527],[11.7648,44.0531],[11.7685,44.0505],[11.7659,44.0484],[11.765,44.0436],[11.7732,44.037],[11.7748,44.0374],[11.7779,44.0437],[11.7862,44.0504],[11.7885,44.0506]]]}},{"type":"Feature","properties":{"i":"040032","n":"Predappio"},"geometry":{"type":"Polygon","coordinates":[[[11.9856,44.1599],[11.9869,44.157],[11.9936,44.1559],[12.0025,44.153],[12.0012,44.15],[12.001,44.1452],[12.006,44.1407],[12.0041,44.1321],[11.9998,44.1297],[12.0003,44.1269],[11.9971,44.1225],[11.9976,44.1197],[11.9992,44.1166],[12.001,44.1154],[12.0117,44.1106],[12.0125,44.1081],[12.003,44.0898],[11.9966,44.0828],[11.9897,44.0779],[11.9889,44.0745],[11.9903,44.0731],[11.9902,44.0693],[11.9875,44.0601],[11.9845,44.0554],[11.9816,44.0536],[11.9721,44.0501],[11.9661,44.0434],[11.9654,44.0393],[11.9507,44.0324],[11.9263,44.0292],[11.919,44.03],[11.9038,44.035],[11.9007,44.039],[11.9003,44.0429],[11.8901,44.0476],[11.8897,44.0505],[11.8918,44.0546],[11.8913,44.0567],[11.8886,44.0573],[11.8923,44.0585],[11.8949,44.0608],[11.8971,44.0692],[11.8901,44.074],[11.892,44.0779],[11.9093,44.0892],[11.9132,44.0933],[11.9121,44.0971],[11.9117,44.1046],[11.9148,44.114],[11.9149,44.121],[11.9127,44.1235],[11.9101,44.1244],[11.9084,44.1267],[11.9086,44.1279],[11.9109,44.1304],[11.9227,44.1312],[11.9295,44.1341],[11.931,44.1394],[11.9353,44.1415],[11.9378,44.1406],[11.9434,44.141],[11.9467,44.1422],[11.969,44.1579],[11.9856,44.1599]]]}},{"type":"Feature","properties":{"i":"040033","n":"Premilcuore"},"geometry":{"type":"Polygon","coordinates":[[[11.8652,44.0348],[11.8539,44.0278],[11.8511,44.0238],[11.8496,44.0191],[11.8551,44.0132],[11.8591,44.0063],[11.8605,44.003],[11.8604,43.9995],[11.8638,43.9958],[11.8694,43.9926],[11.8698,43.9846],[11.868,43.9809],[11.8586,43.98],[11.8535,43.9774],[11.8503,43.9738],[11.8497,43.9687],[11.8504,43.9633],[11.8447,43.9568],[11.8317,43.9513],[11.8304,43.9463],[11.8287,43.9448],[11.8249,43.9439],[11.8137,43.944],[11.8029,43.9468],[11.7921,43.9444],[11.7913,43.9405],[11.7864,43.9337],[11.7737,43.9216],[11.7615,43.918],[11.7419,43.9148],[11.7272,43.9076],[11.7228,43.9047],[11.7199,43.9014],[11.7139,43.8987],[11.7155,43.9032],[11.7151,43.9083],[11.7159,43.916],[11.7176,43.92],[11.717,43.9218],[11.7097,43.9251],[11.6916,43.9308],[11.6842,43.9351],[11.6822,43.9378],[11.6897,43.9506],[11.6926,43.9532],[11.6962,43.9541],[11.6993,43.9568],[11.7015,43.96],[11.7122,43.9646],[11.724,43.9682],[11.7262,43.9721],[11.7307,43.9758],[11.7375,43.9793],[11.7448,43.9798],[11.7536,43.9821],[11.7557,43.9836],[11.7589,43.9865],[11.7601,43.9891],[11.7711,43.9969],[11.7788,44.0041],[11.7836,44.0125],[11.7882,44.0119],[11.7972,44.0149],[11.8088,44.0123],[11.8173,44.0163],[11.8323,44.026],[11.85,44.0339],[11.8631,44.0371],[11.8652,44.0348]]]}},{"type":"Feature","properties":{"i":"040036","n":"Rocca San Casciano"},"geometry":{"type":"Polygon","coordinates":[[[11.9121,44.0971],[11.9132,44.0933],[11.9093,44.0892],[11.892,44.0779],[11.8901,44.074],[11.8971,44.0692],[11.8949,44.0608],[11.8923,44.0585],[11.8876,44.057],[11.8814,44.0489],[11.8784,44.0422],[11.8754,44.0386],[11.8711,44.036],[11.8668,44.0348],[11.8652,44.0348],[11.8631,44.0371],[11.85,44.0339],[11.8323,44.026],[11.8173,44.0163],[11.8088,44.0123],[11.7972,44.0149],[11.7982,44.0186],[11.7978,44.0212],[11.7959,44.0228],[11.7885,44.0506],[11.7904,44.0527],[11.7981,44.0559],[11.8044,44.0526],[11.8155,44.0531],[11.8243,44.0572],[11.8263,44.0612],[11.8255,44.0689],[11.8205,44.0738],[11.817,44.0752],[11.8104,44.075],[11.8051,44.0759],[11.7989,44.0812],[11.7949,44.0834],[11.7964,44.0864],[11.8012,44.0871],[11.8058,44.0941],[11.8123,44.0971],[11.8248,44.0956],[11.8297,44.0886],[11.8292,44.0873],[11.8299,44.0847],[11.8327,44.0847],[11.8376,44.089],[11.8389,44.0918],[11.8382,44.1054],[11.839,44.1114],[11.845,44.1125],[11.8581,44.1101],[11.8606,44.1085],[11.8615,44.1038],[11.8436,44.0974],[11.842,44.0932],[11.8444,44.0918],[11.8507,44.0909],[11.8637,44.0804],[11.8731,44.0759],[11.8814,44.0771],[11.884,44.0845],[11.8915,44.0962],[11.9028,44.101],[11.9057,44.0999],[11.9097,44.0968],[11.911,44.0964],[11.9121,44.0971]]]}},{"type":"Feature","properties":{"i":"040037","n":"Roncofreddo"},"geometry":{"type":"Polygon","coordinates":[[[12.2761,44.0689],[12.2735,44.0653],[12.2747,44.0595],[12.2845,44.0563],[12.2963,44.0537],[12.299,44.0534],[12.3068,44.0563],[12.3094,44.0667],[12.3149,44.0689],[12.3294,44.0569],[12.3354,44.0547],[12.3454,44.053],[12.3554,44.0562],[12.3581,44.0543],[12.327,44.0322],[12.3139,44.0272],[12.3083,44.0221],[12.304,44.0208],[12.3016,44.0209],[12.2915,44.0242],[12.2796,44.0315],[12.2686,44.0232],[12.2533,44.0099],[12.2451,44.0094],[12.2341,44.014],[12.219,44.0153],[12.2082,44.0181],[12.1984,44.0182],[12.1942,44.0216],[12.1983,44.0283],[12.1996,44.0289],[12.2011,44.0276],[12.2053,44.026],[12.213,44.0278],[12.2172,44.0318],[12.2188,44.0357],[12.2251,44.0414],[12.2281,44.042],[12.2311,44.0449],[12.2317,44.0466],[12.2281,44.0501],[12.2243,44.0492],[12.221,44.0472],[12.2177,44.0437],[12.2188,44.0414],[12.2062,44.0369],[12.2041,44.0379],[12.2022,44.0401],[12.2019,44.0423],[12.2048,44.0421],[12.2104,44.0458],[12.211,44.0498],[12.2077,44.0593],[12.2132,44.0604],[12.2154,44.0599],[12.2218,44.0607],[12.2278,44.0652],[12.2292,44.0689],[12.2284,44.0724],[12.232,44.0804],[12.2368,44.0881],[12.247,44.0788],[12.2568,44.0769],[12.2735,44.068],[12.2761,44.0689]]]}},{"type":"Feature","properties":{"i":"040041","n":"San Mauro Pascoli"},"geometry":{"type":"Polygon","coordinates":[[[12.4506,44.1622],[12.4483,44.1622],[12.4411,44.1596],[12.4287,44.1473],[12.4337,44.1448],[12.4412,44.1384],[12.44,44.1359],[12.4394,44.1276],[12.4535,44.1147],[12.4533,44.1108],[12.4524,44.1084],[12.4557,44.0924],[12.4529,44.0898],[12.4521,44.0872],[12.4491,44.0865],[12.437,44.0889],[12.4253,44.0885],[12.4235,44.0942],[12.4182,44.0981],[12.4139,44.0999],[12.411,44.0991],[12.406,44.1059],[12.4056,44.1088],[12.4301,44.1522],[12.4451,44.167],[12.4506,44.1622]]]}},{"type":"Feature","properties":{"i":"040043","n":"Santa Sofia"},"geometry":{"type":"Polygon","coordinates":[[[11.868,43.9809],[11.8672,43.9788],[11.8679,43.9775],[11.878,43.9733],[11.8963,43.9677],[11.9149,43.957],[11.9261,43.9537],[11.9328,43.9502],[11.9421,43.9436],[11.9487,43.9433],[11.9578,43.9398],[11.961,43.9366],[11.9625,43.9333],[11.9658,43.9318],[11.9772,43.937],[11.9863,43.9471],[11.9877,43.9516],[11.9941,43.9566],[12.0019,43.957],[12.0091,43.951],[12.0125,43.9468],[12.0189,43.9449],[12.0455,43.9444],[12.048,43.9451],[12.0456,43.9409],[12.0448,43.9356],[12.0513,43.9295],[12.0503,43.9236],[12.0523,43.9191],[12.0438,43.9186],[12.0308,43.9207],[12.0282,43.9305],[12.0312,43.9344],[12.0313,43.9405],[12.0307,43.9413],[12.0252,43.941],[12.011,43.9384],[12.0087,43.9361],[12.0077,43.9276],[12.0086,43.9266],[12.0092,43.9228],[12.0085,43.9147],[12.0021,43.9095],[11.9953,43.9075],[11.9853,43.9066],[11.9685,43.9072],[11.9618,43.9086],[11.9521,43.9054],[11.946,43.9079],[11.9483,43.9114],[11.9481,43.9139],[11.9471,43.915],[11.9305,43.9251],[11.9246,43.9328],[11.9211,43.9352],[11.9191,43.9365],[11.9134,43.9377],[11.9122,43.9366],[11.9106,43.9308],[11.9087,43.9283],[11.8727,43.9231],[11.8671,43.9174],[11.8668,43.9146],[11.8872,43.8967],[11.8873,43.8953],[11.8856,43.8917],[11.8827,43.8902],[11.8734,43.8884],[11.849,43.8875],[11.8422,43.8881],[11.8393,43.8914],[11.8222,43.8873],[11.8169,43.885],[11.8175,43.8823],[11.8195,43.8793],[11.8225,43.8774],[11.8385,43.8785],[11.8401,43.8754],[11.8298,43.8651],[11.822,43.8619],[11.8082,43.8574],[11.7904,43.8568],[11.7895,43.854],[11.7904,43.851],[11.7898,43.8477],[11.7885,43.8451],[11.7842,43.8476],[11.744,43.8606],[11.7325,43.8632],[11.7273,43.8678],[11.7219,43.8744],[11.7177,43.8764],[11.7102,43.8774],[11.7101,43.8808],[11.7085,43.8859],[11.712,43.8964],[11.7139,43.8987],[11.7199,43.9014],[11.7228,43.9047],[11.7272,43.9076],[11.7419,43.9148],[11.7615,43.918],[11.7737,43.9216],[11.7864,43.9337],[11.7913,43.9405],[11.7921,43.9444],[11.8029,43.9468],[11.8137,43.944],[11.8249,43.9439],[11.8287,43.9448],[11.8304,43.9463],[11.8317,43.9513],[11.8447,43.9568],[11.8504,43.9633],[11.8497,43.9687],[11.8503,43.9738],[11.8535,43.9774],[11.8586,43.98],[11.868,43.9809]]]}},{"type":"Feature","properties":{"i":"040044","n":"Sarsina"},"geometry":{"type":"MultiPolygon","coordinates":[[[[12.0545,43.8598],[12.055,43.8615],[12.0771,43.8568],[12.0838,43.8584],[12.0863,43.8585],[12.0884,43.8576],[12.0863,43.8548],[12.0724,43.8521],[12.0609,43.8468],[12.0555,43.8553],[12.0545,43.8598]]],[[[12.1732,43.9342],[12.1736,43.9315],[12.1701,43.9274],[12.1703,43.9253],[12.1644,43.9244],[12.1595,43.9217],[12.1585,43.9192],[12.1582,43.9101],[12.1596,43.9048],[12.1605,43.9029],[12.1672,43.8958],[12.1586,43.8775],[12.1527,43.869],[12.1421,43.861],[12.1431,43.8531],[12.1396,43.8488],[12.1383,43.8476],[12.1261,43.8571],[12.1187,43.8576],[12.1091,43.8556],[12.1009,43.8528],[12.0967,43.8532],[12.0931,43.855],[12.0913,43.8601],[12.0873,43.8675],[12.0827,43.8721],[12.0844,43.8738],[12.0818,43.8843],[12.0721,43.8886],[12.0696,43.8935],[12.07,43.904],[12.0829,43.9178],[12.0836,43.9258],[12.0893,43.9286],[12.0929,43.9262],[12.0961,43.9254],[12.0996,43.9255],[12.1071,43.9291],[12.1084,43.9304],[12.1063,43.9349],[12.1059,43.9398],[12.1125,43.9447],[12.1142,43.9428],[12.1337,43.9349],[12.1345,43.9372],[12.1342,43.9398],[12.145,43.949],[12.1461,43.9533],[12.145,43.9563],[12.1453,43.9588],[12.1514,43.9605],[12.1609,43.958],[12.1633,43.9567],[12.1636,43.9557],[12.1563,43.9488],[12.1558,43.9447],[12.1576,43.939],[12.1644,43.9363],[12.167,43.9367],[12.1732,43.9342]]],[[[12.099,44.0207],[12.0974,44.0207],[12.0961,44.0136],[12.0969,44.007],[12.095,44.0019],[12.0908,43.9972],[12.0816,43.9977],[12.0796,43.9972],[12.0784,43.9959],[12.0771,43.9942],[12.0757,43.9801],[12.0914,43.9763],[12.1104,43.9776],[12.1207,43.9739],[12.1214,43.9726],[12.1207,43.9704],[12.1248,43.9631],[12.1314,43.9588],[12.1332,43.9545],[12.1335,43.9501],[12.1293,43.9497],[12.1214,43.9515],[12.1128,43.9498],[12.111,43.9487],[12.108,43.9496],[12.102,43.9496],[12.0954,43.9468],[12.0879,43.9413],[12.0753,43.9346],[12.0603,43.9288],[12.0537,43.9307],[12.0513,43.9295],[12.045,43.9351],[12.0456,43.9409],[12.0489,43.9478],[12.0577,43.9538],[12.0618,43.9546],[12.0651,43.962],[12.0663,43.9675],[12.0661,43.9704],[12.0621,43.9733],[12.0482,43.9736],[12.045,43.9727],[12.0429,43.9692],[12.0322,43.9756],[12.0367,43.98],[12.037,43.9994],[12.0363,44.0055],[12.037,44.0066],[12.044,44.0054],[12.0545,44.0057],[12.0796,44.0217],[12.0862,44.023],[12.0933,44.0232],[12.0945,44.0242],[12.099,44.0207]]]]}},{"type":"Feature","properties":{"i":"040045","n":"Savignano sul Rubicone"},"geometry":{"type":"Polygon","coordinates":[[[12.4451,44.167],[12.4301,44.1522],[12.4056,44.1088],[12.406,44.1059],[12.411,44.0991],[12.4139,44.0999],[12.4182,44.0981],[12.4235,44.0942],[12.4253,44.0885],[12.4167,44.0808],[12.408,44.0768],[12.4035,44.0715],[12.4005,44.0663],[12.3921,44.0638],[12.3838,44.0644],[12.3747,44.0666],[12.3705,44.066],[12.3713,44.0683],[12.3623,44.0718],[12.3643,44.0829],[12.371,44.0918],[12.3732,44.097],[12.3734,44.1001],[12.3826,44.1021],[12.3919,44.1063],[12.4017,44.1253],[12.406,44.1397],[12.4082,44.1441],[12.4115,44.148],[12.4323,44.165],[12.4402,44.167],[12.443,44.1686],[12.4451,44.167]]]}},{"type":"Feature","properties":{"i":"040046","n":"Sogliano al Rubicone"},"geometry":{"type":"MultiPolygon","coordinates":[[[[12.2365,43.9168],[12.2232,43.9154],[12.2224,43.9089],[12.2191,43.9081],[12.2125,43.9095],[12.2036,43.9129],[12.2032,43.9165],[12.1911,43.9164],[12.176,43.9204],[12.1725,43.9222],[12.1735,43.9237],[12.1732,43.9256],[12.1717,43.9265],[12.1705,43.9264],[12.1703,43.9253],[12.1699,43.9269],[12.1736,43.9315],[12.1732,43.9342],[12.188,43.9412],[12.2073,43.933],[12.2194,43.9341],[12.2202,43.9356],[12.2257,43.9391],[12.2272,43.9391],[12.2297,43.9371],[12.2323,43.9259],[12.2365,43.9168]]],[[[12.3139,44.0272],[12.3176,44.0189],[12.3201,44.0156],[12.3208,44.0069],[12.3192,43.9997],[12.322,43.9916],[12.3289,43.9885],[12.3507,43.9899],[12.353,43.9891],[12.3534,43.9881],[12.3529,43.9861],[12.3507,43.984],[12.3478,43.9772],[12.3399,43.9715],[12.3274,43.9657],[12.3232,43.9619],[12.3231,43.9597],[12.3199,43.9551],[12.3174,43.9533],[12.3125,43.9402],[12.3009,43.9354],[12.2967,43.9317],[12.2948,43.9282],[12.288,43.9297],[12.2759,43.9276],[12.2715,43.9291],[12.2702,43.9287],[12.2593,43.9379],[12.2574,43.9435],[12.2498,43.9502],[12.2458,43.9501],[12.2342,43.9476],[12.2237,43.9412],[12.217,43.9454],[12.202,43.9629],[12.2055,43.9664],[12.2163,43.9662],[12.2225,43.9677],[12.2219,43.9729],[12.2198,43.9778],[12.2205,43.986],[12.2235,43.9968],[12.2031,44.0045],[12.2009,44.0078],[12.2029,44.0157],[12.2007,44.018],[12.2082,44.0181],[12.219,44.0153],[12.2341,44.014],[12.2451,44.0094],[12.2505,44.0096],[12.2533,44.0099],[12.2686,44.0232],[12.2796,44.0315],[12.2915,44.0242],[12.3016,44.0209],[12.304,44.0208],[12.3083,44.0221],[12.3139,44.0272]]]]}},{"type":"Feature","properties":{"i":"040049","n":"Tredozio"},"geometry":{"type":"Polygon","coordinates":[[[11.7949,44.0834],[11.7989,44.0812],[11.8051,44.0759],[11.8104,44.075],[11.817,44.0752],[11.8205,44.0738],[11.8255,44.0689],[11.8263,44.0612],[11.8243,44.0572],[11.8155,44.0531],[11.8044,44.0526],[11.7981,44.0559],[11.7904,44.0527],[11.7885,44.0506],[11.7862,44.0504],[11.7779,44.0437],[11.774,44.0369],[11.7651,44.0435],[11.7659,44.0484],[11.7685,44.0505],[11.7648,44.0531],[11.7616,44.0527],[11.7581,44.0488],[11.7567,44.0418],[11.7569,44.0407],[11.7587,44.0396],[11.7603,44.037],[11.7579,44.0303],[11.7547,44.0265],[11.753,44.0259],[11.7409,44.0282],[11.7359,44.0275],[11.7294,44.0252],[11.726,44.0215],[11.731,44.0197],[11.7309,44.0179],[11.7261,44.0138],[11.7127,44.0129],[11.6919,44.0133],[11.6858,44.0171],[11.6819,44.0212],[11.6838,44.0247],[11.6958,44.0391],[11.6968,44.0451],[11.7007,44.0556],[11.7127,44.0692],[11.7274,44.0809],[11.7334,44.0847],[11.7366,44.0914],[11.7496,44.1104],[11.7511,44.1184],[11.7524,44.1203],[11.7549,44.1207],[11.7581,44.1201],[11.7663,44.1171],[11.7737,44.1154],[11.7764,44.1195],[11.7857,44.1154],[11.7856,44.112],[11.7802,44.1035],[11.7817,44.098],[11.784,44.0952],[11.7855,44.0905],[11.785,44.0876],[11.7832,44.0861],[11.785,44.0835],[11.7865,44.0829],[11.7938,44.0821],[11.7949,44.0834]]]}},{"type":"Feature","properties":{"i":"040050","n":"Verghereto"},"geometry":{"type":"Polygon","coordinates":[[[12.1383,43.8476],[12.1477,43.8403],[12.1503,43.8369],[12.1483,43.831],[12.1446,43.8286],[12.1324,43.8269],[12.1206,43.8135],[12.1169,43.8064],[12.1187,43.8028],[12.114,43.7961],[12.1075,43.7959],[12.105,43.7951],[12.1027,43.7916],[12.1027,43.7887],[12.1037,43.7869],[12.1034,43.7817],[12.0962,43.7653],[12.1074,43.7538],[12.0815,43.7432],[12.0771,43.7407],[12.0703,43.7408],[12.0646,43.7429],[12.0617,43.7478],[12.0614,43.753],[12.0529,43.757],[12.0463,43.7585],[12.0444,43.7552],[12.0214,43.7608],[12.0096,43.7647],[11.999,43.7647],[11.9865,43.7619],[11.9739,43.7683],[11.9534,43.7761],[11.9512,43.7781],[11.9512,43.787],[11.9578,43.7892],[11.9653,43.7955],[11.9824,43.8108],[11.9833,43.8134],[11.9861,43.8175],[11.991,43.8194],[12.0065,43.8203],[12.0143,43.8223],[12.0181,43.8243],[12.0373,43.8454],[12.0392,43.8503],[12.0459,43.8556],[12.0545,43.8598],[12.0555,43.8553],[12.0613,43.8468],[12.0724,43.8521],[12.0863,43.8548],[12.0884,43.8576],[12.0863,43.8585],[12.0838,43.8584],[12.0771,43.8568],[12.055,43.8615],[12.0593,43.8662],[12.0827,43.8721],[12.0873,43.8675],[12.0913,43.8601],[12.0931,43.855],[12.0967,43.8532],[12.102,43.8529],[12.1091,43.8556],[12.1187,43.8576],[12.1261,43.8571],[12.1383,43.8476]]]}}]}
