{"type":"FeatureCollection","fonte":"Confini comunali ISTAT via openpolis/geojson-italy — CC BY 4.0","features":[{"type":"Feature","properties":{"i":"038001","n":"Argenta"},"geometry":{"type":"Polygon","coordinates":[[[11.7313,44.7138],[11.7428,44.7071],[11.7465,44.7023],[11.7439,44.699],[11.7468,44.6938],[11.7514,44.6879],[11.7572,44.6854],[11.764,44.6762],[11.7725,44.6766],[11.7833,44.6732],[11.7868,44.6703],[11.796,44.6669],[11.8058,44.6664],[11.8115,44.6653],[11.8169,44.6613],[11.8189,44.6578],[11.8203,44.6569],[11.8237,44.6572],[11.826,44.6593],[11.8271,44.6617],[11.8408,44.6551],[11.8577,44.6502],[11.913,44.6566],[11.9633,44.6587],[11.9585,44.6526],[12.1345,44.6111],[12.1473,44.5841],[12.1521,44.5688],[12.1538,44.5485],[12.1351,44.5481],[12.1307,44.5457],[12.1162,44.5469],[12.1098,44.549],[12.0913,44.5591],[12.076,44.5613],[12.0692,44.56],[12.0677,44.5586],[12.0671,44.5572],[12.0678,44.5519],[12.0661,44.5494],[12.0642,44.5481],[12.0595,44.5485],[12.0388,44.5576],[12.0283,44.5604],[12.028,44.563],[12.0299,44.5646],[12.031,44.5693],[12.027,44.5768],[12.0238,44.579],[12.0152,44.5808],[12.006,44.5845],[12.0072,44.5969],[12.0055,44.5993],[12.0022,44.6002],[11.9193,44.5855],[11.8978,44.5823],[11.8807,44.5785],[11.8705,44.5776],[11.8636,44.5699],[11.8607,44.5632],[11.8603,44.5598],[11.8496,44.5561],[11.8444,44.5558],[11.8319,44.5616],[11.7892,44.5543],[11.7917,44.5635],[11.7896,44.5658],[11.7842,44.5683],[11.7806,44.5686],[11.7742,44.5663],[11.7736,44.5637],[11.7556,44.574],[11.753,44.5731],[11.7456,44.58],[11.7513,44.5799],[11.7829,44.585],[11.7896,44.5922],[11.7868,44.6027],[11.7881,44.609],[11.7949,44.6184],[11.8064,44.6236],[11.8019,44.6294],[11.7947,44.6355],[11.7812,44.6403],[11.7719,44.6408],[11.7573,44.6491],[11.7448,44.6487],[11.7332,44.652],[11.7265,44.6523],[11.7237,44.6439],[11.7245,44.6403],[11.7239,44.6366],[11.7223,44.6359],[11.7052,44.6367],[11.6953,44.6352],[11.6887,44.6293],[11.6745,44.6325],[11.6674,44.6386],[11.6146,44.6901],[11.6173,44.6939],[11.6284,44.6978],[11.6303,44.7013],[11.6341,44.7021],[11.6405,44.7018],[11.6484,44.6999],[11.6549,44.6954],[11.6589,44.6978],[11.664,44.7028],[11.6731,44.7018],[11.6864,44.6925],[11.6902,44.6863],[11.6923,44.6778],[11.692,44.6745],[11.6966,44.6745],[11.698,44.6785],[11.6975,44.6817],[11.6895,44.6926],[11.6919,44.699],[11.6938,44.7011],[11.7025,44.703],[11.7055,44.7048],[11.7082,44.7117],[11.706,44.7156],[11.7018,44.7149],[11.6989,44.7162],[11.7013,44.725],[11.707,44.728],[11.7148,44.7281],[11.716,44.7266],[11.7154,44.7241],[11.7288,44.7161],[11.7313,44.7138]]]}},{"type":"Feature","properties":{"i":"038003","n":"Bondeno"},"geometry":{"type":"Polygon","coordinates":[[[11.4267,44.9501],[11.4247,44.9438],[11.4239,44.9379],[11.425,44.9323],[11.4264,44.9301],[11.4294,44.929],[11.4326,44.9291],[11.4642,44.9357],[11.4648,44.933],[11.4641,44.93],[11.4704,44.9168],[11.4855,44.9162],[11.4918,44.9131],[11.488,44.8977],[11.4901,44.8969],[11.4868,44.8833],[11.4872,44.8695],[11.49,44.8624],[11.488,44.861],[11.4675,44.8667],[11.4556,44.8662],[11.4469,44.8597],[11.446,44.8583],[11.4428,44.8519],[11.4444,44.839],[11.4402,44.8373],[11.4323,44.8376],[11.4213,44.8408],[11.4173,44.8412],[11.3871,44.8312],[11.3827,44.8316],[11.3725,44.8364],[11.3664,44.8373],[11.3685,44.8408],[11.3684,44.8424],[11.3563,44.8615],[11.3429,44.8725],[11.3376,44.8723],[11.3283,44.8749],[11.2971,44.8875],[11.2853,44.8901],[11.2808,44.8925],[11.2644,44.8976],[11.2503,44.9005],[11.2454,44.8983],[11.2406,44.9007],[11.2347,44.906],[11.2381,44.9126],[11.2549,44.9245],[11.2604,44.9331],[11.2462,44.9514],[11.2567,44.9468],[11.2618,44.9454],[11.2723,44.9383],[11.2854,44.9568],[11.3087,44.9605],[11.3228,44.9612],[11.3343,44.9584],[11.3572,44.9501],[11.36,44.9509],[11.3628,44.9555],[11.3767,44.9581],[11.3902,44.9558],[11.3997,44.9526],[11.4057,44.9487],[11.4262,44.9521],[11.4267,44.9501]]]}},{"type":"Feature","properties":{"i":"038004","n":"Cento"},"geometry":{"type":"Polygon","coordinates":[[[11.3664,44.8373],[11.3725,44.8364],[11.3827,44.8316],[11.3871,44.8312],[11.3665,44.8182],[11.3541,44.8165],[11.3522,44.8106],[11.3514,44.7989],[11.349,44.788],[11.3383,44.7831],[11.339,44.7793],[11.3308,44.7629],[11.3436,44.7595],[11.3447,44.7585],[11.339,44.7539],[11.3186,44.7433],[11.3096,44.7366],[11.2898,44.7139],[11.284,44.713],[11.2796,44.7111],[11.2776,44.7094],[11.2754,44.7056],[11.2586,44.7141],[11.2539,44.7175],[11.2697,44.7449],[11.271,44.751],[11.2461,44.7584],[11.2891,44.7991],[11.2984,44.8063],[11.3062,44.8176],[11.3092,44.8248],[11.3117,44.8264],[11.3217,44.8301],[11.3234,44.8326],[11.3401,44.8308],[11.3517,44.8336],[11.3543,44.8364],[11.3609,44.8379],[11.3664,44.8373]]]}},{"type":"Feature","properties":{"i":"038005","n":"Codigoro"},"geometry":{"type":"Polygon","coordinates":[[[12.2514,44.8237],[12.2589,44.8156],[12.2578,44.8152],[12.2604,44.8132],[12.2677,44.8147],[12.2708,44.8118],[12.2663,44.8044],[12.2538,44.8033],[12.2476,44.8039],[12.2438,44.8054],[12.234,44.8034],[12.2308,44.8015],[12.2259,44.8015],[12.2228,44.8029],[12.2143,44.81],[12.2099,44.8166],[12.209,44.8199],[12.2079,44.8204],[12.2026,44.82],[12.2011,44.8174],[12.2022,44.8157],[12.2069,44.8129],[12.2071,44.8115],[12.1982,44.8083],[12.1926,44.8119],[12.1902,44.8157],[12.1867,44.8193],[12.1843,44.8204],[12.1795,44.8203],[12.1708,44.8183],[12.1555,44.8093],[12.1497,44.8099],[12.1473,44.8089],[12.1468,44.8078],[12.1475,44.8062],[12.1534,44.8029],[12.154,44.8014],[12.1536,44.798],[12.1513,44.7961],[12.144,44.7929],[12.1442,44.7917],[12.143,44.7889],[12.1376,44.7829],[12.1336,44.7817],[12.1278,44.7819],[12.1232,44.7834],[12.121,44.7857],[12.1185,44.7919],[12.118,44.7979],[12.1112,44.8037],[12.0982,44.7978],[12.095,44.8327],[12.0939,44.8336],[12.0857,44.8349],[12.0579,44.8349],[12.0453,44.8313],[12.0423,44.8295],[12.0374,44.8327],[12.0365,44.8366],[12.0254,44.8341],[12.0053,44.8667],[12.0069,44.8672],[12.044,44.8677],[12.0303,44.8884],[12.033,44.8895],[12.0327,44.9064],[12.0433,44.9092],[12.0533,44.9092],[12.0526,44.9277],[12.0881,44.9281],[12.0883,44.921],[12.0986,44.921],[12.101,44.9215],[12.1061,44.9256],[12.1086,44.9305],[12.1109,44.9315],[12.1136,44.9296],[12.1149,44.9249],[12.1159,44.9239],[12.1299,44.9204],[12.1338,44.9211],[12.1413,44.9183],[12.1645,44.9037],[12.1569,44.8854],[12.1574,44.8846],[12.1722,44.8797],[12.1785,44.8729],[12.1814,44.8662],[12.1856,44.8654],[12.1981,44.877],[12.2104,44.8868],[12.2177,44.8828],[12.216,44.8722],[12.2201,44.8589],[12.2263,44.8555],[12.2294,44.8451],[12.234,44.8447],[12.2378,44.846],[12.2445,44.8382],[12.2514,44.8237]]]}},{"type":"Feature","properties":{"i":"038006","n":"Comacchio"},"geometry":{"type":"Polygon","coordinates":[[[12.2678,44.6284],[12.2609,44.6237],[12.237,44.6205],[12.1538,44.5485],[12.1521,44.5688],[12.1473,44.5841],[12.1345,44.6111],[11.9585,44.6526],[11.976,44.675],[12.0,44.669],[12.008,44.6676],[12.0197,44.6668],[12.029,44.6671],[12.0771,44.6726],[12.1184,44.6763],[12.1111,44.6793],[12.1047,44.6835],[12.0971,44.6903],[12.0953,44.6922],[12.0924,44.7002],[12.0933,44.7027],[12.0952,44.703],[12.1004,44.7004],[12.1009,44.7009],[12.1063,44.7191],[12.0939,44.7208],[12.1037,44.7521],[12.1155,44.7501],[12.1134,44.7429],[12.1287,44.7388],[12.1312,44.7336],[12.134,44.7338],[12.1499,44.7383],[12.1641,44.7404],[12.1812,44.7661],[12.1774,44.7766],[12.1754,44.7886],[12.1752,44.7925],[12.1764,44.7927],[12.1774,44.7984],[12.1773,44.8028],[12.173,44.8056],[12.1689,44.8068],[12.1649,44.8061],[12.1621,44.8065],[12.1587,44.8073],[12.1555,44.8093],[12.1708,44.8183],[12.1829,44.8206],[12.1878,44.8184],[12.1941,44.8105],[12.1971,44.8087],[12.1992,44.8083],[12.2071,44.8115],[12.2069,44.8129],[12.2022,44.8157],[12.2011,44.8174],[12.2022,44.8197],[12.2061,44.8205],[12.209,44.8199],[12.2099,44.8166],[12.2143,44.81],[12.2247,44.8018],[12.2308,44.8015],[12.234,44.8034],[12.2438,44.8054],[12.2476,44.8039],[12.2583,44.8032],[12.2663,44.8044],[12.2698,44.806],[12.2821,44.8183],[12.2832,44.8186],[12.2852,44.8181],[12.2847,44.8156],[12.2572,44.7801],[12.2521,44.7694],[12.2481,44.7574],[12.2441,44.7403],[12.241,44.7116],[12.2402,44.6918],[12.2415,44.6858],[12.2436,44.6804],[12.2468,44.6763],[12.2518,44.6764],[12.2524,44.6756],[12.2506,44.662],[12.2589,44.6429],[12.2678,44.6284]]]}},{"type":"Feature","properties":{"i":"038007","n":"Copparo"},"geometry":{"type":"Polygon","coordinates":[[[11.9978,44.9469],[11.9911,44.9415],[12.0032,44.9248],[11.9969,44.924],[11.9935,44.925],[11.9814,44.9222],[11.9793,44.9163],[11.9809,44.9158],[11.9766,44.9108],[11.9696,44.9049],[11.9624,44.9034],[11.9334,44.9014],[11.9347,44.8999],[11.9547,44.8898],[11.9501,44.8879],[11.9061,44.889],[11.9108,44.8594],[11.8916,44.8617],[11.8575,44.8691],[11.8432,44.861],[11.8426,44.8569],[11.839,44.853],[11.8347,44.8551],[11.8308,44.8518],[11.8304,44.8454],[11.8327,44.8411],[11.8444,44.842],[11.8477,44.8407],[11.8445,44.8276],[11.8437,44.826],[11.8413,44.8244],[11.8403,44.8251],[11.8341,44.8363],[11.8323,44.8377],[11.8166,44.836],[11.8021,44.8394],[11.7859,44.8421],[11.7825,44.8416],[11.7739,44.8429],[11.7659,44.8474],[11.7636,44.8514],[11.7636,44.857],[11.7612,44.8591],[11.7596,44.8595],[11.7539,44.859],[11.7509,44.8575],[11.7489,44.8518],[11.7461,44.8488],[11.7404,44.8553],[11.7415,44.8657],[11.752,44.8701],[11.7597,44.8744],[11.7662,44.8825],[11.7675,44.8904],[11.7671,44.8927],[11.7624,44.895],[11.7639,44.9165],[11.7652,44.9222],[11.7682,44.926],[11.7747,44.9271],[11.7738,44.9352],[11.7725,44.9387],[11.7735,44.941],[11.7871,44.9414],[11.7946,44.9399],[11.8021,44.936],[11.8299,44.9377],[11.828,44.9333],[11.8416,44.9335],[11.8463,44.9387],[11.8483,44.9427],[11.8536,44.9469],[11.8615,44.9513],[11.8581,44.9593],[11.8706,44.9584],[11.8755,44.9571],[11.8769,44.9563],[11.8815,44.95],[11.8861,44.9484],[11.8953,44.9475],[11.9139,44.9503],[11.9275,44.9485],[11.9416,44.9491],[11.9744,44.9545],[11.9824,44.9548],[11.9967,44.952],[11.9978,44.9469]]]}},{"type":"Feature","properties":{"i":"038008","n":"Ferrara"},"geometry":{"type":"Polygon","coordinates":[[[11.5491,44.9288],[11.5601,44.9205],[11.5651,44.9189],[11.5727,44.9184],[11.5776,44.9171],[11.5847,44.9132],[11.5876,44.9087],[11.5883,44.8993],[11.5913,44.8932],[11.5935,44.8909],[11.6009,44.889],[11.6174,44.888],[11.6248,44.8892],[11.6713,44.9148],[11.6822,44.9163],[11.6978,44.9202],[11.7076,44.9245],[11.7155,44.9263],[11.7253,44.9265],[11.7236,44.92],[11.7302,44.9074],[11.7329,44.9048],[11.7411,44.9038],[11.7478,44.8995],[11.7624,44.895],[11.7671,44.8927],[11.7675,44.8904],[11.7662,44.8825],[11.7597,44.8744],[11.752,44.8701],[11.7415,44.8657],[11.7404,44.8553],[11.7461,44.8488],[11.7489,44.8518],[11.7509,44.8575],[11.7539,44.859],[11.7596,44.8595],[11.7612,44.8591],[11.7636,44.857],[11.7636,44.8514],[11.7659,44.8474],[11.7739,44.8429],[11.7825,44.8416],[11.7859,44.8421],[11.8021,44.8394],[11.8166,44.836],[11.8236,44.8372],[11.833,44.8374],[11.8403,44.8251],[11.8484,44.8228],[11.8662,44.8086],[11.8771,44.8051],[11.8766,44.803],[11.873,44.7991],[11.8714,44.7887],[11.8686,44.7778],[11.8635,44.7814],[11.8494,44.7869],[11.8294,44.7892],[11.8243,44.7909],[11.8105,44.8009],[11.809,44.8043],[11.8002,44.8114],[11.7952,44.8133],[11.7859,44.814],[11.7782,44.8058],[11.778,44.8018],[11.7749,44.7953],[11.7695,44.7945],[11.7537,44.7966],[11.7539,44.7976],[11.7504,44.7988],[11.7448,44.7982],[11.7361,44.801],[11.7355,44.804],[11.7306,44.801],[11.7137,44.7866],[11.7006,44.7852],[11.6941,44.78],[11.6988,44.7702],[11.7002,44.763],[11.7062,44.7539],[11.714,44.7362],[11.7107,44.734],[11.7085,44.7347],[11.707,44.728],[11.7013,44.725],[11.6992,44.7174],[11.6989,44.7162],[11.7009,44.715],[11.706,44.7156],[11.7082,44.7117],[11.7055,44.7048],[11.7025,44.703],[11.6938,44.7011],[11.6919,44.699],[11.6896,44.6931],[11.691,44.6897],[11.6938,44.6874],[11.6975,44.6817],[11.698,44.6785],[11.6966,44.6745],[11.692,44.6745],[11.6923,44.6778],[11.6902,44.6863],[11.6864,44.6925],[11.6731,44.7018],[11.664,44.7028],[11.6589,44.6978],[11.6549,44.6954],[11.6484,44.6999],[11.6405,44.7018],[11.6341,44.7021],[11.6303,44.7013],[11.6284,44.6978],[11.6173,44.6939],[11.6146,44.6901],[11.5469,44.7568],[11.5594,44.7865],[11.5332,44.8006],[11.5379,44.8083],[11.5358,44.8104],[11.5449,44.821],[11.5407,44.8221],[11.5318,44.8218],[11.5304,44.8181],[11.5228,44.8218],[11.5093,44.834],[11.5077,44.8383],[11.5106,44.8418],[11.5253,44.8453],[11.529,44.8518],[11.5306,44.856],[11.523,44.8543],[11.523,44.8578],[11.5275,44.8739],[11.529,44.8765],[11.5311,44.8774],[11.5362,44.8838],[11.5176,44.8927],[11.491,44.9096],[11.4918,44.9131],[11.4867,44.916],[11.4704,44.9168],[11.4641,44.93],[11.4648,44.933],[11.4642,44.9357],[11.4895,44.9373],[11.5148,44.9365],[11.5297,44.9371],[11.5391,44.9347],[11.5491,44.9288]]]}},{"type":"Feature","properties":{"i":"038010","n":"Jolanda di Savoia"},"geometry":{"type":"Polygon","coordinates":[[[12.0746,44.928],[12.0526,44.9277],[12.0533,44.9092],[12.0433,44.9092],[12.0327,44.9064],[12.033,44.8895],[12.0303,44.8884],[12.044,44.8677],[12.0069,44.8672],[12.0053,44.8667],[12.0254,44.8341],[12.0098,44.8308],[11.9989,44.8228],[11.9887,44.8192],[11.9723,44.8225],[11.9687,44.8222],[11.9635,44.8193],[11.9558,44.8116],[11.9547,44.8088],[11.9468,44.8111],[11.9424,44.8114],[11.9378,44.8098],[11.9288,44.8087],[11.9184,44.8162],[11.9206,44.8197],[11.9217,44.8246],[11.911,44.8276],[11.9091,44.8309],[11.9156,44.8362],[11.8941,44.8385],[11.8937,44.8448],[11.8994,44.8548],[11.904,44.8602],[11.9108,44.8594],[11.9061,44.889],[11.9501,44.8879],[11.9547,44.8898],[11.9347,44.8999],[11.9334,44.9014],[11.9624,44.9034],[11.9696,44.9049],[11.9766,44.9108],[11.9809,44.9158],[11.9793,44.9163],[11.9814,44.9222],[11.9935,44.925],[11.9969,44.924],[12.0032,44.9248],[11.9911,44.9415],[11.9978,44.9469],[12.0071,44.9465],[12.0155,44.9525],[12.0527,44.9384],[12.0745,44.9363],[12.0746,44.928]]]}},{"type":"Feature","properties":{"i":"038011","n":"Lagosanto"},"geometry":{"type":"Polygon","coordinates":[[[12.1555,44.8093],[12.1587,44.8073],[12.1621,44.8065],[12.1649,44.8061],[12.1689,44.8068],[12.173,44.8056],[12.1773,44.8028],[12.1774,44.7984],[12.1764,44.7927],[12.1752,44.7925],[12.1754,44.7886],[12.1774,44.7766],[12.1812,44.7661],[12.1641,44.7404],[12.1499,44.7383],[12.134,44.7338],[12.1312,44.7336],[12.1287,44.7388],[12.1134,44.7429],[12.1155,44.7501],[12.1014,44.7523],[12.1119,44.7577],[12.1135,44.7592],[12.112,44.7652],[12.0982,44.7978],[12.1112,44.8037],[12.118,44.7979],[12.1185,44.7919],[12.122,44.7844],[12.1261,44.7823],[12.1336,44.7817],[12.1376,44.7829],[12.14,44.785],[12.1438,44.7903],[12.144,44.7929],[12.1513,44.7961],[12.1536,44.798],[12.154,44.8014],[12.1534,44.8029],[12.1475,44.8062],[12.1468,44.8078],[12.1473,44.8089],[12.1497,44.8099],[12.1555,44.8093]]]}},{"type":"Feature","properties":{"i":"038012","n":"Masi Torello"},"geometry":{"type":"Polygon","coordinates":[[[11.8294,44.7892],[11.8265,44.7867],[11.8264,44.7851],[11.8337,44.781],[11.8333,44.7784],[11.8294,44.7712],[11.8208,44.7638],[11.821,44.7625],[11.8252,44.7585],[11.8187,44.7555],[11.7996,44.7579],[11.7853,44.7529],[11.7833,44.755],[11.7894,44.7595],[11.7891,44.7605],[11.7859,44.7631],[11.7806,44.7645],[11.7758,44.7725],[11.7708,44.7867],[11.7671,44.7896],[11.7598,44.79],[11.7522,44.7921],[11.7535,44.7966],[11.7695,44.7945],[11.7749,44.7953],[11.778,44.8018],[11.7782,44.8058],[11.7859,44.814],[11.7878,44.8142],[11.799,44.8122],[11.809,44.8043],[11.8105,44.8009],[11.8219,44.7922],[11.8294,44.7892]]]}},{"type":"Feature","properties":{"i":"038014","n":"Mesola"},"geometry":{"type":"Polygon","coordinates":[[[12.2846,44.8937],[12.2769,44.8929],[12.2744,44.8872],[12.2745,44.8836],[12.2721,44.87],[12.2656,44.8688],[12.2637,44.8617],[12.2634,44.842],[12.2692,44.8347],[12.2682,44.8326],[12.2514,44.8237],[12.2445,44.8382],[12.2378,44.846],[12.234,44.8447],[12.2294,44.8451],[12.2263,44.8555],[12.2201,44.8589],[12.216,44.8722],[12.2177,44.8828],[12.2104,44.8868],[12.1981,44.877],[12.1856,44.8654],[12.1814,44.8662],[12.1785,44.8729],[12.1722,44.8797],[12.1574,44.8846],[12.1569,44.8854],[12.1645,44.9037],[12.1413,44.9183],[12.1338,44.9211],[12.1299,44.9204],[12.1159,44.9239],[12.1149,44.9249],[12.1136,44.9296],[12.1109,44.9315],[12.112,44.9335],[12.1135,44.9509],[12.1108,44.9532],[12.1006,44.9582],[12.1003,44.9601],[12.1012,44.9618],[12.1071,44.9618],[12.1131,44.9604],[12.1149,44.9591],[12.1175,44.9548],[12.1175,44.9512],[12.1276,44.9355],[12.1389,44.9296],[12.1444,44.9283],[12.1588,44.9338],[12.1592,44.9365],[12.1611,44.9386],[12.1673,44.9415],[12.1707,44.942],[12.1723,44.9416],[12.1749,44.9394],[12.1766,44.9354],[12.1793,44.9318],[12.1877,44.9264],[12.1942,44.9254],[12.2159,44.9255],[12.225,44.923],[12.2296,44.9247],[12.2354,44.9314],[12.2467,44.9356],[12.2722,44.9433],[12.2762,44.9433],[12.2809,44.9418],[12.2923,44.9316],[12.2949,44.9262],[12.2932,44.9231],[12.2841,44.9142],[12.2822,44.9115],[12.2823,44.9078],[12.2849,44.8995],[12.2853,44.8956],[12.2846,44.8937]]]}},{"type":"Feature","properties":{"i":"038017","n":"Ostellato"},"geometry":{"type":"Polygon","coordinates":[[[11.8686,44.7778],[11.8708,44.777],[11.874,44.7774],[11.8798,44.7813],[11.8834,44.7822],[11.8922,44.7796],[11.9018,44.7805],[11.9084,44.7795],[11.9058,44.7709],[11.9138,44.7574],[11.9099,44.7535],[11.9036,44.7543],[11.902,44.7483],[11.9064,44.7473],[11.9174,44.7473],[11.9308,44.7488],[11.9479,44.7518],[11.9625,44.758],[11.9708,44.7667],[11.9771,44.7684],[11.9818,44.7636],[11.9943,44.7563],[12.0136,44.7572],[12.0969,44.7511],[12.1014,44.7523],[12.1037,44.7521],[12.0939,44.7208],[12.1063,44.7191],[12.1009,44.7009],[12.1004,44.7004],[12.0952,44.703],[12.0933,44.7027],[12.0924,44.7002],[12.0953,44.6922],[12.0971,44.6903],[12.1047,44.6835],[12.1111,44.6793],[12.1184,44.6763],[12.0771,44.6726],[12.029,44.6671],[12.0167,44.6668],[12.0,44.669],[11.957,44.6801],[11.9413,44.6907],[11.8745,44.715],[11.8701,44.7211],[11.8703,44.7233],[11.8662,44.7285],[11.8632,44.7309],[11.8589,44.7297],[11.8544,44.73],[11.8323,44.7531],[11.8252,44.7585],[11.8208,44.7633],[11.8247,44.7676],[11.8294,44.7712],[11.8333,44.7784],[11.8337,44.781],[11.8264,44.7851],[11.8265,44.7867],[11.8294,44.7892],[11.8494,44.7869],[11.8635,44.7814],[11.8686,44.7778]]]}},{"type":"Feature","properties":{"i":"038018","n":"Poggio Renatico"},"geometry":{"type":"Polygon","coordinates":[[[11.5332,44.8006],[11.5593,44.7867],[11.5469,44.7568],[11.5927,44.7117],[11.583,44.7072],[11.5806,44.7088],[11.5453,44.7241],[11.526,44.7314],[11.5161,44.7336],[11.5034,44.7394],[11.4741,44.75],[11.4528,44.7605],[11.4303,44.7608],[11.3992,44.7686],[11.3992,44.7723],[11.402,44.7802],[11.4033,44.7818],[11.4169,44.7894],[11.4204,44.7927],[11.4298,44.7967],[11.4636,44.8057],[11.4758,44.8081],[11.4914,44.8198],[11.495,44.8208],[11.503,44.8148],[11.5332,44.8006]]]}},{"type":"Feature","properties":{"i":"038019","n":"Portomaggiore"},"geometry":{"type":"Polygon","coordinates":[[[11.8252,44.7585],[11.8323,44.7531],[11.8544,44.73],[11.8589,44.7297],[11.8632,44.7309],[11.8662,44.7285],[11.8703,44.7233],[11.8701,44.7211],[11.8745,44.715],[11.9413,44.6907],[11.957,44.6801],[11.976,44.675],[11.9633,44.6587],[11.913,44.6566],[11.8577,44.6502],[11.8408,44.6551],[11.8271,44.6617],[11.826,44.6593],[11.8237,44.6572],[11.8203,44.6569],[11.8189,44.6578],[11.8169,44.6613],[11.8115,44.6653],[11.8058,44.6664],[11.796,44.6669],[11.7868,44.6703],[11.7833,44.6732],[11.7725,44.6766],[11.764,44.6762],[11.7572,44.6854],[11.7514,44.6879],[11.7468,44.6938],[11.7439,44.699],[11.7465,44.7023],[11.7428,44.7071],[11.7313,44.7138],[11.7371,44.7235],[11.7491,44.7339],[11.7552,44.7408],[11.7655,44.7463],[11.7723,44.7475],[11.7727,44.746],[11.7812,44.7507],[11.7833,44.755],[11.7853,44.7529],[11.7996,44.7579],[11.8187,44.7555],[11.8252,44.7585]]]}},{"type":"Feature","properties":{"i":"038022","n":"Vigarano Mainarda"},"geometry":{"type":"Polygon","coordinates":[[[11.5332,44.8006],[11.503,44.8148],[11.495,44.8208],[11.4914,44.8198],[11.488,44.8167],[11.4851,44.8181],[11.479,44.823],[11.479,44.8245],[11.4721,44.8325],[11.4678,44.8308],[11.4651,44.8314],[11.459,44.8336],[11.4526,44.8377],[11.4444,44.839],[11.4428,44.8519],[11.4469,44.8597],[11.4556,44.8662],[11.4675,44.8667],[11.488,44.861],[11.49,44.8624],[11.4872,44.8695],[11.4868,44.8833],[11.4897,44.8939],[11.4901,44.8969],[11.488,44.8977],[11.491,44.9096],[11.5176,44.8927],[11.5362,44.8838],[11.5311,44.8774],[11.529,44.8765],[11.5251,44.8664],[11.523,44.8578],[11.523,44.8543],[11.5302,44.856],[11.5306,44.8551],[11.5256,44.8456],[11.5106,44.8418],[11.5077,44.8383],[11.5093,44.834],[11.5123,44.8309],[11.5228,44.8218],[11.5304,44.8181],[11.5318,44.8218],[11.5407,44.8221],[11.5449,44.821],[11.5358,44.8104],[11.5379,44.8083],[11.5332,44.8006]]]}},{"type":"Feature","properties":{"i":"038023","n":"Voghiera"},"geometry":{"type":"Polygon","coordinates":[[[11.7537,44.7966],[11.7522,44.7921],[11.7598,44.79],[11.7671,44.7896],[11.7708,44.7867],[11.7758,44.7725],[11.7806,44.7645],[11.7864,44.7628],[11.7894,44.7595],[11.7833,44.755],[11.7812,44.7507],[11.7764,44.748],[11.7727,44.746],[11.7723,44.7475],[11.7655,44.7463],[11.7552,44.7408],[11.7491,44.7339],[11.7371,44.7235],[11.7313,44.7138],[11.7288,44.7161],[11.7154,44.7241],[11.716,44.7266],[11.7148,44.7281],[11.707,44.728],[11.7085,44.7347],[11.7107,44.734],[11.714,44.7362],[11.7062,44.7539],[11.7002,44.763],[11.6988,44.7702],[11.6941,44.78],[11.7006,44.7852],[11.7137,44.7866],[11.7306,44.801],[11.7355,44.804],[11.7361,44.801],[11.7448,44.7982],[11.7525,44.7984],[11.7539,44.7976],[11.7537,44.7966]]]}},{"type":"Feature","properties":{"i":"038025","n":"Goro"},"geometry":{"type":"Polygon","coordinates":[[[12.3981,44.7928],[12.3967,44.7903],[12.3929,44.7873],[12.3851,44.7848],[12.3752,44.7835],[12.3304,44.7869],[12.3209,44.7891],[12.3221,44.7915],[12.3232,44.7916],[12.3313,44.7889],[12.3392,44.7878],[12.3421,44.7886],[12.326,44.7953],[12.3258,44.7962],[12.3282,44.7963],[12.3442,44.791],[12.3626,44.7872],[12.3747,44.7856],[12.3813,44.7855],[12.3847,44.7877],[12.3853,44.7899],[12.3744,44.7914],[12.3727,44.7922],[12.3728,44.7964],[12.3524,44.8119],[12.3526,44.8148],[12.3504,44.8173],[12.3355,44.8239],[12.3169,44.8413],[12.2897,44.8416],[12.2855,44.8398],[12.2763,44.832],[12.2589,44.8156],[12.2514,44.8237],[12.2682,44.8326],[12.2692,44.8347],[12.2634,44.842],[12.2637,44.8617],[12.2656,44.8688],[12.2721,44.87],[12.2745,44.8836],[12.2744,44.8872],[12.2769,44.8929],[12.2846,44.8937],[12.284,44.8864],[12.286,44.8724],[12.2867,44.8703],[12.2951,44.8593],[12.2979,44.8572],[12.3019,44.8557],[12.3344,44.8526],[12.3405,44.8501],[12.3435,44.8458],[12.3446,44.8352],[12.347,44.8282],[12.3517,44.8194],[12.3552,44.8151],[12.3631,44.8116],[12.3762,44.8032],[12.3902,44.7959],[12.3981,44.7928]]]}},{"type":"Feature","properties":{"i":"038027","n":"Fiscaglia"},"geometry":{"type":"Polygon","coordinates":[[[12.0982,44.7978],[12.112,44.7652],[12.1135,44.7592],[12.1119,44.7577],[12.1006,44.7519],[12.0969,44.7511],[12.0188,44.7569],[12.0114,44.7573],[11.9943,44.7563],[11.9818,44.7636],[11.9771,44.7684],[11.9708,44.7667],[11.9625,44.758],[11.9479,44.7518],[11.9308,44.7488],[11.9141,44.7469],[11.9047,44.7475],[11.902,44.7483],[11.9036,44.7543],[11.9099,44.7535],[11.9138,44.7574],[11.9058,44.7709],[11.9084,44.7795],[11.9018,44.7805],[11.8935,44.7795],[11.89,44.78],[11.8893,44.7813],[11.8913,44.7895],[11.8955,44.7882],[11.9057,44.7885],[11.9157,44.7937],[11.9239,44.7993],[11.9521,44.806],[11.9542,44.8076],[11.9558,44.8116],[11.9635,44.8193],[11.9687,44.8222],[11.9723,44.8225],[11.9887,44.8192],[11.9989,44.8228],[12.0098,44.8308],[12.0365,44.8366],[12.0374,44.8327],[12.0423,44.8295],[12.0453,44.8313],[12.0579,44.8349],[12.0857,44.8349],[12.0939,44.8336],[12.095,44.8327],[12.0982,44.7978]]]}},{"type":"Feature","properties":{"i":"038028","n":"Terre del Reno"},"geometry":{"type":"Polygon","coordinates":[[[11.4444,44.839],[11.4526,44.8377],[11.459,44.8336],[11.4651,44.8314],[11.4678,44.8308],[11.4721,44.8325],[11.479,44.8245],[11.479,44.823],[11.4851,44.8181],[11.488,44.8167],[11.4758,44.8081],[11.4636,44.8057],[11.4298,44.7967],[11.4204,44.7927],[11.4169,44.7894],[11.4033,44.7818],[11.402,44.7802],[11.3992,44.7723],[11.3992,44.7686],[11.3953,44.7718],[11.3917,44.7768],[11.3883,44.7787],[11.3833,44.7802],[11.3747,44.7802],[11.3693,44.7786],[11.359,44.7737],[11.3448,44.7586],[11.3308,44.7629],[11.339,44.7793],[11.3383,44.7831],[11.349,44.788],[11.3514,44.7989],[11.3522,44.8106],[11.3541,44.8165],[11.3665,44.8182],[11.3871,44.8312],[11.4158,44.8409],[11.4213,44.8408],[11.4323,44.8376],[11.4402,44.8373],[11.4444,44.839]]]}},{"type":"Feature","properties":{"i":"038029","n":"Riva del Po"},"geometry":{"type":"Polygon","coordinates":[[[12.0475,44.977],[12.0554,44.9713],[12.059,44.9699],[12.064,44.9695],[12.0723,44.972],[12.0916,44.9702],[12.0998,44.9661],[12.1012,44.9618],[12.1003,44.9601],[12.1006,44.9582],[12.1108,44.9532],[12.1135,44.9509],[12.112,44.9335],[12.1109,44.9315],[12.1086,44.9305],[12.1061,44.9256],[12.101,44.9215],[12.0883,44.921],[12.0881,44.9281],[12.0746,44.928],[12.0745,44.9363],[12.0527,44.9384],[12.0155,44.9525],[12.0071,44.9465],[11.9978,44.9469],[11.9967,44.952],[11.9824,44.9548],[11.9744,44.9545],[11.9416,44.9491],[11.9275,44.9485],[11.9139,44.9503],[11.8953,44.9475],[11.8861,44.9484],[11.8815,44.95],[11.8769,44.9563],[11.8755,44.9571],[11.8706,44.9584],[11.8581,44.9593],[11.8615,44.9513],[11.8536,44.9469],[11.8483,44.9427],[11.8463,44.9387],[11.8416,44.9335],[11.828,44.9333],[11.8299,44.9377],[11.8021,44.936],[11.7946,44.9399],[11.7871,44.9414],[11.7735,44.941],[11.7725,44.9387],[11.7738,44.9352],[11.7747,44.9271],[11.7682,44.926],[11.7652,44.9222],[11.7635,44.9127],[11.7624,44.895],[11.7478,44.8995],[11.7411,44.9038],[11.7329,44.9048],[11.7302,44.9074],[11.7236,44.92],[11.7253,44.9265],[11.7329,44.9266],[11.743,44.9327],[11.7448,44.935],[11.7447,44.9371],[11.7401,44.9461],[11.7399,44.9486],[11.7412,44.9531],[11.7456,44.9573],[11.7487,44.9585],[11.756,44.959],[11.7838,44.9642],[11.7884,44.9664],[11.7991,44.975],[11.8047,44.977],[11.8178,44.977],[11.8379,44.9728],[11.8559,44.9746],[11.8709,44.9747],[11.8898,44.977],[11.9062,44.9765],[11.9246,44.9747],[11.9387,44.978],[11.9512,44.9835],[11.9627,44.9868],[11.975,44.9858],[11.9966,44.9822],[12.0155,44.9766],[12.0475,44.977]]]}},{"type":"Feature","properties":{"i":"038030","n":"Tresignana"},"geometry":{"type":"Polygon","coordinates":[[[11.904,44.8602],[11.8994,44.8548],[11.8937,44.8448],[11.8941,44.8385],[11.9156,44.8362],[11.9091,44.8309],[11.911,44.8276],[11.9217,44.8246],[11.9206,44.8197],[11.9184,44.8162],[11.9288,44.8087],[11.9378,44.8098],[11.9424,44.8114],[11.9468,44.8111],[11.9546,44.8084],[11.9521,44.806],[11.9239,44.7993],[11.9157,44.7937],[11.9057,44.7885],[11.8955,44.7882],[11.8913,44.7895],[11.8896,44.7838],[11.8895,44.7804],[11.8824,44.7821],[11.8798,44.7813],[11.874,44.7774],[11.8689,44.7774],[11.873,44.7991],[11.8766,44.803],[11.8771,44.8051],[11.8662,44.8086],[11.8484,44.8228],[11.8413,44.8244],[11.8437,44.826],[11.8445,44.8276],[11.8477,44.8407],[11.8444,44.842],[11.8327,44.8411],[11.8304,44.8454],[11.8309,44.852],[11.8347,44.8551],[11.839,44.853],[11.8426,44.8569],[11.8432,44.861],[11.8575,44.8691],[11.891,44.8618],[11.904,44.8602]]]}}]}
