{"type":"FeatureCollection","fonte":"Confini comunali ISTAT via openpolis/geojson-italy — CC BY 4.0","features":[{"type":"Feature","properties":{"i":"071001","n":"Accadia"},"geometry":{"type":"Polygon","coordinates":[[[15.3564,41.2158],[15.3568,41.2083],[15.3544,41.2058],[15.3527,41.2025],[15.3544,41.1966],[15.3598,41.1915],[15.3622,41.191],[15.3629,41.1886],[15.3634,41.1845],[15.3626,41.1649],[15.3507,41.1614],[15.3421,41.1576],[15.3357,41.1534],[15.3349,41.1517],[15.3312,41.1494],[15.3253,41.1505],[15.3126,41.1612],[15.3071,41.1613],[15.2956,41.1598],[15.2909,41.1578],[15.2829,41.1687],[15.2864,41.1719],[15.295,41.1824],[15.3033,41.1897],[15.3048,41.1931],[15.3036,41.1946],[15.3043,41.1957],[15.3069,41.1978],[15.324,41.2074],[15.327,41.211],[15.3262,41.214],[15.3353,41.2085],[15.3384,41.2092],[15.3504,41.217],[15.3564,41.2158]]]}},{"type":"Feature","properties":{"i":"071002","n":"Alberona"},"geometry":{"type":"Polygon","coordinates":[[[15.2429,41.4728],[15.2381,41.4706],[15.2325,41.47],[15.2205,41.4709],[15.2073,41.4705],[15.2038,41.4689],[15.2012,41.4649],[15.1985,41.463],[15.1796,41.4593],[15.171,41.4567],[15.1669,41.4545],[15.1651,41.4529],[15.1639,41.4467],[15.1762,41.4193],[15.1751,41.4171],[15.1723,41.414],[15.1635,41.4098],[15.1576,41.4081],[15.148,41.4071],[15.1419,41.4022],[15.1411,41.4003],[15.1353,41.3951],[15.1246,41.391],[15.1047,41.3885],[15.0983,41.3906],[15.0949,41.3964],[15.0866,41.4042],[15.0869,41.4086],[15.0896,41.415],[15.0917,41.4179],[15.103,41.4209],[15.1008,41.4297],[15.0983,41.434],[15.1048,41.4354],[15.1104,41.442],[15.1124,41.4537],[15.1149,41.457],[15.1252,41.4554],[15.1689,41.4583],[15.1741,41.4613],[15.1771,41.4642],[15.1721,41.4746],[15.1724,41.4771],[15.1761,41.4813],[15.1805,41.4829],[15.215,41.4852],[15.2242,41.4867],[15.2324,41.4905],[15.2425,41.4753],[15.2429,41.4728]]]}},{"type":"Feature","properties":{"i":"071003","n":"Anzano di Puglia"},"geometry":{"type":"Polygon","coordinates":[[[15.3144,41.1039],[15.2978,41.0944],[15.2908,41.095],[15.2874,41.0969],[15.2826,41.0973],[15.2813,41.0993],[15.2621,41.1076],[15.2638,41.1134],[15.2688,41.1145],[15.2751,41.122],[15.279,41.1238],[15.282,41.124],[15.2882,41.1282],[15.2938,41.13],[15.3049,41.1288],[15.3083,41.1256],[15.307,41.1238],[15.3068,41.1214],[15.3074,41.113],[15.3144,41.1039]]]}},{"type":"Feature","properties":{"i":"071004","n":"Apricena"},"geometry":{"type":"Polygon","coordinates":[[[15.5587,41.7477],[15.5392,41.7263],[15.5432,41.7258],[15.5477,41.722],[15.5436,41.7161],[15.5398,41.7156],[15.5468,41.7114],[15.5513,41.7046],[15.553,41.7005],[15.5519,41.6986],[15.5391,41.7042],[15.5289,41.7015],[15.5189,41.6964],[15.5147,41.7007],[15.5157,41.7127],[15.5088,41.7153],[15.5023,41.7149],[15.4983,41.7191],[15.4977,41.7208],[15.4816,41.7264],[15.464,41.724],[15.457,41.7242],[15.4464,41.7283],[15.4338,41.7307],[15.4255,41.7342],[15.4208,41.7396],[15.413,41.746],[15.4068,41.7473],[15.3936,41.7533],[15.383,41.7623],[15.3619,41.7744],[15.3419,41.7718],[15.3339,41.7664],[15.327,41.7691],[15.3185,41.7787],[15.3064,41.8032],[15.3169,41.801],[15.3327,41.8047],[15.3441,41.7998],[15.3451,41.8086],[15.3485,41.8115],[15.3568,41.8116],[15.362,41.8114],[15.3711,41.8086],[15.375,41.8048],[15.3915,41.8023],[15.3969,41.8038],[15.3999,41.8069],[15.4124,41.8157],[15.4215,41.8206],[15.4293,41.8267],[15.4379,41.8299],[15.4454,41.8414],[15.4551,41.8508],[15.4542,41.8409],[15.4553,41.8378],[15.466,41.8325],[15.4737,41.8326],[15.4714,41.8393],[15.4724,41.8417],[15.4849,41.846],[15.4955,41.8469],[15.5028,41.8456],[15.5065,41.843],[15.5088,41.8366],[15.5071,41.8306],[15.5061,41.8294],[15.5059,41.8224],[15.5118,41.814],[15.5181,41.8096],[15.5287,41.7987],[15.5634,41.782],[15.5415,41.7532],[15.545,41.7489],[15.547,41.748],[15.5587,41.7477]]]}},{"type":"Feature","properties":{"i":"071005","n":"Ascoli Satriano"},"geometry":{"type":"MultiPolygon","coordinates":[[[[15.7136,41.2192],[15.7154,41.2168],[15.7087,41.2128],[15.706,41.2175],[15.7136,41.2192]]],[[[15.7248,41.2195],[15.7349,41.2195],[15.7403,41.2155],[15.7245,41.2075],[15.7248,41.2195]]],[[[15.6042,41.2631],[15.6036,41.2599],[15.6179,41.2532],[15.6305,41.2503],[15.6319,41.2481],[15.6442,41.2465],[15.6514,41.253],[15.6565,41.2611],[15.6634,41.257],[15.6666,41.2605],[15.6704,41.2625],[15.6808,41.2518],[15.69,41.2486],[15.7015,41.248],[15.7068,41.2418],[15.7022,41.2385],[15.6973,41.2364],[15.6981,41.2314],[15.7003,41.2297],[15.7003,41.2247],[15.6934,41.2189],[15.6996,41.2169],[15.7022,41.2171],[15.7124,41.2048],[15.7113,41.2033],[15.711,41.1991],[15.7136,41.1958],[15.7135,41.1903],[15.7055,41.1901],[15.6967,41.194],[15.6953,41.194],[15.6938,41.1904],[15.6952,41.1874],[15.7008,41.1871],[15.7061,41.1837],[15.7149,41.1699],[15.7152,41.1684],[15.7137,41.1665],[15.7109,41.1657],[15.7088,41.1672],[15.7076,41.1649],[15.711,41.1569],[15.7144,41.1547],[15.7221,41.1523],[15.7352,41.1546],[15.7425,41.159],[15.7471,41.1593],[15.7567,41.1576],[15.7601,41.1546],[15.7751,41.1368],[15.7829,41.1306],[15.7957,41.1337],[15.7986,41.1336],[15.8094,41.13],[15.8159,41.1225],[15.8127,41.1218],[15.8068,41.117],[15.8069,41.1153],[15.8081,41.1137],[15.8036,41.1109],[15.8016,41.1044],[15.8025,41.1017],[15.7985,41.0916],[15.7906,41.0878],[15.7885,41.0878],[15.7882,41.0907],[15.7829,41.0897],[15.7684,41.0832],[15.7533,41.0948],[15.7526,41.0973],[15.7417,41.0993],[15.7358,41.0994],[15.7322,41.0989],[15.7263,41.0958],[15.7261,41.0934],[15.7203,41.0901],[15.6794,41.0868],[15.6803,41.0897],[15.6818,41.1142],[15.682,41.1199],[15.6808,41.1236],[15.6505,41.1279],[15.6339,41.1272],[15.6352,41.1346],[15.6138,41.1288],[15.6118,41.1329],[15.6083,41.1344],[15.571,41.1416],[15.5644,41.1477],[15.5629,41.1511],[15.548,41.1554],[15.5375,41.1707],[15.5321,41.1814],[15.5224,41.189],[15.515,41.1931],[15.5141,41.1989],[15.5086,41.2009],[15.5053,41.2006],[15.4895,41.2037],[15.4808,41.2072],[15.4828,41.2113],[15.483,41.2142],[15.4822,41.2178],[15.481,41.219],[15.4796,41.2226],[15.478,41.2481],[15.4923,41.2596],[15.4923,41.262],[15.5083,41.2718],[15.5164,41.2724],[15.5146,41.2823],[15.52,41.2896],[15.5305,41.2939],[15.5262,41.2974],[15.5191,41.3186],[15.5187,41.3227],[15.5429,41.3309],[15.5586,41.3375],[15.5668,41.3386],[15.5828,41.3243],[15.593,41.3187],[15.5956,41.3122],[15.6018,41.3006],[15.6014,41.2986],[15.5999,41.2966],[15.5916,41.2924],[15.5873,41.286],[15.5851,41.2775],[15.5829,41.2747],[15.5931,41.2702],[15.6042,41.2631]]]]}},{"type":"Feature","properties":{"i":"071006","n":"Biccari"},"geometry":{"type":"Polygon","coordinates":[[[15.2623,41.3941],[15.2589,41.3903],[15.2525,41.3858],[15.2494,41.3815],[15.2388,41.3863],[15.2347,41.3871],[15.231,41.3866],[15.2286,41.3846],[15.2275,41.3805],[15.223,41.3756],[15.2205,41.3734],[15.2161,41.3713],[15.1856,41.3701],[15.1826,41.3695],[15.1745,41.3657],[15.1714,41.3652],[15.1672,41.3664],[15.1613,41.3661],[15.1507,41.3622],[15.1458,41.3801],[15.1406,41.3909],[15.1405,41.3961],[15.1419,41.4022],[15.148,41.4071],[15.1576,41.4081],[15.1658,41.4107],[15.1723,41.414],[15.1762,41.4193],[15.1639,41.4467],[15.1651,41.4529],[15.1669,41.4545],[15.171,41.4567],[15.1796,41.4593],[15.1985,41.463],[15.2012,41.4649],[15.2038,41.4689],[15.2073,41.4705],[15.2205,41.4709],[15.2325,41.47],[15.2381,41.4706],[15.2429,41.4728],[15.2442,41.4719],[15.2563,41.4744],[15.2576,41.4751],[15.259,41.4775],[15.2639,41.4805],[15.2674,41.4818],[15.2711,41.4816],[15.2828,41.4666],[15.2871,41.4537],[15.2993,41.4497],[15.2922,41.4312],[15.2842,41.418],[15.2821,41.4154],[15.2774,41.4119],[15.2623,41.3941]]]}},{"type":"Feature","properties":{"i":"071007","n":"Bovino"},"geometry":{"type":"Polygon","coordinates":[[[15.4158,41.314],[15.4209,41.308],[15.4371,41.3012],[15.4535,41.2856],[15.4494,41.2806],[15.437,41.2742],[15.4329,41.2694],[15.4256,41.264],[15.3996,41.2504],[15.3933,41.2451],[15.3834,41.241],[15.3736,41.2355],[15.3564,41.2158],[15.3504,41.217],[15.3384,41.2092],[15.3342,41.2088],[15.321,41.2173],[15.3042,41.239],[15.2957,41.2423],[15.2896,41.2408],[15.2912,41.248],[15.296,41.2587],[15.3005,41.2582],[15.3089,41.2547],[15.3256,41.259],[15.3426,41.2671],[15.3403,41.2701],[15.3336,41.275],[15.3305,41.2796],[15.327,41.2991],[15.3278,41.3071],[15.33,41.3083],[15.3464,41.3124],[15.3578,41.3174],[15.3691,41.3178],[15.4005,41.3118],[15.4047,41.3101],[15.4127,41.3121],[15.4158,41.314]]]}},{"type":"Feature","properties":{"i":"071008","n":"Cagnano Varano"},"geometry":{"type":"Polygon","coordinates":[[[15.7377,41.9158],[15.7406,41.9077],[15.7472,41.9003],[15.782,41.8665],[15.8014,41.8491],[15.8044,41.8418],[15.8041,41.8399],[15.8071,41.8321],[15.8127,41.8259],[15.8337,41.8114],[15.8372,41.8077],[15.838,41.8059],[15.837,41.8055],[15.8349,41.798],[15.8383,41.7899],[15.8423,41.7857],[15.8447,41.7814],[15.8392,41.7745],[15.8299,41.7758],[15.8125,41.7712],[15.8049,41.767],[15.7994,41.7658],[15.7935,41.7665],[15.7847,41.7694],[15.7644,41.7787],[15.719,41.7939],[15.7049,41.7971],[15.6977,41.8001],[15.6855,41.8077],[15.6814,41.8112],[15.6686,41.8295],[15.6763,41.8344],[15.6751,41.8367],[15.6736,41.8462],[15.6747,41.8489],[15.6684,41.8529],[15.657,41.8578],[15.6492,41.8587],[15.6464,41.8577],[15.6392,41.862],[15.6354,41.8658],[15.6327,41.8817],[15.6325,41.8899],[15.647,41.9095],[15.6599,41.9216],[15.6661,41.9211],[15.6719,41.9161],[15.6797,41.9147],[15.7013,41.9143],[15.7377,41.9158]]]}},{"type":"Feature","properties":{"i":"071009","n":"Candela"},"geometry":{"type":"Polygon","coordinates":[[[15.4808,41.2072],[15.4895,41.2037],[15.5053,41.2006],[15.5086,41.2009],[15.5141,41.1989],[15.515,41.1931],[15.5224,41.189],[15.5321,41.1814],[15.5375,41.1707],[15.548,41.1554],[15.5629,41.1511],[15.5644,41.1477],[15.571,41.1416],[15.6083,41.1344],[15.6118,41.1329],[15.6138,41.1288],[15.6352,41.1346],[15.6339,41.1272],[15.6505,41.1279],[15.6808,41.1236],[15.682,41.1199],[15.6818,41.1142],[15.6803,41.0897],[15.6794,41.0868],[15.6757,41.0894],[15.6561,41.0912],[15.6531,41.0892],[15.6473,41.0896],[15.6359,41.0925],[15.6308,41.0967],[15.6225,41.0981],[15.6133,41.0982],[15.6042,41.0966],[15.5865,41.0983],[15.5798,41.0968],[15.5743,41.0941],[15.5606,41.1088],[15.5569,41.1112],[15.5481,41.1059],[15.5398,41.1035],[15.5177,41.1039],[15.5046,41.1081],[15.4949,41.1205],[15.4868,41.1357],[15.4912,41.141],[15.4904,41.145],[15.481,41.1513],[15.4788,41.1516],[15.4777,41.1511],[15.4757,41.1543],[15.4789,41.1595],[15.492,41.1662],[15.4957,41.1697],[15.4777,41.1924],[15.4757,41.1936],[15.4654,41.2045],[15.4666,41.2091],[15.4697,41.2102],[15.4808,41.2072]]]}},{"type":"Feature","properties":{"i":"071010","n":"Carapelle"},"geometry":{"type":"Polygon","coordinates":[[[15.7797,41.3809],[15.7866,41.3779],[15.7546,41.3682],[15.7369,41.3699],[15.7273,41.3654],[15.7146,41.3571],[15.7078,41.3608],[15.6949,41.3461],[15.6873,41.3414],[15.6711,41.3486],[15.6592,41.3397],[15.644,41.334],[15.6296,41.3267],[15.6213,41.3408],[15.6329,41.3465],[15.6442,41.35],[15.6604,41.3494],[15.6609,41.3522],[15.6656,41.3578],[15.6783,41.3637],[15.6796,41.3708],[15.683,41.3724],[15.6867,41.3728],[15.6928,41.3718],[15.716,41.3773],[15.7303,41.3797],[15.7326,41.3793],[15.7336,41.3775],[15.7375,41.3742],[15.741,41.3735],[15.7478,41.3765],[15.7459,41.3811],[15.7439,41.3825],[15.7489,41.3891],[15.7609,41.3936],[15.7626,41.3954],[15.764,41.3952],[15.769,41.3912],[15.7752,41.3841],[15.7797,41.3809]]]}},{"type":"Feature","properties":{"i":"071011","n":"Carlantino"},"geometry":{"type":"Polygon","coordinates":[[[15.026,41.6226],[15.029,41.6123],[15.0286,41.6037],[15.0248,41.599],[15.0227,41.6014],[15.0183,41.5989],[15.0097,41.5885],[15.0035,41.5855],[14.9993,41.5845],[14.987,41.5889],[14.98,41.5885],[14.9728,41.5838],[14.9648,41.5862],[14.9595,41.5868],[14.9499,41.5823],[14.9468,41.584],[14.9495,41.5918],[14.9473,41.5962],[14.9474,41.6077],[14.9464,41.6099],[14.9426,41.6113],[14.9365,41.6157],[14.9341,41.6194],[14.9368,41.6232],[14.9496,41.6329],[14.9534,41.6378],[14.9555,41.6423],[14.964,41.6434],[14.9887,41.6378],[14.9896,41.6362],[14.9895,41.6333],[15.0081,41.6224],[15.0222,41.6219],[15.026,41.6226]]]}},{"type":"Feature","properties":{"i":"071012","n":"Carpino"},"geometry":{"type":"Polygon","coordinates":[[[15.9156,41.8377],[15.9193,41.8319],[15.926,41.8267],[15.9408,41.8181],[15.9412,41.8156],[15.9431,41.8127],[15.9509,41.8096],[15.9584,41.8081],[15.9546,41.8057],[15.9433,41.7956],[15.9086,41.7867],[15.8902,41.7801],[15.8819,41.7815],[15.8646,41.787],[15.8475,41.7879],[15.8407,41.7875],[15.8383,41.7899],[15.8349,41.798],[15.837,41.8055],[15.838,41.8059],[15.8372,41.8077],[15.8337,41.8114],[15.8127,41.8259],[15.8071,41.8321],[15.8041,41.8399],[15.8044,41.8418],[15.8014,41.8491],[15.7819,41.8666],[15.8085,41.8666],[15.8094,41.8654],[15.8124,41.8644],[15.8181,41.8635],[15.841,41.8644],[15.8493,41.8696],[15.8553,41.8748],[15.8603,41.8766],[15.8797,41.8632],[15.8919,41.8501],[15.9086,41.8433],[15.9118,41.8399],[15.9156,41.8377]]]}},{"type":"Feature","properties":{"i":"071013","n":"Casalnuovo Monterotaro"},"geometry":{"type":"Polygon","coordinates":[[[15.1131,41.6588],[15.112,41.6546],[15.1157,41.6401],[15.1166,41.6328],[15.1157,41.6252],[15.0865,41.5918],[15.0774,41.5836],[15.0726,41.5812],[15.0639,41.5802],[15.0553,41.5849],[15.0481,41.5936],[15.0417,41.6036],[15.0366,41.615],[15.0302,41.6199],[15.0268,41.6206],[15.0236,41.6275],[15.0255,41.6341],[15.0312,41.6374],[15.0342,41.638],[15.0404,41.6367],[15.0452,41.6369],[15.0447,41.6403],[15.0471,41.6528],[15.0486,41.6559],[15.0541,41.6595],[15.059,41.66],[15.0617,41.6591],[15.0693,41.6607],[15.0734,41.6652],[15.0806,41.6674],[15.09,41.672],[15.0943,41.6662],[15.1018,41.6599],[15.1083,41.658],[15.1131,41.6588]]]}},{"type":"Feature","properties":{"i":"071014","n":"Casalvecchio di Puglia"},"geometry":{"type":"Polygon","coordinates":[[[15.1655,41.6479],[15.1622,41.6433],[15.1623,41.6413],[15.1771,41.6325],[15.1791,41.6309],[15.1794,41.6294],[15.1645,41.6247],[15.1464,41.6153],[15.1401,41.6103],[15.138,41.6069],[15.1381,41.6057],[15.1314,41.5989],[15.1186,41.5929],[15.1154,41.5898],[15.1104,41.587],[15.0881,41.5845],[15.0791,41.5854],[15.0865,41.5918],[15.1157,41.6252],[15.1166,41.6328],[15.1157,41.6401],[15.112,41.6546],[15.1131,41.6588],[15.1189,41.657],[15.1217,41.662],[15.1296,41.6699],[15.1435,41.6761],[15.1464,41.6685],[15.157,41.6575],[15.1424,41.6452],[15.1573,41.6425],[15.1591,41.6436],[15.1629,41.6516],[15.1655,41.6479]]]}},{"type":"Feature","properties":{"i":"071015","n":"Castelluccio dei Sauri"},"geometry":{"type":"Polygon","coordinates":[[[15.5646,41.3383],[15.5586,41.3375],[15.5429,41.3309],[15.5187,41.3227],[15.5191,41.3186],[15.5262,41.2974],[15.5305,41.2939],[15.52,41.2896],[15.5146,41.2823],[15.5164,41.2724],[15.5083,41.2718],[15.4923,41.262],[15.486,41.2682],[15.4775,41.2676],[15.4526,41.2703],[15.4497,41.2764],[15.4464,41.2791],[15.4494,41.2806],[15.4535,41.2856],[15.4371,41.3012],[15.4209,41.308],[15.4158,41.314],[15.4204,41.3181],[15.4363,41.3218],[15.4716,41.327],[15.4792,41.3296],[15.4816,41.3317],[15.5128,41.3402],[15.5136,41.3386],[15.5175,41.3385],[15.5326,41.3404],[15.5391,41.343],[15.5514,41.336],[15.5577,41.3377],[15.5589,41.3388],[15.5643,41.339],[15.5646,41.3383]]]}},{"type":"Feature","properties":{"i":"071016","n":"Castelluccio Valmaggiore"},"geometry":{"type":"Polygon","coordinates":[[[15.2494,41.3815],[15.2488,41.3781],[15.2328,41.3568],[15.2296,41.3497],[15.2289,41.3454],[15.2299,41.3384],[15.2372,41.3259],[15.2306,41.322],[15.2237,41.3198],[15.2205,41.3198],[15.2164,41.321],[15.2095,41.3252],[15.1942,41.3309],[15.1896,41.3335],[15.1831,41.3383],[15.1814,41.3434],[15.1794,41.3456],[15.1777,41.3464],[15.175,41.3461],[15.1726,41.3473],[15.1685,41.3599],[15.1672,41.3664],[15.173,41.3654],[15.1856,41.3701],[15.2161,41.3713],[15.2205,41.3734],[15.223,41.3756],[15.2275,41.3805],[15.2286,41.3846],[15.2318,41.3869],[15.2388,41.3863],[15.2494,41.3815]]]}},{"type":"Feature","properties":{"i":"071017","n":"Castelnuovo della Daunia"},"geometry":{"type":"MultiPolygon","coordinates":[[[[15.2335,41.6185],[15.2333,41.6157],[15.2306,41.6141],[15.2218,41.6129],[15.2145,41.6089],[15.2098,41.6188],[15.2327,41.6195],[15.2335,41.6185]]],[[[15.2115,41.5997],[15.215,41.5916],[15.2137,41.5869],[15.2053,41.5883],[15.2022,41.5915],[15.1999,41.5923],[15.1878,41.5849],[15.1854,41.5791],[15.1812,41.5752],[15.1621,41.5691],[15.1552,41.5616],[15.1516,41.56],[15.1289,41.5632],[15.1173,41.5578],[15.1117,41.5578],[15.0983,41.5718],[15.0939,41.5802],[15.0881,41.5845],[15.1104,41.587],[15.1154,41.5898],[15.1186,41.5929],[15.1314,41.5989],[15.1381,41.6057],[15.138,41.6069],[15.1401,41.6103],[15.1464,41.6153],[15.1645,41.6247],[15.1794,41.6294],[15.1791,41.6309],[15.1716,41.636],[15.1732,41.6382],[15.1893,41.6474],[15.2038,41.648],[15.2039,41.639],[15.1968,41.6301],[15.1942,41.6229],[15.1957,41.615],[15.2017,41.6122],[15.2057,41.6087],[15.2115,41.6008],[15.2115,41.5997]]],[[[15.1655,41.6479],[15.1629,41.6516],[15.1591,41.6436],[15.1573,41.6425],[15.1424,41.6452],[15.157,41.6575],[15.1705,41.6574],[15.1655,41.6479]]],[[[15.1131,41.6588],[15.1083,41.658],[15.1018,41.6599],[15.0943,41.6662],[15.09,41.672],[15.0858,41.6754],[15.0889,41.6811],[15.0911,41.6818],[15.0935,41.6794],[15.0947,41.6742],[15.1008,41.6718],[15.1025,41.6721],[15.104,41.6731],[15.1052,41.676],[15.1034,41.6801],[15.1061,41.6856],[15.1104,41.6881],[15.1171,41.6938],[15.1242,41.6961],[15.1262,41.6928],[15.1284,41.691],[15.1392,41.6866],[15.1459,41.6774],[15.1374,41.673],[15.1296,41.6699],[15.1217,41.662],[15.1189,41.657],[15.1131,41.6588]]]]}},{"type":"Feature","properties":{"i":"071018","n":"Celenza Valfortore"},"geometry":{"type":"Polygon","coordinates":[[[15.0639,41.5802],[15.0672,41.56],[15.0648,41.5501],[15.0637,41.5401],[15.0652,41.5258],[15.0576,41.5298],[15.0508,41.5392],[15.0468,41.5406],[15.0384,41.5404],[15.0317,41.5416],[15.0273,41.5456],[15.0161,41.543],[14.9922,41.5414],[14.988,41.5398],[14.9751,41.5295],[14.9735,41.5273],[14.9729,41.5241],[14.9717,41.5222],[14.9664,41.519],[14.953,41.5223],[14.9451,41.5218],[14.9398,41.5241],[14.9372,41.5275],[14.9359,41.5424],[14.9383,41.5507],[14.9421,41.5589],[14.9439,41.5603],[14.9455,41.5633],[14.948,41.574],[14.9458,41.5768],[14.9468,41.584],[14.9499,41.5823],[14.9595,41.5868],[14.9648,41.5862],[14.9728,41.5838],[14.98,41.5885],[14.987,41.5889],[14.9993,41.5845],[15.0053,41.5862],[15.0108,41.5892],[15.0183,41.5989],[15.0227,41.6014],[15.0248,41.599],[15.0286,41.6037],[15.029,41.6123],[15.0268,41.6206],[15.0302,41.6199],[15.0366,41.615],[15.0417,41.6036],[15.0481,41.5936],[15.0561,41.5842],[15.0639,41.5802]]]}},{"type":"Feature","properties":{"i":"071019","n":"Celle di San Vito"},"geometry":{"type":"Polygon","coordinates":[[[15.2372,41.3259],[15.2402,41.3229],[15.2382,41.3149],[15.2409,41.3113],[15.2356,41.3077],[15.2221,41.3061],[15.2009,41.3057],[15.1997,41.3052],[15.2157,41.2979],[15.2115,41.288],[15.1961,41.2959],[15.1809,41.3019],[15.1758,41.3055],[15.173,41.3109],[15.1742,41.3216],[15.1741,41.3293],[15.1671,41.3453],[15.1651,41.355],[15.1613,41.3661],[15.1672,41.3664],[15.1685,41.3599],[15.1726,41.3473],[15.175,41.3461],[15.1777,41.3464],[15.1794,41.3456],[15.1814,41.3434],[15.1831,41.3383],[15.1942,41.3309],[15.2095,41.3252],[15.2164,41.321],[15.2205,41.3198],[15.2237,41.3198],[15.2292,41.3214],[15.2372,41.3259]]]}},{"type":"Feature","properties":{"i":"071020","n":"Cerignola"},"geometry":{"type":"Polygon","coordinates":[[[15.937,41.4258],[15.9375,41.4247],[15.9727,41.414],[15.9764,41.4139],[15.9818,41.4097],[15.9836,41.4055],[15.9899,41.4028],[15.9999,41.4008],[16.0177,41.3899],[16.0373,41.3834],[16.0344,41.376],[16.0311,41.3739],[15.9921,41.361],[15.9852,41.3602],[15.9819,41.3608],[15.9834,41.3047],[15.9876,41.3046],[15.991,41.297],[15.9947,41.2934],[16.008,41.2736],[16.0089,41.269],[16.0125,41.2643],[16.0224,41.264],[16.0306,41.2681],[16.0402,41.2699],[16.027,41.2483],[16.022,41.2426],[16.0176,41.2394],[16.0166,41.2302],[16.0198,41.2294],[16.0204,41.2205],[16.0129,41.2118],[16.008,41.2089],[16.0046,41.2095],[15.9954,41.206],[15.9965,41.1994],[15.9916,41.1954],[15.9883,41.1967],[15.9816,41.1949],[15.977,41.1914],[15.9686,41.1894],[15.9624,41.1863],[15.9505,41.1834],[15.9429,41.1841],[15.932,41.183],[15.9271,41.1808],[15.9176,41.1741],[15.9134,41.1685],[15.9105,41.1661],[15.9035,41.1628],[15.8929,41.154],[15.8838,41.1508],[15.8733,41.1437],[15.8704,41.1405],[15.8692,41.1362],[15.865,41.131],[15.8589,41.1313],[15.8546,41.1331],[15.8472,41.1297],[15.8461,41.1249],[15.8426,41.1238],[15.8391,41.1245],[15.8395,41.1296],[15.8378,41.1304],[15.8336,41.1301],[15.8302,41.1277],[15.8296,41.1233],[15.8251,41.1184],[15.8215,41.1195],[15.8117,41.1161],[15.8081,41.1137],[15.8069,41.1153],[15.8068,41.117],[15.8127,41.1218],[15.8159,41.1225],[15.8094,41.13],[15.7986,41.1336],[15.7957,41.1337],[15.7829,41.1306],[15.7751,41.1368],[15.7601,41.1546],[15.7567,41.1576],[15.7471,41.1593],[15.7425,41.159],[15.7352,41.1546],[15.7221,41.1523],[15.7144,41.1547],[15.711,41.1569],[15.7076,41.1649],[15.7088,41.1672],[15.7109,41.1657],[15.7137,41.1665],[15.7152,41.1684],[15.7149,41.1699],[15.7061,41.1837],[15.7008,41.1871],[15.6952,41.1874],[15.6938,41.1904],[15.6953,41.194],[15.6967,41.194],[15.7055,41.1901],[15.7135,41.1903],[15.7136,41.1958],[15.711,41.1991],[15.7113,41.2033],[15.7124,41.2048],[15.7022,41.2171],[15.6996,41.2169],[15.6934,41.2189],[15.7003,41.2247],[15.7003,41.2297],[15.6981,41.2314],[15.6973,41.2364],[15.7022,41.2385],[15.7068,41.2418],[15.7015,41.248],[15.7049,41.2505],[15.719,41.2534],[15.7258,41.2454],[15.7361,41.2397],[15.7524,41.2455],[15.7627,41.251],[15.7679,41.2548],[15.7886,41.261],[15.7868,41.2625],[15.7893,41.2634],[15.7979,41.2639],[15.8131,41.2677],[15.8202,41.2735],[15.8205,41.279],[15.8126,41.2825],[15.8202,41.2989],[15.8005,41.3109],[15.8038,41.3124],[15.8104,41.3225],[15.8273,41.3416],[15.8292,41.3448],[15.8003,41.372],[15.7797,41.3809],[15.7846,41.3835],[15.7853,41.3859],[15.788,41.3885],[15.7933,41.3894],[15.8062,41.3935],[15.813,41.3972],[15.814,41.3983],[15.8138,41.3993],[15.8124,41.4014],[15.8096,41.4031],[15.8105,41.4065],[15.8146,41.4162],[15.8216,41.4228],[15.8272,41.4255],[15.853,41.4335],[15.8608,41.4335],[15.8616,41.4324],[15.8666,41.4321],[15.8838,41.4408],[15.8929,41.4437],[15.8959,41.4461],[15.8998,41.451],[15.9021,41.4585],[15.9135,41.4765],[15.9255,41.4693],[15.9283,41.466],[15.9313,41.4273],[15.937,41.4258]],[[15.7248,41.2195],[15.7245,41.2075],[15.7403,41.2155],[15.7349,41.2195],[15.7248,41.2195]],[[15.7136,41.2192],[15.706,41.2175],[15.7087,41.2128],[15.7154,41.2168],[15.7136,41.2192]]]}},{"type":"Feature","properties":{"i":"071021","n":"Chieuti"},"geometry":{"type":"Polygon","coordinates":[[[15.2271,41.9188],[15.219,41.915],[15.2122,41.9134],[15.2113,41.902],[15.2124,41.8983],[15.21,41.8872],[15.2032,41.8706],[15.1985,41.8643],[15.1986,41.8575],[15.1945,41.8529],[15.185,41.8458],[15.1785,41.8355],[15.1676,41.825],[15.1663,41.8257],[15.1668,41.8296],[15.1644,41.8362],[15.1608,41.839],[15.1471,41.8425],[15.1367,41.8427],[15.1309,41.8379],[15.1242,41.8346],[15.1107,41.8319],[15.103,41.8314],[15.1005,41.8336],[15.1037,41.8463],[15.1059,41.8495],[15.1098,41.8493],[15.1138,41.8503],[15.1188,41.854],[15.1189,41.8571],[15.1251,41.8623],[15.1254,41.8684],[15.1297,41.8737],[15.1406,41.8791],[15.1317,41.9034],[15.1355,41.9151],[15.1353,41.9227],[15.1375,41.9263],[15.1682,41.9222],[15.1868,41.9206],[15.2271,41.9188]]]}},{"type":"Feature","properties":{"i":"071022","n":"Deliceto"},"geometry":{"type":"Polygon","coordinates":[[[15.4923,41.262],[15.4923,41.2596],[15.478,41.2481],[15.4796,41.2226],[15.481,41.219],[15.4822,41.2178],[15.4828,41.2113],[15.4808,41.2072],[15.4697,41.2102],[15.4666,41.2091],[15.4654,41.2045],[15.4757,41.1936],[15.463,41.1907],[15.4523,41.1871],[15.4473,41.1873],[15.4432,41.1898],[15.4169,41.1864],[15.4003,41.1889],[15.39,41.1921],[15.3792,41.194],[15.366,41.1935],[15.3615,41.1911],[15.3589,41.1922],[15.3543,41.197],[15.3527,41.2025],[15.3544,41.2058],[15.3568,41.2083],[15.3564,41.2158],[15.3736,41.2355],[15.3834,41.241],[15.3933,41.2451],[15.3996,41.2504],[15.4256,41.264],[15.4329,41.2694],[15.437,41.2742],[15.4419,41.2772],[15.4464,41.2791],[15.4497,41.2764],[15.4526,41.2703],[15.4775,41.2676],[15.486,41.2682],[15.4923,41.262]]]}},{"type":"Feature","properties":{"i":"071023","n":"Faeto"},"geometry":{"type":"Polygon","coordinates":[[[15.2115,41.288],[15.2087,41.2856],[15.201,41.2863],[15.186,41.2859],[15.1755,41.2843],[15.1534,41.2834],[15.1502,41.2827],[15.1492,41.2804],[15.1377,41.2864],[15.1403,41.2919],[15.1374,41.2968],[15.1348,41.299],[15.1268,41.303],[15.1306,41.3172],[15.1375,41.3155],[15.1352,41.3316],[15.146,41.3338],[15.1602,41.3354],[15.1598,41.3379],[15.1547,41.3459],[15.1507,41.3622],[15.1613,41.3661],[15.1651,41.355],[15.1671,41.3453],[15.1741,41.3293],[15.1742,41.3216],[15.173,41.3109],[15.1758,41.3055],[15.1809,41.3019],[15.1961,41.2959],[15.2115,41.288]]]}},{"type":"Feature","properties":{"i":"071024","n":"Foggia"},"geometry":{"type":"Polygon","coordinates":[[[15.5855,41.6099],[15.5829,41.6009],[15.5828,41.5979],[15.5846,41.5902],[15.5865,41.5874],[15.5912,41.588],[15.5924,41.5889],[15.5951,41.5954],[15.5981,41.5949],[15.5986,41.5939],[15.5983,41.59],[15.5967,41.5873],[15.5947,41.5866],[15.5972,41.5832],[15.6012,41.5807],[15.6211,41.5814],[15.6374,41.5852],[15.64,41.5851],[15.6457,41.5831],[15.643,41.5805],[15.643,41.5784],[15.6496,41.5669],[15.6521,41.5668],[15.6522,41.5661],[15.6468,41.5609],[15.635,41.5539],[15.6367,41.5485],[15.6331,41.5465],[15.6408,41.5464],[15.642,41.5449],[15.6502,41.5408],[15.6491,41.5347],[15.6467,41.5333],[15.6395,41.5355],[15.6363,41.5338],[15.6305,41.5357],[15.6275,41.5314],[15.6502,41.5221],[15.6751,41.522],[15.6849,41.4947],[15.6974,41.4978],[15.6972,41.4961],[15.6888,41.4856],[15.6909,41.4852],[15.7047,41.487],[15.705,41.4851],[15.6976,41.4775],[15.7062,41.4645],[15.7142,41.456],[15.7179,41.4511],[15.7176,41.449],[15.7143,41.4461],[15.728,41.4299],[15.7364,41.4248],[15.7461,41.4287],[15.7599,41.4365],[15.7651,41.4342],[15.7598,41.4258],[15.7587,41.4263],[15.7557,41.4257],[15.7745,41.4189],[15.7787,41.4151],[15.7835,41.3974],[15.788,41.3885],[15.7853,41.3859],[15.7846,41.3835],[15.7797,41.3809],[15.7752,41.3841],[15.769,41.3912],[15.764,41.3952],[15.7626,41.3954],[15.7736,41.4001],[15.7718,41.4032],[15.7662,41.4055],[15.764,41.4057],[15.7586,41.4042],[15.7549,41.4073],[15.7564,41.4096],[15.7648,41.4069],[15.7646,41.4142],[15.757,41.4209],[15.7411,41.425],[15.7208,41.4156],[15.7144,41.4164],[15.7133,41.4174],[15.7159,41.423],[15.7104,41.4228],[15.6996,41.4184],[15.7252,41.4091],[15.725,41.4085],[15.7171,41.408],[15.7083,41.4063],[15.7082,41.4041],[15.7117,41.3991],[15.7165,41.3976],[15.7216,41.4027],[15.7313,41.4003],[15.7391,41.3959],[15.7489,41.3891],[15.7439,41.3825],[15.7459,41.3811],[15.7478,41.3765],[15.741,41.3735],[15.7391,41.3736],[15.7336,41.3775],[15.7326,41.3793],[15.7303,41.3797],[15.716,41.3773],[15.6928,41.3718],[15.6867,41.3728],[15.683,41.3724],[15.6796,41.3708],[15.6783,41.3637],[15.6656,41.3578],[15.6609,41.3522],[15.6604,41.3494],[15.6442,41.35],[15.6329,41.3465],[15.6213,41.3408],[15.6198,41.3381],[15.6149,41.3363],[15.5997,41.3403],[15.5867,41.3391],[15.5766,41.3401],[15.5646,41.3383],[15.5643,41.339],[15.56,41.3389],[15.5514,41.336],[15.5391,41.343],[15.5326,41.3404],[15.5175,41.3385],[15.5136,41.3386],[15.5128,41.3402],[15.4816,41.3317],[15.4876,41.3377],[15.4891,41.3416],[15.4882,41.3424],[15.4762,41.3403],[15.4737,41.3451],[15.4688,41.3467],[15.4616,41.3428],[15.4618,41.3376],[15.4558,41.3348],[15.4431,41.3331],[15.4361,41.334],[15.4511,41.3426],[15.4295,41.3382],[15.4449,41.3495],[15.4565,41.356],[15.4608,41.3505],[15.4775,41.3591],[15.4764,41.363],[15.477,41.3701],[15.4843,41.3757],[15.4866,41.3784],[15.4891,41.3824],[15.4934,41.3928],[15.499,41.4004],[15.4981,41.4061],[15.479,41.4007],[15.4525,41.4115],[15.4554,41.4163],[15.4676,41.4569],[15.4715,41.4742],[15.4775,41.5099],[15.4736,41.5155],[15.4621,41.5265],[15.4638,41.5324],[15.4674,41.5351],[15.4711,41.5358],[15.4722,41.5369],[15.4504,41.5594],[15.4563,41.5621],[15.4763,41.563],[15.4782,41.5665],[15.4842,41.5703],[15.4934,41.5707],[15.4801,41.5835],[15.4829,41.5855],[15.49,41.584],[15.5053,41.5945],[15.5155,41.5931],[15.5234,41.5938],[15.533,41.5926],[15.5502,41.5774],[15.5605,41.5796],[15.5715,41.5891],[15.5593,41.5946],[15.5581,41.596],[15.5586,41.5992],[15.5674,41.6121],[15.5674,41.6099],[15.5747,41.6097],[15.5748,41.6119],[15.5855,41.6099]],[[15.4992,41.581],[15.489,41.5782],[15.494,41.5728],[15.5026,41.5735],[15.5044,41.5745],[15.4992,41.581]],[[15.4964,41.5604],[15.4826,41.5534],[15.4884,41.5452],[15.4918,41.5423],[15.4941,41.5506],[15.4978,41.5591],[15.4964,41.5604]]]}},{"type":"Feature","properties":{"i":"071025","n":"Ischitella"},"geometry":{"type":"Polygon","coordinates":[[[15.9181,41.9135],[15.9182,41.9086],[15.9193,41.9056],[15.9206,41.9044],[15.9224,41.904],[15.9272,41.8998],[15.9284,41.8931],[15.9272,41.8823],[15.926,41.8789],[15.9264,41.8744],[15.9317,41.8611],[15.9311,41.8558],[15.9268,41.8546],[15.9226,41.8512],[15.9156,41.8377],[15.9118,41.8399],[15.9086,41.8433],[15.8919,41.8501],[15.8797,41.8632],[15.8603,41.8766],[15.8553,41.8748],[15.8493,41.8696],[15.841,41.8644],[15.8181,41.8635],[15.8124,41.8644],[15.8094,41.8654],[15.8085,41.8666],[15.7819,41.8666],[15.7472,41.9003],[15.7406,41.9077],[15.7377,41.9158],[15.8193,41.9224],[15.8222,41.9179],[15.85,41.915],[15.861,41.9126],[15.8682,41.9088],[15.8734,41.9098],[15.875,41.9111],[15.891,41.9136],[15.9058,41.9146],[15.9181,41.9135]]]}},{"type":"Feature","properties":{"i":"071026","n":"Isole Tremiti"},"geometry":{"type":"MultiPolygon","coordinates":[[[[15.501,42.1233],[15.4997,42.1214],[15.4969,42.1225],[15.501,42.1233]]],[[[15.4931,42.123],[15.4968,42.1198],[15.4919,42.1101],[15.4822,42.1038],[15.4773,42.1057],[15.4765,42.1073],[15.4763,42.1116],[15.4855,42.1196],[15.4879,42.1236],[15.4916,42.1252],[15.4931,42.123]]],[[[15.5098,42.1218],[15.505,42.1195],[15.5052,42.1223],[15.5137,42.1286],[15.5159,42.1288],[15.518,42.1276],[15.5173,42.1258],[15.5098,42.1218]]],[[[15.5158,42.14],[15.5176,42.1385],[15.5163,42.1361],[15.5082,42.1293],[15.508,42.1344],[15.51,42.1378],[15.5123,42.1395],[15.5158,42.14]]],[[[15.7442,42.2265],[15.7517,42.2257],[15.7481,42.2232],[15.7438,42.2249],[15.7436,42.2264],[15.7442,42.2265]]]]}},{"type":"Feature","properties":{"i":"071027","n":"Lesina"},"geometry":{"type":"Polygon","coordinates":[[[15.4654,41.872],[15.4447,41.869],[15.4279,41.8697],[15.4238,41.8711],[15.4182,41.8646],[15.4103,41.8511],[15.3914,41.8334],[15.3906,41.8126],[15.3969,41.8038],[15.3915,41.8023],[15.3809,41.8041],[15.3814,41.8076],[15.3829,41.8101],[15.3831,41.8144],[15.3793,41.8168],[15.3779,41.8319],[15.3781,41.8342],[15.3812,41.8392],[15.3755,41.8481],[15.3677,41.8445],[15.3552,41.8424],[15.3486,41.8429],[15.3345,41.8459],[15.3368,41.8668],[15.3333,41.869],[15.327,41.8701],[15.3211,41.8637],[15.3138,41.8588],[15.3082,41.8504],[15.3087,41.8372],[15.3121,41.8304],[15.3182,41.8226],[15.2935,41.8049],[15.2874,41.8047],[15.2817,41.807],[15.2633,41.8195],[15.2562,41.8295],[15.2539,41.8317],[15.2322,41.8385],[15.2311,41.8401],[15.2325,41.8433],[15.2391,41.8525],[15.2447,41.8575],[15.257,41.8769],[15.2566,41.88],[15.2657,41.9018],[15.2721,41.9073],[15.2765,41.9068],[15.2776,41.9052],[15.2766,41.9033],[15.2777,41.9022],[15.2825,41.9008],[15.2852,41.901],[15.2902,41.9077],[15.2913,41.9103],[15.2946,41.9128],[15.3175,41.9127],[15.3231,41.9138],[15.3234,41.9176],[15.3407,41.9172],[15.3449,41.9126],[15.3532,41.9067],[15.3634,41.9032],[15.3736,41.9017],[15.3917,41.9006],[15.4163,41.9009],[15.4552,41.9035],[15.4865,41.9067],[15.6128,41.9255],[15.5983,41.9183],[15.5892,41.9156],[15.5855,41.9093],[15.587,41.9079],[15.5857,41.9055],[15.576,41.8992],[15.5687,41.8958],[15.5614,41.8939],[15.5553,41.8857],[15.5555,41.8846],[15.5547,41.8839],[15.5509,41.8826],[15.5412,41.8816],[15.5204,41.8886],[15.5123,41.8829],[15.4967,41.8763],[15.4753,41.8716],[15.4693,41.8713],[15.4654,41.872]],[[15.3881,41.8137],[15.3896,41.8133],[15.3906,41.8145],[15.3899,41.818],[15.3852,41.817],[15.3881,41.8137]]]}},{"type":"Feature","properties":{"i":"071028","n":"Lucera"},"geometry":{"type":"Polygon","coordinates":[[[15.3499,41.5831],[15.356,41.5817],[15.3664,41.5779],[15.3751,41.5768],[15.3886,41.5652],[15.3903,41.561],[15.3858,41.5578],[15.3966,41.5563],[15.41,41.5524],[15.4188,41.5531],[15.4199,41.5543],[15.4312,41.5568],[15.4424,41.5565],[15.4504,41.5594],[15.4722,41.5369],[15.4711,41.5358],[15.4674,41.5351],[15.4638,41.5324],[15.4621,41.5265],[15.4736,41.5155],[15.4775,41.5099],[15.4689,41.4625],[15.4639,41.4431],[15.4545,41.4142],[15.4525,41.4115],[15.4308,41.4008],[15.4097,41.3922],[15.3898,41.4065],[15.3812,41.4069],[15.3646,41.4117],[15.3597,41.4107],[15.3464,41.4052],[15.3406,41.4038],[15.3289,41.4054],[15.319,41.4055],[15.3062,41.4018],[15.284,41.4031],[15.2799,41.4015],[15.2775,41.3991],[15.2706,41.3954],[15.2623,41.3941],[15.2774,41.4119],[15.2821,41.4154],[15.2842,41.418],[15.2922,41.4312],[15.2993,41.4497],[15.2871,41.4537],[15.2828,41.4666],[15.2711,41.4816],[15.2674,41.4818],[15.2639,41.4805],[15.259,41.4775],[15.2576,41.4751],[15.2563,41.4744],[15.2442,41.4719],[15.2429,41.4728],[15.2425,41.4753],[15.2326,41.4903],[15.2377,41.4922],[15.2438,41.5083],[15.2482,41.5108],[15.254,41.5282],[15.2595,41.5369],[15.2548,41.5409],[15.2433,41.5466],[15.2379,41.5485],[15.2208,41.551],[15.2212,41.5488],[15.2226,41.5476],[15.2221,41.5466],[15.2099,41.5311],[15.2033,41.5316],[15.2013,41.5339],[15.2003,41.5467],[15.2022,41.5525],[15.2047,41.5553],[15.2064,41.565],[15.2025,41.5693],[15.2007,41.5699],[15.1905,41.5672],[15.1905,41.568],[15.1959,41.5751],[15.2013,41.5771],[15.2053,41.5883],[15.2137,41.5869],[15.215,41.5916],[15.2115,41.5997],[15.2145,41.6001],[15.2249,41.6003],[15.2276,41.5943],[15.2265,41.5919],[15.2187,41.5865],[15.2189,41.5854],[15.2486,41.5751],[15.2591,41.5685],[15.2744,41.5709],[15.2499,41.594],[15.2524,41.596],[15.2709,41.594],[15.2788,41.5944],[15.2799,41.5964],[15.2848,41.5933],[15.2847,41.586],[15.2862,41.5845],[15.2971,41.5892],[15.3079,41.5914],[15.3252,41.5899],[15.3499,41.5831]],[[15.2196,41.557],[15.2197,41.5557],[15.2246,41.5541],[15.2281,41.556],[15.2196,41.557]],[[15.2219,41.5542],[15.2176,41.553],[15.2186,41.5514],[15.2233,41.5537],[15.2219,41.5542]],[[15.2172,41.5518],[15.2111,41.5514],[15.2075,41.5483],[15.2065,41.5462],[15.2067,41.541],[15.2085,41.5405],[15.2115,41.5411],[15.2133,41.5425],[15.2172,41.5432],[15.2186,41.5445],[15.2209,41.5473],[15.2172,41.5518]],[[15.2065,41.5398],[15.2057,41.5394],[15.2076,41.5375],[15.2092,41.5379],[15.2093,41.5395],[15.2065,41.5398]]]}},{"type":"Feature","properties":{"i":"071029","n":"Manfredonia"},"geometry":{"type":"MultiPolygon","coordinates":[[[[15.7626,41.3954],[15.7609,41.3936],[15.7489,41.3891],[15.7391,41.3959],[15.7295,41.4009],[15.7216,41.4027],[15.7165,41.3976],[15.712,41.399],[15.7082,41.4041],[15.7081,41.4061],[15.7171,41.408],[15.725,41.4085],[15.7249,41.4095],[15.6996,41.4184],[15.7104,41.4228],[15.7159,41.423],[15.7133,41.4174],[15.7144,41.4164],[15.7208,41.4156],[15.7411,41.425],[15.757,41.4209],[15.7646,41.4142],[15.7648,41.4069],[15.7564,41.4096],[15.7549,41.4073],[15.7586,41.4042],[15.764,41.4057],[15.7662,41.4055],[15.7718,41.4032],[15.7736,41.4001],[15.7626,41.3954]]],[[[15.851,41.6784],[15.849,41.6788],[15.8491,41.6796],[15.8507,41.6798],[15.851,41.6784]]],[[[15.8535,41.6796],[15.8517,41.6799],[15.8532,41.6803],[15.8535,41.6796]]],[[[15.938,41.6379],[15.9368,41.6357],[15.947,41.6194],[15.9495,41.62],[15.9469,41.6193],[15.9357,41.6365],[15.9298,41.6343],[15.9248,41.6318],[15.9225,41.629],[15.9128,41.6247],[15.9125,41.6242],[15.9143,41.6232],[15.9141,41.622],[15.9124,41.6233],[15.9071,41.6207],[15.9027,41.6169],[15.8991,41.6095],[15.8961,41.598],[15.8946,41.5863],[15.8942,41.5756],[15.8994,41.5479],[15.9037,41.5346],[15.9189,41.5043],[15.924,41.4964],[15.9165,41.4924],[15.9169,41.4909],[15.9154,41.4874],[15.8948,41.4771],[15.8714,41.4707],[15.8636,41.4772],[15.8392,41.4621],[15.8352,41.4616],[15.8366,41.4496],[15.8205,41.4476],[15.8251,41.4429],[15.8273,41.4426],[15.836,41.443],[15.8411,41.4456],[15.849,41.4367],[15.8469,41.4356],[15.8482,41.4321],[15.8272,41.4255],[15.8216,41.4228],[15.8146,41.4162],[15.8105,41.4065],[15.8096,41.4031],[15.8124,41.4014],[15.8139,41.3982],[15.8125,41.3967],[15.8062,41.3935],[15.7933,41.3894],[15.788,41.3885],[15.7835,41.3974],[15.7787,41.4151],[15.7745,41.4189],[15.7557,41.4257],[15.7587,41.4263],[15.7598,41.4258],[15.7651,41.4342],[15.7599,41.4365],[15.7461,41.4287],[15.7364,41.4248],[15.728,41.4299],[15.7143,41.4461],[15.7176,41.449],[15.7179,41.4511],[15.7142,41.456],[15.7062,41.4645],[15.6976,41.4775],[15.705,41.4851],[15.7047,41.487],[15.6909,41.4852],[15.6888,41.4856],[15.6972,41.4961],[15.6974,41.4978],[15.7161,41.5028],[15.7179,41.5046],[15.7153,41.5051],[15.7044,41.5026],[15.7032,41.5069],[15.7093,41.5163],[15.7205,41.5143],[15.7228,41.5199],[15.7227,41.523],[15.7253,41.531],[15.7323,41.5433],[15.7359,41.5543],[15.7403,41.5506],[15.7524,41.561],[15.7509,41.5621],[15.7498,41.5689],[15.7664,41.5761],[15.772,41.5823],[15.7782,41.5859],[15.7804,41.5927],[15.7783,41.6037],[15.784,41.6126],[15.793,41.6135],[15.7985,41.6132],[15.8096,41.6246],[15.8246,41.6277],[15.831,41.6301],[15.8318,41.6352],[15.8291,41.6517],[15.8317,41.6519],[15.8335,41.6594],[15.8314,41.6614],[15.83,41.6664],[15.8321,41.6722],[15.8446,41.674],[15.8537,41.6739],[15.8556,41.6745],[15.8556,41.6785],[15.8532,41.682],[15.8527,41.6846],[15.8551,41.6872],[15.8633,41.6846],[15.866,41.6846],[15.8696,41.6863],[15.8746,41.6911],[15.8711,41.6932],[15.87,41.6961],[15.8714,41.697],[15.884,41.6924],[15.8886,41.6926],[15.9001,41.6893],[15.9021,41.6788],[15.9067,41.6736],[15.9126,41.6611],[15.9221,41.6544],[15.938,41.6379]],[[15.8602,41.6846],[15.8576,41.6835],[15.8563,41.6793],[15.8586,41.6776],[15.861,41.6826],[15.8611,41.6841],[15.8602,41.6846]]]]}},{"type":"Feature","properties":{"i":"071031","n":"Mattinata"},"geometry":{"type":"Polygon","coordinates":[[[16.1649,41.7609],[16.1622,41.7543],[16.1541,41.7509],[16.1501,41.7504],[16.1435,41.7424],[16.1283,41.7384],[16.1214,41.7389],[16.1179,41.7336],[16.1041,41.7292],[16.0975,41.722],[16.0877,41.7144],[16.0734,41.7106],[16.0697,41.7057],[16.0654,41.6957],[16.051,41.6886],[16.0394,41.6813],[16.0296,41.6914],[16.018,41.6989],[16.0104,41.7102],[16.0055,41.7205],[16.0086,41.7263],[16.0149,41.7255],[16.0173,41.7243],[16.0189,41.7252],[16.0189,41.7262],[16.0166,41.7282],[16.0066,41.7333],[16.0002,41.7358],[16.0004,41.7375],[16.0035,41.7402],[16.0137,41.745],[16.0207,41.7462],[16.0225,41.7507],[16.0238,41.7608],[16.0315,41.7588],[16.0356,41.7587],[16.0492,41.762],[16.0509,41.7636],[16.052,41.7697],[16.0617,41.7665],[16.0642,41.7622],[16.0719,41.7645],[16.0739,41.7674],[16.0733,41.7706],[16.0771,41.7798],[16.0798,41.7784],[16.084,41.78],[16.097,41.7805],[16.124,41.776],[16.1319,41.7733],[16.1419,41.7657],[16.1511,41.7626],[16.1649,41.7609]]]}},{"type":"Feature","properties":{"i":"071032","n":"Monteleone di Puglia"},"geometry":{"type":"Polygon","coordinates":[[[15.2829,41.1687],[15.2909,41.1578],[15.2865,41.1554],[15.2802,41.1465],[15.2776,41.1364],[15.2773,41.1284],[15.278,41.1246],[15.279,41.1238],[15.2745,41.1216],[15.2708,41.1163],[15.2678,41.1139],[15.2638,41.1134],[15.2598,41.1164],[15.2357,41.1401],[15.223,41.1422],[15.2176,41.1441],[15.2108,41.1487],[15.2087,41.1537],[15.2086,41.1564],[15.2104,41.1645],[15.2211,41.1777],[15.2235,41.1819],[15.2418,41.19],[15.2511,41.1952],[15.2581,41.1975],[15.2624,41.1976],[15.2635,41.196],[15.2698,41.1776],[15.2749,41.1735],[15.2829,41.1687]]]}},{"type":"Feature","properties":{"i":"071033","n":"Monte Sant'Angelo"},"geometry":{"type":"Polygon","coordinates":[[[16.0412,41.809],[16.039,41.8079],[16.0384,41.8056],[16.0392,41.7983],[16.0433,41.7956],[16.0746,41.7835],[16.0771,41.7798],[16.0733,41.7706],[16.0739,41.7674],[16.0719,41.7645],[16.0642,41.7622],[16.0617,41.7665],[16.052,41.7697],[16.0509,41.7636],[16.0492,41.762],[16.0356,41.7587],[16.0315,41.7588],[16.0238,41.7608],[16.0225,41.7507],[16.0207,41.7462],[16.0137,41.745],[16.0035,41.7402],[16.0004,41.7375],[16.0002,41.7358],[16.0066,41.7333],[16.0166,41.7282],[16.0189,41.7262],[16.0189,41.7252],[16.0173,41.7243],[16.0149,41.7255],[16.0086,41.7263],[16.0055,41.7205],[16.0104,41.7102],[16.018,41.6989],[16.0296,41.6914],[16.0394,41.6813],[16.039,41.6803],[16.0335,41.6775],[16.031,41.6777],[16.0251,41.6755],[16.0143,41.6695],[15.989,41.6613],[15.978,41.6551],[15.9457,41.6432],[15.938,41.6379],[15.9221,41.6544],[15.9126,41.6611],[15.9067,41.6736],[15.9021,41.6788],[15.9001,41.6893],[15.8886,41.6926],[15.884,41.6924],[15.8714,41.697],[15.87,41.6961],[15.868,41.6992],[15.8603,41.7054],[15.8503,41.7069],[15.8379,41.707],[15.8327,41.7084],[15.836,41.717],[15.8354,41.7192],[15.8326,41.7241],[15.8233,41.7321],[15.8176,41.7391],[15.8183,41.7442],[15.82,41.7479],[15.8198,41.7497],[15.812,41.7574],[15.8017,41.7628],[15.8071,41.7682],[15.8125,41.7712],[15.8299,41.7758],[15.8392,41.7745],[15.8447,41.7814],[15.8407,41.7875],[15.8475,41.7879],[15.8646,41.787],[15.8819,41.7815],[15.8902,41.7801],[15.9086,41.7867],[15.9433,41.7956],[15.9546,41.8057],[15.9584,41.8081],[15.9631,41.8108],[15.9708,41.813],[15.9897,41.8207],[15.9953,41.8273],[16.0037,41.8301],[16.0144,41.8298],[16.021,41.825],[16.0316,41.8129],[16.0391,41.8106],[16.0412,41.809]]]}},{"type":"Feature","properties":{"i":"071034","n":"Motta Montecorvino"},"geometry":{"type":"Polygon","coordinates":[[[15.1312,41.5242],[15.1335,41.521],[15.1356,41.5161],[15.1395,41.5121],[15.1453,41.5095],[15.1448,41.5032],[15.1425,41.4949],[15.1318,41.4943],[15.1244,41.4955],[15.1123,41.4951],[15.104,41.4912],[15.1007,41.4882],[15.0949,41.4849],[15.0892,41.4832],[15.0841,41.4827],[15.0828,41.4913],[15.0812,41.5161],[15.0791,41.5194],[15.0752,41.5225],[15.0686,41.5222],[15.0643,41.5258],[15.0806,41.5291],[15.0849,41.5279],[15.0969,41.5271],[15.1253,41.5259],[15.129,41.5236],[15.1312,41.5242]]]}},{"type":"Feature","properties":{"i":"071035","n":"Orsara di Puglia"},"geometry":{"type":"Polygon","coordinates":[[[15.4204,41.3181],[15.4138,41.3125],[15.4047,41.3101],[15.4005,41.3118],[15.3691,41.3178],[15.3578,41.3174],[15.3464,41.3124],[15.33,41.3083],[15.3278,41.3071],[15.327,41.2991],[15.3305,41.2796],[15.3336,41.275],[15.3403,41.2701],[15.3426,41.2671],[15.3256,41.259],[15.3089,41.2547],[15.3005,41.2582],[15.296,41.2587],[15.2912,41.248],[15.2896,41.2408],[15.2798,41.2408],[15.2741,41.2505],[15.264,41.2575],[15.2568,41.2656],[15.2498,41.2708],[15.2357,41.2723],[15.2285,41.2664],[15.2204,41.2652],[15.2157,41.2759],[15.2129,41.2774],[15.208,41.2768],[15.204,41.2774],[15.1997,41.2794],[15.1984,41.2815],[15.201,41.2863],[15.2087,41.2856],[15.2109,41.2873],[15.2157,41.2979],[15.201,41.3042],[15.2001,41.3055],[15.2221,41.3061],[15.2356,41.3077],[15.2409,41.3113],[15.2382,41.3149],[15.2402,41.3229],[15.2459,41.3239],[15.2508,41.3243],[15.2597,41.3234],[15.3024,41.332],[15.3203,41.3279],[15.3248,41.3258],[15.3327,41.3251],[15.3544,41.3267],[15.3643,41.3268],[15.3726,41.3304],[15.3855,41.3331],[15.3925,41.3336],[15.4006,41.3323],[15.4019,41.3295],[15.4047,41.3266],[15.4085,41.3239],[15.4173,41.3226],[15.4204,41.3181]]]}},{"type":"Feature","properties":{"i":"071036","n":"Orta Nova"},"geometry":{"type":"Polygon","coordinates":[[[15.8005,41.3109],[15.7787,41.3229],[15.7752,41.3236],[15.7661,41.3136],[15.768,41.3123],[15.7643,41.3083],[15.7579,41.3102],[15.7634,41.3238],[15.762,41.3256],[15.7592,41.3251],[15.755,41.3191],[15.7523,41.3172],[15.7445,41.3184],[15.7421,41.3085],[15.7347,41.3087],[15.7316,41.2952],[15.7072,41.2904],[15.7096,41.2896],[15.712,41.2874],[15.7126,41.2846],[15.7039,41.2772],[15.6921,41.2776],[15.676,41.2699],[15.6768,41.2733],[15.6826,41.2797],[15.6844,41.2807],[15.6802,41.2867],[15.6714,41.2874],[15.6681,41.2807],[15.6671,41.2722],[15.6734,41.2704],[15.6716,41.2669],[15.6642,41.2693],[15.6551,41.2593],[15.6514,41.253],[15.6442,41.2465],[15.6319,41.2481],[15.6305,41.2503],[15.6179,41.2532],[15.6036,41.2599],[15.6047,41.2642],[15.6181,41.2655],[15.6226,41.2687],[15.6297,41.2767],[15.6356,41.2889],[15.6395,41.2939],[15.6481,41.2998],[15.6532,41.3048],[15.6631,41.3074],[15.6673,41.3071],[15.6746,41.3098],[15.6753,41.3154],[15.6649,41.3221],[15.6559,41.3331],[15.6611,41.3355],[15.6592,41.3397],[15.6711,41.3486],[15.6873,41.3414],[15.6949,41.3461],[15.7078,41.3608],[15.7146,41.3571],[15.7273,41.3654],[15.7369,41.3699],[15.7546,41.3682],[15.7866,41.3779],[15.8003,41.372],[15.8272,41.3472],[15.8292,41.3448],[15.8286,41.3434],[15.8104,41.3225],[15.8038,41.3124],[15.8005,41.3109]],[[15.766,41.3265],[15.7674,41.3257],[15.769,41.3275],[15.7679,41.328],[15.7656,41.3267],[15.766,41.3265]],[[15.7676,41.3221],[15.7696,41.3212],[15.7709,41.3227],[15.7692,41.3236],[15.7676,41.3221]]]}},{"type":"Feature","properties":{"i":"071037","n":"Panni"},"geometry":{"type":"Polygon","coordinates":[[[15.3262,41.214],[15.327,41.211],[15.324,41.2074],[15.3069,41.1978],[15.304,41.1954],[15.3037,41.1943],[15.3048,41.1931],[15.3033,41.1897],[15.295,41.1824],[15.2864,41.1719],[15.2829,41.1687],[15.2749,41.1735],[15.2695,41.1779],[15.2624,41.1976],[15.2623,41.201],[15.2492,41.2176],[15.2461,41.224],[15.245,41.2271],[15.2462,41.2361],[15.2494,41.2372],[15.2592,41.2376],[15.2773,41.241],[15.2896,41.2408],[15.2957,41.2423],[15.3042,41.239],[15.321,41.2173],[15.3262,41.214]]]}},{"type":"Feature","properties":{"i":"071038","n":"Peschici"},"geometry":{"type":"Polygon","coordinates":[[[16.0937,41.9328],[16.0867,41.9257],[16.0732,41.9216],[16.065,41.9151],[16.0626,41.9127],[16.0603,41.9052],[16.0554,41.9014],[16.0495,41.9013],[16.046,41.899],[16.0454,41.8969],[16.0469,41.8895],[16.0482,41.8868],[16.0544,41.8794],[16.0499,41.8785],[16.045,41.8758],[16.0406,41.8722],[16.0325,41.8684],[16.0048,41.8593],[16.0044,41.8563],[16.0021,41.855],[16.0003,41.8563],[15.9977,41.8606],[15.9971,41.8638],[15.9985,41.8759],[16.0028,41.8863],[16.0035,41.8993],[15.9996,41.904],[15.9972,41.9049],[15.9948,41.9204],[15.9948,41.9348],[15.9939,41.9419],[15.9927,41.9439],[15.9896,41.9458],[15.9935,41.9475],[15.9971,41.9471],[16.0,41.9456],[16.0038,41.9457],[16.0092,41.9479],[16.009,41.9496],[16.0128,41.9501],[16.0192,41.9491],[16.024,41.9459],[16.0404,41.9459],[16.0593,41.9477],[16.0799,41.9408],[16.0861,41.9405],[16.0896,41.9387],[16.0937,41.9328]]]}},{"type":"Feature","properties":{"i":"071039","n":"Pietramontecorvino"},"geometry":{"type":"MultiPolygon","coordinates":[[[[15.2065,41.5398],[15.2093,41.5395],[15.2092,41.5379],[15.2076,41.5375],[15.2057,41.5394],[15.2065,41.5398]]],[[[15.2172,41.5518],[15.2209,41.5473],[15.2186,41.5445],[15.2172,41.5432],[15.2133,41.5425],[15.2115,41.5411],[15.2085,41.5405],[15.2067,41.541],[15.2065,41.5462],[15.2075,41.5483],[15.2111,41.5514],[15.2172,41.5518]]],[[[15.2219,41.5542],[15.2233,41.5537],[15.2186,41.5514],[15.2176,41.553],[15.2219,41.5542]]],[[[15.2196,41.557],[15.2281,41.556],[15.2246,41.5541],[15.2197,41.5557],[15.2196,41.557]]],[[[15.2438,41.5083],[15.2273,41.5093],[15.2039,41.5146],[15.1765,41.5283],[15.1725,41.5315],[15.1665,41.5344],[15.1516,41.5392],[15.1508,41.5437],[15.1456,41.5425],[15.1386,41.5378],[15.1371,41.5354],[15.1372,41.5287],[15.134,41.5255],[15.1297,41.5236],[15.1253,41.5259],[15.0969,41.5271],[15.0849,41.5279],[15.0806,41.5291],[15.0652,41.5258],[15.0637,41.5401],[15.0648,41.5501],[15.0672,41.56],[15.0639,41.5802],[15.0726,41.5812],[15.0774,41.5836],[15.0791,41.5854],[15.0881,41.5845],[15.0939,41.5802],[15.0983,41.5718],[15.1117,41.5578],[15.1173,41.5578],[15.1289,41.5632],[15.1516,41.56],[15.1552,41.5616],[15.1621,41.5691],[15.1812,41.5752],[15.1854,41.5791],[15.1878,41.5849],[15.1999,41.5923],[15.2022,41.5915],[15.2053,41.5883],[15.2013,41.5771],[15.1959,41.5751],[15.1912,41.5695],[15.1904,41.5674],[15.2007,41.5699],[15.2025,41.5693],[15.2064,41.565],[15.2047,41.5553],[15.2022,41.5525],[15.2003,41.5467],[15.2013,41.5339],[15.2033,41.5316],[15.2099,41.5311],[15.2221,41.5466],[15.2226,41.5476],[15.2212,41.5488],[15.2208,41.551],[15.2379,41.5485],[15.2433,41.5466],[15.2548,41.5409],[15.2595,41.5369],[15.254,41.5282],[15.2482,41.5108],[15.2438,41.5083]]]]}},{"type":"Feature","properties":{"i":"071040","n":"Poggio Imperiale"},"geometry":{"type":"MultiPolygon","coordinates":[[[[15.3881,41.8137],[15.3852,41.817],[15.3899,41.818],[15.3906,41.8145],[15.3896,41.8133],[15.3881,41.8137]]],[[[15.3809,41.8041],[15.375,41.8048],[15.3711,41.8086],[15.3672,41.8098],[15.362,41.8114],[15.3568,41.8116],[15.3485,41.8115],[15.3451,41.8086],[15.3441,41.7998],[15.3327,41.8047],[15.3169,41.801],[15.2935,41.8049],[15.3182,41.8226],[15.3121,41.8304],[15.3087,41.8372],[15.3082,41.8504],[15.3138,41.8588],[15.3211,41.8637],[15.327,41.8701],[15.3346,41.8687],[15.3368,41.8668],[15.3345,41.8459],[15.3486,41.8429],[15.3552,41.8424],[15.3677,41.8445],[15.3755,41.8481],[15.3812,41.8392],[15.3781,41.8342],[15.3779,41.8319],[15.3793,41.8168],[15.3831,41.8144],[15.3829,41.8101],[15.3814,41.8076],[15.3809,41.8041]]],[[[15.4551,41.8508],[15.4454,41.8414],[15.4378,41.8299],[15.4293,41.8267],[15.4215,41.8206],[15.4124,41.8157],[15.3999,41.8069],[15.3969,41.8038],[15.3951,41.8071],[15.3918,41.8105],[15.3906,41.8126],[15.3914,41.8334],[15.4103,41.8511],[15.4182,41.8646],[15.4238,41.8711],[15.4279,41.8697],[15.4447,41.869],[15.4654,41.872],[15.4651,41.8669],[15.4615,41.8612],[15.4546,41.8553],[15.4541,41.8531],[15.4551,41.8508]]]]}},{"type":"Feature","properties":{"i":"071041","n":"Rignano Garganico"},"geometry":{"type":"Polygon","coordinates":[[[15.6054,41.6026],[15.5804,41.6113],[15.5748,41.6119],[15.5747,41.6097],[15.5674,41.6099],[15.5674,41.6121],[15.5698,41.6163],[15.5551,41.6236],[15.5503,41.6231],[15.5453,41.621],[15.5411,41.6244],[15.5399,41.6271],[15.5346,41.6256],[15.5324,41.6239],[15.5305,41.6253],[15.5296,41.6288],[15.5353,41.6322],[15.5406,41.6463],[15.5315,41.6569],[15.5152,41.6724],[15.5159,41.6733],[15.5244,41.6736],[15.5277,41.6756],[15.5135,41.6877],[15.5189,41.6964],[15.5289,41.7015],[15.5391,41.7042],[15.5519,41.6986],[15.553,41.7005],[15.5513,41.7046],[15.5461,41.7119],[15.5495,41.7113],[15.5608,41.7167],[15.5685,41.7193],[15.5743,41.7199],[15.5802,41.7185],[15.5883,41.7126],[15.591,41.7088],[15.6047,41.7033],[15.613,41.6981],[15.6257,41.6882],[15.6369,41.6733],[15.6378,41.6701],[15.6378,41.6657],[15.6349,41.6613],[15.6375,41.658],[15.6413,41.656],[15.6365,41.6438],[15.62,41.6411],[15.6148,41.6373],[15.6319,41.6273],[15.6261,41.6172],[15.6227,41.6073],[15.6186,41.6042],[15.6099,41.6009],[15.6054,41.6026]]]}},{"type":"Feature","properties":{"i":"071042","n":"Rocchetta Sant'Antonio"},"geometry":{"type":"Polygon","coordinates":[[[15.5743,41.0941],[15.5663,41.0898],[15.5597,41.0882],[15.5568,41.0838],[15.5554,41.0798],[15.5499,41.0746],[15.5439,41.0737],[15.5402,41.0722],[15.5393,41.0704],[15.5403,41.0681],[15.5423,41.0671],[15.5435,41.059],[15.5429,41.0559],[15.5309,41.0575],[15.4896,41.07],[15.4788,41.076],[15.4779,41.0786],[15.4687,41.078],[15.4609,41.076],[15.4512,41.0765],[15.4461,41.078],[15.4432,41.0797],[15.4262,41.0951],[15.4221,41.0962],[15.4124,41.0966],[15.4087,41.1009],[15.4008,41.106],[15.3964,41.1068],[15.3988,41.1096],[15.4166,41.1219],[15.4267,41.1305],[15.4381,41.1373],[15.4517,41.1442],[15.4617,41.1465],[15.4713,41.1464],[15.4766,41.1481],[15.4775,41.1489],[15.4777,41.1511],[15.4788,41.1516],[15.4823,41.1506],[15.4904,41.145],[15.4912,41.141],[15.4868,41.1357],[15.4949,41.1205],[15.5046,41.1081],[15.5177,41.1039],[15.5398,41.1035],[15.5481,41.1059],[15.5569,41.1112],[15.5606,41.1088],[15.5743,41.0941]]]}},{"type":"Feature","properties":{"i":"071043","n":"Rodi Garganico"},"geometry":{"type":"Polygon","coordinates":[[[15.9181,41.9135],[15.9058,41.9146],[15.891,41.9136],[15.875,41.9111],[15.8734,41.9098],[15.8682,41.9088],[15.861,41.9126],[15.85,41.915],[15.8222,41.9179],[15.8193,41.9224],[15.8464,41.9258],[15.8618,41.9267],[15.8838,41.9306],[15.8984,41.93],[15.9332,41.9344],[15.9303,41.929],[15.9169,41.9178],[15.9181,41.9135]]]}},{"type":"Feature","properties":{"i":"071044","n":"Roseto Valfortore"},"geometry":{"type":"Polygon","coordinates":[[[15.1507,41.3622],[15.1547,41.3459],[15.1598,41.3379],[15.1602,41.3354],[15.146,41.3338],[15.1352,41.3316],[15.1375,41.3155],[15.134,41.3167],[15.1132,41.3193],[15.1095,41.3211],[15.1016,41.3269],[15.0977,41.3284],[15.0908,41.3285],[15.0794,41.3303],[15.0722,41.3325],[15.0697,41.3383],[15.0675,41.3476],[15.0683,41.3506],[15.0639,41.3572],[15.0585,41.3721],[15.0678,41.3762],[15.0799,41.3881],[15.0983,41.3906],[15.1047,41.3885],[15.1246,41.391],[15.1353,41.3951],[15.1411,41.4003],[15.1406,41.3909],[15.1458,41.3801],[15.1507,41.3622]]]}},{"type":"Feature","properties":{"i":"071046","n":"San Giovanni Rotondo"},"geometry":{"type":"MultiPolygon","coordinates":[[[[15.8602,41.6846],[15.8611,41.6841],[15.861,41.6826],[15.8586,41.6776],[15.8563,41.6793],[15.8576,41.6835],[15.8602,41.6846]]],[[[15.8017,41.7628],[15.812,41.7574],[15.8198,41.7497],[15.82,41.7479],[15.8183,41.7442],[15.8176,41.7391],[15.8233,41.7321],[15.8326,41.7241],[15.8354,41.7192],[15.836,41.717],[15.8327,41.7084],[15.8379,41.707],[15.8503,41.7069],[15.8609,41.7053],[15.868,41.6992],[15.8711,41.6932],[15.8744,41.6915],[15.8745,41.6907],[15.8716,41.6877],[15.866,41.6846],[15.8633,41.6846],[15.8551,41.6872],[15.8527,41.6846],[15.8532,41.682],[15.8556,41.6785],[15.8556,41.6745],[15.8537,41.6739],[15.8446,41.674],[15.8321,41.6722],[15.83,41.6664],[15.8314,41.6614],[15.8335,41.6594],[15.8317,41.6519],[15.8291,41.6517],[15.8318,41.6352],[15.831,41.6301],[15.8246,41.6277],[15.8096,41.6246],[15.7985,41.6132],[15.793,41.6135],[15.7838,41.6124],[15.7783,41.6037],[15.7804,41.5927],[15.7782,41.5859],[15.772,41.5823],[15.7664,41.5761],[15.7498,41.5689],[15.7509,41.5621],[15.7524,41.561],[15.7403,41.5506],[15.7359,41.5543],[15.7323,41.5433],[15.7253,41.531],[15.7227,41.523],[15.7228,41.5199],[15.7205,41.5143],[15.6848,41.5218],[15.6751,41.522],[15.6761,41.5232],[15.6757,41.5238],[15.6707,41.5246],[15.6566,41.5302],[15.6539,41.5344],[15.6373,41.5278],[15.6364,41.5283],[15.6491,41.5347],[15.6502,41.5408],[15.642,41.5449],[15.6408,41.5464],[15.6447,41.5526],[15.6361,41.5542],[15.6474,41.5614],[15.6509,41.5643],[15.6521,41.5668],[15.661,41.5662],[15.6692,41.5679],[15.6753,41.5639],[15.6812,41.5644],[15.6891,41.5677],[15.6969,41.5667],[15.704,41.5668],[15.7118,41.5818],[15.7173,41.5887],[15.7077,41.6007],[15.7084,41.6038],[15.694,41.6061],[15.6853,41.6066],[15.6788,41.6086],[15.673,41.6116],[15.6695,41.6188],[15.666,41.6218],[15.662,41.6271],[15.6623,41.6284],[15.6716,41.6294],[15.6814,41.6251],[15.6907,41.623],[15.7029,41.6267],[15.7055,41.6323],[15.7076,41.6437],[15.6836,41.6433],[15.6873,41.6509],[15.6857,41.661],[15.6809,41.685],[15.6727,41.7077],[15.6734,41.7103],[15.6837,41.7151],[15.6821,41.7213],[15.6792,41.7271],[15.6786,41.7295],[15.6796,41.731],[15.7022,41.7386],[15.7311,41.7509],[15.7598,41.762],[15.7698,41.7642],[15.8017,41.7628]],[[15.8535,41.6796],[15.8532,41.6803],[15.8517,41.6799],[15.8535,41.6796]],[[15.851,41.6784],[15.8507,41.6798],[15.8491,41.6796],[15.849,41.6788],[15.851,41.6784]],[[15.6761,41.5537],[15.678,41.5552],[15.6799,41.5552],[15.6804,41.545],[15.6985,41.5512],[15.6964,41.5538],[15.6851,41.5605],[15.6805,41.5616],[15.6725,41.5572],[15.6738,41.5546],[15.6761,41.5537]]]]}},{"type":"Feature","properties":{"i":"071047","n":"San Marco in Lamis"},"geometry":{"type":"MultiPolygon","coordinates":[[[[15.6751,41.522],[15.6848,41.5218],[15.7026,41.5184],[15.7093,41.5163],[15.7032,41.5069],[15.7044,41.5026],[15.7153,41.5051],[15.7179,41.5046],[15.7161,41.5028],[15.7092,41.5007],[15.7051,41.5003],[15.6849,41.4947],[15.6751,41.522]]],[[[15.6751,41.522],[15.6502,41.5221],[15.6373,41.5278],[15.6539,41.5344],[15.6566,41.5302],[15.6707,41.5246],[15.6757,41.5238],[15.6761,41.5232],[15.6751,41.522]]],[[[15.6364,41.5283],[15.6275,41.5314],[15.6305,41.5357],[15.6363,41.5338],[15.6395,41.5355],[15.6467,41.5333],[15.6364,41.5283]]],[[[15.6408,41.5464],[15.6331,41.5465],[15.6367,41.5485],[15.635,41.5539],[15.6361,41.5542],[15.6447,41.5526],[15.6408,41.5464]]],[[[15.6761,41.5537],[15.6738,41.5546],[15.6725,41.5572],[15.6805,41.5616],[15.6851,41.5605],[15.6964,41.5538],[15.6985,41.5512],[15.6804,41.545],[15.6799,41.5552],[15.678,41.5552],[15.6761,41.5537]]],[[[15.8071,41.7682],[15.8017,41.7628],[15.7698,41.7642],[15.7598,41.762],[15.7311,41.7509],[15.7022,41.7386],[15.6796,41.731],[15.6786,41.7295],[15.6821,41.7213],[15.6837,41.7151],[15.6734,41.7103],[15.6727,41.7077],[15.6809,41.685],[15.6857,41.661],[15.6873,41.6509],[15.6836,41.6433],[15.7076,41.6437],[15.7055,41.6323],[15.7029,41.6267],[15.6907,41.623],[15.6814,41.6251],[15.6716,41.6294],[15.6623,41.6284],[15.662,41.6271],[15.666,41.6218],[15.6695,41.6188],[15.673,41.6116],[15.6788,41.6086],[15.6853,41.6066],[15.694,41.6061],[15.7084,41.6038],[15.7077,41.6007],[15.7173,41.5887],[15.7118,41.5818],[15.704,41.5668],[15.6969,41.5667],[15.6891,41.5677],[15.6812,41.5644],[15.6753,41.5639],[15.6692,41.5679],[15.661,41.5662],[15.6496,41.5669],[15.643,41.5784],[15.643,41.5805],[15.6457,41.5831],[15.645,41.5835],[15.6374,41.5852],[15.6211,41.5814],[15.6012,41.5807],[15.5972,41.5832],[15.5947,41.5866],[15.5967,41.5873],[15.5985,41.5906],[15.5986,41.5939],[15.5981,41.5949],[15.5967,41.5952],[15.5951,41.5954],[15.5919,41.5883],[15.5865,41.5874],[15.5846,41.5902],[15.5828,41.5979],[15.5829,41.6009],[15.5839,41.6034],[15.5979,41.5976],[15.6054,41.6026],[15.6099,41.6009],[15.6186,41.6042],[15.6227,41.6073],[15.6261,41.6172],[15.6319,41.6273],[15.6148,41.6373],[15.62,41.6411],[15.6365,41.6438],[15.6413,41.656],[15.6375,41.658],[15.6349,41.6613],[15.6378,41.6657],[15.6378,41.6701],[15.6369,41.6733],[15.6257,41.6882],[15.613,41.6981],[15.6047,41.7033],[15.591,41.7088],[15.5883,41.7126],[15.5802,41.7185],[15.5743,41.7199],[15.5685,41.7193],[15.5574,41.7154],[15.549,41.7112],[15.5443,41.7125],[15.5398,41.7156],[15.5436,41.7161],[15.5478,41.7213],[15.5432,41.7258],[15.5392,41.7263],[15.5587,41.7477],[15.5635,41.7463],[15.5772,41.7392],[15.5809,41.734],[15.5828,41.7256],[15.5839,41.725],[15.586,41.7354],[15.5805,41.7424],[15.5803,41.7478],[15.584,41.7571],[15.5923,41.7654],[15.5945,41.7697],[15.5944,41.7747],[15.598,41.7797],[15.6058,41.7862],[15.6156,41.7915],[15.6209,41.7961],[15.6328,41.8143],[15.6627,41.8331],[15.6686,41.8295],[15.6814,41.8112],[15.6855,41.8077],[15.6977,41.8001],[15.7049,41.7971],[15.719,41.7939],[15.7644,41.7787],[15.7895,41.7676],[15.7994,41.7658],[15.8071,41.7682]]]]}},{"type":"Feature","properties":{"i":"071048","n":"San Marco la Catola"},"geometry":{"type":"Polygon","coordinates":[[[15.0591,41.5287],[15.0558,41.5296],[15.0479,41.5277],[15.0399,41.5238],[15.0336,41.5077],[15.0261,41.5],[15.0221,41.4938],[15.0188,41.4882],[15.0183,41.4836],[15.0168,41.4806],[15.0076,41.4864],[14.9989,41.4944],[14.9793,41.5057],[14.9664,41.519],[14.9717,41.5222],[14.9729,41.5241],[14.9735,41.5273],[14.9751,41.5295],[14.988,41.5398],[14.9922,41.5414],[15.0161,41.543],[15.0273,41.5456],[15.0317,41.5416],[15.0384,41.5404],[15.0468,41.5406],[15.0508,41.5392],[15.0563,41.531],[15.0591,41.5287]]]}},{"type":"Feature","properties":{"i":"071049","n":"San Nicandro Garganico"},"geometry":{"type":"Polygon","coordinates":[[[15.6599,41.9216],[15.647,41.9095],[15.6325,41.8899],[15.6327,41.8817],[15.6354,41.8658],[15.6392,41.862],[15.6464,41.8577],[15.6492,41.8587],[15.657,41.8578],[15.6684,41.8529],[15.6747,41.8489],[15.6736,41.8462],[15.6751,41.8367],[15.6763,41.8344],[15.6686,41.8295],[15.6627,41.8331],[15.6387,41.8184],[15.6328,41.8143],[15.6209,41.7961],[15.6156,41.7915],[15.6058,41.7862],[15.598,41.7797],[15.5944,41.7747],[15.5941,41.7686],[15.5923,41.7654],[15.584,41.7571],[15.5803,41.7478],[15.5805,41.7424],[15.586,41.7354],[15.5839,41.725],[15.5828,41.7256],[15.5809,41.734],[15.5772,41.7392],[15.5635,41.7463],[15.5574,41.7481],[15.547,41.748],[15.545,41.7489],[15.5415,41.7532],[15.5634,41.782],[15.5287,41.7987],[15.5181,41.8096],[15.5118,41.814],[15.5059,41.8224],[15.5061,41.8294],[15.5071,41.8306],[15.5088,41.8366],[15.5065,41.843],[15.5028,41.8456],[15.4955,41.8469],[15.4849,41.846],[15.4717,41.8411],[15.4714,41.8393],[15.4737,41.8331],[15.4728,41.8321],[15.4653,41.8328],[15.4553,41.8378],[15.4543,41.84],[15.4551,41.8496],[15.4544,41.8549],[15.4615,41.8612],[15.4651,41.8669],[15.4654,41.872],[15.4693,41.8713],[15.4753,41.8716],[15.4967,41.8763],[15.5123,41.8829],[15.5204,41.8886],[15.5412,41.8816],[15.5509,41.8826],[15.5547,41.8839],[15.5555,41.8846],[15.5553,41.8857],[15.5614,41.8939],[15.5687,41.8958],[15.576,41.8992],[15.5857,41.9055],[15.587,41.9079],[15.5855,41.9093],[15.5892,41.9156],[15.5983,41.9183],[15.6198,41.9287],[15.634,41.9271],[15.6551,41.9215],[15.6599,41.9216]]]}},{"type":"Feature","properties":{"i":"071050","n":"San Paolo di Civitate"},"geometry":{"type":"Polygon","coordinates":[[[15.2935,41.8049],[15.3064,41.8032],[15.3202,41.7761],[15.3265,41.7695],[15.3339,41.7664],[15.3302,41.7642],[15.3187,41.7602],[15.3154,41.7601],[15.3091,41.7619],[15.3058,41.7593],[15.298,41.7503],[15.2964,41.7442],[15.3048,41.7414],[15.3091,41.7388],[15.3191,41.729],[15.3247,41.7202],[15.3167,41.7224],[15.2964,41.7177],[15.2756,41.7219],[15.2717,41.7218],[15.2446,41.7135],[15.2364,41.7123],[15.2189,41.7177],[15.2105,41.7245],[15.208,41.7285],[15.2039,41.7328],[15.1944,41.7339],[15.189,41.7354],[15.19,41.7371],[15.1898,41.7387],[15.1876,41.7395],[15.1904,41.7482],[15.1975,41.7537],[15.2053,41.7654],[15.2082,41.7725],[15.2114,41.7756],[15.219,41.7792],[15.2244,41.7847],[15.229,41.7997],[15.2396,41.8131],[15.2422,41.8209],[15.2462,41.8259],[15.2462,41.8301],[15.2448,41.8346],[15.2548,41.831],[15.2633,41.8195],[15.2817,41.807],[15.2874,41.8047],[15.2935,41.8049]]]}},{"type":"Feature","properties":{"i":"071051","n":"San Severo"},"geometry":{"type":"MultiPolygon","coordinates":[[[[15.4964,41.5604],[15.4978,41.5591],[15.4941,41.5506],[15.4918,41.5423],[15.4884,41.5452],[15.4826,41.5534],[15.4964,41.5604]]],[[[15.4992,41.581],[15.5044,41.5745],[15.5026,41.5735],[15.494,41.5728],[15.489,41.5782],[15.4992,41.581]]],[[[15.5839,41.6034],[15.5855,41.6099],[15.6054,41.6026],[15.5979,41.5976],[15.5839,41.6034]]],[[[15.5189,41.6964],[15.5135,41.6877],[15.5277,41.6756],[15.5244,41.6736],[15.5159,41.6733],[15.5152,41.6724],[15.5315,41.6569],[15.5406,41.6463],[15.5353,41.6322],[15.5296,41.6288],[15.5305,41.6253],[15.5324,41.6239],[15.5346,41.6256],[15.5399,41.6271],[15.5411,41.6244],[15.5453,41.621],[15.5503,41.6231],[15.5551,41.6236],[15.5698,41.6163],[15.5586,41.5992],[15.5581,41.596],[15.5593,41.5946],[15.5715,41.5891],[15.5605,41.5796],[15.5502,41.5774],[15.533,41.5926],[15.5234,41.5938],[15.5155,41.5931],[15.5053,41.5945],[15.49,41.584],[15.4829,41.5855],[15.4801,41.5835],[15.4934,41.5707],[15.4842,41.5703],[15.4782,41.5665],[15.4763,41.563],[15.4549,41.5619],[15.4424,41.5565],[15.4312,41.5568],[15.4199,41.5543],[15.4188,41.5531],[15.41,41.5524],[15.3966,41.5563],[15.3858,41.5578],[15.3903,41.561],[15.3886,41.5652],[15.3751,41.5768],[15.3664,41.5779],[15.356,41.5817],[15.3499,41.5831],[15.352,41.5987],[15.3515,41.5994],[15.3217,41.6034],[15.3093,41.6081],[15.3027,41.6159],[15.32,41.6247],[15.3245,41.624],[15.3324,41.6217],[15.3413,41.6132],[15.3358,41.6058],[15.3517,41.6012],[15.3564,41.6141],[15.3487,41.6254],[15.34,41.6314],[15.333,41.6328],[15.3254,41.6405],[15.3195,41.6413],[15.3177,41.641],[15.315,41.6388],[15.3136,41.639],[15.3147,41.6526],[15.3193,41.6635],[15.3217,41.6679],[15.3254,41.6716],[15.3279,41.6782],[15.327,41.6845],[15.3296,41.6943],[15.3302,41.7026],[15.3328,41.7106],[15.3247,41.7202],[15.3191,41.729],[15.3098,41.7383],[15.3048,41.7414],[15.2964,41.7442],[15.298,41.7503],[15.3058,41.7593],[15.3091,41.7619],[15.3154,41.7601],[15.3187,41.7602],[15.3302,41.7642],[15.3419,41.7718],[15.3619,41.7744],[15.383,41.7623],[15.3936,41.7533],[15.4068,41.7473],[15.413,41.746],[15.4208,41.7396],[15.4255,41.7342],[15.4338,41.7307],[15.4464,41.7283],[15.457,41.7242],[15.464,41.724],[15.4816,41.7264],[15.4977,41.7208],[15.4983,41.7191],[15.5023,41.7149],[15.5088,41.7153],[15.5157,41.7127],[15.5147,41.7007],[15.5189,41.6964]]]]}},{"type":"Feature","properties":{"i":"071052","n":"Sant'Agata di Puglia"},"geometry":{"type":"Polygon","coordinates":[[[15.4777,41.1511],[15.4775,41.1489],[15.4766,41.1481],[15.4713,41.1464],[15.4617,41.1465],[15.4517,41.1442],[15.4339,41.1348],[15.4267,41.1305],[15.4166,41.1219],[15.3988,41.1096],[15.3928,41.1008],[15.3708,41.0867],[15.3664,41.0849],[15.3589,41.088],[15.3523,41.0939],[15.349,41.0951],[15.3375,41.0953],[15.3198,41.1],[15.3144,41.1039],[15.3074,41.113],[15.3068,41.1214],[15.307,41.1238],[15.3083,41.1256],[15.3049,41.1288],[15.2938,41.13],[15.2882,41.1282],[15.2811,41.1237],[15.278,41.1246],[15.2773,41.1284],[15.2776,41.1364],[15.2802,41.1465],[15.2865,41.1554],[15.2946,41.1596],[15.3071,41.1613],[15.3126,41.1612],[15.3253,41.1505],[15.3312,41.1494],[15.3349,41.1517],[15.3357,41.1534],[15.3421,41.1576],[15.3507,41.1614],[15.3626,41.1649],[15.3634,41.1845],[15.3622,41.191],[15.3632,41.1924],[15.366,41.1935],[15.3792,41.194],[15.39,41.1921],[15.4003,41.1889],[15.4169,41.1864],[15.4432,41.1898],[15.4473,41.1873],[15.4523,41.1871],[15.463,41.1907],[15.4766,41.1933],[15.4834,41.1858],[15.4957,41.1697],[15.492,41.1662],[15.4789,41.1595],[15.4757,41.1547],[15.4777,41.1511]]]}},{"type":"Feature","properties":{"i":"071053","n":"Serracapriola"},"geometry":{"type":"Polygon","coordinates":[[[15.3234,41.9176],[15.3233,41.9141],[15.3213,41.9132],[15.2946,41.9128],[15.2913,41.9103],[15.2902,41.9077],[15.2852,41.901],[15.2825,41.9008],[15.2777,41.9022],[15.2766,41.9033],[15.2776,41.9052],[15.2765,41.9068],[15.2721,41.9073],[15.2657,41.9018],[15.2566,41.88],[15.257,41.8769],[15.2447,41.8575],[15.2391,41.8525],[15.2325,41.8433],[15.2311,41.8401],[15.2322,41.8385],[15.2448,41.8346],[15.2462,41.8301],[15.2462,41.8259],[15.2422,41.8209],[15.2396,41.8131],[15.229,41.7997],[15.2244,41.7847],[15.219,41.7792],[15.2114,41.7756],[15.2082,41.7725],[15.2053,41.7654],[15.1975,41.7537],[15.1904,41.7482],[15.1876,41.7395],[15.1898,41.7387],[15.19,41.7371],[15.1882,41.7334],[15.185,41.7307],[15.1792,41.7271],[15.1761,41.7272],[15.1605,41.7353],[15.1406,41.7431],[15.122,41.7567],[15.1195,41.7608],[15.1166,41.749],[15.1153,41.7509],[15.0986,41.7652],[15.0988,41.7716],[15.1024,41.7824],[15.1072,41.7852],[15.1109,41.7863],[15.1147,41.7892],[15.117,41.7992],[15.1161,41.8042],[15.1137,41.8082],[15.1164,41.8145],[15.1123,41.8201],[15.1088,41.8213],[15.1046,41.8311],[15.1242,41.8346],[15.1309,41.8379],[15.1367,41.8427],[15.1471,41.8425],[15.1608,41.839],[15.1644,41.8362],[15.1668,41.8296],[15.1663,41.8257],[15.168,41.8254],[15.1785,41.8355],[15.185,41.8458],[15.1945,41.8529],[15.1986,41.8575],[15.1985,41.8643],[15.2032,41.8706],[15.21,41.8872],[15.2124,41.8983],[15.2113,41.902],[15.2124,41.9137],[15.219,41.915],[15.2271,41.9188],[15.2933,41.9203],[15.3234,41.9176]]]}},{"type":"Feature","properties":{"i":"071054","n":"Stornara"},"geometry":{"type":"MultiPolygon","coordinates":[[[[15.7676,41.3221],[15.7692,41.3236],[15.7709,41.3227],[15.7696,41.3212],[15.7676,41.3221]]],[[[15.8005,41.3109],[15.8202,41.2989],[15.8126,41.2825],[15.8205,41.279],[15.8202,41.2735],[15.8131,41.2677],[15.7979,41.2639],[15.7893,41.2634],[15.7868,41.2625],[15.7821,41.2645],[15.7801,41.274],[15.7751,41.2749],[15.7523,41.2731],[15.7454,41.2761],[15.736,41.2823],[15.7328,41.2815],[15.7406,41.2936],[15.7316,41.2952],[15.7347,41.3087],[15.7421,41.3085],[15.7445,41.3184],[15.7523,41.3172],[15.755,41.3191],[15.7592,41.3251],[15.762,41.3256],[15.7634,41.3238],[15.7579,41.3102],[15.7643,41.3083],[15.768,41.3123],[15.7661,41.3136],[15.7752,41.3236],[15.7787,41.3229],[15.8005,41.3109]]],[[[15.766,41.3265],[15.7656,41.3267],[15.7679,41.328],[15.769,41.3275],[15.7674,41.3257],[15.766,41.3265]]]]}},{"type":"Feature","properties":{"i":"071055","n":"Stornarella"},"geometry":{"type":"Polygon","coordinates":[[[15.7316,41.2952],[15.7406,41.2936],[15.7328,41.2815],[15.736,41.2823],[15.7454,41.2761],[15.7523,41.2731],[15.7751,41.2749],[15.7801,41.274],[15.7821,41.2645],[15.7868,41.2625],[15.7886,41.261],[15.7679,41.2548],[15.7627,41.251],[15.7524,41.2455],[15.7361,41.2397],[15.7258,41.2454],[15.7193,41.2534],[15.7049,41.2505],[15.7009,41.2477],[15.69,41.2486],[15.6808,41.2518],[15.6704,41.2625],[15.6666,41.2605],[15.6634,41.257],[15.6565,41.2611],[15.6642,41.2693],[15.6716,41.2669],[15.6734,41.2704],[15.6671,41.2722],[15.6681,41.2807],[15.6714,41.2874],[15.6802,41.2867],[15.6844,41.2807],[15.6826,41.2797],[15.6768,41.2733],[15.676,41.2699],[15.6921,41.2776],[15.7039,41.2772],[15.7126,41.2846],[15.712,41.2874],[15.7096,41.2896],[15.7072,41.2904],[15.7316,41.2952]]]}},{"type":"Feature","properties":{"i":"071056","n":"Torremaggiore"},"geometry":{"type":"Polygon","coordinates":[[[15.189,41.7354],[15.1944,41.7339],[15.2039,41.7328],[15.208,41.7285],[15.2105,41.7245],[15.2189,41.7177],[15.2364,41.7123],[15.2446,41.7135],[15.2717,41.7218],[15.2756,41.7219],[15.2964,41.7177],[15.3167,41.7224],[15.3247,41.7202],[15.3328,41.7106],[15.3302,41.7026],[15.3296,41.6943],[15.327,41.6845],[15.3279,41.6782],[15.3254,41.6716],[15.3217,41.6679],[15.3193,41.6635],[15.3147,41.6526],[15.3136,41.639],[15.315,41.6388],[15.3177,41.641],[15.3195,41.6413],[15.3254,41.6405],[15.333,41.6328],[15.34,41.6314],[15.3487,41.6254],[15.3564,41.6141],[15.3517,41.6012],[15.3358,41.6058],[15.3413,41.6132],[15.3324,41.6217],[15.3245,41.624],[15.32,41.6247],[15.3027,41.6159],[15.3093,41.6081],[15.3217,41.6034],[15.3515,41.5994],[15.352,41.5987],[15.3499,41.5831],[15.3252,41.5899],[15.3079,41.5914],[15.2971,41.5892],[15.2862,41.5845],[15.2847,41.586],[15.2848,41.5933],[15.2799,41.5964],[15.2788,41.5944],[15.2709,41.594],[15.2524,41.596],[15.2499,41.594],[15.2744,41.5709],[15.2591,41.5685],[15.2486,41.5751],[15.2187,41.5856],[15.2189,41.5867],[15.2265,41.5919],[15.2276,41.5943],[15.2254,41.5999],[15.2221,41.6004],[15.2115,41.5997],[15.2115,41.6008],[15.2057,41.6087],[15.2017,41.6122],[15.1957,41.615],[15.1942,41.6233],[15.1968,41.6301],[15.2039,41.639],[15.2038,41.648],[15.1893,41.6474],[15.1732,41.6382],[15.1716,41.636],[15.1678,41.6379],[15.1623,41.6413],[15.1622,41.6433],[15.1655,41.6479],[15.1705,41.6574],[15.157,41.6575],[15.1463,41.6687],[15.1435,41.6761],[15.1459,41.6774],[15.1458,41.678],[15.1392,41.6866],[15.1284,41.691],[15.1262,41.6928],[15.1242,41.6961],[15.1298,41.6973],[15.1593,41.7079],[15.1616,41.7097],[15.1576,41.7119],[15.151,41.7108],[15.1457,41.7115],[15.1209,41.7208],[15.1158,41.729],[15.1023,41.742],[15.1019,41.7463],[15.1033,41.749],[15.1122,41.7477],[15.1166,41.749],[15.1195,41.7608],[15.122,41.7567],[15.1398,41.7436],[15.1605,41.7353],[15.1761,41.7272],[15.1792,41.7271],[15.1878,41.7329],[15.189,41.7354]],[[15.2335,41.6185],[15.2327,41.6195],[15.2098,41.6188],[15.2145,41.6089],[15.2218,41.6129],[15.2306,41.6141],[15.2333,41.6157],[15.2335,41.6185]]]}},{"type":"Feature","properties":{"i":"071058","n":"Troia"},"geometry":{"type":"Polygon","coordinates":[[[15.4816,41.3317],[15.4792,41.3296],[15.467,41.326],[15.4363,41.3218],[15.4204,41.3181],[15.4173,41.3226],[15.4085,41.3239],[15.4047,41.3266],[15.4019,41.3295],[15.4006,41.3323],[15.3925,41.3336],[15.3855,41.3331],[15.3726,41.3304],[15.3643,41.3268],[15.3544,41.3267],[15.3327,41.3251],[15.3248,41.3258],[15.3203,41.3279],[15.3024,41.332],[15.2597,41.3234],[15.2508,41.3243],[15.2402,41.3229],[15.2372,41.3259],[15.2299,41.3384],[15.2289,41.3454],[15.2296,41.3497],[15.2328,41.3568],[15.2488,41.3781],[15.2494,41.3815],[15.2515,41.3848],[15.2589,41.3903],[15.2623,41.3941],[15.2706,41.3954],[15.2775,41.3991],[15.2799,41.4015],[15.284,41.4031],[15.3062,41.4018],[15.319,41.4055],[15.3289,41.4054],[15.3406,41.4038],[15.3464,41.4052],[15.3597,41.4107],[15.3646,41.4117],[15.3812,41.4069],[15.3898,41.4065],[15.4097,41.3922],[15.4254,41.3982],[15.4525,41.4115],[15.479,41.4007],[15.4981,41.4061],[15.499,41.4004],[15.4934,41.3928],[15.4891,41.3824],[15.4866,41.3784],[15.4843,41.3757],[15.477,41.3701],[15.4764,41.363],[15.4775,41.3591],[15.4608,41.3505],[15.4565,41.356],[15.4449,41.3495],[15.4295,41.3382],[15.4511,41.3428],[15.4361,41.334],[15.4431,41.3331],[15.4558,41.3348],[15.4618,41.3376],[15.4616,41.3428],[15.4688,41.3467],[15.4737,41.3451],[15.4762,41.3403],[15.4882,41.3424],[15.4891,41.3416],[15.4876,41.3377],[15.4816,41.3317]]]}},{"type":"Feature","properties":{"i":"071059","n":"Vico del Gargano"},"geometry":{"type":"Polygon","coordinates":[[[16.0544,41.8794],[16.0591,41.879],[16.0597,41.8774],[16.0614,41.8626],[16.0617,41.8516],[16.0605,41.8374],[16.0576,41.8252],[16.0576,41.8223],[16.056,41.8195],[16.0412,41.809],[16.0391,41.8106],[16.0316,41.8129],[16.021,41.825],[16.0144,41.8298],[16.0037,41.8301],[15.9953,41.8273],[15.9897,41.8207],[15.9708,41.813],[15.9631,41.8108],[15.9584,41.8081],[15.9564,41.8082],[15.9431,41.8127],[15.9412,41.8156],[15.9408,41.8181],[15.926,41.8267],[15.9193,41.8319],[15.9156,41.8377],[15.9226,41.8512],[15.9268,41.8546],[15.9311,41.8558],[15.9317,41.8611],[15.9264,41.8744],[15.926,41.8789],[15.9272,41.8823],[15.9284,41.8931],[15.9272,41.8998],[15.9224,41.904],[15.9206,41.9044],[15.9186,41.9068],[15.9169,41.9178],[15.9303,41.929],[15.9332,41.9344],[15.9819,41.9424],[15.9877,41.9437],[15.9896,41.9458],[15.9927,41.9439],[15.9939,41.9419],[15.9948,41.9348],[15.9948,41.9204],[15.9972,41.9049],[15.9996,41.904],[16.0035,41.8993],[16.0028,41.8863],[15.9985,41.8759],[15.9971,41.8638],[15.9977,41.8606],[16.0003,41.8563],[16.0021,41.855],[16.0044,41.8563],[16.0048,41.8593],[16.0325,41.8684],[16.0406,41.8722],[16.045,41.8758],[16.0499,41.8785],[16.0544,41.8794]]]}},{"type":"Feature","properties":{"i":"071060","n":"Vieste"},"geometry":{"type":"MultiPolygon","coordinates":[[[[16.199,41.814],[16.1987,41.8135],[16.1981,41.814],[16.199,41.814]]],[[[16.2,41.8144],[16.1994,41.8146],[16.2,41.8157],[16.2015,41.8158],[16.2,41.8144]]],[[[16.1891,41.8442],[16.1883,41.8438],[16.1867,41.845],[16.1891,41.8442]]],[[[16.1831,41.8909],[16.1856,41.8885],[16.1853,41.8877],[16.1846,41.8876],[16.1815,41.8908],[16.1831,41.8909]]],[[[16.1118,41.9285],[16.1115,41.928],[16.1094,41.9284],[16.1118,41.9285]]],[[[16.1649,41.7609],[16.1511,41.7626],[16.1419,41.7657],[16.1319,41.7733],[16.124,41.776],[16.097,41.7805],[16.084,41.78],[16.0808,41.7786],[16.0789,41.7786],[16.0771,41.7798],[16.0743,41.7839],[16.0433,41.7956],[16.0392,41.7983],[16.0383,41.8047],[16.039,41.8079],[16.0439,41.8105],[16.0538,41.8178],[16.056,41.8195],[16.0576,41.8223],[16.0576,41.8252],[16.0605,41.8374],[16.0617,41.8516],[16.0614,41.8626],[16.0591,41.879],[16.0544,41.8794],[16.0482,41.8868],[16.0459,41.8929],[16.0457,41.8985],[16.0495,41.9013],[16.0554,41.9014],[16.0603,41.9052],[16.0626,41.9127],[16.065,41.9151],[16.0732,41.9216],[16.0867,41.9257],[16.0937,41.9328],[16.1061,41.9287],[16.1116,41.922],[16.117,41.9174],[16.1213,41.9149],[16.1272,41.913],[16.1335,41.9122],[16.1369,41.9139],[16.1409,41.9144],[16.1517,41.9072],[16.1578,41.8952],[16.1611,41.8919],[16.1695,41.8873],[16.1731,41.8862],[16.1789,41.8872],[16.1852,41.8835],[16.1823,41.8814],[16.1777,41.8799],[16.1761,41.8699],[16.1758,41.8596],[16.1767,41.8551],[16.1804,41.8467],[16.1838,41.8416],[16.1865,41.8392],[16.1896,41.8319],[16.1967,41.8223],[16.1954,41.7961],[16.1927,41.7894],[16.1894,41.7845],[16.19,41.7774],[16.1884,41.7744],[16.1862,41.7721],[16.1797,41.7682],[16.1732,41.7671],[16.1701,41.7674],[16.1676,41.7664],[16.1649,41.7609]]]]}},{"type":"Feature","properties":{"i":"071061","n":"Volturara Appula"},"geometry":{"type":"Polygon","coordinates":[[[15.0841,41.4827],[15.0866,41.475],[15.088,41.4737],[15.099,41.4741],[15.1057,41.473],[15.1076,41.4716],[15.1148,41.4611],[15.1155,41.4582],[15.1124,41.4537],[15.1104,41.442],[15.1043,41.4352],[15.0957,41.4332],[15.0835,41.4324],[15.0763,41.4328],[15.0688,41.4357],[15.0656,41.4392],[15.0627,41.4407],[15.0505,41.4434],[15.0433,41.4505],[15.0378,41.4543],[15.0324,41.4527],[15.0301,41.4561],[15.03,41.4612],[15.0287,41.4676],[15.0233,41.4773],[15.0168,41.4806],[15.0183,41.4836],[15.0188,41.4882],[15.0221,41.4938],[15.0261,41.5],[15.0336,41.5077],[15.0399,41.5238],[15.0479,41.5277],[15.0558,41.5296],[15.0591,41.5287],[15.0643,41.5258],[15.0686,41.5222],[15.0752,41.5225],[15.0784,41.5202],[15.0807,41.5172],[15.0815,41.5155],[15.0828,41.4913],[15.0841,41.4827]]]}},{"type":"Feature","properties":{"i":"071062","n":"Volturino"},"geometry":{"type":"Polygon","coordinates":[[[15.2438,41.5083],[15.2377,41.4922],[15.2308,41.49],[15.2242,41.4867],[15.2036,41.4841],[15.1805,41.4829],[15.1761,41.4813],[15.1724,41.4771],[15.1721,41.4746],[15.1771,41.4642],[15.1741,41.4613],[15.1689,41.4583],[15.1252,41.4554],[15.1149,41.457],[15.1155,41.4582],[15.1148,41.4611],[15.1076,41.4716],[15.1046,41.4733],[15.1008,41.474],[15.088,41.4737],[15.0866,41.475],[15.0841,41.4827],[15.0892,41.4832],[15.0949,41.4849],[15.1007,41.4882],[15.104,41.4912],[15.1123,41.4951],[15.1244,41.4955],[15.1318,41.4943],[15.1425,41.4949],[15.1448,41.5032],[15.1453,41.5095],[15.1395,41.5121],[15.1356,41.5161],[15.1335,41.521],[15.1312,41.5242],[15.134,41.5255],[15.1372,41.5287],[15.1371,41.5354],[15.1386,41.5378],[15.1456,41.5425],[15.1494,41.5436],[15.1508,41.5437],[15.1516,41.5392],[15.1665,41.5344],[15.1725,41.5315],[15.1765,41.5283],[15.2039,41.5146],[15.2273,41.5093],[15.2438,41.5083]]]}},{"type":"Feature","properties":{"i":"071063","n":"Ordona"},"geometry":{"type":"Polygon","coordinates":[[[15.6042,41.2631],[15.5931,41.2702],[15.5829,41.2747],[15.5851,41.2775],[15.5873,41.286],[15.5916,41.2924],[15.5999,41.2966],[15.6014,41.2986],[15.6018,41.3006],[15.5956,41.3122],[15.593,41.3187],[15.5828,41.3243],[15.5668,41.3386],[15.5766,41.3401],[15.5867,41.3391],[15.5997,41.3403],[15.6149,41.3363],[15.6198,41.3381],[15.6213,41.3408],[15.6296,41.3267],[15.644,41.334],[15.6592,41.3397],[15.6611,41.3355],[15.6559,41.3331],[15.6649,41.3221],[15.6753,41.3154],[15.6746,41.3098],[15.6673,41.3071],[15.6631,41.3074],[15.6532,41.3048],[15.6481,41.2998],[15.6395,41.2939],[15.6356,41.2889],[15.6297,41.2767],[15.6226,41.2687],[15.6181,41.2655],[15.6047,41.2642],[15.6042,41.2631]]]}},{"type":"Feature","properties":{"i":"071064","n":"Zapponeta"},"geometry":{"type":"Polygon","coordinates":[[[16.0248,41.4258],[16.0248,41.4214],[15.9994,41.4302],[15.9881,41.4359],[15.9792,41.4383],[15.9522,41.4412],[15.9427,41.4327],[15.937,41.4258],[15.9313,41.4273],[15.9283,41.466],[15.9255,41.4693],[15.9135,41.4765],[15.9021,41.4585],[15.8998,41.451],[15.8959,41.4461],[15.892,41.4432],[15.8838,41.4408],[15.8666,41.4321],[15.8616,41.4324],[15.8608,41.4335],[15.8573,41.4337],[15.8482,41.4321],[15.8469,41.4356],[15.849,41.4367],[15.8411,41.4456],[15.836,41.443],[15.8273,41.4426],[15.8251,41.4429],[15.8205,41.4476],[15.8366,41.4496],[15.8352,41.4616],[15.8392,41.4621],[15.8636,41.4772],[15.8714,41.4707],[15.8948,41.4771],[15.9154,41.4874],[15.9169,41.4909],[15.9165,41.4924],[15.924,41.4964],[15.932,41.4856],[15.9453,41.4713],[15.9622,41.4578],[15.9806,41.4457],[15.9898,41.4407],[16.0248,41.4258]]]}}]}
