{"type":"FeatureCollection","fonte":"Confini comunali ISTAT via openpolis/geojson-italy — CC BY 4.0","features":[{"type":"Feature","properties":{"i":"048001","n":"Bagno a Ripoli"},"geometry":{"type":"Polygon","coordinates":[[[11.4165,43.7724],[11.41,43.7644],[11.4051,43.764],[11.3883,43.7559],[11.3869,43.7504],[11.3863,43.7402],[11.385,43.7369],[11.3848,43.7234],[11.3761,43.7166],[11.3609,43.6945],[11.3547,43.6927],[11.3488,43.6895],[11.3292,43.6764],[11.3237,43.6703],[11.318,43.6715],[11.3115,43.6781],[11.3106,43.68],[11.3109,43.6872],[11.306,43.6872],[11.3083,43.6914],[11.3081,43.7013],[11.3066,43.7045],[11.3019,43.7057],[11.297,43.7011],[11.2931,43.7026],[11.2835,43.7096],[11.2834,43.715],[11.2821,43.7195],[11.2698,43.7233],[11.2636,43.7298],[11.2582,43.7331],[11.2572,43.7346],[11.262,43.7356],[11.2669,43.7393],[11.2809,43.7435],[11.2893,43.7404],[11.3055,43.7383],[11.3058,43.7517],[11.3067,43.756],[11.3078,43.7573],[11.3176,43.7591],[11.3207,43.7636],[11.3317,43.7699],[11.3333,43.767],[11.3432,43.768],[11.3553,43.7725],[11.3605,43.7758],[11.3598,43.7782],[11.3611,43.7833],[11.3641,43.7839],[11.3755,43.7834],[11.3797,43.7845],[11.3817,43.7856],[11.3852,43.7919],[11.3866,43.7924],[11.3897,43.7921],[11.3927,43.7879],[11.4008,43.7812],[11.4058,43.7796],[11.4137,43.7754],[11.4165,43.7724]]]}},{"type":"Feature","properties":{"i":"048002","n":"Barberino di Mugello"},"geometry":{"type":"Polygon","coordinates":[[[11.2637,44.1043],[11.2658,44.0961],[11.2647,44.0909],[11.2633,44.0894],[11.262,44.0893],[11.2605,44.0865],[11.2602,44.0804],[11.2619,44.0705],[11.2659,44.0718],[11.2727,44.0757],[11.2768,44.0791],[11.2782,44.0808],[11.2816,44.09],[11.2861,44.0895],[11.2995,44.0838],[11.2856,44.0718],[11.2805,44.0618],[11.27,44.0493],[11.2692,44.0409],[11.2705,44.0392],[11.2797,44.0382],[11.2895,44.0336],[11.299,44.0255],[11.299,44.0177],[11.3021,44.0115],[11.3055,44.0086],[11.3079,44.0077],[11.3122,44.0018],[11.3128,43.9953],[11.3106,43.9939],[11.3016,43.999],[11.297,43.9991],[11.2932,43.9975],[11.2942,43.9957],[11.2934,43.9848],[11.2901,43.9752],[11.2906,43.9726],[11.2953,43.9709],[11.3033,43.9646],[11.2932,43.9638],[11.2731,43.9645],[11.259,43.9713],[11.2568,43.9672],[11.2583,43.9652],[11.2586,43.9605],[11.2553,43.9529],[11.2502,43.9534],[11.2406,43.9526],[11.2265,43.9549],[11.2211,43.9569],[11.2122,43.9548],[11.2029,43.9491],[11.1942,43.9481],[11.189,43.9482],[11.1774,43.9504],[11.1751,43.9517],[11.1698,43.962],[11.1739,43.9745],[11.173,43.9786],[11.1711,43.9804],[11.1759,43.9871],[11.1791,43.9944],[11.1765,44.0042],[11.1771,44.0062],[11.1765,44.0087],[11.174,44.01],[11.175,44.0113],[11.1856,44.0164],[11.1892,44.0222],[11.1916,44.0298],[11.1894,44.0334],[11.1794,44.0423],[11.1803,44.0502],[11.1844,44.0539],[11.1865,44.0576],[11.1857,44.0712],[11.1887,44.0766],[11.1982,44.0828],[11.2128,44.086],[11.212,44.0887],[11.2026,44.0932],[11.1992,44.0963],[11.1989,44.098],[11.2006,44.1004],[11.2022,44.1008],[11.2082,44.0992],[11.2295,44.102],[11.2354,44.1013],[11.2412,44.0977],[11.2439,44.0971],[11.2487,44.0984],[11.2513,44.1023],[11.2569,44.1044],[11.2637,44.1043]]]}},{"type":"Feature","properties":{"i":"048004","n":"Borgo San Lorenzo"},"geometry":{"type":"Polygon","coordinates":[[[11.5001,44.0468],[11.5021,44.0437],[11.5081,44.0428],[11.5269,44.0373],[11.534,44.0283],[11.5223,44.0186],[11.5191,44.0201],[11.5068,44.0227],[11.494,44.0313],[11.487,44.0309],[11.4782,44.025],[11.4707,44.0139],[11.4473,44.0007],[11.4463,43.9938],[11.4382,43.9872],[11.437,43.9761],[11.4305,43.9687],[11.4229,43.9685],[11.4204,43.9665],[11.4184,43.9616],[11.4183,43.9593],[11.4207,43.951],[11.4179,43.9413],[11.4225,43.9336],[11.4206,43.9279],[11.4202,43.9227],[11.4222,43.9204],[11.427,43.911],[11.4362,43.8908],[11.4427,43.885],[11.4423,43.8813],[11.4359,43.8798],[11.4285,43.8742],[11.4126,43.8739],[11.402,43.8717],[11.3881,43.8719],[11.3808,43.8732],[11.3512,43.8703],[11.3448,43.8704],[11.3435,43.8752],[11.3449,43.8786],[11.3515,43.8853],[11.354,43.891],[11.3521,43.8918],[11.3465,43.8918],[11.3383,43.8934],[11.3354,43.8947],[11.3345,43.8971],[11.3262,43.9027],[11.3185,43.9055],[11.3124,43.912],[11.31,43.92],[11.3106,43.9258],[11.3122,43.9302],[11.3222,43.9405],[11.3554,43.961],[11.3632,43.9627],[11.37,43.9624],[11.3751,43.9653],[11.3777,43.9697],[11.3786,43.9733],[11.3743,43.9763],[11.3733,43.9798],[11.3766,43.9869],[11.3853,43.9941],[11.384,44.0071],[11.3842,44.0194],[11.389,44.0319],[11.3904,44.0436],[11.3955,44.0458],[11.4005,44.0459],[11.4148,44.0488],[11.4284,44.0487],[11.4407,44.0505],[11.451,44.0533],[11.4526,44.0591],[11.4577,44.0634],[11.4587,44.0635],[11.4865,44.0563],[11.4927,44.053],[11.5001,44.0468]]]}},{"type":"Feature","properties":{"i":"048005","n":"Calenzano"},"geometry":{"type":"Polygon","coordinates":[[[11.2502,43.9534],[11.2451,43.9499],[11.2413,43.9341],[11.2442,43.9319],[11.2503,43.9305],[11.2517,43.9265],[11.2616,43.9238],[11.2616,43.9175],[11.2584,43.9177],[11.253,43.9147],[11.2539,43.9118],[11.2505,43.9059],[11.2311,43.9001],[11.2331,43.8878],[11.2325,43.8804],[11.2277,43.8756],[11.2223,43.8723],[11.206,43.8661],[11.2086,43.8628],[11.2055,43.8585],[11.1921,43.8506],[11.1894,43.8448],[11.185,43.8423],[11.1812,43.844],[11.172,43.8394],[11.1702,43.8392],[11.1627,43.8428],[11.1653,43.8455],[11.163,43.8468],[11.16,43.8439],[11.156,43.8449],[11.1493,43.849],[11.1423,43.8551],[11.1438,43.8584],[11.1465,43.8609],[11.1485,43.8655],[11.148,43.8676],[11.1417,43.8778],[11.1394,43.879],[11.1344,43.8842],[11.1371,43.8898],[11.1414,43.8934],[11.1476,43.9023],[11.1416,43.9069],[11.1582,43.9156],[11.1671,43.9153],[11.1693,43.9186],[11.1631,43.9281],[11.1608,43.9353],[11.1686,43.9407],[11.1731,43.9456],[11.1751,43.9517],[11.1774,43.9504],[11.189,43.9482],[11.1942,43.9481],[11.2029,43.9491],[11.2122,43.9548],[11.2211,43.9569],[11.2265,43.9549],[11.2406,43.9526],[11.2502,43.9534]]]}},{"type":"Feature","properties":{"i":"048006","n":"Campi Bisenzio"},"geometry":{"type":"Polygon","coordinates":[[[11.16,43.8439],[11.1592,43.8408],[11.1606,43.8344],[11.1678,43.8254],[11.1639,43.8144],[11.154,43.8123],[11.1447,43.8041],[11.1451,43.8034],[11.1569,43.8029],[11.1559,43.8013],[11.1561,43.7982],[11.1506,43.7862],[11.143,43.7851],[11.1302,43.7912],[11.1311,43.7934],[11.1325,43.7934],[11.1357,43.7952],[11.138,43.7991],[11.1382,43.8007],[11.1308,43.8036],[11.0613,43.8143],[11.0623,43.8171],[11.0696,43.8251],[11.0785,43.8228],[11.0801,43.8219],[11.0794,43.8208],[11.0857,43.8183],[11.0949,43.8196],[11.1012,43.8242],[11.1238,43.852],[11.1304,43.8557],[11.1385,43.8566],[11.1438,43.8584],[11.1423,43.8551],[11.1493,43.849],[11.156,43.8449],[11.16,43.8439]]]}},{"type":"Feature","properties":{"i":"048008","n":"Capraia e Limite"},"geometry":{"type":"Polygon","coordinates":[[[11.0348,43.7669],[11.0275,43.7627],[11.0256,43.7599],[11.0271,43.7559],[11.0324,43.7499],[11.0324,43.7467],[11.0278,43.7424],[11.0145,43.7329],[11.0114,43.7325],[11.0055,43.7338],[10.995,43.738],[10.9837,43.7436],[10.979,43.7433],[10.9765,43.7409],[10.9644,43.7353],[10.9601,43.7417],[10.9602,43.7427],[10.965,43.7461],[10.9653,43.7517],[10.9591,43.7608],[10.959,43.7632],[10.9672,43.7777],[10.9743,43.7838],[10.9778,43.7854],[10.9921,43.7809],[10.9983,43.777],[11.0099,43.7753],[11.0142,43.7758],[11.019,43.7792],[11.0238,43.7803],[11.0281,43.7796],[11.0322,43.7697],[11.0348,43.7669]]]}},{"type":"Feature","properties":{"i":"048010","n":"Castelfiorentino"},"geometry":{"type":"Polygon","coordinates":[[[10.971,43.6599],[10.9713,43.6566],[10.9865,43.6478],[10.991,43.643],[10.9988,43.6377],[11.0077,43.6378],[11.0097,43.6367],[11.0108,43.6314],[11.0102,43.6259],[11.0079,43.6233],[11.0082,43.6154],[11.0139,43.6081],[11.0136,43.6041],[11.0147,43.6027],[11.0245,43.5986],[11.0252,43.5977],[11.0274,43.5899],[11.025,43.5868],[11.0216,43.584],[11.0125,43.5783],[11.0024,43.5749],[10.9996,43.575],[10.9989,43.577],[10.9938,43.5815],[10.981,43.5902],[10.9762,43.5918],[10.9684,43.5888],[10.9664,43.5872],[10.9642,43.5819],[10.9613,43.5789],[10.9591,43.5777],[10.9558,43.577],[10.9504,43.5772],[10.9458,43.5738],[10.9378,43.5748],[10.9346,43.5878],[10.9287,43.5972],[10.9258,43.6044],[10.9208,43.6109],[10.9135,43.6135],[10.9001,43.616],[10.8956,43.6182],[10.8749,43.6198],[10.8745,43.6205],[10.878,43.6262],[10.8831,43.6264],[10.8867,43.6325],[10.8868,43.6365],[10.8886,43.6398],[10.8917,43.6394],[10.903,43.6347],[10.9204,43.6491],[10.9281,43.6522],[10.934,43.6577],[10.9355,43.6541],[10.9367,43.653],[10.9443,43.6534],[10.9509,43.6639],[10.9508,43.6662],[10.9517,43.6676],[10.9548,43.6713],[10.971,43.6599]]]}},{"type":"Feature","properties":{"i":"048011","n":"Cerreto Guidi"},"geometry":{"type":"Polygon","coordinates":[[[10.8539,43.8014],[10.8801,43.782],[10.8852,43.7743],[10.9037,43.7635],[10.9064,43.7582],[10.9003,43.7423],[10.9002,43.7354],[10.898,43.7358],[10.8963,43.7351],[10.8861,43.7234],[10.8783,43.7194],[10.8672,43.7175],[10.8526,43.7189],[10.8376,43.7166],[10.8245,43.7128],[10.8214,43.7135],[10.8194,43.7145],[10.8276,43.7237],[10.838,43.7489],[10.827,43.7543],[10.8088,43.7587],[10.8127,43.7718],[10.8127,43.7888],[10.8256,43.7949],[10.8456,43.8023],[10.8539,43.8014]]]}},{"type":"Feature","properties":{"i":"048012","n":"Certaldo"},"geometry":{"type":"Polygon","coordinates":[[[11.1438,43.5849],[11.1423,43.5838],[11.1407,43.5802],[11.1402,43.5755],[11.1412,43.5737],[11.1475,43.5695],[11.1502,43.5657],[11.145,43.5625],[11.1316,43.5492],[11.1308,43.5426],[11.1356,43.5413],[11.1368,43.5391],[11.1302,43.5325],[11.1188,43.5296],[11.115,43.5265],[11.1135,43.5238],[11.1113,43.5227],[11.1046,43.5202],[11.0868,43.5167],[11.0833,43.518],[11.0801,43.5159],[11.0706,43.5269],[11.0613,43.5274],[11.0551,43.5299],[11.0529,43.5321],[11.0375,43.5368],[11.0345,43.5417],[11.034,43.5467],[11.0262,43.5542],[11.0198,43.5553],[10.9999,43.5719],[10.9992,43.5738],[10.9996,43.575],[11.0024,43.5749],[11.0125,43.5783],[11.0216,43.584],[11.025,43.5868],[11.0274,43.5899],[11.0245,43.5986],[11.033,43.6007],[11.0422,43.5984],[11.0438,43.5971],[11.0548,43.5946],[11.0605,43.599],[11.0779,43.5973],[11.0875,43.6009],[11.1103,43.5991],[11.1181,43.5956],[11.1231,43.5957],[11.1269,43.5967],[11.1313,43.5991],[11.1332,43.599],[11.1438,43.5849]]]}},{"type":"Feature","properties":{"i":"048013","n":"Dicomano"},"geometry":{"type":"Polygon","coordinates":[[[11.6223,43.9989],[11.6211,43.9922],[11.6145,43.9861],[11.6069,43.9807],[11.5964,43.9635],[11.5875,43.9523],[11.5733,43.9368],[11.5628,43.9312],[11.5604,43.9312],[11.5554,43.9296],[11.5537,43.928],[11.5543,43.9256],[11.5553,43.9246],[11.552,43.9143],[11.5566,43.9099],[11.5648,43.911],[11.5727,43.9134],[11.5789,43.9119],[11.5826,43.9073],[11.588,43.9037],[11.6029,43.9042],[11.6107,43.9026],[11.6177,43.8993],[11.6263,43.8933],[11.6217,43.8925],[11.6129,43.8931],[11.6049,43.8962],[11.5938,43.8949],[11.5797,43.8911],[11.5719,43.8806],[11.5721,43.8787],[11.5742,43.8759],[11.5747,43.872],[11.5691,43.8682],[11.5645,43.8653],[11.5546,43.8652],[11.5376,43.863],[11.5304,43.863],[11.5165,43.8717],[11.5075,43.8749],[11.4929,43.8764],[11.4857,43.8784],[11.478,43.8819],[11.4775,43.8838],[11.4781,43.8852],[11.4929,43.8995],[11.4986,43.9013],[11.5037,43.8987],[11.506,43.9031],[11.5019,43.9153],[11.5028,43.9172],[11.5077,43.9218],[11.5174,43.928],[11.5253,43.9286],[11.5272,43.9275],[11.5377,43.9268],[11.539,43.9299],[11.5385,43.9344],[11.5429,43.9478],[11.5501,43.9537],[11.5557,43.9559],[11.5785,43.9708],[11.586,43.9734],[11.5902,43.9735],[11.595,43.9757],[11.5969,43.981],[11.5975,43.9885],[11.5913,43.9976],[11.588,44.0005],[11.5931,44.0055],[11.5949,44.0064],[11.6018,44.0073],[11.6087,44.0043],[11.6133,44.0011],[11.6223,43.9989]]]}},{"type":"Feature","properties":{"i":"048014","n":"Empoli"},"geometry":{"type":"Polygon","coordinates":[[[11.0035,43.6968],[11.0017,43.6816],[10.9919,43.6759],[10.9899,43.6732],[10.9923,43.6686],[10.9884,43.6633],[10.9745,43.6622],[10.971,43.6599],[10.9548,43.6713],[10.9517,43.6676],[10.9508,43.6662],[10.9509,43.6639],[10.9443,43.6534],[10.9367,43.653],[10.9355,43.6541],[10.934,43.6577],[10.9318,43.6601],[10.9242,43.6595],[10.9163,43.6624],[10.9138,43.6716],[10.909,43.6804],[10.9019,43.682],[10.8913,43.6929],[10.8885,43.6999],[10.8871,43.707],[10.8788,43.7114],[10.8772,43.7192],[10.8824,43.721],[10.8861,43.7234],[10.8904,43.7276],[10.8956,43.7346],[10.8974,43.7356],[10.9002,43.7354],[10.9089,43.7319],[10.9233,43.729],[10.94,43.7224],[10.9486,43.7253],[10.9516,43.729],[10.9563,43.7319],[10.9765,43.7409],[10.9795,43.7412],[10.9902,43.727],[10.981,43.7202],[10.9923,43.7172],[11.0022,43.713],[10.9999,43.7102],[10.9964,43.7076],[10.9953,43.7035],[10.9981,43.7002],[11.0035,43.6968]]]}},{"type":"Feature","properties":{"i":"048015","n":"Fiesole"},"geometry":{"type":"Polygon","coordinates":[[[11.3787,43.7844],[11.3755,43.7834],[11.3617,43.7836],[11.3602,43.7811],[11.3598,43.7768],[11.3605,43.7758],[11.3553,43.7725],[11.3432,43.768],[11.3333,43.767],[11.3317,43.7699],[11.3343,43.7738],[11.3378,43.7862],[11.3281,43.7956],[11.3246,43.7958],[11.3108,43.7865],[11.3081,43.7838],[11.2996,43.7814],[11.2973,43.7829],[11.2929,43.7943],[11.2861,43.8003],[11.2798,43.8029],[11.2791,43.8039],[11.2797,43.807],[11.2929,43.8179],[11.2989,43.8249],[11.2988,43.8271],[11.2962,43.8293],[11.2902,43.8324],[11.2884,43.8321],[11.2871,43.8352],[11.2914,43.8404],[11.2967,43.8402],[11.3021,43.8415],[11.3193,43.8501],[11.3332,43.8606],[11.3409,43.8654],[11.3435,43.8676],[11.3448,43.8704],[11.3467,43.8702],[11.3501,43.8653],[11.3477,43.8603],[11.3435,43.8402],[11.3403,43.8301],[11.3463,43.8257],[11.3497,43.8247],[11.3563,43.8193],[11.3581,43.8143],[11.373,43.7976],[11.3765,43.7914],[11.3768,43.7881],[11.3787,43.7844]]]}},{"type":"Feature","properties":{"i":"048017","n":"Firenze"},"geometry":{"type":"Polygon","coordinates":[[[11.3317,43.7699],[11.3207,43.7636],[11.3176,43.7591],[11.3069,43.7566],[11.3058,43.7517],[11.3055,43.7383],[11.2893,43.7404],[11.2834,43.7431],[11.28,43.7434],[11.2669,43.7393],[11.262,43.7356],[11.2558,43.7345],[11.2479,43.729],[11.2405,43.727],[11.2343,43.7299],[11.226,43.7307],[11.2237,43.7303],[11.2239,43.7281],[11.2212,43.7271],[11.2135,43.7263],[11.2122,43.7265],[11.2085,43.7317],[11.2065,43.7315],[11.205,43.7365],[11.2071,43.7424],[11.2118,43.7441],[11.2035,43.7523],[11.2021,43.7588],[11.1906,43.7672],[11.1794,43.7649],[11.1543,43.7747],[11.1521,43.777],[11.1542,43.7849],[11.1506,43.7862],[11.1561,43.7982],[11.1559,43.8013],[11.1569,43.8029],[11.1813,43.8],[11.1906,43.8089],[11.1984,43.8111],[11.2052,43.8088],[11.216,43.8193],[11.2442,43.8297],[11.2476,43.8334],[11.2511,43.8351],[11.2605,43.8339],[11.2688,43.8274],[11.2767,43.8268],[11.2779,43.8319],[11.2807,43.8337],[11.2871,43.8352],[11.2884,43.8321],[11.2902,43.8324],[11.2962,43.8293],[11.2988,43.8271],[11.2989,43.8249],[11.2929,43.8179],[11.2797,43.807],[11.2793,43.8032],[11.2861,43.8003],[11.2929,43.7943],[11.2973,43.7829],[11.2996,43.7814],[11.3081,43.7838],[11.3108,43.7865],[11.3246,43.7958],[11.3281,43.7956],[11.3378,43.7862],[11.3343,43.7738],[11.3317,43.7699]]]}},{"type":"Feature","properties":{"i":"048018","n":"Firenzuola"},"geometry":{"type":"Polygon","coordinates":[[[11.524,44.1563],[11.5189,44.1502],[11.5165,44.1486],[11.5097,44.1455],[11.4981,44.1432],[11.4934,44.1375],[11.4926,44.1287],[11.4822,44.124],[11.4742,44.1145],[11.4684,44.1095],[11.4525,44.1015],[11.4511,44.1012],[11.448,44.1029],[11.4445,44.1026],[11.4332,44.0974],[11.4336,44.0946],[11.4455,44.0874],[11.4565,44.0788],[11.4574,44.0773],[11.4577,44.0718],[11.4564,44.0682],[11.4577,44.0634],[11.4526,44.0591],[11.451,44.0533],[11.4407,44.0505],[11.4284,44.0487],[11.4148,44.0488],[11.4005,44.0459],[11.3955,44.0458],[11.3904,44.0436],[11.3794,44.0557],[11.3751,44.0575],[11.3671,44.0662],[11.358,44.0697],[11.3367,44.0699],[11.3281,44.0755],[11.3203,44.0791],[11.2995,44.0838],[11.2849,44.0899],[11.2816,44.09],[11.2782,44.0808],[11.2768,44.0791],[11.2727,44.0757],[11.2659,44.0718],[11.2619,44.0705],[11.2602,44.0804],[11.2605,44.0865],[11.262,44.0893],[11.2633,44.0894],[11.2647,44.0909],[11.2658,44.0961],[11.2623,44.1108],[11.2601,44.1158],[11.2552,44.1151],[11.2519,44.1157],[11.2294,44.1273],[11.2153,44.1319],[11.1959,44.143],[11.1936,44.1467],[11.1957,44.1514],[11.214,44.1501],[11.2274,44.1538],[11.2303,44.155],[11.2346,44.1584],[11.2685,44.1587],[11.2782,44.1557],[11.2812,44.1563],[11.2928,44.1655],[11.2981,44.1679],[11.2958,44.1724],[11.3095,44.1728],[11.3119,44.1737],[11.3229,44.1817],[11.3242,44.1929],[11.3266,44.196],[11.3405,44.2038],[11.3461,44.205],[11.3629,44.2041],[11.3756,44.1994],[11.3805,44.2],[11.3874,44.2052],[11.3877,44.2098],[11.3936,44.2171],[11.4176,44.2349],[11.4211,44.2392],[11.427,44.2346],[11.4514,44.2206],[11.455,44.2124],[11.4479,44.2049],[11.4481,44.1998],[11.4546,44.1937],[11.4635,44.1913],[11.4677,44.1858],[11.4836,44.1845],[11.4895,44.1803],[11.4854,44.1791],[11.4862,44.1756],[11.4997,44.1661],[11.5104,44.164],[11.5161,44.1595],[11.5164,44.1575],[11.5221,44.1555],[11.524,44.1563]]]}},{"type":"Feature","properties":{"i":"048019","n":"Fucecchio"},"geometry":{"type":"Polygon","coordinates":[[[10.8157,43.8087],[10.8179,43.7992],[10.8162,43.7942],[10.8127,43.7888],[10.8127,43.7718],[10.8088,43.7587],[10.827,43.7543],[10.838,43.7489],[10.8276,43.7237],[10.8194,43.7145],[10.8245,43.7128],[10.8269,43.7084],[10.8236,43.7036],[10.8012,43.7038],[10.798,43.7047],[10.7954,43.7085],[10.7964,43.7096],[10.7963,43.7107],[10.7932,43.7183],[10.7858,43.729],[10.7795,43.7362],[10.7713,43.7365],[10.766,43.7387],[10.7614,43.7421],[10.7602,43.7441],[10.7543,43.7457],[10.7475,43.7509],[10.7418,43.7522],[10.7385,43.7538],[10.7161,43.7758],[10.7111,43.7864],[10.7184,43.8002],[10.7274,43.8113],[10.7278,43.8142],[10.7362,43.8121],[10.7675,43.8006],[10.7865,43.7987],[10.8157,43.8087]]]}},{"type":"Feature","properties":{"i":"048020","n":"Gambassi Terme"},"geometry":{"type":"Polygon","coordinates":[[[10.9996,43.575],[10.9992,43.5738],[10.9999,43.5719],[11.0149,43.5592],[11.0198,43.5553],[11.0262,43.5542],[11.034,43.5467],[11.0328,43.5447],[11.0226,43.5415],[11.0117,43.5362],[11.0108,43.5339],[11.0079,43.5313],[10.9998,43.5269],[10.9644,43.5116],[10.9586,43.501],[10.9541,43.4948],[10.9556,43.4871],[10.9612,43.4821],[10.9593,43.4702],[10.9564,43.4615],[10.9515,43.4514],[10.9397,43.4527],[10.9194,43.4571],[10.9156,43.4634],[10.9108,43.4663],[10.9013,43.465],[10.8889,43.4596],[10.8841,43.4591],[10.874,43.4601],[10.8698,43.4632],[10.8687,43.4718],[10.8655,43.4748],[10.8599,43.4762],[10.853,43.4763],[10.8513,43.4778],[10.8541,43.4819],[10.8607,43.4872],[10.8792,43.4925],[10.8935,43.4945],[10.9122,43.504],[10.9167,43.5081],[10.9194,43.5134],[10.9169,43.5251],[10.9191,43.531],[10.9253,43.5327],[10.9336,43.5379],[10.9399,43.5484],[10.9471,43.5526],[10.9486,43.5549],[10.9473,43.562],[10.9452,43.5646],[10.9433,43.5697],[10.9458,43.5738],[10.9491,43.5764],[10.9504,43.5772],[10.958,43.5774],[10.9613,43.5789],[10.9642,43.5819],[10.9664,43.5872],[10.9684,43.5888],[10.9725,43.5907],[10.9775,43.5918],[10.981,43.5902],[10.9938,43.5815],[10.9989,43.577],[10.9996,43.575]]]}},{"type":"Feature","properties":{"i":"048021","n":"Greve in Chianti"},"geometry":{"type":"Polygon","coordinates":[[[11.3848,43.6862],[11.3873,43.6824],[11.3914,43.6714],[11.3924,43.6659],[11.3964,43.6572],[11.3963,43.6553],[11.3942,43.6508],[11.3911,43.6484],[11.389,43.6491],[11.3804,43.6474],[11.3712,43.6336],[11.3754,43.628],[11.3768,43.6197],[11.3704,43.6156],[11.3713,43.6123],[11.3745,43.6094],[11.388,43.6022],[11.3989,43.6],[11.4004,43.6005],[11.4026,43.6],[11.407,43.5945],[11.4036,43.5836],[11.4029,43.5677],[11.4051,43.5622],[11.408,43.5607],[11.408,43.5595],[11.4071,43.5569],[11.4038,43.5524],[11.3975,43.5482],[11.3859,43.5472],[11.3815,43.5406],[11.3819,43.5396],[11.3804,43.5325],[11.3672,43.5275],[11.3525,43.5274],[11.3437,43.5282],[11.3313,43.5264],[11.3124,43.5206],[11.3072,43.5182],[11.3036,43.5195],[11.2981,43.5193],[11.2933,43.525],[11.2905,43.5329],[11.2831,43.5362],[11.2784,43.5397],[11.2755,43.5448],[11.2723,43.5458],[11.261,43.5457],[11.2559,43.5485],[11.2623,43.5648],[11.2686,43.566],[11.2707,43.569],[11.2732,43.5781],[11.273,43.5795],[11.2673,43.588],[11.2654,43.5886],[11.2592,43.5943],[11.2596,43.5952],[11.2676,43.6003],[11.275,43.6036],[11.2798,43.6076],[11.2848,43.6171],[11.2849,43.6215],[11.2838,43.6234],[11.2752,43.6294],[11.267,43.6371],[11.2644,43.6413],[11.2577,43.6482],[11.2563,43.6512],[11.2563,43.6588],[11.2581,43.6578],[11.2612,43.6577],[11.2691,43.6601],[11.2852,43.687],[11.2926,43.6883],[11.3109,43.6872],[11.3106,43.68],[11.3115,43.6781],[11.318,43.6715],[11.3237,43.6703],[11.3292,43.6764],[11.3488,43.6895],[11.3547,43.6927],[11.3609,43.6945],[11.3656,43.6957],[11.3685,43.6954],[11.3694,43.6924],[11.3689,43.6898],[11.3705,43.6879],[11.3748,43.6873],[11.3821,43.6881],[11.3848,43.6862]]]}},{"type":"Feature","properties":{"i":"048022","n":"Impruneta"},"geometry":{"type":"Polygon","coordinates":[[[11.306,43.6872],[11.2926,43.6883],[11.2852,43.687],[11.2691,43.6601],[11.2612,43.6577],[11.2581,43.6578],[11.2563,43.6588],[11.2489,43.6572],[11.2434,43.6578],[11.2398,43.6589],[11.2353,43.6651],[11.2271,43.6647],[11.2148,43.6664],[11.2133,43.6679],[11.2134,43.6712],[11.209,43.6787],[11.2126,43.7005],[11.2029,43.7042],[11.1936,43.7053],[11.1872,43.7085],[11.1889,43.7125],[11.1988,43.7246],[11.2025,43.7285],[11.2074,43.7321],[11.2101,43.7303],[11.2127,43.7264],[11.2212,43.7271],[11.2239,43.7281],[11.2237,43.7303],[11.226,43.7307],[11.2343,43.7299],[11.2405,43.727],[11.2479,43.729],[11.25,43.731],[11.2567,43.735],[11.2582,43.7331],[11.2636,43.7298],[11.2698,43.7233],[11.2821,43.7195],[11.2834,43.715],[11.2835,43.7096],[11.2931,43.7026],[11.297,43.7011],[11.3019,43.7057],[11.3066,43.7045],[11.3081,43.7013],[11.3083,43.6914],[11.306,43.6872]]]}},{"type":"Feature","properties":{"i":"048024","n":"Lastra a Signa"},"geometry":{"type":"Polygon","coordinates":[[[11.1236,43.7812],[11.1283,43.7795],[11.1305,43.7721],[11.1291,43.7672],[11.1298,43.7624],[11.1322,43.756],[11.1305,43.75],[11.124,43.745],[11.1149,43.7412],[11.1091,43.737],[11.1102,43.7343],[11.1091,43.7307],[11.1048,43.723],[11.1004,43.7186],[11.0928,43.714],[11.0842,43.7034],[11.063,43.7092],[11.054,43.7105],[11.0302,43.7235],[11.0389,43.729],[11.0434,43.7302],[11.0464,43.7323],[11.0463,43.7351],[11.0442,43.7369],[11.0486,43.7441],[11.0526,43.7484],[11.0492,43.7546],[11.043,43.7583],[11.0448,43.7635],[11.0458,43.7643],[11.0494,43.7603],[11.0516,43.7592],[11.0567,43.7588],[11.0622,43.7742],[11.0639,43.7759],[11.068,43.7765],[11.0709,43.7821],[11.0752,43.7819],[11.0906,43.7738],[11.0968,43.7728],[11.1019,43.7739],[11.1073,43.7774],[11.1133,43.7798],[11.1236,43.7812]]]}},{"type":"Feature","properties":{"i":"048025","n":"Londa"},"geometry":{"type":"Polygon","coordinates":[[[11.6263,43.8933],[11.6403,43.8911],[11.6423,43.8887],[11.6426,43.8871],[11.6416,43.8852],[11.6429,43.8829],[11.6505,43.8786],[11.653,43.878],[11.6582,43.8791],[11.6624,43.8788],[11.6704,43.8768],[11.6624,43.8725],[11.6535,43.8641],[11.6513,43.8611],[11.6501,43.8587],[11.6544,43.847],[11.6527,43.8418],[11.6509,43.8443],[11.6469,43.8457],[11.6352,43.8468],[11.6291,43.8451],[11.6246,43.8365],[11.6233,43.8317],[11.6297,43.8243],[11.6285,43.8212],[11.6225,43.8147],[11.6095,43.8095],[11.6048,43.8102],[11.5977,43.8099],[11.5913,43.8082],[11.5862,43.809],[11.5766,43.8142],[11.5728,43.819],[11.5715,43.8221],[11.5729,43.8238],[11.5733,43.8258],[11.57,43.8351],[11.558,43.8372],[11.555,43.8364],[11.5522,43.8341],[11.5469,43.8329],[11.5324,43.8373],[11.5278,43.8394],[11.5247,43.8418],[11.5394,43.8511],[11.5441,43.8563],[11.5543,43.8624],[11.5546,43.8652],[11.5645,43.8653],[11.5747,43.872],[11.5742,43.8759],[11.5721,43.8787],[11.5719,43.8806],[11.5797,43.8911],[11.5938,43.8949],[11.6049,43.8962],[11.6129,43.8931],[11.6217,43.8925],[11.6263,43.8933]]]}},{"type":"Feature","properties":{"i":"048026","n":"Marradi"},"geometry":{"type":"Polygon","coordinates":[[[11.6819,44.0212],[11.6709,44.0216],[11.662,44.0201],[11.6577,44.0177],[11.6569,44.0164],[11.6609,44.0118],[11.6639,44.0056],[11.6606,44.0036],[11.6546,44.0047],[11.6501,44.003],[11.6485,43.9947],[11.646,43.9907],[11.6422,43.9923],[11.639,43.995],[11.6133,44.0011],[11.6087,44.0043],[11.6018,44.0073],[11.5941,44.0061],[11.588,44.0005],[11.583,44.0098],[11.5711,44.0113],[11.5654,44.0164],[11.5652,44.0174],[11.5566,44.0169],[11.5559,44.0134],[11.5511,44.0093],[11.528,44.0118],[11.5243,44.0148],[11.5223,44.0186],[11.534,44.0283],[11.531,44.0327],[11.5269,44.0373],[11.5081,44.0428],[11.5021,44.0437],[11.5001,44.0468],[11.5006,44.0483],[11.5048,44.0512],[11.5203,44.0519],[11.5366,44.0566],[11.5539,44.058],[11.5639,44.0621],[11.5711,44.069],[11.5783,44.0715],[11.584,44.0787],[11.5863,44.0899],[11.5865,44.0977],[11.5837,44.1112],[11.5846,44.1122],[11.5907,44.1136],[11.6008,44.1186],[11.6141,44.1192],[11.6387,44.1115],[11.6435,44.1063],[11.6526,44.1009],[11.6664,44.11],[11.6732,44.1134],[11.6783,44.1213],[11.6817,44.1227],[11.7005,44.1206],[11.7159,44.1225],[11.7203,44.1207],[11.7353,44.1251],[11.745,44.126],[11.7478,44.1249],[11.7529,44.1205],[11.7511,44.1184],[11.7496,44.1104],[11.7366,44.0914],[11.7334,44.0847],[11.7274,44.0809],[11.7127,44.0692],[11.7007,44.0556],[11.6968,44.0451],[11.6958,44.0391],[11.6838,44.0247],[11.6819,44.0212]]]}},{"type":"Feature","properties":{"i":"048027","n":"Montaione"},"geometry":{"type":"Polygon","coordinates":[[[10.8749,43.6198],[10.8956,43.6182],[10.9001,43.616],[10.9135,43.6135],[10.9208,43.6109],[10.9258,43.6044],[10.9287,43.5972],[10.9346,43.5878],[10.9378,43.5748],[10.9458,43.5738],[10.9433,43.5697],[10.9452,43.5646],[10.9473,43.562],[10.9487,43.5552],[10.9471,43.5526],[10.9399,43.5484],[10.9336,43.5379],[10.9253,43.5327],[10.9191,43.531],[10.9169,43.5251],[10.9194,43.5134],[10.9167,43.5081],[10.9128,43.5044],[10.8935,43.4945],[10.8792,43.4925],[10.8607,43.4872],[10.8567,43.4934],[10.8545,43.4949],[10.8472,43.4974],[10.8384,43.496],[10.8402,43.4999],[10.8446,43.5039],[10.8465,43.5083],[10.8458,43.5107],[10.8391,43.521],[10.8338,43.5239],[10.8311,43.5274],[10.8257,43.5367],[10.8253,43.5407],[10.8306,43.5511],[10.834,43.5555],[10.8412,43.557],[10.8461,43.5598],[10.8485,43.5627],[10.8439,43.567],[10.8396,43.568],[10.8328,43.568],[10.8306,43.5699],[10.831,43.5721],[10.8364,43.574],[10.8403,43.5798],[10.8404,43.586],[10.8385,43.5909],[10.8343,43.5944],[10.8331,43.5998],[10.8344,43.6046],[10.8334,43.6063],[10.8299,43.6107],[10.8224,43.6139],[10.824,43.6183],[10.8262,43.6206],[10.8332,43.6222],[10.8373,43.62],[10.8449,43.6232],[10.8501,43.6266],[10.858,43.6247],[10.8743,43.6143],[10.8759,43.6151],[10.8749,43.6198]]]}},{"type":"Feature","properties":{"i":"048028","n":"Montelupo Fiorentino"},"geometry":{"type":"Polygon","coordinates":[[[11.0458,43.7643],[11.0448,43.7635],[11.043,43.7583],[11.0492,43.7546],[11.0526,43.7484],[11.0486,43.7441],[11.0442,43.7369],[11.0463,43.7351],[11.0466,43.7326],[11.0446,43.7308],[11.0389,43.729],[11.0302,43.7235],[11.054,43.7105],[11.0662,43.7084],[11.0682,43.6994],[11.0678,43.6974],[11.0576,43.6942],[11.0415,43.6942],[11.0392,43.6966],[11.0361,43.7037],[11.0335,43.7065],[11.032,43.7059],[11.0314,43.7034],[11.0291,43.701],[11.0264,43.6996],[11.0229,43.6993],[11.0143,43.7013],[11.0066,43.6995],[11.0035,43.6968],[10.9981,43.7002],[10.9953,43.7035],[10.9964,43.7076],[10.9999,43.7102],[11.0022,43.713],[10.9923,43.7172],[10.981,43.7202],[10.9902,43.727],[10.9797,43.7411],[10.9765,43.7409],[10.9768,43.7414],[10.979,43.7433],[10.9837,43.7436],[10.995,43.738],[11.0055,43.7338],[11.0114,43.7325],[11.0145,43.7329],[11.0278,43.7424],[11.0328,43.7474],[11.0324,43.7499],[11.026,43.7579],[11.0257,43.7606],[11.0268,43.7621],[11.0303,43.7648],[11.0348,43.7669],[11.0458,43.7643]]]}},{"type":"Feature","properties":{"i":"048030","n":"Montespertoli"},"geometry":{"type":"Polygon","coordinates":[[[11.0842,43.7034],[11.0992,43.6954],[11.117,43.6881],[11.1262,43.6834],[11.1355,43.6654],[11.1387,43.6615],[11.1573,43.6499],[11.1539,43.6467],[11.1403,43.6455],[11.129,43.6458],[11.1284,43.6382],[11.1334,43.6316],[11.139,43.6269],[11.1337,43.6221],[11.1334,43.6181],[11.1372,43.6154],[11.1443,43.6134],[11.1534,43.6093],[11.1632,43.6024],[11.1558,43.5969],[11.1449,43.5928],[11.1434,43.5866],[11.1438,43.5849],[11.1332,43.599],[11.1313,43.5991],[11.1269,43.5967],[11.1231,43.5957],[11.1181,43.5956],[11.1103,43.5991],[11.0875,43.6009],[11.0779,43.5973],[11.0605,43.599],[11.0548,43.5946],[11.0438,43.5971],[11.0422,43.5984],[11.035,43.6005],[11.033,43.6007],[11.0245,43.5986],[11.0206,43.6],[11.0147,43.6027],[11.0136,43.6041],[11.0139,43.6081],[11.0082,43.6154],[11.0079,43.6233],[11.0102,43.6259],[11.0108,43.6314],[11.0097,43.6367],[11.0077,43.6378],[10.9988,43.6377],[10.991,43.643],[10.9865,43.6478],[10.9708,43.6574],[10.971,43.6599],[10.9745,43.6622],[10.9884,43.6633],[10.9923,43.6686],[10.9899,43.6732],[10.9919,43.6759],[11.0017,43.6816],[11.0035,43.6968],[11.0066,43.6995],[11.0143,43.7013],[11.0229,43.6993],[11.0264,43.6996],[11.0291,43.701],[11.0314,43.7034],[11.032,43.7059],[11.0335,43.7065],[11.0361,43.7037],[11.0392,43.6966],[11.0415,43.6942],[11.0576,43.6942],[11.0678,43.6974],[11.0682,43.6994],[11.0662,43.7084],[11.0842,43.7034]]]}},{"type":"Feature","properties":{"i":"048031","n":"Palazzuolo sul Senio"},"geometry":{"type":"Polygon","coordinates":[[[11.6154,44.1583],[11.6142,44.1566],[11.6142,44.1551],[11.6173,44.1498],[11.6178,44.1457],[11.6167,44.1434],[11.6146,44.1417],[11.611,44.1417],[11.6053,44.1387],[11.6036,44.1372],[11.5997,44.1252],[11.5886,44.1242],[11.5839,44.1162],[11.5846,44.1122],[11.5836,44.1106],[11.5865,44.0977],[11.5863,44.0899],[11.584,44.0787],[11.5783,44.0715],[11.5711,44.069],[11.5639,44.0621],[11.5539,44.058],[11.5366,44.0566],[11.5203,44.0519],[11.5048,44.0512],[11.5006,44.0483],[11.5001,44.0468],[11.4927,44.053],[11.4865,44.0563],[11.4577,44.0634],[11.4564,44.0682],[11.4577,44.0718],[11.4578,44.0764],[11.457,44.0783],[11.4455,44.0874],[11.4336,44.0946],[11.4332,44.0974],[11.4394,44.1007],[11.4445,44.1026],[11.448,44.1029],[11.4511,44.1012],[11.4525,44.1015],[11.4684,44.1095],[11.4742,44.1145],[11.4822,44.124],[11.4926,44.1287],[11.4934,44.1375],[11.4981,44.1432],[11.5097,44.1455],[11.5165,44.1486],[11.5233,44.155],[11.5249,44.1577],[11.5296,44.1579],[11.5394,44.1535],[11.5448,44.1526],[11.5527,44.1593],[11.5536,44.1621],[11.5525,44.1653],[11.5641,44.1675],[11.5685,44.1667],[11.5775,44.1614],[11.5928,44.161],[11.6042,44.1584],[11.6103,44.1604],[11.6154,44.1583]]]}},{"type":"Feature","properties":{"i":"048032","n":"Pelago"},"geometry":{"type":"Polygon","coordinates":[[[11.6037,43.7874],[11.6022,43.7839],[11.5999,43.7834],[11.5978,43.7816],[11.5952,43.7776],[11.5953,43.7729],[11.5829,43.7681],[11.5771,43.7649],[11.5749,43.7654],[11.5532,43.759],[11.5477,43.7557],[11.5336,43.7526],[11.5064,43.7424],[11.4907,43.7396],[11.4738,43.7387],[11.4685,43.7405],[11.4653,43.7495],[11.4651,43.7568],[11.4633,43.7622],[11.4572,43.7705],[11.4533,43.7716],[11.4408,43.77],[11.4441,43.7786],[11.4505,43.7853],[11.4542,43.7871],[11.4594,43.7866],[11.4627,43.7875],[11.4646,43.79],[11.4635,43.7922],[11.4662,43.7933],[11.4768,43.7928],[11.4838,43.7949],[11.4846,43.7976],[11.4896,43.7984],[11.4938,43.7985],[11.5126,43.7934],[11.515,43.7934],[11.519,43.7953],[11.5231,43.8021],[11.5182,43.8113],[11.5217,43.8134],[11.5385,43.8105],[11.5529,43.8014],[11.5622,43.79],[11.5771,43.7854],[11.5857,43.7803],[11.6037,43.7874]]]}},{"type":"Feature","properties":{"i":"048033","n":"Pontassieve"},"geometry":{"type":"Polygon","coordinates":[[[11.478,43.8819],[11.4857,43.8784],[11.4929,43.8764],[11.5075,43.8749],[11.5165,43.8717],[11.5304,43.863],[11.5175,43.8543],[11.5083,43.8512],[11.4995,43.8497],[11.4924,43.8425],[11.4941,43.8351],[11.4915,43.8284],[11.4844,43.8284],[11.4803,43.8258],[11.48,43.8235],[11.4821,43.817],[11.465,43.8004],[11.4614,43.7987],[11.4609,43.7954],[11.4644,43.7906],[11.4641,43.7885],[11.4607,43.7868],[11.4542,43.7871],[11.4505,43.7853],[11.4441,43.7786],[11.4413,43.7706],[11.4378,43.7687],[11.432,43.7686],[11.4165,43.7724],[11.4137,43.7754],[11.4058,43.7796],[11.4008,43.7812],[11.3927,43.7879],[11.391,43.791],[11.3887,43.7924],[11.3852,43.7919],[11.3817,43.7856],[11.3787,43.7844],[11.3768,43.7881],[11.3765,43.7914],[11.373,43.7976],[11.3581,43.8143],[11.3563,43.8193],[11.3497,43.8247],[11.3463,43.8257],[11.3403,43.8301],[11.3435,43.8402],[11.3477,43.8603],[11.3501,43.8653],[11.3467,43.8702],[11.3798,43.8731],[11.3881,43.8719],[11.402,43.8717],[11.4126,43.8739],[11.4285,43.8742],[11.4359,43.8798],[11.4442,43.8772],[11.4524,43.8762],[11.4659,43.8847],[11.4744,43.8834],[11.478,43.8819]]]}},{"type":"Feature","properties":{"i":"048035","n":"Reggello"},"geometry":{"type":"Polygon","coordinates":[[[11.5949,43.7143],[11.6008,43.7041],[11.6079,43.6982],[11.6111,43.6944],[11.6116,43.6903],[11.6102,43.687],[11.608,43.685],[11.6042,43.6842],[11.5994,43.6862],[11.5965,43.686],[11.5758,43.6755],[11.5392,43.6616],[11.54,43.6549],[11.5413,43.6523],[11.5465,43.6482],[11.547,43.6463],[11.5405,43.6435],[11.5283,43.6423],[11.5174,43.6424],[11.508,43.6406],[11.4876,43.6276],[11.4839,43.6261],[11.4707,43.6297],[11.4578,43.6396],[11.4536,43.6448],[11.4535,43.6488],[11.455,43.6536],[11.4498,43.6625],[11.4494,43.6658],[11.4544,43.6764],[11.4561,43.6902],[11.4543,43.6993],[11.4526,43.704],[11.4521,43.7199],[11.4545,43.7216],[11.4647,43.7252],[11.4669,43.7297],[11.466,43.7368],[11.4685,43.7405],[11.4729,43.7387],[11.4788,43.7386],[11.4907,43.7396],[11.5064,43.7424],[11.5336,43.7526],[11.5477,43.7557],[11.5532,43.759],[11.5749,43.7654],[11.5771,43.7649],[11.5829,43.7681],[11.5818,43.7654],[11.5827,43.7611],[11.589,43.7486],[11.5836,43.7439],[11.5784,43.7407],[11.5723,43.735],[11.5721,43.7334],[11.5771,43.7236],[11.5839,43.7177],[11.5917,43.7172],[11.5938,43.716],[11.5949,43.7143]]]}},{"type":"Feature","properties":{"i":"048036","n":"Rignano sull'Arno"},"geometry":{"type":"Polygon","coordinates":[[[11.4408,43.77],[11.4533,43.7716],[11.4572,43.7705],[11.4633,43.7622],[11.4651,43.7568],[11.4653,43.7495],[11.4685,43.7405],[11.466,43.7368],[11.4669,43.7297],[11.4647,43.7252],[11.4545,43.7216],[11.4521,43.7199],[11.4526,43.704],[11.4543,43.6993],[11.4561,43.6902],[11.4487,43.6939],[11.4352,43.6945],[11.4247,43.6981],[11.4125,43.6946],[11.4095,43.691],[11.4087,43.6887],[11.4064,43.6872],[11.4032,43.687],[11.3971,43.6883],[11.3897,43.6881],[11.3848,43.6862],[11.3821,43.6881],[11.3748,43.6873],[11.3705,43.6879],[11.3689,43.6898],[11.3694,43.6924],[11.3685,43.6954],[11.3656,43.6957],[11.3609,43.6945],[11.3761,43.7166],[11.3848,43.7234],[11.385,43.7369],[11.3863,43.7402],[11.3869,43.7504],[11.3883,43.7559],[11.4051,43.764],[11.41,43.7644],[11.4165,43.7724],[11.4342,43.7683],[11.4378,43.7687],[11.4408,43.77]]]}},{"type":"Feature","properties":{"i":"048037","n":"Rufina"},"geometry":{"type":"Polygon","coordinates":[[[11.5546,43.8652],[11.5543,43.8624],[11.5441,43.8563],[11.5394,43.8511],[11.5247,43.8418],[11.5278,43.8394],[11.5324,43.8373],[11.5469,43.8329],[11.5522,43.8341],[11.555,43.8364],[11.558,43.8372],[11.57,43.8351],[11.5733,43.8258],[11.5729,43.8238],[11.5715,43.8221],[11.5728,43.819],[11.5766,43.8142],[11.5862,43.809],[11.5895,43.8083],[11.5922,43.8083],[11.5977,43.8099],[11.6048,43.8102],[11.6048,43.8052],[11.6025,43.7907],[11.6037,43.7874],[11.5857,43.7803],[11.5771,43.7854],[11.5622,43.79],[11.5529,43.8014],[11.5385,43.8105],[11.5227,43.8134],[11.5201,43.813],[11.5182,43.8113],[11.5231,43.8021],[11.519,43.7953],[11.515,43.7934],[11.5126,43.7934],[11.4938,43.7985],[11.4853,43.7978],[11.4838,43.7949],[11.4768,43.7928],[11.4674,43.7934],[11.4635,43.7922],[11.4613,43.7946],[11.4607,43.796],[11.4614,43.7987],[11.465,43.8004],[11.4821,43.817],[11.48,43.8235],[11.4803,43.8258],[11.4844,43.8284],[11.4915,43.8284],[11.4941,43.8351],[11.4924,43.8425],[11.4995,43.8497],[11.5083,43.8512],[11.5175,43.8543],[11.5304,43.863],[11.5393,43.8632],[11.5546,43.8652]]]}},{"type":"Feature","properties":{"i":"048038","n":"San Casciano in Val di Pesa"},"geometry":{"type":"Polygon","coordinates":[[[11.2563,43.6588],[11.2563,43.6512],[11.2577,43.6482],[11.2644,43.6413],[11.267,43.6371],[11.2752,43.6294],[11.2838,43.6234],[11.2846,43.6221],[11.2848,43.6171],[11.2798,43.6076],[11.275,43.6036],[11.2676,43.6003],[11.2596,43.5952],[11.2592,43.5943],[11.2518,43.5912],[11.2395,43.5845],[11.2113,43.584],[11.2024,43.5901],[11.1927,43.6048],[11.1906,43.6053],[11.1777,43.5997],[11.1672,43.5991],[11.1534,43.6093],[11.1443,43.6134],[11.1372,43.6154],[11.1334,43.6181],[11.1337,43.6221],[11.139,43.6269],[11.1334,43.6316],[11.1284,43.6382],[11.129,43.6458],[11.1403,43.6455],[11.1539,43.6467],[11.1573,43.6499],[11.1387,43.6615],[11.1355,43.6654],[11.1275,43.6819],[11.1262,43.6834],[11.1216,43.6856],[11.1327,43.6889],[11.1441,43.6968],[11.1561,43.6993],[11.1626,43.7015],[11.1687,43.7055],[11.1773,43.7076],[11.1814,43.7069],[11.1872,43.7085],[11.1936,43.7053],[11.2029,43.7042],[11.2126,43.7005],[11.209,43.6787],[11.2134,43.6712],[11.2133,43.6679],[11.2148,43.6664],[11.2271,43.6647],[11.2353,43.6651],[11.2398,43.6589],[11.2434,43.6578],[11.2489,43.6572],[11.2563,43.6588]]]}},{"type":"Feature","properties":{"i":"048039","n":"San Godenzo"},"geometry":{"type":"Polygon","coordinates":[[[11.646,43.9907],[11.6462,43.9883],[11.6503,43.9797],[11.654,43.9753],[11.6562,43.9744],[11.6603,43.9746],[11.679,43.962],[11.6834,43.9601],[11.6887,43.959],[11.6913,43.956],[11.6926,43.9532],[11.6897,43.9506],[11.6822,43.9378],[11.6842,43.9351],[11.6916,43.9308],[11.7097,43.9251],[11.717,43.9218],[11.7176,43.92],[11.7159,43.916],[11.7151,43.9083],[11.7155,43.9032],[11.7139,43.8987],[11.7108,43.8944],[11.7087,43.8882],[11.7085,43.8859],[11.7101,43.8808],[11.7102,43.8774],[11.692,43.8727],[11.6838,43.8748],[11.6743,43.8755],[11.6624,43.8788],[11.6582,43.8791],[11.6524,43.8781],[11.6469,43.8801],[11.6431,43.8827],[11.6416,43.8852],[11.6426,43.8871],[11.6423,43.8887],[11.6403,43.8911],[11.6263,43.8933],[11.6177,43.8993],[11.6107,43.9026],[11.6029,43.9042],[11.588,43.9037],[11.5826,43.9073],[11.5789,43.9119],[11.5727,43.9134],[11.5648,43.911],[11.5566,43.9099],[11.552,43.9143],[11.5553,43.9246],[11.5543,43.9256],[11.5537,43.928],[11.5554,43.9296],[11.5604,43.9312],[11.5628,43.9312],[11.5733,43.9368],[11.5875,43.9523],[11.5964,43.9635],[11.6069,43.9807],[11.6145,43.9861],[11.6211,43.9922],[11.6223,43.9989],[11.639,43.995],[11.6422,43.9923],[11.646,43.9907]]]}},{"type":"Feature","properties":{"i":"048041","n":"Scandicci"},"geometry":{"type":"Polygon","coordinates":[[[11.2065,43.7315],[11.1988,43.7246],[11.1889,43.7125],[11.1872,43.7085],[11.1814,43.7069],[11.1773,43.7076],[11.1687,43.7055],[11.1626,43.7015],[11.1561,43.6993],[11.1441,43.6968],[11.1327,43.6889],[11.1265,43.6867],[11.1216,43.6856],[11.0992,43.6954],[11.0842,43.7034],[11.0928,43.714],[11.1004,43.7186],[11.1048,43.723],[11.1091,43.7307],[11.1102,43.7343],[11.1091,43.737],[11.1149,43.7412],[11.124,43.745],[11.1305,43.75],[11.1322,43.756],[11.1298,43.7624],[11.1291,43.7672],[11.1305,43.7721],[11.1283,43.7795],[11.1236,43.7812],[11.1506,43.7862],[11.1542,43.7849],[11.1521,43.777],[11.1543,43.7747],[11.1794,43.7649],[11.1906,43.7672],[11.2021,43.7588],[11.2035,43.7523],[11.2118,43.7441],[11.2071,43.7424],[11.205,43.7365],[11.2065,43.7315]]]}},{"type":"Feature","properties":{"i":"048043","n":"Sesto Fiorentino"},"geometry":{"type":"Polygon","coordinates":[[[11.2895,43.8373],[11.2871,43.8352],[11.2807,43.8337],[11.2779,43.8319],[11.2767,43.8268],[11.2688,43.8274],[11.2605,43.8339],[11.2511,43.8351],[11.2476,43.8334],[11.2442,43.8297],[11.216,43.8193],[11.2052,43.8088],[11.1984,43.8111],[11.1906,43.8089],[11.1813,43.8],[11.1569,43.8029],[11.1451,43.8034],[11.1447,43.8041],[11.154,43.8123],[11.1639,43.8144],[11.1678,43.8254],[11.1606,43.8344],[11.1592,43.8408],[11.16,43.8439],[11.163,43.8468],[11.1653,43.8455],[11.1627,43.8428],[11.1702,43.8392],[11.172,43.8394],[11.1812,43.844],[11.185,43.8423],[11.1894,43.8448],[11.1921,43.8506],[11.2055,43.8585],[11.2086,43.8628],[11.206,43.8661],[11.2251,43.8738],[11.2325,43.8804],[11.2349,43.8792],[11.2444,43.8655],[11.2524,43.8621],[11.2567,43.8636],[11.2622,43.8695],[11.2635,43.872],[11.2821,43.8713],[11.2854,43.87],[11.286,43.8686],[11.2845,43.8673],[11.2738,43.8646],[11.2768,43.8616],[11.2842,43.8574],[11.287,43.8615],[11.2899,43.8611],[11.2908,43.8588],[11.2912,43.8519],[11.2901,43.8494],[11.2888,43.8411],[11.2895,43.8373]]]}},{"type":"Feature","properties":{"i":"048044","n":"Signa"},"geometry":{"type":"Polygon","coordinates":[[[11.143,43.7851],[11.1133,43.7798],[11.1073,43.7774],[11.1019,43.7739],[11.0968,43.7728],[11.0915,43.7735],[11.074,43.7823],[11.0706,43.7819],[11.0683,43.7768],[11.0663,43.776],[11.0582,43.7792],[11.0559,43.7815],[11.0625,43.7896],[11.0693,43.7887],[11.0759,43.79],[11.0781,43.7926],[11.0739,43.7939],[11.0657,43.8003],[11.0629,43.8052],[11.0613,43.8143],[11.1304,43.8037],[11.1337,43.8026],[11.1382,43.8007],[11.138,43.7991],[11.1357,43.7952],[11.1325,43.7934],[11.1311,43.7934],[11.1302,43.7912],[11.143,43.7851]]]}},{"type":"Feature","properties":{"i":"048046","n":"Vaglia"},"geometry":{"type":"Polygon","coordinates":[[[11.31,43.92],[11.3124,43.912],[11.3185,43.9055],[11.3262,43.9027],[11.3345,43.8971],[11.3354,43.8947],[11.3383,43.8934],[11.3465,43.8918],[11.3521,43.8918],[11.3541,43.8906],[11.3515,43.8853],[11.3449,43.8786],[11.3435,43.8752],[11.3448,43.8704],[11.3435,43.8676],[11.3193,43.8501],[11.3105,43.8454],[11.3021,43.8415],[11.2967,43.8402],[11.2914,43.8404],[11.2895,43.8373],[11.2888,43.8411],[11.2901,43.8494],[11.2912,43.8519],[11.2908,43.8588],[11.2899,43.8611],[11.287,43.8615],[11.2842,43.8574],[11.2768,43.8616],[11.2738,43.8646],[11.2845,43.8673],[11.286,43.8686],[11.2854,43.87],[11.2821,43.8713],[11.2635,43.872],[11.2622,43.8695],[11.2567,43.8636],[11.2524,43.8621],[11.2444,43.8655],[11.2349,43.8792],[11.2325,43.8804],[11.2331,43.8878],[11.2311,43.9001],[11.2505,43.9059],[11.2539,43.9118],[11.253,43.9147],[11.2584,43.9177],[11.2616,43.9175],[11.2616,43.9238],[11.251,43.9273],[11.2503,43.9305],[11.2532,43.9326],[11.2589,43.9346],[11.2703,43.934],[11.2759,43.9329],[11.3004,43.9238],[11.305,43.9203],[11.31,43.92]]]}},{"type":"Feature","properties":{"i":"048049","n":"Vicchio"},"geometry":{"type":"Polygon","coordinates":[[[11.5223,44.0186],[11.5243,44.0148],[11.528,44.0118],[11.5326,44.011],[11.5511,44.0093],[11.5559,44.0134],[11.5566,44.0169],[11.5652,44.0174],[11.5654,44.0164],[11.5711,44.0113],[11.583,44.0098],[11.588,44.0005],[11.5913,43.9976],[11.5975,43.9885],[11.5969,43.981],[11.595,43.9757],[11.5902,43.9735],[11.586,43.9734],[11.5785,43.9708],[11.5557,43.9559],[11.5501,43.9537],[11.5429,43.9478],[11.5385,43.9344],[11.539,43.9299],[11.5377,43.9268],[11.5272,43.9275],[11.5253,43.9286],[11.5174,43.928],[11.5077,43.9218],[11.5028,43.9172],[11.5019,43.9153],[11.506,43.9031],[11.5037,43.8987],[11.4986,43.9013],[11.4929,43.8995],[11.4781,43.8852],[11.4775,43.8838],[11.478,43.8819],[11.4744,43.8834],[11.4659,43.8847],[11.4524,43.8762],[11.4442,43.8772],[11.4359,43.8798],[11.4423,43.8813],[11.4427,43.885],[11.4362,43.8908],[11.427,43.911],[11.4222,43.9204],[11.4202,43.9227],[11.4206,43.9279],[11.4225,43.9336],[11.4179,43.9413],[11.4207,43.951],[11.4183,43.9593],[11.4184,43.9616],[11.4204,43.9665],[11.4229,43.9685],[11.4305,43.9687],[11.437,43.9761],[11.4382,43.9872],[11.4463,43.9938],[11.4473,44.0007],[11.4707,44.0139],[11.4782,44.025],[11.487,44.0309],[11.494,44.0313],[11.5068,44.0227],[11.5191,44.0201],[11.5223,44.0186]]]}},{"type":"Feature","properties":{"i":"048050","n":"Vinci"},"geometry":{"type":"Polygon","coordinates":[[[10.9641,43.8125],[10.9664,43.8086],[10.9745,43.801],[10.9791,43.7952],[10.9798,43.792],[10.9792,43.7889],[10.9778,43.7854],[10.9743,43.7838],[10.9672,43.7777],[10.959,43.7632],[10.9591,43.7608],[10.9653,43.7517],[10.965,43.7461],[10.9602,43.7427],[10.9601,43.7417],[10.9644,43.7353],[10.9543,43.7308],[10.9516,43.729],[10.9486,43.7253],[10.94,43.7224],[10.9233,43.729],[10.9089,43.7319],[10.9002,43.7354],[10.9003,43.7423],[10.9064,43.7582],[10.9037,43.7635],[10.8852,43.7743],[10.8801,43.782],[10.8539,43.8014],[10.864,43.7987],[10.868,43.7959],[10.8776,43.7944],[10.8937,43.7954],[10.9158,43.8006],[10.9209,43.8032],[10.942,43.8234],[10.9481,43.8206],[10.956,43.8196],[10.9641,43.8125]]]}},{"type":"Feature","properties":{"i":"048052","n":"Figline e Incisa Valdarno"},"geometry":{"type":"Polygon","coordinates":[[[11.4561,43.6902],[11.4544,43.6764],[11.4494,43.6658],[11.4498,43.6625],[11.455,43.6536],[11.4534,43.6473],[11.4541,43.6439],[11.459,43.6386],[11.4707,43.6297],[11.4942,43.6232],[11.5021,43.6093],[11.5077,43.6039],[11.51,43.6029],[11.516,43.5967],[11.5166,43.5942],[11.5132,43.5905],[11.5177,43.5846],[11.5215,43.5811],[11.5165,43.5784],[11.5117,43.5775],[11.5047,43.5803],[11.5005,43.5796],[11.4888,43.5801],[11.4832,43.5828],[11.47,43.5856],[11.465,43.584],[11.4515,43.5772],[11.4517,43.5729],[11.4479,43.5688],[11.4453,43.5664],[11.4392,43.5636],[11.4189,43.5602],[11.408,43.5607],[11.4051,43.5622],[11.4029,43.5677],[11.4036,43.5836],[11.407,43.5945],[11.4026,43.6],[11.4004,43.6005],[11.3989,43.6],[11.388,43.6022],[11.3745,43.6094],[11.3713,43.6123],[11.3704,43.6156],[11.3768,43.6197],[11.3754,43.628],[11.3712,43.6336],[11.3804,43.6474],[11.389,43.6491],[11.3911,43.6484],[11.3942,43.6508],[11.3963,43.6553],[11.3964,43.6572],[11.3924,43.6659],[11.3914,43.6714],[11.3873,43.6824],[11.3848,43.6862],[11.3897,43.6881],[11.3971,43.6883],[11.4032,43.687],[11.4064,43.6872],[11.4087,43.6887],[11.4095,43.691],[11.4125,43.6946],[11.4247,43.6981],[11.4352,43.6945],[11.4487,43.6939],[11.4561,43.6902]]]}},{"type":"Feature","properties":{"i":"048053","n":"Scarperia e San Piero"},"geometry":{"type":"Polygon","coordinates":[[[11.3904,44.0436],[11.389,44.0319],[11.3842,44.0194],[11.384,44.0071],[11.3853,43.9941],[11.3766,43.9869],[11.3733,43.9798],[11.3743,43.9763],[11.3786,43.9733],[11.3777,43.9697],[11.3751,43.9653],[11.37,43.9624],[11.3632,43.9627],[11.3554,43.961],[11.3222,43.9405],[11.3122,43.9302],[11.3106,43.9258],[11.31,43.92],[11.305,43.9203],[11.3004,43.9238],[11.2755,43.9329],[11.2703,43.934],[11.2589,43.9346],[11.2539,43.9329],[11.2495,43.9304],[11.2442,43.9319],[11.2416,43.9337],[11.2415,43.9361],[11.2451,43.9499],[11.2502,43.9534],[11.2553,43.9529],[11.2562,43.9547],[11.2586,43.9605],[11.2583,43.9652],[11.2568,43.9672],[11.259,43.9713],[11.2731,43.9645],[11.2932,43.9638],[11.3033,43.9646],[11.2953,43.9709],[11.2906,43.9726],[11.2901,43.9752],[11.2934,43.9848],[11.2942,43.9957],[11.2932,43.9975],[11.297,43.9991],[11.3016,43.999],[11.3106,43.9939],[11.3128,43.9953],[11.3122,44.0018],[11.3079,44.0077],[11.3055,44.0086],[11.3021,44.0115],[11.299,44.0177],[11.299,44.0255],[11.2895,44.0336],[11.2797,44.0382],[11.2705,44.0392],[11.2692,44.0409],[11.27,44.0493],[11.2805,44.0618],[11.2856,44.0718],[11.2995,44.0838],[11.3203,44.0791],[11.3281,44.0755],[11.3367,44.0699],[11.358,44.0697],[11.3671,44.0662],[11.3751,44.0575],[11.3794,44.0557],[11.3904,44.0436]]]}},{"type":"Feature","properties":{"i":"048054","n":"Barberino Tavarnelle"},"geometry":{"type":"Polygon","coordinates":[[[11.2592,43.5943],[11.2654,43.5886],[11.2673,43.588],[11.273,43.5795],[11.2732,43.5781],[11.2707,43.569],[11.2686,43.566],[11.2623,43.5648],[11.2559,43.5485],[11.261,43.5457],[11.2696,43.5458],[11.2683,43.5426],[11.2724,43.5305],[11.2687,43.5243],[11.2535,43.5093],[11.2469,43.5074],[11.2461,43.5032],[11.2481,43.5007],[11.2452,43.4983],[11.2332,43.4922],[11.2196,43.488],[11.213,43.484],[11.2103,43.4808],[11.2069,43.4804],[11.2041,43.4812],[11.2015,43.4826],[11.1957,43.488],[11.19,43.49],[11.1855,43.4906],[11.1758,43.4883],[11.1745,43.4898],[11.178,43.4947],[11.1815,43.498],[11.1836,43.499],[11.1944,43.515],[11.1936,43.5178],[11.183,43.5221],[11.1596,43.5072],[11.1542,43.5005],[11.1506,43.4874],[11.1477,43.485],[11.1361,43.4772],[11.1247,43.4756],[11.1207,43.478],[11.1197,43.4799],[11.1199,43.4855],[11.1161,43.4921],[11.1112,43.4981],[11.0866,43.5113],[11.0801,43.5159],[11.0833,43.518],[11.0868,43.5167],[11.1046,43.5202],[11.1113,43.5227],[11.1135,43.5238],[11.115,43.5265],[11.1188,43.5296],[11.1302,43.5325],[11.1368,43.5391],[11.1356,43.5413],[11.1308,43.5426],[11.1316,43.5492],[11.145,43.5625],[11.1502,43.5657],[11.1475,43.5695],[11.1412,43.5737],[11.1402,43.5755],[11.1407,43.5802],[11.1423,43.5838],[11.1438,43.5849],[11.1434,43.5866],[11.1449,43.5928],[11.1558,43.5969],[11.1632,43.6024],[11.1672,43.5991],[11.1716,43.599],[11.1814,43.6009],[11.1906,43.6053],[11.1927,43.6048],[11.2024,43.5901],[11.2113,43.584],[11.2395,43.5845],[11.2518,43.5912],[11.2592,43.5943]]]}}]}
