{"type":"FeatureCollection","fonte":"Confini comunali ISTAT via openpolis/geojson-italy — CC BY 4.0","features":[{"type":"Feature","properties":{"i":"109001","n":"Altidona"},"geometry":{"type":"Polygon","coordinates":[[[13.8292,43.1269],[13.838,43.1106],[13.8428,43.1034],[13.8349,43.1013],[13.8175,43.0933],[13.8034,43.0898],[13.794,43.0841],[13.7832,43.0958],[13.7808,43.1017],[13.7833,43.1076],[13.7854,43.1092],[13.8084,43.12],[13.8136,43.122],[13.8155,43.1215],[13.8247,43.127],[13.8292,43.1269]]]}},{"type":"Feature","properties":{"i":"109002","n":"Amandola"},"geometry":{"type":"Polygon","coordinates":[[[13.3783,43.0424],[13.3812,43.0405],[13.381,43.0365],[13.3818,43.0336],[13.3847,43.0326],[13.3827,43.031],[13.3822,43.0282],[13.384,43.0213],[13.3921,43.0112],[13.3978,43.0095],[13.4113,43.0084],[13.4079,43.0035],[13.4066,42.9995],[13.4096,42.9893],[13.413,42.9865],[13.4163,42.976],[13.4155,42.9739],[13.4105,42.9708],[13.4072,42.9696],[13.4047,42.9698],[13.403,42.9709],[13.403,42.9731],[13.4016,42.973],[13.3978,42.9716],[13.3925,42.9669],[13.3919,42.9651],[13.3938,42.9632],[13.401,42.9624],[13.4013,42.961],[13.3998,42.9579],[13.3965,42.9551],[13.392,42.9534],[13.3639,42.954],[13.3446,42.9579],[13.3203,42.9612],[13.307,42.9599],[13.2765,42.9634],[13.2696,42.9657],[13.2649,42.9663],[13.2588,42.9664],[13.2509,42.9651],[13.2503,42.9693],[13.2618,42.9706],[13.2768,42.9792],[13.295,42.9911],[13.3057,43.0017],[13.3139,43.0038],[13.3194,43.0027],[13.3208,43.0047],[13.3217,43.0091],[13.3239,43.0138],[13.3316,43.0239],[13.344,43.0301],[13.36,43.0342],[13.3709,43.0421],[13.3783,43.0424]]]}},{"type":"Feature","properties":{"i":"109003","n":"Belmonte Piceno"},"geometry":{"type":"Polygon","coordinates":[[[13.5772,43.1023],[13.5773,43.0989],[13.574,43.0956],[13.5684,43.0921],[13.5613,43.0853],[13.5609,43.0831],[13.5641,43.0797],[13.5548,43.0806],[13.5524,43.0789],[13.5395,43.0741],[13.5348,43.0765],[13.5251,43.0754],[13.5218,43.0735],[13.5205,43.0742],[13.5172,43.0791],[13.5176,43.0843],[13.5168,43.0878],[13.5136,43.0929],[13.5174,43.0953],[13.524,43.0968],[13.5359,43.098],[13.5526,43.0983],[13.5566,43.1009],[13.5735,43.1074],[13.5772,43.1023]]]}},{"type":"Feature","properties":{"i":"109004","n":"Campofilone"},"geometry":{"type":"Polygon","coordinates":[[[13.8468,43.0802],[13.8497,43.0667],[13.8382,43.064],[13.8016,43.0637],[13.7968,43.0621],[13.7932,43.0635],[13.7865,43.0714],[13.7851,43.0786],[13.7852,43.0798],[13.8034,43.0898],[13.8175,43.0933],[13.8226,43.0958],[13.8229,43.0912],[13.831,43.0799],[13.8389,43.0784],[13.8468,43.0802]]]}},{"type":"Feature","properties":{"i":"109005","n":"Falerone"},"geometry":{"type":"Polygon","coordinates":[[[13.4604,43.1208],[13.4621,43.1173],[13.4641,43.1153],[13.4794,43.1144],[13.4909,43.1113],[13.4981,43.1084],[13.5054,43.1077],[13.517,43.0952],[13.5067,43.0887],[13.4993,43.0855],[13.4948,43.0859],[13.4891,43.0843],[13.4838,43.0803],[13.4776,43.0824],[13.4658,43.0806],[13.4564,43.0757],[13.4496,43.0733],[13.4438,43.0762],[13.4338,43.0852],[13.4303,43.0983],[13.4302,43.1103],[13.4322,43.1156],[13.437,43.1177],[13.4395,43.12],[13.4409,43.123],[13.4408,43.1244],[13.4521,43.1236],[13.4604,43.1208]]]}},{"type":"Feature","properties":{"i":"109006","n":"Fermo"},"geometry":{"type":"MultiPolygon","coordinates":[[[[13.5835,43.1117],[13.5722,43.1069],[13.5704,43.1084],[13.5704,43.1099],[13.5753,43.1149],[13.5784,43.1164],[13.5835,43.1117]]],[[[13.5183,43.1738],[13.5233,43.172],[13.5279,43.1716],[13.5324,43.1723],[13.5374,43.1701],[13.5351,43.1666],[13.5291,43.1613],[13.5219,43.1621],[13.5246,43.1668],[13.5239,43.1672],[13.5158,43.1682],[13.513,43.1663],[13.5126,43.1643],[13.5134,43.1629],[13.5065,43.1556],[13.505,43.1575],[13.4976,43.1572],[13.4918,43.158],[13.4894,43.1644],[13.4924,43.1641],[13.494,43.1675],[13.4967,43.1705],[13.5053,43.1736],[13.5183,43.1738]]],[[[13.7907,43.199],[13.7841,43.1978],[13.7724,43.1858],[13.7625,43.1818],[13.7604,43.1777],[13.7609,43.176],[13.7721,43.1722],[13.7816,43.1644],[13.7896,43.1621],[13.8112,43.1633],[13.8169,43.1473],[13.8252,43.1316],[13.8292,43.1269],[13.8247,43.127],[13.8155,43.1215],[13.8136,43.122],[13.8156,43.124],[13.8141,43.1249],[13.7925,43.1247],[13.7882,43.1262],[13.7836,43.1294],[13.7792,43.1306],[13.7719,43.129],[13.7541,43.1192],[13.7513,43.1126],[13.7502,43.1058],[13.748,43.1073],[13.7459,43.1107],[13.747,43.114],[13.7411,43.1186],[13.7309,43.1237],[13.7232,43.1249],[13.7138,43.1235],[13.6959,43.1172],[13.6911,43.1131],[13.6904,43.1103],[13.6867,43.1108],[13.6784,43.1102],[13.6704,43.1125],[13.6661,43.1157],[13.662,43.1197],[13.6635,43.1238],[13.6576,43.1256],[13.6524,43.1242],[13.6424,43.1259],[13.6279,43.135],[13.6234,43.1326],[13.615,43.1372],[13.6285,43.1456],[13.6371,43.1559],[13.6372,43.1571],[13.6336,43.1595],[13.6313,43.1621],[13.6295,43.1709],[13.6329,43.1714],[13.6395,43.1759],[13.6474,43.184],[13.6504,43.185],[13.6548,43.1878],[13.6633,43.1864],[13.6671,43.1846],[13.6726,43.179],[13.6802,43.1733],[13.6841,43.1743],[13.7104,43.1927],[13.7368,43.2133],[13.7381,43.2153],[13.738,43.2181],[13.7366,43.2225],[13.7367,43.2257],[13.7385,43.2282],[13.7412,43.2293],[13.762,43.2309],[13.779,43.2348],[13.7816,43.2243],[13.7895,43.2051],[13.7907,43.199]]]]}},{"type":"Feature","properties":{"i":"109007","n":"Francavilla d'Ete"},"geometry":{"type":"Polygon","coordinates":[[[13.5459,43.1805],[13.5374,43.1701],[13.5324,43.1723],[13.5279,43.1716],[13.5233,43.172],[13.5183,43.1738],[13.5194,43.1781],[13.5185,43.1841],[13.5246,43.1916],[13.5259,43.1981],[13.5219,43.205],[13.5211,43.2092],[13.5283,43.212],[13.5506,43.2125],[13.5551,43.2042],[13.5572,43.1981],[13.5551,43.1973],[13.5507,43.1937],[13.5461,43.1833],[13.5459,43.1805]]]}},{"type":"Feature","properties":{"i":"109008","n":"Grottazzolina"},"geometry":{"type":"Polygon","coordinates":[[[13.6259,43.122],[13.6217,43.116],[13.6151,43.1094],[13.6011,43.0993],[13.5975,43.0957],[13.5799,43.1007],[13.5772,43.1023],[13.5735,43.1074],[13.5864,43.1133],[13.615,43.1372],[13.6234,43.1326],[13.6205,43.1311],[13.6241,43.1264],[13.6266,43.1249],[13.6259,43.122]]]}},{"type":"Feature","properties":{"i":"109009","n":"Lapedona"},"geometry":{"type":"Polygon","coordinates":[[[13.8136,43.122],[13.7854,43.1092],[13.7833,43.1076],[13.7808,43.1017],[13.7832,43.0958],[13.794,43.0841],[13.7766,43.0766],[13.7746,43.0801],[13.7698,43.0852],[13.7732,43.0862],[13.77,43.0927],[13.7464,43.0944],[13.7451,43.0962],[13.7457,43.1013],[13.7502,43.1058],[13.7513,43.1126],[13.7541,43.1192],[13.7719,43.129],[13.7792,43.1306],[13.7836,43.1294],[13.7882,43.1262],[13.7925,43.1247],[13.8141,43.1249],[13.8156,43.124],[13.8136,43.122]]]}},{"type":"Feature","properties":{"i":"109010","n":"Magliano di Tenna"},"geometry":{"type":"Polygon","coordinates":[[[13.6144,43.137],[13.5864,43.1133],[13.5835,43.1117],[13.5784,43.1164],[13.5808,43.1217],[13.5786,43.1308],[13.5734,43.1441],[13.5749,43.148],[13.5841,43.1511],[13.5919,43.1498],[13.6092,43.1424],[13.6144,43.137]]]}},{"type":"Feature","properties":{"i":"109011","n":"Massa Fermana"},"geometry":{"type":"Polygon","coordinates":[[[13.4894,43.1644],[13.4918,43.158],[13.4976,43.1572],[13.505,43.1575],[13.5077,43.1525],[13.5058,43.1474],[13.4965,43.1398],[13.4919,43.1419],[13.4838,43.1435],[13.4745,43.1441],[13.4638,43.1491],[13.4595,43.152],[13.4527,43.1538],[13.4621,43.1636],[13.4781,43.1654],[13.4894,43.1644]]]}},{"type":"Feature","properties":{"i":"109012","n":"Monsampietro Morico"},"geometry":{"type":"Polygon","coordinates":[[[13.5641,43.0797],[13.5693,43.0773],[13.5719,43.0736],[13.5722,43.0709],[13.5679,43.0627],[13.5621,43.0598],[13.5619,43.0576],[13.5683,43.0495],[13.5749,43.0481],[13.5766,43.0485],[13.5749,43.0452],[13.5773,43.0424],[13.5771,43.0408],[13.5726,43.0364],[13.5709,43.037],[13.5697,43.0386],[13.5674,43.0379],[13.5599,43.0315],[13.5465,43.0394],[13.5439,43.0397],[13.543,43.0427],[13.5499,43.0538],[13.5453,43.063],[13.5385,43.0698],[13.5386,43.0709],[13.5395,43.0741],[13.5524,43.0789],[13.5548,43.0806],[13.5641,43.0797]]]}},{"type":"Feature","properties":{"i":"109013","n":"Montappone"},"geometry":{"type":"Polygon","coordinates":[[[13.4965,43.1398],[13.4919,43.1357],[13.4824,43.1344],[13.4804,43.1321],[13.46,43.1208],[13.4521,43.1236],[13.4408,43.1244],[13.4368,43.1304],[13.4379,43.1332],[13.4337,43.1374],[13.446,43.1507],[13.4527,43.1538],[13.4595,43.152],[13.4638,43.1491],[13.4745,43.1441],[13.4838,43.1435],[13.4919,43.1419],[13.4965,43.1398]]]}},{"type":"Feature","properties":{"i":"109014","n":"Montefalcone Appennino"},"geometry":{"type":"Polygon","coordinates":[[[13.4935,42.9887],[13.4907,42.9873],[13.4842,42.9862],[13.4789,42.9843],[13.461,42.9703],[13.4572,42.9689],[13.4548,42.9659],[13.4464,42.9686],[13.4365,42.97],[13.4303,42.9725],[13.4252,42.9767],[13.4172,42.9767],[13.4156,42.9776],[13.413,42.9865],[13.4336,42.9864],[13.4388,42.9872],[13.4461,42.9903],[13.4486,42.9933],[13.4468,42.9979],[13.4518,43.0044],[13.4538,43.0055],[13.4554,43.0149],[13.4553,43.0184],[13.4597,43.0204],[13.4716,43.013],[13.4727,43.0082],[13.4722,43.0004],[13.4935,42.9887]]]}},{"type":"Feature","properties":{"i":"109015","n":"Montefortino"},"geometry":{"type":"Polygon","coordinates":[[[13.2509,42.9651],[13.2588,42.9664],[13.2649,42.9663],[13.2696,42.9657],[13.2765,42.9634],[13.307,42.9599],[13.3203,42.9612],[13.3446,42.9579],[13.3639,42.954],[13.3905,42.9534],[13.3943,42.947],[13.3932,42.9419],[13.3919,42.9404],[13.3922,42.9392],[13.4049,42.9317],[13.4092,42.9303],[13.4105,42.929],[13.4096,42.9251],[13.4029,42.9157],[13.3993,42.9127],[13.3936,42.9122],[13.3814,42.9059],[13.38,42.904],[13.3821,42.9005],[13.384,42.8943],[13.3753,42.8902],[13.3702,42.896],[13.3592,42.9136],[13.3567,42.9149],[13.353,42.9159],[13.343,42.9158],[13.3332,42.917],[13.3299,42.9183],[13.3289,42.9199],[13.3256,42.9213],[13.3121,42.9235],[13.2996,42.9227],[13.2926,42.9255],[13.2907,42.9248],[13.2832,42.9174],[13.2812,42.9116],[13.2729,42.9105],[13.2679,42.9111],[13.2601,42.9081],[13.2585,42.8997],[13.2418,42.892],[13.2385,42.8987],[13.2351,42.9026],[13.2336,42.907],[13.2304,42.923],[13.2257,42.9276],[13.2227,42.9267],[13.2177,42.9361],[13.2175,42.9413],[13.2189,42.9457],[13.2182,42.9484],[13.2161,42.9511],[13.2193,42.9545],[13.227,42.9595],[13.2429,42.9673],[13.2509,42.9651]]]}},{"type":"Feature","properties":{"i":"109016","n":"Monte Giberto"},"geometry":{"type":"Polygon","coordinates":[[[13.6527,43.0922],[13.6486,43.0919],[13.6428,43.0881],[13.6353,43.0792],[13.6192,43.0754],[13.6054,43.0775],[13.6004,43.0838],[13.5969,43.0923],[13.5975,43.0957],[13.6011,43.0993],[13.6151,43.1094],[13.6217,43.116],[13.6259,43.122],[13.6281,43.1189],[13.6285,43.1163],[13.6337,43.109],[13.6399,43.1029],[13.6495,43.0961],[13.6527,43.0922]]]}},{"type":"Feature","properties":{"i":"109017","n":"Montegiorgio"},"geometry":{"type":"Polygon","coordinates":[[[13.5799,43.1709],[13.5786,43.1677],[13.5788,43.1646],[13.5841,43.1511],[13.5749,43.148],[13.5734,43.1441],[13.5786,43.1308],[13.5808,43.1217],[13.5784,43.1164],[13.5753,43.1149],[13.5704,43.1099],[13.5704,43.1084],[13.5722,43.1069],[13.5566,43.1009],[13.5526,43.0983],[13.5359,43.098],[13.524,43.0968],[13.517,43.0952],[13.5054,43.1077],[13.5044,43.112],[13.5045,43.1175],[13.4954,43.1286],[13.4924,43.1298],[13.4897,43.1319],[13.4893,43.1332],[13.4895,43.1341],[13.5058,43.1474],[13.5077,43.1525],[13.5065,43.1556],[13.5134,43.1629],[13.5126,43.1643],[13.5131,43.1665],[13.5158,43.1682],[13.5234,43.1674],[13.5246,43.1668],[13.5219,43.1621],[13.5291,43.1613],[13.5351,43.1666],[13.5459,43.1805],[13.5483,43.1768],[13.5722,43.1692],[13.5799,43.1709]]]}},{"type":"Feature","properties":{"i":"109018","n":"Montegranaro"},"geometry":{"type":"Polygon","coordinates":[[[13.6594,43.2189],[13.6596,43.2179],[13.6572,43.2157],[13.6501,43.2131],[13.6439,43.2079],[13.6424,43.2032],[13.6328,43.2011],[13.6271,43.2029],[13.6137,43.205],[13.6108,43.2047],[13.5962,43.2124],[13.5952,43.2135],[13.5973,43.2191],[13.6021,43.2255],[13.6078,43.2369],[13.6073,43.2493],[13.6024,43.262],[13.601,43.2678],[13.6077,43.2714],[13.6108,43.2721],[13.6149,43.2719],[13.6319,43.2682],[13.6439,43.2707],[13.6508,43.2738],[13.6577,43.2663],[13.655,43.2409],[13.6594,43.2189]]]}},{"type":"Feature","properties":{"i":"109019","n":"Monteleone di Fermo"},"geometry":{"type":"Polygon","coordinates":[[[13.5395,43.0741],[13.5385,43.0698],[13.5453,43.063],[13.5499,43.0538],[13.5467,43.0479],[13.5441,43.0449],[13.5326,43.0419],[13.529,43.0421],[13.5269,43.0401],[13.5266,43.0387],[13.5219,43.039],[13.5185,43.0427],[13.5161,43.0499],[13.517,43.0502],[13.5181,43.0551],[13.5166,43.0577],[13.5165,43.0613],[13.5189,43.0689],[13.5218,43.0735],[13.5244,43.0752],[13.5353,43.0765],[13.5395,43.0741]]]}},{"type":"Feature","properties":{"i":"109020","n":"Montelparo"},"geometry":{"type":"Polygon","coordinates":[[[13.5599,43.0315],[13.5599,43.029],[13.5641,43.0235],[13.5699,43.0225],[13.5763,43.0201],[13.5833,43.0111],[13.5779,43.0069],[13.5758,43.0044],[13.5752,42.9991],[13.5699,42.9971],[13.5659,42.9919],[13.5576,42.9892],[13.5515,42.9884],[13.5468,42.9896],[13.5421,42.9893],[13.5371,42.9908],[13.5247,42.9927],[13.5191,42.9994],[13.5209,43.0078],[13.5203,43.0162],[13.519,43.0206],[13.5239,43.029],[13.5269,43.0364],[13.5268,43.0399],[13.5279,43.0412],[13.529,43.0421],[13.5326,43.0419],[13.5441,43.0449],[13.5428,43.0424],[13.5439,43.0397],[13.5465,43.0394],[13.5599,43.0315]]]}},{"type":"Feature","properties":{"i":"109021","n":"Monte Rinaldo"},"geometry":{"type":"Polygon","coordinates":[[[13.5934,43.0388],[13.5898,43.0343],[13.5935,43.0247],[13.6012,43.0121],[13.5984,43.0091],[13.5966,43.0084],[13.5956,43.0082],[13.5944,43.0094],[13.5885,43.0108],[13.5833,43.0111],[13.5765,43.0199],[13.5699,43.0225],[13.5641,43.0235],[13.5599,43.029],[13.5599,43.0315],[13.561,43.033],[13.5674,43.0379],[13.5697,43.0386],[13.5722,43.0363],[13.5743,43.0377],[13.5771,43.0408],[13.5773,43.0424],[13.5751,43.0448],[13.5752,43.0465],[13.5766,43.0485],[13.5815,43.0508],[13.5842,43.0514],[13.5908,43.0488],[13.5934,43.0388]]]}},{"type":"Feature","properties":{"i":"109022","n":"Monterubbiano"},"geometry":{"type":"Polygon","coordinates":[[[13.7502,43.1058],[13.7457,43.1013],[13.745,43.0969],[13.7461,43.0946],[13.77,43.0927],[13.7732,43.0862],[13.7652,43.0842],[13.7584,43.0837],[13.7412,43.0889],[13.7305,43.0899],[13.7268,43.088],[13.7264,43.0865],[13.7318,43.0735],[13.7337,43.0719],[13.7353,43.0722],[13.7377,43.0712],[13.7431,43.0662],[13.7286,43.0628],[13.7226,43.0606],[13.7012,43.0494],[13.6936,43.0575],[13.6886,43.0702],[13.6855,43.0721],[13.6783,43.0739],[13.6775,43.0784],[13.6783,43.081],[13.6788,43.0819],[13.6837,43.0844],[13.6883,43.0951],[13.6911,43.1131],[13.6959,43.1172],[13.7138,43.1235],[13.7232,43.1249],[13.7309,43.1237],[13.7411,43.1186],[13.747,43.114],[13.7459,43.1107],[13.748,43.1073],[13.7502,43.1058]]]}},{"type":"Feature","properties":{"i":"109023","n":"Monte San Pietrangeli"},"geometry":{"type":"Polygon","coordinates":[[[13.5952,43.2135],[13.6079,43.2059],[13.6108,43.2047],[13.6137,43.205],[13.6133,43.2022],[13.6116,43.2001],[13.6054,43.1957],[13.5944,43.1858],[13.5926,43.1761],[13.5911,43.1746],[13.5722,43.1692],[13.5483,43.1768],[13.5459,43.1805],[13.5461,43.1833],[13.5489,43.1907],[13.5507,43.1937],[13.5535,43.1962],[13.5572,43.1981],[13.5551,43.2042],[13.5506,43.2125],[13.5548,43.2151],[13.5599,43.2161],[13.566,43.2167],[13.5733,43.216],[13.5903,43.2083],[13.5931,43.2094],[13.5953,43.2124],[13.5952,43.2135]]]}},{"type":"Feature","properties":{"i":"109024","n":"Monte Urano"},"geometry":{"type":"Polygon","coordinates":[[[13.7104,43.1927],[13.6863,43.1755],[13.6802,43.1733],[13.6726,43.179],[13.6671,43.1846],[13.6633,43.1864],[13.6548,43.1878],[13.6504,43.185],[13.6417,43.1915],[13.6376,43.1965],[13.6363,43.1988],[13.636,43.2016],[13.6424,43.2032],[13.6439,43.2079],[13.6501,43.2131],[13.6572,43.2157],[13.6596,43.2179],[13.6594,43.2189],[13.6835,43.2126],[13.7104,43.1927]]]}},{"type":"Feature","properties":{"i":"109025","n":"Monte Vidon Combatte"},"geometry":{"type":"Polygon","coordinates":[[[13.6192,43.0754],[13.635,43.06],[13.6417,43.0568],[13.6483,43.0398],[13.6311,43.0328],[13.6266,43.0357],[13.6224,43.0411],[13.616,43.0456],[13.6115,43.0441],[13.6103,43.0429],[13.6073,43.0424],[13.6056,43.0495],[13.6038,43.05],[13.6017,43.0531],[13.6013,43.0601],[13.6028,43.0693],[13.6026,43.0733],[13.6054,43.0775],[13.6192,43.0754]]]}},{"type":"Feature","properties":{"i":"109026","n":"Monte Vidon Corrado"},"geometry":{"type":"Polygon","coordinates":[[[13.5054,43.1077],[13.4981,43.1084],[13.4909,43.1113],[13.4794,43.1144],[13.4641,43.1153],[13.4621,43.1173],[13.4604,43.1208],[13.4804,43.1321],[13.4826,43.1346],[13.4919,43.1357],[13.4895,43.1341],[13.4894,43.1325],[13.4924,43.1298],[13.4954,43.1286],[13.5045,43.1175],[13.5044,43.112],[13.5054,43.1077]]]}},{"type":"Feature","properties":{"i":"109027","n":"Montottone"},"geometry":{"type":"Polygon","coordinates":[[[13.5975,43.0957],[13.5969,43.0923],[13.6004,43.0838],[13.6054,43.0775],[13.6025,43.073],[13.6028,43.0693],[13.6013,43.057],[13.6019,43.0523],[13.6038,43.05],[13.6056,43.0495],[13.6073,43.0424],[13.5951,43.0376],[13.5934,43.0388],[13.5912,43.0481],[13.59,43.0495],[13.5839,43.0514],[13.5749,43.0481],[13.5683,43.0495],[13.5654,43.0526],[13.5619,43.0576],[13.562,43.0596],[13.5679,43.0627],[13.5722,43.0709],[13.5719,43.0736],[13.5693,43.0773],[13.5641,43.0797],[13.5618,43.0817],[13.5607,43.0838],[13.5614,43.0856],[13.5684,43.0921],[13.574,43.0956],[13.5773,43.0989],[13.5772,43.1023],[13.5799,43.1007],[13.5975,43.0957]]]}},{"type":"Feature","properties":{"i":"109028","n":"Moresco"},"geometry":{"type":"Polygon","coordinates":[[[13.7698,43.0852],[13.7746,43.0801],[13.7766,43.0766],[13.7431,43.0662],[13.7377,43.0712],[13.7353,43.0722],[13.7337,43.0719],[13.7318,43.0735],[13.7264,43.0865],[13.7268,43.088],[13.7305,43.0899],[13.7412,43.0889],[13.7584,43.0837],[13.7698,43.0852]]]}},{"type":"Feature","properties":{"i":"109029","n":"Ortezzano"},"geometry":{"type":"Polygon","coordinates":[[[13.6311,43.0328],[13.6216,43.0229],[13.6109,43.0181],[13.6012,43.0121],[13.5935,43.0247],[13.5898,43.0343],[13.5934,43.0388],[13.5951,43.0376],[13.6053,43.0418],[13.6103,43.0429],[13.6115,43.0441],[13.616,43.0456],[13.6224,43.0411],[13.6266,43.0357],[13.6311,43.0328]]]}},{"type":"Feature","properties":{"i":"109030","n":"Pedaso"},"geometry":{"type":"Polygon","coordinates":[[[13.8468,43.0802],[13.8389,43.0784],[13.831,43.0799],[13.8229,43.0912],[13.8226,43.0958],[13.8349,43.1013],[13.8428,43.1034],[13.8439,43.1011],[13.8469,43.0879],[13.8461,43.0835],[13.8468,43.0802]]]}},{"type":"Feature","properties":{"i":"109031","n":"Petritoli"},"geometry":{"type":"Polygon","coordinates":[[[13.6837,43.0844],[13.6786,43.0817],[13.6775,43.0784],[13.6783,43.0739],[13.6855,43.0721],[13.6886,43.0702],[13.6936,43.0575],[13.7012,43.0494],[13.6983,43.0478],[13.6791,43.0418],[13.6569,43.0421],[13.6561,43.0381],[13.658,43.0331],[13.6572,43.0293],[13.655,43.0295],[13.6449,43.035],[13.6432,43.0378],[13.6483,43.0398],[13.6417,43.0568],[13.635,43.06],[13.6192,43.0754],[13.6353,43.0792],[13.6428,43.0881],[13.6486,43.0919],[13.6527,43.0922],[13.6568,43.0937],[13.6629,43.0933],[13.6717,43.0906],[13.6787,43.0878],[13.6837,43.0844]]]}},{"type":"Feature","properties":{"i":"109032","n":"Ponzano di Fermo"},"geometry":{"type":"Polygon","coordinates":[[[13.6904,43.1103],[13.6883,43.0951],[13.6837,43.0844],[13.6787,43.0878],[13.6629,43.0933],[13.6568,43.0937],[13.6527,43.0922],[13.6495,43.0961],[13.6399,43.1029],[13.6337,43.109],[13.6285,43.1163],[13.6281,43.1189],[13.6259,43.122],[13.6266,43.1249],[13.6241,43.1264],[13.6205,43.1311],[13.6279,43.135],[13.6424,43.1259],[13.6524,43.1242],[13.6576,43.1256],[13.6635,43.1238],[13.662,43.1197],[13.6704,43.1125],[13.6784,43.1102],[13.6867,43.1108],[13.6904,43.1103]]]}},{"type":"Feature","properties":{"i":"109033","n":"Porto San Giorgio"},"geometry":{"type":"Polygon","coordinates":[[[13.8112,43.1633],[13.7896,43.1621],[13.7816,43.1644],[13.7721,43.1722],[13.7609,43.176],[13.7604,43.1777],[13.7625,43.1818],[13.7724,43.1858],[13.7837,43.1975],[13.7907,43.199],[13.7922,43.1976],[13.7971,43.1886],[13.8,43.1807],[13.805,43.1705],[13.8091,43.1645],[13.8104,43.1635],[13.8123,43.1644],[13.8133,43.1656],[13.8137,43.1689],[13.8136,43.1653],[13.8112,43.1633]]]}},{"type":"Feature","properties":{"i":"109034","n":"Porto Sant'Elpidio"},"geometry":{"type":"Polygon","coordinates":[[[13.779,43.2348],[13.7702,43.2323],[13.7495,43.2294],[13.7446,43.2341],[13.7299,43.2376],[13.7215,43.2406],[13.7179,43.2439],[13.7138,43.2496],[13.718,43.2552],[13.7244,43.2616],[13.7374,43.2711],[13.7377,43.2791],[13.7306,43.2794],[13.7301,43.2813],[13.7325,43.2875],[13.7317,43.2907],[13.7432,43.2948],[13.7627,43.258],[13.7743,43.24],[13.779,43.2348]]]}},{"type":"Feature","properties":{"i":"109035","n":"Rapagnano"},"geometry":{"type":"Polygon","coordinates":[[[13.6295,43.1709],[13.6313,43.1621],[13.6336,43.1595],[13.6372,43.1571],[13.6371,43.1559],[13.6285,43.1456],[13.6144,43.137],[13.6092,43.1424],[13.5919,43.1498],[13.5841,43.1511],[13.5786,43.166],[13.5799,43.1709],[13.5941,43.1756],[13.5972,43.1724],[13.6239,43.1701],[13.6295,43.1709]]]}},{"type":"Feature","properties":{"i":"109036","n":"Santa Vittoria in Matenano"},"geometry":{"type":"Polygon","coordinates":[[[13.5266,43.0387],[13.5269,43.0364],[13.5239,43.029],[13.519,43.0206],[13.5203,43.0162],[13.5209,43.0078],[13.5191,42.9994],[13.5247,42.9927],[13.5192,42.9922],[13.5079,42.9883],[13.4977,42.9873],[13.4935,42.9887],[13.4722,43.0004],[13.4727,43.0082],[13.4716,43.013],[13.4597,43.0204],[13.4591,43.0215],[13.4599,43.0263],[13.4612,43.0272],[13.4669,43.0444],[13.4732,43.0442],[13.4826,43.0423],[13.4945,43.0423],[13.5031,43.0442],[13.5161,43.0499],[13.5185,43.0427],[13.5201,43.0403],[13.5219,43.039],[13.5266,43.0387]]]}},{"type":"Feature","properties":{"i":"109037","n":"Sant'Elpidio a Mare"},"geometry":{"type":"Polygon","coordinates":[[[13.7495,43.2294],[13.7429,43.2298],[13.7381,43.2278],[13.7365,43.2242],[13.738,43.2181],[13.7375,43.214],[13.7104,43.1927],[13.6835,43.2126],[13.6594,43.2189],[13.655,43.2409],[13.6577,43.2663],[13.6508,43.2738],[13.6538,43.2748],[13.6814,43.2773],[13.7055,43.2862],[13.7146,43.2878],[13.7257,43.2882],[13.7317,43.2907],[13.7325,43.2875],[13.7301,43.2813],[13.7306,43.2794],[13.7377,43.2791],[13.7374,43.2711],[13.7244,43.2616],[13.718,43.2552],[13.7138,43.2496],[13.7179,43.2439],[13.7215,43.2406],[13.7299,43.2376],[13.7446,43.2341],[13.7495,43.2294]]]}},{"type":"Feature","properties":{"i":"109038","n":"Servigliano"},"geometry":{"type":"Polygon","coordinates":[[[13.5218,43.0735],[13.5189,43.0689],[13.5166,43.0618],[13.5166,43.0577],[13.5181,43.0551],[13.517,43.0502],[13.5031,43.0442],[13.4945,43.0423],[13.4826,43.0423],[13.4732,43.0442],[13.4669,43.0444],[13.462,43.058],[13.462,43.0619],[13.4631,43.0651],[13.4728,43.0735],[13.4888,43.0842],[13.4948,43.0859],[13.4999,43.0857],[13.5067,43.0887],[13.5136,43.0929],[13.5168,43.0878],[13.5176,43.0843],[13.5172,43.0791],[13.5201,43.0745],[13.5218,43.0735]]]}},{"type":"Feature","properties":{"i":"109039","n":"Smerillo"},"geometry":{"type":"Polygon","coordinates":[[[13.4553,43.0184],[13.4554,43.0149],[13.4538,43.0055],[13.4518,43.0044],[13.4468,42.9979],[13.4486,42.9933],[13.4461,42.9903],[13.4388,42.9872],[13.4336,42.9864],[13.4126,42.9865],[13.4097,42.989],[13.4067,43.0007],[13.4113,43.0084],[13.4111,43.0105],[13.4132,43.0116],[13.4144,43.0104],[13.4191,43.0139],[13.4209,43.0176],[13.4306,43.0224],[13.4335,43.0207],[13.4405,43.0192],[13.4517,43.0177],[13.4553,43.0184]]]}},{"type":"Feature","properties":{"i":"109040","n":"Torre San Patrizio"},"geometry":{"type":"Polygon","coordinates":[[[13.636,43.2016],[13.6363,43.1988],[13.6376,43.1965],[13.6417,43.1915],[13.6504,43.185],[13.6474,43.184],[13.6395,43.1759],[13.6329,43.1714],[13.6239,43.1701],[13.6164,43.1707],[13.5972,43.1724],[13.5941,43.1756],[13.5911,43.1746],[13.5926,43.1761],[13.5944,43.1858],[13.6054,43.1957],[13.6116,43.2001],[13.6133,43.2022],[13.6137,43.205],[13.6271,43.2029],[13.6328,43.2011],[13.636,43.2016]]]}}]}
