{"type":"FeatureCollection","fonte":"Confini comunali ISTAT via openpolis/geojson-italy — CC BY 4.0","features":[{"type":"Feature","properties":{"i":"060001","n":"Acquafondata"},"geometry":{"type":"Polygon","coordinates":[[[14.0017,41.5697],[14.0045,41.5664],[14.0108,41.5656],[14.0238,41.5607],[14.026,41.5553],[14.0248,41.5536],[14.0207,41.5424],[14.0059,41.5394],[13.9957,41.5469],[13.9934,41.548],[13.9891,41.5484],[13.9811,41.5448],[13.9775,41.5374],[13.9591,41.5327],[13.9577,41.5313],[13.9585,41.5286],[13.9567,41.5247],[13.9522,41.5201],[13.9423,41.5175],[13.9367,41.5335],[13.9361,41.5366],[13.9366,41.5431],[13.9339,41.5509],[13.9403,41.5585],[13.945,41.5624],[13.9613,41.5702],[13.9781,41.5718],[13.9875,41.5736],[13.9977,41.5721],[14.0005,41.571],[14.0017,41.5697]]]}},{"type":"Feature","properties":{"i":"060002","n":"Acuto"},"geometry":{"type":"Polygon","coordinates":[[[13.2126,41.7785],[13.2106,41.7748],[13.2095,41.7742],[13.1977,41.7732],[13.1962,41.7734],[13.1921,41.7772],[13.1758,41.7811],[13.1418,41.7841],[13.1367,41.7827],[13.1532,41.799],[13.1562,41.805],[13.1567,41.8095],[13.1656,41.8144],[13.1806,41.8099],[13.1848,41.8076],[13.1866,41.8015],[13.1974,41.7899],[13.2058,41.783],[13.2126,41.7785]]]}},{"type":"Feature","properties":{"i":"060003","n":"Alatri"},"geometry":{"type":"MultiPolygon","coordinates":[[[[13.3571,41.7622],[13.3569,41.7557],[13.3591,41.7511],[13.3686,41.7464],[13.3762,41.746],[13.3859,41.7495],[13.3989,41.7465],[13.4033,41.7341],[13.4004,41.7252],[13.3905,41.7201],[13.3878,41.7169],[13.3887,41.7081],[13.3907,41.7037],[13.3914,41.6919],[13.3869,41.6864],[13.3852,41.6819],[13.3873,41.6759],[13.3871,41.673],[13.3852,41.6708],[13.3811,41.6686],[13.3705,41.6669],[13.3643,41.6637],[13.3633,41.6598],[13.3361,41.6655],[13.3285,41.6652],[13.3262,41.6614],[13.3244,41.6555],[13.3163,41.6544],[13.3139,41.6555],[13.3121,41.6589],[13.315,41.6644],[13.3144,41.6678],[13.3105,41.673],[13.3122,41.675],[13.3127,41.6775],[13.3029,41.6866],[13.2987,41.6967],[13.2919,41.7006],[13.2898,41.7025],[13.2891,41.7042],[13.2982,41.7092],[13.3017,41.7129],[13.304,41.7251],[13.3041,41.7279],[13.3031,41.731],[13.2947,41.7393],[13.2851,41.7456],[13.2812,41.7461],[13.2814,41.7482],[13.289,41.7519],[13.2972,41.7682],[13.304,41.7684],[13.3098,41.7669],[13.3228,41.7603],[13.3244,41.7579],[13.3293,41.7558],[13.3544,41.7608],[13.3571,41.7622]]],[[[13.4876,41.8033],[13.476,41.797],[13.4642,41.789],[13.4483,41.7768],[13.44,41.7816],[13.4279,41.785],[13.4205,41.7826],[13.4124,41.7824],[13.4136,41.7847],[13.413,41.8098],[13.4203,41.8122],[13.4264,41.8077],[13.4288,41.8068],[13.4364,41.8106],[13.4485,41.8191],[13.4516,41.8228],[13.4556,41.8204],[13.4646,41.8091],[13.4704,41.8064],[13.4824,41.8034],[13.4876,41.8033]]]]}},{"type":"Feature","properties":{"i":"060004","n":"Alvito"},"geometry":{"type":"Polygon","coordinates":[[[13.7901,41.743],[13.7813,41.7384],[13.7781,41.7336],[13.7716,41.7123],[13.7716,41.7038],[13.7734,41.7035],[13.7805,41.6997],[13.7837,41.6963],[13.788,41.677],[13.7865,41.6752],[13.7821,41.6736],[13.7775,41.6696],[13.774,41.6651],[13.7697,41.6549],[13.7652,41.6537],[13.757,41.6487],[13.7498,41.6584],[13.7431,41.6611],[13.7448,41.6641],[13.7423,41.6672],[13.7349,41.6731],[13.7296,41.6761],[13.7267,41.6834],[13.7262,41.6863],[13.7235,41.6902],[13.7141,41.6961],[13.7127,41.7093],[13.7215,41.7142],[13.7217,41.7152],[13.7215,41.7166],[13.7169,41.7202],[13.7146,41.723],[13.7152,41.7284],[13.7191,41.7308],[13.7238,41.7457],[13.7281,41.7562],[13.7316,41.7617],[13.733,41.7631],[13.7487,41.7696],[13.7494,41.7612],[13.7564,41.7577],[13.762,41.7517],[13.7672,41.7489],[13.7794,41.7469],[13.7901,41.743]]]}},{"type":"Feature","properties":{"i":"060005","n":"Amaseno"},"geometry":{"type":"Polygon","coordinates":[[[13.3785,41.4698],[13.3813,41.4651],[13.3865,41.46],[13.3827,41.4527],[13.3823,41.4479],[13.3831,41.4418],[13.3881,41.4363],[13.3829,41.4316],[13.3613,41.4169],[13.3492,41.4046],[13.3365,41.4066],[13.3237,41.4067],[13.321,41.4063],[13.3179,41.4035],[13.3133,41.4021],[13.3065,41.4026],[13.293,41.4192],[13.2708,41.4289],[13.2547,41.4326],[13.26,41.4398],[13.2617,41.4468],[13.2656,41.452],[13.2782,41.46],[13.2939,41.466],[13.2974,41.4693],[13.2964,41.4766],[13.2948,41.4809],[13.2909,41.4849],[13.2957,41.4858],[13.3125,41.4945],[13.317,41.4937],[13.3263,41.4941],[13.3262,41.4959],[13.3287,41.4979],[13.3375,41.5013],[13.3438,41.5024],[13.3539,41.5058],[13.3582,41.5075],[13.3609,41.5101],[13.365,41.5071],[13.369,41.4947],[13.3683,41.4909],[13.3644,41.4857],[13.3671,41.4716],[13.3785,41.4698]]]}},{"type":"Feature","properties":{"i":"060006","n":"Anagni"},"geometry":{"type":"Polygon","coordinates":[[[13.1367,41.7827],[13.1418,41.7841],[13.1603,41.7827],[13.1758,41.7811],[13.1921,41.7772],[13.1962,41.7734],[13.1916,41.7698],[13.1914,41.7657],[13.1941,41.7598],[13.1982,41.7553],[13.2037,41.7516],[13.2186,41.745],[13.2358,41.7405],[13.2384,41.7387],[13.243,41.733],[13.2461,41.7322],[13.2386,41.7318],[13.2299,41.7268],[13.2137,41.723],[13.2052,41.7165],[13.2061,41.7102],[13.2079,41.7063],[13.2139,41.6992],[13.2064,41.6917],[13.2057,41.6873],[13.2012,41.6783],[13.1966,41.6738],[13.1721,41.6827],[13.1669,41.6876],[13.1675,41.692],[13.1612,41.6919],[13.1542,41.6901],[13.1523,41.688],[13.1477,41.6877],[13.1424,41.69],[13.139,41.6926],[13.1395,41.6938],[13.1389,41.6944],[13.1371,41.6946],[13.1327,41.6951],[13.1162,41.6919],[13.1141,41.6875],[13.1166,41.6802],[13.1163,41.6713],[13.1089,41.6749],[13.1027,41.6799],[13.1006,41.6802],[13.0991,41.6788],[13.0976,41.6861],[13.0937,41.6881],[13.0912,41.6874],[13.0908,41.6895],[13.0921,41.697],[13.0958,41.7037],[13.0914,41.7108],[13.0877,41.7146],[13.0869,41.719],[13.0824,41.7237],[13.0823,41.7274],[13.0832,41.7303],[13.0872,41.7323],[13.0867,41.7371],[13.0842,41.7414],[13.0791,41.7451],[13.0763,41.7462],[13.0751,41.7461],[13.0754,41.7445],[13.0744,41.7432],[13.0692,41.7408],[13.0641,41.7413],[13.0625,41.7431],[13.0636,41.7469],[13.0673,41.7514],[13.0732,41.7538],[13.0808,41.7549],[13.0867,41.7573],[13.0882,41.7593],[13.0878,41.7631],[13.0887,41.7644],[13.0997,41.7686],[13.0966,41.7759],[13.0881,41.7783],[13.0867,41.78],[13.0899,41.7826],[13.1041,41.7892],[13.1076,41.792],[13.1121,41.7924],[13.1233,41.789],[13.1334,41.7873],[13.1356,41.7853],[13.1367,41.7827]]]}},{"type":"Feature","properties":{"i":"060007","n":"Aquino"},"geometry":{"type":"Polygon","coordinates":[[[13.7304,41.4979],[13.73,41.4954],[13.7275,41.49],[13.7309,41.4884],[13.7409,41.4886],[13.7422,41.4828],[13.7419,41.475],[13.7397,41.467],[13.7371,41.4658],[13.7313,41.4608],[13.7347,41.4563],[13.7372,41.4489],[13.7343,41.4448],[13.7323,41.4449],[13.7176,41.4531],[13.6967,41.4693],[13.6819,41.4754],[13.6853,41.4764],[13.6868,41.4781],[13.6865,41.4807],[13.6879,41.4892],[13.6919,41.4955],[13.6966,41.4975],[13.7044,41.5045],[13.7056,41.5082],[13.7248,41.499],[13.7304,41.4979]]]}},{"type":"Feature","properties":{"i":"060008","n":"Arce"},"geometry":{"type":"Polygon","coordinates":[[[13.5972,41.5707],[13.598,41.5686],[13.5971,41.5655],[13.5908,41.5588],[13.5798,41.5444],[13.5782,41.5324],[13.5785,41.5287],[13.5738,41.5288],[13.5643,41.5263],[13.5635,41.5249],[13.5545,41.5212],[13.5438,41.5204],[13.5323,41.53],[13.5311,41.533],[13.5329,41.534],[13.5367,41.5386],[13.5411,41.5465],[13.5392,41.5562],[13.5377,41.5586],[13.5314,41.5651],[13.5253,41.5679],[13.518,41.5679],[13.5068,41.5748],[13.5112,41.5766],[13.5174,41.5882],[13.5293,41.5893],[13.5417,41.5927],[13.5522,41.5985],[13.5505,41.6023],[13.5586,41.6013],[13.5735,41.6032],[13.5859,41.606],[13.587,41.6042],[13.5868,41.5975],[13.5805,41.5915],[13.5817,41.5869],[13.5861,41.5812],[13.5959,41.5728],[13.5972,41.5707]]]}},{"type":"Feature","properties":{"i":"060009","n":"Arnara"},"geometry":{"type":"Polygon","coordinates":[[[13.3992,41.5998],[13.3991,41.5928],[13.4014,41.5895],[13.4016,41.5875],[13.3968,41.577],[13.3868,41.5595],[13.3835,41.5583],[13.3801,41.5549],[13.374,41.5645],[13.368,41.5763],[13.3654,41.5834],[13.3674,41.5901],[13.3613,41.5952],[13.3585,41.6025],[13.3592,41.6047],[13.3717,41.6066],[13.3764,41.6031],[13.3776,41.6047],[13.3829,41.6051],[13.3992,41.5998]]]}},{"type":"Feature","properties":{"i":"060010","n":"Arpino"},"geometry":{"type":"Polygon","coordinates":[[[13.6345,41.6845],[13.6293,41.6785],[13.6313,41.6768],[13.6429,41.6708],[13.6512,41.6609],[13.668,41.6519],[13.6783,41.6489],[13.6821,41.6492],[13.6772,41.6386],[13.6783,41.6328],[13.6809,41.626],[13.683,41.6234],[13.6882,41.6212],[13.6963,41.62],[13.697,41.6189],[13.6984,41.6166],[13.6969,41.6125],[13.6941,41.6086],[13.6916,41.6068],[13.6836,41.6042],[13.6746,41.6047],[13.6735,41.6064],[13.6737,41.608],[13.6712,41.6089],[13.6667,41.6071],[13.6661,41.6125],[13.6641,41.6147],[13.6592,41.619],[13.6498,41.6233],[13.6426,41.6232],[13.628,41.6202],[13.6175,41.6159],[13.6105,41.6173],[13.6092,41.6182],[13.6082,41.6204],[13.6026,41.6229],[13.5937,41.6247],[13.5872,41.6285],[13.5751,41.6376],[13.561,41.6417],[13.5612,41.6458],[13.5568,41.6522],[13.5525,41.6555],[13.5603,41.6607],[13.5882,41.6704],[13.5896,41.6714],[13.5895,41.6725],[13.5911,41.6748],[13.6025,41.6816],[13.6066,41.6871],[13.6055,41.6886],[13.6172,41.6931],[13.6272,41.6908],[13.6345,41.6845]]]}},{"type":"Feature","properties":{"i":"060011","n":"Atina"},"geometry":{"type":"Polygon","coordinates":[[[13.8259,41.643],[13.8291,41.6406],[13.8394,41.6253],[13.8348,41.6237],[13.831,41.6237],[13.8271,41.6161],[13.8221,41.6024],[13.8151,41.6032],[13.8112,41.6028],[13.8069,41.6002],[13.8057,41.599],[13.8056,41.5977],[13.8006,41.5959],[13.7939,41.5982],[13.7906,41.5982],[13.7824,41.5938],[13.7813,41.5903],[13.7783,41.5905],[13.7711,41.5942],[13.764,41.5946],[13.7631,41.5956],[13.7598,41.6005],[13.7586,41.6046],[13.7605,41.6143],[13.7616,41.625],[13.7575,41.6287],[13.7534,41.6308],[13.7511,41.6359],[13.7522,41.6434],[13.7535,41.6429],[13.7554,41.6444],[13.757,41.6487],[13.7652,41.6537],[13.7726,41.6422],[13.7777,41.6413],[13.789,41.6438],[13.8056,41.6373],[13.8061,41.6361],[13.8175,41.639],[13.8259,41.643]]]}},{"type":"Feature","properties":{"i":"060012","n":"Ausonia"},"geometry":{"type":"Polygon","coordinates":[[[13.7697,41.3675],[13.7719,41.3632],[13.771,41.3598],[13.7648,41.3566],[13.7634,41.3541],[13.7523,41.3174],[13.7524,41.3148],[13.7485,41.3162],[13.7435,41.3214],[13.733,41.3295],[13.7171,41.3349],[13.7147,41.337],[13.7124,41.3411],[13.7119,41.3552],[13.7106,41.358],[13.7092,41.3582],[13.7093,41.3602],[13.7115,41.3644],[13.7228,41.3743],[13.7281,41.3707],[13.7337,41.3686],[13.7504,41.3669],[13.7697,41.3675]]]}},{"type":"Feature","properties":{"i":"060013","n":"Belmonte Castello"},"geometry":{"type":"Polygon","coordinates":[[[13.8221,41.6024],[13.8251,41.602],[13.8296,41.6],[13.8328,41.5968],[13.8319,41.5889],[13.8362,41.5871],[13.8378,41.5832],[13.8377,41.5821],[13.8325,41.5775],[13.8268,41.5736],[13.8232,41.5722],[13.8245,41.5676],[13.8271,41.5639],[13.8337,41.5586],[13.8338,41.5569],[13.8289,41.554],[13.8265,41.5545],[13.8192,41.5618],[13.8138,41.5652],[13.8036,41.5675],[13.7973,41.572],[13.7813,41.5903],[13.7824,41.5938],[13.7906,41.5982],[13.7939,41.5982],[13.8006,41.5959],[13.8056,41.5977],[13.8057,41.599],[13.8069,41.6002],[13.8112,41.6028],[13.8151,41.6032],[13.8221,41.6024]]]}},{"type":"Feature","properties":{"i":"060014","n":"Boville Ernica"},"geometry":{"type":"Polygon","coordinates":[[[13.4907,41.665],[13.4921,41.6639],[13.4949,41.6563],[13.4935,41.6501],[13.4918,41.6482],[13.4974,41.623],[13.4974,41.6195],[13.493,41.6147],[13.4719,41.6063],[13.4556,41.6203],[13.4532,41.6195],[13.447,41.6192],[13.4395,41.6304],[13.4338,41.6357],[13.4299,41.6364],[13.4291,41.6397],[13.4329,41.6481],[13.4494,41.6671],[13.4536,41.6693],[13.4634,41.673],[13.4907,41.665]]]}},{"type":"Feature","properties":{"i":"060015","n":"Broccostella"},"geometry":{"type":"Polygon","coordinates":[[[13.68,41.7108],[13.6782,41.7067],[13.6785,41.704],[13.6742,41.6991],[13.6698,41.6975],[13.6629,41.697],[13.6567,41.6978],[13.6489,41.6928],[13.6488,41.6909],[13.6472,41.6888],[13.6433,41.6862],[13.635,41.6844],[13.6272,41.6908],[13.6172,41.6931],[13.6206,41.6944],[13.6355,41.7141],[13.6518,41.723],[13.6546,41.7255],[13.6613,41.7209],[13.6614,41.7192],[13.6648,41.7175],[13.6792,41.714],[13.681,41.7124],[13.68,41.7108]]]}},{"type":"Feature","properties":{"i":"060016","n":"Campoli Appennino"},"geometry":{"type":"Polygon","coordinates":[[[13.7487,41.7696],[13.733,41.7631],[13.7296,41.7589],[13.7238,41.7457],[13.7191,41.7308],[13.7152,41.7284],[13.7144,41.7241],[13.7169,41.7202],[13.7215,41.7166],[13.7217,41.7146],[13.7127,41.7093],[13.7115,41.7149],[13.706,41.7165],[13.6953,41.714],[13.6875,41.7088],[13.6828,41.7093],[13.68,41.7108],[13.681,41.7124],[13.6792,41.714],[13.6648,41.7175],[13.6614,41.7192],[13.6613,41.7209],[13.6546,41.7255],[13.6538,41.7295],[13.6604,41.7309],[13.6682,41.7352],[13.6744,41.7399],[13.6883,41.7476],[13.6976,41.7553],[13.6972,41.7614],[13.6989,41.775],[13.7005,41.7788],[13.7082,41.7869],[13.7074,41.7876],[13.7129,41.7943],[13.7171,41.7977],[13.7275,41.7978],[13.7296,41.7989],[13.7292,41.7917],[13.7303,41.7883],[13.7328,41.7858],[13.7401,41.7822],[13.7436,41.7796],[13.7491,41.7728],[13.7495,41.7713],[13.7487,41.7696]]]}},{"type":"Feature","properties":{"i":"060017","n":"Casalattico"},"geometry":{"type":"Polygon","coordinates":[[[13.7783,41.5905],[13.7701,41.5895],[13.7667,41.5883],[13.7556,41.5799],[13.7473,41.5804],[13.6825,41.5948],[13.6764,41.5976],[13.6654,41.5997],[13.6667,41.6071],[13.6712,41.6089],[13.6735,41.6083],[13.6737,41.6059],[13.6755,41.6046],[13.6836,41.6042],[13.6919,41.6069],[13.6941,41.6086],[13.6971,41.6129],[13.6984,41.6166],[13.6963,41.62],[13.7225,41.6261],[13.7304,41.6249],[13.7378,41.6265],[13.7497,41.6325],[13.7572,41.629],[13.7616,41.625],[13.7605,41.6143],[13.7586,41.6046],[13.7589,41.6023],[13.7612,41.5984],[13.764,41.5946],[13.7711,41.5942],[13.7783,41.5905]]]}},{"type":"Feature","properties":{"i":"060018","n":"Casalvieri"},"geometry":{"type":"Polygon","coordinates":[[[13.7431,41.6611],[13.7498,41.6584],[13.757,41.6487],[13.7558,41.6448],[13.7535,41.6429],[13.7522,41.6434],[13.7519,41.6424],[13.7511,41.6359],[13.7534,41.6308],[13.7492,41.6325],[13.7378,41.6265],[13.7304,41.6249],[13.7225,41.6261],[13.6963,41.62],[13.6891,41.6209],[13.6846,41.6225],[13.6825,41.6238],[13.6809,41.626],[13.6783,41.6328],[13.6772,41.6386],[13.6826,41.65],[13.6912,41.6597],[13.6925,41.6674],[13.6936,41.6681],[13.6986,41.6698],[13.7081,41.6682],[13.7167,41.6712],[13.7288,41.669],[13.7354,41.6657],[13.738,41.6628],[13.7431,41.6611]]]}},{"type":"Feature","properties":{"i":"060019","n":"Cassino"},"geometry":{"type":"Polygon","coordinates":[[[13.9052,41.5135],[13.9058,41.5094],[13.9052,41.5058],[13.9006,41.5007],[13.8959,41.4989],[13.8922,41.4986],[13.8855,41.4954],[13.8767,41.4863],[13.8766,41.4832],[13.8733,41.481],[13.8561,41.4751],[13.8436,41.4692],[13.8442,41.4652],[13.848,41.4584],[13.8633,41.4478],[13.8751,41.436],[13.8886,41.4333],[13.8961,41.4361],[13.8983,41.4354],[13.9027,41.4291],[13.9083,41.4286],[13.9039,41.4256],[13.8915,41.425],[13.8873,41.4267],[13.8766,41.4262],[13.8633,41.4188],[13.8603,41.4164],[13.8573,41.417],[13.8509,41.4206],[13.8421,41.4203],[13.8375,41.4181],[13.8294,41.4171],[13.8246,41.4177],[13.8174,41.4213],[13.8152,41.4218],[13.8121,41.421],[13.8085,41.4234],[13.8033,41.4354],[13.8086,41.4468],[13.8056,41.4489],[13.7965,41.4516],[13.7842,41.4584],[13.7817,41.4588],[13.7776,41.4629],[13.7822,41.4661],[13.7833,41.4725],[13.7815,41.4788],[13.7837,41.4827],[13.7854,41.4844],[13.7884,41.4855],[13.7912,41.4836],[13.7962,41.4844],[13.7986,41.4907],[13.792,41.4964],[13.7905,41.4991],[13.7895,41.5039],[13.7898,41.5065],[13.7938,41.5106],[13.7961,41.5218],[13.7977,41.5256],[13.7976,41.5306],[13.7964,41.5319],[13.7987,41.5344],[13.81,41.5382],[13.8228,41.5445],[13.8342,41.5332],[13.8439,41.5253],[13.8615,41.5208],[13.8904,41.5165],[13.8933,41.5175],[13.8988,41.5169],[13.9052,41.5135]]]}},{"type":"Feature","properties":{"i":"060020","n":"Castelliri"},"geometry":{"type":"Polygon","coordinates":[[[13.521,41.719],[13.5269,41.7139],[13.5375,41.7087],[13.5434,41.6997],[13.5448,41.6918],[13.5501,41.6846],[13.5522,41.683],[13.5564,41.6767],[13.5577,41.6594],[13.5525,41.6555],[13.546,41.6574],[13.5402,41.6606],[13.5282,41.6692],[13.5256,41.6727],[13.5154,41.6911],[13.5126,41.6991],[13.513,41.7064],[13.5058,41.7178],[13.521,41.719]]]}},{"type":"Feature","properties":{"i":"060021","n":"Castelnuovo Parano"},"geometry":{"type":"Polygon","coordinates":[[[13.7691,41.3802],[13.7751,41.3732],[13.7697,41.3675],[13.7504,41.3669],[13.7319,41.3689],[13.7228,41.3743],[13.718,41.3802],[13.726,41.382],[13.7269,41.3835],[13.7259,41.386],[13.7237,41.3881],[13.7258,41.3903],[13.733,41.3906],[13.7399,41.3927],[13.7432,41.3956],[13.7539,41.3929],[13.7611,41.3887],[13.7645,41.3866],[13.7691,41.3802]]]}},{"type":"Feature","properties":{"i":"060022","n":"Castrocielo"},"geometry":{"type":"Polygon","coordinates":[[[13.744,41.5144],[13.7304,41.4979],[13.7248,41.499],[13.7056,41.5082],[13.7044,41.5045],[13.6966,41.4975],[13.6919,41.4955],[13.6879,41.4892],[13.6865,41.4807],[13.6868,41.4781],[13.6853,41.4764],[13.6819,41.4754],[13.672,41.4808],[13.6438,41.4938],[13.6468,41.4975],[13.6493,41.5017],[13.6503,41.5054],[13.6547,41.5116],[13.6578,41.5128],[13.6668,41.5137],[13.6727,41.5241],[13.6878,41.547],[13.6918,41.544],[13.693,41.542],[13.7013,41.5384],[13.7058,41.5383],[13.712,41.5367],[13.712,41.5309],[13.7154,41.5262],[13.7283,41.5158],[13.7399,41.5126],[13.7421,41.5127],[13.744,41.5144]]]}},{"type":"Feature","properties":{"i":"060023","n":"Castro dei Volsci"},"geometry":{"type":"Polygon","coordinates":[[[13.4771,41.526],[13.4753,41.5216],[13.4792,41.5185],[13.4838,41.5176],[13.4908,41.5191],[13.4865,41.5104],[13.4867,41.5058],[13.4825,41.5067],[13.476,41.5048],[13.4646,41.4972],[13.4541,41.4871],[13.4391,41.4801],[13.4379,41.4782],[13.4392,41.473],[13.4444,41.4685],[13.4453,41.465],[13.4367,41.461],[13.4297,41.4658],[13.4145,41.4727],[13.3928,41.4753],[13.3813,41.4759],[13.3785,41.4698],[13.3671,41.4716],[13.3644,41.4857],[13.3685,41.4912],[13.3685,41.4965],[13.3643,41.5081],[13.3537,41.5135],[13.3737,41.5378],[13.3759,41.5428],[13.3792,41.5463],[13.3807,41.5456],[13.3844,41.535],[13.3865,41.5329],[13.3893,41.5321],[13.3953,41.5314],[13.4018,41.5355],[13.4403,41.5304],[13.4457,41.5314],[13.4552,41.5306],[13.4589,41.5246],[13.4608,41.5243],[13.4771,41.526]]]}},{"type":"Feature","properties":{"i":"060024","n":"Ceccano"},"geometry":{"type":"Polygon","coordinates":[[[13.3592,41.6047],[13.3585,41.6025],[13.3613,41.5952],[13.3674,41.5901],[13.3654,41.5834],[13.368,41.5763],[13.374,41.5645],[13.3801,41.5549],[13.3807,41.5456],[13.3797,41.5463],[13.3781,41.5457],[13.3744,41.5401],[13.3737,41.5378],[13.3537,41.5135],[13.3486,41.5156],[13.3257,41.5279],[13.3112,41.5318],[13.3058,41.5349],[13.2863,41.5547],[13.285,41.5595],[13.2854,41.5622],[13.2846,41.569],[13.2829,41.5717],[13.2858,41.5815],[13.296,41.5967],[13.2965,41.6028],[13.2941,41.6046],[13.2925,41.6078],[13.2975,41.6091],[13.3002,41.6114],[13.314,41.6189],[13.3209,41.6141],[13.3275,41.6083],[13.334,41.6041],[13.3398,41.6037],[13.3487,41.6066],[13.3592,41.6047]]]}},{"type":"Feature","properties":{"i":"060025","n":"Ceprano"},"geometry":{"type":"Polygon","coordinates":[[[13.5068,41.5748],[13.518,41.5679],[13.5253,41.5679],[13.5314,41.5651],[13.5377,41.5586],[13.5392,41.5562],[13.5411,41.5465],[13.5367,41.5386],[13.5329,41.534],[13.5311,41.533],[13.5323,41.53],[13.5438,41.5204],[13.54,41.5207],[13.5317,41.5197],[13.5156,41.5156],[13.5052,41.5161],[13.4908,41.5191],[13.4838,41.5176],[13.4807,41.5179],[13.4753,41.5216],[13.4771,41.526],[13.4763,41.5288],[13.4653,41.5372],[13.4572,41.539],[13.4542,41.5417],[13.4519,41.5463],[13.4506,41.5525],[13.4517,41.5545],[13.4521,41.5585],[13.4547,41.5596],[13.4628,41.5674],[13.4732,41.5745],[13.487,41.5805],[13.5045,41.5745],[13.5068,41.5748]]]}},{"type":"Feature","properties":{"i":"060026","n":"Cervaro"},"geometry":{"type":"Polygon","coordinates":[[[13.9379,41.5119],[13.9446,41.5063],[13.9521,41.5014],[13.9548,41.5007],[13.9548,41.4964],[13.9477,41.4898],[13.9457,41.4893],[13.9372,41.4837],[13.9327,41.4786],[13.9285,41.4754],[13.9189,41.4706],[13.9147,41.466],[13.9138,41.4628],[13.9091,41.458],[13.9052,41.4562],[13.8988,41.4458],[13.892,41.439],[13.8917,41.4341],[13.8886,41.4333],[13.8751,41.436],[13.8633,41.4478],[13.8486,41.4579],[13.8467,41.4602],[13.8442,41.4652],[13.8436,41.4692],[13.8561,41.4751],[13.8733,41.481],[13.8766,41.4832],[13.8767,41.4863],[13.8855,41.4954],[13.8922,41.4986],[13.8959,41.4989],[13.9006,41.5007],[13.9052,41.5058],[13.9058,41.5094],[13.9052,41.5135],[13.9133,41.5159],[13.9379,41.5119]]]}},{"type":"Feature","properties":{"i":"060027","n":"Colfelice"},"geometry":{"type":"MultiPolygon","coordinates":[[[[13.5875,41.5016],[13.5866,41.5002],[13.5845,41.4991],[13.5798,41.4988],[13.5774,41.5012],[13.577,41.5039],[13.5848,41.503],[13.5875,41.5016]]],[[[13.623,41.5653],[13.624,41.5635],[13.6255,41.5481],[13.6178,41.5414],[13.6056,41.5361],[13.6032,41.5316],[13.6006,41.5183],[13.5945,41.5132],[13.5879,41.5098],[13.5869,41.5102],[13.5851,41.5165],[13.5868,41.5176],[13.5866,41.5205],[13.5785,41.5287],[13.5782,41.5324],[13.5798,41.5444],[13.5908,41.5588],[13.5971,41.5655],[13.598,41.5686],[13.5972,41.5707],[13.6016,41.5683],[13.616,41.5644],[13.6197,41.5637],[13.623,41.5653]]]]}},{"type":"Feature","properties":{"i":"060028","n":"Collepardo"},"geometry":{"type":"Polygon","coordinates":[[[13.4124,41.7824],[13.4205,41.7826],[13.4279,41.785],[13.44,41.7816],[13.4483,41.7768],[13.4307,41.7627],[13.4255,41.7531],[13.4174,41.749],[13.4111,41.7476],[13.3989,41.7465],[13.3859,41.7495],[13.3762,41.746],[13.3686,41.7464],[13.3584,41.7517],[13.3569,41.7557],[13.3571,41.7622],[13.3597,41.7726],[13.3659,41.7763],[13.3696,41.7761],[13.3765,41.7773],[13.3815,41.779],[13.3845,41.7831],[13.3877,41.797],[13.3888,41.7987],[13.3989,41.7868],[13.4124,41.7824]]]}},{"type":"Feature","properties":{"i":"060029","n":"Colle San Magno"},"geometry":{"type":"Polygon","coordinates":[[[13.7556,41.5799],[13.754,41.5666],[13.7492,41.5598],[13.7486,41.5556],[13.7494,41.5492],[13.7524,41.5434],[13.7575,41.542],[13.7573,41.5362],[13.7547,41.5271],[13.7541,41.5217],[13.747,41.5204],[13.7464,41.5159],[13.7421,41.5127],[13.7399,41.5126],[13.7283,41.5158],[13.7154,41.5262],[13.712,41.5309],[13.712,41.5367],[13.7058,41.5383],[13.7013,41.5384],[13.693,41.542],[13.6918,41.544],[13.6882,41.5469],[13.6832,41.5471],[13.6824,41.5512],[13.6794,41.5558],[13.6709,41.5616],[13.6635,41.5645],[13.6587,41.5684],[13.6641,41.5686],[13.6666,41.5713],[13.6646,41.582],[13.6654,41.5997],[13.6764,41.5976],[13.6825,41.5948],[13.7319,41.5834],[13.7473,41.5804],[13.7556,41.5799]]]}},{"type":"Feature","properties":{"i":"060030","n":"Coreno Ausonio"},"geometry":{"type":"Polygon","coordinates":[[[13.8231,41.3387],[13.8206,41.338],[13.8183,41.3308],[13.8176,41.3253],[13.8198,41.3215],[13.8148,41.3201],[13.8021,41.3196],[13.7965,41.318],[13.7937,41.3124],[13.7915,41.3101],[13.7824,41.3089],[13.763,41.3014],[13.7633,41.3046],[13.7617,41.3073],[13.7578,41.3107],[13.754,41.3117],[13.7524,41.3148],[13.7523,41.3174],[13.7634,41.3541],[13.7648,41.3566],[13.771,41.3598],[13.7719,41.3632],[13.7697,41.3675],[13.7751,41.3732],[13.7806,41.3668],[13.7886,41.3647],[13.812,41.3459],[13.8231,41.3387]]]}},{"type":"Feature","properties":{"i":"060031","n":"Esperia"},"geometry":{"type":"Polygon","coordinates":[[[13.7274,41.4157],[13.7335,41.413],[13.7338,41.4108],[13.7292,41.3953],[13.7273,41.3937],[13.7289,41.3904],[13.7258,41.3903],[13.7237,41.3881],[13.7259,41.386],[13.7269,41.3835],[13.7256,41.3818],[13.718,41.3802],[13.7228,41.3743],[13.7115,41.3644],[13.71,41.3623],[13.7092,41.3582],[13.7042,41.3586],[13.6993,41.3565],[13.6933,41.3508],[13.6886,41.3437],[13.6824,41.3395],[13.6729,41.3414],[13.6682,41.3431],[13.6577,41.3378],[13.6518,41.3283],[13.6515,41.3263],[13.6545,41.3204],[13.6513,41.318],[13.6409,41.3192],[13.6279,41.3176],[13.6264,41.3165],[13.6238,41.3168],[13.6177,41.3197],[13.6039,41.3354],[13.6024,41.3413],[13.5986,41.3442],[13.5918,41.3526],[13.5834,41.3591],[13.5738,41.3641],[13.5605,41.368],[13.5664,41.3753],[13.5729,41.379],[13.579,41.3803],[13.5761,41.387],[13.5641,41.3991],[13.5613,41.4003],[13.5726,41.4038],[13.6168,41.4119],[13.636,41.4167],[13.6405,41.4211],[13.6488,41.4268],[13.6562,41.426],[13.6723,41.4203],[13.6836,41.4268],[13.6913,41.4271],[13.697,41.4245],[13.6994,41.4217],[13.6991,41.4186],[13.7009,41.4125],[13.7048,41.4118],[13.7066,41.4124],[13.7061,41.4161],[13.7112,41.4126],[13.7182,41.4099],[13.7226,41.4144],[13.7274,41.4157]]]}},{"type":"Feature","properties":{"i":"060032","n":"Falvaterra"},"geometry":{"type":"Polygon","coordinates":[[[13.5438,41.5204],[13.5436,41.5124],[13.5461,41.5081],[13.5437,41.4992],[13.5403,41.4969],[13.5358,41.4898],[13.5361,41.4873],[13.5294,41.4805],[13.526,41.4813],[13.5232,41.4831],[13.5186,41.487],[13.5131,41.4935],[13.5091,41.4964],[13.4931,41.5056],[13.4902,41.5064],[13.4867,41.5058],[13.4865,41.5104],[13.4908,41.5191],[13.5052,41.5161],[13.5156,41.5156],[13.5317,41.5197],[13.54,41.5207],[13.5438,41.5204]]]}},{"type":"Feature","properties":{"i":"060033","n":"Ferentino"},"geometry":{"type":"MultiPolygon","coordinates":[[[[13.2461,41.7322],[13.2471,41.7324],[13.2531,41.7273],[13.2721,41.7222],[13.2819,41.7165],[13.2843,41.7102],[13.2841,41.708],[13.2866,41.7052],[13.2891,41.7042],[13.2898,41.7025],[13.2919,41.7006],[13.2987,41.6967],[13.3029,41.6866],[13.3127,41.6775],[13.3122,41.675],[13.3105,41.673],[13.3144,41.6678],[13.315,41.6644],[13.3125,41.6603],[13.2999,41.6564],[13.2946,41.6536],[13.2756,41.6396],[13.2638,41.6327],[13.2599,41.6369],[13.2498,41.6442],[13.2411,41.6464],[13.2349,41.6464],[13.2317,41.6455],[13.2276,41.6485],[13.2234,41.6531],[13.2195,41.6548],[13.2163,41.6546],[13.2043,41.6629],[13.1955,41.6677],[13.1922,41.6682],[13.2012,41.6783],[13.2057,41.6873],[13.2064,41.6917],[13.2139,41.6992],[13.2079,41.7063],[13.2061,41.7102],[13.2052,41.7165],[13.2137,41.723],[13.2299,41.7268],[13.2386,41.7318],[13.2461,41.7322]]],[[[13.2384,41.767],[13.2371,41.7628],[13.2376,41.7609],[13.249,41.7547],[13.2501,41.7536],[13.2516,41.7486],[13.2472,41.7458],[13.2425,41.7412],[13.2358,41.7405],[13.2186,41.745],[13.2024,41.7523],[13.1982,41.7553],[13.1941,41.7598],[13.1914,41.7657],[13.1912,41.7681],[13.1923,41.7706],[13.1962,41.7734],[13.2095,41.7742],[13.2106,41.7748],[13.2126,41.7785],[13.219,41.775],[13.2384,41.767]]]]}},{"type":"Feature","properties":{"i":"060034","n":"Filettino"},"geometry":{"type":"Polygon","coordinates":[[[13.3566,41.9257],[13.3644,41.9248],[13.3658,41.9234],[13.3659,41.9216],[13.3784,41.9118],[13.3805,41.9081],[13.3827,41.9008],[13.3778,41.8912],[13.3737,41.8856],[13.3648,41.8776],[13.359,41.8693],[13.3673,41.8633],[13.3671,41.8604],[13.3659,41.8577],[13.367,41.8456],[13.3685,41.8407],[13.3668,41.8331],[13.361,41.8359],[13.3525,41.837],[13.3465,41.8394],[13.3437,41.8422],[13.3356,41.8414],[13.3348,41.8402],[13.3267,41.8364],[13.3057,41.8481],[13.3054,41.855],[13.3082,41.8577],[13.3081,41.8596],[13.3024,41.8624],[13.2954,41.8642],[13.2854,41.8649],[13.2792,41.8708],[13.2777,41.8775],[13.279,41.8848],[13.2827,41.8914],[13.2826,41.8925],[13.2725,41.9009],[13.2697,41.9061],[13.2687,41.9124],[13.2751,41.9223],[13.277,41.9306],[13.2923,41.9418],[13.2963,41.9486],[13.2983,41.9543],[13.3026,41.9544],[13.3084,41.9531],[13.3214,41.9457],[13.334,41.9339],[13.3361,41.9288],[13.3387,41.9255],[13.3455,41.9222],[13.3512,41.9212],[13.3548,41.923],[13.3566,41.9257]]]}},{"type":"Feature","properties":{"i":"060035","n":"Fiuggi"},"geometry":{"type":"Polygon","coordinates":[[[13.2613,41.8314],[13.2556,41.8115],[13.2552,41.8061],[13.2507,41.804],[13.2459,41.7983],[13.239,41.7844],[13.2385,41.7809],[13.2405,41.7663],[13.2146,41.777],[13.2081,41.7814],[13.1974,41.7899],[13.1874,41.8005],[13.1848,41.8076],[13.1744,41.8121],[13.182,41.8172],[13.1888,41.8202],[13.2018,41.8339],[13.2002,41.8373],[13.2095,41.839],[13.2446,41.8354],[13.2573,41.8331],[13.2613,41.8314]]]}},{"type":"Feature","properties":{"i":"060036","n":"Fontana Liri"},"geometry":{"type":"Polygon","coordinates":[[[13.6082,41.6204],[13.6032,41.6175],[13.5995,41.6105],[13.5974,41.6106],[13.5845,41.6053],[13.5794,41.6042],[13.556,41.6012],[13.5505,41.6023],[13.5496,41.6042],[13.5409,41.612],[13.5395,41.6136],[13.5388,41.6185],[13.5399,41.6266],[13.5493,41.6354],[13.5528,41.6375],[13.5566,41.6362],[13.5584,41.6364],[13.5617,41.6408],[13.5614,41.6417],[13.5751,41.6376],[13.5872,41.6285],[13.5937,41.6247],[13.6026,41.6229],[13.6082,41.6204]]]}},{"type":"Feature","properties":{"i":"060037","n":"Fontechiari"},"geometry":{"type":"Polygon","coordinates":[[[13.6669,41.6974],[13.6771,41.684],[13.6799,41.6809],[13.6844,41.6781],[13.6925,41.6674],[13.6912,41.6597],[13.6821,41.6492],[13.6783,41.6489],[13.6736,41.6498],[13.668,41.6519],[13.6543,41.6591],[13.6512,41.6609],[13.648,41.664],[13.6429,41.6708],[13.6313,41.6768],[13.6293,41.6785],[13.6345,41.6845],[13.6453,41.6871],[13.6488,41.6909],[13.6489,41.6928],[13.6567,41.6978],[13.6629,41.697],[13.6669,41.6974]]]}},{"type":"Feature","properties":{"i":"060038","n":"Frosinone"},"geometry":{"type":"Polygon","coordinates":[[[13.3633,41.6598],[13.3762,41.6586],[13.3813,41.6548],[13.3874,41.6537],[13.3925,41.654],[13.3846,41.6438],[13.3794,41.6338],[13.3749,41.6225],[13.3713,41.6095],[13.3717,41.6066],[13.3592,41.6047],[13.3487,41.6066],[13.3398,41.6037],[13.3345,41.604],[13.3275,41.6083],[13.3145,41.6189],[13.3002,41.6114],[13.2975,41.6091],[13.2925,41.6078],[13.2875,41.6144],[13.2846,41.6154],[13.2749,41.6242],[13.272,41.6258],[13.2681,41.6268],[13.2638,41.6327],[13.2735,41.6382],[13.2946,41.6536],[13.2999,41.6564],[13.3125,41.6603],[13.3121,41.6589],[13.3128,41.6569],[13.3163,41.6544],[13.3244,41.6555],[13.3262,41.6614],[13.3285,41.6652],[13.3361,41.6655],[13.3633,41.6598]]]}},{"type":"Feature","properties":{"i":"060039","n":"Fumone"},"geometry":{"type":"Polygon","coordinates":[[[13.2814,41.7482],[13.2812,41.7461],[13.2851,41.7456],[13.2947,41.7393],[13.3031,41.731],[13.3041,41.7279],[13.3012,41.7119],[13.2982,41.7092],[13.2891,41.7042],[13.2866,41.7052],[13.2841,41.708],[13.2843,41.7102],[13.2819,41.7165],[13.2721,41.7222],[13.2531,41.7273],[13.2471,41.7324],[13.243,41.733],[13.2384,41.7387],[13.2358,41.7405],[13.2425,41.7412],[13.248,41.7464],[13.2569,41.7519],[13.2655,41.7523],[13.27,41.7477],[13.272,41.7466],[13.277,41.7467],[13.2814,41.7482]]]}},{"type":"Feature","properties":{"i":"060040","n":"Gallinaro"},"geometry":{"type":"Polygon","coordinates":[[[13.8277,41.6445],[13.8175,41.639],[13.8061,41.6361],[13.8056,41.6373],[13.789,41.6438],[13.7777,41.6413],[13.7726,41.6422],[13.7652,41.6537],[13.7697,41.6549],[13.774,41.6651],[13.7778,41.67],[13.7821,41.6736],[13.7941,41.6781],[13.7953,41.6792],[13.8046,41.6831],[13.809,41.6828],[13.8159,41.6804],[13.826,41.6868],[13.8282,41.6859],[13.8308,41.6834],[13.8255,41.6774],[13.8216,41.6749],[13.8184,41.6714],[13.8153,41.6573],[13.8265,41.6467],[13.8277,41.6445]]]}},{"type":"Feature","properties":{"i":"060041","n":"Giuliano di Roma"},"geometry":{"type":"Polygon","coordinates":[[[13.2838,41.5751],[13.2829,41.5717],[13.2846,41.569],[13.2854,41.5622],[13.285,41.5595],[13.2863,41.5547],[13.3058,41.5349],[13.295,41.525],[13.2791,41.5083],[13.2776,41.5098],[13.2719,41.5227],[13.263,41.531],[13.2527,41.5367],[13.2466,41.5385],[13.2331,41.5397],[13.2217,41.5388],[13.2184,41.5414],[13.2124,41.5434],[13.2079,41.5474],[13.2021,41.5549],[13.2005,41.562],[13.2002,41.5724],[13.2014,41.5751],[13.1997,41.5786],[13.2104,41.585],[13.2108,41.5813],[13.2156,41.5758],[13.2226,41.5649],[13.224,41.5614],[13.2275,41.5593],[13.2361,41.5607],[13.2424,41.5631],[13.2374,41.5655],[13.2331,41.5697],[13.2323,41.571],[13.2337,41.5746],[13.2713,41.5723],[13.2785,41.5727],[13.2838,41.5751]]]}},{"type":"Feature","properties":{"i":"060042","n":"Guarcino"},"geometry":{"type":"Polygon","coordinates":[[[13.3668,41.8331],[13.3719,41.8272],[13.3437,41.8121],[13.3357,41.805],[13.3311,41.7979],[13.3269,41.7885],[13.3206,41.7824],[13.3161,41.7782],[13.3091,41.7737],[13.3062,41.7722],[13.3011,41.7716],[13.2965,41.7677],[13.295,41.7738],[13.2916,41.7782],[13.2895,41.779],[13.2896,41.7824],[13.2883,41.7887],[13.2851,41.7985],[13.284,41.7996],[13.2789,41.8035],[13.2708,41.8067],[13.2592,41.8078],[13.2552,41.8061],[13.2556,41.8115],[13.2613,41.8314],[13.2649,41.8332],[13.2739,41.8356],[13.2806,41.8371],[13.2882,41.8362],[13.3116,41.8382],[13.3271,41.8364],[13.3348,41.8402],[13.3356,41.8414],[13.3437,41.8422],[13.3465,41.8394],[13.3525,41.837],[13.361,41.8359],[13.3668,41.8331]]]}},{"type":"Feature","properties":{"i":"060043","n":"Isola del Liri"},"geometry":{"type":"Polygon","coordinates":[[[13.6055,41.6886],[13.6066,41.6871],[13.6025,41.6816],[13.5911,41.6748],[13.5895,41.6725],[13.5896,41.6714],[13.5882,41.6704],[13.5717,41.6652],[13.5577,41.6594],[13.5564,41.6767],[13.5522,41.683],[13.5501,41.6846],[13.5448,41.6918],[13.5434,41.6997],[13.54,41.7055],[13.5375,41.7087],[13.5269,41.7139],[13.521,41.719],[13.5347,41.7182],[13.5402,41.7157],[13.547,41.7094],[13.5602,41.6997],[13.5748,41.6966],[13.586,41.6968],[13.5951,41.6956],[13.603,41.6915],[13.6051,41.6898],[13.6055,41.6886]]]}},{"type":"Feature","properties":{"i":"060044","n":"Monte San Giovanni Campano"},"geometry":{"type":"Polygon","coordinates":[[[13.5058,41.7178],[13.513,41.7064],[13.5126,41.6991],[13.5154,41.6911],[13.5256,41.6727],[13.5282,41.6692],[13.5402,41.6606],[13.546,41.6574],[13.5548,41.6541],[13.5583,41.6504],[13.5612,41.6458],[13.561,41.6417],[13.5617,41.6408],[13.5584,41.6364],[13.5566,41.6362],[13.5528,41.6375],[13.5493,41.6354],[13.5399,41.6266],[13.5388,41.6185],[13.5395,41.6136],[13.5496,41.6042],[13.5522,41.5985],[13.5417,41.5927],[13.5293,41.5893],[13.5205,41.5887],[13.5141,41.5986],[13.497,41.6087],[13.493,41.6147],[13.4974,41.6195],[13.4974,41.623],[13.4918,41.6482],[13.4935,41.6501],[13.4949,41.6563],[13.4921,41.6639],[13.4907,41.665],[13.4972,41.671],[13.498,41.68],[13.4929,41.6838],[13.4918,41.6855],[13.493,41.6911],[13.5018,41.7061],[13.5003,41.7143],[13.4951,41.7281],[13.4933,41.7396],[13.4883,41.743],[13.4871,41.7451],[13.4941,41.754],[13.5022,41.7561],[13.5117,41.7623],[13.5028,41.7267],[13.5058,41.7178]]]}},{"type":"Feature","properties":{"i":"060045","n":"Morolo"},"geometry":{"type":"Polygon","coordinates":[[[13.1922,41.6682],[13.1955,41.6677],[13.2043,41.6629],[13.2163,41.6546],[13.2195,41.6548],[13.2242,41.6526],[13.2276,41.6485],[13.2317,41.6455],[13.2308,41.6429],[13.2313,41.6405],[13.2295,41.6355],[13.2217,41.6284],[13.2079,41.6196],[13.195,41.6189],[13.189,41.6198],[13.1813,41.6195],[13.162,41.6168],[13.1564,41.6189],[13.155,41.6213],[13.1548,41.6256],[13.1577,41.6294],[13.1584,41.6359],[13.1539,41.6476],[13.1707,41.6584],[13.1836,41.6704],[13.1874,41.6703],[13.1906,41.6677],[13.1918,41.6674],[13.1922,41.6682]]]}},{"type":"Feature","properties":{"i":"060046","n":"Paliano"},"geometry":{"type":"Polygon","coordinates":[[[13.0654,41.8314],[13.0809,41.8241],[13.086,41.8177],[13.0915,41.815],[13.0956,41.8137],[13.0974,41.8153],[13.1024,41.8163],[13.1055,41.813],[13.1073,41.8043],[13.107,41.7947],[13.1076,41.792],[13.1041,41.7892],[13.0899,41.7826],[13.0867,41.78],[13.0881,41.7783],[13.0966,41.7759],[13.0997,41.7686],[13.0887,41.7644],[13.0878,41.7631],[13.0882,41.7593],[13.0867,41.7573],[13.0808,41.7549],[13.0732,41.7538],[13.0673,41.7514],[13.0636,41.7469],[13.0625,41.7431],[13.0641,41.7413],[13.0692,41.7408],[13.0744,41.7432],[13.0754,41.7445],[13.0751,41.7461],[13.0763,41.7462],[13.0791,41.7451],[13.0842,41.7414],[13.0867,41.7371],[13.0872,41.7323],[13.0832,41.7303],[13.0823,41.7274],[13.0824,41.7237],[13.0869,41.719],[13.0701,41.724],[13.0654,41.7289],[13.0643,41.7309],[13.0611,41.7285],[13.0608,41.7267],[13.0583,41.7273],[13.0551,41.7297],[13.0546,41.7352],[13.0556,41.7402],[13.0513,41.7423],[13.0416,41.7435],[13.0344,41.7433],[13.0326,41.7458],[13.0255,41.7485],[13.0205,41.7532],[13.0098,41.7669],[13.0052,41.7701],[12.9942,41.7694],[12.9924,41.7686],[12.992,41.7702],[12.994,41.7796],[13.0001,41.7874],[13.0019,41.7912],[13.0034,41.7994],[13.006,41.8055],[13.0111,41.8091],[13.0106,41.8172],[13.0083,41.8203],[13.0093,41.8252],[13.0125,41.8265],[13.0165,41.827],[13.0224,41.8256],[13.0257,41.8237],[13.0335,41.8277],[13.034,41.8309],[13.036,41.8319],[13.0472,41.8319],[13.0536,41.8299],[13.0606,41.8298],[13.0654,41.8314]]]}},{"type":"Feature","properties":{"i":"060047","n":"Pastena"},"geometry":{"type":"Polygon","coordinates":[[[13.526,41.4813],[13.5299,41.4733],[13.5323,41.4657],[13.5373,41.4617],[13.5373,41.4593],[13.5292,41.4552],[13.5258,41.4519],[13.5221,41.4478],[13.5125,41.4322],[13.5053,41.4351],[13.4967,41.4367],[13.4937,41.4361],[13.4846,41.4386],[13.4556,41.4494],[13.4548,41.4501],[13.4525,41.4585],[13.4508,41.4611],[13.4453,41.465],[13.4447,41.468],[13.4427,41.4705],[13.4392,41.473],[13.4379,41.4782],[13.4406,41.4812],[13.4541,41.4871],[13.4646,41.4972],[13.476,41.5048],[13.4825,41.5067],[13.4931,41.5056],[13.5091,41.4964],[13.5134,41.4931],[13.5186,41.487],[13.526,41.4813]]]}},{"type":"Feature","properties":{"i":"060048","n":"Patrica"},"geometry":{"type":"Polygon","coordinates":[[[13.2925,41.6078],[13.2941,41.6046],[13.2965,41.6028],[13.296,41.5967],[13.2858,41.5815],[13.2838,41.5751],[13.2785,41.5727],[13.2503,41.5732],[13.2337,41.5746],[13.2323,41.571],[13.2331,41.5697],[13.2374,41.5655],[13.2424,41.5631],[13.2361,41.5607],[13.2275,41.5593],[13.224,41.5614],[13.2226,41.5649],[13.2156,41.5758],[13.2108,41.5813],[13.2104,41.585],[13.216,41.5871],[13.2305,41.5986],[13.2397,41.6032],[13.2519,41.6068],[13.2591,41.6139],[13.2604,41.6245],[13.2681,41.6268],[13.272,41.6258],[13.2749,41.6242],[13.2846,41.6154],[13.2875,41.6144],[13.2925,41.6078]]]}},{"type":"Feature","properties":{"i":"060049","n":"Pescosolido"},"geometry":{"type":"Polygon","coordinates":[[[13.7074,41.7876],[13.7082,41.7869],[13.7005,41.7788],[13.6989,41.775],[13.6972,41.7614],[13.6976,41.7553],[13.6883,41.7476],[13.6807,41.7437],[13.6604,41.7309],[13.6538,41.7295],[13.651,41.7305],[13.6427,41.7311],[13.6377,41.734],[13.6155,41.7612],[13.6144,41.7737],[13.6134,41.778],[13.6235,41.7795],[13.6288,41.7813],[13.6421,41.7914],[13.6429,41.7929],[13.6407,41.8001],[13.6373,41.8025],[13.6385,41.8043],[13.6449,41.809],[13.6489,41.8109],[13.6609,41.8113],[13.6742,41.8072],[13.6811,41.8043],[13.6869,41.7971],[13.6927,41.7915],[13.7011,41.7886],[13.7074,41.7876]]]}},{"type":"Feature","properties":{"i":"060050","n":"Picinisco"},"geometry":{"type":"Polygon","coordinates":[[[13.9272,41.7035],[13.9329,41.693],[13.941,41.688],[13.9444,41.684],[13.9491,41.6813],[13.9548,41.6799],[13.9679,41.6732],[13.9757,41.6648],[13.969,41.659],[13.9655,41.6513],[13.9626,41.6487],[13.9571,41.6483],[13.9483,41.6431],[13.9263,41.625],[13.9182,41.6153],[13.9152,41.6133],[13.9122,41.6123],[13.8985,41.604],[13.8921,41.6032],[13.8898,41.6022],[13.8862,41.6117],[13.8851,41.6186],[13.8828,41.6207],[13.8798,41.6215],[13.8677,41.6193],[13.8582,41.6216],[13.8516,41.6259],[13.8394,41.6253],[13.8291,41.6406],[13.8259,41.643],[13.8277,41.6445],[13.8342,41.6441],[13.8398,41.6462],[13.8452,41.6505],[13.8559,41.6554],[13.8728,41.6566],[13.8785,41.6537],[13.8805,41.6544],[13.8877,41.6571],[13.8954,41.6626],[13.9017,41.6684],[13.9086,41.6761],[13.9106,41.6824],[13.9101,41.6844],[13.9079,41.687],[13.9024,41.7143],[13.9045,41.7182],[13.9105,41.7191],[13.9184,41.7185],[13.9222,41.7123],[13.9239,41.7064],[13.9272,41.7035]]]}},{"type":"Feature","properties":{"i":"060051","n":"Pico"},"geometry":{"type":"Polygon","coordinates":[[[13.607,41.4762],[13.6045,41.4713],[13.5933,41.4644],[13.5917,41.4621],[13.5896,41.4583],[13.5883,41.4466],[13.5913,41.441],[13.5896,41.436],[13.5777,41.4265],[13.5663,41.4226],[13.5521,41.414],[13.5482,41.4196],[13.5393,41.4239],[13.5333,41.4242],[13.5256,41.4232],[13.5115,41.4236],[13.5125,41.4322],[13.5221,41.4478],[13.5292,41.4552],[13.5373,41.4593],[13.5373,41.4617],[13.5323,41.4657],[13.5284,41.4765],[13.5345,41.4745],[13.5551,41.4778],[13.5654,41.4723],[13.5779,41.4721],[13.5825,41.4725],[13.59,41.4756],[13.5964,41.477],[13.607,41.4762]]]}},{"type":"Feature","properties":{"i":"060052","n":"Piedimonte San Germano"},"geometry":{"type":"Polygon","coordinates":[[[13.7588,41.5221],[13.7629,41.5146],[13.7651,41.5086],[13.7651,41.5019],[13.7664,41.4931],[13.7664,41.486],[13.7627,41.4627],[13.7563,41.4611],[13.753,41.4613],[13.7488,41.4578],[13.7521,41.4444],[13.751,41.4432],[13.7485,41.4423],[13.7462,41.4435],[13.7343,41.4448],[13.7372,41.4489],[13.7347,41.4563],[13.7313,41.4608],[13.7371,41.4658],[13.7397,41.467],[13.7419,41.475],[13.7421,41.4841],[13.7409,41.4886],[13.7309,41.4884],[13.7275,41.49],[13.73,41.4954],[13.7304,41.4979],[13.744,41.5144],[13.7464,41.5159],[13.747,41.5204],[13.7588,41.5221]]]}},{"type":"Feature","properties":{"i":"060053","n":"Piglio"},"geometry":{"type":"Polygon","coordinates":[[[13.2002,41.8373],[13.2018,41.8339],[13.1888,41.8202],[13.182,41.8172],[13.1744,41.8121],[13.1656,41.8144],[13.1567,41.8095],[13.1562,41.805],[13.1532,41.799],[13.1367,41.7827],[13.1356,41.7853],[13.1334,41.7873],[13.1233,41.789],[13.1121,41.7924],[13.1076,41.792],[13.107,41.7947],[13.1073,41.8043],[13.1055,41.813],[13.1024,41.8163],[13.106,41.821],[13.1106,41.8307],[13.1145,41.8336],[13.1203,41.8433],[13.1219,41.8474],[13.1365,41.8437],[13.1545,41.8437],[13.1593,41.8493],[13.164,41.8503],[13.1714,41.8498],[13.1842,41.846],[13.1981,41.8393],[13.2002,41.8373]]]}},{"type":"Feature","properties":{"i":"060054","n":"Pignataro Interamna"},"geometry":{"type":"Polygon","coordinates":[[[13.8121,41.421],[13.8017,41.4168],[13.7879,41.4158],[13.7819,41.4146],[13.7803,41.4133],[13.775,41.4143],[13.7699,41.4192],[13.7528,41.4192],[13.7506,41.4158],[13.7519,41.4147],[13.7512,41.412],[13.74,41.4108],[13.7368,41.4111],[13.7274,41.4157],[13.727,41.4169],[13.7274,41.42],[13.7354,41.4288],[13.733,41.443],[13.7338,41.4447],[13.7425,41.4441],[13.7485,41.4423],[13.751,41.4432],[13.7636,41.4546],[13.7791,41.4565],[13.782,41.4588],[13.7842,41.4584],[13.7965,41.4516],[13.8056,41.4489],[13.8086,41.4468],[13.8033,41.4354],[13.8085,41.4234],[13.8121,41.421]]]}},{"type":"Feature","properties":{"i":"060055","n":"Pofi"},"geometry":{"type":"Polygon","coordinates":[[[13.4521,41.5585],[13.4517,41.5545],[13.4506,41.5525],[13.4519,41.5463],[13.4542,41.5417],[13.4572,41.539],[13.4653,41.5372],[13.4763,41.5288],[13.4771,41.526],[13.4608,41.5243],[13.4589,41.5246],[13.4552,41.5306],[13.4457,41.5314],[13.4403,41.5304],[13.4018,41.5355],[13.3953,41.5314],[13.3893,41.5321],[13.3865,41.5329],[13.3844,41.535],[13.3807,41.5456],[13.3801,41.5549],[13.3835,41.5583],[13.3868,41.5595],[13.3968,41.577],[13.4016,41.5875],[13.4014,41.5895],[13.3991,41.5928],[13.407,41.5939],[13.4123,41.5886],[13.4156,41.5823],[13.4188,41.5795],[13.4321,41.5766],[13.4481,41.5655],[13.4516,41.5607],[13.4521,41.5585]]]}},{"type":"Feature","properties":{"i":"060056","n":"Pontecorvo"},"geometry":{"type":"Polygon","coordinates":[[[13.6438,41.4938],[13.672,41.4808],[13.6819,41.4754],[13.6945,41.4705],[13.7006,41.4668],[13.7148,41.4549],[13.7251,41.4485],[13.7338,41.4447],[13.733,41.443],[13.7354,41.4288],[13.7274,41.42],[13.7274,41.4157],[13.7226,41.4144],[13.7182,41.4099],[13.7112,41.4126],[13.7061,41.4161],[13.7066,41.4124],[13.7048,41.4118],[13.7009,41.4125],[13.6991,41.4186],[13.6994,41.4217],[13.697,41.4245],[13.6913,41.4271],[13.6836,41.4268],[13.6723,41.4203],[13.6562,41.426],[13.6488,41.4268],[13.6405,41.4211],[13.636,41.4167],[13.6168,41.4119],[13.5726,41.4038],[13.561,41.4005],[13.5583,41.4045],[13.5592,41.4076],[13.5521,41.414],[13.5663,41.4226],[13.5777,41.4265],[13.5896,41.436],[13.5913,41.441],[13.5883,41.4466],[13.5896,41.4583],[13.5933,41.4644],[13.6045,41.4713],[13.61,41.4813],[13.6053,41.4842],[13.5951,41.488],[13.593,41.4895],[13.5917,41.4917],[13.5939,41.4963],[13.5933,41.5013],[13.5943,41.5041],[13.6013,41.5047],[13.6185,41.4996],[13.6381,41.4959],[13.6438,41.4938]]]}},{"type":"Feature","properties":{"i":"060057","n":"Posta Fibreno"},"geometry":{"type":"Polygon","coordinates":[[[13.7127,41.7093],[13.7141,41.6961],[13.7002,41.6835],[13.6962,41.6832],[13.689,41.6851],[13.6829,41.6829],[13.6799,41.6809],[13.6669,41.6974],[13.6715,41.6979],[13.6742,41.6991],[13.6761,41.7011],[13.6785,41.704],[13.6782,41.7067],[13.68,41.7108],[13.6828,41.7093],[13.6875,41.7088],[13.6953,41.714],[13.7064,41.7165],[13.7115,41.7149],[13.7127,41.7093]]]}},{"type":"Feature","properties":{"i":"060058","n":"Ripi"},"geometry":{"type":"Polygon","coordinates":[[[13.4705,41.6071],[13.4709,41.6044],[13.475,41.5968],[13.4811,41.5899],[13.4866,41.5863],[13.4873,41.5848],[13.487,41.5805],[13.4732,41.5745],[13.4628,41.5674],[13.4547,41.5596],[13.4521,41.5585],[13.4516,41.5607],[13.4481,41.5655],[13.4321,41.5766],[13.4188,41.5795],[13.4156,41.5823],[13.4123,41.5886],[13.407,41.5939],[13.3991,41.5928],[13.3992,41.5998],[13.4011,41.6019],[13.4056,41.6047],[13.4096,41.6123],[13.4299,41.6364],[13.4338,41.6357],[13.4395,41.6304],[13.447,41.6192],[13.4532,41.6195],[13.4556,41.6203],[13.4659,41.6119],[13.4705,41.6071]]]}},{"type":"Feature","properties":{"i":"060059","n":"Rocca d'Arce"},"geometry":{"type":"Polygon","coordinates":[[[13.6322,41.5841],[13.633,41.5815],[13.632,41.5799],[13.6261,41.5789],[13.6268,41.5797],[13.6224,41.5809],[13.6205,41.5761],[13.6199,41.5691],[13.623,41.5653],[13.6197,41.5637],[13.6016,41.5683],[13.5972,41.5707],[13.5959,41.5728],[13.5861,41.5812],[13.5817,41.5869],[13.5805,41.5915],[13.5868,41.5975],[13.587,41.6042],[13.5859,41.606],[13.5974,41.6106],[13.6035,41.6074],[13.6136,41.5976],[13.6147,41.5926],[13.6142,41.591],[13.616,41.5872],[13.6257,41.5834],[13.6322,41.5841]]]}},{"type":"Feature","properties":{"i":"060060","n":"Roccasecca"},"geometry":{"type":"Polygon","coordinates":[[[13.6587,41.5684],[13.6635,41.5645],[13.6709,41.5616],[13.6794,41.5558],[13.6824,41.5512],[13.6832,41.5471],[13.6878,41.547],[13.6727,41.5241],[13.6668,41.5137],[13.6578,41.5128],[13.6547,41.5116],[13.6503,41.5054],[13.6493,41.5017],[13.6468,41.4975],[13.6438,41.4938],[13.6381,41.4959],[13.6185,41.4996],[13.6013,41.5047],[13.5943,41.5041],[13.5933,41.5013],[13.586,41.5019],[13.5848,41.503],[13.5879,41.5098],[13.5945,41.5132],[13.6008,41.5187],[13.6016,41.521],[13.6008,41.5218],[13.6028,41.5301],[13.6056,41.5361],[13.6178,41.5414],[13.6258,41.5488],[13.624,41.5635],[13.6199,41.5691],[13.6205,41.5761],[13.6224,41.5809],[13.6268,41.5797],[13.6261,41.5789],[13.632,41.5799],[13.633,41.5815],[13.6322,41.5841],[13.6396,41.579],[13.6587,41.5684]]]}},{"type":"Feature","properties":{"i":"060061","n":"San Biagio Saracinisco"},"geometry":{"type":"Polygon","coordinates":[[[13.9883,41.6538],[13.9874,41.6479],[13.9888,41.6446],[13.9926,41.6418],[13.9936,41.6397],[13.9967,41.6241],[13.9846,41.6338],[13.9753,41.6331],[13.9702,41.6296],[13.9717,41.625],[13.9709,41.6206],[13.9653,41.6062],[13.9611,41.5976],[13.9583,41.5942],[13.9531,41.5902],[13.9424,41.5882],[13.9381,41.5884],[13.9302,41.5907],[13.9233,41.59],[13.9176,41.5882],[13.9091,41.5897],[13.9084,41.5947],[13.9031,41.5985],[13.8963,41.5951],[13.8915,41.5971],[13.8898,41.6022],[13.8921,41.6032],[13.8985,41.604],[13.9182,41.6153],[13.9263,41.625],[13.9483,41.6431],[13.9571,41.6483],[13.9626,41.6487],[13.9655,41.6513],[13.969,41.659],[13.9757,41.6648],[13.9868,41.6564],[13.9883,41.6538]]]}},{"type":"Feature","properties":{"i":"060062","n":"San Donato Val di Comino"},"geometry":{"type":"Polygon","coordinates":[[[13.8214,41.7433],[13.8235,41.7409],[13.8276,41.7392],[13.8372,41.738],[13.8448,41.7382],[13.8516,41.7356],[13.8522,41.734],[13.8564,41.7312],[13.8516,41.7271],[13.842,41.7072],[13.8407,41.7019],[13.8348,41.6923],[13.8159,41.6804],[13.809,41.6828],[13.8046,41.6831],[13.7865,41.6752],[13.788,41.677],[13.7837,41.6963],[13.7805,41.6997],[13.7734,41.7035],[13.7716,41.7038],[13.7716,41.7123],[13.7781,41.7336],[13.7816,41.7386],[13.8081,41.7519],[13.8109,41.7541],[13.8133,41.7539],[13.815,41.7528],[13.8214,41.7433]]]}},{"type":"Feature","properties":{"i":"060063","n":"San Giorgio a Liri"},"geometry":{"type":"Polygon","coordinates":[[[13.7971,41.4164],[13.7966,41.409],[13.8054,41.3977],[13.8063,41.3951],[13.8013,41.3961],[13.7998,41.3993],[13.7968,41.3992],[13.7927,41.3967],[13.7809,41.387],[13.7745,41.3844],[13.7691,41.3802],[13.7641,41.3869],[13.7539,41.3929],[13.7432,41.3956],[13.7399,41.3927],[13.7315,41.3903],[13.7289,41.3904],[13.7274,41.3924],[13.7276,41.3943],[13.7292,41.3953],[13.7313,41.4021],[13.7338,41.4108],[13.7335,41.413],[13.7381,41.4108],[13.7508,41.4119],[13.7519,41.4147],[13.7506,41.4158],[13.7528,41.4192],[13.7591,41.4197],[13.7699,41.4192],[13.775,41.4143],[13.7803,41.4133],[13.7819,41.4146],[13.7879,41.4158],[13.7971,41.4164]]]}},{"type":"Feature","properties":{"i":"060064","n":"San Giovanni Incarico"},"geometry":{"type":"Polygon","coordinates":[[[13.5785,41.5287],[13.5866,41.5205],[13.5868,41.5176],[13.5851,41.5165],[13.5864,41.5107],[13.5879,41.5098],[13.5848,41.503],[13.577,41.5039],[13.5774,41.5012],[13.5793,41.4991],[13.5818,41.4986],[13.5857,41.4997],[13.5875,41.5016],[13.5933,41.5013],[13.5939,41.4963],[13.5917,41.4917],[13.593,41.4895],[13.5951,41.488],[13.6053,41.4842],[13.61,41.4813],[13.607,41.4762],[13.5964,41.477],[13.59,41.4756],[13.5825,41.4725],[13.5779,41.4721],[13.5654,41.4723],[13.5551,41.4778],[13.5345,41.4745],[13.5284,41.4765],[13.526,41.4813],[13.5294,41.4805],[13.5333,41.4842],[13.5361,41.4873],[13.5358,41.4898],[13.5403,41.4969],[13.5437,41.4992],[13.5461,41.5081],[13.5436,41.5124],[13.5438,41.5204],[13.5545,41.5212],[13.5635,41.5249],[13.5643,41.5263],[13.5738,41.5288],[13.5785,41.5287]]]}},{"type":"Feature","properties":{"i":"060065","n":"Sant'Ambrogio sul Garigliano"},"geometry":{"type":"Polygon","coordinates":[[[13.8736,41.3747],[13.8679,41.377],[13.863,41.3774],[13.8597,41.376],[13.8546,41.3759],[13.8488,41.3779],[13.8485,41.3816],[13.846,41.3863],[13.845,41.3972],[13.848,41.4022],[13.8578,41.4079],[13.863,41.4099],[13.8713,41.4038],[13.8774,41.4018],[13.8796,41.4031],[13.8854,41.3998],[13.8772,41.3973],[13.8756,41.3961],[13.8758,41.3948],[13.8841,41.3832],[13.8769,41.3795],[13.8736,41.3747]]]}},{"type":"Feature","properties":{"i":"060066","n":"Sant'Andrea del Garigliano"},"geometry":{"type":"Polygon","coordinates":[[[13.8736,41.3747],[13.8708,41.3647],[13.8726,41.3529],[13.8753,41.3458],[13.8774,41.344],[13.878,41.3406],[13.8774,41.3391],[13.8683,41.337],[13.8569,41.3328],[13.8424,41.331],[13.8423,41.3359],[13.8333,41.3422],[13.8242,41.3526],[13.8299,41.3587],[13.8292,41.3659],[13.8323,41.3761],[13.8349,41.3802],[13.8369,41.3776],[13.8394,41.3766],[13.8461,41.3795],[13.847,41.3842],[13.8488,41.3806],[13.8488,41.3779],[13.85,41.3774],[13.8546,41.3759],[13.8597,41.376],[13.863,41.3774],[13.8679,41.377],[13.8736,41.3747]]]}},{"type":"Feature","properties":{"i":"060067","n":"Sant'Apollinare"},"geometry":{"type":"Polygon","coordinates":[[[13.8612,41.4166],[13.863,41.4099],[13.8578,41.4079],[13.848,41.4022],[13.845,41.3972],[13.846,41.3863],[13.847,41.3842],[13.8464,41.3799],[13.8394,41.3766],[13.8358,41.3787],[13.8336,41.3827],[13.8247,41.3843],[13.8227,41.3813],[13.8237,41.3757],[13.8196,41.3749],[13.8128,41.3766],[13.8106,41.3799],[13.8112,41.3844],[13.8106,41.3867],[13.8086,41.3906],[13.8067,41.3915],[13.805,41.3949],[13.8063,41.3951],[13.8054,41.3977],[13.7965,41.4094],[13.7971,41.4164],[13.8017,41.4168],[13.8152,41.4218],[13.8208,41.4202],[13.8246,41.4177],[13.8294,41.4171],[13.8375,41.4181],[13.8421,41.4203],[13.8509,41.4206],[13.8573,41.417],[13.8612,41.4166]]]}},{"type":"Feature","properties":{"i":"060068","n":"Sant'Elia Fiumerapido"},"geometry":{"type":"Polygon","coordinates":[[[13.9091,41.5897],[13.9038,41.5809],[13.8977,41.5748],[13.8949,41.5744],[13.881,41.5691],[13.8798,41.5617],[13.8883,41.5419],[13.8893,41.5388],[13.8894,41.5331],[13.8953,41.5255],[13.9069,41.5175],[13.9111,41.5155],[13.9052,41.5135],[13.8988,41.5169],[13.8933,41.5175],[13.8904,41.5165],[13.8615,41.5208],[13.844,41.5253],[13.8342,41.5332],[13.8228,41.5445],[13.8302,41.5475],[13.8314,41.5518],[13.8302,41.5549],[13.8338,41.5569],[13.8335,41.559],[13.8274,41.5636],[13.8252,41.5664],[13.8232,41.5722],[13.8293,41.5752],[13.8378,41.5823],[13.8359,41.5895],[13.8376,41.5901],[13.8515,41.5857],[13.862,41.5856],[13.8665,41.599],[13.8772,41.5961],[13.8782,41.5952],[13.886,41.5996],[13.8894,41.6025],[13.8915,41.5971],[13.8955,41.5952],[13.8974,41.5953],[13.9031,41.5985],[13.9084,41.5947],[13.9091,41.5897]]]}},{"type":"Feature","properties":{"i":"060069","n":"Santopadre"},"geometry":{"type":"Polygon","coordinates":[[[13.6667,41.6071],[13.6654,41.5997],[13.6646,41.582],[13.6666,41.5713],[13.6641,41.5686],[13.6587,41.5684],[13.6396,41.579],[13.6322,41.5841],[13.6257,41.5834],[13.616,41.5872],[13.6142,41.591],[13.6147,41.5926],[13.6136,41.5976],[13.6035,41.6074],[13.5974,41.6106],[13.5995,41.6105],[13.6032,41.6175],[13.6082,41.6204],[13.6102,41.6174],[13.6175,41.6159],[13.628,41.6202],[13.6426,41.6232],[13.6498,41.6233],[13.6592,41.619],[13.6641,41.6147],[13.6661,41.6125],[13.6667,41.6071]]]}},{"type":"Feature","properties":{"i":"060070","n":"San Vittore del Lazio"},"geometry":{"type":"Polygon","coordinates":[[[13.9756,41.497],[13.9729,41.494],[13.9731,41.4925],[13.9928,41.4821],[13.9889,41.4796],[13.9839,41.4734],[13.9779,41.4625],[13.975,41.4634],[13.9612,41.4639],[13.9498,41.4535],[13.933,41.4423],[13.9312,41.4402],[13.9284,41.4384],[13.9239,41.4374],[13.9136,41.4332],[13.9111,41.4309],[13.9109,41.4287],[13.9027,41.4291],[13.8983,41.4354],[13.8969,41.4359],[13.8917,41.4341],[13.892,41.439],[13.8988,41.4458],[13.9052,41.4562],[13.9091,41.458],[13.9138,41.4628],[13.9147,41.466],[13.9189,41.4706],[13.9285,41.4754],[13.9327,41.4786],[13.9372,41.4837],[13.9457,41.4893],[13.9477,41.4898],[13.9548,41.4964],[13.9548,41.5007],[13.9614,41.5022],[13.9682,41.5009],[13.9756,41.497]]]}},{"type":"Feature","properties":{"i":"060071","n":"Serrone"},"geometry":{"type":"Polygon","coordinates":[[[13.1219,41.8474],[13.1203,41.8433],[13.1145,41.8336],[13.1106,41.8307],[13.1042,41.8179],[13.1024,41.8163],[13.0974,41.8153],[13.0956,41.8137],[13.086,41.8177],[13.0809,41.8241],[13.0654,41.8314],[13.0696,41.8488],[13.0716,41.8542],[13.0914,41.8582],[13.0979,41.861],[13.1015,41.8605],[13.1051,41.8573],[13.1219,41.8474]]]}},{"type":"Feature","properties":{"i":"060072","n":"Settefrati"},"geometry":{"type":"Polygon","coordinates":[[[13.9045,41.7182],[13.9024,41.7143],[13.9079,41.687],[13.9106,41.6828],[13.9097,41.6779],[13.9017,41.6684],[13.8954,41.6626],[13.8877,41.6571],[13.8785,41.6537],[13.8728,41.6566],[13.8559,41.6554],[13.8452,41.6505],[13.8402,41.6464],[13.8338,41.6441],[13.8277,41.6445],[13.8265,41.6467],[13.8153,41.6573],[13.8184,41.6714],[13.8216,41.6749],[13.8255,41.6774],[13.8308,41.6834],[13.8282,41.6859],[13.826,41.6868],[13.8353,41.6928],[13.8407,41.7019],[13.842,41.7072],[13.8516,41.7271],[13.8564,41.7312],[13.8792,41.7287],[13.8882,41.7321],[13.8917,41.7352],[13.8976,41.7321],[13.9045,41.7182]]]}},{"type":"Feature","properties":{"i":"060073","n":"Sgurgola"},"geometry":{"type":"Polygon","coordinates":[[[13.1966,41.6738],[13.1918,41.6674],[13.1891,41.6686],[13.1874,41.6703],[13.1836,41.6704],[13.1707,41.6584],[13.1539,41.6476],[13.1506,41.6528],[13.1508,41.6579],[13.1493,41.6595],[13.139,41.6619],[13.1256,41.6633],[13.116,41.6678],[13.1166,41.6802],[13.1141,41.6875],[13.1162,41.6919],[13.1327,41.6951],[13.1389,41.6944],[13.1395,41.6938],[13.139,41.6926],[13.1424,41.69],[13.1477,41.6877],[13.1523,41.688],[13.1542,41.6901],[13.1612,41.6919],[13.1675,41.692],[13.1669,41.6876],[13.1721,41.6827],[13.1966,41.6738]]]}},{"type":"Feature","properties":{"i":"060074","n":"Sora"},"geometry":{"type":"Polygon","coordinates":[[[13.6538,41.7295],[13.6542,41.725],[13.6355,41.7141],[13.6304,41.7067],[13.6199,41.6938],[13.6055,41.6886],[13.6051,41.6898],[13.603,41.6915],[13.5951,41.6956],[13.586,41.6968],[13.5748,41.6966],[13.5602,41.6997],[13.547,41.7094],[13.5402,41.7157],[13.5347,41.7182],[13.521,41.719],[13.5058,41.7178],[13.5028,41.7267],[13.5117,41.7627],[13.5184,41.7696],[13.5204,41.773],[13.5339,41.768],[13.5453,41.7624],[13.5511,41.7616],[13.5554,41.7626],[13.5614,41.7615],[13.568,41.7562],[13.5718,41.7543],[13.5738,41.7543],[13.5762,41.755],[13.578,41.7581],[13.5861,41.7664],[13.6018,41.7694],[13.6092,41.7738],[13.6134,41.778],[13.6144,41.7737],[13.6155,41.7612],[13.6304,41.7423],[13.6377,41.734],[13.6427,41.7311],[13.651,41.7305],[13.6538,41.7295]]]}},{"type":"Feature","properties":{"i":"060075","n":"Strangolagalli"},"geometry":{"type":"Polygon","coordinates":[[[13.5205,41.5887],[13.5171,41.5879],[13.5112,41.5766],[13.5068,41.5748],[13.5045,41.5745],[13.4884,41.5799],[13.487,41.5805],[13.4873,41.5848],[13.4864,41.5866],[13.4811,41.5899],[13.475,41.5968],[13.4709,41.6044],[13.4705,41.6071],[13.4719,41.6063],[13.4747,41.6071],[13.493,41.6147],[13.497,41.6087],[13.5141,41.5986],[13.5205,41.5887]]]}},{"type":"Feature","properties":{"i":"060076","n":"Supino"},"geometry":{"type":"Polygon","coordinates":[[[13.2638,41.6327],[13.2681,41.6268],[13.2604,41.6245],[13.2591,41.6139],[13.2517,41.6066],[13.2371,41.6022],[13.2305,41.5986],[13.216,41.5871],[13.2104,41.585],[13.1997,41.5786],[13.1977,41.5865],[13.1963,41.5876],[13.1868,41.5881],[13.1856,41.5878],[13.1853,41.5849],[13.1844,41.5845],[13.1778,41.5838],[13.163,41.5848],[13.1558,41.5869],[13.1499,41.5962],[13.1509,41.603],[13.1577,41.6113],[13.1585,41.615],[13.162,41.6168],[13.1813,41.6195],[13.189,41.6198],[13.195,41.6189],[13.2079,41.6196],[13.2217,41.6284],[13.2295,41.6355],[13.2313,41.6405],[13.2308,41.6429],[13.2317,41.6455],[13.2349,41.6464],[13.2411,41.6464],[13.2498,41.6442],[13.2599,41.6369],[13.2638,41.6327]]]}},{"type":"Feature","properties":{"i":"060077","n":"Terelle"},"geometry":{"type":"Polygon","coordinates":[[[13.7783,41.5905],[13.7813,41.5903],[13.7965,41.5727],[13.8036,41.5675],[13.8138,41.5652],[13.8192,41.5618],[13.8265,41.5545],[13.8289,41.554],[13.8302,41.5549],[13.8314,41.5518],[13.8302,41.5475],[13.81,41.5382],[13.7987,41.5344],[13.7964,41.5319],[13.7976,41.5306],[13.7977,41.5256],[13.7961,41.5218],[13.7735,41.5269],[13.7632,41.5279],[13.7588,41.5221],[13.7541,41.5217],[13.7547,41.5271],[13.7573,41.5362],[13.7575,41.542],[13.7524,41.5434],[13.7494,41.5492],[13.7486,41.5556],[13.7492,41.5598],[13.754,41.5666],[13.7556,41.5799],[13.7667,41.5883],[13.7701,41.5895],[13.7783,41.5905]]]}},{"type":"Feature","properties":{"i":"060078","n":"Torre Cajetani"},"geometry":{"type":"Polygon","coordinates":[[[13.2895,41.779],[13.2844,41.7801],[13.269,41.7796],[13.2583,41.7763],[13.2469,41.7707],[13.2405,41.7663],[13.2385,41.7809],[13.2401,41.7876],[13.2459,41.7983],[13.2507,41.804],[13.2592,41.8078],[13.272,41.8063],[13.2789,41.8035],[13.284,41.7996],[13.2851,41.7985],[13.2883,41.7887],[13.2896,41.7824],[13.2895,41.779]]]}},{"type":"Feature","properties":{"i":"060079","n":"Torrice"},"geometry":{"type":"Polygon","coordinates":[[[13.4299,41.6364],[13.4096,41.6123],[13.4056,41.6047],[13.4011,41.6019],[13.3992,41.5998],[13.3829,41.6051],[13.3776,41.6047],[13.3764,41.6031],[13.3717,41.6066],[13.3713,41.6095],[13.3749,41.6225],[13.3794,41.6338],[13.3846,41.6438],[13.3925,41.654],[13.3951,41.6547],[13.4003,41.6539],[13.4214,41.6456],[13.422,41.6432],[13.4276,41.6372],[13.4299,41.6364]]]}},{"type":"Feature","properties":{"i":"060080","n":"Trevi nel Lazio"},"geometry":{"type":"Polygon","coordinates":[[[13.3267,41.8364],[13.3128,41.8382],[13.2882,41.8362],[13.2806,41.8371],[13.2662,41.8336],[13.2613,41.8314],[13.2573,41.8331],[13.2446,41.8354],[13.2095,41.839],[13.2002,41.8373],[13.1981,41.8393],[13.1842,41.846],[13.1913,41.851],[13.1911,41.8559],[13.1897,41.8596],[13.1957,41.8688],[13.2032,41.8723],[13.2078,41.8726],[13.2132,41.8754],[13.2351,41.8889],[13.2438,41.8967],[13.2457,41.8994],[13.2454,41.9002],[13.242,41.9022],[13.2405,41.904],[13.2434,41.9155],[13.2638,41.9158],[13.2685,41.9193],[13.2701,41.9239],[13.2715,41.9257],[13.275,41.9262],[13.2758,41.926],[13.2751,41.9223],[13.2687,41.9124],[13.2697,41.9061],[13.2725,41.9009],[13.2826,41.8925],[13.2827,41.8914],[13.279,41.8848],[13.2777,41.8775],[13.2792,41.8708],[13.2854,41.8649],[13.2954,41.8642],[13.3024,41.8624],[13.3081,41.8596],[13.3082,41.8577],[13.3054,41.855],[13.3057,41.8481],[13.3267,41.8364]]]}},{"type":"Feature","properties":{"i":"060081","n":"Trivigliano"},"geometry":{"type":"Polygon","coordinates":[[[13.2895,41.779],[13.2916,41.7782],[13.2956,41.7727],[13.2966,41.7694],[13.2953,41.7635],[13.289,41.7519],[13.2781,41.7469],[13.272,41.7466],[13.2647,41.7524],[13.2569,41.7519],[13.2516,41.7486],[13.2495,41.7543],[13.2428,41.7585],[13.2383,41.7603],[13.2372,41.7621],[13.2384,41.767],[13.2405,41.7663],[13.2469,41.7707],[13.2597,41.7768],[13.269,41.7796],[13.2844,41.7801],[13.2895,41.779]]]}},{"type":"Feature","properties":{"i":"060082","n":"Vallecorsa"},"geometry":{"type":"Polygon","coordinates":[[[13.4367,41.461],[13.432,41.4585],[13.4294,41.449],[13.4388,41.4268],[13.4357,41.4174],[13.4282,41.4021],[13.4273,41.3973],[13.4089,41.3978],[13.3997,41.402],[13.3865,41.4045],[13.3755,41.4037],[13.3702,41.3994],[13.3661,41.3973],[13.3628,41.3974],[13.3602,41.3978],[13.3492,41.4046],[13.3613,41.4169],[13.3829,41.4316],[13.3881,41.4363],[13.3831,41.4418],[13.3823,41.4479],[13.3827,41.4527],[13.3865,41.46],[13.3813,41.4651],[13.3785,41.4698],[13.3813,41.4759],[13.3928,41.4753],[13.4145,41.4727],[13.4297,41.4658],[13.4367,41.461]]]}},{"type":"Feature","properties":{"i":"060083","n":"Vallemaio"},"geometry":{"type":"Polygon","coordinates":[[[13.805,41.3949],[13.8067,41.3915],[13.8086,41.3906],[13.8106,41.3867],[13.8112,41.3844],[13.8106,41.3799],[13.8128,41.3766],[13.8196,41.3749],[13.8237,41.3757],[13.8227,41.3813],[13.8247,41.3843],[13.8336,41.3827],[13.8349,41.3802],[13.8323,41.3761],[13.8292,41.3659],[13.8299,41.3587],[13.8242,41.3526],[13.8333,41.3422],[13.8423,41.3359],[13.8424,41.331],[13.8268,41.3382],[13.8231,41.3387],[13.812,41.3459],[13.7886,41.3647],[13.7806,41.3668],[13.7691,41.3802],[13.7745,41.3844],[13.7809,41.387],[13.7927,41.3967],[13.7968,41.3992],[13.7998,41.3993],[13.8013,41.3961],[13.805,41.3949]]]}},{"type":"Feature","properties":{"i":"060084","n":"Vallerotonda"},"geometry":{"type":"Polygon","coordinates":[[[13.9967,41.6241],[14.0111,41.6078],[14.0088,41.6001],[14.0091,41.5955],[14.0102,41.5926],[13.9977,41.579],[13.9991,41.5742],[14.0041,41.5713],[14.0017,41.5697],[14.0005,41.571],[13.9977,41.5721],[13.9875,41.5736],[13.9781,41.5718],[13.9613,41.5702],[13.945,41.5624],[13.9403,41.5585],[13.9339,41.5513],[13.9366,41.5431],[13.9361,41.5366],[13.9367,41.5335],[13.9423,41.5175],[13.9379,41.5119],[13.9184,41.5155],[13.9111,41.5155],[13.9069,41.5175],[13.8953,41.5255],[13.8894,41.5331],[13.8893,41.5388],[13.8883,41.5419],[13.8798,41.5617],[13.881,41.5691],[13.8949,41.5744],[13.8977,41.5748],[13.9038,41.5809],[13.9091,41.5897],[13.9176,41.5882],[13.9233,41.59],[13.9302,41.5907],[13.9381,41.5884],[13.9424,41.5882],[13.9531,41.5902],[13.9583,41.5942],[13.9611,41.5976],[13.9653,41.6062],[13.9709,41.6206],[13.9717,41.625],[13.9702,41.6296],[13.9753,41.6331],[13.9846,41.6338],[13.9967,41.6241]]]}},{"type":"Feature","properties":{"i":"060085","n":"Veroli"},"geometry":{"type":"Polygon","coordinates":[[[13.5216,41.7798],[13.5204,41.773],[13.5184,41.7696],[13.5117,41.7623],[13.5022,41.7561],[13.4941,41.754],[13.4871,41.7451],[13.4883,41.743],[13.4933,41.7396],[13.4951,41.7281],[13.5003,41.7143],[13.5018,41.7061],[13.493,41.6911],[13.4919,41.6861],[13.4929,41.6838],[13.498,41.68],[13.4974,41.6716],[13.4907,41.665],[13.4634,41.673],[13.4536,41.6693],[13.4494,41.6671],[13.4329,41.6481],[13.4291,41.6397],[13.4299,41.6364],[13.4276,41.6372],[13.422,41.6432],[13.4214,41.6456],[13.4054,41.6522],[13.3951,41.6547],[13.387,41.6537],[13.3813,41.6548],[13.3762,41.6586],[13.3633,41.6598],[13.3643,41.6637],[13.3705,41.6669],[13.3811,41.6686],[13.3852,41.6708],[13.3871,41.673],[13.3873,41.6759],[13.3852,41.6819],[13.3869,41.6864],[13.3914,41.6919],[13.3907,41.7037],[13.3887,41.7081],[13.3878,41.7169],[13.3905,41.7201],[13.3994,41.7242],[13.4012,41.7266],[13.4033,41.7341],[13.3989,41.7465],[13.4139,41.748],[13.4174,41.749],[13.4255,41.7531],[13.4307,41.7627],[13.4329,41.7648],[13.4642,41.789],[13.476,41.797],[13.4876,41.8033],[13.5057,41.8013],[13.5087,41.7973],[13.5112,41.7886],[13.5216,41.7798]]]}},{"type":"Feature","properties":{"i":"060086","n":"Vicalvi"},"geometry":{"type":"Polygon","coordinates":[[[13.7431,41.6611],[13.738,41.6628],[13.7354,41.6657],[13.7288,41.669],[13.7167,41.6712],[13.7081,41.6682],[13.6986,41.6698],[13.6925,41.6674],[13.6844,41.6781],[13.6799,41.6809],[13.6829,41.6829],[13.6884,41.685],[13.6962,41.6832],[13.701,41.6837],[13.7141,41.6961],[13.7235,41.6902],[13.7262,41.6863],[13.7267,41.6834],[13.7296,41.6761],[13.7349,41.6731],[13.7423,41.6672],[13.7448,41.6641],[13.7431,41.6611]]]}},{"type":"Feature","properties":{"i":"060087","n":"Vico nel Lazio"},"geometry":{"type":"Polygon","coordinates":[[[13.4516,41.8228],[13.4485,41.8191],[13.4364,41.8106],[13.4288,41.8068],[13.4264,41.8077],[13.4203,41.8122],[13.413,41.8098],[13.4136,41.7847],[13.4124,41.7824],[13.3989,41.7868],[13.3888,41.7987],[13.3877,41.797],[13.3845,41.7831],[13.3815,41.779],[13.3765,41.7773],[13.3696,41.7761],[13.3659,41.7763],[13.3605,41.7735],[13.3579,41.7674],[13.3571,41.7622],[13.3544,41.7608],[13.3293,41.7558],[13.3244,41.7579],[13.3228,41.7603],[13.3098,41.7669],[13.304,41.7684],[13.2969,41.7687],[13.3011,41.7716],[13.3062,41.7722],[13.3091,41.7737],[13.3161,41.7782],[13.3206,41.7824],[13.3269,41.7885],[13.3311,41.7979],[13.3357,41.805],[13.3437,41.8121],[13.3719,41.8272],[13.375,41.8245],[13.3763,41.821],[13.3795,41.8175],[13.3873,41.8173],[13.3915,41.8198],[13.3963,41.834],[13.4066,41.8375],[13.4169,41.8347],[13.4331,41.8279],[13.4516,41.8228]]]}},{"type":"Feature","properties":{"i":"060088","n":"Villa Latina"},"geometry":{"type":"Polygon","coordinates":[[[13.8894,41.6025],[13.886,41.5996],[13.8782,41.5952],[13.8772,41.5961],[13.8665,41.599],[13.862,41.5856],[13.8515,41.5857],[13.8376,41.5901],[13.8359,41.5895],[13.8362,41.5871],[13.8346,41.5873],[13.8319,41.5889],[13.8328,41.5968],[13.8296,41.6],[13.8251,41.602],[13.8221,41.6024],[13.8271,41.6161],[13.831,41.6237],[13.8348,41.6237],[13.8413,41.6256],[13.8516,41.6259],[13.8582,41.6216],[13.8673,41.6193],[13.8798,41.6215],[13.8828,41.6207],[13.8851,41.6186],[13.8862,41.6117],[13.8894,41.6025]]]}},{"type":"Feature","properties":{"i":"060089","n":"Villa Santa Lucia"},"geometry":{"type":"Polygon","coordinates":[[[13.7961,41.5218],[13.7938,41.5106],[13.7898,41.5065],[13.7895,41.5039],[13.7905,41.4991],[13.792,41.4964],[13.7986,41.4907],[13.7962,41.4844],[13.7912,41.4836],[13.7884,41.4855],[13.7854,41.4844],[13.782,41.48],[13.7815,41.4788],[13.7833,41.4725],[13.7822,41.4661],[13.7776,41.4629],[13.7817,41.4588],[13.7791,41.4565],[13.7636,41.4546],[13.7521,41.4444],[13.7488,41.4578],[13.753,41.4613],[13.7563,41.4611],[13.7627,41.4627],[13.7664,41.486],[13.7651,41.5086],[13.7629,41.5146],[13.7588,41.5221],[13.7632,41.5279],[13.7735,41.5269],[13.7961,41.5218]]]}},{"type":"Feature","properties":{"i":"060090","n":"Villa Santo Stefano"},"geometry":{"type":"Polygon","coordinates":[[[13.3537,41.5135],[13.3609,41.5101],[13.3582,41.5075],[13.3539,41.5058],[13.3438,41.5024],[13.3375,41.5013],[13.3287,41.4979],[13.3262,41.4959],[13.3263,41.4941],[13.317,41.4937],[13.3125,41.4945],[13.2957,41.4858],[13.2909,41.4849],[13.2885,41.4867],[13.2888,41.4899],[13.2792,41.5001],[13.2791,41.5083],[13.295,41.525],[13.3058,41.5349],[13.3112,41.5318],[13.3257,41.5279],[13.3486,41.5156],[13.3537,41.5135]]]}},{"type":"Feature","properties":{"i":"060091","n":"Viticuso"},"geometry":{"type":"Polygon","coordinates":[[[14.0059,41.5394],[14.0053,41.5385],[14.0094,41.5341],[14.0179,41.5291],[14.0257,41.5258],[14.0275,41.5243],[14.0275,41.5232],[14.0193,41.5219],[14.0105,41.5148],[13.995,41.5131],[13.9756,41.497],[13.9682,41.5009],[13.961,41.5022],[13.9548,41.5007],[13.9521,41.5014],[13.9446,41.5063],[13.9379,41.5119],[13.9423,41.5175],[13.9522,41.5201],[13.9567,41.5247],[13.9585,41.5286],[13.9577,41.5313],[13.9587,41.5325],[13.9775,41.5374],[13.9811,41.5448],[13.9845,41.5465],[13.9896,41.5485],[13.9934,41.548],[14.0059,41.5394]]]}}]}
