{"type":"FeatureCollection","fonte":"Confini comunali ISTAT via openpolis/geojson-italy — CC BY 4.0","features":[{"type":"Feature","properties":{"i":"010001","n":"Arenzano"},"geometry":{"type":"Polygon","coordinates":[[[8.7045,44.4129],[8.6908,44.4071],[8.6867,44.4035],[8.6856,44.4014],[8.6862,44.3988],[8.6876,44.398],[8.6823,44.3946],[8.6783,44.3927],[8.6653,44.3903],[8.664,44.3945],[8.6558,44.403],[8.6504,44.4074],[8.6471,44.4095],[8.6378,44.4104],[8.6293,44.424],[8.6298,44.4314],[8.6292,44.438],[8.6325,44.4394],[8.6427,44.4397],[8.6514,44.4417],[8.6638,44.4483],[8.667,44.4509],[8.6717,44.4469],[8.6744,44.4428],[8.6816,44.437],[8.6887,44.4389],[8.6928,44.4389],[8.6958,44.4373],[8.6976,44.4319],[8.7058,44.4182],[8.7045,44.4129]]]}},{"type":"Feature","properties":{"i":"010002","n":"Avegno"},"geometry":{"type":"Polygon","coordinates":[[[9.1827,44.4049],[9.1899,44.3964],[9.1825,44.391],[9.1784,44.3776],[9.1794,44.3732],[9.1624,44.3795],[9.1506,44.382],[9.129,44.384],[9.1319,44.3948],[9.1327,44.401],[9.1317,44.405],[9.133,44.4073],[9.1395,44.4081],[9.1423,44.4073],[9.1533,44.3974],[9.1682,44.4056],[9.1785,44.4044],[9.1827,44.4049]]]}},{"type":"Feature","properties":{"i":"010003","n":"Bargagli"},"geometry":{"type":"Polygon","coordinates":[[[9.103,44.4543],[9.1076,44.4494],[9.1084,44.4455],[9.1158,44.4398],[9.1156,44.4333],[9.1057,44.4224],[9.1033,44.4149],[9.0946,44.4113],[9.0727,44.416],[9.0638,44.4207],[9.0482,44.4407],[9.0533,44.4435],[9.0662,44.4429],[9.0727,44.4417],[9.078,44.4397],[9.0842,44.4423],[9.0854,44.4432],[9.0853,44.4449],[9.0819,44.449],[9.081,44.4516],[9.0846,44.4588],[9.088,44.4612],[9.0976,44.4602],[9.103,44.4543]]]}},{"type":"Feature","properties":{"i":"010004","n":"Bogliasco"},"geometry":{"type":"Polygon","coordinates":[[[9.095,44.4075],[9.0937,44.4048],[9.0912,44.405],[9.0838,44.3996],[9.0855,44.3952],[9.0864,44.3945],[9.0881,44.3948],[9.0893,44.3921],[9.0861,44.3821],[9.0777,44.3782],[9.0767,44.3768],[9.0768,44.3755],[9.0717,44.3771],[9.0624,44.3777],[9.058,44.3801],[9.0657,44.3875],[9.0724,44.3963],[9.0813,44.4019],[9.0881,44.4105],[9.0936,44.4089],[9.095,44.4075]]]}},{"type":"Feature","properties":{"i":"010005","n":"Borzonasca"},"geometry":{"type":"MultiPolygon","coordinates":[[[[9.479,44.4093],[9.4657,44.4016],[9.4576,44.4008],[9.4508,44.4053],[9.4467,44.4129],[9.4428,44.4166],[9.4613,44.4229],[9.4723,44.4219],[9.472,44.4193],[9.4738,44.4128],[9.479,44.4093]]],[[[9.4425,44.4817],[9.4423,44.4803],[9.4431,44.4795],[9.4528,44.4759],[9.4697,44.4768],[9.4706,44.472],[9.4675,44.466],[9.4644,44.4629],[9.4618,44.4586],[9.4581,44.4488],[9.4523,44.4404],[9.4458,44.4384],[9.4396,44.4301],[9.4388,44.4279],[9.4384,44.4185],[9.419,44.4119],[9.4161,44.4099],[9.4141,44.4063],[9.405,44.4028],[9.4028,44.4038],[9.3952,44.4097],[9.3897,44.4103],[9.3825,44.4017],[9.3648,44.4042],[9.3644,44.4093],[9.3572,44.4149],[9.348,44.4253],[9.3316,44.4362],[9.3249,44.4385],[9.3207,44.4477],[9.3198,44.4544],[9.3209,44.459],[9.3236,44.4608],[9.3279,44.4599],[9.3337,44.4611],[9.3374,44.4653],[9.3353,44.4691],[9.3352,44.4701],[9.3363,44.4709],[9.3852,44.4893],[9.3995,44.4909],[9.4065,44.4871],[9.4162,44.4837],[9.4425,44.4817]]]]}},{"type":"Feature","properties":{"i":"010006","n":"Busalla"},"geometry":{"type":"Polygon","coordinates":[[[8.9979,44.5821],[8.9881,44.5805],[8.9781,44.5777],[8.9678,44.5705],[8.9613,44.5689],[8.9563,44.5686],[8.9541,44.5671],[8.9529,44.5641],[8.9531,44.5606],[8.9551,44.5554],[8.9532,44.5525],[8.9426,44.5616],[8.9298,44.5646],[8.9249,44.5647],[8.9217,44.5671],[8.9194,44.5719],[8.9217,44.5745],[8.9238,44.5754],[8.9487,44.5847],[8.958,44.5865],[8.9622,44.5889],[8.9656,44.5925],[8.9949,44.6071],[9.0021,44.6137],[9.003,44.6164],[9.0097,44.6179],[9.0137,44.6112],[9.0055,44.6089],[9.0035,44.6056],[9.0048,44.603],[9.0141,44.5985],[9.0144,44.5955],[9.0088,44.5888],[9.0029,44.5863],[9.0,44.5868],[8.9984,44.5862],[8.9979,44.5821]]]}},{"type":"Feature","properties":{"i":"010007","n":"Camogli"},"geometry":{"type":"Polygon","coordinates":[[[9.1806,44.3451],[9.1741,44.3356],[9.1708,44.332],[9.1689,44.3271],[9.1832,44.3215],[9.1845,44.3172],[9.1834,44.3148],[9.1803,44.3115],[9.1825,44.3087],[9.1788,44.3089],[9.1753,44.3121],[9.1556,44.3158],[9.1509,44.3185],[9.1488,44.3246],[9.1506,44.3265],[9.1544,44.3334],[9.1553,44.338],[9.1551,44.3476],[9.1472,44.3553],[9.15,44.3573],[9.1555,44.3564],[9.1661,44.3529],[9.1684,44.3529],[9.1778,44.3549],[9.1817,44.3568],[9.1859,44.3577],[9.1934,44.3568],[9.1929,44.3538],[9.1894,44.3499],[9.1863,44.3479],[9.1817,44.3477],[9.1806,44.3451]]]}},{"type":"Feature","properties":{"i":"010008","n":"Campo Ligure"},"geometry":{"type":"Polygon","coordinates":[[[8.7382,44.5518],[8.7428,44.5502],[8.7505,44.545],[8.7567,44.5361],[8.7558,44.5306],[8.7525,44.5278],[8.7498,44.5268],[8.7464,44.5275],[8.7335,44.5183],[8.7268,44.5145],[8.7234,44.5137],[8.71,44.5143],[8.7049,44.5151],[8.7003,44.5173],[8.6957,44.5177],[8.6901,44.5162],[8.6882,44.5149],[8.6873,44.513],[8.6691,44.5062],[8.663,44.5025],[8.6638,44.5074],[8.6758,44.5189],[8.6751,44.5342],[8.6801,44.5426],[8.681,44.5456],[8.68,44.5476],[8.6808,44.5515],[8.6985,44.5532],[8.7069,44.55],[8.7156,44.5493],[8.7297,44.5526],[8.7382,44.5518]]]}},{"type":"Feature","properties":{"i":"010009","n":"Campomorone"},"geometry":{"type":"Polygon","coordinates":[[[8.8911,44.5506],[8.8889,44.5448],[8.8882,44.5401],[8.8888,44.5368],[8.8894,44.5359],[8.901,44.5316],[8.9007,44.5198],[8.8931,44.5165],[8.8958,44.507],[8.8945,44.5046],[8.8909,44.5057],[8.8789,44.5138],[8.8728,44.5136],[8.8638,44.5099],[8.8557,44.5186],[8.8445,44.523],[8.8395,44.5228],[8.832,44.5306],[8.8292,44.5357],[8.8282,44.5389],[8.8287,44.5449],[8.823,44.5487],[8.8222,44.5502],[8.8232,44.5555],[8.8268,44.5618],[8.8432,44.5624],[8.8496,44.5603],[8.8629,44.5606],[8.865,44.5659],[8.8677,44.5663],[8.8697,44.5658],[8.8754,44.5617],[8.8778,44.5593],[8.88,44.5554],[8.8843,44.5523],[8.8911,44.5506]]]}},{"type":"Feature","properties":{"i":"010010","n":"Carasco"},"geometry":{"type":"Polygon","coordinates":[[[9.3799,44.3661],[9.3783,44.3554],[9.3737,44.3482],[9.373,44.3492],[9.3689,44.3489],[9.3604,44.3435],[9.3582,44.3435],[9.3529,44.3402],[9.3431,44.3415],[9.3412,44.3429],[9.3382,44.3514],[9.3323,44.3582],[9.3477,44.3608],[9.3527,44.3636],[9.3538,44.3646],[9.3513,44.3669],[9.3523,44.3705],[9.3574,44.375],[9.3614,44.3741],[9.3799,44.3661]]]}},{"type":"Feature","properties":{"i":"010011","n":"Casarza Ligure"},"geometry":{"type":"Polygon","coordinates":[[[9.5227,44.31],[9.5159,44.3074],[9.5052,44.2954],[9.5046,44.2936],[9.4998,44.2899],[9.4872,44.2872],[9.4817,44.2809],[9.4867,44.2749],[9.4864,44.2723],[9.4825,44.2679],[9.4733,44.2624],[9.4722,44.2606],[9.4719,44.2559],[9.4636,44.2521],[9.4607,44.2533],[9.4463,44.2639],[9.4386,44.2683],[9.4348,44.2688],[9.4339,44.2703],[9.4344,44.2732],[9.4365,44.2774],[9.4521,44.3006],[9.4682,44.3056],[9.4707,44.3076],[9.4653,44.3135],[9.4651,44.3172],[9.4716,44.3248],[9.4782,44.3235],[9.4916,44.3244],[9.4993,44.3269],[9.5051,44.323],[9.5196,44.3154],[9.5227,44.31]]]}},{"type":"Feature","properties":{"i":"010012","n":"Casella"},"geometry":{"type":"Polygon","coordinates":[[[9.0181,44.536],[9.0258,44.5328],[9.0218,44.5321],[9.018,44.5303],[9.0089,44.5241],[8.9979,44.5199],[8.9969,44.519],[8.9966,44.5173],[8.9935,44.5171],[8.9774,44.5216],[8.9769,44.5291],[8.9838,44.5363],[8.9858,44.5401],[8.9857,44.5412],[8.9828,44.5441],[8.9789,44.5505],[9.0048,44.5471],[9.0132,44.5362],[9.0175,44.5353],[9.0181,44.536]]]}},{"type":"Feature","properties":{"i":"010013","n":"Castiglione Chiavarese"},"geometry":{"type":"Polygon","coordinates":[[[9.5733,44.2708],[9.5735,44.2568],[9.5715,44.2534],[9.5592,44.2573],[9.5414,44.256],[9.5332,44.2523],[9.523,44.2574],[9.5072,44.2595],[9.4785,44.2553],[9.4719,44.2559],[9.4722,44.2606],[9.4733,44.2624],[9.4825,44.2679],[9.4864,44.2723],[9.4867,44.2749],[9.4817,44.2809],[9.4872,44.2872],[9.4998,44.2899],[9.5046,44.2936],[9.5052,44.2954],[9.5159,44.3074],[9.5227,44.31],[9.5239,44.3077],[9.5274,44.3048],[9.5433,44.2967],[9.5553,44.2874],[9.5617,44.2779],[9.5733,44.2708]]]}},{"type":"Feature","properties":{"i":"010014","n":"Ceranesi"},"geometry":{"type":"Polygon","coordinates":[[[8.8945,44.5046],[8.8961,44.5041],[8.8969,44.5025],[8.8925,44.499],[8.8873,44.497],[8.8878,44.4794],[8.8902,44.4749],[8.8911,44.4749],[8.8901,44.4737],[8.8876,44.4726],[8.8636,44.4775],[8.8598,44.4763],[8.8552,44.4734],[8.8497,44.4752],[8.8484,44.4773],[8.8487,44.4784],[8.8504,44.4794],[8.8534,44.4795],[8.8564,44.4815],[8.8547,44.4906],[8.853,44.4912],[8.8493,44.4919],[8.8404,44.4887],[8.8314,44.4912],[8.8275,44.4939],[8.8254,44.4978],[8.8201,44.499],[8.8179,44.4988],[8.8111,44.4941],[8.8105,44.4915],[8.8047,44.4918],[8.7964,44.4951],[8.7928,44.4979],[8.7977,44.5002],[8.7971,44.5092],[8.7949,44.5225],[8.7991,44.5301],[8.8081,44.5353],[8.8237,44.5382],[8.8283,44.5424],[8.8282,44.5389],[8.8292,44.5357],[8.832,44.5306],[8.8395,44.5228],[8.8445,44.523],[8.8557,44.5186],[8.8638,44.5099],[8.8728,44.5136],[8.8789,44.5138],[8.8909,44.5057],[8.8945,44.5046]]]}},{"type":"Feature","properties":{"i":"010015","n":"Chiavari"},"geometry":{"type":"Polygon","coordinates":[[[9.3431,44.3415],[9.3529,44.3402],[9.3485,44.3338],[9.3469,44.3231],[9.3447,44.319],[9.3424,44.3167],[9.3306,44.3104],[9.3223,44.3107],[9.3153,44.3123],[9.3147,44.3127],[9.3222,44.311],[9.324,44.3125],[9.3166,44.3164],[9.3002,44.3234],[9.2804,44.3298],[9.2855,44.3425],[9.2889,44.3458],[9.2992,44.343],[9.3103,44.3416],[9.3161,44.3427],[9.3232,44.3407],[9.3235,44.3391],[9.3223,44.3377],[9.325,44.3357],[9.3389,44.3309],[9.3409,44.3331],[9.3409,44.3399],[9.3431,44.3415]]]}},{"type":"Feature","properties":{"i":"010016","n":"Cicagna"},"geometry":{"type":"Polygon","coordinates":[[[9.2551,44.4195],[9.2573,44.4071],[9.2626,44.4013],[9.2607,44.3968],[9.2555,44.3937],[9.252,44.3924],[9.2508,44.3928],[9.2501,44.3933],[9.2529,44.3971],[9.2451,44.3983],[9.2276,44.3922],[9.2272,44.3933],[9.2204,44.3963],[9.2124,44.3952],[9.1981,44.3964],[9.198,44.3992],[9.2017,44.4096],[9.2108,44.4182],[9.2176,44.4149],[9.2167,44.4124],[9.2185,44.4101],[9.2247,44.4115],[9.226,44.4142],[9.2336,44.4185],[9.2394,44.4201],[9.2551,44.4195]]]}},{"type":"Feature","properties":{"i":"010017","n":"Cogoleto"},"geometry":{"type":"Polygon","coordinates":[[[8.6653,44.3903],[8.6493,44.3899],[8.6412,44.3868],[8.6382,44.3848],[8.6361,44.3809],[8.6334,44.3797],[8.6296,44.3821],[8.6168,44.3871],[8.6078,44.3916],[8.5984,44.3988],[8.5939,44.4035],[8.5924,44.4163],[8.5887,44.4264],[8.5851,44.4286],[8.5911,44.428],[8.6054,44.4291],[8.6082,44.4312],[8.6067,44.4347],[8.6075,44.4362],[8.6227,44.4385],[8.6287,44.4383],[8.6292,44.438],[8.6298,44.4314],[8.6293,44.424],[8.6378,44.4104],[8.6471,44.4095],[8.6504,44.4074],[8.6558,44.403],[8.664,44.3945],[8.6653,44.3903]]]}},{"type":"Feature","properties":{"i":"010018","n":"Cogorno"},"geometry":{"type":"Polygon","coordinates":[[[9.3737,44.3482],[9.3775,44.3477],[9.3812,44.3455],[9.3866,44.3393],[9.3866,44.3269],[9.3959,44.322],[9.3974,44.3198],[9.3955,44.3202],[9.3761,44.3147],[9.3687,44.3144],[9.3675,44.315],[9.3681,44.3167],[9.3676,44.3176],[9.3591,44.3221],[9.3473,44.3243],[9.3485,44.3338],[9.3525,44.3398],[9.3582,44.3435],[9.3604,44.3435],[9.3675,44.3474],[9.3689,44.3489],[9.373,44.3492],[9.3737,44.3482]]]}},{"type":"Feature","properties":{"i":"010019","n":"Coreglia Ligure"},"geometry":{"type":"Polygon","coordinates":[[[9.2583,44.3949],[9.263,44.3939],[9.28,44.3879],[9.2815,44.3839],[9.2796,44.381],[9.2791,44.3753],[9.2809,44.3741],[9.2842,44.3742],[9.2867,44.3728],[9.2867,44.3721],[9.2698,44.3618],[9.2682,44.3672],[9.2545,44.3786],[9.2276,44.3922],[9.2451,44.3983],[9.2529,44.3971],[9.2501,44.3933],[9.252,44.3924],[9.2583,44.3949]]]}},{"type":"Feature","properties":{"i":"010020","n":"Crocefieschi"},"geometry":{"type":"Polygon","coordinates":[[[9.0525,44.5684],[9.0513,44.5689],[9.0441,44.5663],[9.0345,44.5684],[9.0308,44.5726],[9.0294,44.573],[9.0259,44.573],[9.0237,44.5717],[9.0146,44.5705],[9.0107,44.5709],[9.0023,44.575],[8.9983,44.5807],[8.9984,44.5862],[9.0,44.5868],[9.0029,44.5863],[9.0088,44.5888],[9.0145,44.5956],[9.0141,44.5985],[9.0048,44.603],[9.0035,44.6056],[9.0055,44.6089],[9.0137,44.6112],[9.0151,44.6094],[9.0381,44.5934],[9.0459,44.5896],[9.0513,44.574],[9.0525,44.5684]]]}},{"type":"Feature","properties":{"i":"010021","n":"Davagna"},"geometry":{"type":"Polygon","coordinates":[[[9.1234,44.4765],[9.122,44.473],[9.1163,44.4668],[9.1038,44.4593],[9.1026,44.4564],[9.103,44.4543],[9.0976,44.4602],[9.088,44.4612],[9.0846,44.4588],[9.081,44.4516],[9.0819,44.449],[9.0847,44.4464],[9.0854,44.4432],[9.078,44.4397],[9.0727,44.4417],[9.0662,44.4429],[9.0559,44.4436],[9.0533,44.4435],[9.0482,44.4407],[9.0459,44.4412],[9.0422,44.443],[9.0338,44.4514],[9.0372,44.4548],[9.046,44.4666],[9.0532,44.4779],[9.0572,44.4813],[9.062,44.4817],[9.073,44.4752],[9.0739,44.4732],[9.0779,44.4726],[9.0881,44.4837],[9.0948,44.4872],[9.1007,44.4878],[9.1123,44.4869],[9.1154,44.4856],[9.1234,44.4765]]]}},{"type":"Feature","properties":{"i":"010022","n":"Fascia"},"geometry":{"type":"Polygon","coordinates":[[[9.2475,44.5792],[9.25,44.5761],[9.2513,44.5722],[9.2501,44.5675],[9.2505,44.559],[9.2527,44.5571],[9.271,44.5481],[9.2574,44.5432],[9.2436,44.5472],[9.2354,44.5566],[9.2289,44.5662],[9.2247,44.5711],[9.2214,44.5734],[9.2169,44.5743],[9.2051,44.5745],[9.1996,44.5757],[9.2004,44.5764],[9.1988,44.5827],[9.199,44.5928],[9.2033,44.5958],[9.2065,44.5913],[9.2163,44.5866],[9.2265,44.5861],[9.2349,44.5837],[9.2417,44.5795],[9.2475,44.5792]]]}},{"type":"Feature","properties":{"i":"010023","n":"Favale di Malvaro"},"geometry":{"type":"Polygon","coordinates":[[[9.2568,44.4778],[9.2556,44.4748],[9.2636,44.4714],[9.2696,44.471],[9.2703,44.4723],[9.2736,44.4739],[9.282,44.474],[9.2922,44.4714],[9.2953,44.4683],[9.2961,44.4608],[9.2911,44.4581],[9.2879,44.4552],[9.2677,44.4411],[9.2605,44.4385],[9.253,44.4374],[9.2484,44.4386],[9.2482,44.44],[9.2498,44.442],[9.2491,44.4434],[9.2324,44.4462],[9.2296,44.4483],[9.228,44.4536],[9.2242,44.4568],[9.2218,44.4577],[9.2319,44.4666],[9.2315,44.4713],[9.2342,44.4722],[9.2353,44.4748],[9.241,44.4768],[9.2568,44.4778]]]}},{"type":"Feature","properties":{"i":"010024","n":"Fontanigorda"},"geometry":{"type":"Polygon","coordinates":[[[9.3339,44.5317],[9.3316,44.5302],[9.3292,44.5265],[9.3288,44.5223],[9.3266,44.5197],[9.3231,44.5177],[9.3037,44.5138],[9.2938,44.5138],[9.2833,44.5154],[9.2695,44.5228],[9.2563,44.5311],[9.2613,44.535],[9.2607,44.5417],[9.2574,44.5432],[9.271,44.5481],[9.2734,44.548],[9.283,44.5404],[9.2898,44.5433],[9.2923,44.5466],[9.292,44.5478],[9.294,44.5493],[9.2956,44.5502],[9.3012,44.5505],[9.3122,44.5493],[9.314,44.548],[9.3142,44.544],[9.3165,44.539],[9.323,44.5331],[9.3303,44.5313],[9.3339,44.5317]]]}},{"type":"Feature","properties":{"i":"010025","n":"Genova"},"geometry":{"type":"MultiPolygon","coordinates":[[[[8.9307,44.3922],[8.9307,44.3913],[8.9166,44.3963],[8.8769,44.4037],[8.9155,44.3967],[8.9307,44.3922]]],[[[8.8715,44.4028],[8.8803,44.3998],[8.8636,44.4043],[8.8169,44.4135],[8.8715,44.4028]]],[[[8.8005,44.4165],[8.7951,44.412],[8.7697,44.4158],[8.795,44.4122],[8.8057,44.4208],[8.8105,44.4222],[8.8061,44.4209],[8.8005,44.4165]]],[[[9.0041,44.4852],[9.0053,44.4769],[9.0093,44.472],[9.0116,44.4723],[9.0224,44.4766],[9.0299,44.481],[9.0536,44.4828],[9.0567,44.4818],[9.0572,44.4813],[9.0532,44.4779],[9.0398,44.4582],[9.0338,44.4514],[9.0422,44.443],[9.0482,44.4407],[9.0638,44.4207],[9.0727,44.416],[9.0946,44.4113],[9.095,44.4075],[9.0936,44.4089],[9.0881,44.4105],[9.0813,44.4019],[9.0724,44.3963],[9.061,44.3824],[9.058,44.3801],[9.0522,44.3796],[8.9991,44.3864],[8.9845,44.392],[8.9775,44.39],[8.9731,44.3895],[8.9588,44.3909],[8.9402,44.3949],[8.9313,44.3956],[8.9271,44.4009],[8.9243,44.4062],[8.9276,44.41],[8.9232,44.4128],[8.919,44.4135],[8.9134,44.413],[8.911,44.4079],[8.9156,44.4046],[8.9186,44.4039],[8.9178,44.3982],[8.9087,44.3998],[8.8948,44.4045],[8.8852,44.4065],[8.8714,44.4052],[8.822,44.4149],[8.823,44.4178],[8.8346,44.4154],[8.8397,44.4151],[8.8429,44.4157],[8.85,44.4187],[8.8476,44.4201],[8.8387,44.4212],[8.8377,44.4228],[8.8326,44.4235],[8.8052,44.4236],[8.7769,44.4263],[8.7789,44.4251],[8.7977,44.4222],[8.7967,44.4172],[8.7775,44.4201],[8.7722,44.4234],[8.7608,44.4262],[8.7438,44.427],[8.7406,44.4262],[8.7241,44.4167],[8.7133,44.4156],[8.7045,44.4129],[8.7058,44.4182],[8.6976,44.4319],[8.6958,44.4373],[8.6928,44.4389],[8.6887,44.4389],[8.6816,44.437],[8.6744,44.4428],[8.6717,44.4469],[8.667,44.4509],[8.6684,44.4596],[8.6681,44.4669],[8.6694,44.4749],[8.6722,44.4796],[8.6764,44.4822],[8.6952,44.4825],[8.7081,44.4796],[8.7106,44.4763],[8.718,44.4724],[8.7199,44.4699],[8.722,44.4625],[8.7257,44.4606],[8.7348,44.4586],[8.7391,44.4519],[8.7416,44.4443],[8.7455,44.4425],[8.7511,44.4433],[8.7522,44.4441],[8.7512,44.4468],[8.7547,44.4529],[8.7609,44.4531],[8.7645,44.4543],[8.7674,44.4564],[8.7689,44.4584],[8.7701,44.4637],[8.7743,44.4697],[8.7813,44.4737],[8.7838,44.4764],[8.784,44.4772],[8.779,44.4797],[8.7742,44.4807],[8.7719,44.4802],[8.7694,44.4835],[8.7712,44.4895],[8.7792,44.4887],[8.7877,44.4893],[8.7886,44.4964],[8.7928,44.4979],[8.7964,44.4951],[8.8047,44.4918],[8.8105,44.4915],[8.8111,44.4941],[8.8179,44.4988],[8.8201,44.499],[8.8254,44.4978],[8.8275,44.4939],[8.8314,44.4912],[8.8404,44.4887],[8.8493,44.4919],[8.853,44.4912],[8.8547,44.4906],[8.8564,44.4815],[8.8534,44.4795],[8.8504,44.4794],[8.8483,44.4781],[8.8497,44.4752],[8.8518,44.4741],[8.8552,44.4734],[8.8598,44.4763],[8.8636,44.4775],[8.8762,44.4754],[8.886,44.4726],[8.8886,44.4728],[8.8911,44.4749],[8.8902,44.4749],[8.8878,44.4794],[8.8873,44.497],[8.8925,44.499],[8.897,44.5026],[8.8961,44.5041],[8.8945,44.5046],[8.8958,44.507],[8.8931,44.5165],[8.9007,44.5198],[8.9023,44.5162],[8.9129,44.51],[8.9074,44.502],[8.9052,44.4917],[8.9059,44.4854],[8.9213,44.4846],[8.921,44.4818],[8.9242,44.4758],[8.9351,44.47],[8.9352,44.4683],[8.9319,44.466],[8.9314,44.4616],[8.9363,44.4568],[8.9416,44.4535],[8.9594,44.4513],[8.9605,44.4528],[8.9579,44.4629],[8.958,44.4656],[8.9606,44.4695],[8.964,44.4724],[8.9831,44.4762],[8.9971,44.483],[9.0041,44.4852]]]]}},{"type":"Feature","properties":{"i":"010026","n":"Gorreto"},"geometry":{"type":"Polygon","coordinates":[[[9.2974,44.6067],[9.2923,44.6041],[9.2927,44.5988],[9.292,44.5955],[9.2687,44.5805],[9.2623,44.5788],[9.2552,44.5799],[9.2456,44.5789],[9.2417,44.5795],[9.2349,44.5837],[9.2265,44.5861],[9.2163,44.5866],[9.2065,44.5913],[9.2033,44.5958],[9.2052,44.6005],[9.203,44.6135],[9.2089,44.6153],[9.2247,44.618],[9.2448,44.6197],[9.2528,44.6152],[9.2565,44.6106],[9.2531,44.607],[9.2461,44.6019],[9.2452,44.6004],[9.2462,44.5993],[9.258,44.5995],[9.2725,44.5959],[9.2789,44.596],[9.2825,44.5968],[9.2847,44.5985],[9.2875,44.6076],[9.2931,44.6085],[9.2974,44.6067]]]}},{"type":"Feature","properties":{"i":"010027","n":"Isola del Cantone"},"geometry":{"type":"Polygon","coordinates":[[[8.986,44.6641],[8.9897,44.6624],[8.9917,44.6623],[9.0001,44.6675],[9.0073,44.6682],[9.0147,44.6661],[9.0205,44.6615],[9.0228,44.6578],[9.0244,44.6511],[9.0275,44.6484],[9.0333,44.6474],[9.0315,44.6424],[9.0241,44.6398],[9.0261,44.6376],[9.026,44.632],[9.0224,44.6271],[9.0202,44.6253],[9.014,44.6242],[9.0097,44.6225],[9.0089,44.6211],[9.0097,44.6179],[9.003,44.6164],[8.9998,44.6192],[8.991,44.6224],[8.9777,44.6208],[8.9626,44.6297],[8.9605,44.6301],[8.9397,44.6269],[8.9376,44.6233],[8.9319,44.6222],[8.9246,44.6236],[8.92,44.6286],[8.9141,44.6285],[8.8986,44.6251],[8.8927,44.6257],[8.8912,44.6295],[8.8845,44.6332],[8.8824,44.637],[8.8827,44.639],[8.8945,44.642],[8.9088,44.6476],[8.9206,44.6629],[8.9264,44.6743],[8.9311,44.6761],[8.9595,44.676],[8.9657,44.6721],[8.9694,44.6649],[8.9725,44.6633],[8.9828,44.6634],[8.986,44.6641]]]}},{"type":"Feature","properties":{"i":"010028","n":"Lavagna"},"geometry":{"type":"Polygon","coordinates":[[[9.3974,44.3198],[9.4039,44.3138],[9.4072,44.303],[9.4061,44.3],[9.3998,44.2921],[9.3906,44.2879],[9.387,44.2835],[9.3817,44.286],[9.3771,44.2904],[9.3592,44.2996],[9.3451,44.3055],[9.3433,44.3055],[9.3342,44.3099],[9.3332,44.3094],[9.3345,44.307],[9.3431,44.3035],[9.3429,44.303],[9.3338,44.3069],[9.3327,44.3084],[9.3332,44.3113],[9.3424,44.3167],[9.3447,44.319],[9.3473,44.3243],[9.3591,44.3221],[9.3676,44.3176],[9.3681,44.3167],[9.3675,44.315],[9.3687,44.3144],[9.3761,44.3147],[9.3955,44.3202],[9.3974,44.3198]]]}},{"type":"Feature","properties":{"i":"010029","n":"Leivi"},"geometry":{"type":"Polygon","coordinates":[[[9.3323,44.3582],[9.3382,44.3514],[9.3412,44.3429],[9.3431,44.3415],[9.3409,44.3399],[9.3409,44.3331],[9.3389,44.3309],[9.325,44.3357],[9.3223,44.3377],[9.3235,44.3391],[9.3232,44.3407],[9.3161,44.3427],[9.3103,44.3416],[9.2992,44.343],[9.2889,44.3458],[9.2827,44.3564],[9.302,44.359],[9.3162,44.3661],[9.3241,44.3625],[9.3285,44.3584],[9.3323,44.3582]]]}},{"type":"Feature","properties":{"i":"010030","n":"Lorsica"},"geometry":{"type":"MultiPolygon","coordinates":[[[[9.2551,44.4195],[9.2394,44.4201],[9.2412,44.4286],[9.2402,44.4346],[9.237,44.4418],[9.2329,44.4459],[9.2403,44.4453],[9.2491,44.4434],[9.2498,44.442],[9.2482,44.44],[9.2484,44.4386],[9.253,44.4374],[9.2605,44.4385],[9.2677,44.4411],[9.2939,44.4595],[9.295,44.4598],[9.3061,44.4539],[9.3031,44.4528],[9.2994,44.4497],[9.2983,44.4442],[9.2984,44.4407],[9.2958,44.4367],[9.2843,44.4272],[9.2777,44.4259],[9.2678,44.4214],[9.2623,44.4207],[9.2585,44.4224],[9.2559,44.4209],[9.2551,44.4195]]],[[[9.2339,44.5003],[9.2407,44.4953],[9.2435,44.495],[9.2437,44.4978],[9.2486,44.5013],[9.2526,44.4985],[9.2529,44.4962],[9.2578,44.4917],[9.2543,44.4875],[9.2568,44.4778],[9.241,44.4768],[9.2353,44.4748],[9.2342,44.4722],[9.2305,44.4729],[9.2263,44.4784],[9.2221,44.4872],[9.2126,44.4971],[9.214,44.5017],[9.2171,44.5011],[9.2211,44.4997],[9.2275,44.4935],[9.2306,44.4913],[9.2343,44.4901],[9.2351,44.4947],[9.2339,44.5003]]]]}},{"type":"Feature","properties":{"i":"010031","n":"Lumarzo"},"geometry":{"type":"Polygon","coordinates":[[[9.1546,44.4384],[9.1295,44.4091],[9.1193,44.4131],[9.1033,44.4149],[9.1057,44.4224],[9.1156,44.4333],[9.1158,44.4398],[9.1084,44.4455],[9.1076,44.4494],[9.103,44.4543],[9.1026,44.4564],[9.1038,44.4593],[9.1163,44.4668],[9.122,44.473],[9.1234,44.4765],[9.1384,44.4802],[9.1601,44.4887],[9.1625,44.4737],[9.1608,44.4602],[9.1531,44.4493],[9.1537,44.4407],[9.1546,44.4384]]]}},{"type":"Feature","properties":{"i":"010032","n":"Masone"},"geometry":{"type":"Polygon","coordinates":[[[8.7697,44.4894],[8.7676,44.4884],[8.7616,44.4888],[8.7443,44.4867],[8.7405,44.4851],[8.7196,44.4878],[8.7174,44.4874],[8.7081,44.4796],[8.6952,44.4825],[8.6764,44.4822],[8.6705,44.4847],[8.6676,44.4911],[8.668,44.4992],[8.663,44.5025],[8.6691,44.5062],[8.6873,44.513],[8.6882,44.5149],[8.6901,44.5162],[8.6957,44.5177],[8.7003,44.5173],[8.7049,44.5151],[8.71,44.5143],[8.7234,44.5137],[8.7268,44.5145],[8.7335,44.5183],[8.7464,44.5275],[8.7498,44.5268],[8.7539,44.5244],[8.7579,44.5293],[8.7605,44.5302],[8.7666,44.5263],[8.7679,44.524],[8.7676,44.5193],[8.7715,44.5078],[8.77,44.4972],[8.7667,44.4927],[8.7697,44.4894]]]}},{"type":"Feature","properties":{"i":"010033","n":"Mele"},"geometry":{"type":"Polygon","coordinates":[[[8.7712,44.4895],[8.7694,44.4835],[8.7719,44.4802],[8.7742,44.4807],[8.779,44.4797],[8.784,44.4772],[8.7838,44.4764],[8.7813,44.4737],[8.7743,44.4697],[8.7701,44.4637],[8.7689,44.4584],[8.7674,44.4564],[8.7645,44.4543],[8.7609,44.4531],[8.7547,44.4529],[8.7512,44.4468],[8.7521,44.4439],[8.7479,44.4426],[8.7453,44.4425],[8.7416,44.4443],[8.7391,44.4519],[8.7348,44.4586],[8.7257,44.4606],[8.722,44.4625],[8.7199,44.4699],[8.718,44.4724],[8.7106,44.4763],[8.7081,44.4796],[8.7174,44.4874],[8.7196,44.4878],[8.7405,44.4851],[8.7443,44.4867],[8.7616,44.4888],[8.7676,44.4884],[8.7712,44.4895]]]}},{"type":"Feature","properties":{"i":"010034","n":"Mezzanego"},"geometry":{"type":"Polygon","coordinates":[[[9.4384,44.4185],[9.4428,44.4166],[9.4467,44.4129],[9.4508,44.4053],[9.4576,44.4008],[9.4446,44.3941],[9.4433,44.3861],[9.4415,44.3822],[9.4375,44.3798],[9.4208,44.3757],[9.4153,44.3739],[9.4082,44.3704],[9.3834,44.3663],[9.3799,44.3661],[9.3614,44.3741],[9.3574,44.375],[9.3545,44.3811],[9.3533,44.3891],[9.3585,44.3958],[9.3657,44.4002],[9.3648,44.4042],[9.3825,44.4017],[9.3897,44.4103],[9.3952,44.4097],[9.4028,44.4038],[9.405,44.4028],[9.4141,44.4063],[9.4161,44.4099],[9.419,44.4119],[9.4384,44.4185]]]}},{"type":"Feature","properties":{"i":"010035","n":"Mignanego"},"geometry":{"type":"Polygon","coordinates":[[[8.9532,44.5525],[8.9597,44.537],[8.9542,44.535],[8.9494,44.5358],[8.9445,44.5391],[8.9352,44.5398],[8.9247,44.5373],[8.9144,44.5271],[8.9136,44.5228],[8.9166,44.5203],[8.9128,44.5093],[8.9129,44.51],[8.9023,44.5162],[8.9011,44.5178],[8.901,44.5316],[8.8894,44.5359],[8.8883,44.5385],[8.8892,44.5464],[8.8944,44.5554],[8.9024,44.5556],[8.9139,44.5591],[8.9175,44.5611],[8.9217,44.5671],[8.9249,44.5647],[8.9298,44.5646],[8.9426,44.5616],[8.9532,44.5525]]]}},{"type":"Feature","properties":{"i":"010036","n":"Moconesi"},"geometry":{"type":"MultiPolygon","coordinates":[[[[9.2329,44.4459],[9.237,44.4418],[9.2402,44.4346],[9.2412,44.4286],[9.2394,44.4201],[9.2336,44.4185],[9.226,44.4142],[9.2247,44.4115],[9.2185,44.4101],[9.2167,44.4124],[9.2176,44.4149],[9.2127,44.4177],[9.1827,44.4283],[9.1801,44.4302],[9.1783,44.4327],[9.1805,44.4337],[9.1843,44.4403],[9.1928,44.4419],[9.197,44.4417],[9.2,44.4404],[9.2053,44.4424],[9.2154,44.4556],[9.2176,44.4569],[9.2218,44.4577],[9.2242,44.4568],[9.228,44.4536],[9.2296,44.4483],[9.2329,44.4459]]],[[[9.2339,44.5003],[9.2351,44.4947],[9.2343,44.4901],[9.2306,44.4913],[9.2275,44.4935],[9.2211,44.4997],[9.214,44.5017],[9.2154,44.5057],[9.2139,44.509],[9.2137,44.5115],[9.2164,44.5137],[9.218,44.5107],[9.2203,44.509],[9.2242,44.5135],[9.227,44.5125],[9.2307,44.5073],[9.2339,44.5003]]]]}},{"type":"Feature","properties":{"i":"010037","n":"Moneglia"},"geometry":{"type":"Polygon","coordinates":[[[9.5332,44.2523],[9.5314,44.2475],[9.5275,44.2431],[9.5233,44.2276],[9.5197,44.2276],[9.5143,44.2262],[9.5158,44.2223],[9.5113,44.2167],[9.5065,44.2205],[9.5035,44.2218],[9.495,44.2351],[9.4885,44.2388],[9.4804,44.2407],[9.4751,44.2347],[9.4725,44.2337],[9.4688,44.2339],[9.4526,44.2402],[9.455,44.2412],[9.4572,44.2433],[9.4636,44.2521],[9.4719,44.2559],[9.4785,44.2553],[9.5072,44.2595],[9.523,44.2574],[9.5332,44.2523]]]}},{"type":"Feature","properties":{"i":"010038","n":"Montebruno"},"geometry":{"type":"Polygon","coordinates":[[[9.2574,44.5432],[9.2607,44.5417],[9.2613,44.535],[9.2563,44.5311],[9.2695,44.5228],[9.2833,44.5154],[9.2938,44.5138],[9.2853,44.5097],[9.2578,44.4917],[9.2529,44.4962],[9.2526,44.4985],[9.2486,44.5013],[9.2437,44.4978],[9.2435,44.495],[9.2407,44.4953],[9.2339,44.5003],[9.2307,44.5073],[9.227,44.5125],[9.2242,44.5135],[9.2203,44.509],[9.218,44.5107],[9.2164,44.5137],[9.2202,44.5282],[9.2292,44.528],[9.2327,44.5292],[9.2308,44.5325],[9.2318,44.5345],[9.2422,44.5404],[9.2449,44.5412],[9.25,44.5454],[9.2574,44.5432]]]}},{"type":"Feature","properties":{"i":"010039","n":"Montoggio"},"geometry":{"type":"Polygon","coordinates":[[[9.0995,44.4877],[9.0948,44.4872],[9.0881,44.4837],[9.0779,44.4726],[9.0739,44.4732],[9.073,44.4752],[9.062,44.4817],[9.0572,44.4813],[9.0536,44.4828],[9.0299,44.481],[9.0224,44.4766],[9.0116,44.4723],[9.0093,44.472],[9.0053,44.4769],[9.0041,44.4852],[9.008,44.492],[9.0036,44.495],[9.0002,44.5004],[9.0008,44.5075],[8.9966,44.5173],[8.9969,44.519],[9.0089,44.5241],[9.018,44.5303],[9.0218,44.5321],[9.0412,44.5363],[9.0467,44.5388],[9.0827,44.5414],[9.0993,44.5447],[9.1016,44.5437],[9.0981,44.5407],[9.097,44.5384],[9.0983,44.5356],[9.0979,44.5175],[9.0941,44.5138],[9.0918,44.5086],[9.092,44.5026],[9.0972,44.4978],[9.099,44.4924],[9.0995,44.4877]]]}},{"type":"Feature","properties":{"i":"010040","n":"Ne"},"geometry":{"type":"Polygon","coordinates":[[[9.5182,44.3552],[9.5111,44.3471],[9.5051,44.3416],[9.4993,44.3269],[9.4916,44.3244],[9.4782,44.3235],[9.467,44.3263],[9.4583,44.3244],[9.446,44.3239],[9.4216,44.3202],[9.4124,44.3175],[9.4039,44.3138],[9.3959,44.322],[9.3866,44.3269],[9.3866,44.3393],[9.3812,44.3455],[9.3775,44.3477],[9.3737,44.3482],[9.3783,44.3554],[9.3799,44.3661],[9.3894,44.3669],[9.4056,44.3697],[9.4208,44.3757],[9.4375,44.3798],[9.4415,44.3822],[9.4433,44.3861],[9.4446,44.3941],[9.4576,44.4008],[9.4657,44.4016],[9.4677,44.4006],[9.4723,44.3946],[9.473,44.3898],[9.4719,44.3872],[9.4738,44.3846],[9.4823,44.3808],[9.4848,44.3807],[9.4893,44.3831],[9.4944,44.3779],[9.4943,44.3721],[9.4961,44.3668],[9.5182,44.3552]]]}},{"type":"Feature","properties":{"i":"010041","n":"Neirone"},"geometry":{"type":"Polygon","coordinates":[[[9.2342,44.4722],[9.2315,44.4713],[9.2319,44.4666],[9.2218,44.4577],[9.217,44.4568],[9.2154,44.4556],[9.2053,44.4424],[9.2033,44.4413],[9.2,44.4404],[9.197,44.4417],[9.1928,44.4419],[9.1843,44.4403],[9.1805,44.4337],[9.1783,44.4327],[9.1578,44.4364],[9.1546,44.4384],[9.1541,44.4396],[9.1531,44.4493],[9.1611,44.4613],[9.1625,44.4737],[9.1601,44.4887],[9.1627,44.491],[9.1715,44.4944],[9.1803,44.4959],[9.1897,44.4905],[9.2012,44.4929],[9.2126,44.4971],[9.2221,44.4872],[9.2263,44.4784],[9.2305,44.4729],[9.2342,44.4722]]]}},{"type":"Feature","properties":{"i":"010042","n":"Orero"},"geometry":{"type":"Polygon","coordinates":[[[9.2787,44.3887],[9.2583,44.3949],[9.2607,44.3968],[9.2626,44.4013],[9.2573,44.4071],[9.2551,44.4195],[9.2559,44.4209],[9.2585,44.4224],[9.2623,44.4207],[9.2678,44.4214],[9.2777,44.4259],[9.2843,44.4272],[9.2964,44.4375],[9.2984,44.4407],[9.2983,44.4442],[9.2994,44.4497],[9.3014,44.4517],[9.3061,44.4539],[9.3119,44.4522],[9.3161,44.4421],[9.3155,44.4361],[9.3071,44.4326],[9.3037,44.4278],[9.3052,44.4231],[9.305,44.4202],[9.3032,44.4128],[9.2975,44.4088],[9.2979,44.3984],[9.2955,44.3947],[9.2935,44.3931],[9.2852,44.3916],[9.2787,44.3887]]]}},{"type":"Feature","properties":{"i":"010043","n":"Pieve Ligure"},"geometry":{"type":"Polygon","coordinates":[[[9.099,44.3719],[9.0909,44.3713],[9.0766,44.376],[9.0773,44.3778],[9.0803,44.3799],[9.0861,44.3821],[9.0893,44.3921],[9.0881,44.3948],[9.0864,44.3945],[9.0855,44.3952],[9.0838,44.3996],[9.0912,44.405],[9.0962,44.4049],[9.0974,44.4032],[9.0928,44.399],[9.09,44.3886],[9.0919,44.3861],[9.0946,44.3875],[9.0988,44.3877],[9.1039,44.3846],[9.1055,44.3819],[9.1014,44.3733],[9.099,44.3719]]]}},{"type":"Feature","properties":{"i":"010044","n":"Portofino"},"geometry":{"type":"Polygon","coordinates":[[[9.209,44.3106],[9.2187,44.2985],[9.2084,44.3013],[9.1884,44.3085],[9.1823,44.309],[9.1803,44.3115],[9.1834,44.3148],[9.1845,44.3172],[9.183,44.3217],[9.1878,44.3221],[9.1903,44.3199],[9.1922,44.3152],[9.2009,44.312],[9.209,44.3106]]]}},{"type":"Feature","properties":{"i":"010045","n":"Propata"},"geometry":{"type":"Polygon","coordinates":[[[9.199,44.5928],[9.1988,44.5827],[9.2004,44.5764],[9.1996,44.5757],[9.1989,44.5722],[9.2012,44.5663],[9.2081,44.5632],[9.2102,44.557],[9.2094,44.5543],[9.2077,44.5528],[9.1981,44.5505],[9.1939,44.5436],[9.1933,44.5405],[9.1896,44.5408],[9.183,44.5453],[9.1808,44.547],[9.1783,44.5513],[9.1665,44.5535],[9.163,44.5525],[9.1572,44.5521],[9.1534,44.5528],[9.1492,44.5559],[9.1463,44.5596],[9.1464,44.5631],[9.1486,44.5658],[9.1497,44.57],[9.1484,44.5729],[9.1459,44.5742],[9.1508,44.5741],[9.154,44.5748],[9.1645,44.5809],[9.1686,44.5843],[9.1832,44.5913],[9.199,44.5928]]]}},{"type":"Feature","properties":{"i":"010046","n":"Rapallo"},"geometry":{"type":"Polygon","coordinates":[[[9.1981,44.3964],[9.2124,44.3952],[9.2185,44.3966],[9.2236,44.3952],[9.2314,44.39],[9.2545,44.3786],[9.2682,44.3672],[9.2698,44.3618],[9.267,44.358],[9.2644,44.3563],[9.2534,44.3559],[9.2463,44.3513],[9.2438,44.3478],[9.2438,44.3466],[9.2463,44.3455],[9.2434,44.3425],[9.2353,44.3479],[9.2298,44.3481],[9.2294,44.3456],[9.2308,44.3441],[9.2254,44.3379],[9.2252,44.3351],[9.2228,44.3348],[9.2196,44.335],[9.2216,44.3358],[9.2199,44.338],[9.2155,44.3409],[9.2072,44.3442],[9.2001,44.3453],[9.1889,44.343],[9.1806,44.3451],[9.1817,44.3477],[9.1863,44.3479],[9.1894,44.3499],[9.1929,44.3538],[9.1934,44.3568],[9.1859,44.3577],[9.175,44.3541],[9.1697,44.353],[9.1657,44.3531],[9.1716,44.3657],[9.1739,44.3689],[9.1794,44.3732],[9.1784,44.3776],[9.1825,44.391],[9.1899,44.3964],[9.1981,44.3964]]]}},{"type":"Feature","properties":{"i":"010047","n":"Recco"},"geometry":{"type":"Polygon","coordinates":[[[9.1794,44.3732],[9.1739,44.3689],[9.1716,44.3657],[9.1657,44.3531],[9.1555,44.3564],[9.15,44.3573],[9.1472,44.3553],[9.1399,44.3604],[9.1331,44.361],[9.1228,44.3645],[9.1284,44.3779],[9.129,44.384],[9.1506,44.382],[9.1624,44.3795],[9.1794,44.3732]]]}},{"type":"Feature","properties":{"i":"010048","n":"Rezzoaglio"},"geometry":{"type":"Polygon","coordinates":[[[9.4231,44.5746],[9.4147,44.5672],[9.4153,44.5657],[9.4145,44.5603],[9.4064,44.548],[9.4041,44.537],[9.4133,44.5304],[9.4316,44.5259],[9.4363,44.5217],[9.442,44.5113],[9.4362,44.5004],[9.4402,44.49],[9.441,44.4888],[9.4444,44.4872],[9.446,44.4846],[9.445,44.4832],[9.4425,44.4817],[9.4162,44.4837],[9.4065,44.4871],[9.3989,44.4909],[9.3852,44.4893],[9.3708,44.4842],[9.3363,44.4709],[9.3352,44.4701],[9.3353,44.4691],[9.3374,44.4653],[9.3337,44.4611],[9.3279,44.4599],[9.3236,44.4608],[9.3213,44.4595],[9.3198,44.4544],[9.3207,44.4477],[9.3249,44.4385],[9.3155,44.4361],[9.3161,44.4421],[9.3126,44.4514],[9.3061,44.4539],[9.295,44.4598],[9.2961,44.4608],[9.2956,44.4673],[9.2922,44.4714],[9.282,44.474],[9.2736,44.4739],[9.2703,44.4723],[9.2696,44.471],[9.2636,44.4714],[9.2556,44.4748],[9.2568,44.4778],[9.2543,44.4875],[9.2578,44.4917],[9.2853,44.5097],[9.2938,44.5138],[9.3078,44.5144],[9.3231,44.5177],[9.3266,44.5197],[9.3288,44.5223],[9.3292,44.5265],[9.3316,44.5302],[9.3339,44.5317],[9.3399,44.5388],[9.343,44.5392],[9.3482,44.5413],[9.3515,44.5501],[9.3577,44.5565],[9.3585,44.5629],[9.3633,44.5667],[9.3716,44.5689],[9.3811,44.5767],[9.3838,44.5804],[9.3847,44.5843],[9.3894,44.5902],[9.3949,44.5875],[9.3994,44.5882],[9.4015,44.5899],[9.4031,44.5915],[9.4056,44.6008],[9.4186,44.5956],[9.4213,44.5926],[9.4189,44.5854],[9.4209,44.5776],[9.4231,44.5746]]]}},{"type":"Feature","properties":{"i":"010049","n":"Ronco Scrivia"},"geometry":{"type":"Polygon","coordinates":[[[9.003,44.6164],[9.0021,44.6137],[8.9949,44.6071],[8.9656,44.5925],[8.9622,44.5889],[8.958,44.5865],[8.9487,44.5847],[8.9217,44.5745],[8.9194,44.5719],[8.9173,44.5719],[8.9119,44.58],[8.9119,44.5834],[8.9089,44.5969],[8.9059,44.6029],[8.9062,44.6115],[8.9077,44.6139],[8.9052,44.6157],[8.9048,44.6195],[8.9034,44.6219],[8.8927,44.6257],[8.8986,44.6251],[8.9141,44.6285],[8.92,44.6286],[8.9246,44.6236],[8.9319,44.6222],[8.9376,44.6233],[8.9397,44.6269],[8.9605,44.6301],[8.9626,44.6297],[8.9777,44.6208],[8.991,44.6224],[8.9998,44.6192],[9.003,44.6164]]]}},{"type":"Feature","properties":{"i":"010050","n":"Rondanina"},"geometry":{"type":"Polygon","coordinates":[[[9.25,44.5454],[9.2449,44.5412],[9.2422,44.5404],[9.2318,44.5345],[9.2308,44.5325],[9.2329,44.5296],[9.2292,44.528],[9.2202,44.5282],[9.2104,44.5333],[9.1933,44.5405],[9.1939,44.5436],[9.1981,44.5505],[9.2077,44.5528],[9.2094,44.5543],[9.2102,44.557],[9.2081,44.5632],[9.2012,44.5663],[9.1989,44.5722],[9.1996,44.5757],[9.2051,44.5745],[9.2169,44.5743],[9.2214,44.5734],[9.2247,44.5711],[9.2289,44.5662],[9.2354,44.5566],[9.2433,44.5474],[9.25,44.5454]]]}},{"type":"Feature","properties":{"i":"010051","n":"Rossiglione"},"geometry":{"type":"Polygon","coordinates":[[[8.6668,44.5825],[8.6769,44.5781],[8.6802,44.5757],[8.6822,44.5755],[8.69,44.582],[8.7034,44.5806],[8.7131,44.5815],[8.7188,44.5807],[8.722,44.5793],[8.7268,44.5741],[8.7329,44.57],[8.7398,44.5554],[8.7382,44.5518],[8.7297,44.5526],[8.7156,44.5493],[8.7069,44.55],[8.6985,44.5532],[8.6808,44.5515],[8.68,44.5476],[8.681,44.5456],[8.6801,44.5426],[8.6751,44.5342],[8.6758,44.5189],[8.6638,44.5074],[8.66,44.5075],[8.6569,44.5095],[8.6563,44.5122],[8.6567,44.5182],[8.6581,44.5259],[8.6534,44.5295],[8.6444,44.5284],[8.6345,44.5309],[8.6255,44.5361],[8.6191,44.5363],[8.6184,44.5346],[8.6169,44.5342],[8.6075,44.5367],[8.6071,44.5375],[8.6081,44.5402],[8.6114,44.5427],[8.6137,44.5461],[8.6055,44.5524],[8.5989,44.5587],[8.6009,44.5678],[8.6046,44.5698],[8.611,44.5705],[8.6161,44.5755],[8.6197,44.5809],[8.6189,44.582],[8.6202,44.5842],[8.6239,44.5864],[8.6316,44.5809],[8.6402,44.5791],[8.6459,44.5816],[8.6625,44.5798],[8.6668,44.5825]]]}},{"type":"Feature","properties":{"i":"010052","n":"Rovegno"},"geometry":{"type":"Polygon","coordinates":[[[9.3811,44.5767],[9.3716,44.5689],[9.3633,44.5667],[9.3585,44.5629],[9.3577,44.5565],[9.3515,44.5501],[9.3482,44.5413],[9.343,44.5392],[9.3399,44.5388],[9.3339,44.5317],[9.3303,44.5313],[9.323,44.5331],[9.3165,44.539],[9.3142,44.544],[9.314,44.548],[9.3122,44.5493],[9.3019,44.5504],[9.2956,44.5502],[9.292,44.5478],[9.2923,44.5466],[9.2898,44.5433],[9.283,44.5404],[9.2734,44.548],[9.271,44.5481],[9.2661,44.5501],[9.2527,44.5571],[9.2505,44.559],[9.2501,44.5675],[9.2513,44.5722],[9.25,44.5761],[9.2475,44.5792],[9.2552,44.5799],[9.2623,44.5788],[9.2687,44.5805],[9.292,44.5955],[9.2927,44.5988],[9.2923,44.6041],[9.3,44.6078],[9.3049,44.6051],[9.3079,44.6005],[9.3278,44.589],[9.3363,44.582],[9.3467,44.5795],[9.3496,44.5821],[9.3554,44.5844],[9.3642,44.5847],[9.3694,44.5831],[9.374,44.5798],[9.3811,44.5767]]]}},{"type":"Feature","properties":{"i":"010053","n":"San Colombano Certenoli"},"geometry":{"type":"Polygon","coordinates":[[[9.3648,44.4042],[9.3657,44.4002],[9.3585,44.3958],[9.3533,44.3891],[9.3545,44.3811],[9.3574,44.375],[9.3525,44.3711],[9.3515,44.3685],[9.3513,44.3669],[9.3538,44.3646],[9.3494,44.3614],[9.3323,44.3582],[9.3285,44.3584],[9.3241,44.3625],[9.3162,44.3661],[9.302,44.359],[9.2827,44.3564],[9.2812,44.3603],[9.2698,44.3618],[9.2867,44.3721],[9.2867,44.3728],[9.2842,44.3742],[9.2809,44.3741],[9.2791,44.3753],[9.2796,44.381],[9.2815,44.3839],[9.28,44.3879],[9.2787,44.3887],[9.2852,44.3916],[9.2935,44.3931],[9.2955,44.3947],[9.2979,44.3984],[9.2975,44.4088],[9.3032,44.4128],[9.3052,44.4214],[9.3037,44.4278],[9.3071,44.4326],[9.3093,44.4338],[9.3249,44.4385],[9.3316,44.4362],[9.348,44.4253],[9.3572,44.4149],[9.3644,44.4093],[9.3648,44.4042]]]}},{"type":"Feature","properties":{"i":"010054","n":"Santa Margherita Ligure"},"geometry":{"type":"Polygon","coordinates":[[[9.2196,44.335],[9.2152,44.3356],[9.2137,44.3336],[9.2127,44.3306],[9.2146,44.3292],[9.2159,44.3269],[9.2135,44.3139],[9.2141,44.3129],[9.2116,44.3107],[9.2009,44.312],[9.1922,44.3152],[9.1903,44.3199],[9.1881,44.322],[9.183,44.3217],[9.1751,44.3242],[9.1689,44.3271],[9.1708,44.332],[9.1741,44.3356],[9.1806,44.3451],[9.1889,44.343],[9.2001,44.3453],[9.2072,44.3442],[9.2155,44.3409],[9.2199,44.338],[9.2216,44.3358],[9.2196,44.335]]]}},{"type":"Feature","properties":{"i":"010055","n":"Sant'Olcese"},"geometry":{"type":"Polygon","coordinates":[[[9.0041,44.4852],[8.9971,44.483],[8.9831,44.4762],[8.964,44.4724],[8.9606,44.4695],[8.958,44.4656],[8.9579,44.4629],[8.9605,44.4528],[8.9587,44.4509],[8.9555,44.4521],[8.9416,44.4535],[8.9363,44.4568],[8.9314,44.4616],[8.9319,44.466],[8.9352,44.4683],[8.9351,44.47],[8.9242,44.4758],[8.921,44.4818],[8.9221,44.49],[8.9231,44.4912],[8.9346,44.4972],[8.9445,44.4968],[8.9529,44.4955],[8.967,44.4958],[8.9674,44.4982],[8.9708,44.5017],[8.9759,44.5038],[8.9815,44.5054],[8.9935,44.5056],[9.0008,44.5075],[9.0002,44.5004],[9.0036,44.495],[9.008,44.492],[9.0041,44.4852]]]}},{"type":"Feature","properties":{"i":"010056","n":"Santo Stefano d'Aveto"},"geometry":{"type":"Polygon","coordinates":[[[9.4933,44.5559],[9.4906,44.5528],[9.4883,44.5484],[9.4882,44.5456],[9.4905,44.5432],[9.4975,44.5406],[9.4995,44.5389],[9.5046,44.53],[9.501,44.5117],[9.4955,44.5031],[9.4946,44.5004],[9.4968,44.4827],[9.4908,44.4807],[9.4823,44.4793],[9.4746,44.4825],[9.4689,44.4819],[9.4697,44.4768],[9.4528,44.4759],[9.4431,44.4795],[9.4423,44.4803],[9.4425,44.4817],[9.446,44.4846],[9.4444,44.4872],[9.441,44.4888],[9.4402,44.49],[9.4362,44.5004],[9.442,44.5113],[9.4363,44.5217],[9.4316,44.5259],[9.4133,44.5304],[9.4041,44.537],[9.4064,44.548],[9.4145,44.5603],[9.4153,44.5657],[9.4147,44.5672],[9.4205,44.5727],[9.4252,44.5756],[9.4303,44.5741],[9.4341,44.5702],[9.4407,44.5667],[9.4434,44.5682],[9.4469,44.5718],[9.4514,44.5713],[9.4534,44.5621],[9.4634,44.5658],[9.4696,44.5659],[9.4861,44.5613],[9.4908,44.5589],[9.4933,44.5559]]]}},{"type":"Feature","properties":{"i":"010057","n":"Savignone"},"geometry":{"type":"Polygon","coordinates":[[[8.9979,44.5821],[8.9997,44.5782],[9.0023,44.575],[9.0107,44.5709],[9.0199,44.5711],[9.0237,44.5717],[9.0259,44.573],[9.0308,44.5726],[9.0242,44.5684],[9.0228,44.5627],[9.0229,44.5609],[9.0306,44.5499],[9.0254,44.5432],[9.0191,44.5388],[9.0181,44.536],[9.0168,44.5354],[9.0132,44.5362],[9.0048,44.5471],[8.9789,44.5505],[8.9828,44.5441],[8.9857,44.5412],[8.9858,44.5401],[8.9838,44.5363],[8.9769,44.5291],[8.9597,44.537],[8.9532,44.5525],[8.9551,44.5554],[8.9531,44.5606],[8.9529,44.5641],[8.9541,44.5671],[8.9563,44.5686],[8.9613,44.5689],[8.9678,44.5705],[8.9781,44.5777],[8.9881,44.5805],[8.9979,44.5821]]]}},{"type":"Feature","properties":{"i":"010058","n":"Serra Riccò"},"geometry":{"type":"Polygon","coordinates":[[[8.9597,44.537],[8.9769,44.5291],[8.9774,44.5216],[8.9935,44.5171],[8.9966,44.5173],[9.0008,44.5075],[8.9935,44.5056],[8.9815,44.5054],[8.9759,44.5038],[8.9708,44.5017],[8.9674,44.4982],[8.967,44.4958],[8.9529,44.4955],[8.9445,44.4968],[8.9346,44.4972],[8.9231,44.4912],[8.9221,44.49],[8.9213,44.4846],[8.9059,44.4854],[8.9052,44.4917],[8.9074,44.502],[8.914,44.5115],[8.9166,44.5203],[8.9136,44.5228],[8.9144,44.5271],[8.9157,44.5291],[8.9247,44.5373],[8.933,44.5396],[8.9445,44.5391],[8.9494,44.5358],[8.9542,44.535],[8.9597,44.537]]]}},{"type":"Feature","properties":{"i":"010059","n":"Sestri Levante"},"geometry":{"type":"MultiPolygon","coordinates":[[[[9.4716,44.3248],[9.4651,44.3172],[9.4653,44.3135],[9.4707,44.3076],[9.4682,44.3056],[9.4521,44.3006],[9.4409,44.2846],[9.4365,44.2774],[9.4338,44.2711],[9.4348,44.2688],[9.4386,44.2683],[9.4463,44.2639],[9.4607,44.2533],[9.4636,44.2521],[9.4595,44.2459],[9.455,44.2412],[9.4448,44.2383],[9.4433,44.2386],[9.4397,44.2416],[9.4374,44.247],[9.4326,44.2535],[9.4195,44.2594],[9.4171,44.2598],[9.4139,44.2588],[9.4114,44.2555],[9.406,44.2519],[9.4034,44.2519],[9.4007,44.2607],[9.3956,44.2675],[9.3926,44.2672],[9.3863,44.27],[9.3904,44.2704],[9.3924,44.2721],[9.3937,44.2747],[9.3927,44.2778],[9.387,44.2835],[9.3884,44.286],[9.3931,44.2893],[9.3998,44.2921],[9.4061,44.3],[9.4072,44.303],[9.4039,44.3138],[9.406,44.3152],[9.4216,44.3202],[9.446,44.3239],[9.4583,44.3244],[9.4656,44.3263],[9.4689,44.3261],[9.4716,44.3248]]]]}},{"type":"Feature","properties":{"i":"010060","n":"Sori"},"geometry":{"type":"Polygon","coordinates":[[[9.1295,44.4091],[9.133,44.4073],[9.1317,44.405],[9.1327,44.401],[9.1319,44.3948],[9.129,44.384],[9.1284,44.3779],[9.1228,44.3645],[9.1067,44.3683],[9.099,44.3719],[9.1014,44.3733],[9.1055,44.3819],[9.1039,44.3846],[9.0988,44.3877],[9.0946,44.3875],[9.0919,44.3861],[9.09,44.3886],[9.0928,44.399],[9.0974,44.4032],[9.0962,44.4049],[9.0937,44.4048],[9.095,44.4075],[9.0946,44.4113],[9.1033,44.4149],[9.1193,44.4131],[9.1295,44.4091]]]}},{"type":"Feature","properties":{"i":"010061","n":"Tiglieto"},"geometry":{"type":"Polygon","coordinates":[[[8.6071,44.5375],[8.6092,44.5358],[8.6169,44.5342],[8.6184,44.5346],[8.6191,44.5363],[8.6255,44.5361],[8.6371,44.53],[8.6457,44.5283],[8.6534,44.5295],[8.6581,44.5259],[8.6567,44.5182],[8.6563,44.5122],[8.6569,44.5095],[8.66,44.5075],[8.6638,44.5074],[8.663,44.5025],[8.668,44.4992],[8.6676,44.492],[8.6682,44.4891],[8.6705,44.4847],[8.6764,44.4822],[8.6722,44.4796],[8.6694,44.4749],[8.6681,44.4669],[8.6683,44.4595],[8.6645,44.464],[8.6612,44.4892],[8.6591,44.4951],[8.6539,44.5037],[8.6441,44.5028],[8.6327,44.5053],[8.623,44.5016],[8.6204,44.4999],[8.6142,44.502],[8.6131,44.5038],[8.6137,44.5065],[8.6036,44.5057],[8.6021,44.5047],[8.5991,44.5],[8.6021,44.496],[8.5949,44.4945],[8.5863,44.4979],[8.5762,44.5092],[8.5736,44.5149],[8.574,44.5188],[8.5728,44.5214],[8.5738,44.5233],[8.5782,44.5255],[8.5801,44.5234],[8.5867,44.5242],[8.5903,44.5281],[8.5888,44.5314],[8.5958,44.5373],[8.6019,44.5389],[8.6071,44.5375]]]}},{"type":"Feature","properties":{"i":"010062","n":"Torriglia"},"geometry":{"type":"Polygon","coordinates":[[[9.1933,44.5405],[9.2104,44.5333],[9.2202,44.5282],[9.2164,44.5137],[9.2137,44.5115],[9.2139,44.509],[9.2154,44.5057],[9.2126,44.4971],[9.2012,44.4929],[9.1897,44.4905],[9.1803,44.4959],[9.1733,44.4949],[9.1627,44.491],[9.1601,44.4887],[9.1384,44.4802],[9.1234,44.4765],[9.1154,44.4856],[9.1123,44.4869],[9.0995,44.4877],[9.099,44.4924],[9.0972,44.4978],[9.092,44.5026],[9.0918,44.5086],[9.0928,44.5115],[9.098,44.518],[9.0983,44.5356],[9.097,44.5384],[9.0981,44.5407],[9.1016,44.5437],[9.1053,44.5419],[9.1162,44.5428],[9.118,44.5445],[9.1216,44.5456],[9.1368,44.5469],[9.152,44.5503],[9.1569,44.5521],[9.163,44.5525],[9.1665,44.5535],[9.1783,44.5513],[9.1808,44.547],[9.183,44.5453],[9.1896,44.5408],[9.1933,44.5405]]]}},{"type":"Feature","properties":{"i":"010063","n":"Tribogna"},"geometry":{"type":"Polygon","coordinates":[[[9.1783,44.4327],[9.1801,44.4302],[9.1827,44.4283],[9.2108,44.4182],[9.2017,44.4096],[9.198,44.3992],[9.1981,44.3964],[9.1899,44.3964],[9.1827,44.4049],[9.1843,44.4063],[9.1843,44.4081],[9.176,44.42],[9.1717,44.4217],[9.1683,44.4205],[9.1632,44.4294],[9.1657,44.4347],[9.1783,44.4327]]]}},{"type":"Feature","properties":{"i":"010064","n":"Uscio"},"geometry":{"type":"Polygon","coordinates":[[[9.1657,44.4347],[9.1632,44.4294],[9.1683,44.4205],[9.1717,44.4217],[9.176,44.42],[9.1843,44.4081],[9.1845,44.4067],[9.1836,44.4052],[9.1785,44.4044],[9.1682,44.4056],[9.1533,44.3974],[9.1423,44.4073],[9.1395,44.4081],[9.133,44.4073],[9.1295,44.4091],[9.1546,44.4384],[9.1578,44.4364],[9.1632,44.4358],[9.1657,44.4347]]]}},{"type":"Feature","properties":{"i":"010065","n":"Valbrevenna"},"geometry":{"type":"Polygon","coordinates":[[[9.1459,44.5742],[9.1484,44.5729],[9.1497,44.57],[9.1486,44.5658],[9.1464,44.5631],[9.1463,44.5596],[9.1525,44.5531],[9.1569,44.5521],[9.152,44.5503],[9.1368,44.5469],[9.1216,44.5456],[9.118,44.5445],[9.1162,44.5428],[9.1053,44.5419],[9.0985,44.5447],[9.0827,44.5414],[9.0467,44.5388],[9.0412,44.5363],[9.0258,44.5328],[9.0181,44.536],[9.0191,44.5388],[9.0254,44.5432],[9.0304,44.5493],[9.0293,44.5525],[9.0229,44.5609],[9.0228,44.5627],[9.0242,44.5684],[9.0308,44.5726],[9.0345,44.5684],[9.0441,44.5663],[9.0513,44.5689],[9.0525,44.5684],[9.0736,44.5701],[9.0851,44.574],[9.096,44.5759],[9.1007,44.5757],[9.1063,44.5776],[9.1102,44.5807],[9.1107,44.582],[9.1218,44.5803],[9.1352,44.5745],[9.1411,44.5736],[9.1459,44.5742]]]}},{"type":"Feature","properties":{"i":"010066","n":"Vobbia"},"geometry":{"type":"Polygon","coordinates":[[[9.1032,44.6097],[9.1045,44.6066],[9.1026,44.6001],[9.1024,44.5929],[9.1085,44.5866],[9.111,44.5825],[9.1102,44.5807],[9.1077,44.5786],[9.1007,44.5757],[9.096,44.5759],[9.0851,44.574],[9.0736,44.5701],[9.0525,44.5684],[9.0513,44.574],[9.0459,44.5896],[9.0381,44.5934],[9.0151,44.6094],[9.0097,44.6179],[9.0089,44.6218],[9.014,44.6242],[9.0202,44.6253],[9.0232,44.6279],[9.0259,44.6314],[9.0261,44.633],[9.0261,44.6376],[9.0241,44.6398],[9.0315,44.6424],[9.0365,44.6418],[9.0388,44.6409],[9.047,44.6147],[9.058,44.6218],[9.0733,44.6243],[9.0801,44.621],[9.0846,44.6165],[9.0992,44.6122],[9.1032,44.6097]]]}},{"type":"Feature","properties":{"i":"010067","n":"Zoagli"},"geometry":{"type":"Polygon","coordinates":[[[9.2889,44.3458],[9.2855,44.3425],[9.2804,44.3298],[9.2649,44.3359],[9.2549,44.338],[9.2434,44.3425],[9.2463,44.3455],[9.2438,44.3466],[9.2438,44.3478],[9.2463,44.3513],[9.2534,44.3559],[9.2644,44.3563],[9.267,44.358],[9.2698,44.3618],[9.2812,44.3603],[9.2846,44.3525],[9.2889,44.3458]]]}}]}
