{"type":"FeatureCollection","fonte":"Confini comunali ISTAT via openpolis/geojson-italy — CC BY 4.0","features":[{"type":"Feature","properties":{"i":"031001","n":"Capriva del Friuli"},"geometry":{"type":"Polygon","coordinates":[[[13.5174,45.9617],[13.523,45.9541],[13.5302,45.9542],[13.532,45.9532],[13.5288,45.9445],[13.5246,45.9387],[13.5225,45.9367],[13.512,45.9327],[13.5103,45.9352],[13.4952,45.9382],[13.4936,45.9376],[13.4963,45.9502],[13.493,45.9528],[13.5117,45.9617],[13.515,45.9625],[13.5174,45.9617]]]}},{"type":"Feature","properties":{"i":"031002","n":"Cormons"},"geometry":{"type":"Polygon","coordinates":[[[13.4948,45.9862],[13.5003,45.9818],[13.5097,45.9799],[13.5159,45.9778],[13.5261,45.972],[13.526,45.9709],[13.5174,45.9617],[13.515,45.9625],[13.5117,45.9617],[13.493,45.9528],[13.4963,45.9502],[13.4947,45.9409],[13.4936,45.9376],[13.4858,45.9292],[13.4609,45.9236],[13.4559,45.9214],[13.4499,45.9273],[13.4455,45.9294],[13.4269,45.929],[13.4208,45.9305],[13.4202,45.9415],[13.4247,45.9442],[13.4282,45.9474],[13.4269,45.9515],[13.4282,45.9533],[13.4311,45.9547],[13.4423,45.9571],[13.4428,45.9579],[13.4386,45.9701],[13.4366,45.9721],[13.438,45.9736],[13.4522,45.983],[13.4586,45.9854],[13.4632,45.9839],[13.4645,45.9842],[13.4648,45.9861],[13.4672,45.9867],[13.4838,45.9857],[13.4871,45.9848],[13.4899,45.9818],[13.4939,45.9845],[13.4948,45.9862]]]}},{"type":"Feature","properties":{"i":"031003","n":"Doberdò del Lago"},"geometry":{"type":"Polygon","coordinates":[[[13.5963,45.8079],[13.5834,45.8011],[13.5827,45.8023],[13.5797,45.8035],[13.5658,45.8078],[13.5614,45.8156],[13.5616,45.8184],[13.5571,45.8208],[13.5138,45.8528],[13.5137,45.8596],[13.5436,45.8678],[13.5483,45.8655],[13.5542,45.8684],[13.5636,45.8709],[13.5745,45.8723],[13.5789,45.8719],[13.586,45.8785],[13.5903,45.8883],[13.591,45.8732],[13.584,45.8649],[13.5833,45.8613],[13.5772,45.8533],[13.5773,45.8579],[13.5736,45.8492],[13.5738,45.8466],[13.5745,45.8431],[13.5792,45.8406],[13.5893,45.8313],[13.5949,45.8212],[13.5963,45.8079]]]}},{"type":"Feature","properties":{"i":"031004","n":"Dolegna del Collio"},"geometry":{"type":"Polygon","coordinates":[[[13.4948,45.9862],[13.4939,45.9845],[13.4899,45.9818],[13.4871,45.9848],[13.4838,45.9857],[13.4672,45.9867],[13.4648,45.9861],[13.4643,45.9901],[13.4661,45.9983],[13.4607,46.0014],[13.4603,46.0054],[13.4644,46.0067],[13.4711,46.0125],[13.4716,46.0163],[13.4793,46.0377],[13.4833,46.0436],[13.489,46.0483],[13.4936,46.0488],[13.497,46.0514],[13.4966,46.0489],[13.4981,46.0476],[13.51,46.0462],[13.5101,46.0434],[13.5067,46.0323],[13.5043,46.0278],[13.497,46.0177],[13.4909,46.0142],[13.4799,46.0115],[13.4762,46.0063],[13.488,45.9962],[13.4933,45.9893],[13.4948,45.9862]]]}},{"type":"Feature","properties":{"i":"031005","n":"Farra d'Isonzo"},"geometry":{"type":"Polygon","coordinates":[[[13.5394,45.92],[13.5533,45.9204],[13.5483,45.9124],[13.5485,45.9112],[13.5532,45.9086],[13.5588,45.9122],[13.5532,45.8989],[13.5398,45.8983],[13.5302,45.8969],[13.5147,45.8898],[13.5056,45.9035],[13.5011,45.9129],[13.5004,45.9161],[13.5157,45.9207],[13.5259,45.9219],[13.5321,45.922],[13.5394,45.92]]]}},{"type":"Feature","properties":{"i":"031006","n":"Fogliano Redipuglia"},"geometry":{"type":"Polygon","coordinates":[[[13.5137,45.8596],[13.5138,45.8528],[13.4887,45.8402],[13.4752,45.8437],[13.4744,45.8461],[13.4762,45.8486],[13.4834,45.8482],[13.4727,45.8519],[13.4729,45.8601],[13.467,45.8657],[13.4749,45.874],[13.4824,45.8693],[13.4919,45.8666],[13.497,45.867],[13.5018,45.869],[13.5137,45.8596]]]}},{"type":"Feature","properties":{"i":"031007","n":"Gorizia"},"geometry":{"type":"Polygon","coordinates":[[[13.6136,45.9075],[13.6098,45.9066],[13.5865,45.9097],[13.5838,45.9114],[13.5889,45.9186],[13.5731,45.9154],[13.5569,45.9086],[13.5588,45.9122],[13.5532,45.9086],[13.5485,45.9112],[13.5483,45.9124],[13.5552,45.9241],[13.5538,45.929],[13.5588,45.937],[13.558,45.9442],[13.5554,45.95],[13.5547,45.9558],[13.5598,45.9614],[13.569,45.9636],[13.5748,45.9632],[13.5803,45.9614],[13.596,45.9604],[13.6032,45.975],[13.6019,45.9814],[13.5989,45.9824],[13.5995,45.9838],[13.6042,45.9867],[13.6059,45.9855],[13.6204,45.9838],[13.6334,45.9895],[13.642,45.9836],[13.6346,45.9539],[13.6363,45.934],[13.6276,45.9256],[13.6136,45.9075]]]}},{"type":"Feature","properties":{"i":"031008","n":"Gradisca d'Isonzo"},"geometry":{"type":"Polygon","coordinates":[[[13.5147,45.8898],[13.4983,45.8817],[13.4823,45.8782],[13.474,45.8752],[13.4736,45.8749],[13.4749,45.874],[13.4698,45.8682],[13.4609,45.8792],[13.4611,45.8809],[13.4627,45.8833],[13.4678,45.8845],[13.4664,45.8919],[13.4641,45.8969],[13.4746,45.9006],[13.4751,45.9037],[13.5004,45.9161],[13.5011,45.9129],[13.5056,45.9035],[13.5147,45.8898]]]}},{"type":"Feature","properties":{"i":"031009","n":"Grado"},"geometry":{"type":"Polygon","coordinates":[[[13.5291,45.7332],[13.5386,45.7298],[13.5535,45.7261],[13.5532,45.7246],[13.5507,45.7233],[13.5306,45.7233],[13.5159,45.7175],[13.5005,45.7098],[13.4868,45.7046],[13.4726,45.7042],[13.4703,45.7063],[13.4649,45.7071],[13.4679,45.7027],[13.4592,45.6932],[13.4549,45.6905],[13.4425,45.6865],[13.4325,45.6816],[13.4333,45.6787],[13.4242,45.6767],[13.406,45.6773],[13.3857,45.6748],[13.3677,45.6828],[13.3592,45.6821],[13.3566,45.6802],[13.3516,45.679],[13.3431,45.6805],[13.3232,45.6874],[13.3015,45.6969],[13.2953,45.7004],[13.2996,45.6994],[13.2906,45.7045],[13.2753,45.7067],[13.2613,45.707],[13.2555,45.7084],[13.2476,45.7165],[13.2432,45.7224],[13.2434,45.7326],[13.2399,45.7527],[13.2401,45.7546],[13.2416,45.7569],[13.2438,45.757],[13.2501,45.7564],[13.2525,45.7528],[13.2554,45.7504],[13.2674,45.7514],[13.2707,45.753],[13.2726,45.7521],[13.2763,45.7476],[13.2873,45.7501],[13.2911,45.7502],[13.3158,45.7443],[13.3164,45.7428],[13.3205,45.739],[13.3272,45.7369],[13.3493,45.7356],[13.3537,45.7361],[13.3555,45.7375],[13.3719,45.7374],[13.3724,45.7351],[13.3701,45.7348],[13.3658,45.7327],[13.3705,45.7301],[13.3843,45.7252],[13.3895,45.7242],[13.4051,45.725],[13.4065,45.7257],[13.4082,45.7298],[13.4082,45.7325],[13.4058,45.7345],[13.4037,45.7388],[13.4187,45.7424],[13.4228,45.7441],[13.4297,45.7434],[13.4591,45.7488],[13.4611,45.7497],[13.4618,45.7523],[13.4608,45.7525],[13.4612,45.753],[13.4643,45.7544],[13.4758,45.7515],[13.4819,45.749],[13.4921,45.7412],[13.4981,45.7344],[13.5007,45.7342],[13.5034,45.7365],[13.507,45.7373],[13.5157,45.7361],[13.5257,45.7319],[13.5291,45.7332]]]}},{"type":"Feature","properties":{"i":"031010","n":"Mariano del Friuli"},"geometry":{"type":"Polygon","coordinates":[[[13.5004,45.9161],[13.4751,45.9037],[13.4746,45.9006],[13.4634,45.8968],[13.4511,45.9009],[13.4498,45.9043],[13.4496,45.9086],[13.4472,45.9115],[13.4425,45.915],[13.446,45.9185],[13.4559,45.9214],[13.4586,45.923],[13.4858,45.9292],[13.4849,45.926],[13.4876,45.9213],[13.5004,45.9161]]]}},{"type":"Feature","properties":{"i":"031011","n":"Medea"},"geometry":{"type":"Polygon","coordinates":[[[13.4559,45.9214],[13.446,45.9185],[13.443,45.916],[13.4419,45.9135],[13.4331,45.9063],[13.4168,45.9032],[13.4148,45.9046],[13.4159,45.9095],[13.4128,45.9137],[13.4104,45.9148],[13.3967,45.9086],[13.3867,45.913],[13.3928,45.9135],[13.4051,45.9171],[13.4195,45.9279],[13.4208,45.9305],[13.4269,45.929],[13.4455,45.9294],[13.4499,45.9273],[13.4559,45.9214]]]}},{"type":"Feature","properties":{"i":"031012","n":"Monfalcone"},"geometry":{"type":"Polygon","coordinates":[[[13.5571,45.8208],[13.5616,45.8184],[13.5614,45.8156],[13.5658,45.8078],[13.581,45.803],[13.5827,45.8023],[13.5844,45.7997],[13.5848,45.7976],[13.5838,45.7968],[13.5808,45.7965],[13.5771,45.793],[13.5798,45.7871],[13.5809,45.7818],[13.5799,45.777],[13.5727,45.7762],[13.5619,45.7784],[13.5569,45.7825],[13.5418,45.8004],[13.5335,45.8047],[13.5329,45.8041],[13.5384,45.8021],[13.5419,45.7988],[13.5448,45.7955],[13.5446,45.7933],[13.5435,45.7917],[13.5386,45.7882],[13.5324,45.79],[13.5299,45.7888],[13.53,45.7881],[13.5321,45.7858],[13.5372,45.7832],[13.5412,45.7861],[13.5457,45.7869],[13.5479,45.7828],[13.5443,45.784],[13.5409,45.7824],[13.5333,45.7773],[13.528,45.7719],[13.5207,45.7753],[13.5111,45.7966],[13.5175,45.7995],[13.5177,45.8053],[13.5064,45.8056],[13.5047,45.8087],[13.5051,45.81],[13.5077,45.8127],[13.5084,45.8196],[13.5198,45.8208],[13.5292,45.8176],[13.5351,45.8166],[13.5386,45.8192],[13.5415,45.82],[13.5571,45.8208]]]}},{"type":"Feature","properties":{"i":"031013","n":"Moraro"},"geometry":{"type":"Polygon","coordinates":[[[13.512,45.9327],[13.5153,45.9274],[13.5073,45.9256],[13.5079,45.9221],[13.5096,45.9191],[13.5004,45.9161],[13.4876,45.9213],[13.4849,45.926],[13.4858,45.9292],[13.4944,45.938],[13.5103,45.9352],[13.512,45.9327]]]}},{"type":"Feature","properties":{"i":"031014","n":"Mossa"},"geometry":{"type":"Polygon","coordinates":[[[13.5533,45.9204],[13.5394,45.92],[13.539,45.9251],[13.5354,45.9302],[13.5317,45.9382],[13.5372,45.9424],[13.5384,45.9424],[13.5385,45.9493],[13.5379,45.9509],[13.5357,45.9532],[13.532,45.9532],[13.5302,45.9542],[13.5349,45.956],[13.5434,45.9564],[13.5551,45.9597],[13.5582,45.959],[13.5547,45.9558],[13.5554,45.95],[13.558,45.9442],[13.5588,45.937],[13.5538,45.929],[13.5552,45.9241],[13.5533,45.9204]]]}},{"type":"Feature","properties":{"i":"031015","n":"Romans d'Isonzo"},"geometry":{"type":"Polygon","coordinates":[[[13.4641,45.8969],[13.4664,45.8919],[13.4678,45.8845],[13.4627,45.8833],[13.4611,45.8809],[13.4613,45.8779],[13.4484,45.8793],[13.4455,45.8761],[13.4388,45.8723],[13.432,45.8721],[13.4295,45.8729],[13.4232,45.8712],[13.4187,45.874],[13.4165,45.8829],[13.4118,45.8894],[13.3997,45.8956],[13.3967,45.9086],[13.4104,45.9148],[13.4128,45.9137],[13.4159,45.9095],[13.4148,45.9046],[13.4154,45.9039],[13.4168,45.9032],[13.4224,45.904],[13.4331,45.9063],[13.437,45.9088],[13.4419,45.9135],[13.4425,45.915],[13.4472,45.9115],[13.4496,45.9086],[13.4498,45.9043],[13.4511,45.9009],[13.4641,45.8969]]]}},{"type":"Feature","properties":{"i":"031016","n":"Ronchi dei Legionari"},"geometry":{"type":"Polygon","coordinates":[[[13.5571,45.8208],[13.5415,45.82],[13.5386,45.8192],[13.5351,45.8166],[13.5292,45.8176],[13.5198,45.8208],[13.5084,45.8196],[13.5072,45.8121],[13.5041,45.8099],[13.4993,45.8094],[13.4738,45.8183],[13.4691,45.8256],[13.4739,45.8282],[13.4766,45.8324],[13.4739,45.8401],[13.4762,45.8431],[13.4801,45.8428],[13.4887,45.8402],[13.5138,45.8528],[13.5571,45.8208]]]}},{"type":"Feature","properties":{"i":"031017","n":"Sagrado"},"geometry":{"type":"Polygon","coordinates":[[[13.5436,45.8678],[13.5137,45.8596],[13.5018,45.869],[13.497,45.867],[13.4919,45.8666],[13.4824,45.8693],[13.4736,45.8749],[13.4823,45.8782],[13.4983,45.8817],[13.5302,45.8969],[13.5398,45.8983],[13.5532,45.8989],[13.5562,45.8971],[13.5542,45.8933],[13.5467,45.8871],[13.5435,45.8808],[13.5443,45.8729],[13.5436,45.8678]]]}},{"type":"Feature","properties":{"i":"031018","n":"San Canzian d'Isonzo"},"geometry":{"type":"Polygon","coordinates":[[[13.4691,45.8256],[13.4738,45.8183],[13.4718,45.8175],[13.4753,45.8093],[13.483,45.8026],[13.4828,45.7766],[13.4933,45.7662],[13.4971,45.7608],[13.4965,45.7582],[13.4971,45.7559],[13.5004,45.7517],[13.5291,45.7332],[13.5286,45.7327],[13.5257,45.7319],[13.5157,45.7361],[13.507,45.7373],[13.5034,45.7365],[13.5007,45.7342],[13.4981,45.7344],[13.4921,45.7412],[13.4819,45.749],[13.4666,45.7543],[13.4632,45.7543],[13.4588,45.7503],[13.4496,45.748],[13.4436,45.7545],[13.4334,45.76],[13.4317,45.7582],[13.4261,45.7552],[13.4231,45.755],[13.42,45.7569],[13.422,45.7625],[13.4257,45.765],[13.428,45.7716],[13.4376,45.7791],[13.4403,45.7857],[13.433,45.7998],[13.4338,45.8001],[13.4282,45.8087],[13.4344,45.8102],[13.4433,45.8156],[13.4548,45.8184],[13.4625,45.8213],[13.4629,45.8245],[13.4618,45.8256],[13.4691,45.8256]]]}},{"type":"Feature","properties":{"i":"031019","n":"San Floriano del Collio"},"geometry":{"type":"Polygon","coordinates":[[[13.6042,45.9867],[13.5995,45.9838],[13.5989,45.9824],[13.6019,45.9814],[13.6032,45.975],[13.596,45.9604],[13.5949,45.9599],[13.5803,45.9614],[13.5748,45.9632],[13.569,45.9636],[13.5598,45.9614],[13.5587,45.9607],[13.5582,45.959],[13.5551,45.9597],[13.5434,45.9564],[13.5349,45.956],[13.5302,45.9542],[13.523,45.9541],[13.5174,45.9617],[13.5249,45.9692],[13.5261,45.972],[13.5268,45.9683],[13.5278,45.9671],[13.5425,45.9648],[13.5451,45.9655],[13.5464,45.9667],[13.5563,45.9693],[13.5687,45.9692],[13.5737,45.9747],[13.5764,45.9801],[13.5851,45.988],[13.5905,45.9898],[13.6042,45.9867]]]}},{"type":"Feature","properties":{"i":"031020","n":"San Lorenzo Isontino"},"geometry":{"type":"Polygon","coordinates":[[[13.5394,45.92],[13.5321,45.922],[13.5259,45.9219],[13.5157,45.9207],[13.5096,45.9191],[13.5078,45.9226],[13.5073,45.9256],[13.5153,45.9274],[13.512,45.9327],[13.5225,45.9367],[13.5246,45.9387],[13.5288,45.9445],[13.532,45.9532],[13.5357,45.9532],[13.5379,45.9509],[13.5385,45.9493],[13.5384,45.9424],[13.5372,45.9424],[13.5317,45.9382],[13.5354,45.9302],[13.539,45.9251],[13.5394,45.92]]]}},{"type":"Feature","properties":{"i":"031021","n":"San Pier d'Isonzo"},"geometry":{"type":"Polygon","coordinates":[[[13.4762,45.8431],[13.4739,45.8401],[13.4766,45.8324],[13.4739,45.8282],[13.4691,45.8256],[13.4618,45.8256],[13.443,45.8341],[13.4281,45.8346],[13.4289,45.8391],[13.4393,45.845],[13.4452,45.8472],[13.4576,45.8538],[13.4601,45.8568],[13.4596,45.8604],[13.4612,45.8637],[13.467,45.8657],[13.4729,45.8601],[13.4727,45.8519],[13.4834,45.8482],[13.4762,45.8486],[13.4752,45.8479],[13.4744,45.8461],[13.4752,45.8437],[13.4762,45.8431]]]}},{"type":"Feature","properties":{"i":"031022","n":"Savogna d'Isonzo"},"geometry":{"type":"Polygon","coordinates":[[[13.6136,45.9075],[13.6089,45.8992],[13.5999,45.8954],[13.595,45.8915],[13.5947,45.8901],[13.5968,45.8872],[13.5941,45.8868],[13.5903,45.8883],[13.586,45.8785],[13.5789,45.8719],[13.5745,45.8723],[13.5636,45.8709],[13.5542,45.8684],[13.5483,45.8655],[13.5436,45.8678],[13.5443,45.8729],[13.5435,45.8808],[13.5467,45.8871],[13.5542,45.8933],[13.5562,45.8971],[13.5532,45.8989],[13.5569,45.9086],[13.5731,45.9154],[13.5889,45.9186],[13.5838,45.9114],[13.5865,45.9097],[13.6098,45.9066],[13.6136,45.9075]]]}},{"type":"Feature","properties":{"i":"031023","n":"Staranzano"},"geometry":{"type":"Polygon","coordinates":[[[13.5054,45.8104],[13.5047,45.8087],[13.5064,45.8056],[13.5177,45.8053],[13.5175,45.7995],[13.5111,45.7966],[13.5207,45.7753],[13.528,45.7719],[13.5252,45.7697],[13.5208,45.7629],[13.5207,45.7576],[13.5217,45.7528],[13.5232,45.7507],[13.5176,45.745],[13.5172,45.7436],[13.5265,45.7366],[13.5345,45.7363],[13.5536,45.7294],[13.5544,45.7283],[13.5539,45.726],[13.5386,45.7298],[13.5291,45.7332],[13.5021,45.7501],[13.4971,45.7559],[13.4965,45.7582],[13.4971,45.7608],[13.4933,45.7662],[13.4828,45.7766],[13.483,45.8026],[13.4753,45.8093],[13.4718,45.8175],[13.4738,45.8183],[13.4981,45.8097],[13.5054,45.8104]]]}},{"type":"Feature","properties":{"i":"031024","n":"Turriaco"},"geometry":{"type":"Polygon","coordinates":[[[13.4618,45.8256],[13.4629,45.8245],[13.4625,45.8213],[13.4548,45.8184],[13.4433,45.8156],[13.4344,45.8102],[13.4282,45.8087],[13.4263,45.8132],[13.4261,45.834],[13.4281,45.8346],[13.443,45.8341],[13.4618,45.8256]]]}},{"type":"Feature","properties":{"i":"031025","n":"Villesse"},"geometry":{"type":"Polygon","coordinates":[[[13.4613,45.8779],[13.4698,45.8682],[13.467,45.8657],[13.4612,45.8637],[13.4596,45.8604],[13.4601,45.8568],[13.4576,45.8538],[13.4452,45.8472],[13.4393,45.845],[13.4289,45.8391],[13.4211,45.8404],[13.4158,45.8459],[13.416,45.8494],[13.4124,45.8555],[13.4107,45.8569],[13.4132,45.8636],[13.4187,45.8675],[13.4242,45.8667],[13.4257,45.8673],[13.4251,45.8693],[13.4232,45.8712],[13.4295,45.8729],[13.432,45.8721],[13.4388,45.8723],[13.4455,45.8761],[13.4484,45.8793],[13.4613,45.8779]]]}}]}
