{"type":"FeatureCollection","fonte":"Confini comunali ISTAT via openpolis/geojson-italy — CC BY 4.0","features":[{"type":"Feature","properties":{"i":"053001","n":"Arcidosso"},"geometry":{"type":"Polygon","coordinates":[[[11.6001,42.8797],[11.5974,42.8754],[11.5921,42.871],[11.5586,42.8511],[11.5481,42.8375],[11.5438,42.8341],[11.5406,42.8336],[11.5326,42.8178],[11.5241,42.819],[11.5168,42.8214],[11.5091,42.8252],[11.498,42.8281],[11.4853,42.8265],[11.4843,42.8253],[11.4846,42.824],[11.4818,42.8202],[11.4748,42.8153],[11.4695,42.8133],[11.4648,42.8051],[11.4644,42.8019],[11.4614,42.7944],[11.4521,42.7985],[11.4432,42.8076],[11.4419,42.81],[11.4367,42.8131],[11.43,42.8146],[11.4218,42.8141],[11.4153,42.8227],[11.4079,42.8281],[11.3915,42.8311],[11.3873,42.8334],[11.3845,42.8374],[11.3777,42.8407],[11.3712,42.8424],[11.364,42.8409],[11.3619,42.8419],[11.3681,42.845],[11.3726,42.8532],[11.3793,42.8572],[11.3831,42.8631],[11.4079,42.8617],[11.4162,42.8639],[11.4249,42.864],[11.4445,42.8613],[11.456,42.8609],[11.476,42.8617],[11.4865,42.8652],[11.494,42.8691],[11.5007,42.8747],[11.5043,42.8846],[11.5029,42.8861],[11.4964,42.8871],[11.4924,42.8891],[11.4896,42.8917],[11.4885,42.8944],[11.4901,42.9101],[11.4928,42.9133],[11.497,42.9145],[11.503,42.9107],[11.5092,42.9055],[11.5201,42.9011],[11.5233,42.8962],[11.5241,42.8864],[11.5264,42.8831],[11.5289,42.8817],[11.5511,42.8862],[11.5762,42.8842],[11.5927,42.8791],[11.6001,42.8797]]]}},{"type":"Feature","properties":{"i":"053002","n":"Campagnatico"},"geometry":{"type":"Polygon","coordinates":[[[11.2047,42.9344],[11.2098,42.934],[11.2168,42.9314],[11.2163,42.93],[11.2284,42.9242],[11.2417,42.9202],[11.2456,42.9115],[11.2468,42.9099],[11.2497,42.9084],[11.2696,42.9179],[11.2755,42.9186],[11.2803,42.9127],[11.2833,42.9054],[11.2843,42.897],[11.2834,42.8915],[11.2853,42.8828],[11.3039,42.8718],[11.3072,42.8687],[11.307,42.8645],[11.3089,42.8544],[11.3047,42.8479],[11.3112,42.84],[11.3274,42.8317],[11.3457,42.8329],[11.3569,42.841],[11.3592,42.8415],[11.3619,42.8419],[11.364,42.8409],[11.3712,42.8424],[11.3743,42.8413],[11.3744,42.8317],[11.3574,42.8091],[11.3568,42.8079],[11.3589,42.8066],[11.3414,42.8018],[11.3224,42.7937],[11.3128,42.7943],[11.2988,42.7921],[11.2916,42.7882],[11.2885,42.7846],[11.2854,42.7827],[11.2748,42.781],[11.2671,42.7814],[11.2615,42.7848],[11.2482,42.7896],[11.2409,42.7942],[11.2429,42.7975],[11.242,42.7985],[11.2344,42.7988],[11.2136,42.7892],[11.2137,42.7939],[11.2126,42.7973],[11.2063,42.8103],[11.1984,42.81],[11.1909,42.8115],[11.1782,42.8321],[11.1832,42.8433],[11.1999,42.8538],[11.1955,42.856],[11.1888,42.8633],[11.1874,42.8698],[11.1831,42.8766],[11.1677,42.8957],[11.1577,42.8967],[11.1489,42.9009],[11.1581,42.9077],[11.1647,42.9179],[11.1688,42.9204],[11.1778,42.9222],[11.1808,42.9242],[11.1809,42.9263],[11.1796,42.9291],[11.1757,42.9339],[11.1758,42.9379],[11.1946,42.9383],[11.2047,42.9344]]]}},{"type":"Feature","properties":{"i":"053003","n":"Capalbio"},"geometry":{"type":"MultiPolygon","coordinates":[[[[11.3115,42.3797],[11.3106,42.3803],[11.3115,42.381],[11.3115,42.3797]]],[[[11.5217,42.4341],[11.5157,42.4339],[11.4974,42.4386],[11.4889,42.4394],[11.4819,42.4345],[11.481,42.4336],[11.4811,42.4273],[11.482,42.4211],[11.4801,42.418],[11.4769,42.414],[11.4733,42.4115],[11.4567,42.4011],[11.4508,42.395],[11.4537,42.3853],[11.4499,42.3775],[11.4176,42.3869],[11.3811,42.3954],[11.3483,42.4013],[11.3157,42.4056],[11.3161,42.4138],[11.3116,42.4166],[11.305,42.4179],[11.3087,42.4214],[11.3187,42.4273],[11.3264,42.4266],[11.335,42.4306],[11.3329,42.4355],[11.3315,42.4437],[11.331,42.4598],[11.3322,42.4708],[11.3318,42.4827],[11.3391,42.4878],[11.3429,42.4884],[11.3526,42.4947],[11.357,42.4928],[11.3623,42.4928],[11.3692,42.4942],[11.3772,42.4973],[11.3805,42.4991],[11.3815,42.5016],[11.3867,42.5061],[11.399,42.5107],[11.4039,42.5189],[11.413,42.5275],[11.4173,42.5285],[11.4271,42.5276],[11.4397,42.5238],[11.4398,42.5228],[11.4429,42.5199],[11.4605,42.5163],[11.4771,42.5108],[11.4955,42.5065],[11.5003,42.5018],[11.5031,42.496],[11.5098,42.4919],[11.5215,42.4905],[11.5298,42.4828],[11.5401,42.4749],[11.5373,42.4727],[11.5305,42.4634],[11.5294,42.4594],[11.5303,42.4551],[11.5325,42.4531],[11.5327,42.4494],[11.5294,42.4439],[11.5219,42.4354],[11.5217,42.4341]]]]}},{"type":"Feature","properties":{"i":"053004","n":"Castel del Piano"},"geometry":{"type":"Polygon","coordinates":[[[11.5286,42.9737],[11.5262,42.9678],[11.5269,42.965],[11.5215,42.9507],[11.5204,42.9392],[11.5191,42.9363],[11.5199,42.924],[11.5235,42.9179],[11.527,42.9154],[11.5344,42.9158],[11.5462,42.9134],[11.5586,42.9075],[11.5696,42.9054],[11.5739,42.9073],[11.5839,42.9064],[11.5996,42.9027],[11.6192,42.8932],[11.6248,42.8881],[11.6197,42.8814],[11.6066,42.8777],[11.6001,42.8797],[11.5931,42.8791],[11.5904,42.8796],[11.5762,42.8842],[11.5505,42.8862],[11.5402,42.8835],[11.5289,42.8817],[11.5264,42.8831],[11.5241,42.8864],[11.5233,42.8962],[11.5201,42.9011],[11.5092,42.9055],[11.503,42.9107],[11.497,42.9145],[11.4928,42.9133],[11.4912,42.9109],[11.4888,42.9124],[11.4842,42.9133],[11.4826,42.9109],[11.4766,42.9101],[11.458,42.9114],[11.4502,42.9142],[11.4384,42.9221],[11.4312,42.9243],[11.4325,42.929],[11.4385,42.936],[11.4341,42.9404],[11.4271,42.9454],[11.4241,42.9465],[11.4213,42.9516],[11.4224,42.9596],[11.4396,42.959],[11.4474,42.9615],[11.4521,42.9606],[11.454,42.9584],[11.4864,42.9639],[11.4914,42.9671],[11.4938,42.9724],[11.4973,42.9756],[11.5075,42.9794],[11.515,42.9812],[11.5198,42.9805],[11.5274,42.9756],[11.5286,42.9737]]]}},{"type":"Feature","properties":{"i":"053005","n":"Castell'Azzara"},"geometry":{"type":"Polygon","coordinates":[[[11.746,42.7858],[11.7502,42.7834],[11.7571,42.7821],[11.762,42.7796],[11.7607,42.7781],[11.743,42.775],[11.7405,42.7734],[11.7412,42.7641],[11.7402,42.7633],[11.7329,42.7608],[11.7262,42.761],[11.7192,42.7634],[11.7145,42.7626],[11.7051,42.7559],[11.7067,42.7515],[11.7012,42.7455],[11.6935,42.7444],[11.6843,42.7459],[11.6727,42.7502],[11.6642,42.7446],[11.6631,42.7412],[11.6565,42.7357],[11.643,42.7312],[11.6268,42.7233],[11.6162,42.7148],[11.6156,42.7188],[11.6084,42.7389],[11.6042,42.7546],[11.6,42.761],[11.5928,42.769],[11.5972,42.7713],[11.6092,42.7802],[11.6221,42.7928],[11.6254,42.7967],[11.6256,42.7979],[11.6283,42.7971],[11.6394,42.7999],[11.6413,42.7997],[11.6468,42.797],[11.6562,42.7912],[11.6649,42.7883],[11.6822,42.79],[11.6973,42.7981],[11.7021,42.799],[11.7122,42.7975],[11.7142,42.7954],[11.7382,42.7898],[11.746,42.7858]]]}},{"type":"Feature","properties":{"i":"053006","n":"Castiglione della Pescaia"},"geometry":{"type":"MultiPolygon","coordinates":[[[[10.7127,42.7977],[10.7134,42.7971],[10.7123,42.7963],[10.7115,42.7983],[10.7127,42.7977]]],[[[11.0396,42.8728],[11.0435,42.8596],[11.0436,42.8566],[11.042,42.8492],[11.0383,42.8424],[11.0169,42.8234],[11.0068,42.813],[11.0028,42.8062],[10.991,42.7944],[10.9808,42.7887],[10.9712,42.7864],[10.9448,42.788],[10.9347,42.7901],[10.9265,42.7896],[10.918,42.7624],[10.9113,42.7533],[10.8675,42.7647],[10.8335,42.7713],[10.7954,42.7764],[10.7932,42.7763],[10.7909,42.7738],[10.7863,42.7745],[10.7715,42.7838],[10.7557,42.7912],[10.7429,42.7982],[10.7363,42.8009],[10.7308,42.8019],[10.7354,42.8091],[10.7361,42.8091],[10.7367,42.8059],[10.7473,42.8062],[10.7547,42.8072],[10.7601,42.8101],[10.7648,42.8158],[10.7706,42.8262],[10.7731,42.832],[10.776,42.8437],[10.7986,42.8473],[10.8102,42.8472],[10.8395,42.8506],[10.8525,42.8577],[10.8601,42.857],[10.8773,42.8609],[10.8867,42.8655],[10.8887,42.8681],[10.8929,42.8667],[10.914,42.8682],[10.9398,42.8764],[10.9493,42.8747],[10.9528,42.8753],[10.9665,42.8827],[10.9797,42.8869],[10.9891,42.8882],[10.992,42.8881],[11.0072,42.884],[11.0162,42.8766],[11.0396,42.8728]]]]}},{"type":"Feature","properties":{"i":"053007","n":"Cinigiano"},"geometry":{"type":"Polygon","coordinates":[[[11.4224,42.9596],[11.4213,42.9516],[11.4241,42.9465],[11.4271,42.9454],[11.4341,42.9404],[11.4385,42.936],[11.4325,42.929],[11.4312,42.9243],[11.4384,42.9221],[11.4502,42.9142],[11.4566,42.9116],[11.4766,42.9101],[11.4826,42.9109],[11.4842,42.9133],[11.4888,42.9124],[11.4912,42.9109],[11.4901,42.9101],[11.4885,42.8944],[11.4896,42.8917],[11.4924,42.8891],[11.4964,42.8871],[11.5013,42.8865],[11.5042,42.8854],[11.5041,42.8826],[11.5007,42.8747],[11.494,42.8691],[11.4865,42.8652],[11.476,42.8617],[11.456,42.8609],[11.4445,42.8613],[11.4249,42.864],[11.4162,42.8639],[11.4079,42.8617],[11.3831,42.8631],[11.3793,42.8572],[11.3726,42.8532],[11.3681,42.845],[11.3619,42.8419],[11.3569,42.841],[11.3457,42.8329],[11.3274,42.8317],[11.3112,42.84],[11.3047,42.8479],[11.3089,42.8544],[11.307,42.8645],[11.3072,42.8687],[11.3039,42.8718],[11.2853,42.8828],[11.2834,42.8915],[11.2843,42.897],[11.2833,42.9054],[11.2803,42.9127],[11.2755,42.9186],[11.272,42.9265],[11.2761,42.9285],[11.2785,42.9274],[11.2836,42.9272],[11.3152,42.931],[11.3194,42.9326],[11.3225,42.9349],[11.3362,42.939],[11.3445,42.9425],[11.3509,42.9508],[11.3467,42.9569],[11.3425,42.9605],[11.3418,42.962],[11.3422,42.9641],[11.3452,42.9695],[11.3504,42.972],[11.3529,42.9693],[11.358,42.9675],[11.3759,42.9665],[11.3881,42.9637],[11.4152,42.9599],[11.4224,42.9596]]]}},{"type":"Feature","properties":{"i":"053008","n":"Civitella Paganico"},"geometry":{"type":"Polygon","coordinates":[[[11.3385,43.0899],[11.3399,43.087],[11.349,43.0824],[11.3558,43.0812],[11.357,43.0824],[11.3615,43.0832],[11.3639,43.0811],[11.3643,43.0682],[11.3657,43.0609],[11.3651,43.0542],[11.3634,43.0479],[11.357,43.0413],[11.3559,43.0391],[11.3612,43.0347],[11.3551,43.0294],[11.3568,43.0262],[11.3634,43.0212],[11.3611,43.01],[11.3619,43.007],[11.3638,43.0059],[11.3672,43.0065],[11.3791,42.9982],[11.3805,42.9961],[11.3775,42.9935],[11.3743,42.9927],[11.3727,42.9928],[11.3675,42.9952],[11.3651,42.9942],[11.3669,42.9893],[11.3686,42.9876],[11.3772,42.9854],[11.3775,42.9842],[11.3755,42.979],[11.3666,42.9769],[11.3617,42.9784],[11.3538,42.9748],[11.3504,42.972],[11.3468,42.9708],[11.3437,42.9676],[11.3422,42.9641],[11.342,42.9613],[11.3472,42.9563],[11.3509,42.9508],[11.3445,42.9425],[11.3362,42.939],[11.3225,42.9349],[11.3194,42.9326],[11.3152,42.931],[11.2836,42.9272],[11.2785,42.9274],[11.2761,42.9285],[11.272,42.9265],[11.2755,42.9186],[11.2696,42.9179],[11.2497,42.9084],[11.2468,42.9099],[11.2456,42.9115],[11.2417,42.9202],[11.2284,42.9242],[11.2163,42.93],[11.2168,42.9314],[11.2098,42.934],[11.2047,42.9344],[11.202,42.9361],[11.1997,42.9452],[11.2026,42.9469],[11.2111,42.951],[11.2195,42.9494],[11.2265,42.9509],[11.2401,42.9555],[11.2417,42.9576],[11.2383,42.9588],[11.2324,42.9628],[11.2282,42.9757],[11.2235,42.9996],[11.2216,43.0038],[11.2178,43.0083],[11.215,43.0144],[11.2159,43.0179],[11.2172,43.0193],[11.2174,43.0221],[11.2156,43.0268],[11.2133,43.0292],[11.2053,43.03],[11.1997,43.0316],[11.1998,43.0379],[11.1966,43.0458],[11.1895,43.048],[11.1887,43.0504],[11.1926,43.0558],[11.2241,43.0534],[11.2367,43.049],[11.2446,43.0518],[11.2448,43.0641],[11.2479,43.0717],[11.2585,43.0694],[11.2666,43.0713],[11.2682,43.0767],[11.2679,43.0789],[11.2705,43.0816],[11.2742,43.0822],[11.2882,43.08],[11.2972,43.0771],[11.3094,43.0891],[11.3101,43.0889],[11.3115,43.0859],[11.3204,43.0849],[11.3246,43.0881],[11.3324,43.0916],[11.3385,43.0899]]]}},{"type":"Feature","properties":{"i":"053009","n":"Follonica"},"geometry":{"type":"Polygon","coordinates":[[[10.7802,43.0042],[10.793,43.0002],[10.8011,42.9839],[10.8037,42.9772],[10.805,42.9693],[10.8062,42.9601],[10.8047,42.9507],[10.8011,42.9386],[10.7911,42.9262],[10.7717,42.9103],[10.7543,42.9216],[10.7445,42.9266],[10.7063,42.9419],[10.7112,42.9545],[10.7144,42.9591],[10.7224,42.9642],[10.7314,42.9686],[10.7365,42.9729],[10.7372,42.9772],[10.7505,42.9855],[10.7513,42.9898],[10.7452,42.9964],[10.7379,43.0014],[10.7409,43.0122],[10.749,43.0145],[10.7657,43.0121],[10.7725,43.0094],[10.7802,43.0042]]]}},{"type":"Feature","properties":{"i":"053010","n":"Gavorrano"},"geometry":{"type":"Polygon","coordinates":[[[11.0234,42.9981],[11.0225,42.9818],[11.0159,42.9707],[11.0117,42.9546],[11.0195,42.9509],[11.0214,42.9508],[11.0264,42.9474],[11.0304,42.942],[11.0362,42.9297],[11.0375,42.9135],[11.0373,42.8803],[11.0396,42.8728],[11.0162,42.8766],[11.0072,42.884],[10.9896,42.8883],[10.9797,42.8869],[10.9665,42.8827],[10.9528,42.8753],[10.9493,42.8747],[10.9398,42.8764],[10.914,42.8682],[10.8929,42.8667],[10.8887,42.8681],[10.8837,42.8746],[10.8817,42.883],[10.8852,42.8929],[10.8867,42.8952],[10.8922,42.8996],[10.8866,42.9075],[10.8651,42.9319],[10.8569,42.9358],[10.8462,42.9451],[10.8457,42.9494],[10.848,42.9514],[10.8536,42.9632],[10.8571,42.9656],[10.8634,42.9717],[10.8713,42.9753],[10.9074,42.9793],[10.9159,42.9785],[10.9268,42.9754],[10.9326,42.9757],[10.9406,42.9817],[10.9479,42.9885],[10.9491,42.9909],[10.9643,42.9935],[10.9689,42.9989],[10.9714,43.0103],[10.9732,43.0132],[10.9783,43.0107],[10.9914,43.0076],[11.0023,43.0094],[11.0106,43.0049],[11.0141,43.0057],[11.0211,43.0043],[11.0236,42.9999],[11.0234,42.9981]]]}},{"type":"Feature","properties":{"i":"053011","n":"Grosseto"},"geometry":{"type":"MultiPolygon","coordinates":[[[[10.8954,42.563],[10.8947,42.5631],[10.8944,42.5644],[10.8954,42.563]]],[[[10.8839,42.576],[10.8814,42.5758],[10.8802,42.5774],[10.8822,42.5777],[10.8839,42.576]]],[[[11.1489,42.9009],[11.1577,42.8967],[11.1677,42.8957],[11.1831,42.8766],[11.1874,42.8698],[11.1888,42.8633],[11.1955,42.856],[11.1999,42.8538],[11.1832,42.8433],[11.1782,42.8321],[11.1909,42.8115],[11.1984,42.81],[11.2063,42.8103],[11.2137,42.7939],[11.2136,42.7892],[11.2096,42.7895],[11.2046,42.7925],[11.2037,42.798],[11.2016,42.7985],[11.1973,42.7971],[11.1939,42.7942],[11.1932,42.7924],[11.1937,42.7909],[11.2109,42.7758],[11.2193,42.7698],[11.2291,42.7595],[11.2304,42.7573],[11.2307,42.7555],[11.2274,42.7473],[11.2216,42.7417],[11.2088,42.7345],[11.2106,42.7331],[11.2159,42.7317],[11.2241,42.7247],[11.2021,42.7062],[11.188,42.6971],[11.1801,42.6886],[11.1585,42.6691],[11.1468,42.6545],[11.1534,42.6454],[11.1443,42.64],[11.1147,42.6378],[11.0887,42.6323],[11.0839,42.6279],[11.077,42.6322],[11.0626,42.639],[11.026,42.6516],[11.0136,42.657],[10.9999,42.6814],[10.9909,42.7001],[10.9814,42.7142],[10.9777,42.7185],[10.9621,42.7305],[10.9515,42.7369],[10.9347,42.7449],[10.9113,42.7533],[10.918,42.7624],[10.9265,42.7896],[10.9347,42.7901],[10.9431,42.7882],[10.9692,42.7864],[10.9812,42.7889],[10.991,42.7944],[11.0028,42.8062],[11.0068,42.813],[11.0169,42.8234],[11.0367,42.8404],[11.042,42.8492],[11.0436,42.8566],[11.0435,42.8596],[11.0373,42.8803],[11.0373,42.9033],[11.0577,42.8955],[11.0641,42.9017],[11.0707,42.9223],[11.0771,42.924],[11.08,42.9231],[11.083,42.9174],[11.0867,42.9153],[11.1237,42.9017],[11.1406,42.895],[11.1427,42.8934],[11.1489,42.9009]]]]}},{"type":"Feature","properties":{"i":"053012","n":"Isola del Giglio"},"geometry":{"type":"MultiPolygon","coordinates":[[[[11.1099,42.2634],[11.1153,42.2582],[11.1175,42.2538],[11.1173,42.2525],[11.1162,42.2521],[11.1123,42.2546],[11.1087,42.2554],[11.1055,42.254],[11.1032,42.251],[11.1021,42.2477],[11.1025,42.2461],[11.1059,42.2459],[11.112,42.2431],[11.112,42.2404],[11.1094,42.2382],[11.0983,42.2417],[11.0927,42.2523],[11.1012,42.2583],[11.1091,42.2609],[11.1099,42.2634]]],[[[10.9293,42.356],[10.9292,42.3555],[10.9284,42.3561],[10.9293,42.356]]],[[[10.8869,42.3894],[10.8898,42.3887],[10.9069,42.3804],[10.9091,42.375],[10.9138,42.3691],[10.9173,42.368],[10.9218,42.3597],[10.9237,42.3555],[10.9222,42.3501],[10.9229,42.3438],[10.9316,42.3387],[10.9313,42.3318],[10.9293,42.3255],[10.9209,42.3181],[10.9156,42.3214],[10.9049,42.3259],[10.889,42.342],[10.8829,42.3509],[10.8799,42.3525],[10.873,42.3526],[10.8668,42.3543],[10.8654,42.3605],[10.8657,42.3644],[10.8684,42.3677],[10.8772,42.3653],[10.8816,42.3676],[10.8835,42.3765],[10.8808,42.3814],[10.881,42.3871],[10.8802,42.3888],[10.8849,42.389],[10.886,42.3899],[10.8869,42.3894]]]]}},{"type":"Feature","properties":{"i":"053013","n":"Magliano in Toscana"},"geometry":{"type":"Polygon","coordinates":[[[11.3883,42.5885],[11.3861,42.5881],[11.3844,42.5844],[11.3792,42.5861],[11.3776,42.5858],[11.3755,42.5826],[11.3726,42.5745],[11.3746,42.5729],[11.3739,42.5708],[11.3672,42.5661],[11.3642,42.5655],[11.3613,42.5659],[11.3582,42.5593],[11.3426,42.5453],[11.3276,42.5422],[11.3231,42.5431],[11.3031,42.5425],[11.2827,42.5407],[11.2807,42.5394],[11.2782,42.541],[11.2751,42.5473],[11.2776,42.5565],[11.263,42.5675],[11.2565,42.577],[11.2484,42.5836],[11.2413,42.5877],[11.2357,42.5974],[11.2423,42.6007],[11.2413,42.6024],[11.2318,42.6036],[11.2198,42.6033],[11.2122,42.5998],[11.1995,42.5988],[11.1915,42.5966],[11.1904,42.5943],[11.1863,42.5914],[11.1818,42.5917],[11.1684,42.5953],[11.1597,42.5986],[11.1366,42.6009],[11.1095,42.5996],[11.1048,42.5968],[11.0994,42.6045],[11.0906,42.6067],[11.0862,42.6097],[11.0825,42.6135],[11.0817,42.6155],[11.0834,42.6171],[11.0861,42.6165],[11.0884,42.6181],[11.0862,42.6258],[11.0839,42.6279],[11.0876,42.632],[11.1147,42.6378],[11.1443,42.64],[11.1534,42.6454],[11.1468,42.6545],[11.1585,42.6691],[11.1801,42.6886],[11.188,42.6971],[11.2021,42.7062],[11.2241,42.7247],[11.2159,42.7317],[11.2106,42.7331],[11.2088,42.7345],[11.2216,42.7417],[11.2251,42.745],[11.2284,42.7486],[11.2307,42.7555],[11.2345,42.7523],[11.2411,42.7505],[11.2521,42.7405],[11.2518,42.7384],[11.2479,42.7355],[11.2485,42.729],[11.251,42.7277],[11.2542,42.7242],[11.2546,42.722],[11.2537,42.7193],[11.2576,42.7152],[11.2609,42.7131],[11.2632,42.7062],[11.2634,42.6964],[11.2604,42.6865],[11.2606,42.683],[11.2616,42.6816],[11.2751,42.682],[11.2839,42.6788],[11.2841,42.6731],[11.288,42.6663],[11.2895,42.665],[11.2998,42.6665],[11.3069,42.6708],[11.3164,42.6704],[11.3296,42.6648],[11.3347,42.6598],[11.339,42.6536],[11.3504,42.6451],[11.3544,42.6441],[11.3566,42.6415],[11.3579,42.6278],[11.3606,42.6225],[11.3621,42.6166],[11.3617,42.6137],[11.3595,42.6101],[11.3609,42.6081],[11.3684,42.6031],[11.3753,42.6018],[11.3843,42.5965],[11.3864,42.5901],[11.3883,42.5885]]]}},{"type":"Feature","properties":{"i":"053014","n":"Manciano"},"geometry":{"type":"Polygon","coordinates":[[[11.4859,42.6963],[11.488,42.694],[11.4918,42.6951],[11.506,42.6966],[11.5188,42.697],[11.5197,42.6936],[11.5172,42.6884],[11.5188,42.6881],[11.546,42.6958],[11.556,42.6922],[11.5656,42.6811],[11.5757,42.6803],[11.5901,42.6844],[11.6035,42.6867],[11.6173,42.6824],[11.6217,42.6794],[11.6195,42.6714],[11.6179,42.6605],[11.6203,42.659],[11.6214,42.657],[11.6202,42.652],[11.6137,42.6451],[11.6113,42.6436],[11.6046,42.6427],[11.5864,42.6335],[11.5807,42.6242],[11.5821,42.6201],[11.5857,42.6188],[11.5876,42.6162],[11.5769,42.6143],[11.5655,42.6152],[11.5575,42.6111],[11.5596,42.6017],[11.5631,42.5995],[11.5675,42.5944],[11.5683,42.5914],[11.5666,42.5861],[11.5667,42.5817],[11.5763,42.5676],[11.5786,42.5662],[11.5806,42.5601],[11.5824,42.5494],[11.5869,42.5453],[11.5858,42.5418],[11.5778,42.54],[11.5679,42.5322],[11.5649,42.5271],[11.5609,42.517],[11.5621,42.5149],[11.5661,42.5118],[11.5713,42.5103],[11.5745,42.5108],[11.5844,42.5067],[11.5871,42.504],[11.5856,42.5009],[11.5928,42.4954],[11.6088,42.4928],[11.6163,42.4885],[11.6168,42.4875],[11.616,42.4844],[11.62,42.4747],[11.6198,42.4729],[11.616,42.4667],[11.6157,42.4612],[11.6175,42.4451],[11.6192,42.4408],[11.6177,42.436],[11.5855,42.4368],[11.5745,42.4376],[11.5658,42.4394],[11.5545,42.4388],[11.5443,42.4422],[11.5217,42.4341],[11.5219,42.4354],[11.5294,42.4439],[11.5327,42.4494],[11.5325,42.4531],[11.5303,42.4551],[11.5294,42.4594],[11.5305,42.4634],[11.5373,42.4727],[11.5401,42.4749],[11.5298,42.4828],[11.5215,42.4905],[11.5098,42.4919],[11.5031,42.496],[11.5003,42.5018],[11.4955,42.5065],[11.4771,42.5108],[11.4605,42.5163],[11.4429,42.5199],[11.4398,42.5228],[11.4397,42.5238],[11.4271,42.5276],[11.4173,42.5285],[11.413,42.5275],[11.4039,42.5189],[11.399,42.5107],[11.3867,42.5061],[11.3815,42.5016],[11.3805,42.4991],[11.3747,42.4961],[11.3623,42.4928],[11.357,42.4928],[11.3485,42.4957],[11.3366,42.4951],[11.3272,42.5011],[11.3239,42.5051],[11.3098,42.5127],[11.2965,42.5224],[11.2827,42.5407],[11.3031,42.5425],[11.3231,42.5431],[11.3276,42.5422],[11.3426,42.5453],[11.3582,42.5593],[11.3613,42.5659],[11.3642,42.5655],[11.3672,42.5661],[11.3739,42.5708],[11.3746,42.5729],[11.3726,42.5745],[11.3755,42.5826],[11.378,42.586],[11.3844,42.5844],[11.3866,42.5883],[11.3883,42.5885],[11.3935,42.5869],[11.3955,42.5925],[11.3952,42.5943],[11.3992,42.5971],[11.4037,42.5966],[11.4075,42.5948],[11.4109,42.5951],[11.4217,42.6079],[11.4225,42.6108],[11.4255,42.6147],[11.4326,42.6165],[11.4356,42.6202],[11.4331,42.6228],[11.4332,42.6241],[11.4448,42.6285],[11.4568,42.6381],[11.4537,42.6619],[11.4539,42.6659],[11.4553,42.6688],[11.4584,42.6713],[11.4611,42.6759],[11.457,42.6897],[11.4549,42.7099],[11.4575,42.7124],[11.4627,42.7072],[11.4687,42.7036],[11.4859,42.6963]]]}},{"type":"Feature","properties":{"i":"053015","n":"Massa Marittima"},"geometry":{"type":"Polygon","coordinates":[[[11.0423,43.0422],[11.0457,43.0356],[11.0483,43.0216],[11.043,43.0164],[11.0338,43.0128],[11.0299,43.0074],[11.0278,43.0028],[11.0234,42.9981],[11.0236,42.9999],[11.0211,43.0043],[11.0141,43.0057],[11.0106,43.0049],[11.0023,43.0094],[10.9914,43.0076],[10.9783,43.0107],[10.9732,43.0132],[10.9714,43.0103],[10.9689,42.9989],[10.9643,42.9935],[10.9491,42.9909],[10.9479,42.9885],[10.9406,42.9817],[10.9326,42.9757],[10.9268,42.9754],[10.9159,42.9785],[10.9074,42.9793],[10.8713,42.9753],[10.8634,42.9717],[10.8571,42.9656],[10.8536,42.9632],[10.8409,42.9628],[10.823,42.9588],[10.8086,42.9597],[10.8062,42.9601],[10.8037,42.9772],[10.8011,42.9839],[10.793,43.0002],[10.7802,43.0042],[10.7815,43.0079],[10.7838,43.0108],[10.794,43.0151],[10.7962,43.0177],[10.7956,43.0191],[10.7813,43.0202],[10.7768,43.0234],[10.7774,43.0278],[10.7734,43.04],[10.7731,43.0438],[10.775,43.0486],[10.7836,43.0571],[10.7826,43.0614],[10.7801,43.0636],[10.7717,43.068],[10.7619,43.0718],[10.7557,43.073],[10.7538,43.0749],[10.7561,43.0756],[10.7593,43.0783],[10.7626,43.0838],[10.7645,43.0854],[10.7709,43.0873],[10.7814,43.0862],[10.797,43.0937],[10.8046,43.0929],[10.8068,43.0898],[10.8179,43.089],[10.8407,43.0926],[10.8597,43.1046],[10.8739,43.1036],[10.8795,43.1044],[10.892,43.1139],[10.9246,43.1313],[10.9249,43.1347],[10.9239,43.1393],[10.9275,43.1426],[10.9409,43.1322],[10.9537,43.1251],[10.9636,43.1206],[10.9773,43.1212],[11.0009,43.1062],[11.0071,43.0984],[11.0113,43.0814],[11.0173,43.065],[11.0179,43.0618],[11.02,43.0574],[11.0231,43.0549],[11.0259,43.055],[11.0331,43.0521],[11.037,43.0471],[11.0423,43.0422]]]}},{"type":"Feature","properties":{"i":"053016","n":"Monte Argentario"},"geometry":{"type":"MultiPolygon","coordinates":[[[[11.1312,42.378],[11.1304,42.3767],[11.1297,42.3777],[11.1312,42.378]]],[[[11.2103,42.3826],[11.2134,42.3798],[11.2119,42.3794],[11.2094,42.381],[11.2092,42.3827],[11.2103,42.3826]]],[[[11.0819,42.418],[11.0802,42.4182],[11.0827,42.4189],[11.0819,42.418]]],[[[11.1569,42.434],[11.1599,42.4311],[11.1661,42.4297],[11.1683,42.4299],[11.1739,42.4325],[11.1831,42.4324],[11.1916,42.4312],[11.1927,42.4297],[11.1968,42.4286],[11.2001,42.4285],[11.2002,42.4266],[11.2033,42.4192],[11.2083,42.4164],[11.211,42.4123],[11.2093,42.4043],[11.2055,42.4024],[11.2055,42.4013],[11.2092,42.4005],[11.2119,42.4019],[11.2109,42.3976],[11.2096,42.3957],[11.2072,42.3949],[11.2129,42.3912],[11.2132,42.3885],[11.2125,42.3872],[11.2068,42.3848],[11.2003,42.382],[11.1969,42.382],[11.192,42.3794],[11.1883,42.3733],[11.1899,42.3647],[11.1867,42.3637],[11.1815,42.3634],[11.1803,42.3654],[11.1761,42.3683],[11.1657,42.368],[11.1577,42.3621],[11.1529,42.3612],[11.1502,42.3658],[11.1516,42.3691],[11.1509,42.3709],[11.1428,42.3764],[11.1372,42.3784],[11.1261,42.3864],[11.1171,42.39],[11.112,42.3895],[11.1055,42.391],[11.0981,42.3933],[11.0966,42.3953],[11.0905,42.4089],[11.0915,42.4121],[11.0912,42.415],[11.0888,42.4214],[11.0886,42.4273],[11.0974,42.4354],[11.1044,42.4471],[11.1072,42.4478],[11.1124,42.4466],[11.1226,42.4346],[11.1321,42.439],[11.1357,42.4376],[11.1376,42.4358],[11.1477,42.4351],[11.1494,42.4369],[11.1569,42.434]]]]}},{"type":"Feature","properties":{"i":"053017","n":"Montieri"},"geometry":{"type":"Polygon","coordinates":[[[11.0591,43.1839],[11.0569,43.1757],[11.0574,43.1714],[11.0589,43.1685],[11.0601,43.1629],[11.0603,43.1548],[11.0556,43.1506],[11.0533,43.1498],[11.0551,43.1434],[11.0582,43.1436],[11.0625,43.1396],[11.0579,43.1355],[11.0597,43.1307],[11.0713,43.1231],[11.068,43.1193],[11.0659,43.1181],[11.0648,43.1108],[11.0719,43.1019],[11.0728,43.0952],[11.0772,43.0878],[11.0824,43.084],[11.0818,43.083],[11.0821,43.0763],[11.0836,43.0732],[11.0899,43.072],[11.0915,43.0704],[11.091,43.0689],[11.0851,43.0639],[11.0691,43.0549],[11.0617,43.046],[11.0581,43.0387],[11.0533,43.0398],[11.0477,43.0422],[11.0423,43.0422],[11.037,43.0471],[11.0331,43.0521],[11.0259,43.055],[11.0231,43.0549],[11.0205,43.0568],[11.018,43.0614],[11.0173,43.065],[11.0113,43.0814],[11.0071,43.0984],[11.0009,43.1062],[10.9773,43.1212],[10.9636,43.1206],[10.9409,43.1322],[10.9275,43.1426],[10.9236,43.1446],[10.9238,43.1463],[10.9133,43.1512],[10.9087,43.1598],[10.9115,43.1626],[10.9154,43.1635],[10.9445,43.1615],[10.9606,43.1668],[10.968,43.1703],[10.9726,43.1736],[10.9782,43.1762],[10.9841,43.1777],[11.0001,43.1785],[11.0124,43.1773],[11.0156,43.1786],[11.0189,43.1849],[11.0181,43.1858],[11.025,43.1876],[11.0461,43.1805],[11.0591,43.1839]]]}},{"type":"Feature","properties":{"i":"053018","n":"Orbetello"},"geometry":{"type":"Polygon","coordinates":[[[11.2827,42.5407],[11.2965,42.5224],[11.3098,42.5127],[11.3239,42.5051],[11.3272,42.5011],[11.3366,42.4951],[11.3485,42.4957],[11.3526,42.4947],[11.3429,42.4884],[11.3391,42.4878],[11.3314,42.4821],[11.3322,42.4708],[11.331,42.4598],[11.3315,42.4437],[11.3329,42.4355],[11.335,42.4306],[11.3264,42.4266],[11.3187,42.4273],[11.3087,42.4214],[11.305,42.4179],[11.3116,42.4166],[11.3161,42.4138],[11.3157,42.4056],[11.2952,42.4083],[11.2936,42.4081],[11.2899,42.4055],[11.283,42.4068],[11.2796,42.4095],[11.2788,42.4167],[11.2705,42.419],[11.2621,42.4197],[11.2496,42.4193],[11.2342,42.4168],[11.2217,42.4137],[11.2125,42.4101],[11.2102,42.4086],[11.211,42.4123],[11.2083,42.4164],[11.2033,42.4192],[11.2002,42.4266],[11.2001,42.4285],[11.1968,42.4286],[11.1927,42.4297],[11.1916,42.4312],[11.1831,42.4324],[11.1739,42.4325],[11.1683,42.4299],[11.1661,42.4297],[11.1599,42.4311],[11.1569,42.434],[11.1607,42.4345],[11.1661,42.4376],[11.1742,42.4462],[11.1827,42.4606],[11.1881,42.4757],[11.191,42.4894],[11.1921,42.5013],[11.1918,42.5096],[11.1905,42.5171],[11.183,42.532],[11.1759,42.5422],[11.1684,42.5504],[11.1644,42.5531],[11.1607,42.5574],[11.1584,42.5619],[11.1568,42.5628],[11.1508,42.5637],[11.139,42.5607],[11.1355,42.558],[11.1347,42.5545],[11.136,42.5531],[11.1342,42.5514],[11.1227,42.5585],[11.1158,42.5681],[11.1095,42.5786],[11.107,42.5852],[11.1048,42.5968],[11.1095,42.5996],[11.1366,42.6009],[11.1597,42.5986],[11.1684,42.5953],[11.1818,42.5917],[11.1863,42.5914],[11.1904,42.5943],[11.1915,42.5966],[11.1995,42.5988],[11.2122,42.5998],[11.2198,42.6033],[11.2318,42.6036],[11.2413,42.6024],[11.2423,42.6007],[11.2357,42.5974],[11.2413,42.5877],[11.2484,42.5836],[11.2565,42.577],[11.263,42.5675],[11.2776,42.5565],[11.2751,42.5473],[11.2788,42.5402],[11.2807,42.5394],[11.2827,42.5407]]]}},{"type":"Feature","properties":{"i":"053019","n":"Pitigliano"},"geometry":{"type":"Polygon","coordinates":[[[11.7964,42.6435],[11.7918,42.6402],[11.7866,42.6393],[11.7809,42.6347],[11.7498,42.6396],[11.7518,42.6256],[11.7489,42.6215],[11.7385,42.6133],[11.7359,42.6099],[11.736,42.6067],[11.731,42.6059],[11.7274,42.6064],[11.7267,42.6079],[11.7268,42.6108],[11.726,42.6109],[11.7103,42.61],[11.7085,42.6075],[11.7004,42.6014],[11.6919,42.5995],[11.6799,42.5952],[11.6858,42.5848],[11.6796,42.5805],[11.6682,42.5761],[11.6584,42.577],[11.6558,42.5753],[11.653,42.5718],[11.646,42.5679],[11.6371,42.5652],[11.6333,42.5664],[11.6326,42.5681],[11.63,42.5696],[11.625,42.5691],[11.6172,42.5615],[11.614,42.5572],[11.6089,42.5616],[11.6083,42.566],[11.6038,42.5683],[11.5892,42.5714],[11.5802,42.568],[11.5787,42.5672],[11.5786,42.5662],[11.5763,42.5676],[11.5667,42.5817],[11.5666,42.5861],[11.5683,42.5914],[11.5675,42.5944],[11.5631,42.5995],[11.5596,42.6017],[11.5576,42.6099],[11.5575,42.6111],[11.559,42.6124],[11.5655,42.6152],[11.5769,42.6143],[11.5859,42.6155],[11.5882,42.6166],[11.5867,42.6197],[11.5908,42.6231],[11.6016,42.6221],[11.6325,42.6364],[11.6669,42.6456],[11.6726,42.6491],[11.6777,42.6561],[11.685,42.6617],[11.6912,42.6623],[11.697,42.6614],[11.7024,42.6592],[11.7081,42.6546],[11.7098,42.6523],[11.7137,42.6512],[11.7363,42.6521],[11.7401,42.6536],[11.7448,42.6572],[11.75,42.6587],[11.7554,42.6588],[11.7601,42.6577],[11.7832,42.6452],[11.7898,42.6432],[11.7964,42.6435]]]}},{"type":"Feature","properties":{"i":"053020","n":"Roccalbegna"},"geometry":{"type":"Polygon","coordinates":[[[11.5323,42.8177],[11.5344,42.8129],[11.5323,42.8017],[11.5322,42.7989],[11.5329,42.7977],[11.54,42.7988],[11.5726,42.8002],[11.5798,42.7979],[11.5801,42.7964],[11.579,42.7946],[11.5796,42.7912],[11.5809,42.7849],[11.5836,42.7778],[11.5664,42.7753],[11.5494,42.7717],[11.5433,42.7666],[11.5254,42.7591],[11.5239,42.7575],[11.5194,42.7476],[11.5187,42.7421],[11.511,42.7375],[11.507,42.7376],[11.5052,42.7396],[11.5023,42.7407],[11.4923,42.7409],[11.4888,42.74],[11.4885,42.738],[11.4894,42.7365],[11.4888,42.7296],[11.487,42.7265],[11.4867,42.7239],[11.4917,42.7182],[11.4921,42.7162],[11.4902,42.7105],[11.4865,42.7117],[11.4823,42.7072],[11.4833,42.7007],[11.4859,42.6963],[11.472,42.702],[11.4627,42.7072],[11.4534,42.7168],[11.445,42.7271],[11.4381,42.7327],[11.4375,42.7422],[11.4321,42.7508],[11.4186,42.759],[11.402,42.7669],[11.3936,42.7718],[11.3923,42.7758],[11.3932,42.7809],[11.3928,42.7834],[11.3752,42.7963],[11.3568,42.8079],[11.3744,42.8317],[11.3743,42.8413],[11.3777,42.8407],[11.3845,42.8374],[11.3873,42.8334],[11.3915,42.8311],[11.4079,42.8281],[11.4153,42.8227],[11.4218,42.8141],[11.43,42.8146],[11.4358,42.8135],[11.4392,42.8118],[11.4419,42.81],[11.4432,42.8076],[11.4521,42.7985],[11.4607,42.7943],[11.462,42.7949],[11.4648,42.8051],[11.4695,42.8133],[11.4748,42.8153],[11.4818,42.8202],[11.4846,42.824],[11.4843,42.8253],[11.4853,42.8265],[11.498,42.8281],[11.5091,42.8252],[11.5168,42.8214],[11.5241,42.819],[11.5323,42.8177]]]}},{"type":"Feature","properties":{"i":"053021","n":"Roccastrada"},"geometry":{"type":"Polygon","coordinates":[[[11.2705,43.0816],[11.2679,43.0789],[11.2682,43.0767],[11.2666,43.0713],[11.2585,43.0694],[11.2479,43.0717],[11.2448,43.0641],[11.2446,43.0518],[11.2367,43.049],[11.2241,43.0534],[11.1926,43.0558],[11.1887,43.0504],[11.1895,43.048],[11.1966,43.0458],[11.1998,43.0379],[11.1997,43.0316],[11.2053,43.03],[11.2133,43.0292],[11.2156,43.0268],[11.2174,43.0221],[11.2172,43.0193],[11.2159,43.0179],[11.215,43.0144],[11.2178,43.0083],[11.2216,43.0038],[11.2235,42.9996],[11.2282,42.9757],[11.2324,42.9628],[11.2383,42.9588],[11.2417,42.9576],[11.2401,42.9555],[11.2265,42.9509],[11.2195,42.9494],[11.2111,42.951],[11.2022,42.9467],[11.1997,42.9452],[11.202,42.9361],[11.2047,42.9344],[11.1946,42.9383],[11.1758,42.9379],[11.1757,42.9339],[11.1796,42.9291],[11.1809,42.9263],[11.1808,42.9242],[11.1778,42.9222],[11.1688,42.9204],[11.1647,42.9179],[11.1581,42.9077],[11.1489,42.9009],[11.1427,42.8934],[11.1406,42.895],[11.1237,42.9017],[11.0867,42.9153],[11.083,42.9174],[11.08,42.9231],[11.0771,42.924],[11.0707,42.9223],[11.0641,42.9017],[11.0577,42.8955],[11.0373,42.9033],[11.0375,42.9135],[11.0362,42.9297],[11.0304,42.942],[11.0273,42.9465],[11.0236,42.9496],[11.0117,42.9546],[11.0159,42.9707],[11.0225,42.9818],[11.0234,42.9981],[11.0278,43.0028],[11.0299,43.0074],[11.0338,43.0128],[11.043,43.0164],[11.0483,43.0216],[11.0457,43.0356],[11.0423,43.0422],[11.0477,43.0422],[11.0533,43.0398],[11.0581,43.0387],[11.0617,43.046],[11.0691,43.0549],[11.0851,43.0639],[11.091,43.0689],[11.0914,43.0708],[11.0903,43.0718],[11.0836,43.0732],[11.0821,43.0763],[11.0818,43.083],[11.0824,43.084],[11.105,43.0878],[11.1108,43.0902],[11.1212,43.0915],[11.1254,43.0911],[11.1276,43.0856],[11.129,43.0848],[11.1385,43.084],[11.1573,43.08],[11.1689,43.0785],[11.1702,43.0788],[11.1731,43.0824],[11.1739,43.0861],[11.183,43.0901],[11.1997,43.0909],[11.2166,43.0871],[11.2226,43.0886],[11.2242,43.0902],[11.2325,43.089],[11.2439,43.0849],[11.2655,43.0832],[11.2705,43.0823],[11.2705,43.0816]]]}},{"type":"Feature","properties":{"i":"053022","n":"Santa Fiora"},"geometry":{"type":"Polygon","coordinates":[[[11.6197,42.8814],[11.6223,42.8754],[11.6246,42.8652],[11.6362,42.8585],[11.6372,42.8493],[11.6341,42.8403],[11.6322,42.8272],[11.6328,42.8244],[11.6352,42.8198],[11.6321,42.8083],[11.6236,42.8041],[11.6257,42.7976],[11.6254,42.7967],[11.6092,42.7802],[11.5972,42.7713],[11.5928,42.769],[11.5906,42.7721],[11.5836,42.7774],[11.5809,42.7849],[11.5796,42.7912],[11.579,42.7946],[11.5801,42.7964],[11.5798,42.7979],[11.5726,42.8002],[11.54,42.7988],[11.5329,42.7977],[11.5322,42.7989],[11.5323,42.8017],[11.5344,42.8129],[11.5323,42.8177],[11.5353,42.8221],[11.5356,42.8245],[11.5406,42.8336],[11.5438,42.8341],[11.5481,42.8375],[11.5586,42.8511],[11.5921,42.871],[11.5974,42.8754],[11.6001,42.8797],[11.6082,42.8777],[11.6197,42.8814]]]}},{"type":"Feature","properties":{"i":"053023","n":"Scansano"},"geometry":{"type":"Polygon","coordinates":[[[11.4575,42.7124],[11.4549,42.7099],[11.457,42.6897],[11.4611,42.6759],[11.4584,42.6713],[11.4553,42.6688],[11.4539,42.6659],[11.4537,42.6619],[11.4567,42.643],[11.4567,42.6378],[11.4448,42.6285],[11.4332,42.6241],[11.4331,42.6228],[11.4356,42.6202],[11.4326,42.6165],[11.4255,42.6147],[11.4225,42.6108],[11.4217,42.6079],[11.4109,42.5951],[11.4075,42.5948],[11.4037,42.5966],[11.3992,42.5971],[11.3952,42.5943],[11.3955,42.5925],[11.3935,42.5869],[11.3883,42.5885],[11.3864,42.5901],[11.3843,42.5965],[11.3753,42.6018],[11.3684,42.6031],[11.3609,42.6081],[11.3595,42.6101],[11.3617,42.6137],[11.3621,42.6166],[11.3606,42.6225],[11.3579,42.6278],[11.3566,42.6415],[11.3544,42.6441],[11.3504,42.6451],[11.339,42.6536],[11.3347,42.6598],[11.3296,42.6648],[11.3164,42.6704],[11.3069,42.6708],[11.2998,42.6665],[11.2895,42.665],[11.288,42.6663],[11.2841,42.6731],[11.2839,42.6788],[11.2751,42.682],[11.2616,42.6816],[11.2606,42.683],[11.2604,42.6865],[11.2634,42.6964],[11.2632,42.7062],[11.2609,42.7131],[11.2576,42.7152],[11.2537,42.7193],[11.2546,42.722],[11.2542,42.7242],[11.251,42.7277],[11.2485,42.729],[11.2479,42.7355],[11.2518,42.7384],[11.2521,42.7405],[11.2411,42.7505],[11.2345,42.7523],[11.2307,42.7555],[11.2291,42.7595],[11.2193,42.7698],[11.2109,42.7758],[11.1942,42.7903],[11.1933,42.7919],[11.1934,42.7934],[11.1973,42.7971],[11.2027,42.7985],[11.2039,42.7974],[11.2049,42.7922],[11.2096,42.7895],[11.2136,42.7892],[11.2344,42.7988],[11.242,42.7985],[11.2429,42.7975],[11.2409,42.7942],[11.2482,42.7896],[11.2615,42.7848],[11.2671,42.7814],[11.2748,42.781],[11.2854,42.7827],[11.2885,42.7846],[11.2916,42.7882],[11.2988,42.7921],[11.3128,42.7943],[11.3224,42.7937],[11.3414,42.8018],[11.3589,42.8066],[11.3752,42.7963],[11.3928,42.7834],[11.3932,42.7809],[11.3923,42.7758],[11.3936,42.7718],[11.402,42.7669],[11.4186,42.759],[11.4321,42.7508],[11.4375,42.7422],[11.4381,42.7327],[11.445,42.7271],[11.4575,42.7124]]]}},{"type":"Feature","properties":{"i":"053024","n":"Scarlino"},"geometry":{"type":"Polygon","coordinates":[[[10.8887,42.8681],[10.8867,42.8655],[10.8773,42.8609],[10.8601,42.857],[10.8525,42.8577],[10.8395,42.8506],[10.8102,42.8472],[10.7986,42.8473],[10.776,42.8437],[10.7745,42.8536],[10.7723,42.8593],[10.7699,42.8626],[10.7707,42.8675],[10.7722,42.8724],[10.7866,42.8884],[10.7851,42.8936],[10.7833,42.8968],[10.7755,42.907],[10.7717,42.9103],[10.7911,42.9262],[10.8005,42.9374],[10.8047,42.9507],[10.8062,42.9601],[10.823,42.9588],[10.8409,42.9628],[10.8536,42.9632],[10.848,42.9514],[10.8457,42.9494],[10.8462,42.9451],[10.8569,42.9358],[10.8651,42.9319],[10.8866,42.9075],[10.8922,42.8996],[10.8867,42.8952],[10.8852,42.8929],[10.8817,42.883],[10.8837,42.8746],[10.8887,42.8681]]]}},{"type":"Feature","properties":{"i":"053025","n":"Seggiano"},"geometry":{"type":"Polygon","coordinates":[[[11.6268,42.9116],[11.6244,42.9052],[11.6253,42.8922],[11.6248,42.8881],[11.6192,42.8932],[11.5996,42.9027],[11.5938,42.9045],[11.5839,42.9064],[11.5739,42.9073],[11.5696,42.9054],[11.5586,42.9075],[11.5462,42.9134],[11.5344,42.9158],[11.527,42.9154],[11.5235,42.9179],[11.5199,42.924],[11.519,42.93],[11.5191,42.9365],[11.5204,42.9392],[11.5215,42.9507],[11.5269,42.965],[11.5262,42.9678],[11.5271,42.9666],[11.5308,42.9653],[11.5384,42.9636],[11.5683,42.9704],[11.5713,42.9703],[11.5841,42.9629],[11.588,42.9582],[11.5959,42.9509],[11.6099,42.9514],[11.623,42.9296],[11.6229,42.9201],[11.6265,42.9136],[11.6268,42.9116]]]}},{"type":"Feature","properties":{"i":"053026","n":"Sorano"},"geometry":{"type":"Polygon","coordinates":[[[11.8187,42.7458],[11.8196,42.745],[11.8189,42.7429],[11.8088,42.7313],[11.8016,42.7072],[11.7971,42.7065],[11.7814,42.7075],[11.78,42.7053],[11.7821,42.7008],[11.7854,42.6875],[11.7843,42.6795],[11.7852,42.6722],[11.7862,42.6706],[11.7999,42.6685],[11.8066,42.6622],[11.8089,42.6587],[11.8093,42.653],[11.8048,42.644],[11.7936,42.6429],[11.784,42.6449],[11.7601,42.6577],[11.7554,42.6588],[11.75,42.6587],[11.7448,42.6572],[11.7401,42.6536],[11.7363,42.6521],[11.7137,42.6512],[11.7098,42.6523],[11.7081,42.6546],[11.7024,42.6592],[11.697,42.6614],[11.6912,42.6623],[11.685,42.6617],[11.6777,42.6561],[11.6726,42.6491],[11.6669,42.6456],[11.6325,42.6364],[11.6016,42.6221],[11.5908,42.6231],[11.5867,42.6197],[11.5882,42.6175],[11.5881,42.6162],[11.5857,42.6188],[11.5821,42.6201],[11.5807,42.6242],[11.5864,42.6335],[11.6046,42.6427],[11.6113,42.6436],[11.6137,42.6451],[11.6202,42.652],[11.6214,42.657],[11.6203,42.659],[11.6179,42.6605],[11.6195,42.6714],[11.6234,42.6841],[11.6198,42.6933],[11.6194,42.6962],[11.6202,42.699],[11.6162,42.7148],[11.6268,42.7233],[11.643,42.7312],[11.6565,42.7357],[11.6631,42.7412],[11.6642,42.7446],[11.6727,42.7502],[11.6843,42.7459],[11.6935,42.7444],[11.7012,42.7455],[11.7067,42.7515],[11.7051,42.7559],[11.7145,42.7626],[11.7192,42.7634],[11.7262,42.761],[11.7329,42.7608],[11.7402,42.7633],[11.7412,42.7641],[11.7412,42.7666],[11.7401,42.7728],[11.7413,42.774],[11.743,42.775],[11.7607,42.7781],[11.7628,42.7799],[11.7769,42.767],[11.7803,42.7623],[11.7789,42.7601],[11.7794,42.758],[11.8086,42.7532],[11.8125,42.7499],[11.8134,42.7459],[11.8187,42.7458]]]}},{"type":"Feature","properties":{"i":"053027","n":"Monterotondo Marittimo"},"geometry":{"type":"Polygon","coordinates":[[[10.9087,43.1598],[10.9133,43.1512],[10.9238,43.1463],[10.9236,43.1446],[10.9275,43.1426],[10.9239,43.1393],[10.9247,43.1316],[10.892,43.1139],[10.8795,43.1044],[10.8739,43.1036],[10.8597,43.1046],[10.8407,43.0926],[10.8269,43.0904],[10.8158,43.0888],[10.8087,43.0894],[10.8068,43.0898],[10.8046,43.0929],[10.797,43.0937],[10.7814,43.0862],[10.7689,43.0871],[10.7645,43.0854],[10.7626,43.0838],[10.7593,43.0783],[10.7561,43.0756],[10.7474,43.0732],[10.7418,43.071],[10.7381,43.0685],[10.7274,43.0667],[10.7246,43.0672],[10.7131,43.0722],[10.7129,43.0729],[10.7163,43.0774],[10.7181,43.0782],[10.7215,43.0782],[10.7227,43.079],[10.725,43.084],[10.7234,43.0874],[10.7239,43.0965],[10.7252,43.0983],[10.7175,43.1088],[10.7234,43.1116],[10.7303,43.1136],[10.7351,43.118],[10.7354,43.1201],[10.7475,43.1228],[10.7506,43.1272],[10.7508,43.1334],[10.7499,43.137],[10.7554,43.1501],[10.7601,43.1529],[10.7638,43.1527],[10.7629,43.1503],[10.7633,43.147],[10.7646,43.1449],[10.7681,43.1431],[10.7919,43.1585],[10.8005,43.1626],[10.8065,43.1622],[10.8108,43.1603],[10.815,43.1566],[10.8145,43.1551],[10.818,43.1513],[10.8402,43.1583],[10.8415,43.1605],[10.8395,43.1639],[10.8448,43.1649],[10.8554,43.1588],[10.8661,43.1571],[10.8762,43.1573],[10.8953,43.1612],[10.9087,43.1598]]]}},{"type":"Feature","properties":{"i":"053028","n":"Semproniano"},"geometry":{"type":"Polygon","coordinates":[[[11.5928,42.769],[11.6,42.761],[11.6047,42.7532],[11.6084,42.7389],[11.6156,42.7188],[11.6184,42.7072],[11.6202,42.699],[11.6194,42.6962],[11.6198,42.6933],[11.6234,42.6841],[11.6217,42.6794],[11.6173,42.6824],[11.6035,42.6867],[11.5901,42.6844],[11.5757,42.6803],[11.5656,42.6811],[11.556,42.6922],[11.546,42.6958],[11.5188,42.6881],[11.5172,42.6884],[11.5197,42.6936],[11.5188,42.697],[11.506,42.6966],[11.4918,42.6951],[11.488,42.694],[11.4847,42.6978],[11.4833,42.7007],[11.4823,42.7072],[11.4865,42.7117],[11.4902,42.7105],[11.4921,42.7162],[11.4917,42.7182],[11.4867,42.7239],[11.487,42.7265],[11.4888,42.7296],[11.4894,42.7365],[11.4885,42.7383],[11.4892,42.7403],[11.4923,42.7409],[11.5023,42.7407],[11.5052,42.7396],[11.507,42.7376],[11.5098,42.7373],[11.5162,42.74],[11.5193,42.7434],[11.5194,42.7476],[11.5239,42.7575],[11.5254,42.7591],[11.5433,42.7666],[11.5494,42.7717],[11.5664,42.7753],[11.5836,42.7778],[11.584,42.7768],[11.5906,42.7721],[11.5928,42.769]]]}}]}
