{"type":"FeatureCollection","fonte":"Confini comunali ISTAT via openpolis/geojson-italy — CC BY 4.0","features":[{"type":"Feature","properties":{"i":"008001","n":"Airole"},"geometry":{"type":"Polygon","coordinates":[[[7.5843,43.8724],[7.5829,43.8655],[7.5794,43.8551],[7.5724,43.8465],[7.5647,43.8495],[7.5629,43.8519],[7.5595,43.8538],[7.5463,43.8551],[7.5409,43.8536],[7.5382,43.8541],[7.5355,43.8605],[7.552,43.8652],[7.5532,43.8678],[7.5445,43.873],[7.5387,43.8752],[7.5361,43.882],[7.5437,43.8864],[7.5497,43.8884],[7.551,43.8898],[7.5517,43.8943],[7.5626,43.9007],[7.5791,43.8906],[7.5803,43.8828],[7.579,43.8814],[7.5789,43.8791],[7.5843,43.8724]]]}},{"type":"Feature","properties":{"i":"008002","n":"Apricale"},"geometry":{"type":"MultiPolygon","coordinates":[[[[7.6871,43.9136],[7.687,43.91],[7.689,43.9069],[7.6887,43.8978],[7.6871,43.8883],[7.692,43.884],[7.7034,43.8863],[7.718,43.8816],[7.7255,43.8761],[7.7231,43.865],[7.7192,43.8662],[7.7087,43.8727],[7.7026,43.879],[7.7004,43.8796],[7.6897,43.8803],[7.6831,43.8784],[7.6787,43.8756],[7.6515,43.8666],[7.6439,43.873],[7.6449,43.8765],[7.6439,43.8785],[7.6464,43.888],[7.6504,43.8991],[7.6577,43.9052],[7.6533,43.9087],[7.6638,43.9125],[7.6665,43.9076],[7.6711,43.9084],[7.6711,43.9128],[7.6791,43.9147],[7.6871,43.9136]]],[[[7.6279,43.9284],[7.6247,43.9265],[7.6212,43.9255],[7.6143,43.9265],[7.6094,43.9253],[7.6035,43.9258],[7.5992,43.9275],[7.5954,43.9278],[7.5876,43.927],[7.5866,43.9258],[7.5875,43.9335],[7.5931,43.9318],[7.6009,43.9322],[7.6039,43.9332],[7.603,43.9442],[7.6091,43.9392],[7.6279,43.9284]]]]}},{"type":"Feature","properties":{"i":"008003","n":"Aquila d'Arroscia"},"geometry":{"type":"Polygon","coordinates":[[[8.0156,44.1107],[8.0181,44.1125],[8.0217,44.1078],[8.0206,44.1013],[8.0222,44.0965],[8.0286,44.0952],[8.0296,44.0839],[8.0292,44.0818],[8.0285,44.0816],[8.0149,44.0792],[8.0137,44.0769],[8.0143,44.0729],[8.0127,44.0726],[8.009,44.0727],[8.0071,44.0764],[7.995,44.088],[7.9947,44.0921],[7.9865,44.0995],[7.9826,44.1022],[7.9747,44.1022],[7.9668,44.1057],[7.9647,44.1109],[7.9715,44.1131],[7.9897,44.1086],[8.0046,44.1023],[8.011,44.1042],[8.0156,44.1107]]]}},{"type":"Feature","properties":{"i":"008004","n":"Armo"},"geometry":{"type":"Polygon","coordinates":[[[7.9354,44.101],[7.9158,44.0815],[7.9047,44.0801],[7.9003,44.0804],[7.8845,44.086],[7.8857,44.0875],[7.8846,44.0921],[7.8809,44.0963],[7.8811,44.0985],[7.8839,44.1047],[7.9019,44.1077],[7.9161,44.1091],[7.9212,44.1087],[7.926,44.1103],[7.9354,44.101]]]}},{"type":"Feature","properties":{"i":"008005","n":"Aurigo"},"geometry":{"type":"Polygon","coordinates":[[[7.9121,44.0069],[7.9173,44.0055],[7.9212,44.0021],[7.9249,44.0001],[7.9283,43.9989],[7.9325,43.9987],[7.9384,43.9768],[7.9183,43.9765],[7.9056,43.9795],[7.9017,43.9827],[7.9014,43.9881],[7.887,44.0007],[7.8871,44.0048],[7.8921,44.0073],[7.8967,44.0066],[7.9121,44.0069]]]}},{"type":"Feature","properties":{"i":"008006","n":"Badalucco"},"geometry":{"type":"Polygon","coordinates":[[[7.7738,43.9421],[7.7796,43.9381],[7.7924,43.9349],[7.7987,43.9345],[7.8119,43.9314],[7.8223,43.9264],[7.8251,43.9212],[7.84,43.9207],[7.8438,43.9229],[7.8608,43.9183],[7.8641,43.9165],[7.8703,43.9112],[7.8747,43.9095],[7.8752,43.9085],[7.8677,43.9095],[7.8599,43.908],[7.8542,43.9058],[7.8488,43.901],[7.8433,43.8992],[7.8388,43.9001],[7.8293,43.904],[7.8125,43.9127],[7.802,43.914],[7.7984,43.9136],[7.7977,43.9129],[7.7775,43.916],[7.7749,43.918],[7.7758,43.9237],[7.772,43.9316],[7.7668,43.9362],[7.7641,43.9405],[7.7641,43.9413],[7.7738,43.9421]]]}},{"type":"Feature","properties":{"i":"008007","n":"Bajardo"},"geometry":{"type":"Polygon","coordinates":[[[7.7641,43.9413],[7.7668,43.9362],[7.772,43.9316],[7.7758,43.9237],[7.7749,43.918],[7.7775,43.916],[7.78,43.9154],[7.7751,43.9101],[7.7636,43.908],[7.7604,43.9084],[7.7547,43.9111],[7.748,43.913],[7.7453,43.9129],[7.7306,43.905],[7.7271,43.8992],[7.735,43.879],[7.7349,43.8758],[7.7231,43.865],[7.7255,43.8761],[7.718,43.8816],[7.7034,43.8863],[7.692,43.884],[7.6871,43.8883],[7.6887,43.8978],[7.689,43.9069],[7.687,43.91],[7.6871,43.9136],[7.704,43.9122],[7.7064,43.9154],[7.7084,43.9206],[7.7152,43.926],[7.7426,43.9292],[7.7544,43.9373],[7.7576,43.9406],[7.7589,43.9432],[7.7641,43.9413]]]}},{"type":"Feature","properties":{"i":"008008","n":"Bordighera"},"geometry":{"type":"Polygon","coordinates":[[[7.6967,43.8107],[7.6997,43.809],[7.699,43.8055],[7.7001,43.8013],[7.7026,43.7988],[7.7,43.7987],[7.6969,43.797],[7.6853,43.7856],[7.676,43.7791],[7.6741,43.7766],[7.6728,43.7762],[7.6649,43.7774],[7.6462,43.7815],[7.6544,43.7982],[7.6582,43.8082],[7.6683,43.8076],[7.6967,43.8107]]]}},{"type":"Feature","properties":{"i":"008009","n":"Borghetto d'Arroscia"},"geometry":{"type":"Polygon","coordinates":[[[8.009,44.0727],[8.0086,44.0709],[8.0073,44.0706],[7.999,44.0717],[7.9923,44.0716],[7.9847,44.0609],[7.9843,44.059],[7.9895,44.0555],[8.0154,44.0539],[8.0175,44.0498],[8.0176,44.0471],[8.0134,44.0391],[8.0058,44.0346],[7.9971,44.0332],[7.9879,44.033],[7.986,44.0284],[7.9855,44.0298],[7.9835,44.0312],[7.9774,44.0344],[7.9719,44.0337],[7.9641,44.0404],[7.9668,44.0426],[7.9753,44.0436],[7.9767,44.0455],[7.9759,44.0484],[7.9688,44.0531],[7.9648,44.061],[7.9632,44.0663],[7.9573,44.0742],[7.9454,44.0837],[7.9443,44.0907],[7.945,44.0932],[7.9424,44.1001],[7.9447,44.1019],[7.9542,44.1026],[7.958,44.1037],[7.962,44.1063],[7.9647,44.1109],[7.9668,44.1057],[7.9747,44.1022],[7.9826,44.1022],[7.9898,44.0969],[7.9947,44.0921],[7.995,44.088],[8.0071,44.0764],[8.009,44.0727]]]}},{"type":"Feature","properties":{"i":"008010","n":"Borgomaro"},"geometry":{"type":"Polygon","coordinates":[[[7.9325,43.9987],[7.9362,43.9976],[7.9419,43.9915],[7.948,43.9881],[7.9688,43.9842],[7.9709,43.9763],[7.9507,43.9737],[7.9448,43.9705],[7.937,43.9582],[7.9302,43.9571],[7.9174,43.9532],[7.9138,43.9536],[7.9077,43.9562],[7.9012,43.9573],[7.8968,43.9562],[7.888,43.9512],[7.8754,43.97],[7.8716,43.979],[7.8675,43.9836],[7.8615,43.987],[7.8729,44.0002],[7.8806,44.0037],[7.887,44.0047],[7.8871,44.0003],[7.8907,43.998],[7.9014,43.9881],[7.9017,43.9827],[7.9056,43.9795],[7.9183,43.9765],[7.9384,43.9768],[7.9325,43.9987]]]}},{"type":"Feature","properties":{"i":"008011","n":"Camporosso"},"geometry":{"type":"Polygon","coordinates":[[[7.6332,43.8405],[7.6362,43.8382],[7.6388,43.8335],[7.638,43.8251],[7.6395,43.806],[7.6407,43.8035],[7.6429,43.8031],[7.6435,43.8022],[7.6428,43.7977],[7.6346,43.7874],[7.6332,43.7836],[7.6311,43.7841],[7.6301,43.7913],[7.6242,43.7952],[7.6228,43.7954],[7.619,43.7934],[7.6133,43.7958],[7.6052,43.8015],[7.6021,43.8048],[7.5998,43.8143],[7.5924,43.8206],[7.5897,43.8249],[7.5876,43.8327],[7.5869,43.838],[7.6014,43.8439],[7.6048,43.8445],[7.6068,43.8459],[7.6068,43.8479],[7.6105,43.8438],[7.6109,43.8397],[7.6117,43.8388],[7.6197,43.8372],[7.6294,43.8372],[7.6332,43.8405]]]}},{"type":"Feature","properties":{"i":"008012","n":"Caravonica"},"geometry":{"type":"Polygon","coordinates":[[[7.9699,44.0006],[7.9677,43.9899],[7.9688,43.9842],[7.948,43.9881],[7.9419,43.9915],[7.9362,43.9976],[7.9393,43.9973],[7.9426,43.9991],[7.944,44.0006],[7.9447,44.003],[7.9506,44.0093],[7.965,44.0054],[7.9699,44.0006]]]}},{"type":"Feature","properties":{"i":"008014","n":"Castellaro"},"geometry":{"type":"Polygon","coordinates":[[[7.885,43.8777],[7.8836,43.873],[7.8803,43.8672],[7.8834,43.8573],[7.8821,43.8549],[7.8751,43.8499],[7.8647,43.8459],[7.8656,43.8489],[7.8654,43.8602],[7.8644,43.8672],[7.8586,43.8818],[7.8567,43.8825],[7.8533,43.8889],[7.8545,43.8942],[7.878,43.8977],[7.8746,43.8824],[7.8761,43.8805],[7.885,43.8777]]]}},{"type":"Feature","properties":{"i":"008015","n":"Castel Vittorio"},"geometry":{"type":"Polygon","coordinates":[[[7.7448,43.9643],[7.749,43.9621],[7.7504,43.9604],[7.7537,43.9488],[7.759,43.9426],[7.7544,43.9373],[7.7472,43.9319],[7.7424,43.9292],[7.7273,43.9279],[7.7152,43.926],[7.7084,43.9206],[7.7064,43.9154],[7.704,43.9122],[7.6964,43.9125],[7.6791,43.9147],[7.6711,43.9128],[7.6667,43.9129],[7.6666,43.9251],[7.6687,43.93],[7.6772,43.9335],[7.6822,43.9383],[7.6908,43.952],[7.6957,43.9522],[7.6999,43.9537],[7.7083,43.9605],[7.7094,43.9616],[7.7106,43.9691],[7.7133,43.9714],[7.7223,43.9704],[7.7369,43.9652],[7.7448,43.9643]],[[7.7269,43.9538],[7.7215,43.9527],[7.7123,43.9446],[7.7074,43.9423],[7.7115,43.9414],[7.724,43.9443],[7.7263,43.9456],[7.7351,43.9467],[7.7358,43.9485],[7.7317,43.9516],[7.7269,43.9538]]]}},{"type":"Feature","properties":{"i":"008016","n":"Ceriana"},"geometry":{"type":"Polygon","coordinates":[[[7.7977,43.9129],[7.7978,43.9076],[7.7958,43.9001],[7.8048,43.8957],[7.8146,43.8935],[7.8153,43.8925],[7.8161,43.883],[7.8069,43.8672],[7.811,43.8619],[7.8117,43.8586],[7.8067,43.8517],[7.7972,43.8482],[7.7941,43.8477],[7.7943,43.8524],[7.7962,43.8571],[7.7839,43.8596],[7.7739,43.8634],[7.7707,43.8679],[7.7678,43.8699],[7.7591,43.8716],[7.7452,43.8709],[7.7349,43.8758],[7.735,43.879],[7.7271,43.8992],[7.7306,43.905],[7.7453,43.9129],[7.748,43.913],[7.7547,43.9111],[7.7604,43.9084],[7.7636,43.908],[7.7751,43.9101],[7.78,43.9154],[7.7977,43.9129]]]}},{"type":"Feature","properties":{"i":"008017","n":"Cervo"},"geometry":{"type":"Polygon","coordinates":[[[8.1072,43.9209],[8.1046,43.9269],[8.105,43.9319],[8.1092,43.9376],[8.1128,43.9402],[8.1229,43.943],[8.1238,43.939],[8.1354,43.939],[8.1333,43.9321],[8.1283,43.9267],[8.1173,43.9251],[8.1072,43.9209]]]}},{"type":"Feature","properties":{"i":"008018","n":"Cesio"},"geometry":{"type":"Polygon","coordinates":[[[7.9857,44.0277],[7.9777,44.0209],[7.9775,44.0194],[7.9795,44.0139],[7.9821,44.0117],[7.9892,44.0093],[7.992,44.0062],[8.0014,44.0012],[8.0027,43.9986],[8.0017,43.9967],[7.9907,43.9991],[7.9755,43.999],[7.9699,44.0006],[7.965,44.0054],[7.9506,44.0093],[7.9519,44.0102],[7.9517,44.0204],[7.9436,44.0246],[7.9424,44.0271],[7.9427,44.0293],[7.952,44.0288],[7.9582,44.0317],[7.967,44.0335],[7.9685,44.0324],[7.9678,44.0304],[7.9682,44.0293],[7.9719,44.0267],[7.9857,44.0277]]]}},{"type":"Feature","properties":{"i":"008019","n":"Chiusanico"},"geometry":{"type":"Polygon","coordinates":[[[8.0017,43.9967],[8.0061,43.9886],[8.0169,43.9793],[8.016,43.977],[8.0176,43.9739],[8.0203,43.961],[8.0117,43.9568],[8.0088,43.9564],[8.0029,43.9517],[7.9983,43.953],[7.9925,43.9575],[7.9895,43.9623],[7.9914,43.9633],[7.9909,43.966],[7.9863,43.9742],[7.9814,43.9753],[7.98,43.974],[7.9789,43.9708],[7.9709,43.9763],[7.9677,43.9899],[7.9699,44.0006],[7.9755,43.999],[7.9907,43.9991],[8.0017,43.9967]]]}},{"type":"Feature","properties":{"i":"008020","n":"Chiusavecchia"},"geometry":{"type":"Polygon","coordinates":[[[8.0117,43.9568],[8.0042,43.946],[8.0018,43.9439],[7.9947,43.9508],[7.9785,43.946],[7.967,43.9466],[7.9843,43.9647],[7.9849,43.9665],[7.9789,43.9708],[7.98,43.974],[7.9814,43.9753],[7.9863,43.9742],[7.9909,43.966],[7.9914,43.9633],[7.9895,43.9623],[7.9899,43.9613],[7.9925,43.9575],[7.9983,43.953],[8.0029,43.9517],[8.0088,43.9564],[8.0117,43.9568]]]}},{"type":"Feature","properties":{"i":"008021","n":"Cipressa"},"geometry":{"type":"Polygon","coordinates":[[[7.9531,43.8635],[7.9527,43.8618],[7.9419,43.8637],[7.9322,43.8596],[7.9296,43.8572],[7.9451,43.8506],[7.9493,43.847],[7.9409,43.8454],[7.9201,43.8441],[7.9165,43.8431],[7.9155,43.8414],[7.9124,43.8496],[7.9132,43.8536],[7.9107,43.8537],[7.9089,43.8561],[7.9107,43.8633],[7.9097,43.872],[7.9204,43.8768],[7.9297,43.8778],[7.9354,43.8755],[7.9422,43.8769],[7.9443,43.8786],[7.9501,43.8718],[7.9531,43.8635]]]}},{"type":"Feature","properties":{"i":"008022","n":"Civezza"},"geometry":{"type":"Polygon","coordinates":[[[7.9642,43.8679],[7.9623,43.8665],[7.9626,43.8638],[7.9612,43.8626],[7.956,43.862],[7.9541,43.8626],[7.9514,43.8671],[7.9501,43.8718],[7.9473,43.8758],[7.9412,43.8823],[7.9366,43.8848],[7.9347,43.8882],[7.9442,43.8908],[7.955,43.887],[7.9651,43.8784],[7.9665,43.8743],[7.9659,43.8712],[7.9642,43.8679]]]}},{"type":"Feature","properties":{"i":"008023","n":"Cosio d'Arroscia"},"geometry":{"type":"Polygon","coordinates":[[[7.8434,44.1203],[7.8458,44.1111],[7.8517,44.099],[7.8494,44.0958],[7.8497,44.0673],[7.8466,44.0668],[7.8452,44.0674],[7.8398,44.0633],[7.8345,44.0547],[7.8302,44.0545],[7.825,44.055],[7.8246,44.0622],[7.826,44.0659],[7.8261,44.0693],[7.8149,44.0736],[7.816,44.0759],[7.8163,44.0824],[7.8108,44.0897],[7.8026,44.0914],[7.7942,44.0958],[7.783,44.0984],[7.7753,44.0972],[7.7727,44.0956],[7.7638,44.1014],[7.7633,44.1027],[7.7642,44.1058],[7.7617,44.1083],[7.7556,44.1115],[7.7399,44.1184],[7.7275,44.1217],[7.7231,44.1208],[7.7246,44.1247],[7.7279,44.1273],[7.7374,44.1281],[7.746,44.1354],[7.7638,44.1407],[7.7764,44.1386],[7.8153,44.1232],[7.8398,44.1197],[7.8434,44.1203]]]}},{"type":"Feature","properties":{"i":"008024","n":"Costarainera"},"geometry":{"type":"Polygon","coordinates":[[[7.9527,43.8618],[7.957,43.8587],[7.9568,43.8501],[7.9493,43.847],[7.9451,43.8506],[7.9296,43.8572],[7.9322,43.8596],[7.9419,43.8637],[7.9527,43.8618]]]}},{"type":"Feature","properties":{"i":"008025","n":"Diano Arentino"},"geometry":{"type":"Polygon","coordinates":[[[8.0588,43.9391],[8.0446,43.9384],[8.0408,43.932],[8.0401,43.9273],[8.0381,43.9279],[8.0345,43.9319],[8.0333,43.9371],[8.0328,43.9468],[8.0291,43.9515],[8.0246,43.9544],[8.0207,43.9587],[8.0176,43.9739],[8.016,43.977],[8.0169,43.9793],[8.0333,43.9817],[8.0392,43.9787],[8.0387,43.9706],[8.0365,43.9648],[8.0371,43.9633],[8.0399,43.9596],[8.0467,43.9547],[8.0516,43.9502],[8.0552,43.9413],[8.0588,43.9391]]]}},{"type":"Feature","properties":{"i":"008026","n":"Diano Castello"},"geometry":{"type":"Polygon","coordinates":[[[8.0863,43.9333],[8.0907,43.9239],[8.0846,43.9237],[8.0807,43.9183],[8.08,43.9161],[8.0711,43.9129],[8.0684,43.9172],[8.063,43.92],[8.048,43.9171],[8.0398,43.9285],[8.0408,43.932],[8.0446,43.9384],[8.0588,43.9391],[8.0628,43.9357],[8.0728,43.9247],[8.0768,43.9224],[8.0793,43.9236],[8.0863,43.9333]]]}},{"type":"Feature","properties":{"i":"008027","n":"Diano Marina"},"geometry":{"type":"Polygon","coordinates":[[[8.0907,43.9239],[8.0943,43.9168],[8.0882,43.9127],[8.0785,43.9045],[8.0772,43.901],[8.0806,43.8978],[8.0772,43.894],[8.0715,43.8908],[8.0564,43.9005],[8.0498,43.91],[8.048,43.9171],[8.063,43.92],[8.0684,43.9172],[8.0711,43.9129],[8.08,43.9161],[8.0807,43.9183],[8.0846,43.9237],[8.0907,43.9239]]]}},{"type":"Feature","properties":{"i":"008028","n":"Diano San Pietro"},"geometry":{"type":"Polygon","coordinates":[[[8.0533,43.9812],[8.0517,43.9803],[8.0538,43.9744],[8.0625,43.9661],[8.0689,43.9632],[8.0739,43.9633],[8.0765,43.9608],[8.0773,43.9523],[8.0843,43.9354],[8.0863,43.9333],[8.0793,43.9236],[8.0768,43.9224],[8.0728,43.9247],[8.0628,43.9357],[8.0552,43.9413],[8.0516,43.9502],[8.0393,43.9601],[8.0367,43.964],[8.0387,43.9706],[8.0394,43.9784],[8.0333,43.9817],[8.0533,43.9812]]]}},{"type":"Feature","properties":{"i":"008029","n":"Dolceacqua"},"geometry":{"type":"Polygon","coordinates":[[[7.6152,43.8986],[7.619,43.8967],[7.6196,43.8919],[7.6224,43.8833],[7.6273,43.8743],[7.6306,43.8729],[7.6403,43.8718],[7.6439,43.873],[7.6515,43.8666],[7.6486,43.8592],[7.6473,43.8459],[7.6332,43.8405],[7.6294,43.8372],[7.6197,43.8372],[7.6117,43.8388],[7.6109,43.8397],[7.6105,43.8438],[7.6047,43.8514],[7.6045,43.8564],[7.606,43.859],[7.6056,43.8608],[7.603,43.8632],[7.5912,43.87],[7.5843,43.8724],[7.5789,43.8791],[7.579,43.8814],[7.5803,43.8828],[7.5791,43.8906],[7.5626,43.9007],[7.5629,43.9023],[7.5635,43.9023],[7.5769,43.9003],[7.5859,43.8928],[7.596,43.8796],[7.6026,43.8787],[7.6059,43.8801],[7.6107,43.8875],[7.6124,43.8929],[7.6117,43.8949],[7.6152,43.8986]]]}},{"type":"Feature","properties":{"i":"008030","n":"Dolcedo"},"geometry":{"type":"Polygon","coordinates":[[[7.9482,43.9187],[7.9555,43.9163],[7.9612,43.9168],[7.9628,43.9156],[7.9685,43.9073],[7.9665,43.9028],[7.9642,43.9004],[7.9609,43.8989],[7.9563,43.8986],[7.9478,43.8928],[7.9469,43.8914],[7.9473,43.8892],[7.9442,43.8908],[7.9379,43.8894],[7.9308,43.8864],[7.9269,43.8867],[7.9123,43.8928],[7.8805,43.901],[7.8747,43.9095],[7.8772,43.9141],[7.8806,43.9174],[7.88,43.9239],[7.8921,43.9207],[7.9062,43.9187],[7.9121,43.919],[7.9136,43.9198],[7.9262,43.9201],[7.9446,43.9183],[7.9482,43.9187]]]}},{"type":"Feature","properties":{"i":"008031","n":"Imperia"},"geometry":{"type":"Polygon","coordinates":[[[8.0401,43.9273],[8.048,43.9171],[8.0498,43.91],[8.0564,43.9005],[8.0711,43.8905],[8.0669,43.889],[8.0562,43.8875],[8.0447,43.887],[8.034,43.8845],[8.0234,43.8801],[8.022,43.8766],[8.015,43.872],[8.0047,43.8698],[7.9952,43.8661],[7.9781,43.8628],[7.9701,43.8604],[7.9642,43.8679],[7.9659,43.8712],[7.9665,43.8743],[7.9651,43.8784],[7.955,43.887],[7.9473,43.8892],[7.9469,43.8914],[7.9478,43.8928],[7.9563,43.8986],[7.9609,43.8989],[7.9642,43.9004],[7.9665,43.9028],[7.9685,43.9073],[7.9628,43.9156],[7.9612,43.9168],[7.9629,43.9233],[7.9711,43.9304],[7.9902,43.9257],[7.9954,43.9201],[7.9976,43.9199],[8.0223,43.9294],[8.0274,43.9354],[8.0266,43.9406],[8.0272,43.944],[8.0311,43.9455],[8.0334,43.9448],[8.0333,43.9371],[8.0347,43.9316],[8.0383,43.9277],[8.0401,43.9273]]]}},{"type":"Feature","properties":{"i":"008032","n":"Isolabona"},"geometry":{"type":"MultiPolygon","coordinates":[[[[7.6711,43.9128],[7.6711,43.9084],[7.6665,43.9076],[7.6638,43.9125],[7.6711,43.9128]]],[[[7.6533,43.9087],[7.6577,43.9052],[7.6504,43.8991],[7.6464,43.888],[7.6439,43.8785],[7.6449,43.8765],[7.6439,43.873],[7.6403,43.8718],[7.6306,43.8729],[7.6273,43.8743],[7.6224,43.8833],[7.6196,43.8919],[7.619,43.8967],[7.6152,43.8986],[7.618,43.9033],[7.617,43.9044],[7.6184,43.9089],[7.6198,43.9109],[7.6271,43.9105],[7.6353,43.9034],[7.6413,43.9017],[7.6448,43.9101],[7.6442,43.9108],[7.6219,43.913],[7.6146,43.9163],[7.6121,43.9262],[7.6143,43.9265],[7.6212,43.9255],[7.6247,43.9265],[7.6279,43.9284],[7.6324,43.9268],[7.6291,43.9217],[7.6332,43.9153],[7.6396,43.9137],[7.6475,43.9157],[7.6494,43.9154],[7.651,43.9117],[7.6495,43.9091],[7.6502,43.9072],[7.6509,43.9068],[7.6533,43.9087]]],[[[7.603,43.9442],[7.6039,43.9332],[7.6009,43.9322],[7.5931,43.9318],[7.5875,43.9335],[7.5927,43.9389],[7.603,43.9442]]]]}},{"type":"Feature","properties":{"i":"008033","n":"Lucinasco"},"geometry":{"type":"Polygon","coordinates":[[[7.9789,43.9708],[7.9849,43.9665],[7.9843,43.9647],[7.967,43.9466],[7.9612,43.9458],[7.9462,43.956],[7.9387,43.9562],[7.937,43.9582],[7.9448,43.9705],[7.9507,43.9737],[7.9709,43.9763],[7.9789,43.9708]]]}},{"type":"Feature","properties":{"i":"008034","n":"Mendatica"},"geometry":{"type":"Polygon","coordinates":[[[7.8149,44.0736],[7.811,44.0723],[7.8011,44.0665],[7.7922,44.0651],[7.7905,44.0641],[7.7885,44.0612],[7.7878,44.0553],[7.7825,44.0498],[7.7749,44.0449],[7.7688,44.0495],[7.7568,44.0549],[7.7554,44.0657],[7.7499,44.0742],[7.7489,44.0796],[7.754,44.0825],[7.7594,44.0843],[7.7549,44.085],[7.7392,44.0835],[7.7329,44.0836],[7.718,44.1036],[7.7188,44.109],[7.7232,44.1152],[7.7231,44.1208],[7.7275,44.1217],[7.7399,44.1184],[7.7556,44.1115],[7.7617,44.1083],[7.7642,44.1058],[7.7633,44.1027],[7.7638,44.1014],[7.7727,44.0956],[7.7753,44.0972],[7.783,44.0984],[7.7942,44.0958],[7.8026,44.0914],[7.8108,44.0897],[7.8163,44.0824],[7.816,44.0759],[7.8149,44.0736]]]}},{"type":"Feature","properties":{"i":"008035","n":"Molini di Triora"},"geometry":{"type":"Polygon","coordinates":[[[7.7792,44.0431],[7.7945,44.0399],[7.8,44.0367],[7.7998,44.0335],[7.8036,44.0233],[7.8073,44.0197],[7.8077,44.0121],[7.8081,44.01],[7.81,44.0074],[7.8126,44.0059],[7.8201,44.0045],[7.8317,43.9984],[7.8424,43.9898],[7.8488,43.9857],[7.8507,43.9799],[7.8452,43.9735],[7.8327,43.969],[7.829,43.966],[7.8351,43.9589],[7.8426,43.9461],[7.8431,43.9445],[7.8375,43.9396],[7.8321,43.9398],[7.8313,43.9405],[7.8328,43.941],[7.8244,43.9435],[7.8209,43.9415],[7.8153,43.9406],[7.7899,43.9416],[7.7767,43.9437],[7.7738,43.9421],[7.7641,43.9413],[7.7589,43.9432],[7.7547,43.9473],[7.7504,43.9604],[7.749,43.9621],[7.7448,43.9643],[7.7459,43.9749],[7.7499,43.982],[7.7537,43.9866],[7.7554,43.9877],[7.7676,43.9865],[7.7725,43.9919],[7.7706,44.0001],[7.7679,44.0032],[7.76,44.0222],[7.7604,44.0231],[7.7626,44.0238],[7.773,44.0251],[7.774,44.0296],[7.7792,44.0431]]]}},{"type":"Feature","properties":{"i":"008037","n":"Montegrosso Pian Latte"},"geometry":{"type":"Polygon","coordinates":[[[7.8149,44.0736],[7.8261,44.0693],[7.826,44.0659],[7.8246,44.0622],[7.825,44.055],[7.8209,44.0419],[7.8162,44.0399],[7.8029,44.0383],[7.8,44.0367],[7.7945,44.0399],[7.7792,44.0431],[7.7749,44.0449],[7.7825,44.0498],[7.7878,44.0553],[7.7885,44.0612],[7.7905,44.0641],[7.7922,44.0651],[7.8011,44.0665],[7.811,44.0723],[7.8149,44.0736]]]}},{"type":"Feature","properties":{"i":"008038","n":"Olivetta San Michele"},"geometry":{"type":"Polygon","coordinates":[[[7.5355,43.8605],[7.5312,43.8604],[7.5263,43.8519],[7.5182,43.8482],[7.5027,43.845],[7.5009,43.845],[7.499,43.8461],[7.4953,43.855],[7.4953,43.8622],[7.5027,43.875],[7.5101,43.8804],[7.5152,43.8838],[7.5301,43.8892],[7.5381,43.8934],[7.5517,43.8943],[7.551,43.8898],[7.5497,43.8884],[7.5437,43.8864],[7.5361,43.882],[7.5387,43.8752],[7.5445,43.873],[7.5532,43.8678],[7.552,43.8652],[7.5355,43.8605]]]}},{"type":"Feature","properties":{"i":"008039","n":"Ospedaletti"},"geometry":{"type":"Polygon","coordinates":[[[7.74,43.7969],[7.7403,43.7965],[7.7388,43.7954],[7.7368,43.7953],[7.7131,43.8009],[7.7026,43.7988],[7.7001,43.8013],[7.699,43.8055],[7.6997,43.809],[7.6967,43.8107],[7.6947,43.8162],[7.7088,43.8239],[7.7119,43.827],[7.7158,43.8284],[7.7187,43.814],[7.7218,43.8085],[7.7265,43.8058],[7.7342,43.7966],[7.737,43.796],[7.74,43.7969]]]}},{"type":"Feature","properties":{"i":"008040","n":"Perinaldo"},"geometry":{"type":"Polygon","coordinates":[[[7.7231,43.865],[7.7232,43.8643],[7.7206,43.8626],[7.7133,43.859],[7.7095,43.8548],[7.7051,43.8417],[7.7009,43.8407],[7.6895,43.8307],[7.6892,43.8317],[7.684,43.835],[7.6815,43.8359],[7.6725,43.8364],[7.663,43.8401],[7.6632,43.8414],[7.6583,43.8438],[7.6535,43.8447],[7.6486,43.8442],[7.6473,43.8459],[7.6486,43.8592],[7.6515,43.8666],[7.6787,43.8756],[7.6831,43.8784],[7.6897,43.8803],[7.7024,43.8791],[7.7087,43.8727],[7.7192,43.8662],[7.7231,43.865]]]}},{"type":"Feature","properties":{"i":"008041","n":"Pietrabruna"},"geometry":{"type":"Polygon","coordinates":[[[7.9347,43.8882],[7.9366,43.8848],[7.9412,43.8823],[7.9443,43.8786],[7.9425,43.8771],[7.9354,43.8755],[7.9297,43.8778],[7.9204,43.8768],[7.9097,43.872],[7.8936,43.874],[7.885,43.8777],[7.8761,43.8805],[7.8746,43.8824],[7.878,43.8977],[7.8805,43.901],[7.9123,43.8928],[7.9269,43.8867],[7.9308,43.8864],[7.9347,43.8882]]]}},{"type":"Feature","properties":{"i":"008042","n":"Pieve di Teco"},"geometry":{"type":"Polygon","coordinates":[[[7.9424,44.1001],[7.945,44.0932],[7.9443,44.0907],[7.9454,44.0837],[7.9415,44.0662],[7.9455,44.0629],[7.9451,44.0441],[7.943,44.0364],[7.9424,44.0271],[7.9436,44.0246],[7.9515,44.0209],[7.952,44.0106],[7.9447,44.003],[7.944,44.0006],[7.9416,43.9984],[7.9374,43.9971],[7.9325,43.9987],[7.9283,43.9989],[7.9212,44.0021],[7.9173,44.0055],[7.9121,44.0069],[7.919,44.0117],[7.9226,44.0163],[7.9254,44.021],[7.9247,44.027],[7.9238,44.0281],[7.9128,44.0317],[7.9036,44.0361],[7.8941,44.0372],[7.8872,44.0352],[7.873,44.0353],[7.8673,44.0363],[7.8471,44.0347],[7.8422,44.0366],[7.8451,44.0404],[7.8482,44.0419],[7.8546,44.0425],[7.8686,44.0457],[7.8753,44.0542],[7.8883,44.0674],[7.8883,44.0737],[7.8859,44.0779],[7.8845,44.086],[7.902,44.0801],[7.915,44.0811],[7.9216,44.0866],[7.9354,44.101],[7.9424,44.1001]]]}},{"type":"Feature","properties":{"i":"008043","n":"Pigna"},"geometry":{"type":"MultiPolygon","coordinates":[[[[7.6121,43.9262],[7.6146,43.9163],[7.6219,43.913],[7.6442,43.9108],[7.6448,43.9101],[7.6413,43.9017],[7.6353,43.9034],[7.6271,43.9105],[7.6198,43.9109],[7.6171,43.9051],[7.618,43.9033],[7.6142,43.9018],[7.6102,43.9027],[7.6106,43.9061],[7.6041,43.9094],[7.6004,43.9101],[7.5957,43.9072],[7.5949,43.9021],[7.5939,43.9023],[7.5895,43.9074],[7.5892,43.9086],[7.5901,43.9115],[7.5861,43.918],[7.5853,43.9215],[7.5866,43.9258],[7.5876,43.927],[7.5954,43.9278],[7.5992,43.9275],[7.6035,43.9258],[7.6094,43.9253],[7.6121,43.9262]]],[[[7.7269,43.9538],[7.7317,43.9516],[7.7358,43.9485],[7.7351,43.9467],[7.7263,43.9456],[7.724,43.9443],[7.7115,43.9414],[7.7074,43.9423],[7.7123,43.9446],[7.7215,43.9527],[7.7269,43.9538]]],[[[7.7133,43.9714],[7.7106,43.9691],[7.7094,43.9616],[7.7083,43.9605],[7.6999,43.9537],[7.6957,43.9522],[7.6908,43.952],[7.6822,43.9383],[7.6772,43.9335],[7.6687,43.93],[7.6666,43.9251],[7.6667,43.9129],[7.6638,43.9125],[7.6533,43.9087],[7.6507,43.9068],[7.6495,43.9091],[7.651,43.9117],[7.6494,43.9154],[7.6475,43.9157],[7.6396,43.9137],[7.6332,43.9153],[7.6291,43.9217],[7.6324,43.9268],[7.6258,43.9291],[7.6091,43.9392],[7.603,43.9442],[7.5927,43.9389],[7.5905,43.9426],[7.5859,43.9477],[7.5818,43.9483],[7.5844,43.9531],[7.5878,43.9554],[7.5995,43.9571],[7.6128,43.9566],[7.6271,43.9628],[7.6405,43.9717],[7.6495,43.9737],[7.6703,43.9982],[7.6737,43.9974],[7.7038,43.9823],[7.7072,43.9793],[7.7133,43.9714]]]]}},{"type":"Feature","properties":{"i":"008044","n":"Pompeiana"},"geometry":{"type":"Polygon","coordinates":[[[7.9097,43.872],[7.9103,43.8648],[7.9073,43.8652],[7.9008,43.8604],[7.8973,43.856],[7.8961,43.8529],[7.8855,43.8442],[7.8829,43.8442],[7.8769,43.8461],[7.8757,43.8477],[7.8751,43.8499],[7.8821,43.8549],[7.8833,43.857],[7.8803,43.8672],[7.8836,43.873],[7.885,43.8777],[7.8936,43.874],[7.9097,43.872]]]}},{"type":"Feature","properties":{"i":"008045","n":"Pontedassio"},"geometry":{"type":"Polygon","coordinates":[[[8.0334,43.9448],[8.0311,43.9455],[8.0272,43.944],[8.0266,43.9406],[8.0274,43.9354],[8.0254,43.9323],[8.0221,43.9292],[7.9976,43.9199],[7.9954,43.9201],[7.9902,43.9257],[7.9711,43.9304],[7.9686,43.9327],[7.9641,43.9396],[7.9627,43.9443],[7.9612,43.9458],[7.967,43.9466],[7.9785,43.946],[7.9947,43.9508],[8.0018,43.9439],[8.0042,43.946],[8.0117,43.9568],[8.0203,43.961],[8.0207,43.9587],[8.0246,43.9544],[8.0291,43.9515],[8.0319,43.9482],[8.0334,43.9448]]]}},{"type":"Feature","properties":{"i":"008046","n":"Pornassio"},"geometry":{"type":"Polygon","coordinates":[[[7.8839,44.1047],[7.8811,44.0985],[7.8809,44.0963],[7.8846,44.0919],[7.8857,44.0875],[7.8845,44.086],[7.8845,44.0841],[7.8859,44.0779],[7.8883,44.0737],[7.8883,44.0674],[7.8753,44.0542],[7.8686,44.0457],[7.8546,44.0425],[7.8482,44.0419],[7.8451,44.0404],[7.8422,44.0366],[7.8363,44.0379],[7.823,44.0367],[7.8187,44.0376],[7.8161,44.0393],[7.8157,44.0398],[7.8209,44.0419],[7.825,44.055],[7.8343,44.0546],[7.8398,44.0633],[7.8452,44.0674],[7.8466,44.0668],[7.8497,44.0673],[7.8494,44.0958],[7.8517,44.099],[7.8458,44.1111],[7.8434,44.1203],[7.8458,44.1207],[7.862,44.1187],[7.8769,44.114],[7.8823,44.1088],[7.8839,44.1047]]]}},{"type":"Feature","properties":{"i":"008047","n":"Prelà"},"geometry":{"type":"Polygon","coordinates":[[[7.9482,43.9187],[7.9446,43.9183],[7.9262,43.9201],[7.9136,43.9198],[7.9121,43.919],[7.9062,43.9187],[7.8921,43.9207],[7.88,43.9239],[7.8767,43.9268],[7.8761,43.9351],[7.8807,43.9392],[7.888,43.9512],[7.8922,43.9532],[7.8981,43.9529],[7.9092,43.9506],[7.9153,43.9481],[7.9204,43.9417],[7.9331,43.9331],[7.9344,43.9345],[7.9339,43.937],[7.942,43.936],[7.9472,43.9334],[7.9471,43.9211],[7.9473,43.9194],[7.9482,43.9187]]]}},{"type":"Feature","properties":{"i":"008048","n":"Ranzo"},"geometry":{"type":"Polygon","coordinates":[[[8.0362,44.0575],[8.0321,44.057],[8.0323,44.0562],[8.0298,44.0511],[8.0208,44.046],[8.0175,44.0467],[8.0175,44.0498],[8.0154,44.0539],[7.9895,44.0555],[7.9843,44.059],[7.9847,44.0609],[7.9923,44.0716],[7.999,44.0717],[8.0073,44.0706],[8.0086,44.0709],[8.009,44.0727],[8.0143,44.0729],[8.0137,44.0769],[8.0149,44.0792],[8.0292,44.0818],[8.0292,44.093],[8.028,44.0957],[8.0302,44.0957],[8.0347,44.0873],[8.0374,44.0776],[8.0384,44.0642],[8.0362,44.0575]]]}},{"type":"Feature","properties":{"i":"008049","n":"Rezzo"},"geometry":{"type":"Polygon","coordinates":[[[7.8422,44.0366],[7.8471,44.0347],[7.8673,44.0363],[7.873,44.0353],[7.8872,44.0352],[7.8941,44.0372],[7.9036,44.0361],[7.9128,44.0317],[7.9238,44.0281],[7.9253,44.0245],[7.9254,44.021],[7.9195,44.0122],[7.9121,44.0069],[7.8967,44.0066],[7.8924,44.0073],[7.887,44.0047],[7.8806,44.0037],[7.8729,44.0002],[7.8615,43.987],[7.8488,43.9857],[7.8424,43.9898],[7.8317,43.9984],[7.8201,44.0045],[7.8126,44.0059],[7.81,44.0074],[7.8081,44.01],[7.8077,44.0121],[7.8073,44.0197],[7.8036,44.0233],[7.7998,44.0339],[7.8,44.0367],[7.8029,44.0383],[7.8157,44.0398],[7.8182,44.0379],[7.823,44.0367],[7.8363,44.0379],[7.8422,44.0366]]]}},{"type":"Feature","properties":{"i":"008050","n":"Riva Ligure"},"geometry":{"type":"Polygon","coordinates":[[[7.8855,43.8442],[7.8854,43.8367],[7.8835,43.8372],[7.8756,43.8362],[7.8609,43.8314],[7.8597,43.8357],[7.8647,43.8365],[7.8665,43.8392],[7.8647,43.8459],[7.8751,43.8499],[7.8769,43.8461],[7.8829,43.8442],[7.8855,43.8442]]]}},{"type":"Feature","properties":{"i":"008051","n":"Rocchetta Nervina"},"geometry":{"type":"Polygon","coordinates":[[[7.5818,43.9483],[7.5859,43.9477],[7.5905,43.9426],[7.5927,43.9389],[7.5875,43.9335],[7.5866,43.9258],[7.5853,43.9215],[7.5861,43.918],[7.5901,43.9115],[7.5892,43.9086],[7.59,43.9066],[7.5939,43.9023],[7.5949,43.9021],[7.5957,43.9072],[7.5998,43.9101],[7.601,43.91],[7.6041,43.9094],[7.6106,43.9061],[7.6106,43.9026],[7.6142,43.9018],[7.618,43.9033],[7.6152,43.8986],[7.6117,43.8949],[7.6124,43.8929],[7.6107,43.8875],[7.6059,43.8801],[7.6032,43.8787],[7.596,43.8796],[7.5859,43.8928],[7.5769,43.9003],[7.5629,43.9023],[7.5625,43.9112],[7.5603,43.9152],[7.5686,43.928],[7.5719,43.9354],[7.5709,43.9389],[7.567,43.9441],[7.5769,43.9498],[7.5787,43.9498],[7.5818,43.9483]]]}},{"type":"Feature","properties":{"i":"008052","n":"San Bartolomeo al Mare"},"geometry":{"type":"Polygon","coordinates":[[[8.1165,43.9618],[8.1191,43.958],[8.1235,43.9544],[8.1244,43.9446],[8.1233,43.9431],[8.113,43.9404],[8.1069,43.935],[8.105,43.9319],[8.1046,43.9269],[8.1072,43.9209],[8.0943,43.9168],[8.0863,43.9333],[8.0843,43.9354],[8.0773,43.9523],[8.0765,43.9608],[8.0909,43.9588],[8.0987,43.9541],[8.106,43.9563],[8.109,43.9602],[8.1113,43.9619],[8.1165,43.9618]]]}},{"type":"Feature","properties":{"i":"008053","n":"San Biagio della Cima"},"geometry":{"type":"Polygon","coordinates":[[[7.6611,43.824],[7.6573,43.8154],[7.6532,43.8145],[7.6441,43.8097],[7.6429,43.8031],[7.6407,43.8035],[7.6395,43.806],[7.638,43.8251],[7.6388,43.8335],[7.6362,43.8382],[7.6332,43.8405],[7.6473,43.8459],[7.6486,43.8442],[7.6449,43.8345],[7.6449,43.8304],[7.6457,43.8278],[7.6522,43.8273],[7.6587,43.8257],[7.6611,43.824]]]}},{"type":"Feature","properties":{"i":"008054","n":"San Lorenzo al Mare"},"geometry":{"type":"Polygon","coordinates":[[[7.9701,43.8604],[7.9661,43.8521],[7.9578,43.85],[7.9568,43.8501],[7.957,43.8587],[7.9527,43.8618],[7.9531,43.8635],[7.956,43.862],[7.9612,43.8626],[7.9626,43.8638],[7.9623,43.8665],[7.9642,43.8679],[7.9701,43.8604]]]}},{"type":"Feature","properties":{"i":"008055","n":"Sanremo"},"geometry":{"type":"Polygon","coordinates":[[[7.8073,43.8675],[7.8164,43.8642],[7.8319,43.8503],[7.8348,43.8459],[7.8369,43.8381],[7.8404,43.8324],[7.8471,43.8288],[7.8414,43.825],[7.8399,43.8209],[7.8357,43.8175],[7.8304,43.8161],[7.8157,43.8219],[7.8055,43.8233],[7.7933,43.8198],[7.787,43.8196],[7.7819,43.8173],[7.7795,43.8144],[7.7739,43.8135],[7.7523,43.8052],[7.74,43.7969],[7.736,43.796],[7.734,43.7968],[7.7265,43.8058],[7.7218,43.8085],[7.7187,43.814],[7.7158,43.8284],[7.716,43.8343],[7.7145,43.8376],[7.7102,43.8401],[7.7051,43.8417],[7.709,43.854],[7.7121,43.8579],[7.7232,43.8643],[7.7231,43.865],[7.7349,43.8758],[7.7452,43.8709],[7.7591,43.8716],[7.7678,43.8699],[7.7707,43.8679],[7.7739,43.8634],[7.7839,43.8596],[7.7962,43.8571],[7.7943,43.8524],[7.7941,43.8477],[7.8047,43.8507],[7.8088,43.8537],[7.8117,43.8586],[7.8118,43.8603],[7.807,43.8667],[7.8073,43.8675]]]}},{"type":"Feature","properties":{"i":"008056","n":"Santo Stefano al Mare"},"geometry":{"type":"Polygon","coordinates":[[[7.9155,43.8414],[7.9148,43.8396],[7.9081,43.8362],[7.8918,43.8381],[7.8854,43.8367],[7.8855,43.8442],[7.891,43.8486],[7.8923,43.8462],[7.9018,43.8465],[7.9061,43.8481],[7.9107,43.8537],[7.9132,43.8536],[7.9124,43.8496],[7.9155,43.8414]]]}},{"type":"Feature","properties":{"i":"008057","n":"Seborga"},"geometry":{"type":"Polygon","coordinates":[[[7.7158,43.8284],[7.7119,43.827],[7.7088,43.8239],[7.6947,43.8162],[7.6925,43.8157],[7.6878,43.8166],[7.6785,43.8215],[7.7009,43.8407],[7.7051,43.8417],[7.7102,43.8401],[7.7145,43.8376],[7.716,43.8343],[7.7158,43.8284]]]}},{"type":"Feature","properties":{"i":"008058","n":"Soldano"},"geometry":{"type":"Polygon","coordinates":[[[7.6746,43.8364],[7.6751,43.8338],[7.6741,43.8321],[7.6653,43.8248],[7.6611,43.824],[7.6587,43.8257],[7.6522,43.8273],[7.6457,43.8278],[7.6449,43.8304],[7.6449,43.8345],[7.6486,43.8442],[7.6535,43.8447],[7.6583,43.8438],[7.6632,43.8414],[7.663,43.8401],[7.6725,43.8364],[7.6746,43.8364]]]}},{"type":"Feature","properties":{"i":"008059","n":"Taggia"},"geometry":{"type":"Polygon","coordinates":[[[7.8752,43.9085],[7.8805,43.901],[7.878,43.8977],[7.8545,43.8942],[7.8532,43.8895],[7.8567,43.8825],[7.8586,43.8818],[7.8644,43.8672],[7.8654,43.8602],[7.8656,43.8489],[7.8647,43.8459],[7.8665,43.8392],[7.8647,43.8365],[7.8597,43.8357],[7.8609,43.8314],[7.8471,43.8288],[7.8404,43.8324],[7.8369,43.8381],[7.8348,43.8459],[7.8319,43.8503],[7.8164,43.8642],[7.8073,43.8675],[7.8161,43.883],[7.8153,43.8925],[7.8146,43.8935],[7.8048,43.8957],[7.7958,43.9001],[7.7978,43.9076],[7.7977,43.9129],[7.7984,43.9136],[7.802,43.914],[7.8128,43.9126],[7.8293,43.904],[7.8388,43.9001],[7.8433,43.8992],[7.8488,43.901],[7.8542,43.9058],[7.8599,43.908],[7.8677,43.9095],[7.8752,43.9085]]]}},{"type":"Feature","properties":{"i":"008060","n":"Terzorio"},"geometry":{"type":"Polygon","coordinates":[[[7.9107,43.8537],[7.9061,43.8481],[7.9041,43.8472],[7.8989,43.8462],[7.8915,43.8466],[7.891,43.8486],[7.8965,43.8534],[7.8973,43.856],[7.9008,43.8604],[7.9073,43.8652],[7.9103,43.8648],[7.9107,43.8633],[7.9089,43.8561],[7.9107,43.8537]]]}},{"type":"Feature","properties":{"i":"008061","n":"Triora"},"geometry":{"type":"Polygon","coordinates":[[[7.7749,44.0449],[7.7792,44.0431],[7.774,44.0296],[7.773,44.0251],[7.7626,44.0238],[7.7604,44.0231],[7.76,44.0222],[7.7679,44.0032],[7.7706,44.0001],[7.7725,43.9919],[7.7676,43.9865],[7.7554,43.9877],[7.7537,43.9866],[7.7499,43.982],[7.7459,43.9749],[7.7448,43.9643],[7.7369,43.9652],[7.7223,43.9704],[7.7133,43.9714],[7.7072,43.9793],[7.7038,43.9823],[7.6737,43.9974],[7.6703,43.9982],[7.6681,44.0025],[7.6625,44.0183],[7.6624,44.0268],[7.6633,44.029],[7.6661,44.0311],[7.678,44.0335],[7.694,44.04],[7.7029,44.0452],[7.7035,44.0516],[7.7073,44.0568],[7.7117,44.0604],[7.7143,44.0616],[7.7232,44.0606],[7.729,44.0643],[7.7306,44.0685],[7.7345,44.0736],[7.7379,44.0764],[7.7489,44.0796],[7.7499,44.0742],[7.7554,44.0657],[7.7568,44.0549],[7.7688,44.0495],[7.7749,44.0449]]]}},{"type":"Feature","properties":{"i":"008062","n":"Vallebona"},"geometry":{"type":"Polygon","coordinates":[[[7.6895,43.8307],[7.6785,43.8215],[7.6889,43.8162],[7.6947,43.8162],[7.6967,43.8107],[7.6683,43.8076],[7.6582,43.8082],[7.6573,43.8154],[7.6611,43.824],[7.6653,43.8248],[7.6741,43.8321],[7.6751,43.8338],[7.6746,43.8364],[7.684,43.835],[7.6892,43.8317],[7.6895,43.8307]]]}},{"type":"Feature","properties":{"i":"008063","n":"Vallecrosia"},"geometry":{"type":"Polygon","coordinates":[[[7.6582,43.8082],[7.6544,43.7982],[7.6462,43.7815],[7.6332,43.7836],[7.6346,43.7874],[7.6428,43.7977],[7.6441,43.8097],[7.6532,43.8145],[7.6573,43.8154],[7.6582,43.8082]]]}},{"type":"Feature","properties":{"i":"008064","n":"Vasia"},"geometry":{"type":"Polygon","coordinates":[[[7.937,43.9582],[7.9387,43.9562],[7.9462,43.956],[7.9592,43.9475],[7.9624,43.9448],[7.9641,43.9396],[7.9686,43.9327],[7.9711,43.9304],[7.9629,43.9233],[7.9612,43.9168],[7.9555,43.9163],[7.9473,43.9194],[7.9472,43.9334],[7.942,43.936],[7.9339,43.937],[7.9344,43.9345],[7.9331,43.9331],[7.9204,43.9417],[7.9153,43.9481],[7.9092,43.9506],[7.8981,43.9529],[7.8922,43.9532],[7.8975,43.9565],[7.9012,43.9573],[7.9077,43.9562],[7.9138,43.9536],[7.9174,43.9532],[7.9302,43.9571],[7.937,43.9582]]]}},{"type":"Feature","properties":{"i":"008065","n":"Ventimiglia"},"geometry":{"type":"Polygon","coordinates":[[[7.6068,43.8479],[7.6068,43.8459],[7.6048,43.8445],[7.6014,43.8439],[7.5869,43.838],[7.5876,43.8327],[7.5897,43.8249],[7.5924,43.8206],[7.5998,43.8143],[7.6021,43.8048],[7.6052,43.8015],[7.6117,43.7967],[7.619,43.7934],[7.6238,43.7953],[7.6301,43.7913],[7.6311,43.7841],[7.6111,43.7866],[7.5909,43.7916],[7.5745,43.7929],[7.5693,43.7922],[7.5631,43.7898],[7.5587,43.787],[7.5572,43.7813],[7.5561,43.7802],[7.5307,43.7842],[7.5233,43.7978],[7.5182,43.8046],[7.5084,43.8349],[7.5081,43.8417],[7.5013,43.8448],[7.5182,43.8482],[7.5263,43.8519],[7.5312,43.8604],[7.5331,43.8608],[7.5355,43.8605],[7.5382,43.8541],[7.5409,43.8536],[7.5463,43.8551],[7.5595,43.8538],[7.5629,43.8519],[7.5647,43.8495],[7.5724,43.8465],[7.5794,43.8551],[7.5829,43.8655],[7.5843,43.8724],[7.5912,43.87],[7.603,43.8632],[7.6056,43.8608],[7.6062,43.8596],[7.6046,43.8568],[7.6044,43.853],[7.6068,43.8479]]]}},{"type":"Feature","properties":{"i":"008066","n":"Vessalico"},"geometry":{"type":"Polygon","coordinates":[[[7.986,44.0284],[7.9857,44.0277],[7.9815,44.0271],[7.9719,44.0267],[7.9682,44.0293],[7.9678,44.0304],[7.9685,44.0324],[7.9674,44.0335],[7.9582,44.0317],[7.952,44.0288],[7.9427,44.0293],[7.9422,44.0315],[7.943,44.0364],[7.9451,44.0441],[7.9455,44.0629],[7.9415,44.0662],[7.9454,44.0837],[7.9573,44.0742],[7.9632,44.0663],[7.9648,44.061],[7.9688,44.0531],[7.9759,44.0484],[7.9767,44.0455],[7.9753,44.0436],[7.9668,44.0426],[7.9641,44.0404],[7.9719,44.0337],[7.9774,44.0344],[7.9835,44.0312],[7.9855,44.0298],[7.986,44.0284]]]}},{"type":"Feature","properties":{"i":"008067","n":"Villa Faraldi"},"geometry":{"type":"Polygon","coordinates":[[[8.0789,43.9838],[8.0845,43.9826],[8.1059,43.9733],[8.1126,43.9678],[8.1165,43.9618],[8.1113,43.9619],[8.109,43.9602],[8.106,43.9563],[8.0987,43.9541],[8.0909,43.9588],[8.0765,43.9608],[8.0739,43.9633],[8.0689,43.9632],[8.0625,43.9661],[8.0538,43.9744],[8.0517,43.9803],[8.0586,43.9837],[8.0651,43.984],[8.0728,43.983],[8.0789,43.9838]]]}},{"type":"Feature","properties":{"i":"008068","n":"Montalto Carpasio"},"geometry":{"type":"Polygon","coordinates":[[[7.8615,43.987],[7.8675,43.9836],[7.8716,43.979],[7.8754,43.97],[7.888,43.9512],[7.8807,43.9392],[7.8761,43.9351],[7.8767,43.9268],[7.88,43.9239],[7.8807,43.9186],[7.8806,43.9174],[7.8772,43.9141],[7.8747,43.9095],[7.8703,43.9112],[7.8638,43.9168],[7.8585,43.9191],[7.8438,43.9229],[7.84,43.9207],[7.8251,43.9212],[7.8223,43.9264],[7.8119,43.9314],[7.7987,43.9345],[7.7924,43.9349],[7.7796,43.9381],[7.7738,43.9421],[7.7767,43.9437],[7.7899,43.9416],[7.8153,43.9406],[7.8209,43.9415],[7.8244,43.9435],[7.8328,43.941],[7.8313,43.9405],[7.8321,43.9398],[7.8375,43.9396],[7.8431,43.9445],[7.8426,43.9461],[7.8351,43.9589],[7.8295,43.9649],[7.8291,43.9663],[7.8327,43.969],[7.8452,43.9735],[7.8507,43.9799],[7.8488,43.9857],[7.8615,43.987]]]}}]}
