{"type":"FeatureCollection","fonte":"Confini comunali ISTAT via openpolis/geojson-italy — CC BY 4.0","features":[{"type":"Feature","properties":{"i":"094001","n":"Acquaviva d'Isernia"},"geometry":{"type":"Polygon","coordinates":[[[14.16,41.6908],[14.1612,41.6881],[14.1695,41.6817],[14.1738,41.6765],[14.1741,41.6745],[14.1708,41.6708],[14.1559,41.6634],[14.15,41.6573],[14.1481,41.6542],[14.1446,41.6543],[14.1414,41.6547],[14.138,41.6563],[14.1365,41.6592],[14.1337,41.669],[14.1333,41.6738],[14.1384,41.6774],[14.1368,41.6805],[14.1232,41.683],[14.1189,41.683],[14.1101,41.6812],[14.1059,41.6856],[14.104,41.6948],[14.1052,41.6965],[14.1105,41.6981],[14.1151,41.7021],[14.1196,41.7037],[14.1254,41.6999],[14.1309,41.6934],[14.142,41.6866],[14.1539,41.6903],[14.16,41.6908]]]}},{"type":"Feature","properties":{"i":"094002","n":"Agnone"},"geometry":{"type":"Polygon","coordinates":[[[14.4507,41.8193],[14.4547,41.7958],[14.4383,41.7979],[14.4302,41.7964],[14.4148,41.7903],[14.4051,41.7811],[14.4024,41.7773],[14.3907,41.7828],[14.3893,41.7831],[14.3849,41.7818],[14.3769,41.776],[14.3739,41.7708],[14.3699,41.7611],[14.3718,41.7563],[14.3745,41.7537],[14.3716,41.7512],[14.3679,41.7493],[14.3612,41.7492],[14.3575,41.7468],[14.3549,41.7436],[14.3554,41.7427],[14.3536,41.7351],[14.3508,41.7308],[14.3466,41.727],[14.3394,41.7242],[14.3369,41.7274],[14.3349,41.7282],[14.3294,41.7278],[14.324,41.7354],[14.3273,41.7404],[14.3369,41.7503],[14.3248,41.756],[14.3214,41.7557],[14.3086,41.7515],[14.3048,41.7521],[14.3011,41.7573],[14.3039,41.762],[14.3057,41.7703],[14.3054,41.7734],[14.3071,41.7757],[14.3138,41.7767],[14.3208,41.779],[14.3001,41.7935],[14.3005,41.7943],[14.2991,41.7958],[14.2934,41.7982],[14.295,41.8142],[14.2993,41.8146],[14.3114,41.8133],[14.3126,41.8195],[14.3115,41.826],[14.313,41.835],[14.3137,41.8357],[14.3167,41.8364],[14.3232,41.8351],[14.3272,41.8326],[14.3314,41.8268],[14.3344,41.8276],[14.3399,41.8369],[14.341,41.8413],[14.3404,41.8533],[14.3379,41.8564],[14.343,41.8625],[14.3501,41.8623],[14.3586,41.8607],[14.3645,41.8691],[14.3641,41.8713],[14.3611,41.8743],[14.366,41.8772],[14.3767,41.8799],[14.3758,41.8749],[14.3773,41.8681],[14.3792,41.8658],[14.3802,41.8627],[14.3805,41.8587],[14.378,41.8523],[14.3849,41.8412],[14.3914,41.8346],[14.4018,41.8263],[14.4084,41.8261],[14.4201,41.8168],[14.4299,41.8144],[14.444,41.8171],[14.4507,41.8193]]]}},{"type":"Feature","properties":{"i":"094003","n":"Bagnoli del Trigno"},"geometry":{"type":"Polygon","coordinates":[[[14.5208,41.6989],[14.5012,41.6857],[14.5005,41.683],[14.5024,41.6791],[14.5008,41.6769],[14.4935,41.6714],[14.4836,41.6801],[14.4691,41.678],[14.464,41.6744],[14.4601,41.6689],[14.4544,41.6647],[14.448,41.6657],[14.4376,41.6698],[14.435,41.6719],[14.4362,41.6758],[14.4298,41.6779],[14.4279,41.6796],[14.4257,41.6834],[14.4271,41.6889],[14.4372,41.6915],[14.4382,41.6978],[14.4375,41.7032],[14.4418,41.7106],[14.4533,41.721],[14.4674,41.7212],[14.4854,41.7232],[14.4932,41.7259],[14.4987,41.7316],[14.5035,41.7337],[14.5139,41.7307],[14.5188,41.7268],[14.52,41.7248],[14.5221,41.7146],[14.5217,41.7012],[14.5208,41.6989]]]}},{"type":"Feature","properties":{"i":"094004","n":"Belmonte del Sannio"},"geometry":{"type":"Polygon","coordinates":[[[14.4468,41.8344],[14.4507,41.8193],[14.444,41.8171],[14.4303,41.8143],[14.4201,41.8168],[14.4084,41.8261],[14.4018,41.8263],[14.3914,41.8346],[14.3849,41.8412],[14.378,41.8523],[14.3805,41.8584],[14.3792,41.8658],[14.3879,41.8674],[14.3914,41.8686],[14.3936,41.8705],[14.3974,41.8697],[14.4097,41.8629],[14.4207,41.8553],[14.4337,41.8415],[14.4423,41.8413],[14.4457,41.8378],[14.4468,41.8344]]]}},{"type":"Feature","properties":{"i":"094005","n":"Cantalupo nel Sannio"},"geometry":{"type":"Polygon","coordinates":[[[14.4281,41.5247],[14.4221,41.5216],[14.4058,41.5099],[14.4003,41.5079],[14.3918,41.5072],[14.39,41.5051],[14.3861,41.5043],[14.3764,41.5129],[14.372,41.5129],[14.3628,41.5111],[14.3588,41.5138],[14.3572,41.5187],[14.3596,41.5223],[14.3613,41.5313],[14.3611,41.5343],[14.3638,41.5387],[14.3708,41.5431],[14.3761,41.5438],[14.3859,41.5442],[14.3899,41.5436],[14.3969,41.5372],[14.4022,41.5359],[14.4281,41.5247]]]}},{"type":"Feature","properties":{"i":"094006","n":"Capracotta"},"geometry":{"type":"Polygon","coordinates":[[[14.2851,41.8558],[14.2869,41.8517],[14.2892,41.85],[14.3072,41.8532],[14.3296,41.8538],[14.3379,41.8564],[14.3404,41.8533],[14.341,41.842],[14.34,41.8373],[14.3353,41.8287],[14.334,41.8274],[14.3321,41.8267],[14.3311,41.8271],[14.3272,41.8326],[14.3232,41.8351],[14.3167,41.8364],[14.3131,41.8353],[14.3115,41.826],[14.3126,41.8195],[14.3114,41.8133],[14.2993,41.8146],[14.295,41.8142],[14.2934,41.7982],[14.2986,41.7961],[14.3005,41.7943],[14.2979,41.789],[14.2794,41.7872],[14.2752,41.7903],[14.2723,41.7961],[14.2668,41.7983],[14.263,41.7974],[14.2567,41.791],[14.2483,41.7866],[14.244,41.7848],[14.2405,41.7859],[14.239,41.7877],[14.2407,41.793],[14.2427,41.7961],[14.2505,41.8036],[14.2507,41.8049],[14.2429,41.8145],[14.24,41.8207],[14.2392,41.8281],[14.2367,41.8316],[14.2325,41.8356],[14.2413,41.8376],[14.2448,41.8397],[14.2446,41.8417],[14.2498,41.8448],[14.2593,41.8484],[14.2666,41.8593],[14.2748,41.8613],[14.284,41.8621],[14.2861,41.8604],[14.2867,41.8589],[14.2851,41.8558]]]}},{"type":"Feature","properties":{"i":"094007","n":"Carovilli"},"geometry":{"type":"Polygon","coordinates":[[[14.3239,41.7361],[14.3263,41.7314],[14.3294,41.7278],[14.3349,41.7282],[14.3369,41.7274],[14.3394,41.7242],[14.3396,41.7195],[14.3376,41.7053],[14.3315,41.7021],[14.3299,41.6998],[14.3286,41.6954],[14.3302,41.6943],[14.3306,41.6928],[14.3235,41.6923],[14.2993,41.6962],[14.2965,41.6945],[14.2939,41.6896],[14.2927,41.6847],[14.292,41.6733],[14.2825,41.6557],[14.2672,41.6565],[14.2655,41.6576],[14.2621,41.6617],[14.2614,41.6643],[14.2576,41.6665],[14.2496,41.6753],[14.2491,41.6768],[14.2508,41.6793],[14.2526,41.6801],[14.268,41.6805],[14.2768,41.6826],[14.2778,41.684],[14.2778,41.6875],[14.2711,41.7025],[14.2507,41.7195],[14.2463,41.7243],[14.2517,41.7257],[14.2596,41.7309],[14.262,41.7354],[14.268,41.7404],[14.2785,41.7453],[14.2846,41.7466],[14.2982,41.7482],[14.3107,41.7391],[14.3239,41.7361]]]}},{"type":"Feature","properties":{"i":"094008","n":"Carpinone"},"geometry":{"type":"Polygon","coordinates":[[[14.3687,41.6199],[14.3728,41.6179],[14.375,41.6177],[14.3815,41.6109],[14.388,41.5988],[14.3888,41.5947],[14.3822,41.5869],[14.3677,41.5966],[14.3641,41.5969],[14.3569,41.5961],[14.3538,41.5937],[14.3526,41.5903],[14.3528,41.5888],[14.3574,41.5837],[14.3572,41.5788],[14.3557,41.5764],[14.3464,41.5783],[14.3264,41.5744],[14.3154,41.5706],[14.3055,41.5693],[14.2995,41.5776],[14.2907,41.5857],[14.2883,41.5856],[14.2804,41.5877],[14.2784,41.5905],[14.2762,41.5966],[14.2789,41.5989],[14.2883,41.5978],[14.2968,41.5998],[14.3109,41.6107],[14.3177,41.6182],[14.3251,41.6225],[14.3338,41.623],[14.3383,41.6241],[14.3567,41.621],[14.3687,41.6199]]]}},{"type":"Feature","properties":{"i":"094009","n":"Castel del Giudice"},"geometry":{"type":"Polygon","coordinates":[[[14.2651,41.857],[14.2593,41.8484],[14.2498,41.8448],[14.2446,41.8417],[14.2448,41.8397],[14.24,41.8372],[14.2325,41.8356],[14.2236,41.8372],[14.2139,41.8363],[14.2038,41.8324],[14.1969,41.8311],[14.1955,41.8312],[14.194,41.8335],[14.1963,41.8385],[14.195,41.8415],[14.1973,41.8428],[14.1952,41.8462],[14.1965,41.8486],[14.2005,41.8504],[14.2134,41.8539],[14.2187,41.8573],[14.2231,41.8643],[14.2256,41.8709],[14.2243,41.8716],[14.2253,41.8736],[14.2297,41.8771],[14.2318,41.8775],[14.2334,41.8757],[14.2651,41.857]]]}},{"type":"Feature","properties":{"i":"094010","n":"Castelpetroso"},"geometry":{"type":"Polygon","coordinates":[[[14.3557,41.5764],[14.3603,41.57],[14.3624,41.5643],[14.3622,41.5546],[14.3611,41.5461],[14.3583,41.5404],[14.352,41.5349],[14.3381,41.5289],[14.32,41.5298],[14.3156,41.5367],[14.3101,41.5399],[14.2931,41.5473],[14.2933,41.5517],[14.3057,41.566],[14.3055,41.5693],[14.3154,41.5706],[14.3264,41.5744],[14.3464,41.5783],[14.3557,41.5764]]]}},{"type":"Feature","properties":{"i":"094011","n":"Castelpizzuto"},"geometry":{"type":"Polygon","coordinates":[[[14.32,41.5298],[14.322,41.5269],[14.3335,41.5214],[14.3297,41.5175],[14.3283,41.5131],[14.3149,41.5068],[14.2774,41.5073],[14.2765,41.5177],[14.2733,41.5331],[14.2705,41.5394],[14.2842,41.5384],[14.2931,41.5473],[14.3101,41.5399],[14.3156,41.5367],[14.32,41.5298]]]}},{"type":"Feature","properties":{"i":"094012","n":"Castel San Vincenzo"},"geometry":{"type":"Polygon","coordinates":[[[14.0791,41.6802],[14.0847,41.676],[14.0846,41.6692],[14.0817,41.6612],[14.0835,41.6577],[14.0858,41.6562],[14.077,41.6452],[14.0539,41.6408],[14.0492,41.6337],[14.0368,41.6332],[14.0348,41.6406],[14.026,41.6422],[14.0151,41.6381],[14.0041,41.6353],[14.0004,41.6352],[13.9939,41.639],[13.9926,41.6418],[13.9888,41.6446],[13.9874,41.6479],[13.9883,41.6538],[14.007,41.6562],[14.0184,41.6594],[14.0273,41.659],[14.0301,41.6576],[14.036,41.6564],[14.0427,41.656],[14.0522,41.6633],[14.0531,41.6709],[14.0549,41.6731],[14.0586,41.6749],[14.0612,41.6784],[14.0627,41.683],[14.0791,41.6802]]]}},{"type":"Feature","properties":{"i":"094013","n":"Castelverrino"},"geometry":{"type":"Polygon","coordinates":[[[14.4024,41.7773],[14.4044,41.7734],[14.41,41.7681],[14.4143,41.7662],[14.398,41.7609],[14.3881,41.7612],[14.3745,41.7537],[14.3718,41.7563],[14.3699,41.7611],[14.3739,41.7708],[14.3769,41.776],[14.3801,41.7785],[14.3849,41.7818],[14.3893,41.7831],[14.4024,41.7773]]]}},{"type":"Feature","properties":{"i":"094014","n":"Cerro al Volturno"},"geometry":{"type":"Polygon","coordinates":[[[14.1481,41.6542],[14.1482,41.651],[14.1448,41.6485],[14.1327,41.6466],[14.1249,41.6419],[14.1187,41.6302],[14.1231,41.6246],[14.1187,41.6205],[14.1043,41.6237],[14.0996,41.6232],[14.0999,41.6282],[14.1028,41.6332],[14.0981,41.6485],[14.0839,41.6573],[14.0825,41.659],[14.0817,41.6612],[14.0846,41.6692],[14.0847,41.676],[14.0791,41.6802],[14.0877,41.6862],[14.104,41.6948],[14.1059,41.6856],[14.1101,41.6812],[14.1189,41.683],[14.1232,41.683],[14.1368,41.6805],[14.1384,41.6774],[14.1333,41.6738],[14.1337,41.669],[14.1371,41.6572],[14.1414,41.6547],[14.1481,41.6542]]]}},{"type":"Feature","properties":{"i":"094015","n":"Chiauci"},"geometry":{"type":"Polygon","coordinates":[[[14.3972,41.6941],[14.3993,41.6844],[14.3974,41.6762],[14.396,41.6742],[14.3906,41.6713],[14.389,41.6696],[14.387,41.6651],[14.3862,41.661],[14.3667,41.6618],[14.3629,41.6606],[14.359,41.658],[14.3513,41.6588],[14.3475,41.6611],[14.3467,41.6634],[14.35,41.6677],[14.3538,41.6759],[14.3563,41.6821],[14.3588,41.6919],[14.3548,41.6997],[14.3567,41.7029],[14.3606,41.7038],[14.3694,41.7031],[14.3754,41.7046],[14.3763,41.7056],[14.392,41.6962],[14.3972,41.6941]]]}},{"type":"Feature","properties":{"i":"094016","n":"Civitanova del Sannio"},"geometry":{"type":"Polygon","coordinates":[[[14.5035,41.7337],[14.4987,41.7316],[14.4932,41.7259],[14.4854,41.7232],[14.4674,41.7212],[14.4533,41.721],[14.4418,41.7106],[14.4375,41.7032],[14.4382,41.6978],[14.4372,41.6915],[14.4271,41.6889],[14.4257,41.6834],[14.4279,41.6796],[14.4298,41.6779],[14.4362,41.6758],[14.435,41.6719],[14.4301,41.6693],[14.4306,41.661],[14.4319,41.6575],[14.4274,41.6478],[14.4245,41.6443],[14.4244,41.6401],[14.427,41.6369],[14.4231,41.6348],[14.4062,41.6311],[14.3961,41.6305],[14.3798,41.6243],[14.3679,41.6258],[14.3667,41.6267],[14.3654,41.6299],[14.3645,41.6453],[14.3635,41.6497],[14.3605,41.6565],[14.359,41.658],[14.3629,41.6606],[14.3667,41.6618],[14.3862,41.661],[14.387,41.6651],[14.389,41.6696],[14.3906,41.6713],[14.396,41.6742],[14.3974,41.6762],[14.3993,41.6844],[14.3972,41.6941],[14.4026,41.6983],[14.4071,41.7035],[14.4145,41.7166],[14.4153,41.7215],[14.4202,41.7248],[14.4275,41.7339],[14.4384,41.7395],[14.4386,41.7382],[14.4402,41.7372],[14.4495,41.7356],[14.4638,41.7372],[14.47,41.7417],[14.4701,41.7433],[14.4713,41.7443],[14.4758,41.7458],[14.5013,41.7362],[14.5035,41.7337]]]}},{"type":"Feature","properties":{"i":"094017","n":"Colli a Volturno"},"geometry":{"type":"Polygon","coordinates":[[[14.1187,41.6205],[14.1228,41.6204],[14.1253,41.6173],[14.1249,41.6149],[14.1256,41.6065],[14.1351,41.5862],[14.1364,41.5814],[14.1383,41.5774],[14.1479,41.5667],[14.1453,41.5653],[14.145,41.563],[14.1512,41.5579],[14.1495,41.554],[14.1496,41.5519],[14.1481,41.5505],[14.1431,41.5501],[14.1374,41.5516],[14.1348,41.5543],[14.1278,41.5656],[14.126,41.5726],[14.1258,41.5789],[14.1247,41.5797],[14.1141,41.5791],[14.0876,41.5806],[14.0769,41.5798],[14.0755,41.5788],[14.0595,41.5796],[14.0644,41.5804],[14.0643,41.5897],[14.0761,41.6099],[14.0805,41.609],[14.0959,41.6131],[14.0978,41.6157],[14.0996,41.6232],[14.1043,41.6237],[14.1187,41.6205]]]}},{"type":"Feature","properties":{"i":"094018","n":"Conca Casale"},"geometry":{"type":"Polygon","coordinates":[[[14.0434,41.5002],[14.0285,41.4962],[14.0211,41.4908],[14.0239,41.4899],[14.0244,41.4875],[14.0214,41.4819],[14.0187,41.4803],[14.0171,41.4806],[14.0116,41.4851],[13.9984,41.4842],[13.9928,41.4821],[13.975,41.4921],[13.9734,41.4923],[13.9727,41.4934],[13.9754,41.4969],[13.9947,41.5129],[13.998,41.5139],[14.0105,41.5148],[14.0193,41.5219],[14.0193,41.5183],[14.0214,41.5161],[14.035,41.5144],[14.0428,41.5042],[14.0441,41.5008],[14.0434,41.5002]]]}},{"type":"Feature","properties":{"i":"094019","n":"Filignano"},"geometry":{"type":"Polygon","coordinates":[[[14.0595,41.5796],[14.0755,41.5788],[14.0725,41.5707],[14.0732,41.5654],[14.0746,41.5629],[14.0786,41.5626],[14.0865,41.5586],[14.0898,41.5491],[14.0887,41.5402],[14.0783,41.5311],[14.0711,41.5306],[14.0657,41.5312],[14.0518,41.5358],[14.0451,41.5424],[14.0315,41.5406],[14.0209,41.5421],[14.0248,41.5536],[14.026,41.5553],[14.0238,41.5607],[14.0108,41.5656],[14.0041,41.5666],[14.0016,41.5695],[14.0041,41.5718],[13.9988,41.5749],[13.9978,41.5794],[14.0102,41.5926],[14.0091,41.5955],[14.0088,41.6001],[14.0111,41.6078],[13.998,41.6231],[14.0018,41.6246],[14.0064,41.6194],[14.0156,41.6122],[14.0219,41.606],[14.0267,41.5986],[14.0259,41.5951],[14.0309,41.59],[14.0388,41.5895],[14.0395,41.5863],[14.0332,41.5692],[14.0292,41.5662],[14.0271,41.5624],[14.0298,41.5599],[14.0369,41.5586],[14.041,41.56],[14.048,41.5654],[14.0478,41.5724],[14.0486,41.5784],[14.0558,41.5798],[14.0595,41.5796]]]}},{"type":"Feature","properties":{"i":"094020","n":"Forlì del Sannio"},"geometry":{"type":"Polygon","coordinates":[[[14.2249,41.7224],[14.2218,41.7187],[14.214,41.7134],[14.2074,41.7069],[14.204,41.6939],[14.2049,41.6888],[14.2076,41.6833],[14.2076,41.679],[14.2049,41.6741],[14.2049,41.6724],[14.1968,41.6624],[14.1898,41.6568],[14.1821,41.6455],[14.1735,41.6359],[14.1662,41.6378],[14.152,41.6493],[14.1483,41.6514],[14.1481,41.6542],[14.15,41.6573],[14.1559,41.6634],[14.1708,41.6708],[14.1741,41.6745],[14.1738,41.6765],[14.1695,41.6817],[14.1612,41.6881],[14.16,41.6908],[14.161,41.6953],[14.1691,41.6974],[14.1704,41.7122],[14.1681,41.7199],[14.1712,41.7259],[14.174,41.7262],[14.1798,41.7286],[14.1818,41.731],[14.1819,41.7332],[14.199,41.7282],[14.2173,41.7262],[14.2249,41.7224]]]}},{"type":"Feature","properties":{"i":"094021","n":"Fornelli"},"geometry":{"type":"Polygon","coordinates":[[[14.1662,41.6378],[14.1641,41.6319],[14.1622,41.622],[14.1623,41.6174],[14.1598,41.6122],[14.1611,41.6032],[14.159,41.5849],[14.1532,41.5706],[14.1479,41.5667],[14.1383,41.5774],[14.1351,41.5862],[14.1256,41.6065],[14.1249,41.6149],[14.1253,41.6173],[14.1228,41.6204],[14.1187,41.6205],[14.1231,41.6246],[14.1187,41.6302],[14.1252,41.6421],[14.1327,41.6466],[14.1448,41.6485],[14.1483,41.6514],[14.152,41.6493],[14.1662,41.6378]]]}},{"type":"Feature","properties":{"i":"094022","n":"Frosolone"},"geometry":{"type":"Polygon","coordinates":[[[14.4792,41.6318],[14.4808,41.6296],[14.4815,41.6163],[14.4932,41.6174],[14.498,41.6165],[14.5097,41.6089],[14.5106,41.6042],[14.5125,41.6004],[14.5119,41.5964],[14.5062,41.597],[14.4902,41.5891],[14.4875,41.5889],[14.4805,41.5913],[14.4701,41.5925],[14.4563,41.5895],[14.4478,41.5861],[14.4471,41.5829],[14.4431,41.5803],[14.4359,41.5792],[14.4304,41.5802],[14.4139,41.5861],[14.4082,41.5874],[14.3944,41.5957],[14.3886,41.5943],[14.388,41.5988],[14.3815,41.6109],[14.375,41.6177],[14.3728,41.6179],[14.3687,41.6199],[14.3686,41.6258],[14.3798,41.6243],[14.3961,41.6305],[14.404,41.6307],[14.4231,41.6348],[14.4273,41.6373],[14.4353,41.6392],[14.4425,41.6422],[14.4519,41.6425],[14.4631,41.6359],[14.4746,41.6321],[14.4792,41.6318]]]}},{"type":"Feature","properties":{"i":"094023","n":"Isernia"},"geometry":{"type":"Polygon","coordinates":[[[14.2266,41.6638],[14.2262,41.6596],[14.2289,41.6554],[14.2288,41.6504],[14.223,41.6406],[14.2228,41.6392],[14.223,41.6365],[14.2262,41.6301],[14.2293,41.626],[14.2369,41.6193],[14.2461,41.6164],[14.2584,41.6151],[14.2596,41.6074],[14.2615,41.6036],[14.2719,41.5978],[14.2746,41.5971],[14.2616,41.5814],[14.2614,41.5768],[14.2629,41.5718],[14.2691,41.5608],[14.2721,41.5587],[14.2717,41.5567],[14.2654,41.5519],[14.2606,41.5553],[14.2587,41.555],[14.2553,41.5499],[14.2543,41.5467],[14.2519,41.5533],[14.2444,41.5583],[14.2434,41.5583],[14.2419,41.5559],[14.2401,41.5501],[14.2387,41.55],[14.2383,41.556],[14.2369,41.559],[14.2294,41.5656],[14.2217,41.5677],[14.2093,41.5686],[14.2016,41.5653],[14.1946,41.564],[14.1938,41.5663],[14.1885,41.5719],[14.1831,41.5756],[14.1682,41.582],[14.1736,41.5948],[14.1771,41.5977],[14.1788,41.6007],[14.1814,41.6067],[14.1818,41.611],[14.1727,41.6199],[14.1632,41.6183],[14.1623,41.6174],[14.1622,41.622],[14.1655,41.637],[14.1662,41.6378],[14.1735,41.6359],[14.1821,41.6455],[14.1898,41.6568],[14.1968,41.6624],[14.2049,41.6724],[14.2049,41.6741],[14.2184,41.6757],[14.2255,41.6729],[14.2267,41.6718],[14.2284,41.6664],[14.2266,41.6638]]]}},{"type":"Feature","properties":{"i":"094024","n":"Longano"},"geometry":{"type":"Polygon","coordinates":[[[14.2543,41.5467],[14.257,41.5462],[14.2675,41.54],[14.2705,41.5394],[14.2733,41.5331],[14.2765,41.5177],[14.2772,41.5079],[14.2784,41.5034],[14.2791,41.4864],[14.2611,41.4842],[14.2494,41.4846],[14.2472,41.486],[14.2407,41.4972],[14.2307,41.4981],[14.216,41.4968],[14.2149,41.5113],[14.2196,41.5116],[14.2215,41.513],[14.2318,41.5279],[14.2313,41.5407],[14.2322,41.5442],[14.2349,41.5472],[14.2387,41.55],[14.2401,41.5501],[14.2419,41.5559],[14.2436,41.5585],[14.2457,41.5578],[14.2519,41.5533],[14.2543,41.5467]]]}},{"type":"Feature","properties":{"i":"094025","n":"Macchia d'Isernia"},"geometry":{"type":"Polygon","coordinates":[[[14.1946,41.564],[14.1963,41.5613],[14.1952,41.5559],[14.1914,41.5466],[14.1894,41.544],[14.1683,41.5473],[14.1495,41.554],[14.1512,41.5579],[14.1454,41.5621],[14.1449,41.5646],[14.153,41.5703],[14.159,41.5849],[14.1611,41.6032],[14.1598,41.6122],[14.1629,41.6182],[14.1727,41.6199],[14.1818,41.611],[14.1814,41.6067],[14.1788,41.6007],[14.1771,41.5977],[14.1736,41.5948],[14.1682,41.582],[14.1831,41.5756],[14.1885,41.5719],[14.1938,41.5663],[14.1946,41.564]]]}},{"type":"Feature","properties":{"i":"094026","n":"Macchiagodena"},"geometry":{"type":"Polygon","coordinates":[[[14.4359,41.5792],[14.4472,41.5763],[14.4488,41.5746],[14.4522,41.5684],[14.4522,41.567],[14.4488,41.5642],[14.4469,41.5615],[14.4488,41.5565],[14.4518,41.5543],[14.4554,41.5536],[14.4574,41.5505],[14.4572,41.5435],[14.4536,41.5319],[14.4524,41.5307],[14.4501,41.5236],[14.4505,41.5218],[14.4527,41.5203],[14.4498,41.5184],[14.4467,41.5183],[14.4281,41.5247],[14.4022,41.5359],[14.3969,41.5372],[14.3945,41.539],[14.3899,41.5436],[14.3911,41.5608],[14.3823,41.5741],[14.3812,41.5787],[14.3822,41.5869],[14.3886,41.5943],[14.3944,41.5957],[14.4082,41.5874],[14.4139,41.5861],[14.4304,41.5802],[14.4359,41.5792]]]}},{"type":"Feature","properties":{"i":"094027","n":"Miranda"},"geometry":{"type":"Polygon","coordinates":[[[14.2825,41.6557],[14.2918,41.6536],[14.2938,41.6437],[14.2928,41.637],[14.2733,41.6288],[14.2646,41.6229],[14.2601,41.6178],[14.2552,41.615],[14.2435,41.6169],[14.2366,41.6194],[14.2293,41.626],[14.2262,41.6301],[14.223,41.6365],[14.223,41.6406],[14.2288,41.6504],[14.2289,41.6554],[14.2262,41.6596],[14.2266,41.6638],[14.2295,41.6614],[14.2441,41.6599],[14.2456,41.661],[14.2457,41.6636],[14.2476,41.6651],[14.2576,41.6665],[14.2614,41.6643],[14.2628,41.6607],[14.2669,41.6566],[14.2825,41.6557]]]}},{"type":"Feature","properties":{"i":"094028","n":"Montaquila"},"geometry":{"type":"Polygon","coordinates":[[[14.1374,41.5516],[14.135,41.5448],[14.1345,41.5389],[14.1381,41.5314],[14.141,41.529],[14.142,41.5238],[14.1363,41.5167],[14.1298,41.5119],[14.1284,41.5092],[14.1003,41.5345],[14.0964,41.5389],[14.0887,41.5402],[14.0898,41.5491],[14.0865,41.5586],[14.0786,41.5626],[14.0744,41.563],[14.0727,41.5674],[14.0727,41.5718],[14.0755,41.5788],[14.0769,41.5798],[14.0876,41.5806],[14.1141,41.5791],[14.1243,41.5798],[14.1258,41.5789],[14.126,41.5726],[14.1278,41.5656],[14.1348,41.5543],[14.1374,41.5516]]]}},{"type":"Feature","properties":{"i":"094029","n":"Montenero Val Cocchiara"},"geometry":{"type":"Polygon","coordinates":[[[14.0944,41.7379],[14.0951,41.7324],[14.1051,41.7166],[14.1072,41.7074],[14.1151,41.7021],[14.1105,41.6981],[14.1052,41.6965],[14.104,41.6948],[14.0877,41.6862],[14.0791,41.6802],[14.0627,41.683],[14.0627,41.6891],[14.0594,41.694],[14.0555,41.6957],[14.0538,41.6981],[14.0532,41.7193],[14.0664,41.7316],[14.0696,41.7372],[14.0775,41.7372],[14.0867,41.7391],[14.0944,41.7379]]]}},{"type":"Feature","properties":{"i":"094030","n":"Monteroduni"},"geometry":{"type":"Polygon","coordinates":[[[14.1894,41.544],[14.2049,41.5306],[14.2118,41.5194],[14.2155,41.5147],[14.2149,41.5113],[14.216,41.4968],[14.2049,41.4999],[14.195,41.4984],[14.1908,41.4965],[14.178,41.4972],[14.1748,41.4995],[14.1724,41.4992],[14.1673,41.4944],[14.1657,41.4794],[14.165,41.4788],[14.1574,41.4803],[14.1516,41.4827],[14.1495,41.4853],[14.137,41.4951],[14.1253,41.5074],[14.1284,41.5092],[14.1298,41.5119],[14.1363,41.5167],[14.142,41.5238],[14.141,41.529],[14.1381,41.5314],[14.1345,41.5389],[14.135,41.5448],[14.1374,41.5516],[14.146,41.55],[14.1491,41.5512],[14.1495,41.554],[14.1683,41.5473],[14.1894,41.544]]]}},{"type":"Feature","properties":{"i":"094031","n":"Pesche"},"geometry":{"type":"Polygon","coordinates":[[[14.3251,41.6225],[14.3177,41.6182],[14.3109,41.6107],[14.2969,41.5999],[14.2894,41.5979],[14.2789,41.5989],[14.2762,41.5966],[14.2719,41.5978],[14.2615,41.6036],[14.2596,41.6074],[14.2584,41.6151],[14.2552,41.615],[14.2601,41.6178],[14.2646,41.6229],[14.2733,41.6288],[14.2825,41.6329],[14.2865,41.6298],[14.2976,41.624],[14.304,41.6217],[14.3072,41.6217],[14.3149,41.6239],[14.3212,41.6237],[14.3251,41.6225]]]}},{"type":"Feature","properties":{"i":"094032","n":"Pescolanciano"},"geometry":{"type":"MultiPolygon","coordinates":[[[[14.4153,41.7215],[14.4145,41.7166],[14.4071,41.7035],[14.4026,41.6983],[14.3972,41.6941],[14.392,41.6962],[14.3763,41.7056],[14.3798,41.71],[14.3809,41.7143],[14.3802,41.7175],[14.3836,41.7212],[14.3982,41.7234],[14.406,41.7219],[14.4153,41.7215]]],[[[14.3567,41.7029],[14.3548,41.6997],[14.3588,41.6919],[14.3563,41.6821],[14.3538,41.6759],[14.35,41.6677],[14.3467,41.6634],[14.3431,41.6637],[14.3008,41.6587],[14.2918,41.6536],[14.2825,41.6557],[14.292,41.6733],[14.2927,41.6847],[14.2939,41.6896],[14.2965,41.6945],[14.2998,41.6963],[14.3054,41.6948],[14.3235,41.6923],[14.3305,41.6927],[14.3302,41.6943],[14.3286,41.6954],[14.3299,41.6998],[14.3315,41.7021],[14.3376,41.7053],[14.3396,41.7195],[14.3394,41.7242],[14.3466,41.727],[14.3508,41.7308],[14.3536,41.7351],[14.3554,41.7427],[14.3586,41.742],[14.3609,41.7392],[14.3637,41.7256],[14.36,41.7146],[14.3578,41.7131],[14.3553,41.7078],[14.3567,41.7029]]]]}},{"type":"Feature","properties":{"i":"094033","n":"Pescopennataro"},"geometry":{"type":"Polygon","coordinates":[[[14.3237,41.8964],[14.3249,41.8947],[14.3277,41.8859],[14.3433,41.8686],[14.343,41.8625],[14.3379,41.8564],[14.3296,41.8538],[14.3072,41.8532],[14.3001,41.8525],[14.2904,41.8501],[14.2877,41.8509],[14.2858,41.8532],[14.2851,41.8558],[14.2912,41.8591],[14.2938,41.8694],[14.291,41.8719],[14.2862,41.8726],[14.2818,41.8726],[14.2772,41.8714],[14.2755,41.8725],[14.2772,41.8759],[14.2889,41.89],[14.3002,41.8989],[14.3025,41.8944],[14.305,41.8931],[14.3126,41.8929],[14.3237,41.8964]]]}},{"type":"Feature","properties":{"i":"094034","n":"Pettoranello del Molise"},"geometry":{"type":"Polygon","coordinates":[[[14.3055,41.5693],[14.3057,41.566],[14.2933,41.5517],[14.2931,41.5473],[14.2842,41.5384],[14.2772,41.5385],[14.2675,41.54],[14.257,41.5462],[14.2543,41.5467],[14.2553,41.5499],[14.2587,41.555],[14.2606,41.5553],[14.2654,41.5519],[14.2717,41.5567],[14.2721,41.5587],[14.2691,41.5608],[14.2629,41.5718],[14.2614,41.5768],[14.2616,41.5814],[14.2746,41.5971],[14.2762,41.5966],[14.2784,41.5905],[14.2804,41.5877],[14.2883,41.5856],[14.2907,41.5857],[14.2995,41.5776],[14.3055,41.5693]]]}},{"type":"Feature","properties":{"i":"094035","n":"Pietrabbondante"},"geometry":{"type":"Polygon","coordinates":[[[14.4384,41.7395],[14.4275,41.7339],[14.4202,41.7248],[14.4165,41.7218],[14.4125,41.7213],[14.3982,41.7234],[14.3841,41.7213],[14.3824,41.7204],[14.3802,41.7175],[14.3809,41.7143],[14.3798,41.71],[14.3754,41.7046],[14.3694,41.7031],[14.3606,41.7038],[14.3567,41.7029],[14.3553,41.7078],[14.3578,41.7131],[14.36,41.7146],[14.3637,41.7256],[14.3609,41.7392],[14.3586,41.742],[14.3551,41.7429],[14.3553,41.7444],[14.3575,41.7468],[14.3612,41.7492],[14.3669,41.749],[14.3691,41.7498],[14.3745,41.7537],[14.3881,41.7612],[14.398,41.7609],[14.4143,41.7662],[14.4198,41.7646],[14.4316,41.7547],[14.4353,41.7483],[14.4358,41.7449],[14.4384,41.7395]]]}},{"type":"Feature","properties":{"i":"094036","n":"Pizzone"},"geometry":{"type":"Polygon","coordinates":[[[14.0532,41.7017],[14.0538,41.6981],[14.0555,41.6957],[14.0594,41.694],[14.0627,41.6891],[14.0627,41.683],[14.0612,41.6784],[14.0586,41.6749],[14.0549,41.6731],[14.0531,41.6709],[14.0522,41.6633],[14.0427,41.656],[14.036,41.6564],[14.0301,41.6576],[14.0278,41.6589],[14.022,41.6596],[14.0184,41.6594],[14.007,41.6562],[13.9883,41.6538],[13.9868,41.6564],[13.9757,41.6648],[13.9679,41.6732],[13.9548,41.6799],[13.9491,41.6813],[13.9444,41.684],[13.941,41.688],[13.9431,41.6886],[13.9481,41.6933],[13.9555,41.6955],[13.9632,41.696],[13.9831,41.6948],[13.9949,41.6932],[14.0022,41.6901],[14.0161,41.6827],[14.0187,41.6821],[14.0232,41.6915],[14.0242,41.6971],[14.0319,41.7021],[14.0421,41.7012],[14.0532,41.7017]]]}},{"type":"Feature","properties":{"i":"094037","n":"Poggio Sannita"},"geometry":{"type":"Polygon","coordinates":[[[14.4547,41.7958],[14.4644,41.777],[14.4585,41.7719],[14.4544,41.7648],[14.4548,41.7634],[14.4578,41.7621],[14.4704,41.7633],[14.4853,41.7597],[14.4834,41.7571],[14.4819,41.7516],[14.4789,41.7479],[14.4762,41.7458],[14.471,41.7441],[14.47,41.7417],[14.4675,41.7395],[14.4638,41.7372],[14.4597,41.7364],[14.4457,41.7359],[14.4386,41.7382],[14.4358,41.7449],[14.4353,41.7483],[14.4316,41.7547],[14.4286,41.7576],[14.4201,41.7645],[14.41,41.7681],[14.4044,41.7734],[14.4024,41.7773],[14.4051,41.7811],[14.4148,41.7903],[14.4302,41.7964],[14.4383,41.7979],[14.4547,41.7958]]]}},{"type":"Feature","properties":{"i":"094038","n":"Pozzilli"},"geometry":{"type":"Polygon","coordinates":[[[14.0887,41.5402],[14.0964,41.5389],[14.1003,41.5345],[14.1284,41.5092],[14.1253,41.5074],[14.1195,41.5065],[14.1155,41.4955],[14.1119,41.4889],[14.1073,41.4854],[14.1034,41.4837],[14.0947,41.4872],[14.0952,41.4917],[14.0947,41.4922],[14.073,41.5021],[14.0657,41.4995],[14.061,41.497],[14.0595,41.4954],[14.0532,41.4966],[14.0434,41.5002],[14.0441,41.5008],[14.0428,41.5042],[14.035,41.5144],[14.0221,41.5159],[14.0194,41.5179],[14.0193,41.5219],[14.0265,41.5227],[14.0275,41.5232],[14.0275,41.5243],[14.0094,41.5341],[14.0053,41.5388],[14.0207,41.5424],[14.0315,41.5406],[14.0441,41.5426],[14.0479,41.5402],[14.0518,41.5358],[14.0553,41.5342],[14.0657,41.5312],[14.0717,41.5306],[14.0783,41.5311],[14.0887,41.5402]]]}},{"type":"Feature","properties":{"i":"094039","n":"Rionero Sannitico"},"geometry":{"type":"Polygon","coordinates":[[[14.1819,41.7332],[14.1818,41.731],[14.1798,41.7286],[14.174,41.7262],[14.1712,41.7259],[14.1681,41.7199],[14.1704,41.7122],[14.1691,41.6974],[14.161,41.6953],[14.16,41.6908],[14.1539,41.6903],[14.142,41.6866],[14.1309,41.6934],[14.1254,41.6999],[14.12,41.7034],[14.1151,41.7021],[14.1072,41.7074],[14.1102,41.7087],[14.1168,41.7149],[14.1233,41.7261],[14.1228,41.7297],[14.1209,41.7324],[14.1154,41.7354],[14.1156,41.7373],[14.1207,41.7452],[14.1299,41.7444],[14.1387,41.7449],[14.1522,41.7462],[14.1594,41.7478],[14.1623,41.7502],[14.1611,41.7543],[14.1636,41.7595],[14.1707,41.7655],[14.1742,41.7655],[14.1756,41.7638],[14.1754,41.7536],[14.1764,41.7513],[14.1787,41.7492],[14.1782,41.7463],[14.1819,41.7332]]]}},{"type":"Feature","properties":{"i":"094040","n":"Roccamandolfi"},"geometry":{"type":"Polygon","coordinates":[[[14.3572,41.5187],[14.3588,41.5138],[14.3628,41.5111],[14.372,41.5129],[14.3764,41.5129],[14.3857,41.5045],[14.39,41.5051],[14.3887,41.4985],[14.3873,41.4796],[14.3848,41.4719],[14.3824,41.4681],[14.3777,41.4525],[14.3786,41.4489],[14.3825,41.4433],[14.353,41.4499],[14.3422,41.4541],[14.3272,41.4534],[14.3047,41.4664],[14.2979,41.4687],[14.2893,41.4695],[14.2843,41.4721],[14.2893,41.4732],[14.2921,41.4763],[14.2811,41.4841],[14.2791,41.4864],[14.2784,41.5034],[14.2774,41.5073],[14.3149,41.5068],[14.3283,41.5131],[14.3297,41.5175],[14.3335,41.5214],[14.3572,41.5187]]]}},{"type":"Feature","properties":{"i":"094041","n":"Roccasicura"},"geometry":{"type":"Polygon","coordinates":[[[14.2463,41.7243],[14.2507,41.7195],[14.2711,41.7025],[14.2778,41.6875],[14.2778,41.684],[14.2768,41.6826],[14.2715,41.6809],[14.251,41.6795],[14.2491,41.6768],[14.2493,41.6757],[14.2576,41.6665],[14.2476,41.6651],[14.2457,41.6636],[14.2459,41.6618],[14.2448,41.66],[14.2295,41.6614],[14.2266,41.6638],[14.2284,41.6661],[14.2262,41.6726],[14.2184,41.6757],[14.2049,41.6741],[14.2076,41.679],[14.2076,41.6833],[14.2049,41.6888],[14.204,41.6939],[14.2074,41.7069],[14.214,41.7134],[14.2218,41.7187],[14.2263,41.7247],[14.2294,41.7259],[14.2393,41.7263],[14.2463,41.7243]]]}},{"type":"Feature","properties":{"i":"094042","n":"Rocchetta a Volturno"},"geometry":{"type":"Polygon","coordinates":[[[14.0996,41.6232],[14.0978,41.6157],[14.0959,41.6131],[14.0826,41.6094],[14.0776,41.6092],[14.0687,41.6128],[14.066,41.615],[14.0643,41.6168],[14.0636,41.6197],[14.0553,41.6326],[14.0534,41.6332],[14.0503,41.6316],[14.0494,41.6252],[14.0435,41.6162],[14.0351,41.6131],[14.0265,41.6138],[14.0163,41.6162],[14.0134,41.6176],[14.0091,41.6218],[14.0054,41.6304],[14.0029,41.6308],[14.0018,41.6246],[13.998,41.6231],[13.9967,41.6241],[13.9939,41.639],[13.9982,41.6361],[14.0018,41.6349],[14.0151,41.6381],[14.0236,41.6417],[14.0265,41.6422],[14.0348,41.6406],[14.0368,41.6332],[14.0486,41.6336],[14.0539,41.6408],[14.077,41.6452],[14.0858,41.6562],[14.0981,41.6485],[14.1028,41.6332],[14.0999,41.6282],[14.0996,41.6232]]]}},{"type":"Feature","properties":{"i":"094043","n":"San Pietro Avellana"},"geometry":{"type":"Polygon","coordinates":[[[14.195,41.8415],[14.1963,41.8385],[14.1939,41.834],[14.1959,41.8311],[14.2038,41.8324],[14.2139,41.8363],[14.2236,41.8372],[14.2325,41.8356],[14.2367,41.8316],[14.2392,41.8281],[14.24,41.8207],[14.2429,41.8145],[14.2507,41.8049],[14.2505,41.8036],[14.2427,41.7961],[14.2407,41.793],[14.2388,41.7939],[14.2337,41.7945],[14.2167,41.7863],[14.2122,41.7782],[14.2123,41.7743],[14.2101,41.766],[14.2067,41.7632],[14.2012,41.7638],[14.2018,41.7649],[14.2012,41.7675],[14.1949,41.7729],[14.1874,41.7745],[14.1806,41.7734],[14.1768,41.7737],[14.1715,41.7784],[14.1692,41.7869],[14.1694,41.7894],[14.1678,41.797],[14.1648,41.8073],[14.1584,41.8156],[14.1542,41.8162],[14.1503,41.824],[14.1472,41.8273],[14.1514,41.831],[14.1558,41.8371],[14.1608,41.8397],[14.1635,41.8399],[14.1662,41.8424],[14.178,41.8454],[14.1871,41.8436],[14.1886,41.8418],[14.195,41.8415]]]}},{"type":"Feature","properties":{"i":"094044","n":"Sant'Agapito"},"geometry":{"type":"Polygon","coordinates":[[[14.2387,41.55],[14.2322,41.5442],[14.2313,41.5407],[14.2318,41.5279],[14.2215,41.513],[14.2196,41.5116],[14.216,41.5111],[14.2149,41.5113],[14.2156,41.5139],[14.2152,41.5152],[14.2118,41.5194],[14.2049,41.5306],[14.1894,41.544],[14.1914,41.5466],[14.1952,41.5559],[14.1963,41.5613],[14.1946,41.564],[14.2016,41.5653],[14.2093,41.5686],[14.2217,41.5677],[14.2294,41.5656],[14.2369,41.559],[14.2383,41.556],[14.2387,41.55]]]}},{"type":"Feature","properties":{"i":"094045","n":"Santa Maria del Molise"},"geometry":{"type":"Polygon","coordinates":[[[14.3822,41.5869],[14.3814,41.5838],[14.3815,41.576],[14.3913,41.5598],[14.3899,41.5436],[14.3859,41.5442],[14.3708,41.5431],[14.3638,41.5387],[14.3611,41.5343],[14.3613,41.5313],[14.3596,41.5223],[14.3572,41.5187],[14.3335,41.5214],[14.3209,41.5279],[14.32,41.5298],[14.3381,41.5289],[14.352,41.5349],[14.358,41.5399],[14.3608,41.5454],[14.3622,41.5546],[14.3624,41.5643],[14.3603,41.57],[14.3557,41.5764],[14.3572,41.5788],[14.3574,41.5837],[14.3527,41.5891],[14.3527,41.5914],[14.3542,41.5941],[14.3569,41.5961],[14.3641,41.5969],[14.3677,41.5966],[14.3822,41.5869]]]}},{"type":"Feature","properties":{"i":"094046","n":"Sant'Angelo del Pesco"},"geometry":{"type":"Polygon","coordinates":[[[14.3002,41.8989],[14.2889,41.89],[14.2772,41.8759],[14.2755,41.8727],[14.2775,41.8714],[14.2818,41.8726],[14.2906,41.872],[14.2938,41.8694],[14.2912,41.8591],[14.2851,41.8558],[14.2867,41.8589],[14.2861,41.8604],[14.284,41.8621],[14.2748,41.8613],[14.2669,41.8594],[14.2651,41.857],[14.2334,41.8757],[14.2318,41.8775],[14.2378,41.8786],[14.2448,41.8819],[14.2553,41.8922],[14.2611,41.8933],[14.2657,41.8959],[14.2692,41.8987],[14.273,41.9035],[14.2793,41.9095],[14.2842,41.9108],[14.2847,41.909],[14.291,41.9028],[14.3002,41.8989]]]}},{"type":"Feature","properties":{"i":"094047","n":"Sant'Elena Sannita"},"geometry":{"type":"Polygon","coordinates":[[[14.4922,41.5903],[14.4934,41.5894],[14.4924,41.5846],[14.4934,41.5724],[14.4754,41.5617],[14.4701,41.5564],[14.4679,41.5515],[14.4688,41.5411],[14.4696,41.5397],[14.4575,41.5461],[14.4574,41.5505],[14.4554,41.5536],[14.4518,41.5543],[14.4488,41.5565],[14.4469,41.5615],[14.4488,41.5642],[14.4522,41.567],[14.4522,41.5684],[14.4488,41.5746],[14.4472,41.5763],[14.4359,41.5792],[14.4431,41.5803],[14.4471,41.5829],[14.4478,41.5861],[14.4534,41.5888],[14.4701,41.5925],[14.4805,41.5913],[14.4875,41.5889],[14.4902,41.5891],[14.4922,41.5903]]]}},{"type":"Feature","properties":{"i":"094048","n":"Scapoli"},"geometry":{"type":"Polygon","coordinates":[[[14.0761,41.6099],[14.0643,41.5897],[14.0644,41.5804],[14.0486,41.5784],[14.0477,41.5647],[14.041,41.56],[14.0371,41.5587],[14.0305,41.5596],[14.0271,41.5624],[14.0292,41.5662],[14.0332,41.5692],[14.0395,41.5863],[14.0388,41.5895],[14.0309,41.59],[14.0259,41.5951],[14.0267,41.5986],[14.0219,41.606],[14.0028,41.6229],[14.0017,41.6263],[14.0027,41.6304],[14.0056,41.6303],[14.0091,41.6218],[14.0134,41.6176],[14.0163,41.6162],[14.0265,41.6138],[14.0346,41.6131],[14.0435,41.6162],[14.0494,41.6252],[14.0503,41.6316],[14.053,41.6331],[14.0545,41.633],[14.0608,41.6246],[14.0636,41.6197],[14.0643,41.6168],[14.0687,41.6128],[14.0761,41.6099]]]}},{"type":"Feature","properties":{"i":"094049","n":"Sessano del Molise"},"geometry":{"type":"Polygon","coordinates":[[[14.359,41.658],[14.3605,41.6565],[14.3635,41.6497],[14.3645,41.6453],[14.3654,41.6299],[14.3667,41.6267],[14.3686,41.6258],[14.3687,41.6199],[14.3567,41.621],[14.3383,41.6241],[14.3272,41.6223],[14.3212,41.6237],[14.3149,41.6239],[14.3072,41.6217],[14.304,41.6217],[14.2976,41.624],[14.2865,41.6298],[14.2825,41.6329],[14.2928,41.637],[14.2938,41.6437],[14.2918,41.6536],[14.3008,41.6587],[14.3431,41.6637],[14.3467,41.6634],[14.3475,41.6611],[14.3513,41.6588],[14.359,41.658]]]}},{"type":"Feature","properties":{"i":"094050","n":"Sesto Campano"},"geometry":{"type":"Polygon","coordinates":[[[14.0784,41.4471],[14.0801,41.4441],[14.0867,41.4378],[14.0997,41.4263],[14.1057,41.4224],[14.107,41.4175],[14.1039,41.4056],[14.1056,41.4012],[14.1126,41.3918],[14.1137,41.3887],[14.1114,41.3864],[14.1006,41.3904],[14.0919,41.3949],[14.0894,41.3982],[14.0848,41.4],[14.0732,41.3983],[14.0623,41.3979],[14.0424,41.3928],[14.0287,41.4084],[14.03,41.4119],[14.0294,41.4131],[14.0258,41.4174],[14.0231,41.4182],[14.0246,41.4289],[14.0211,41.441],[14.0232,41.4445],[14.0246,41.4503],[14.0215,41.4577],[14.0217,41.4605],[14.0283,41.4601],[14.0373,41.4515],[14.04,41.4469],[14.0462,41.442],[14.0584,41.4435],[14.0689,41.4484],[14.075,41.4466],[14.0784,41.4471]]]}},{"type":"Feature","properties":{"i":"094051","n":"Vastogirardi"},"geometry":{"type":"Polygon","coordinates":[[[14.3001,41.7935],[14.3208,41.779],[14.3138,41.7767],[14.3071,41.7757],[14.3054,41.7734],[14.3057,41.7703],[14.3039,41.762],[14.3011,41.7573],[14.3042,41.7525],[14.3086,41.7515],[14.3214,41.7557],[14.3248,41.756],[14.3372,41.75],[14.3273,41.7404],[14.3258,41.7373],[14.3239,41.7361],[14.3107,41.7391],[14.2983,41.7481],[14.2958,41.7482],[14.2785,41.7453],[14.268,41.7404],[14.262,41.7354],[14.2596,41.7309],[14.2517,41.7257],[14.2463,41.7243],[14.2393,41.7263],[14.2294,41.7259],[14.2263,41.7247],[14.2249,41.7235],[14.2249,41.7224],[14.2173,41.7262],[14.199,41.7282],[14.1819,41.7332],[14.1782,41.7463],[14.1787,41.7492],[14.1902,41.7482],[14.1941,41.7493],[14.1935,41.7515],[14.194,41.7561],[14.1949,41.7586],[14.1967,41.7607],[14.2012,41.7638],[14.2067,41.7632],[14.2099,41.7656],[14.2123,41.7743],[14.2122,41.7782],[14.215,41.784],[14.2171,41.7866],[14.2337,41.7945],[14.2388,41.7939],[14.2407,41.793],[14.2391,41.7873],[14.2405,41.7859],[14.2443,41.7848],[14.2567,41.791],[14.263,41.7974],[14.2668,41.7983],[14.2723,41.7961],[14.2752,41.7903],[14.2794,41.7872],[14.2973,41.7889],[14.299,41.7906],[14.3001,41.7935]]]}},{"type":"Feature","properties":{"i":"094052","n":"Venafro"},"geometry":{"type":"Polygon","coordinates":[[[14.1034,41.4837],[14.0948,41.4726],[14.0824,41.4655],[14.0858,41.4625],[14.0868,41.4597],[14.0838,41.4571],[14.0792,41.4499],[14.0784,41.4471],[14.075,41.4466],[14.0689,41.4484],[14.0584,41.4435],[14.0462,41.442],[14.04,41.4469],[14.0373,41.4515],[14.0283,41.4601],[14.0217,41.4605],[14.0215,41.4577],[14.0246,41.4503],[14.0232,41.4445],[14.0211,41.441],[14.0246,41.4289],[14.0231,41.4182],[14.013,41.4238],[14.0057,41.4246],[14.0007,41.4309],[14.0049,41.4346],[14.008,41.4396],[14.0092,41.4456],[14.007,41.4519],[14.0027,41.4538],[13.9844,41.4586],[13.9779,41.4625],[13.9839,41.4734],[13.9889,41.4796],[13.9912,41.4812],[13.9976,41.4841],[14.0111,41.4851],[14.0171,41.4806],[14.0192,41.4804],[14.022,41.4827],[14.0244,41.4878],[14.0237,41.4901],[14.0211,41.4908],[14.0285,41.4962],[14.0434,41.5002],[14.0532,41.4966],[14.0595,41.4954],[14.061,41.497],[14.0657,41.4995],[14.073,41.5021],[14.0947,41.4922],[14.0952,41.4917],[14.0947,41.4872],[14.1034,41.4837]]]}}]}
