{"type":"FeatureCollection","fonte":"Confini comunali ISTAT via openpolis/geojson-italy — CC BY 4.0","features":[{"type":"Feature","properties":{"i":"101001","n":"Belvedere di Spinello"},"geometry":{"type":"Polygon","coordinates":[[[16.9645,39.1961],[16.9647,39.1929],[16.9616,39.1904],[16.9458,39.1822],[16.9393,39.1803],[16.9316,39.174],[16.9244,39.1774],[16.9079,39.1825],[16.8966,39.1848],[16.8844,39.1937],[16.8866,39.199],[16.8864,39.202],[16.8845,39.2061],[16.8809,39.211],[16.8721,39.2132],[16.8759,39.2333],[16.8792,39.2376],[16.8838,39.2389],[16.9029,39.2421],[16.9132,39.242],[16.9151,39.2404],[16.9148,39.2377],[16.9102,39.2333],[16.9049,39.2304],[16.9039,39.2283],[16.9062,39.2258],[16.9182,39.218],[16.9372,39.2087],[16.9426,39.2038],[16.9519,39.1995],[16.9645,39.1961]]]}},{"type":"Feature","properties":{"i":"101002","n":"Caccuri"},"geometry":{"type":"Polygon","coordinates":[[[16.78,39.2533],[16.7749,39.2507],[16.7735,39.2515],[16.7704,39.2513],[16.7671,39.2472],[16.7877,39.2413],[16.8078,39.2375],[16.8191,39.2333],[16.823,39.2358],[16.8305,39.2378],[16.8428,39.2379],[16.8538,39.2314],[16.8584,39.2272],[16.8622,39.2176],[16.8656,39.2132],[16.8672,39.2051],[16.8677,39.193],[16.8632,39.1937],[16.8547,39.1905],[16.8491,39.1868],[16.844,39.1803],[16.841,39.1784],[16.8313,39.1738],[16.8266,39.1725],[16.8233,39.1719],[16.821,39.1723],[16.8134,39.1701],[16.8103,39.1701],[16.7888,39.1716],[16.7822,39.1742],[16.7815,39.1801],[16.7754,39.1893],[16.7727,39.1898],[16.7715,39.1926],[16.7719,39.1934],[16.7769,39.1954],[16.7772,39.1967],[16.7688,39.2082],[16.7686,39.2096],[16.7696,39.2106],[16.7662,39.2183],[16.7508,39.2358],[16.7469,39.245],[16.7587,39.2654],[16.7611,39.266],[16.7715,39.2598],[16.78,39.2533]]]}},{"type":"Feature","properties":{"i":"101003","n":"Carfizzi"},"geometry":{"type":"Polygon","coordinates":[[[17.0553,39.3367],[17.0474,39.3397],[17.0455,39.3397],[17.0271,39.3312],[17.0153,39.3293],[17.0046,39.3253],[17.0018,39.3213],[17.003,39.3198],[17.0022,39.3125],[16.9997,39.3025],[16.9945,39.3005],[16.9733,39.2961],[16.9678,39.2957],[16.9595,39.3016],[16.9529,39.3187],[16.9528,39.3232],[16.9556,39.3244],[16.9599,39.3236],[16.9689,39.324],[16.9941,39.3334],[17.0075,39.3368],[17.0112,39.34],[17.0039,39.3497],[17.0052,39.353],[17.0062,39.3537],[17.0155,39.3555],[17.0224,39.3542],[17.0238,39.3524],[17.0378,39.3439],[17.0394,39.3405],[17.045,39.3423],[17.05,39.3452],[17.0522,39.3455],[17.0557,39.3441],[17.0572,39.3383],[17.0553,39.3367]]]}},{"type":"Feature","properties":{"i":"101004","n":"Casabona"},"geometry":{"type":"Polygon","coordinates":[[[16.9997,39.2744],[17.0073,39.2685],[17.0104,39.2538],[17.0138,39.243],[17.0117,39.2343],[17.0096,39.2327],[17.0079,39.2279],[17.0087,39.2179],[17.01,39.2157],[17.007,39.2145],[17.0052,39.2149],[17.0043,39.2169],[16.999,39.2177],[16.9947,39.2162],[16.9928,39.2131],[16.9898,39.2109],[16.9825,39.2097],[16.9792,39.21],[16.9757,39.2124],[16.9706,39.2113],[16.9658,39.2053],[16.9645,39.2013],[16.9654,39.1978],[16.9645,39.1961],[16.9519,39.1995],[16.9426,39.2038],[16.9372,39.2087],[16.9182,39.218],[16.9068,39.2253],[16.9039,39.2283],[16.9049,39.2304],[16.9139,39.2362],[16.9148,39.2377],[16.9151,39.2404],[16.9132,39.242],[16.911,39.2424],[16.9029,39.2421],[16.9026,39.2441],[16.9003,39.2452],[16.891,39.2474],[16.8885,39.2548],[16.8894,39.2577],[16.8941,39.2605],[16.8943,39.2636],[16.8915,39.2641],[16.8916,39.2781],[16.8923,39.284],[16.8931,39.2843],[16.8978,39.2848],[16.91,39.2827],[16.923,39.2762],[16.9258,39.2685],[16.9386,39.2655],[16.9436,39.2656],[16.9454,39.2665],[16.9445,39.2733],[16.9455,39.2801],[16.9546,39.2907],[16.9583,39.2844],[16.9618,39.2838],[16.9688,39.278],[16.9708,39.2704],[16.9723,39.2679],[16.9761,39.2643],[16.9812,39.2609],[16.9895,39.2593],[16.9926,39.2612],[16.9997,39.2744]]]}},{"type":"Feature","properties":{"i":"101005","n":"Castelsilano"},"geometry":{"type":"Polygon","coordinates":[[[16.8915,39.2641],[16.8943,39.2636],[16.8941,39.2605],[16.8899,39.2582],[16.8884,39.2556],[16.891,39.2474],[16.9003,39.2452],[16.9026,39.2441],[16.9029,39.2421],[16.8927,39.2408],[16.8808,39.2382],[16.8792,39.2376],[16.8764,39.2342],[16.8721,39.2132],[16.8809,39.211],[16.8856,39.204],[16.8866,39.199],[16.8844,39.1937],[16.8683,39.1928],[16.8677,39.193],[16.8671,39.1969],[16.8672,39.2051],[16.8656,39.2132],[16.8622,39.2176],[16.8584,39.2272],[16.8538,39.2314],[16.8496,39.2337],[16.8513,39.2358],[16.8526,39.2576],[16.8551,39.2657],[16.8498,39.2755],[16.8478,39.2777],[16.8422,39.278],[16.8301,39.2769],[16.8281,39.275],[16.8287,39.2711],[16.8325,39.2669],[16.8344,39.262],[16.8312,39.2619],[16.8245,39.2691],[16.8229,39.2759],[16.8239,39.2798],[16.817,39.2791],[16.8155,39.2767],[16.8156,39.274],[16.8136,39.2675],[16.8019,39.2694],[16.7986,39.2711],[16.7933,39.2703],[16.7934,39.2688],[16.7959,39.2671],[16.8039,39.2659],[16.8037,39.2639],[16.7916,39.2535],[16.7874,39.2515],[16.7814,39.2524],[16.7715,39.2598],[16.7611,39.266],[16.7587,39.2654],[16.7573,39.2705],[16.7544,39.2742],[16.7515,39.2839],[16.7524,39.2859],[16.7639,39.2946],[16.7774,39.2914],[16.7924,39.2893],[16.8068,39.2887],[16.816,39.2934],[16.828,39.294],[16.8422,39.2884],[16.8498,39.2811],[16.8526,39.2734],[16.8578,39.265],[16.8658,39.2592],[16.8697,39.2584],[16.8757,39.2625],[16.8786,39.2634],[16.8893,39.2649],[16.8915,39.2641]]]}},{"type":"Feature","properties":{"i":"101006","n":"Cerenzia"},"geometry":{"type":"Polygon","coordinates":[[[16.8496,39.2337],[16.8428,39.2379],[16.8381,39.2382],[16.8272,39.2372],[16.823,39.2358],[16.8191,39.2333],[16.8078,39.2375],[16.7877,39.2413],[16.7671,39.2472],[16.7704,39.2513],[16.7735,39.2515],[16.7749,39.2507],[16.78,39.2533],[16.7814,39.2524],[16.7874,39.2515],[16.7897,39.2523],[16.8037,39.2639],[16.8039,39.2659],[16.7959,39.2671],[16.7934,39.2688],[16.7933,39.2703],[16.7986,39.2711],[16.8019,39.2694],[16.8136,39.2675],[16.8156,39.274],[16.8155,39.2767],[16.817,39.2791],[16.8239,39.2798],[16.8229,39.2759],[16.8245,39.2691],[16.8312,39.2619],[16.8344,39.262],[16.8325,39.2669],[16.8287,39.2711],[16.8281,39.275],[16.8301,39.2769],[16.8422,39.278],[16.8478,39.2777],[16.8498,39.2755],[16.8551,39.2657],[16.8526,39.2576],[16.8513,39.2358],[16.8496,39.2337]]]}},{"type":"Feature","properties":{"i":"101007","n":"Cirò"},"geometry":{"type":"Polygon","coordinates":[[[17.0945,39.4157],[17.0929,39.413],[17.0985,39.4011],[17.0977,39.3968],[17.0881,39.3816],[17.0882,39.3773],[17.0902,39.3699],[17.0905,39.3646],[17.0881,39.3621],[17.0866,39.3623],[17.0845,39.3639],[17.0784,39.3649],[17.0785,39.3575],[17.0808,39.3535],[17.0829,39.3529],[17.0882,39.3491],[17.0862,39.3456],[17.0778,39.3454],[17.0677,39.3356],[17.063,39.3278],[17.0563,39.334],[17.0553,39.3367],[17.0572,39.3383],[17.0557,39.3441],[17.0522,39.3455],[17.05,39.3452],[17.045,39.3423],[17.0394,39.3405],[17.0378,39.3439],[17.0238,39.3524],[17.0224,39.3542],[17.0158,39.3555],[17.0058,39.3536],[17.0039,39.3497],[16.9988,39.3532],[16.9942,39.361],[16.9855,39.3626],[16.9821,39.3642],[16.9848,39.3671],[16.9763,39.3833],[16.9761,39.386],[16.9781,39.3894],[16.983,39.3897],[16.9907,39.392],[17.0009,39.397],[17.0074,39.3971],[17.0172,39.3986],[17.0172,39.402],[17.0189,39.4054],[17.0312,39.412],[17.0332,39.4202],[17.0411,39.4323],[17.0486,39.4359],[17.0527,39.4394],[17.0805,39.422],[17.0945,39.4157]]]}},{"type":"Feature","properties":{"i":"101008","n":"Cirò Marina"},"geometry":{"type":"Polygon","coordinates":[[[17.1134,39.3213],[17.07,39.323],[17.0634,39.3255],[17.063,39.3278],[17.0677,39.3356],[17.0778,39.3454],[17.0862,39.3456],[17.0882,39.3491],[17.0829,39.3529],[17.0808,39.3535],[17.0785,39.3575],[17.0784,39.3649],[17.0845,39.3639],[17.0866,39.3623],[17.0881,39.3621],[17.0905,39.3646],[17.0902,39.3699],[17.0882,39.3773],[17.0881,39.3816],[17.0977,39.3968],[17.0985,39.4011],[17.0929,39.413],[17.0945,39.4157],[17.1086,39.4111],[17.1154,39.4066],[17.1193,39.4055],[17.139,39.402],[17.1551,39.4019],[17.1572,39.401],[17.1532,39.394],[17.1362,39.3754],[17.1335,39.3683],[17.135,39.3685],[17.136,39.3705],[17.1329,39.3595],[17.1269,39.3462],[17.1134,39.3213]]]}},{"type":"Feature","properties":{"i":"101009","n":"Cotronei"},"geometry":{"type":"Polygon","coordinates":[[[16.7737,39.1939],[16.7715,39.1929],[16.7724,39.1901],[16.7754,39.1893],[16.7774,39.1866],[16.7815,39.1801],[16.7822,39.1742],[16.7836,39.1733],[16.7888,39.1716],[16.8103,39.1701],[16.8134,39.1701],[16.821,39.1723],[16.8233,39.1719],[16.8227,39.1673],[16.8208,39.1618],[16.8186,39.1583],[16.8174,39.1504],[16.8222,39.1401],[16.8046,39.135],[16.7972,39.1348],[16.7887,39.1365],[16.7774,39.1402],[16.7694,39.1445],[16.7566,39.1463],[16.7473,39.1501],[16.7442,39.1529],[16.7363,39.153],[16.7292,39.1513],[16.719,39.1512],[16.7122,39.1557],[16.704,39.1559],[16.6968,39.1608],[16.6719,39.1615],[16.6693,39.156],[16.6615,39.1555],[16.6498,39.153],[16.6369,39.1601],[16.6286,39.1627],[16.6246,39.1745],[16.6171,39.1864],[16.6143,39.1893],[16.613,39.1942],[16.6158,39.1964],[16.6298,39.2004],[16.6375,39.2008],[16.6528,39.1983],[16.6745,39.2048],[16.6803,39.2058],[16.6949,39.2019],[16.6955,39.199],[16.6928,39.197],[16.6937,39.1954],[16.6982,39.1931],[16.7075,39.1958],[16.7194,39.1974],[16.7235,39.1943],[16.7278,39.1922],[16.7382,39.1903],[16.7462,39.1899],[16.763,39.1951],[16.7632,39.1964],[16.7657,39.1968],[16.7704,39.1973],[16.7737,39.1939]]]}},{"type":"Feature","properties":{"i":"101010","n":"Crotone"},"geometry":{"type":"Polygon","coordinates":[[[17.1681,38.9993],[17.159,39.0057],[17.148,39.0104],[17.1421,39.0083],[17.1208,39.0055],[17.1,39.006],[17.0961,39.0076],[17.095,39.0097],[17.0961,39.0117],[17.0952,39.0149],[17.0882,39.0231],[17.0858,39.0243],[17.0774,39.0255],[17.0813,39.0364],[17.0845,39.0406],[17.0847,39.0426],[17.0752,39.0393],[17.0747,39.0353],[17.064,39.0313],[17.0591,39.0242],[17.0591,39.023],[17.0579,39.0222],[17.0463,39.0245],[17.02,39.0333],[17.0154,39.0367],[17.015,39.0383],[17.0146,39.0549],[17.0071,39.0606],[17.0184,39.0645],[17.0177,39.0673],[17.0112,39.0787],[17.0024,39.0855],[16.9995,39.0895],[17.0007,39.0944],[17.0063,39.0965],[17.0107,39.097],[17.0279,39.0946],[17.0385,39.0972],[17.0467,39.1022],[17.0514,39.1078],[17.0514,39.1093],[17.0378,39.1122],[17.0313,39.1154],[17.0259,39.1188],[17.0218,39.1236],[17.0268,39.1352],[17.0333,39.1363],[17.0382,39.1358],[17.0438,39.1402],[17.0419,39.1423],[17.0403,39.1492],[17.0377,39.17],[17.039,39.1729],[17.0457,39.1742],[17.0488,39.1732],[17.0567,39.1787],[17.0579,39.1814],[17.0622,39.1826],[17.0646,39.1822],[17.0659,39.1774],[17.0746,39.1774],[17.0761,39.1791],[17.0817,39.1795],[17.0881,39.1784],[17.0915,39.179],[17.0935,39.1813],[17.0926,39.1833],[17.084,39.186],[17.0875,39.1889],[17.0997,39.1944],[17.1053,39.1958],[17.1171,39.2063],[17.1224,39.2129],[17.1292,39.2135],[17.1365,39.2129],[17.1405,39.2145],[17.1424,39.2116],[17.1477,39.2064],[17.1479,39.2053],[17.1461,39.198],[17.1231,39.1579],[17.1125,39.1318],[17.1103,39.124],[17.1082,39.1119],[17.11,39.098],[17.115,39.091],[17.1269,39.0847],[17.1359,39.0835],[17.1346,39.087],[17.1265,39.0956],[17.1352,39.087],[17.1382,39.08],[17.136,39.0802],[17.1324,39.0777],[17.1306,39.0752],[17.1302,39.0735],[17.1321,39.0654],[17.1336,39.0607],[17.1372,39.056],[17.1464,39.0473],[17.1566,39.041],[17.1747,39.0325],[17.1852,39.0307],[17.1933,39.0283],[17.2022,39.0277],[17.205,39.0295],[17.2065,39.0285],[17.2056,39.0246],[17.2037,39.0221],[17.2011,39.021],[17.1948,39.0218],[17.1882,39.0197],[17.1749,39.0078],[17.1705,39.001],[17.1681,38.9993]]]}},{"type":"Feature","properties":{"i":"101011","n":"Crucoli"},"geometry":{"type":"Polygon","coordinates":[[[17.0527,39.4394],[17.0486,39.4359],[17.0411,39.4323],[17.0332,39.4202],[17.0312,39.412],[17.0189,39.4054],[17.0172,39.402],[17.0172,39.3986],[17.0074,39.3971],[17.0009,39.397],[16.9907,39.392],[16.9801,39.3892],[16.9781,39.3894],[16.9764,39.3921],[16.9707,39.3955],[16.9599,39.3961],[16.9566,39.3972],[16.955,39.4028],[16.9563,39.4149],[16.9533,39.4287],[16.9543,39.4316],[16.9579,39.4341],[16.9572,39.437],[16.9635,39.4393],[16.9783,39.4527],[16.9929,39.4576],[16.9979,39.4599],[17.0032,39.4645],[17.0071,39.4694],[17.0193,39.4777],[17.0237,39.4824],[17.0269,39.4804],[17.0289,39.4774],[17.0367,39.4578],[17.0395,39.4531],[17.0469,39.4436],[17.0527,39.4394]]]}},{"type":"Feature","properties":{"i":"101012","n":"Cutro"},"geometry":{"type":"Polygon","coordinates":[[[16.9999,39.0886],[17.0024,39.0855],[17.0112,39.0787],[17.0181,39.0662],[17.0184,39.0645],[17.0071,39.0606],[17.0146,39.0549],[17.015,39.0383],[17.0154,39.0367],[17.02,39.0333],[17.0463,39.0245],[17.0579,39.0222],[17.0591,39.023],[17.0591,39.0242],[17.064,39.0313],[17.0747,39.0353],[17.0752,39.0393],[17.0847,39.0426],[17.0848,39.0412],[17.0813,39.0364],[17.0774,39.0255],[17.0749,39.0209],[17.0691,39.0127],[17.0608,39.0043],[17.0606,39.0013],[17.0657,38.9955],[17.0656,38.9902],[17.0548,38.9867],[17.0484,38.9861],[17.0463,38.9886],[17.0427,38.9895],[17.0375,38.9883],[17.0315,38.9843],[17.0317,38.9825],[17.0339,38.9799],[17.039,38.9768],[17.0416,38.9737],[17.0318,38.9722],[17.0206,38.9725],[17.0154,38.9747],[17.0106,38.9758],[17.0084,38.9756],[17.0081,38.975],[17.0119,38.9702],[17.0132,38.9648],[17.0085,38.9571],[16.9909,38.9445],[16.9868,38.9394],[16.9849,38.9381],[16.959,38.9386],[16.8906,38.928],[16.8911,38.9334],[16.8917,38.9339],[16.9039,38.936],[16.9073,38.9404],[16.908,38.9437],[16.9073,38.9456],[16.9122,38.9499],[16.9206,38.9526],[16.9154,38.961],[16.9138,38.9696],[16.9163,38.9721],[16.9228,38.9741],[16.9244,38.9773],[16.9222,38.9786],[16.9139,38.98],[16.9086,38.9849],[16.9098,38.9866],[16.9171,38.991],[16.9169,38.9926],[16.9146,38.9954],[16.9173,38.9981],[16.9189,39.0016],[16.923,39.0037],[16.9304,39.0027],[16.9312,38.9984],[16.9394,39.0],[16.9427,39.0117],[16.9411,39.0218],[16.9534,39.0351],[16.9624,39.0384],[16.965,39.042],[16.9651,39.0433],[16.9555,39.0545],[16.9528,39.0589],[16.9523,39.0624],[16.957,39.0649],[16.9627,39.0655],[16.9675,39.065],[16.9696,39.0657],[16.9719,39.0683],[16.975,39.0734],[16.975,39.081],[16.9723,39.0854],[16.9725,39.0869],[16.98,39.0894],[16.9827,39.0881],[16.9856,39.0892],[16.9871,39.091],[16.9999,39.0886]]]}},{"type":"Feature","properties":{"i":"101013","n":"Isola di Capo Rizzuto"},"geometry":{"type":"Polygon","coordinates":[[[17.1681,38.9993],[17.1662,38.9969],[17.1598,38.9794],[17.1604,38.9713],[17.1644,38.9649],[17.1668,38.9641],[17.1681,38.9623],[17.1703,38.9568],[17.1689,38.9549],[17.1634,38.9507],[17.1525,38.9461],[17.1485,38.9435],[17.1108,38.9099],[17.1013,38.9049],[17.0997,38.9034],[17.0966,38.8976],[17.0972,38.8945],[17.0942,38.8926],[17.0908,38.8941],[17.0896,38.8961],[17.0934,38.9056],[17.0897,38.9095],[17.0851,38.9122],[17.0611,38.9179],[17.0474,38.9193],[17.0421,38.9189],[17.0309,38.9159],[17.0265,38.9085],[17.025,38.9068],[17.0221,38.906],[17.0103,38.9117],[17.006,38.9157],[16.9961,38.9307],[16.9867,38.9363],[16.9828,38.9377],[16.9866,38.9392],[16.9909,38.9445],[17.0085,38.9571],[17.0132,38.9648],[17.0119,38.9702],[17.0081,38.975],[17.0084,38.9756],[17.0106,38.9758],[17.0154,38.9747],[17.0206,38.9725],[17.0318,38.9722],[17.0416,38.9737],[17.039,38.9768],[17.0339,38.9799],[17.0317,38.9825],[17.0315,38.9843],[17.0375,38.9883],[17.0427,38.9895],[17.0463,38.9886],[17.0484,38.9861],[17.0548,38.9867],[17.0656,38.9902],[17.0657,38.9955],[17.0606,39.0013],[17.0608,39.0043],[17.0691,39.0127],[17.0774,39.0255],[17.0858,39.0243],[17.0882,39.0231],[17.0952,39.0149],[17.0961,39.0117],[17.095,39.0106],[17.0954,39.0083],[17.0992,39.0062],[17.1208,39.0055],[17.1421,39.0083],[17.148,39.0104],[17.159,39.0057],[17.1681,38.9993]]]}},{"type":"Feature","properties":{"i":"101014","n":"Melissa"},"geometry":{"type":"Polygon","coordinates":[[[17.0553,39.3367],[17.0563,39.334],[17.063,39.3278],[17.0636,39.3252],[17.069,39.3232],[17.1134,39.3213],[17.1098,39.3086],[17.1106,39.2898],[17.1048,39.2894],[17.0962,39.291],[17.0814,39.29],[17.075,39.288],[17.0741,39.2865],[17.0723,39.2856],[17.0636,39.2837],[17.0571,39.2851],[17.052,39.2852],[17.0407,39.2823],[17.0305,39.2817],[17.0256,39.2834],[17.0217,39.2833],[17.0156,39.28],[17.0141,39.2745],[17.0147,39.272],[17.0168,39.2701],[17.0145,39.268],[17.0129,39.2677],[17.0073,39.2685],[16.998,39.2761],[16.9935,39.2791],[16.9853,39.2828],[16.97,39.2934],[16.9678,39.2957],[16.9733,39.2961],[16.993,39.3002],[16.9997,39.3025],[17.0022,39.3125],[17.003,39.3198],[17.0018,39.3213],[17.0046,39.3253],[17.0153,39.3293],[17.0271,39.3312],[17.0455,39.3397],[17.0474,39.3397],[17.0553,39.3367]]]}},{"type":"Feature","properties":{"i":"101015","n":"Mesoraca"},"geometry":{"type":"Polygon","coordinates":[[[16.9084,39.0496],[16.9112,39.0493],[16.912,39.0482],[16.9127,39.0402],[16.9119,39.0369],[16.9121,39.0316],[16.9168,39.0152],[16.9152,39.008],[16.913,39.0051],[16.9125,39.0031],[16.9143,38.9958],[16.9172,38.9916],[16.9164,38.9902],[16.9098,38.9866],[16.9086,38.9849],[16.9139,38.98],[16.9222,38.9786],[16.924,38.9778],[16.9245,38.9766],[16.9228,38.9741],[16.9163,38.9721],[16.9138,38.9696],[16.9152,38.9614],[16.9182,38.9566],[16.9156,38.9559],[16.9061,38.9623],[16.9015,38.9674],[16.8933,38.9718],[16.8912,38.9738],[16.8949,38.9794],[16.8959,38.9841],[16.8985,38.9866],[16.8946,38.9869],[16.8914,38.9889],[16.8945,38.9977],[16.895,39.0028],[16.8861,39.0048],[16.8768,39.0126],[16.8728,39.0186],[16.8649,39.0184],[16.8403,39.042],[16.8294,39.0444],[16.8263,39.0469],[16.8174,39.0515],[16.8065,39.0549],[16.7875,39.0579],[16.7774,39.0633],[16.7609,39.0666],[16.7451,39.0656],[16.7435,39.0649],[16.7399,39.06],[16.7338,39.0589],[16.7293,39.0625],[16.7234,39.069],[16.7059,39.0827],[16.7041,39.0865],[16.7009,39.0888],[16.6937,39.0912],[16.6797,39.0932],[16.6748,39.101],[16.6587,39.1184],[16.6535,39.1224],[16.6507,39.1235],[16.6529,39.125],[16.6516,39.1268],[16.64,39.13],[16.6384,39.1308],[16.6383,39.1321],[16.6567,39.132],[16.6667,39.1336],[16.6692,39.1364],[16.6698,39.131],[16.6735,39.1252],[16.6852,39.1177],[16.6908,39.1154],[16.7027,39.1146],[16.7073,39.1164],[16.7064,39.1102],[16.7172,39.1059],[16.7261,39.0992],[16.7262,39.0977],[16.7244,39.0976],[16.7245,39.0969],[16.7291,39.0949],[16.7541,39.093],[16.781,39.0956],[16.8087,39.0956],[16.8131,39.0941],[16.8206,39.0887],[16.8397,39.0816],[16.851,39.0708],[16.8528,39.0653],[16.859,39.0594],[16.8703,39.0539],[16.8765,39.0511],[16.8983,39.0479],[16.9059,39.0486],[16.9084,39.0496]]]}},{"type":"Feature","properties":{"i":"101016","n":"Pallagorio"},"geometry":{"type":"Polygon","coordinates":[[[16.9556,39.3244],[16.9528,39.3232],[16.9529,39.3187],[16.9595,39.3016],[16.9539,39.2952],[16.9546,39.2907],[16.9455,39.2801],[16.9445,39.2733],[16.9453,39.2706],[16.9451,39.2659],[16.9386,39.2655],[16.927,39.2679],[16.9258,39.2685],[16.923,39.2762],[16.91,39.2827],[16.8978,39.2848],[16.8923,39.284],[16.8885,39.2905],[16.8887,39.2918],[16.8829,39.3075],[16.8748,39.3163],[16.8714,39.3188],[16.856,39.3262],[16.8397,39.3408],[16.8404,39.3497],[16.843,39.3534],[16.8499,39.3566],[16.8566,39.3588],[16.8681,39.3568],[16.87,39.3599],[16.8714,39.3586],[16.8721,39.3559],[16.8705,39.3491],[16.8707,39.3431],[16.8748,39.3371],[16.8873,39.3364],[16.8897,39.3331],[16.8983,39.3286],[16.906,39.3305],[16.9088,39.3303],[16.9144,39.3283],[16.9175,39.3256],[16.9195,39.3212],[16.9243,39.3199],[16.928,39.32],[16.9389,39.3251],[16.9526,39.3261],[16.9556,39.3244]]]}},{"type":"Feature","properties":{"i":"101017","n":"Petilia Policastro"},"geometry":{"type":"Polygon","coordinates":[[[16.8222,39.1401],[16.8247,39.1402],[16.8307,39.1438],[16.8344,39.1416],[16.8322,39.1289],[16.8328,39.1262],[16.8463,39.1134],[16.8646,39.1068],[16.8698,39.1032],[16.8758,39.0932],[16.8747,39.0877],[16.875,39.0845],[16.8816,39.0814],[16.9014,39.0531],[16.9084,39.0496],[16.9059,39.0486],[16.8983,39.0479],[16.8765,39.0511],[16.8703,39.0539],[16.859,39.0594],[16.8528,39.0653],[16.851,39.0708],[16.8397,39.0816],[16.8206,39.0887],[16.8131,39.0941],[16.8087,39.0956],[16.781,39.0956],[16.7541,39.093],[16.7295,39.0948],[16.7253,39.0965],[16.7244,39.0976],[16.7262,39.0977],[16.7263,39.099],[16.7222,39.1024],[16.716,39.1066],[16.7143,39.1066],[16.7064,39.1102],[16.7073,39.1164],[16.7027,39.1146],[16.6908,39.1154],[16.6852,39.1177],[16.6735,39.1252],[16.6698,39.131],[16.6692,39.1364],[16.6755,39.1326],[16.6789,39.1315],[16.6802,39.1327],[16.6793,39.1356],[16.6782,39.1366],[16.6705,39.1415],[16.6688,39.1548],[16.6719,39.1615],[16.6968,39.1608],[16.704,39.1559],[16.7122,39.1557],[16.719,39.1512],[16.7292,39.1513],[16.7363,39.153],[16.7442,39.1529],[16.7473,39.1501],[16.7566,39.1463],[16.7694,39.1445],[16.7774,39.1402],[16.7887,39.1365],[16.7972,39.1348],[16.8046,39.135],[16.8222,39.1401]]]}},{"type":"Feature","properties":{"i":"101018","n":"Roccabernarda"},"geometry":{"type":"Polygon","coordinates":[[[16.8979,39.1168],[16.8999,39.1128],[16.9001,39.1089],[16.8912,39.0995],[16.8836,39.0936],[16.8842,39.0885],[16.8935,39.0761],[16.9049,39.0651],[16.9094,39.0579],[16.913,39.0574],[16.9219,39.0594],[16.9376,39.0536],[16.9491,39.0619],[16.9516,39.0627],[16.9528,39.0589],[16.9555,39.0545],[16.9653,39.0429],[16.9624,39.0384],[16.9534,39.0351],[16.9411,39.0218],[16.9425,39.0153],[16.9424,39.0093],[16.9396,39.0004],[16.9384,38.9994],[16.9312,38.9984],[16.9304,39.0027],[16.923,39.0037],[16.9189,39.0016],[16.9173,38.9981],[16.9143,38.9958],[16.9126,39.0043],[16.9152,39.008],[16.9168,39.0152],[16.9121,39.0316],[16.9119,39.0369],[16.9127,39.0402],[16.9119,39.0486],[16.9109,39.0494],[16.9062,39.0503],[16.9014,39.0531],[16.882,39.0809],[16.875,39.0845],[16.8747,39.0877],[16.8758,39.0932],[16.8698,39.1032],[16.8646,39.1068],[16.8463,39.1134],[16.8328,39.1262],[16.8322,39.1289],[16.8344,39.1416],[16.8307,39.1438],[16.8247,39.1402],[16.8222,39.1401],[16.8174,39.1504],[16.8186,39.1583],[16.8208,39.1618],[16.8227,39.1673],[16.8233,39.1719],[16.8313,39.1738],[16.844,39.1803],[16.8472,39.1765],[16.8617,39.1684],[16.8655,39.1647],[16.8821,39.1578],[16.8908,39.1421],[16.896,39.135],[16.9025,39.1284],[16.8989,39.1233],[16.8979,39.1168]]]}},{"type":"Feature","properties":{"i":"101019","n":"Rocca di Neto"},"geometry":{"type":"Polygon","coordinates":[[[17.01,39.2157],[17.0197,39.215],[17.0273,39.212],[17.0273,39.2103],[17.0324,39.204],[17.0373,39.2087],[17.0442,39.2079],[17.0463,39.2075],[17.0486,39.2053],[17.0469,39.2027],[17.0556,39.1978],[17.0605,39.1996],[17.0744,39.1971],[17.0778,39.1896],[17.0778,39.1862],[17.0819,39.1852],[17.084,39.186],[17.0916,39.1838],[17.0935,39.1821],[17.0932,39.1808],[17.0899,39.1786],[17.0817,39.1795],[17.0761,39.1791],[17.0746,39.1774],[17.0659,39.1774],[17.0646,39.1822],[17.0622,39.1826],[17.0579,39.1814],[17.0567,39.1787],[17.0488,39.1732],[17.0457,39.1742],[17.039,39.1729],[17.0367,39.1749],[17.0288,39.1789],[17.0252,39.1794],[17.0236,39.1778],[17.0221,39.1725],[17.0206,39.1711],[17.0149,39.1707],[17.005,39.1727],[17.0029,39.1718],[16.9988,39.1676],[16.9966,39.1669],[16.9902,39.1673],[16.9841,39.169],[16.9799,39.1684],[16.9808,39.1673],[16.9794,39.1682],[16.9702,39.1676],[16.9609,39.1647],[16.9482,39.1663],[16.9316,39.174],[16.9393,39.1803],[16.9527,39.1854],[16.9647,39.1929],[16.9645,39.1961],[16.9654,39.1978],[16.9645,39.2013],[16.9662,39.206],[16.9706,39.2113],[16.9757,39.2124],[16.9792,39.21],[16.9825,39.2097],[16.9898,39.2109],[16.9928,39.2131],[16.9947,39.2162],[16.999,39.2177],[17.0043,39.2169],[17.0052,39.2149],[17.007,39.2145],[17.01,39.2157]]]}},{"type":"Feature","properties":{"i":"101020","n":"San Mauro Marchesato"},"geometry":{"type":"Polygon","coordinates":[[[16.9871,39.091],[16.9856,39.0892],[16.9827,39.0881],[16.98,39.0894],[16.9725,39.0869],[16.9723,39.0854],[16.975,39.081],[16.975,39.0734],[16.9696,39.0657],[16.9675,39.065],[16.9627,39.0655],[16.957,39.0649],[16.9523,39.0624],[16.9507,39.0626],[16.9376,39.0536],[16.9219,39.0594],[16.913,39.0574],[16.9097,39.0576],[16.9049,39.0651],[16.8935,39.0761],[16.8842,39.0885],[16.8836,39.0936],[16.8912,39.0995],[16.9001,39.1089],[16.8999,39.1128],[16.8979,39.1168],[16.9107,39.1133],[16.9131,39.1108],[16.9182,39.1095],[16.928,39.1136],[16.9427,39.1235],[16.9469,39.1232],[16.9528,39.1193],[16.9586,39.1135],[16.9663,39.1013],[16.9711,39.0958],[16.976,39.0944],[16.9849,39.0941],[16.9871,39.091]]]}},{"type":"Feature","properties":{"i":"101021","n":"San Nicola dell'Alto"},"geometry":{"type":"Polygon","coordinates":[[[16.9997,39.2744],[16.9926,39.2612],[16.9895,39.2593],[16.9812,39.2609],[16.9723,39.2679],[16.9706,39.2709],[16.9706,39.273],[16.9686,39.2783],[16.9618,39.2838],[16.9583,39.2844],[16.9546,39.2907],[16.9539,39.2952],[16.9595,39.3016],[16.9853,39.2828],[16.9935,39.2791],[16.9997,39.2744]]]}},{"type":"Feature","properties":{"i":"101022","n":"Santa Severina"},"geometry":{"type":"Polygon","coordinates":[[[16.8844,39.1937],[16.8966,39.1848],[16.9079,39.1825],[16.9244,39.1774],[16.9482,39.1663],[16.9609,39.1647],[16.9702,39.1676],[16.9794,39.1682],[16.9858,39.1634],[16.9881,39.1565],[16.9785,39.1502],[16.9687,39.1458],[16.9548,39.142],[16.949,39.1387],[16.9439,39.1248],[16.928,39.1136],[16.9182,39.1095],[16.9131,39.1108],[16.9107,39.1133],[16.8979,39.1168],[16.8989,39.1233],[16.9025,39.1284],[16.896,39.135],[16.8908,39.1421],[16.8821,39.1578],[16.8655,39.1647],[16.8617,39.1684],[16.8472,39.1765],[16.844,39.1803],[16.8491,39.1868],[16.8547,39.1905],[16.8632,39.1937],[16.87,39.1926],[16.8844,39.1937]]]}},{"type":"Feature","properties":{"i":"101023","n":"Savelli"},"geometry":{"type":"Polygon","coordinates":[[[16.7903,39.3489],[16.7921,39.3476],[16.7974,39.3347],[16.7994,39.3237],[16.8027,39.3143],[16.8113,39.3029],[16.8077,39.2931],[16.8116,39.2909],[16.808,39.289],[16.7924,39.2893],[16.7774,39.2914],[16.7639,39.2946],[16.7622,39.2939],[16.761,39.2919],[16.7522,39.2966],[16.7442,39.3023],[16.7436,39.3048],[16.7406,39.3084],[16.7322,39.314],[16.7085,39.3208],[16.7063,39.3229],[16.7051,39.3255],[16.7077,39.331],[16.7087,39.3351],[16.7078,39.3403],[16.7049,39.3471],[16.7049,39.3546],[16.712,39.3556],[16.7167,39.3551],[16.7189,39.3543],[16.7202,39.3523],[16.7244,39.3504],[16.7293,39.3502],[16.7313,39.3513],[16.7333,39.3544],[16.7333,39.3557],[16.7306,39.3575],[16.7317,39.3604],[16.7339,39.3616],[16.737,39.3613],[16.7451,39.3579],[16.7557,39.358],[16.7591,39.3618],[16.7625,39.3623],[16.7642,39.3616],[16.7681,39.3572],[16.771,39.3531],[16.7723,39.3489],[16.7736,39.3479],[16.7805,39.3476],[16.7867,39.349],[16.7903,39.3489]]]}},{"type":"Feature","properties":{"i":"101024","n":"Scandale"},"geometry":{"type":"Polygon","coordinates":[[[17.039,39.1729],[17.0377,39.17],[17.0403,39.1492],[17.0419,39.1423],[17.0438,39.1402],[17.0382,39.1358],[17.0333,39.1363],[17.0268,39.1352],[17.0218,39.124],[17.0254,39.1193],[17.0313,39.1154],[17.0378,39.1122],[17.0514,39.1093],[17.0514,39.1078],[17.0486,39.1039],[17.0385,39.0972],[17.0279,39.0946],[17.0107,39.097],[17.0063,39.0965],[17.0007,39.0944],[16.9994,39.09],[16.9999,39.0886],[16.9871,39.091],[16.9849,39.0941],[16.976,39.0944],[16.9711,39.0958],[16.9663,39.1013],[16.9586,39.1135],[16.9528,39.1193],[16.9469,39.1232],[16.9427,39.1235],[16.9463,39.1303],[16.949,39.1387],[16.9548,39.142],[16.9687,39.1458],[16.9785,39.1502],[16.9881,39.1565],[16.9858,39.1634],[16.9799,39.1684],[16.9847,39.1689],[16.9902,39.1673],[16.9966,39.1669],[16.9988,39.1676],[17.0042,39.1725],[17.0071,39.1726],[17.0149,39.1707],[17.0206,39.1711],[17.0221,39.1725],[17.0242,39.1788],[17.0258,39.1795],[17.0288,39.1789],[17.0367,39.1749],[17.039,39.1729]]]}},{"type":"Feature","properties":{"i":"101025","n":"Strongoli"},"geometry":{"type":"Polygon","coordinates":[[[17.1405,39.2145],[17.1365,39.2129],[17.1292,39.2135],[17.1224,39.2129],[17.1171,39.2063],[17.1053,39.1958],[17.0997,39.1944],[17.0875,39.1889],[17.0824,39.1851],[17.0778,39.1862],[17.0778,39.1896],[17.0744,39.1971],[17.0605,39.1996],[17.0556,39.1978],[17.0469,39.2027],[17.0486,39.2053],[17.0463,39.2075],[17.0442,39.2079],[17.0373,39.2087],[17.0324,39.204],[17.0273,39.2103],[17.0273,39.212],[17.0197,39.215],[17.01,39.2157],[17.0087,39.2179],[17.0079,39.2279],[17.0096,39.2327],[17.0117,39.2343],[17.0138,39.243],[17.0104,39.2538],[17.0073,39.2685],[17.0129,39.2677],[17.0164,39.2695],[17.0166,39.2705],[17.0147,39.272],[17.0141,39.2745],[17.0156,39.28],[17.0217,39.2833],[17.0256,39.2834],[17.0305,39.2817],[17.0407,39.2823],[17.052,39.2852],[17.0571,39.2851],[17.0636,39.2837],[17.0723,39.2856],[17.0741,39.2865],[17.075,39.288],[17.0814,39.29],[17.0962,39.291],[17.1062,39.2892],[17.1109,39.2903],[17.1115,39.2891],[17.1048,39.2668],[17.1054,39.2574],[17.1074,39.2509],[17.1112,39.2455],[17.1193,39.2373],[17.1284,39.2232],[17.1328,39.219],[17.1405,39.2145]]]}},{"type":"Feature","properties":{"i":"101026","n":"Umbriatico"},"geometry":{"type":"Polygon","coordinates":[[[16.9566,39.3972],[16.9599,39.3961],[16.9707,39.3955],[16.9764,39.3921],[16.9781,39.3894],[16.9761,39.386],[16.9763,39.3833],[16.9848,39.3671],[16.9821,39.3642],[16.9855,39.3626],[16.9942,39.361],[16.9988,39.3532],[17.0039,39.3497],[17.0112,39.34],[17.0075,39.3368],[16.9941,39.3334],[16.9689,39.324],[16.9599,39.3236],[16.956,39.3242],[16.9526,39.3261],[16.9389,39.3251],[16.928,39.32],[16.926,39.3198],[16.9195,39.3212],[16.9175,39.3256],[16.9144,39.3283],[16.9088,39.3303],[16.906,39.3305],[16.8983,39.3286],[16.8897,39.3331],[16.8873,39.3364],[16.8748,39.3371],[16.8707,39.3431],[16.8705,39.3491],[16.8721,39.3559],[16.8714,39.3586],[16.87,39.3599],[16.8797,39.3734],[16.8904,39.3742],[16.9059,39.3811],[16.913,39.3831],[16.9152,39.3864],[16.9149,39.396],[16.9089,39.3981],[16.9014,39.4054],[16.9007,39.4098],[16.9038,39.4131],[16.9201,39.409],[16.9319,39.4031],[16.9416,39.3958],[16.9523,39.3942],[16.9566,39.3972]]]}},{"type":"Feature","properties":{"i":"101027","n":"Verzino"},"geometry":{"type":"Polygon","coordinates":[[[16.8397,39.3408],[16.856,39.3262],[16.8714,39.3188],[16.8748,39.3163],[16.8829,39.3075],[16.8887,39.2918],[16.8885,39.2905],[16.8923,39.284],[16.8915,39.2641],[16.8893,39.2649],[16.8786,39.2634],[16.8757,39.2625],[16.8697,39.2584],[16.8658,39.2592],[16.8578,39.265],[16.8526,39.2734],[16.8498,39.2811],[16.8422,39.2884],[16.828,39.294],[16.816,39.2934],[16.8113,39.2913],[16.8077,39.2931],[16.8113,39.3029],[16.8027,39.3143],[16.7994,39.3237],[16.7974,39.3347],[16.7921,39.3476],[16.7893,39.3497],[16.7895,39.351],[16.7944,39.3525],[16.7989,39.3511],[16.8254,39.3459],[16.834,39.3454],[16.8397,39.3408]]]}}]}
