{"type":"FeatureCollection","fonte":"Confini comunali ISTAT via openpolis/geojson-italy — CC BY 4.0","features":[{"type":"Feature","properties":{"i":"097001","n":"Abbadia Lariana"},"geometry":{"type":"Polygon","coordinates":[[[9.3948,45.9152],[9.3968,45.9116],[9.3976,45.9082],[9.3964,45.9072],[9.3952,45.9032],[9.3964,45.9024],[9.3906,45.8958],[9.3915,45.8932],[9.3877,45.8863],[9.3857,45.884],[9.3657,45.8746],[9.3581,45.8804],[9.347,45.8874],[9.3443,45.8884],[9.3323,45.8891],[9.327,45.8909],[9.3266,45.8943],[9.3258,45.8955],[9.3241,45.8958],[9.3124,45.9054],[9.3143,45.9071],[9.3184,45.9043],[9.322,45.905],[9.327,45.9089],[9.3303,45.9146],[9.3328,45.9164],[9.3366,45.9174],[9.3557,45.9121],[9.3656,45.9107],[9.3747,45.9058],[9.3828,45.9043],[9.3886,45.9054],[9.3948,45.9152]]]}},{"type":"Feature","properties":{"i":"097002","n":"Airuno"},"geometry":{"type":"Polygon","coordinates":[[[9.4231,45.7642],[9.4273,45.7642],[9.4407,45.7582],[9.4412,45.7573],[9.4362,45.7477],[9.4285,45.7458],[9.4162,45.7464],[9.4093,45.7493],[9.4,45.758],[9.4029,45.7596],[9.4043,45.7635],[9.4121,45.7615],[9.4164,45.7584],[9.4203,45.7582],[9.4216,45.7596],[9.4231,45.7642]]]}},{"type":"Feature","properties":{"i":"097003","n":"Annone di Brianza"},"geometry":{"type":"Polygon","coordinates":[[[9.3511,45.8089],[9.3474,45.8002],[9.3436,45.7965],[9.3405,45.7947],[9.3363,45.7955],[9.3102,45.7896],[9.3133,45.804],[9.3148,45.8082],[9.3176,45.8108],[9.3327,45.8156],[9.3333,45.8178],[9.3413,45.8123],[9.3503,45.8115],[9.3511,45.8089]]]}},{"type":"Feature","properties":{"i":"097004","n":"Ballabio"},"geometry":{"type":"Polygon","coordinates":[[[9.438,45.9227],[9.4399,45.9211],[9.4356,45.914],[9.4364,45.9113],[9.4393,45.9102],[9.4491,45.9023],[9.45,45.9003],[9.4493,45.8961],[9.4429,45.8802],[9.4346,45.8839],[9.4273,45.8821],[9.4101,45.8912],[9.4057,45.895],[9.3993,45.9049],[9.3977,45.9061],[9.3971,45.9059],[9.3964,45.9024],[9.3952,45.9032],[9.3964,45.9072],[9.3976,45.9082],[9.3968,45.9116],[9.3914,45.9228],[9.409,45.9256],[9.4307,45.9253],[9.438,45.9227]]]}},{"type":"Feature","properties":{"i":"097005","n":"Barzago"},"geometry":{"type":"Polygon","coordinates":[[[9.3208,45.7641],[9.3284,45.7632],[9.3352,45.7595],[9.336,45.7573],[9.3346,45.7526],[9.3327,45.7515],[9.3284,45.7515],[9.3276,45.7507],[9.3282,45.7495],[9.328,45.7473],[9.3232,45.7451],[9.3125,45.7443],[9.3139,45.7452],[9.3153,45.7487],[9.313,45.7501],[9.3102,45.749],[9.3073,45.7489],[9.3037,45.7517],[9.3006,45.7568],[9.299,45.7613],[9.3015,45.7628],[9.3127,45.7594],[9.3233,45.7579],[9.3237,45.7611],[9.3208,45.7641]]]}},{"type":"Feature","properties":{"i":"097006","n":"Barzanò"},"geometry":{"type":"Polygon","coordinates":[[[9.3232,45.7451],[9.3249,45.7423],[9.3252,45.7362],[9.3224,45.731],[9.3187,45.7255],[9.3127,45.724],[9.3125,45.7209],[9.3135,45.7177],[9.3088,45.7151],[9.3044,45.7158],[9.3021,45.7215],[9.3041,45.7227],[9.3042,45.7246],[9.3033,45.7259],[9.2995,45.7281],[9.2982,45.7284],[9.2971,45.7273],[9.3007,45.7334],[9.3094,45.7354],[9.3119,45.7374],[9.3116,45.7446],[9.3232,45.7451]]]}},{"type":"Feature","properties":{"i":"097007","n":"Barzio"},"geometry":{"type":"Polygon","coordinates":[[[9.5368,45.9572],[9.5368,45.9538],[9.5396,45.9501],[9.541,45.9451],[9.5402,45.9428],[9.5317,45.9389],[9.5175,45.9347],[9.5096,45.9328],[9.5035,45.9343],[9.5034,45.9352],[9.5076,45.9392],[9.5064,45.9408],[9.5034,45.9411],[9.4773,45.9371],[9.475,45.9395],[9.4695,45.939],[9.452,45.9326],[9.453,45.9341],[9.452,45.9471],[9.4565,45.9574],[9.4646,45.965],[9.4774,45.9698],[9.4932,45.9735],[9.4991,45.9757],[9.501,45.9722],[9.508,45.967],[9.512,45.9671],[9.5216,45.9649],[9.526,45.9626],[9.5318,45.9583],[9.5368,45.9572]]]}},{"type":"Feature","properties":{"i":"097008","n":"Bellano"},"geometry":{"type":"Polygon","coordinates":[[[9.3661,46.0621],[9.3549,46.0453],[9.3499,46.0364],[9.354,46.0298],[9.3597,46.0284],[9.3469,46.0251],[9.3442,46.0234],[9.341,46.0238],[9.3406,46.0245],[9.3346,46.0236],[9.334,46.0197],[9.3257,46.0216],[9.3107,46.0314],[9.3047,46.0339],[9.2957,46.0311],[9.2908,46.0308],[9.2756,46.0409],[9.2896,46.0593],[9.3123,46.0593],[9.3284,46.0606],[9.3468,46.0678],[9.351,46.0721],[9.3546,46.0702],[9.3561,46.0663],[9.3601,46.0613],[9.3644,46.0606],[9.3661,46.0621]]]}},{"type":"Feature","properties":{"i":"097009","n":"Bosisio Parini"},"geometry":{"type":"Polygon","coordinates":[[[9.3133,45.804],[9.3109,45.7945],[9.3034,45.7917],[9.3016,45.7845],[9.2994,45.7827],[9.2966,45.7842],[9.2949,45.7904],[9.2887,45.7875],[9.2799,45.7883],[9.2748,45.7907],[9.274,45.8033],[9.2975,45.8091],[9.3074,45.8093],[9.3133,45.804]]]}},{"type":"Feature","properties":{"i":"097010","n":"Brivio"},"geometry":{"type":"Polygon","coordinates":[[[9.4399,45.7749],[9.4458,45.7605],[9.4564,45.7488],[9.4571,45.7459],[9.452,45.7419],[9.4483,45.7358],[9.4473,45.7314],[9.442,45.7311],[9.4335,45.7289],[9.418,45.7335],[9.4163,45.7346],[9.4207,45.7362],[9.4221,45.7378],[9.4184,45.7415],[9.4173,45.7412],[9.415,45.7431],[9.4162,45.7464],[9.4285,45.7458],[9.4362,45.7477],[9.4412,45.7573],[9.4366,45.7603],[9.4273,45.7642],[9.4261,45.7674],[9.4266,45.7687],[9.431,45.7729],[9.4329,45.7734],[9.4352,45.7814],[9.4399,45.7749]]]}},{"type":"Feature","properties":{"i":"097011","n":"Bulciago"},"geometry":{"type":"Polygon","coordinates":[[[9.299,45.7613],[9.3006,45.7568],[9.3037,45.7517],[9.3059,45.7504],[9.3029,45.7483],[9.2954,45.7459],[9.2922,45.7471],[9.2817,45.7478],[9.2758,45.7467],[9.2719,45.7532],[9.2726,45.755],[9.2753,45.7574],[9.2776,45.7562],[9.2923,45.7618],[9.299,45.7613]]]}},{"type":"Feature","properties":{"i":"097012","n":"Calco"},"geometry":{"type":"Polygon","coordinates":[[[9.4473,45.7314],[9.4485,45.7285],[9.45,45.7197],[9.4497,45.7159],[9.4409,45.7186],[9.4391,45.721],[9.4365,45.722],[9.4252,45.723],[9.4082,45.7171],[9.4033,45.7164],[9.4036,45.7187],[9.4026,45.7239],[9.4037,45.7265],[9.4068,45.7295],[9.4163,45.7346],[9.418,45.7335],[9.4335,45.7289],[9.442,45.7311],[9.4473,45.7314]]]}},{"type":"Feature","properties":{"i":"097013","n":"Calolziocorte"},"geometry":{"type":"Polygon","coordinates":[[[9.4609,45.8123],[9.4552,45.8012],[9.4619,45.7904],[9.4689,45.7866],[9.48,45.7857],[9.4789,45.7845],[9.4744,45.7827],[9.4688,45.7817],[9.4598,45.7859],[9.4572,45.7882],[9.4555,45.7879],[9.4503,45.7859],[9.4508,45.782],[9.4528,45.7814],[9.4399,45.7749],[9.4352,45.7814],[9.435,45.7838],[9.4335,45.7868],[9.4284,45.7928],[9.4243,45.7966],[9.4192,45.7978],[9.4141,45.8037],[9.4227,45.8061],[9.4351,45.8068],[9.4413,45.8108],[9.4442,45.8152],[9.4609,45.8123]]]}},{"type":"Feature","properties":{"i":"097014","n":"Carenno"},"geometry":{"type":"Polygon","coordinates":[[[9.4964,45.7963],[9.4951,45.793],[9.4904,45.7922],[9.4867,45.7933],[9.481,45.793],[9.4775,45.7879],[9.48,45.7857],[9.4689,45.7866],[9.4619,45.7904],[9.4552,45.8012],[9.4609,45.8123],[9.4731,45.825],[9.4812,45.8145],[9.4877,45.8102],[9.4937,45.8014],[9.4944,45.7976],[9.4964,45.7963]]]}},{"type":"Feature","properties":{"i":"097015","n":"Casargo"},"geometry":{"type":"Polygon","coordinates":[[[9.404,46.0558],[9.4085,46.0527],[9.4111,46.0525],[9.4149,46.0503],[9.4149,46.0412],[9.4219,46.0376],[9.4293,46.0364],[9.4316,46.0374],[9.4294,46.0419],[9.4426,46.0457],[9.4548,46.0287],[9.4577,46.021],[9.4498,46.0127],[9.433,46.0273],[9.4254,46.027],[9.4239,46.0251],[9.416,46.0211],[9.4123,46.0237],[9.4124,46.0294],[9.4104,46.0334],[9.4081,46.0349],[9.4016,46.0368],[9.3934,46.0363],[9.3911,46.0353],[9.3886,46.0326],[9.3779,46.0346],[9.3733,46.0345],[9.3686,46.0292],[9.3597,46.0284],[9.354,46.0298],[9.3499,46.0364],[9.3549,46.0453],[9.3679,46.0639],[9.3777,46.0602],[9.3789,46.0604],[9.3806,46.0622],[9.3816,46.0659],[9.3854,46.0625],[9.4017,46.0558],[9.404,46.0558]]]}},{"type":"Feature","properties":{"i":"097016","n":"Casatenovo"},"geometry":{"type":"Polygon","coordinates":[[[9.324,45.6986],[9.3226,45.6956],[9.3262,45.693],[9.3345,45.688],[9.353,45.6817],[9.3565,45.6788],[9.3539,45.6774],[9.3565,45.675],[9.3579,45.6709],[9.3558,45.666],[9.3537,45.6658],[9.3491,45.6686],[9.3413,45.6697],[9.3251,45.6641],[9.3213,45.6609],[9.3179,45.6603],[9.3141,45.6607],[9.3133,45.6657],[9.3057,45.6819],[9.3049,45.6827],[9.3012,45.6825],[9.2995,45.6834],[9.2952,45.6889],[9.2943,45.6929],[9.2952,45.6971],[9.2958,45.6991],[9.2989,45.7006],[9.3128,45.7056],[9.315,45.7055],[9.3215,45.6989],[9.324,45.6986]]]}},{"type":"Feature","properties":{"i":"097017","n":"Cassago Brianza"},"geometry":{"type":"Polygon","coordinates":[[[9.2954,45.7459],[9.3007,45.7334],[9.2971,45.7273],[9.2914,45.7206],[9.2887,45.723],[9.289,45.7266],[9.2867,45.7306],[9.2794,45.7332],[9.2814,45.7371],[9.2742,45.7422],[9.2758,45.7467],[9.2798,45.7477],[9.2922,45.7471],[9.2954,45.7459]]]}},{"type":"Feature","properties":{"i":"097018","n":"Cassina Valsassina"},"geometry":{"type":"Polygon","coordinates":[[[9.4792,45.9374],[9.4823,45.9317],[9.4921,45.9238],[9.4954,45.9146],[9.4961,45.9018],[9.4956,45.9005],[9.4937,45.8966],[9.4864,45.8935],[9.484,45.8963],[9.4878,45.9005],[9.4892,45.9121],[9.4879,45.916],[9.4833,45.923],[9.4783,45.9269],[9.4762,45.9338],[9.4773,45.9371],[9.4792,45.9374]]]}},{"type":"Feature","properties":{"i":"097019","n":"Castello di Brianza"},"geometry":{"type":"Polygon","coordinates":[[[9.355,45.7671],[9.3525,45.7615],[9.3544,45.7571],[9.3572,45.7522],[9.367,45.7455],[9.3639,45.744],[9.3539,45.7437],[9.3517,45.7446],[9.3519,45.7452],[9.3478,45.7482],[9.3366,45.7499],[9.3327,45.7515],[9.3346,45.7526],[9.336,45.7573],[9.3352,45.7595],[9.3303,45.7621],[9.334,45.7615],[9.3448,45.7667],[9.3493,45.7674],[9.355,45.7671]]]}},{"type":"Feature","properties":{"i":"097020","n":"Cernusco Lombardone"},"geometry":{"type":"Polygon","coordinates":[[[9.4067,45.6807],[9.403,45.6831],[9.3894,45.6844],[9.3811,45.6832],[9.3773,45.6845],[9.3777,45.6872],[9.3759,45.6879],[9.373,45.6876],[9.3907,45.6989],[9.3928,45.7033],[9.4053,45.6973],[9.4081,45.6949],[9.4067,45.6807]]]}},{"type":"Feature","properties":{"i":"097021","n":"Cesana Brianza"},"geometry":{"type":"Polygon","coordinates":[[[9.3148,45.8082],[9.3133,45.804],[9.3074,45.8093],[9.2975,45.8091],[9.274,45.8033],[9.2742,45.8041],[9.2905,45.8105],[9.2938,45.8127],[9.2935,45.8151],[9.2914,45.8156],[9.2879,45.815],[9.286,45.8179],[9.2856,45.823],[9.289,45.8272],[9.291,45.8265],[9.2944,45.8282],[9.2979,45.8315],[9.3001,45.8368],[9.3016,45.837],[9.3019,45.8253],[9.3148,45.8082]]]}},{"type":"Feature","properties":{"i":"097022","n":"Civate"},"geometry":{"type":"Polygon","coordinates":[[[9.3541,45.8351],[9.3531,45.8339],[9.3522,45.8292],[9.3558,45.8162],[9.3531,45.8131],[9.3503,45.8115],[9.3413,45.8123],[9.3333,45.8178],[9.3187,45.823],[9.3057,45.8308],[9.3017,45.8292],[9.3016,45.837],[9.3033,45.839],[9.3126,45.8422],[9.3221,45.8438],[9.3276,45.843],[9.3541,45.8351]]]}},{"type":"Feature","properties":{"i":"097023","n":"Colico"},"geometry":{"type":"Polygon","coordinates":[[[9.4141,46.1369],[9.4129,46.1194],[9.415,46.0948],[9.4069,46.0946],[9.3982,46.0925],[9.3931,46.0946],[9.3881,46.0942],[9.3849,46.0981],[9.3832,46.102],[9.3822,46.1094],[9.3791,46.1143],[9.3756,46.116],[9.3642,46.1178],[9.3573,46.1181],[9.3249,46.115],[9.3202,46.1155],[9.3114,46.1133],[9.2987,46.1045],[9.2951,46.1075],[9.2923,46.1158],[9.3005,46.1259],[9.3226,46.1357],[9.327,46.136],[9.3572,46.1504],[9.3619,46.1574],[9.3658,46.1569],[9.3717,46.1539],[9.3786,46.1521],[9.4102,46.1499],[9.4106,46.1443],[9.4141,46.1369]]]}},{"type":"Feature","properties":{"i":"097024","n":"Colle Brianza"},"geometry":{"type":"Polygon","coordinates":[[[9.3835,45.7717],[9.384,45.7684],[9.3864,45.7659],[9.3945,45.7598],[9.4,45.758],[9.4093,45.7493],[9.4094,45.7471],[9.4044,45.7459],[9.3998,45.7488],[9.3969,45.7496],[9.3956,45.7483],[9.3758,45.7483],[9.3708,45.7495],[9.3622,45.7544],[9.3572,45.7522],[9.3525,45.7615],[9.3584,45.773],[9.371,45.7793],[9.3747,45.7742],[9.3794,45.7717],[9.3835,45.7717]]]}},{"type":"Feature","properties":{"i":"097025","n":"Cortenova"},"geometry":{"type":"Polygon","coordinates":[[[9.3756,46.0146],[9.3819,46.0148],[9.3992,46.0075],[9.4105,46.0084],[9.4159,46.0102],[9.4253,46.0105],[9.4271,46.0099],[9.4272,46.0091],[9.42,46.0047],[9.4138,46.0025],[9.403,46.0008],[9.3882,45.9837],[9.3862,45.9795],[9.3844,45.972],[9.3771,45.9748],[9.3705,45.9734],[9.3677,45.9718],[9.3626,45.9757],[9.364,45.9807],[9.3674,45.9837],[9.3691,45.9884],[9.3542,45.9991],[9.3602,46.0008],[9.3619,46.0021],[9.3662,46.0079],[9.3656,46.0095],[9.3661,46.011],[9.3688,46.0139],[9.3709,46.0153],[9.3756,46.0146]]]}},{"type":"Feature","properties":{"i":"097026","n":"Costa Masnaga"},"geometry":{"type":"Polygon","coordinates":[[[9.2868,45.7764],[9.2888,45.7758],[9.2853,45.7736],[9.2856,45.7721],[9.2894,45.7653],[9.2923,45.7618],[9.2784,45.7564],[9.2754,45.7569],[9.2753,45.7583],[9.2729,45.7613],[9.2652,45.7614],[9.2535,45.7579],[9.2442,45.7673],[9.2495,45.7756],[9.2657,45.7764],[9.2723,45.7753],[9.275,45.774],[9.2853,45.7752],[9.2868,45.7764]]]}},{"type":"Feature","properties":{"i":"097027","n":"Crandola Valsassina"},"geometry":{"type":"Polygon","coordinates":[[[9.4498,46.0127],[9.4481,46.01],[9.4387,46.0101],[9.4344,46.0115],[9.4292,46.0107],[9.4272,46.0091],[9.4271,46.0099],[9.4253,46.0105],[9.4159,46.0102],[9.4105,46.0084],[9.3992,46.0075],[9.3819,46.0148],[9.3756,46.0146],[9.368,46.0278],[9.3682,46.0286],[9.3709,46.0267],[9.3875,46.0244],[9.4123,46.0237],[9.416,46.0211],[9.4239,46.0251],[9.4254,46.027],[9.433,46.0273],[9.4498,46.0127]]]}},{"type":"Feature","properties":{"i":"097028","n":"Cremella"},"geometry":{"type":"Polygon","coordinates":[[[9.3125,45.7443],[9.3115,45.7443],[9.3121,45.7377],[9.3114,45.7369],[9.3094,45.7354],[9.3007,45.7334],[9.2954,45.7459],[9.3029,45.7483],[9.3059,45.7504],[9.3077,45.7489],[9.3138,45.75],[9.3153,45.7487],[9.3152,45.7479],[9.3139,45.7452],[9.3125,45.7443]]]}},{"type":"Feature","properties":{"i":"097029","n":"Cremeno"},"geometry":{"type":"Polygon","coordinates":[[[9.4773,45.9371],[9.4762,45.9338],[9.4783,45.9269],[9.4833,45.923],[9.4879,45.916],[9.4892,45.9121],[9.4878,45.9005],[9.4845,45.8966],[9.4732,45.8951],[9.4717,45.8959],[9.4706,45.8979],[9.4663,45.8998],[9.4574,45.9012],[9.4499,45.8998],[9.4491,45.9023],[9.4393,45.9102],[9.4364,45.9113],[9.4356,45.914],[9.4399,45.9211],[9.438,45.9227],[9.4422,45.9238],[9.4483,45.9277],[9.452,45.9326],[9.4695,45.939],[9.475,45.9395],[9.4773,45.9371]]]}},{"type":"Feature","properties":{"i":"097030","n":"Dervio"},"geometry":{"type":"Polygon","coordinates":[[[9.351,46.0721],[9.3468,46.0678],[9.3284,46.0606],[9.3123,46.0593],[9.2896,46.0593],[9.2906,46.0659],[9.2893,46.0727],[9.2902,46.0759],[9.294,46.0829],[9.2952,46.0916],[9.2981,46.0976],[9.315,46.0951],[9.3189,46.0924],[9.3169,46.0901],[9.3155,46.0805],[9.3195,46.0768],[9.325,46.0796],[9.3288,46.0797],[9.34,46.0775],[9.3458,46.0753],[9.351,46.0721]]]}},{"type":"Feature","properties":{"i":"097031","n":"Dolzago"},"geometry":{"type":"Polygon","coordinates":[[[9.3584,45.773],[9.355,45.7671],[9.3493,45.7674],[9.3448,45.7667],[9.334,45.7615],[9.3303,45.7621],[9.3284,45.7632],[9.3379,45.7769],[9.3525,45.7776],[9.3584,45.773]]]}},{"type":"Feature","properties":{"i":"097032","n":"Dorio"},"geometry":{"type":"Polygon","coordinates":[[[9.3881,46.0942],[9.3829,46.0931],[9.3638,46.0982],[9.3567,46.0923],[9.3524,46.1006],[9.3484,46.1045],[9.3484,46.108],[9.336,46.1108],[9.3322,46.1082],[9.3312,46.1057],[9.3247,46.0967],[9.3189,46.0924],[9.315,46.0951],[9.2981,46.0976],[9.2987,46.1045],[9.3135,46.1142],[9.3202,46.1155],[9.3249,46.115],[9.3573,46.1181],[9.3642,46.1178],[9.3756,46.116],[9.3791,46.1143],[9.3822,46.1094],[9.3832,46.102],[9.3849,46.0981],[9.3881,46.0942]]]}},{"type":"Feature","properties":{"i":"097033","n":"Ello"},"geometry":{"type":"Polygon","coordinates":[[[9.368,45.7925],[9.3708,45.7909],[9.3722,45.7885],[9.371,45.7793],[9.3584,45.773],[9.3525,45.7776],[9.355,45.7809],[9.3515,45.7829],[9.352,45.7851],[9.3611,45.7912],[9.368,45.7925]]]}},{"type":"Feature","properties":{"i":"097034","n":"Erve"},"geometry":{"type":"Polygon","coordinates":[[[9.4731,45.825],[9.4609,45.8123],[9.4442,45.8152],[9.4344,45.8157],[9.4368,45.8185],[9.4344,45.8242],[9.4367,45.8276],[9.4419,45.8311],[9.4609,45.8365],[9.4742,45.8384],[9.4731,45.825]]]}},{"type":"Feature","properties":{"i":"097035","n":"Esino Lario"},"geometry":{"type":"Polygon","coordinates":[[[9.3512,46.0028],[9.3542,45.9991],[9.3691,45.9884],[9.3674,45.9837],[9.364,45.9807],[9.3626,45.9757],[9.3677,45.9718],[9.3705,45.9734],[9.3762,45.9748],[9.3811,45.9738],[9.3989,45.9625],[9.3878,45.9532],[9.3695,45.9671],[9.3624,45.9709],[9.3511,45.9731],[9.3286,45.9695],[9.3252,45.976],[9.3232,45.9778],[9.3219,45.9783],[9.3161,45.9756],[9.3133,45.98],[9.311,45.9889],[9.3038,45.9969],[9.3057,45.9966],[9.311,45.9979],[9.317,46.0041],[9.3322,46.0152],[9.3312,46.0121],[9.3325,46.0102],[9.347,46.0055],[9.3512,46.0028]]]}},{"type":"Feature","properties":{"i":"097036","n":"Galbiate"},"geometry":{"type":"Polygon","coordinates":[[[9.3971,45.8442],[9.3918,45.8435],[9.3909,45.8418],[9.3905,45.8394],[9.3917,45.8337],[9.3877,45.8246],[9.3902,45.8212],[9.3932,45.82],[9.3898,45.8136],[9.388,45.8068],[9.3953,45.798],[9.3892,45.7921],[9.3863,45.784],[9.3858,45.7788],[9.3884,45.7759],[9.3835,45.7717],[9.3808,45.7713],[9.3747,45.7742],[9.371,45.7793],[9.3722,45.7885],[9.3708,45.7909],[9.368,45.7925],[9.3693,45.7945],[9.369,45.8049],[9.3673,45.808],[9.365,45.8072],[9.3511,45.8081],[9.3503,45.8115],[9.3531,45.8131],[9.3558,45.8162],[9.3522,45.8292],[9.3525,45.8316],[9.3541,45.8351],[9.3563,45.8343],[9.3702,45.8359],[9.3742,45.8393],[9.3801,45.8411],[9.392,45.8469],[9.3971,45.8442]]]}},{"type":"Feature","properties":{"i":"097037","n":"Garbagnate Monastero"},"geometry":{"type":"Polygon","coordinates":[[[9.3157,45.7689],[9.3232,45.7617],[9.3239,45.7598],[9.3233,45.7579],[9.3127,45.7594],[9.3015,45.7628],[9.299,45.7613],[9.2923,45.7618],[9.2894,45.7653],[9.2853,45.7736],[9.2888,45.7758],[9.2939,45.7752],[9.2982,45.7763],[9.3053,45.7752],[9.3072,45.7728],[9.3124,45.7694],[9.3157,45.7689]]]}},{"type":"Feature","properties":{"i":"097038","n":"Garlate"},"geometry":{"type":"Polygon","coordinates":[[[9.4141,45.8124],[9.4076,45.8016],[9.3953,45.798],[9.388,45.8068],[9.3898,45.8136],[9.3932,45.82],[9.4042,45.8234],[9.4141,45.8124]]]}},{"type":"Feature","properties":{"i":"097039","n":"Imbersago"},"geometry":{"type":"Polygon","coordinates":[[[9.4497,45.7159],[9.4581,45.7071],[9.4595,45.7025],[9.4577,45.6991],[9.4383,45.6994],[9.4339,45.7036],[9.4318,45.7068],[9.4338,45.7138],[9.4363,45.7134],[9.4412,45.7161],[9.4409,45.7186],[9.4497,45.7159]]]}},{"type":"Feature","properties":{"i":"097040","n":"Introbio"},"geometry":{"type":"Polygon","coordinates":[[[9.5269,46.0115],[9.5144,46.0109],[9.498,46.0117],[9.4954,46.0124],[9.4902,46.0113],[9.4871,46.0077],[9.4861,46.003],[9.4869,46.0017],[9.495,45.9982],[9.4981,45.9907],[9.4992,45.9858],[9.4998,45.9778],[9.4991,45.9757],[9.4932,45.9735],[9.4774,45.9698],[9.4646,45.965],[9.4565,45.9574],[9.4536,45.9514],[9.4503,45.9596],[9.4419,45.9692],[9.4301,45.9709],[9.4349,45.9771],[9.4387,45.9767],[9.4504,45.979],[9.4592,45.9843],[9.4612,45.9883],[9.4609,45.9923],[9.4626,45.9968],[9.467,46.0032],[9.4687,46.0106],[9.462,46.0214],[9.4666,46.024],[9.4705,46.025],[9.4928,46.0252],[9.4931,46.0364],[9.5041,46.044],[9.5109,46.0416],[9.5222,46.0312],[9.5269,46.0115]]]}},{"type":"Feature","properties":{"i":"097042","n":"Lecco"},"geometry":{"type":"Polygon","coordinates":[[[9.4429,45.8802],[9.4567,45.8787],[9.4686,45.8745],[9.4679,45.8725],[9.4705,45.8668],[9.4806,45.8656],[9.4849,45.8616],[9.4709,45.8592],[9.4696,45.8574],[9.4669,45.8505],[9.4686,45.8475],[9.4736,45.8425],[9.4747,45.8405],[9.4745,45.8385],[9.4609,45.8365],[9.4419,45.8311],[9.4367,45.8276],[9.4344,45.8242],[9.4368,45.8185],[9.435,45.8158],[9.4212,45.8157],[9.4141,45.8124],[9.4041,45.8235],[9.4014,45.8279],[9.4001,45.8379],[9.3971,45.8442],[9.392,45.8469],[9.3792,45.8558],[9.3754,45.8605],[9.3714,45.8682],[9.3657,45.8746],[9.3857,45.884],[9.3915,45.8932],[9.3906,45.8958],[9.3964,45.9024],[9.3972,45.9061],[9.3992,45.905],[9.4057,45.895],[9.4101,45.8912],[9.4273,45.8821],[9.4346,45.8839],[9.4429,45.8802]]]}},{"type":"Feature","properties":{"i":"097043","n":"Lierna"},"geometry":{"type":"Polygon","coordinates":[[[9.3561,45.9725],[9.3551,45.9676],[9.3446,45.9605],[9.3386,45.9542],[9.3244,45.9499],[9.3111,45.9467],[9.3055,45.9462],[9.2939,45.9424],[9.2859,45.9623],[9.3144,45.9739],[9.3161,45.9756],[9.3219,45.9783],[9.3242,45.9772],[9.3286,45.9695],[9.3511,45.9731],[9.3561,45.9725]]]}},{"type":"Feature","properties":{"i":"097044","n":"Lomagna"},"geometry":{"type":"Polygon","coordinates":[[[9.3814,45.66],[9.3723,45.6551],[9.3696,45.6578],[9.3691,45.6611],[9.3602,45.6664],[9.3567,45.6674],[9.3579,45.6709],[9.3565,45.675],[9.354,45.6768],[9.3541,45.6779],[9.3689,45.6827],[9.3755,45.6797],[9.3777,45.6777],[9.3834,45.6692],[9.3814,45.6629],[9.3814,45.66]]]}},{"type":"Feature","properties":{"i":"097045","n":"Malgrate"},"geometry":{"type":"Polygon","coordinates":[[[9.392,45.8469],[9.3801,45.8411],[9.3742,45.8393],[9.3684,45.852],[9.3792,45.8558],[9.392,45.8469]]]}},{"type":"Feature","properties":{"i":"097046","n":"Mandello del Lario"},"geometry":{"type":"MultiPolygon","coordinates":[[[[9.3657,45.8746],[9.3667,45.8732],[9.3594,45.869],[9.3302,45.8635],[9.3323,45.8646],[9.3328,45.8666],[9.3319,45.8728],[9.3266,45.8781],[9.3209,45.8796],[9.3183,45.8823],[9.3154,45.8891],[9.3241,45.8958],[9.3258,45.8955],[9.3266,45.8943],[9.327,45.8909],[9.3323,45.8891],[9.3443,45.8884],[9.347,45.8874],[9.3581,45.8804],[9.3657,45.8746]]],[[[9.3878,45.9532],[9.3862,45.9498],[9.3862,45.9483],[9.3891,45.9462],[9.3906,45.9414],[9.3881,45.9318],[9.3878,45.9253],[9.3914,45.9228],[9.3948,45.9152],[9.3886,45.9054],[9.3828,45.9043],[9.3747,45.9058],[9.3656,45.9107],[9.3557,45.9121],[9.3366,45.9174],[9.3328,45.9164],[9.3303,45.9146],[9.327,45.9089],[9.322,45.905],[9.3184,45.9043],[9.3061,45.9124],[9.301,45.9174],[9.2986,45.9231],[9.2971,45.937],[9.2939,45.9424],[9.3055,45.9462],[9.3111,45.9467],[9.3244,45.9499],[9.3386,45.9542],[9.3446,45.9605],[9.3551,45.9676],[9.3561,45.9725],[9.366,45.9693],[9.3878,45.9532]]]]}},{"type":"Feature","properties":{"i":"097047","n":"Margno"},"geometry":{"type":"Polygon","coordinates":[[[9.4123,46.0237],[9.3875,46.0244],[9.3709,46.0267],[9.3682,46.0286],[9.3733,46.0345],[9.3779,46.0346],[9.3886,46.0326],[9.3911,46.0353],[9.3934,46.0363],[9.4016,46.0368],[9.4081,46.0349],[9.4104,46.0334],[9.4124,46.0294],[9.4123,46.0237]]]}},{"type":"Feature","properties":{"i":"097048","n":"Merate"},"geometry":{"type":"Polygon","coordinates":[[[9.4409,45.7186],[9.4412,45.7161],[9.4363,45.7134],[9.4338,45.7138],[9.432,45.7092],[9.4318,45.7068],[9.4339,45.7036],[9.4383,45.6994],[9.435,45.6951],[9.4268,45.6855],[9.4217,45.6808],[9.4205,45.6811],[9.4168,45.6793],[9.4144,45.6765],[9.4062,45.673],[9.4081,45.6949],[9.4053,45.6973],[9.3928,45.7033],[9.3922,45.7045],[9.3952,45.7044],[9.3995,45.7063],[9.3968,45.7113],[9.3982,45.7158],[9.4025,45.7188],[9.4036,45.7187],[9.4033,45.7164],[9.4082,45.7171],[9.4252,45.723],[9.4365,45.722],[9.4391,45.721],[9.4409,45.7186]]]}},{"type":"Feature","properties":{"i":"097049","n":"Missaglia"},"geometry":{"type":"Polygon","coordinates":[[[9.3537,45.7194],[9.3581,45.7106],[9.3629,45.709],[9.3662,45.7067],[9.3644,45.7016],[9.3682,45.6927],[9.3663,45.6862],[9.3622,45.6905],[9.3612,45.6902],[9.3609,45.6864],[9.3637,45.6832],[9.3674,45.6824],[9.3565,45.6788],[9.352,45.6821],[9.3345,45.688],[9.3226,45.6956],[9.324,45.6986],[9.323,45.7055],[9.3236,45.7086],[9.3268,45.7105],[9.3263,45.7165],[9.3274,45.7183],[9.3376,45.7193],[9.3409,45.7179],[9.345,45.7185],[9.3432,45.7223],[9.3437,45.7244],[9.3479,45.7273],[9.3537,45.7194]]]}},{"type":"Feature","properties":{"i":"097050","n":"Moggio"},"geometry":{"type":"Polygon","coordinates":[[[9.506,45.8842],[9.5021,45.8838],[9.4929,45.8865],[9.488,45.8907],[9.4864,45.8931],[9.4937,45.8966],[9.4956,45.9005],[9.4961,45.9018],[9.4954,45.9146],[9.4921,45.9238],[9.4823,45.9317],[9.4792,45.9374],[9.5034,45.9411],[9.5064,45.9408],[9.5076,45.9392],[9.5034,45.9352],[9.5035,45.9343],[9.5096,45.9328],[9.5317,45.9389],[9.5402,45.9428],[9.5362,45.9359],[9.5291,45.9265],[9.5277,45.9225],[9.528,45.9174],[9.5164,45.9071],[9.5064,45.9007],[9.5053,45.8987],[9.505,45.8977],[9.5074,45.8933],[9.5178,45.8863],[9.5161,45.8853],[9.506,45.8842]]]}},{"type":"Feature","properties":{"i":"097051","n":"Molteno"},"geometry":{"type":"Polygon","coordinates":[[[9.3102,45.7896],[9.3096,45.7881],[9.3144,45.7758],[9.313,45.7718],[9.3157,45.7689],[9.3124,45.7694],[9.3072,45.7728],[9.3053,45.7752],[9.2982,45.7763],[9.2939,45.7752],[9.2868,45.7764],[9.2887,45.7875],[9.2949,45.7904],[9.2966,45.7842],[9.2994,45.7827],[9.3016,45.7845],[9.3034,45.7917],[9.3109,45.7945],[9.3102,45.7896]]]}},{"type":"Feature","properties":{"i":"097052","n":"Monte Marenzo"},"geometry":{"type":"Polygon","coordinates":[[[9.4706,45.7681],[9.4657,45.7644],[9.4547,45.7629],[9.4509,45.7633],[9.4458,45.7605],[9.4399,45.7749],[9.4528,45.7814],[9.4706,45.7681]]]}},{"type":"Feature","properties":{"i":"097053","n":"Montevecchia"},"geometry":{"type":"Polygon","coordinates":[[[9.3871,45.7081],[9.3922,45.7045],[9.3928,45.7033],[9.3907,45.6989],[9.3734,45.688],[9.3731,45.6871],[9.3663,45.6862],[9.3682,45.6927],[9.3644,45.7016],[9.3662,45.7067],[9.3629,45.709],[9.3581,45.7106],[9.3537,45.7194],[9.3574,45.7229],[9.3714,45.7168],[9.382,45.7102],[9.3871,45.7081]]]}},{"type":"Feature","properties":{"i":"097054","n":"Monticello Brianza"},"geometry":{"type":"Polygon","coordinates":[[[9.3187,45.7255],[9.3211,45.717],[9.3243,45.715],[9.3263,45.7163],[9.3266,45.7158],[9.3268,45.7105],[9.3236,45.7086],[9.323,45.7055],[9.324,45.6986],[9.3215,45.6989],[9.3175,45.7036],[9.3144,45.7056],[9.3109,45.7054],[9.3027,45.7015],[9.2989,45.7006],[9.3002,45.7027],[9.2988,45.7086],[9.2914,45.7206],[9.2982,45.7284],[9.2995,45.7281],[9.3033,45.7259],[9.3042,45.7246],[9.3041,45.7227],[9.3021,45.7215],[9.3044,45.7158],[9.3088,45.7151],[9.3135,45.7177],[9.3125,45.7209],[9.3127,45.724],[9.3187,45.7255]]]}},{"type":"Feature","properties":{"i":"097055","n":"Morterone"},"geometry":{"type":"Polygon","coordinates":[[[9.484,45.8963],[9.488,45.8907],[9.4929,45.8865],[9.5021,45.8838],[9.506,45.8842],[9.5103,45.8832],[9.5221,45.8742],[9.524,45.8703],[9.517,45.8688],[9.5102,45.8702],[9.506,45.8701],[9.4957,45.8678],[9.4875,45.8651],[9.4876,45.8639],[9.4896,45.863],[9.4933,45.8629],[9.4939,45.8597],[9.4922,45.8582],[9.4849,45.8616],[9.4806,45.8656],[9.4706,45.8667],[9.4679,45.8725],[9.4686,45.8745],[9.4567,45.8787],[9.4429,45.8802],[9.4493,45.8961],[9.4499,45.8998],[9.4574,45.9012],[9.4663,45.8998],[9.4706,45.8979],[9.4717,45.8959],[9.4732,45.8951],[9.484,45.8963]]]}},{"type":"Feature","properties":{"i":"097056","n":"Nibionno"},"geometry":{"type":"Polygon","coordinates":[[[9.2753,45.7574],[9.2718,45.7538],[9.2758,45.7467],[9.2742,45.7422],[9.2607,45.7397],[9.2542,45.7405],[9.2471,45.7426],[9.2567,45.751],[9.2567,45.7522],[9.2535,45.7579],[9.2652,45.7614],[9.2729,45.7613],[9.2741,45.7605],[9.2753,45.7574]]]}},{"type":"Feature","properties":{"i":"097057","n":"Oggiono"},"geometry":{"type":"Polygon","coordinates":[[[9.368,45.7925],[9.3611,45.7912],[9.3525,45.7857],[9.3515,45.7829],[9.355,45.7809],[9.3525,45.7776],[9.3379,45.7769],[9.3384,45.778],[9.3371,45.7791],[9.327,45.7828],[9.3211,45.7821],[9.3167,45.7839],[9.3102,45.7896],[9.3363,45.7955],[9.3405,45.7947],[9.3436,45.7965],[9.3474,45.8002],[9.3511,45.8089],[9.3511,45.8081],[9.3571,45.8076],[9.365,45.8072],[9.3673,45.808],[9.369,45.8049],[9.3693,45.7945],[9.368,45.7925]]]}},{"type":"Feature","properties":{"i":"097058","n":"Olgiate Molgora"},"geometry":{"type":"Polygon","coordinates":[[[9.4093,45.7493],[9.4162,45.7464],[9.415,45.7431],[9.4211,45.7394],[9.422,45.7375],[9.4207,45.7362],[9.4126,45.733],[9.4068,45.7295],[9.4037,45.7265],[9.4026,45.7239],[9.4036,45.7187],[9.4025,45.7188],[9.3982,45.7158],[9.3971,45.7138],[9.3968,45.7113],[9.3995,45.7063],[9.3952,45.7044],[9.3922,45.7045],[9.3871,45.7081],[9.3869,45.7097],[9.3865,45.7211],[9.3886,45.7292],[9.3862,45.7326],[9.3895,45.7431],[9.3916,45.7466],[9.3969,45.7496],[9.3998,45.7488],[9.4044,45.7459],[9.4094,45.7471],[9.4093,45.7493]]]}},{"type":"Feature","properties":{"i":"097059","n":"Olginate"},"geometry":{"type":"Polygon","coordinates":[[[9.4352,45.7814],[9.4329,45.7734],[9.431,45.7729],[9.4262,45.7681],[9.4263,45.7659],[9.4273,45.7642],[9.4231,45.7642],[9.4209,45.7688],[9.4172,45.7795],[9.4223,45.784],[9.4165,45.789],[9.3884,45.7759],[9.3858,45.7788],[9.3857,45.78],[9.3863,45.784],[9.3892,45.7921],[9.3953,45.798],[9.4076,45.8016],[9.4108,45.8078],[9.4192,45.7978],[9.4243,45.7966],[9.4263,45.7951],[9.4335,45.7868],[9.435,45.7838],[9.4352,45.7814]]]}},{"type":"Feature","properties":{"i":"097060","n":"Oliveto Lario"},"geometry":{"type":"Polygon","coordinates":[[[9.2846,45.9671],[9.2877,45.9627],[9.2859,45.9623],[9.2939,45.9424],[9.2971,45.937],[9.2986,45.9231],[9.301,45.9174],[9.3061,45.9124],[9.3143,45.9071],[9.3043,45.8994],[9.3033,45.8942],[9.3015,45.8933],[9.2959,45.8924],[9.2906,45.8927],[9.2865,45.8959],[9.2841,45.8988],[9.2854,45.9],[9.2854,45.9025],[9.2802,45.9127],[9.2683,45.9255],[9.2695,45.9292],[9.2735,45.9313],[9.2781,45.9376],[9.2765,45.9432],[9.274,45.9465],[9.2698,45.9485],[9.2639,45.9493],[9.2565,45.949],[9.2592,45.9595],[9.2624,45.964],[9.2671,45.9664],[9.2846,45.9671]]]}},{"type":"Feature","properties":{"i":"097061","n":"Osnago"},"geometry":{"type":"Polygon","coordinates":[[[9.3663,45.6862],[9.3759,45.6879],[9.3777,45.6872],[9.3773,45.6845],[9.3811,45.6832],[9.3894,45.6844],[9.403,45.6831],[9.4067,45.6807],[9.4062,45.673],[9.3959,45.6701],[9.3872,45.6655],[9.3814,45.66],[9.3814,45.6629],[9.3834,45.6692],[9.3811,45.6731],[9.3755,45.6797],[9.3689,45.6827],[9.3674,45.6824],[9.3637,45.6832],[9.361,45.6859],[9.3612,45.6902],[9.3622,45.6905],[9.3663,45.6862]]]}},{"type":"Feature","properties":{"i":"097062","n":"Paderno d'Adda"},"geometry":{"type":"Polygon","coordinates":[[[9.451,45.6844],[9.4545,45.6818],[9.4619,45.6787],[9.4675,45.6723],[9.4707,45.6699],[9.4766,45.6693],[9.4653,45.6649],[9.465,45.6639],[9.4495,45.6712],[9.4388,45.6744],[9.4274,45.6764],[9.4389,45.6802],[9.4461,45.6837],[9.451,45.6844]]]}},{"type":"Feature","properties":{"i":"097063","n":"Pagnona"},"geometry":{"type":"Polygon","coordinates":[[[9.404,46.0558],[9.4017,46.0558],[9.3854,46.0625],[9.3816,46.0659],[9.3827,46.0702],[9.3822,46.0716],[9.3858,46.075],[9.4012,46.0847],[9.4069,46.0946],[9.415,46.0948],[9.4305,46.0861],[9.4304,46.0834],[9.426,46.0769],[9.4162,46.0669],[9.4103,46.0596],[9.404,46.0558]]]}},{"type":"Feature","properties":{"i":"097064","n":"Parlasco"},"geometry":{"type":"Polygon","coordinates":[[[9.3469,46.0251],[9.3496,46.0244],[9.3567,46.0102],[9.3512,46.0028],[9.347,46.0055],[9.3325,46.0102],[9.3312,46.0121],[9.3343,46.0199],[9.3346,46.0236],[9.3406,46.0245],[9.343,46.0232],[9.3469,46.0251]]]}},{"type":"Feature","properties":{"i":"097065","n":"Pasturo"},"geometry":{"type":"Polygon","coordinates":[[[9.4301,45.9709],[9.4419,45.9692],[9.4503,45.9596],[9.4526,45.9544],[9.4536,45.9514],[9.452,45.9471],[9.453,45.9341],[9.4483,45.9277],[9.4422,45.9238],[9.438,45.9227],[9.4307,45.9253],[9.409,45.9256],[9.3914,45.9228],[9.3883,45.9245],[9.3878,45.9253],[9.3881,45.9318],[9.3906,45.9414],[9.3891,45.9462],[9.3862,45.9483],[9.3862,45.9498],[9.3878,45.9532],[9.3989,45.9625],[9.4136,45.9626],[9.421,45.9684],[9.4228,45.9713],[9.4301,45.9709]]]}},{"type":"Feature","properties":{"i":"097067","n":"Perledo"},"geometry":{"type":"Polygon","coordinates":[[[9.3343,46.0199],[9.3322,46.0152],[9.317,46.0041],[9.311,45.9979],[9.3057,45.9966],[9.3038,45.9969],[9.2941,46.0056],[9.2879,46.0128],[9.2891,46.0135],[9.2881,46.0143],[9.2609,46.0145],[9.2632,46.0186],[9.2639,46.0228],[9.2631,46.0245],[9.2648,46.0301],[9.2685,46.0324],[9.2682,46.0347],[9.2756,46.0409],[9.2908,46.0308],[9.2957,46.0311],[9.3047,46.0339],[9.3107,46.0314],[9.3257,46.0216],[9.3299,46.0202],[9.3343,46.0199]]]}},{"type":"Feature","properties":{"i":"097068","n":"Pescate"},"geometry":{"type":"Polygon","coordinates":[[[9.4042,45.8234],[9.3932,45.82],[9.3902,45.8212],[9.3877,45.8246],[9.3917,45.8337],[9.3905,45.8402],[9.3918,45.8435],[9.3971,45.8442],[9.3984,45.8423],[9.4001,45.8379],[9.4014,45.8279],[9.4042,45.8234]]]}},{"type":"Feature","properties":{"i":"097069","n":"Premana"},"geometry":{"type":"Polygon","coordinates":[[[9.4567,46.0774],[9.4753,46.0721],[9.4929,46.0708],[9.5058,46.0634],[9.5098,46.0625],[9.5097,46.0587],[9.5069,46.0525],[9.5018,46.0475],[9.5022,46.045],[9.5041,46.044],[9.4931,46.0364],[9.4928,46.0252],[9.4705,46.025],[9.4666,46.024],[9.462,46.0214],[9.4577,46.021],[9.4548,46.0287],[9.4426,46.0457],[9.4294,46.0419],[9.4316,46.0374],[9.4293,46.0364],[9.4219,46.0376],[9.4149,46.0412],[9.4149,46.0503],[9.4111,46.0525],[9.4085,46.0527],[9.404,46.0558],[9.4103,46.0596],[9.4162,46.0669],[9.426,46.0769],[9.4304,46.0834],[9.4305,46.0861],[9.4567,46.0774]]]}},{"type":"Feature","properties":{"i":"097070","n":"Primaluna"},"geometry":{"type":"Polygon","coordinates":[[[9.462,46.0214],[9.4687,46.0106],[9.467,46.0032],[9.4626,45.9968],[9.4609,45.9923],[9.4612,45.9883],[9.4587,45.9837],[9.4504,45.979],[9.4387,45.9767],[9.4349,45.9771],[9.4301,45.9709],[9.4228,45.9713],[9.421,45.9684],[9.4136,45.9626],[9.3989,45.9625],[9.3844,45.972],[9.3862,45.9795],[9.3882,45.9837],[9.403,46.0008],[9.4138,46.0025],[9.42,46.0047],[9.4292,46.0107],[9.4344,46.0115],[9.4387,46.0101],[9.4481,46.01],[9.4577,46.021],[9.462,46.0214]]]}},{"type":"Feature","properties":{"i":"097071","n":"Robbiate"},"geometry":{"type":"Polygon","coordinates":[[[9.4577,45.6991],[9.4564,45.698],[9.451,45.6844],[9.4461,45.6837],[9.4389,45.6802],[9.4274,45.6764],[9.4204,45.6672],[9.4144,45.6765],[9.4168,45.6793],[9.4205,45.6811],[9.4217,45.6808],[9.4268,45.6855],[9.4383,45.6994],[9.4577,45.6991]]]}},{"type":"Feature","properties":{"i":"097072","n":"Rogeno"},"geometry":{"type":"Polygon","coordinates":[[[9.2887,45.7875],[9.2868,45.7764],[9.2853,45.7752],[9.275,45.774],[9.2723,45.7753],[9.2657,45.7764],[9.2495,45.7756],[9.2503,45.7791],[9.2585,45.781],[9.2619,45.7808],[9.2626,45.7879],[9.2619,45.7896],[9.2583,45.7925],[9.2736,45.802],[9.2748,45.7907],[9.2799,45.7883],[9.2887,45.7875]]]}},{"type":"Feature","properties":{"i":"097074","n":"Santa Maria Hoè"},"geometry":{"type":"Polygon","coordinates":[[[9.3956,45.7483],[9.3916,45.7466],[9.3895,45.7431],[9.3862,45.7326],[9.3868,45.731],[9.3845,45.7302],[9.382,45.7315],[9.3797,45.7367],[9.3758,45.7408],[9.3676,45.7465],[9.367,45.7455],[9.3572,45.7522],[9.3622,45.7544],[9.3708,45.7495],[9.3758,45.7483],[9.3956,45.7483]]]}},{"type":"Feature","properties":{"i":"097075","n":"Sirone"},"geometry":{"type":"Polygon","coordinates":[[[9.3379,45.7769],[9.3284,45.7632],[9.3208,45.7641],[9.313,45.7718],[9.3144,45.7758],[9.3096,45.7881],[9.3104,45.7891],[9.3167,45.7839],[9.3211,45.7821],[9.327,45.7828],[9.3371,45.7791],[9.3384,45.778],[9.3379,45.7769]]]}},{"type":"Feature","properties":{"i":"097076","n":"Sirtori"},"geometry":{"type":"Polygon","coordinates":[[[9.3327,45.7515],[9.3366,45.7499],[9.3492,45.7298],[9.3488,45.7268],[9.3473,45.7272],[9.3437,45.7244],[9.3432,45.7223],[9.345,45.7185],[9.3409,45.7179],[9.3376,45.7193],[9.3378,45.7253],[9.335,45.7268],[9.3234,45.7299],[9.3214,45.7295],[9.3252,45.7362],[9.3249,45.7423],[9.3232,45.7451],[9.328,45.7473],[9.3282,45.7495],[9.3276,45.7507],[9.3284,45.7515],[9.3327,45.7515]]]}},{"type":"Feature","properties":{"i":"097077","n":"Sueglio"},"geometry":{"type":"Polygon","coordinates":[[[9.3509,46.1019],[9.3524,46.1006],[9.3567,46.0923],[9.3448,46.0835],[9.3302,46.0829],[9.3225,46.0871],[9.3223,46.0892],[9.3242,46.0926],[9.336,46.1029],[9.3454,46.1035],[9.3509,46.1019]]]}},{"type":"Feature","properties":{"i":"097078","n":"Suello"},"geometry":{"type":"Polygon","coordinates":[[[9.3333,45.8178],[9.3327,45.8156],[9.3176,45.8108],[9.3148,45.8082],[9.3027,45.8236],[9.3019,45.8253],[9.3017,45.8292],[9.3057,45.8308],[9.3187,45.823],[9.3333,45.8178]]]}},{"type":"Feature","properties":{"i":"097079","n":"Taceno"},"geometry":{"type":"Polygon","coordinates":[[[9.3682,46.0286],[9.3691,46.025],[9.3756,46.0146],[9.3709,46.0153],[9.3688,46.0139],[9.3661,46.011],[9.3656,46.0095],[9.3662,46.0079],[9.3619,46.0021],[9.3602,46.0008],[9.3542,45.9991],[9.3512,46.0028],[9.3567,46.0102],[9.3496,46.0244],[9.3469,46.0251],[9.3597,46.0284],[9.3686,46.0292],[9.3682,46.0286]]]}},{"type":"Feature","properties":{"i":"097082","n":"Valgreghentino"},"geometry":{"type":"Polygon","coordinates":[[[9.4231,45.7642],[9.4216,45.7596],[9.4203,45.7582],[9.4164,45.7584],[9.4121,45.7615],[9.4043,45.7635],[9.4029,45.7596],[9.4,45.758],[9.3945,45.7598],[9.3864,45.7659],[9.384,45.7684],[9.3835,45.7717],[9.3884,45.7759],[9.4165,45.789],[9.4223,45.784],[9.4172,45.7795],[9.4231,45.7642]]]}},{"type":"Feature","properties":{"i":"097083","n":"Valmadrera"},"geometry":{"type":"Polygon","coordinates":[[[9.3792,45.8558],[9.3684,45.852],[9.3742,45.8393],[9.3702,45.8359],[9.3673,45.8351],[9.3554,45.8344],[9.3276,45.843],[9.3204,45.8436],[9.3175,45.8467],[9.3185,45.8503],[9.3225,45.8532],[9.3265,45.859],[9.3275,45.8624],[9.3368,45.8651],[9.3594,45.869],[9.3667,45.8732],[9.3714,45.8682],[9.3754,45.8605],[9.3792,45.8558]]]}},{"type":"Feature","properties":{"i":"097084","n":"Varenna"},"geometry":{"type":"Polygon","coordinates":[[[9.3038,45.9969],[9.311,45.9889],[9.3133,45.98],[9.3161,45.9756],[9.3144,45.9739],[9.2877,45.9627],[9.2846,45.9671],[9.2816,45.974],[9.2799,45.9862],[9.2765,45.9943],[9.2727,45.999],[9.2646,46.0008],[9.2612,46.0089],[9.2609,46.0145],[9.2881,46.0143],[9.2891,46.0135],[9.2879,46.0128],[9.2941,46.0056],[9.3038,45.9969]]]}},{"type":"Feature","properties":{"i":"097086","n":"Vercurago"},"geometry":{"type":"Polygon","coordinates":[[[9.4442,45.8152],[9.4413,45.8108],[9.4351,45.8068],[9.4227,45.8061],[9.4141,45.8037],[9.4108,45.8078],[9.4141,45.8124],[9.4212,45.8157],[9.4442,45.8152]]]}},{"type":"Feature","properties":{"i":"097090","n":"Viganò"},"geometry":{"type":"Polygon","coordinates":[[[9.3376,45.7193],[9.3274,45.7183],[9.3263,45.7163],[9.3243,45.715],[9.3211,45.717],[9.3187,45.7255],[9.3214,45.7295],[9.3234,45.7299],[9.335,45.7268],[9.3378,45.7253],[9.3376,45.7193]]]}},{"type":"Feature","properties":{"i":"097091","n":"Verderio"},"geometry":{"type":"Polygon","coordinates":[[[9.465,45.6639],[9.456,45.6585],[9.4468,45.6497],[9.4298,45.6536],[9.4226,45.6565],[9.4235,45.6581],[9.4231,45.6601],[9.4197,45.6622],[9.4208,45.666],[9.4204,45.6672],[9.4274,45.6764],[9.4388,45.6744],[9.4495,45.6712],[9.465,45.6639]]]}},{"type":"Feature","properties":{"i":"097092","n":"La Valletta Brianza"},"geometry":{"type":"Polygon","coordinates":[[[9.3366,45.7499],[9.3478,45.7482],[9.3519,45.7452],[9.3517,45.7446],[9.3539,45.7437],[9.3639,45.744],[9.3676,45.7465],[9.3758,45.7408],[9.3797,45.7367],[9.382,45.7315],[9.3845,45.7302],[9.3868,45.731],[9.3886,45.7292],[9.3865,45.7211],[9.3871,45.7081],[9.382,45.7102],[9.3714,45.7168],[9.3574,45.7229],[9.3537,45.7194],[9.3488,45.7268],[9.3492,45.7298],[9.3366,45.7499]]]}},{"type":"Feature","properties":{"i":"097093","n":"Valvarrone"},"geometry":{"type":"Polygon","coordinates":[[[9.3509,46.1019],[9.3454,46.1035],[9.336,46.1029],[9.3242,46.0926],[9.3223,46.0892],[9.3225,46.0871],[9.3302,46.0829],[9.3448,46.0835],[9.3638,46.0982],[9.3829,46.0931],[9.3931,46.0946],[9.3982,46.0925],[9.4069,46.0946],[9.4012,46.0847],[9.3977,46.0831],[9.3826,46.0724],[9.3827,46.0702],[9.3806,46.0622],[9.3789,46.0604],[9.3777,46.0602],[9.3679,46.0639],[9.3644,46.0606],[9.3613,46.0609],[9.3583,46.0633],[9.3546,46.0702],[9.3458,46.0753],[9.34,46.0775],[9.3288,46.0797],[9.325,46.0796],[9.3195,46.0768],[9.3155,46.0805],[9.3165,46.0885],[9.3175,46.0912],[9.3247,46.0967],[9.3312,46.1057],[9.3317,46.1075],[9.3348,46.1103],[9.336,46.1108],[9.3484,46.108],[9.3484,46.1045],[9.3509,46.1019]]]}}]}
