{"type":"FeatureCollection","fonte":"Confini comunali ISTAT via openpolis/geojson-italy — CC BY 4.0","features":[{"type":"Feature","properties":{"i":"075002","n":"Alessano"},"geometry":{"type":"Polygon","coordinates":[[[18.3418,39.9082],[18.3425,39.9071],[18.3431,39.8997],[18.3467,39.894],[18.3587,39.8949],[18.3563,39.8906],[18.3564,39.8871],[18.3622,39.8803],[18.3745,39.87],[18.3926,39.8678],[18.3936,39.8682],[18.3947,39.8673],[18.3946,39.8644],[18.3932,39.8602],[18.3918,39.8603],[18.3909,39.8625],[18.388,39.864],[18.3688,39.8636],[18.3641,39.8651],[18.363,39.8673],[18.3583,39.8705],[18.3528,39.8697],[18.3485,39.8677],[18.3436,39.8629],[18.344,39.859],[18.3398,39.8617],[18.341,39.8628],[18.3403,39.8648],[18.3344,39.8681],[18.3252,39.8705],[18.3245,39.872],[18.3264,39.872],[18.3246,39.8756],[18.3148,39.8789],[18.3066,39.8786],[18.2998,39.8815],[18.2926,39.8829],[18.2885,39.8924],[18.2804,39.9033],[18.2796,39.9069],[18.2807,39.9168],[18.2831,39.9152],[18.2866,39.9145],[18.3054,39.9169],[18.3088,39.916],[18.3163,39.9163],[18.322,39.9182],[18.3208,39.9202],[18.3241,39.9229],[18.3277,39.9243],[18.3289,39.9202],[18.3277,39.9174],[18.3299,39.9138],[18.3341,39.9096],[18.3418,39.9082]]]}},{"type":"Feature","properties":{"i":"075003","n":"Alezio"},"geometry":{"type":"Polygon","coordinates":[[[18.0801,40.067],[18.079,40.0566],[18.0736,40.0477],[18.0741,40.0406],[18.0803,40.0314],[18.0795,40.0233],[18.0788,40.0224],[18.0757,40.0219],[18.0657,40.023],[18.0529,40.0256],[18.0368,40.0321],[18.0332,40.0352],[18.0399,40.0393],[18.0411,40.0466],[18.0403,40.0509],[18.045,40.0628],[18.0429,40.0706],[18.061,40.0732],[18.0698,40.0753],[18.0729,40.077],[18.0729,40.0737],[18.0701,40.0707],[18.0784,40.0666],[18.0801,40.067]]]}},{"type":"Feature","properties":{"i":"075004","n":"Alliste"},"geometry":{"type":"Polygon","coordinates":[[[18.1276,39.9483],[18.1303,39.9465],[18.1299,39.9442],[18.1278,39.9368],[18.1248,39.9311],[18.122,39.9293],[18.1186,39.931],[18.1106,39.9295],[18.1078,39.9276],[18.105,39.9155],[18.0961,39.9076],[18.0859,39.9007],[18.0834,39.9037],[18.0731,39.9121],[18.0661,39.9194],[18.0629,39.9217],[18.0504,39.9277],[18.0463,39.932],[18.045,39.9357],[18.0567,39.945],[18.0702,39.9476],[18.0778,39.952],[18.0821,39.9528],[18.1031,39.9516],[18.1098,39.9487],[18.1147,39.9476],[18.1276,39.9483]]]}},{"type":"Feature","properties":{"i":"075005","n":"Andrano"},"geometry":{"type":"Polygon","coordinates":[[[18.3588,39.9972],[18.363,39.9944],[18.368,39.9935],[18.3714,39.9953],[18.3758,39.9954],[18.3822,39.9947],[18.3866,39.9929],[18.3907,39.9813],[18.3985,39.977],[18.4061,39.9747],[18.4077,39.9749],[18.408,39.9732],[18.4031,39.9601],[18.3982,39.9606],[18.3927,39.9633],[18.3694,39.9718],[18.3662,39.971],[18.35,39.9782],[18.3387,39.9763],[18.3327,39.9761],[18.3313,39.9779],[18.3274,39.9933],[18.3272,39.9965],[18.3345,40.0003],[18.3389,39.9962],[18.3432,39.9975],[18.3588,39.9972]]]}},{"type":"Feature","properties":{"i":"075006","n":"Aradeo"},"geometry":{"type":"Polygon","coordinates":[[[18.1356,40.1468],[18.1434,40.1397],[18.1461,40.1331],[18.1461,40.1297],[18.1474,40.127],[18.1526,40.1215],[18.1537,40.1192],[18.1526,40.117],[18.1465,40.1151],[18.142,40.1123],[18.1378,40.1153],[18.1382,40.1172],[18.1351,40.119],[18.1299,40.1198],[18.1232,40.1184],[18.1219,40.1219],[18.117,40.1253],[18.1165,40.1328],[18.121,40.1387],[18.1216,40.1406],[18.1201,40.1543],[18.1269,40.1596],[18.1297,40.1586],[18.1298,40.1574],[18.1266,40.1524],[18.1276,40.15],[18.1319,40.1476],[18.1356,40.1468]]]}},{"type":"Feature","properties":{"i":"075007","n":"Arnesano"},"geometry":{"type":"Polygon","coordinates":[[[18.1176,40.3375],[18.1087,40.3364],[18.0705,40.3283],[18.0604,40.3211],[18.062,40.3187],[18.0558,40.3133],[18.0445,40.3144],[18.0395,40.3209],[18.0241,40.3165],[18.0272,40.321],[18.0362,40.3261],[18.0399,40.3272],[18.0511,40.327],[18.0615,40.3295],[18.0705,40.3341],[18.074,40.3472],[18.0771,40.3514],[18.0756,40.3553],[18.0856,40.3593],[18.0877,40.361],[18.0869,40.3612],[18.0866,40.3631],[18.0916,40.3657],[18.0939,40.365],[18.0967,40.3526],[18.1213,40.35],[18.1202,40.3397],[18.1176,40.3375]]]}},{"type":"Feature","properties":{"i":"075008","n":"Bagnolo del Salento"},"geometry":{"type":"Polygon","coordinates":[[[18.3922,40.144],[18.3852,40.1413],[18.3695,40.1426],[18.3672,40.1402],[18.3595,40.138],[18.3552,40.1377],[18.3522,40.1362],[18.3496,40.1356],[18.3452,40.1367],[18.3409,40.1386],[18.3428,40.1508],[18.338,40.1552],[18.3356,40.1596],[18.346,40.1637],[18.3476,40.1612],[18.3586,40.1556],[18.368,40.1494],[18.3871,40.147],[18.3922,40.144]]]}},{"type":"Feature","properties":{"i":"075009","n":"Botrugno"},"geometry":{"type":"Polygon","coordinates":[[[18.341,40.0681],[18.337,40.0614],[18.3317,40.0636],[18.3304,40.0632],[18.3189,40.0565],[18.3068,40.0481],[18.3046,40.0455],[18.304,40.0436],[18.305,40.0374],[18.3004,40.0353],[18.293,40.0333],[18.2824,40.0342],[18.28,40.0332],[18.2786,40.0349],[18.2776,40.0403],[18.2757,40.0418],[18.2741,40.0419],[18.2723,40.0416],[18.2726,40.0406],[18.2676,40.0391],[18.265,40.0454],[18.2652,40.0467],[18.2686,40.0467],[18.2734,40.0483],[18.279,40.0399],[18.2814,40.0396],[18.2835,40.0414],[18.2854,40.0448],[18.2929,40.0483],[18.3115,40.0657],[18.3136,40.0697],[18.3131,40.0737],[18.3177,40.0779],[18.3227,40.0793],[18.3249,40.0811],[18.3331,40.0744],[18.3382,40.0689],[18.341,40.0681]]]}},{"type":"Feature","properties":{"i":"075010","n":"Calimera"},"geometry":{"type":"Polygon","coordinates":[[[18.3161,40.2472],[18.3187,40.2413],[18.316,40.2343],[18.3146,40.2337],[18.2991,40.2326],[18.2726,40.2267],[18.2713,40.2271],[18.2768,40.2325],[18.2768,40.2339],[18.273,40.2442],[18.2702,40.2481],[18.2681,40.2498],[18.2733,40.2554],[18.279,40.2568],[18.2845,40.2628],[18.2881,40.2647],[18.2965,40.2672],[18.3046,40.2507],[18.3161,40.2472]]]}},{"type":"Feature","properties":{"i":"075011","n":"Campi Salentina"},"geometry":{"type":"Polygon","coordinates":[[[18.0195,40.4375],[18.0161,40.4317],[18.021,40.4246],[18.0263,40.4207],[18.0411,40.4145],[18.0524,40.4065],[18.0571,40.4009],[18.0566,40.3986],[18.0485,40.3955],[18.0376,40.3871],[18.0346,40.3817],[18.0307,40.3789],[18.0238,40.3788],[18.0188,40.3776],[18.0091,40.3688],[18.0042,40.3656],[17.9948,40.362],[17.9794,40.3627],[17.977,40.3699],[17.9806,40.3793],[17.9806,40.387],[17.9829,40.3947],[17.9868,40.3991],[17.9885,40.3997],[17.9916,40.4004],[17.9948,40.3975],[17.9967,40.3986],[17.9979,40.4001],[17.9959,40.4061],[17.9959,40.409],[17.9925,40.4167],[17.9897,40.4194],[17.9807,40.4171],[17.9752,40.4134],[17.9741,40.4111],[17.9698,40.412],[17.9615,40.4295],[17.9552,40.4389],[17.954,40.447],[17.9555,40.4568],[17.9652,40.4566],[17.9755,40.4546],[17.9785,40.4565],[17.9826,40.4538],[17.998,40.4499],[18.0041,40.4456],[18.0195,40.4375]]]}},{"type":"Feature","properties":{"i":"075012","n":"Cannole"},"geometry":{"type":"Polygon","coordinates":[[[18.4007,40.1428],[18.3922,40.144],[18.3871,40.147],[18.368,40.1494],[18.3586,40.1556],[18.3476,40.1612],[18.346,40.1637],[18.3469,40.1674],[18.3627,40.1748],[18.3757,40.1797],[18.3843,40.1805],[18.3948,40.1847],[18.4052,40.1911],[18.4112,40.1826],[18.4141,40.176],[18.4146,40.1675],[18.4161,40.1638],[18.4205,40.1606],[18.422,40.156],[18.4216,40.1505],[18.4113,40.1474],[18.4094,40.1483],[18.4031,40.1466],[18.4017,40.1456],[18.4007,40.1428]]]}},{"type":"Feature","properties":{"i":"075013","n":"Caprarica di Lecce"},"geometry":{"type":"Polygon","coordinates":[[[18.2733,40.2554],[18.2681,40.2498],[18.2649,40.2505],[18.2511,40.2495],[18.2433,40.246],[18.2386,40.2494],[18.2313,40.2524],[18.2287,40.2547],[18.2259,40.2578],[18.2244,40.2635],[18.2218,40.2683],[18.2203,40.2693],[18.2307,40.2762],[18.2429,40.2827],[18.2555,40.2732],[18.2699,40.265],[18.2673,40.2634],[18.2733,40.2554]]]}},{"type":"Feature","properties":{"i":"075014","n":"Carmiano"},"geometry":{"type":"Polygon","coordinates":[[[18.0756,40.3553],[18.0771,40.3514],[18.074,40.3472],[18.0705,40.3341],[18.0615,40.3295],[18.0511,40.327],[18.0399,40.3272],[18.0362,40.3261],[18.0272,40.321],[18.0241,40.3165],[18.0179,40.318],[18.0052,40.3259],[17.9999,40.3308],[18.0017,40.3345],[18.0017,40.3394],[17.9996,40.3461],[18.0053,40.3481],[18.0065,40.352],[18.0103,40.3555],[18.0186,40.3593],[18.0329,40.3635],[18.0379,40.3677],[18.0427,40.3736],[18.0481,40.3725],[18.0521,40.3695],[18.0492,40.3663],[18.0491,40.3649],[18.051,40.3617],[18.0626,40.3548],[18.0756,40.3553]]]}},{"type":"Feature","properties":{"i":"075015","n":"Carpignano Salentino"},"geometry":{"type":"Polygon","coordinates":[[[18.401,40.2065],[18.402,40.2025],[18.4052,40.1966],[18.4072,40.1953],[18.4083,40.1936],[18.4052,40.1911],[18.3948,40.1847],[18.3843,40.1805],[18.3757,40.1797],[18.3627,40.1748],[18.3469,40.1674],[18.3421,40.1668],[18.338,40.168],[18.3393,40.1696],[18.3397,40.1739],[18.3356,40.1771],[18.3298,40.1789],[18.3241,40.1774],[18.3108,40.1793],[18.3081,40.1811],[18.3044,40.1853],[18.306,40.189],[18.3103,40.1954],[18.317,40.1993],[18.3179,40.2014],[18.3205,40.2169],[18.3164,40.2251],[18.316,40.2343],[18.3178,40.2377],[18.3187,40.2418],[18.3161,40.2472],[18.3307,40.2566],[18.3489,40.2613],[18.3563,40.2577],[18.3538,40.2488],[18.3826,40.205],[18.401,40.2065]]]}},{"type":"Feature","properties":{"i":"075016","n":"Casarano"},"geometry":{"type":"Polygon","coordinates":[[[18.1943,40.0633],[18.1969,40.0592],[18.1965,40.0571],[18.1982,40.054],[18.2046,40.0469],[18.2205,40.0136],[18.1887,39.9982],[18.1842,39.9935],[18.1791,39.9945],[18.1699,39.9892],[18.1523,39.9814],[18.1485,39.9811],[18.1459,39.9839],[18.1267,39.9964],[18.1255,39.9988],[18.1255,40.0031],[18.1229,40.0095],[18.1284,40.0118],[18.1402,40.0129],[18.1429,40.0164],[18.1425,40.0194],[18.1497,40.025],[18.1589,40.0343],[18.1705,40.04],[18.1719,40.0454],[18.1678,40.0519],[18.1844,40.058],[18.1943,40.0633]]]}},{"type":"Feature","properties":{"i":"075017","n":"Castri di Lecce"},"geometry":{"type":"Polygon","coordinates":[[[18.2957,40.267],[18.285,40.2632],[18.279,40.2568],[18.2733,40.2554],[18.2673,40.2634],[18.2699,40.265],[18.2555,40.2732],[18.2467,40.2794],[18.2354,40.2902],[18.243,40.296],[18.254,40.3017],[18.256,40.2993],[18.266,40.2929],[18.2748,40.2907],[18.2923,40.2813],[18.2957,40.267]]]}},{"type":"Feature","properties":{"i":"075018","n":"Castrignano de' Greci"},"geometry":{"type":"Polygon","coordinates":[[[18.3057,40.184],[18.3108,40.1793],[18.3241,40.1774],[18.3298,40.1789],[18.3365,40.1767],[18.3398,40.1731],[18.3393,40.1696],[18.338,40.168],[18.3421,40.1668],[18.3469,40.1674],[18.346,40.1637],[18.3404,40.1616],[18.3355,40.1658],[18.3119,40.1633],[18.3033,40.1615],[18.3037,40.1638],[18.2998,40.1659],[18.2939,40.1673],[18.287,40.1674],[18.2842,40.1651],[18.28,40.1662],[18.2763,40.1719],[18.2781,40.1764],[18.2832,40.1788],[18.2834,40.1804],[18.2819,40.1833],[18.2875,40.1888],[18.2898,40.1879],[18.2937,40.184],[18.2997,40.1809],[18.3027,40.1817],[18.3057,40.184]]]}},{"type":"Feature","properties":{"i":"075019","n":"Castrignano del Capo"},"geometry":{"type":"Polygon","coordinates":[[[18.344,39.859],[18.35,39.8553],[18.353,39.8511],[18.3507,39.8492],[18.3553,39.8411],[18.3586,39.8411],[18.3643,39.838],[18.3666,39.8333],[18.3675,39.826],[18.3668,39.8206],[18.3716,39.8116],[18.3725,39.8055],[18.3705,39.8016],[18.3688,39.7955],[18.369,39.7938],[18.3603,39.7972],[18.3496,39.7932],[18.3462,39.7912],[18.334,39.7958],[18.3322,39.7973],[18.328,39.805],[18.3255,39.8075],[18.3184,39.81],[18.3218,39.818],[18.3248,39.8208],[18.3343,39.8268],[18.3416,39.8333],[18.3442,39.8391],[18.3431,39.8433],[18.3415,39.8453],[18.3328,39.8456],[18.3269,39.843],[18.322,39.8453],[18.3224,39.848],[18.3247,39.8516],[18.3271,39.8536],[18.3398,39.8617],[18.344,39.859]]]}},{"type":"Feature","properties":{"i":"075020","n":"Cavallino"},"geometry":{"type":"Polygon","coordinates":[[[18.2033,40.3258],[18.213,40.3089],[18.2111,40.3029],[18.215,40.2973],[18.2238,40.293],[18.2296,40.2916],[18.2311,40.2855],[18.2272,40.2809],[18.2307,40.2762],[18.2203,40.2693],[18.2166,40.2654],[18.2028,40.2637],[18.1991,40.2652],[18.1932,40.2711],[18.1914,40.2756],[18.1915,40.2772],[18.1874,40.2813],[18.1703,40.2904],[18.1748,40.2983],[18.1738,40.3062],[18.1738,40.3251],[18.1724,40.3314],[18.1736,40.3347],[18.1813,40.3376],[18.1839,40.3336],[18.1818,40.3256],[18.1826,40.3245],[18.192,40.3195],[18.1985,40.3222],[18.2033,40.3258]]]}},{"type":"Feature","properties":{"i":"075021","n":"Collepasso"},"geometry":{"type":"Polygon","coordinates":[[[18.201,40.067],[18.1844,40.058],[18.1678,40.0519],[18.1634,40.0583],[18.1486,40.055],[18.1506,40.0636],[18.1481,40.0725],[18.1427,40.0746],[18.1558,40.0857],[18.1601,40.0869],[18.1635,40.0868],[18.1742,40.0898],[18.1826,40.0935],[18.1859,40.0907],[18.1851,40.0764],[18.19,40.0731],[18.1957,40.0716],[18.201,40.067]]]}},{"type":"Feature","properties":{"i":"075022","n":"Copertino"},"geometry":{"type":"Polygon","coordinates":[[[18.0445,40.3144],[18.0543,40.3137],[18.0548,40.3094],[18.0658,40.3029],[18.0793,40.2965],[18.0817,40.2965],[18.0849,40.2937],[18.0831,40.2896],[18.0865,40.288],[18.0957,40.2769],[18.0962,40.2729],[18.0906,40.2684],[18.0913,40.2641],[18.1013,40.2545],[18.1071,40.2442],[18.1072,40.2429],[18.1014,40.2398],[18.0974,40.2393],[18.0958,40.2358],[18.0974,40.2329],[18.0968,40.2324],[18.0906,40.2311],[18.0804,40.2317],[18.0735,40.2346],[18.0711,40.2317],[18.0685,40.2237],[18.0669,40.2246],[18.0657,40.2243],[18.0574,40.2208],[18.053,40.2234],[18.0489,40.2296],[18.0482,40.2324],[18.049,40.2399],[18.0306,40.242],[18.0215,40.2458],[18.0132,40.2479],[18.008,40.2509],[18.0076,40.2542],[18.0055,40.2571],[17.9997,40.2601],[17.9984,40.2599],[17.9871,40.2518],[17.984,40.2515],[17.9852,40.2613],[17.9908,40.267],[18.0026,40.271],[18.0114,40.2715],[18.0141,40.2702],[18.0164,40.2706],[18.024,40.2738],[18.0263,40.2762],[18.0269,40.2838],[18.0225,40.29],[18.0109,40.2994],[18.0081,40.3041],[18.0081,40.3087],[18.0241,40.3165],[18.0318,40.3187],[18.0386,40.3138],[18.0445,40.3144]]]}},{"type":"Feature","properties":{"i":"075023","n":"Corigliano d'Otranto"},"geometry":{"type":"Polygon","coordinates":[[[18.2824,40.1816],[18.2834,40.1804],[18.2832,40.1788],[18.2781,40.1764],[18.2763,40.1719],[18.279,40.1683],[18.273,40.1651],[18.272,40.1628],[18.2776,40.1527],[18.2757,40.1466],[18.2676,40.1428],[18.269,40.1352],[18.2717,40.1321],[18.2721,40.1276],[18.2688,40.1237],[18.2591,40.1221],[18.2551,40.119],[18.2537,40.1164],[18.2494,40.1148],[18.2395,40.121],[18.2313,40.1196],[18.2304,40.121],[18.2341,40.1261],[18.237,40.1285],[18.2378,40.1314],[18.2356,40.1353],[18.2225,40.1517],[18.2164,40.1573],[18.2128,40.1583],[18.2142,40.1597],[18.2162,40.1586],[18.2206,40.1594],[18.2203,40.1607],[18.2235,40.1681],[18.2322,40.1786],[18.2415,40.1846],[18.2441,40.1824],[18.2507,40.184],[18.254,40.1873],[18.2551,40.1902],[18.2591,40.1929],[18.2632,40.1884],[18.275,40.1829],[18.2824,40.1816]]]}},{"type":"Feature","properties":{"i":"075024","n":"Corsano"},"geometry":{"type":"Polygon","coordinates":[[[18.3973,39.8959],[18.3987,39.8796],[18.3976,39.8715],[18.3955,39.8689],[18.3929,39.8677],[18.3745,39.87],[18.3622,39.8803],[18.3564,39.8871],[18.3563,39.8906],[18.3587,39.8949],[18.3622,39.8942],[18.3814,39.8966],[18.3973,39.8959]]]}},{"type":"Feature","properties":{"i":"075025","n":"Cursi"},"geometry":{"type":"Polygon","coordinates":[[[18.3404,40.1616],[18.3356,40.1596],[18.338,40.1552],[18.3428,40.1508],[18.3409,40.1386],[18.3386,40.1379],[18.3357,40.1377],[18.3298,40.1391],[18.3104,40.145],[18.3013,40.1435],[18.2969,40.1448],[18.2946,40.1471],[18.2977,40.1495],[18.3027,40.1566],[18.3041,40.1595],[18.3033,40.1615],[18.3119,40.1633],[18.3355,40.1658],[18.3404,40.1616]]]}},{"type":"Feature","properties":{"i":"075026","n":"Cutrofiano"},"geometry":{"type":"Polygon","coordinates":[[[18.2494,40.1148],[18.2499,40.1115],[18.249,40.1042],[18.2525,40.1016],[18.2438,40.0992],[18.2394,40.0973],[18.2372,40.0953],[18.2379,40.0922],[18.2392,40.0922],[18.242,40.0904],[18.2433,40.0889],[18.2433,40.0871],[18.2418,40.0848],[18.2336,40.0821],[18.2315,40.0802],[18.2339,40.0648],[18.2356,40.061],[18.2371,40.0598],[18.2321,40.0559],[18.2228,40.0741],[18.2145,40.0718],[18.2147,40.0699],[18.201,40.067],[18.1957,40.0716],[18.19,40.0731],[18.1851,40.0764],[18.1859,40.0907],[18.1826,40.0935],[18.1742,40.0898],[18.1635,40.0868],[18.1576,40.0864],[18.1552,40.0852],[18.1466,40.0976],[18.1455,40.1042],[18.147,40.1076],[18.1465,40.1151],[18.1526,40.117],[18.1537,40.1192],[18.1526,40.1215],[18.1474,40.127],[18.1461,40.1297],[18.1461,40.1331],[18.1434,40.1397],[18.1356,40.1468],[18.1675,40.1372],[18.1739,40.1384],[18.1828,40.1431],[18.1851,40.1386],[18.2016,40.1353],[18.2128,40.1447],[18.2184,40.1483],[18.2236,40.1504],[18.2356,40.1353],[18.2378,40.1314],[18.237,40.1285],[18.2341,40.1261],[18.2304,40.121],[18.2313,40.1196],[18.2395,40.121],[18.2494,40.1148]]]}},{"type":"Feature","properties":{"i":"075027","n":"Diso"},"geometry":{"type":"Polygon","coordinates":[[[18.4003,40.0081],[18.3984,40.0053],[18.3986,40.0042],[18.4167,39.994],[18.4111,39.9807],[18.4083,39.9778],[18.4072,39.9747],[18.3985,39.977],[18.3907,39.9813],[18.3872,39.9921],[18.3843,39.9942],[18.3807,39.9951],[18.3714,39.9953],[18.368,39.9935],[18.363,39.9944],[18.3588,39.9972],[18.3618,39.9998],[18.3712,40.0035],[18.379,40.0102],[18.3819,40.0189],[18.3809,40.0234],[18.389,40.0229],[18.3952,40.0208],[18.4015,40.0133],[18.4003,40.0081]]]}},{"type":"Feature","properties":{"i":"075028","n":"Gagliano del Capo"},"geometry":{"type":"Polygon","coordinates":[[[18.3917,39.8606],[18.3911,39.8532],[18.3895,39.8465],[18.3846,39.841],[18.3859,39.8312],[18.3913,39.821],[18.3909,39.8173],[18.3793,39.8064],[18.3769,39.8021],[18.369,39.7938],[18.3688,39.7955],[18.3705,39.8016],[18.3725,39.8055],[18.3716,39.8116],[18.3668,39.8206],[18.3675,39.826],[18.3666,39.8333],[18.3643,39.838],[18.3586,39.8411],[18.3553,39.8411],[18.3507,39.8492],[18.353,39.8511],[18.35,39.8553],[18.344,39.859],[18.3436,39.8629],[18.3485,39.8677],[18.3528,39.8697],[18.3583,39.8705],[18.363,39.8673],[18.3641,39.8651],[18.3688,39.8636],[18.388,39.864],[18.3909,39.8625],[18.3917,39.8606]]]}},{"type":"Feature","properties":{"i":"075029","n":"Galatina"},"geometry":{"type":"Polygon","coordinates":[[[18.1683,40.2422],[18.1721,40.2399],[18.1732,40.2282],[18.1715,40.2247],[18.1593,40.2236],[18.1555,40.2208],[18.156,40.2153],[18.1632,40.1989],[18.1685,40.1934],[18.1824,40.192],[18.186,40.1835],[18.1913,40.1795],[18.1938,40.1729],[18.2021,40.1643],[18.2152,40.1609],[18.2147,40.1602],[18.2064,40.1542],[18.2009,40.1545],[18.1937,40.1579],[18.188,40.1556],[18.1857,40.143],[18.1828,40.1431],[18.1739,40.1384],[18.1675,40.1372],[18.1319,40.1476],[18.1276,40.15],[18.1266,40.1524],[18.1298,40.1574],[18.1297,40.1586],[18.1269,40.1596],[18.1201,40.1543],[18.12,40.1515],[18.115,40.1516],[18.1025,40.1601],[18.0936,40.1673],[18.0942,40.1712],[18.0978,40.1793],[18.0993,40.1861],[18.099,40.1935],[18.086,40.1906],[18.0813,40.2026],[18.0774,40.2093],[18.0726,40.2237],[18.0685,40.2237],[18.0711,40.2317],[18.0735,40.2346],[18.0804,40.2317],[18.0906,40.2311],[18.0968,40.2324],[18.0974,40.2329],[18.0958,40.2358],[18.0974,40.2393],[18.1014,40.2398],[18.1072,40.2429],[18.1188,40.2379],[18.1198,40.2365],[18.1221,40.2361],[18.1343,40.2416],[18.1381,40.2499],[18.1443,40.2497],[18.1459,40.2447],[18.1564,40.2433],[18.1645,40.2441],[18.1683,40.2422]]]}},{"type":"Feature","properties":{"i":"075030","n":"Galatone"},"geometry":{"type":"Polygon","coordinates":[[[18.115,40.1516],[18.1136,40.1477],[18.1108,40.1453],[18.0967,40.1374],[18.0915,40.1332],[18.0906,40.1234],[18.0887,40.1186],[18.0965,40.1062],[18.0924,40.1067],[18.0864,40.1092],[18.0769,40.1045],[18.0722,40.1034],[18.0711,40.1093],[18.0679,40.1105],[18.0625,40.1102],[18.0511,40.1153],[18.0502,40.1202],[18.0376,40.1203],[18.01,40.1171],[18.0038,40.1137],[17.9984,40.1214],[18.0076,40.1231],[18.0131,40.1284],[18.0237,40.1494],[18.0318,40.1514],[18.0418,40.1553],[18.0514,40.1614],[18.0479,40.1719],[18.048,40.1749],[18.0503,40.1763],[18.0567,40.1759],[18.0669,40.1772],[18.0659,40.184],[18.0828,40.1905],[18.086,40.1906],[18.099,40.1935],[18.0993,40.1861],[18.0978,40.1793],[18.0942,40.1712],[18.0936,40.1673],[18.1025,40.1601],[18.115,40.1516]]]}},{"type":"Feature","properties":{"i":"075031","n":"Gallipoli"},"geometry":{"type":"MultiPolygon","coordinates":[[[[17.9503,40.0524],[17.9541,40.0511],[17.9551,40.0499],[17.9513,40.0459],[17.9479,40.0452],[17.9449,40.0462],[17.9449,40.0491],[17.9471,40.0516],[17.9487,40.0533],[17.9503,40.0524]]],[[[17.9698,40.0544],[17.9689,40.0526],[17.9691,40.0543],[17.9698,40.0544]]],[[[18.0429,40.0706],[18.045,40.0628],[18.0403,40.0509],[18.0411,40.0466],[18.0399,40.0393],[18.0332,40.0352],[18.0368,40.0321],[18.0529,40.0256],[18.0726,40.0223],[18.0774,40.0124],[18.0597,40.0042],[18.0476,40.0015],[18.0421,39.9963],[18.0448,39.9913],[18.0456,39.9915],[18.0463,39.988],[18.0404,39.9831],[18.0278,39.9875],[18.0225,39.9839],[18.0168,39.9784],[18.013,39.9708],[17.9951,39.9944],[17.9932,40.0001],[18.0058,39.9957],[18.0101,39.998],[18.0146,40.0027],[18.0173,40.0067],[18.0206,40.0157],[18.0196,40.0255],[18.0172,40.0319],[18.0125,40.0395],[18.0041,40.0474],[17.9913,40.053],[17.9807,40.0558],[17.9795,40.056],[17.9786,40.0534],[17.974,40.0521],[17.9729,40.055],[17.9752,40.0588],[17.983,40.0615],[17.9835,40.0613],[17.9762,40.0585],[17.9772,40.0569],[17.9793,40.0565],[17.9889,40.0586],[18.0011,40.0669],[18.0039,40.0709],[18.0114,40.0859],[18.012,40.0968],[18.0115,40.1029],[18.0099,40.1091],[18.0086,40.1109],[18.0038,40.1137],[18.0046,40.1144],[18.0102,40.1101],[18.0146,40.1084],[18.018,40.1027],[18.0134,40.0858],[18.0394,40.0703],[18.0429,40.0706]]]]}},{"type":"Feature","properties":{"i":"075032","n":"Giuggianello"},"geometry":{"type":"Polygon","coordinates":[[[18.408,40.1251],[18.4124,40.1202],[18.4139,40.1158],[18.4042,40.1108],[18.3926,40.0994],[18.3868,40.0983],[18.385,40.0938],[18.3859,40.0898],[18.3855,40.0854],[18.3819,40.0847],[18.3722,40.0849],[18.3685,40.0857],[18.3661,40.0879],[18.361,40.0951],[18.3603,40.1008],[18.3617,40.1026],[18.3722,40.1059],[18.3748,40.1094],[18.3747,40.111],[18.3804,40.1191],[18.3837,40.1184],[18.3921,40.1262],[18.408,40.1251]]]}},{"type":"Feature","properties":{"i":"075033","n":"Giurdignano"},"geometry":{"type":"Polygon","coordinates":[[[18.4656,40.1329],[18.461,40.1326],[18.4501,40.1293],[18.4477,40.1239],[18.4426,40.1179],[18.426,40.1074],[18.4216,40.1109],[18.4187,40.1104],[18.4184,40.1086],[18.4128,40.1128],[18.4139,40.1158],[18.4124,40.1202],[18.408,40.1251],[18.4136,40.1335],[18.4122,40.1351],[18.4085,40.1349],[18.4042,40.1406],[18.4045,40.1425],[18.4157,40.1416],[18.4262,40.1446],[18.4645,40.1472],[18.4661,40.1374],[18.4656,40.1329]]]}},{"type":"Feature","properties":{"i":"075034","n":"Guagnano"},"geometry":{"type":"Polygon","coordinates":[[[17.9555,40.4568],[17.954,40.447],[17.9552,40.4389],[17.9615,40.4295],[17.9698,40.412],[17.9741,40.4111],[17.9752,40.4134],[17.9807,40.4171],[17.9897,40.4194],[17.9918,40.4178],[17.9952,40.4116],[17.9964,40.4043],[17.9872,40.4055],[17.9772,40.4053],[17.9664,40.3985],[17.9424,40.3903],[17.937,40.3899],[17.9243,40.3913],[17.915,40.3943],[17.873,40.404],[17.8594,40.401],[17.8482,40.3996],[17.8394,40.3965],[17.832,40.3965],[17.8259,40.399],[17.8214,40.3992],[17.8226,40.4034],[17.8465,40.4087],[17.8648,40.4156],[17.879,40.4164],[17.8864,40.4227],[17.9261,40.4264],[17.9347,40.4284],[17.9356,40.4289],[17.9388,40.4388],[17.9471,40.451],[17.9533,40.4576],[17.9555,40.4568]]]}},{"type":"Feature","properties":{"i":"075035","n":"Lecce"},"geometry":{"type":"Polygon","coordinates":[[[18.1016,40.4894],[18.1062,40.4911],[18.107,40.4905],[18.1094,40.4874],[18.1107,40.4819],[18.1159,40.4852],[18.141,40.4814],[18.1437,40.4829],[18.1448,40.4864],[18.1664,40.4807],[18.1756,40.4749],[18.178,40.4726],[18.1836,40.4701],[18.1929,40.4681],[18.2027,40.4673],[18.2128,40.4613],[18.2181,40.4558],[18.2223,40.453],[18.2346,40.4483],[18.2438,40.4419],[18.2488,40.4376],[18.2597,40.4239],[18.2688,40.4192],[18.2761,40.4097],[18.2804,40.4064],[18.301,40.3945],[18.3065,40.3889],[18.3047,40.3864],[18.3059,40.383],[18.3014,40.3773],[18.2993,40.3601],[18.3008,40.3511],[18.2995,40.3454],[18.2973,40.3431],[18.2885,40.3445],[18.2786,40.3441],[18.2684,40.3419],[18.2693,40.339],[18.2718,40.336],[18.274,40.334],[18.2781,40.3321],[18.2678,40.3285],[18.2632,40.3279],[18.2609,40.3292],[18.26,40.3307],[18.2552,40.3297],[18.2559,40.3346],[18.261,40.3406],[18.2645,40.3479],[18.2635,40.3521],[18.2398,40.353],[18.2323,40.3497],[18.2167,40.3394],[18.2164,40.3312],[18.2154,40.3299],[18.2092,40.3287],[18.2033,40.3258],[18.1985,40.3222],[18.1924,40.3194],[18.1826,40.3245],[18.1818,40.3256],[18.1839,40.3336],[18.1813,40.3376],[18.1799,40.3375],[18.1736,40.3347],[18.173,40.333],[18.1625,40.3272],[18.1586,40.3277],[18.1546,40.3238],[18.149,40.3232],[18.1453,40.3271],[18.1418,40.3211],[18.1395,40.3189],[18.135,40.3195],[18.1302,40.3217],[18.1237,40.3165],[18.1201,40.3125],[18.1116,40.3206],[18.1125,40.3219],[18.1195,40.325],[18.1208,40.3268],[18.1192,40.3349],[18.1176,40.3375],[18.1202,40.3397],[18.1213,40.35],[18.0967,40.3526],[18.0939,40.365],[18.0921,40.3656],[18.0866,40.3631],[18.0869,40.3612],[18.0877,40.361],[18.082,40.3574],[18.0696,40.3651],[18.0694,40.3678],[18.0716,40.3723],[18.0823,40.3848],[18.0885,40.3869],[18.0924,40.3919],[18.0953,40.4002],[18.1066,40.4081],[18.0863,40.4165],[18.0781,40.4224],[18.078,40.4271],[18.0808,40.43],[18.0884,40.4234],[18.0883,40.428],[18.0745,40.4445],[18.0639,40.455],[18.0531,40.4678],[18.0401,40.4878],[18.0429,40.486],[18.0495,40.4741],[18.0566,40.4771],[18.0614,40.47],[18.0597,40.4668],[18.0691,40.4604],[18.0753,40.4645],[18.0721,40.4712],[18.0743,40.4763],[18.081,40.4871],[18.0835,40.4885],[18.0797,40.4919],[18.084,40.4999],[18.0894,40.5065],[18.096,40.5003],[18.1016,40.4894]],[[18.1296,40.4601],[18.1244,40.4582],[18.122,40.4521],[18.1254,40.4485],[18.1244,40.4419],[18.1204,40.4403],[18.1179,40.4429],[18.1149,40.4409],[18.1129,40.4384],[18.1142,40.4338],[18.1198,40.4242],[18.1228,40.4161],[18.1229,40.4106],[18.1161,40.4071],[18.1125,40.4005],[18.1119,40.3978],[18.1126,40.3955],[18.1175,40.389],[18.1246,40.3829],[18.1375,40.3783],[18.1533,40.3676],[18.1484,40.3754],[18.1457,40.383],[18.1486,40.3848],[18.1508,40.3835],[18.1546,40.3847],[18.1566,40.3864],[18.1574,40.3901],[18.156,40.4005],[18.1525,40.4048],[18.1373,40.4174],[18.1378,40.4251],[18.1393,40.4328],[18.1442,40.4416],[18.1463,40.4432],[18.1468,40.4478],[18.1459,40.4498],[18.1407,40.4551],[18.1357,40.4579],[18.1296,40.4601]]]}},{"type":"Feature","properties":{"i":"075036","n":"Lequile"},"geometry":{"type":"Polygon","coordinates":[[[18.1531,40.2844],[18.1532,40.2801],[18.1559,40.2748],[18.1633,40.267],[18.1674,40.2656],[18.1694,40.2596],[18.1699,40.2524],[18.1693,40.2502],[18.1725,40.2442],[18.1683,40.2422],[18.1645,40.2441],[18.1564,40.2433],[18.1459,40.2447],[18.1443,40.2497],[18.1381,40.2499],[18.1343,40.2416],[18.1221,40.2361],[18.1198,40.2365],[18.1188,40.2379],[18.1072,40.2429],[18.1071,40.2442],[18.1013,40.2545],[18.0913,40.2641],[18.0906,40.2684],[18.0962,40.2729],[18.0957,40.2769],[18.0995,40.2791],[18.1152,40.2848],[18.1204,40.2928],[18.1241,40.3011],[18.1366,40.3098],[18.1332,40.3136],[18.1298,40.3099],[18.1252,40.3085],[18.1225,40.309],[18.1199,40.3121],[18.1237,40.3165],[18.1303,40.3218],[18.135,40.3195],[18.1399,40.3191],[18.1453,40.3271],[18.149,40.3232],[18.1546,40.3238],[18.1586,40.3277],[18.1605,40.3279],[18.1625,40.3272],[18.1627,40.3256],[18.1558,40.3106],[18.1502,40.3079],[18.1465,40.3031],[18.1484,40.2978],[18.1462,40.2888],[18.1489,40.2863],[18.1531,40.2844]]]}},{"type":"Feature","properties":{"i":"075037","n":"Leverano"},"geometry":{"type":"MultiPolygon","coordinates":[[[[18.0445,40.3144],[18.0386,40.3138],[18.0318,40.3187],[18.0395,40.3209],[18.0445,40.3144]]],[[[18.0241,40.3165],[18.0081,40.3087],[18.0076,40.3075],[18.0081,40.3041],[18.0113,40.2989],[18.0225,40.29],[18.0269,40.2838],[18.0266,40.2773],[18.0244,40.274],[18.0164,40.2706],[18.0141,40.2702],[18.0114,40.2715],[18.0026,40.271],[17.9908,40.267],[17.9852,40.2613],[17.984,40.2515],[17.9582,40.25],[17.9519,40.2535],[17.95,40.2618],[17.949,40.2632],[17.9457,40.2648],[17.9429,40.2696],[17.9425,40.2763],[17.941,40.2795],[17.9378,40.2812],[17.9297,40.2909],[17.915,40.3006],[17.9099,40.3068],[17.8984,40.3174],[17.8974,40.3214],[17.8931,40.3266],[17.9172,40.3267],[17.918,40.3223],[17.9225,40.3139],[17.9381,40.3073],[17.9482,40.3072],[17.9635,40.3103],[17.9976,40.322],[18.0042,40.3234],[18.0052,40.3259],[18.0179,40.318],[18.0241,40.3165]]]]}},{"type":"Feature","properties":{"i":"075038","n":"Lizzanello"},"geometry":{"type":"Polygon","coordinates":[[[18.2552,40.3297],[18.2524,40.3283],[18.2623,40.3234],[18.2625,40.3227],[18.2613,40.3161],[18.2585,40.3149],[18.2573,40.3045],[18.254,40.3017],[18.243,40.296],[18.2354,40.2902],[18.2394,40.2869],[18.2429,40.2827],[18.2307,40.2762],[18.2272,40.2809],[18.2311,40.2855],[18.2296,40.2916],[18.2238,40.293],[18.215,40.2973],[18.2111,40.3029],[18.213,40.3089],[18.2033,40.3258],[18.2092,40.3287],[18.2154,40.3299],[18.2164,40.3312],[18.2167,40.3394],[18.2323,40.3497],[18.2398,40.353],[18.2636,40.3518],[18.2645,40.3479],[18.261,40.3406],[18.2559,40.3346],[18.2552,40.3297]]]}},{"type":"Feature","properties":{"i":"075039","n":"Maglie"},"geometry":{"type":"Polygon","coordinates":[[[18.3409,40.1386],[18.3496,40.1356],[18.3552,40.1377],[18.3502,40.1312],[18.3392,40.1277],[18.3345,40.1288],[18.3315,40.1286],[18.3207,40.1237],[18.3174,40.1191],[18.3135,40.1051],[18.3155,40.102],[18.3113,40.0988],[18.3077,40.0985],[18.3079,40.1029],[18.3073,40.1048],[18.3044,40.1063],[18.3002,40.1048],[18.2969,40.105],[18.2828,40.1115],[18.279,40.1104],[18.2739,40.1071],[18.2712,40.1002],[18.2729,40.0966],[18.2667,40.089],[18.2653,40.0908],[18.2617,40.0922],[18.2539,40.0932],[18.2524,40.0924],[18.2515,40.0892],[18.2476,40.0863],[18.2418,40.0848],[18.2433,40.0871],[18.2433,40.0889],[18.2392,40.0922],[18.2379,40.0922],[18.2372,40.0953],[18.2394,40.0973],[18.2525,40.1016],[18.2574,40.1042],[18.2591,40.1046],[18.2606,40.1037],[18.2677,40.1051],[18.2708,40.1085],[18.2704,40.1193],[18.2697,40.1214],[18.2677,40.1231],[18.2688,40.1237],[18.2713,40.1224],[18.2755,40.1245],[18.2753,40.1295],[18.2733,40.1337],[18.2748,40.1374],[18.2761,40.1385],[18.2809,40.139],[18.2871,40.1368],[18.2909,40.1391],[18.2914,40.1418],[18.2946,40.1459],[18.3013,40.1435],[18.3104,40.145],[18.3357,40.1377],[18.3409,40.1386]]]}},{"type":"Feature","properties":{"i":"075040","n":"Martano"},"geometry":{"type":"Polygon","coordinates":[[[18.3057,40.184],[18.3027,40.1817],[18.2997,40.1809],[18.2937,40.184],[18.2898,40.1879],[18.2875,40.1888],[18.2819,40.1833],[18.2824,40.1816],[18.275,40.1829],[18.2631,40.1886],[18.2611,40.1914],[18.265,40.1921],[18.2632,40.1996],[18.2635,40.2119],[18.2692,40.2223],[18.2726,40.2267],[18.2991,40.2326],[18.3111,40.2331],[18.316,40.2343],[18.3164,40.2251],[18.3205,40.2169],[18.3179,40.2014],[18.317,40.1993],[18.3103,40.1954],[18.306,40.189],[18.3044,40.1853],[18.3057,40.184]]]}},{"type":"Feature","properties":{"i":"075041","n":"Martignano"},"geometry":{"type":"Polygon","coordinates":[[[18.2681,40.2498],[18.2702,40.2481],[18.273,40.2442],[18.2768,40.2339],[18.2768,40.2325],[18.2726,40.2289],[18.2713,40.2264],[18.2646,40.2252],[18.2539,40.2263],[18.2507,40.2283],[18.2467,40.2334],[18.2449,40.2345],[18.2439,40.234],[18.2426,40.2347],[18.2403,40.2367],[18.2399,40.2419],[18.244,40.2433],[18.2433,40.246],[18.2511,40.2495],[18.2649,40.2505],[18.2681,40.2498]]]}},{"type":"Feature","properties":{"i":"075042","n":"Matino"},"geometry":{"type":"Polygon","coordinates":[[[18.1678,40.0519],[18.1719,40.0454],[18.1705,40.04],[18.1589,40.0343],[18.1497,40.025],[18.1425,40.0194],[18.1429,40.0164],[18.1402,40.0129],[18.1284,40.0118],[18.1229,40.0095],[18.1255,40.0031],[18.1255,39.9988],[18.1158,39.9978],[18.1125,39.9984],[18.1097,40.0002],[18.1058,40.0063],[18.104,40.0061],[18.099,40.0102],[18.0885,40.0104],[18.0774,40.0124],[18.0726,40.0223],[18.0757,40.0219],[18.0788,40.0224],[18.0795,40.0233],[18.0803,40.0314],[18.078,40.0346],[18.0902,40.0386],[18.1051,40.0421],[18.108,40.0394],[18.1153,40.0393],[18.1257,40.0409],[18.1405,40.046],[18.1449,40.0485],[18.1486,40.055],[18.1634,40.0583],[18.1678,40.0519]]]}},{"type":"Feature","properties":{"i":"075043","n":"Melendugno"},"geometry":{"type":"MultiPolygon","coordinates":[[[[18.3752,40.3278],[18.3808,40.3194],[18.3888,40.3126],[18.407,40.3011],[18.4248,40.2915],[18.4295,40.2865],[18.4308,40.2782],[18.4297,40.2764],[18.4304,40.2726],[18.4349,40.269],[18.4411,40.2688],[18.4436,40.2617],[18.4452,40.2546],[18.4397,40.2521],[18.437,40.233],[18.438,40.2283],[18.437,40.2257],[18.4356,40.2249],[18.4228,40.2228],[18.4213,40.225],[18.4099,40.2245],[18.4108,40.2185],[18.4157,40.2091],[18.405,40.2069],[18.3826,40.205],[18.3538,40.2488],[18.3563,40.2577],[18.3489,40.2613],[18.3307,40.2566],[18.3161,40.2472],[18.3046,40.2507],[18.2965,40.2672],[18.3147,40.271],[18.3153,40.2718],[18.3136,40.2729],[18.3121,40.2765],[18.3117,40.2809],[18.32,40.2899],[18.3283,40.2947],[18.3294,40.296],[18.3342,40.303],[18.3314,40.3068],[18.3312,40.309],[18.3323,40.3104],[18.3413,40.3147],[18.3752,40.3278]]]]}},{"type":"Feature","properties":{"i":"075044","n":"Melissano"},"geometry":{"type":"Polygon","coordinates":[[[18.1255,39.9988],[18.1267,39.9964],[18.1468,39.9832],[18.1485,39.9811],[18.1487,39.9778],[18.1423,39.9764],[18.1402,39.9752],[18.1414,39.9683],[18.1385,39.9613],[18.1325,39.9577],[18.1292,39.9538],[18.126,39.9527],[18.123,39.9535],[18.1179,39.962],[18.113,39.9668],[18.1064,39.9659],[18.1025,39.9662],[18.0966,39.9676],[18.0959,39.9684],[18.0985,39.9717],[18.1121,39.974],[18.1097,39.9812],[18.1002,39.9779],[18.0969,39.9819],[18.1039,39.9865],[18.1061,39.987],[18.1066,39.9858],[18.1124,39.989],[18.104,40.0061],[18.1058,40.0063],[18.1097,40.0002],[18.1125,39.9984],[18.1158,39.9978],[18.1255,39.9988]]]}},{"type":"Feature","properties":{"i":"075045","n":"Melpignano"},"geometry":{"type":"MultiPolygon","coordinates":[[[[18.2677,40.1231],[18.2697,40.1214],[18.2707,40.1162],[18.2708,40.1085],[18.2689,40.1062],[18.2677,40.1051],[18.2635,40.1041],[18.2574,40.1042],[18.2525,40.1016],[18.249,40.1042],[18.2499,40.1115],[18.2494,40.1148],[18.2537,40.1164],[18.2551,40.119],[18.2591,40.1221],[18.2677,40.1231]]],[[[18.3033,40.1615],[18.3041,40.1595],[18.3027,40.1566],[18.2977,40.1495],[18.2947,40.1473],[18.2958,40.1457],[18.2946,40.1459],[18.2934,40.1449],[18.2909,40.1405],[18.2909,40.1391],[18.2871,40.1368],[18.2809,40.139],[18.2755,40.1382],[18.2733,40.1337],[18.2753,40.1295],[18.2755,40.1245],[18.2713,40.1224],[18.2688,40.1237],[18.2725,40.128],[18.2717,40.1321],[18.269,40.1352],[18.2676,40.1428],[18.2757,40.1466],[18.2776,40.1527],[18.272,40.1628],[18.273,40.1651],[18.279,40.1683],[18.28,40.1662],[18.2842,40.1651],[18.287,40.1674],[18.2939,40.1673],[18.2998,40.1659],[18.3037,40.1638],[18.3033,40.1615]]]]}},{"type":"Feature","properties":{"i":"075046","n":"Miggiano"},"geometry":{"type":"Polygon","coordinates":[[[18.326,39.9628],[18.3337,39.9577],[18.3335,39.9527],[18.3303,39.9506],[18.3211,39.9506],[18.3049,39.9536],[18.2952,39.9629],[18.2934,39.9662],[18.293,39.9702],[18.2899,39.9751],[18.2865,39.9776],[18.2919,39.9877],[18.2929,39.9855],[18.2977,39.9857],[18.3013,39.9833],[18.326,39.9628]]]}},{"type":"Feature","properties":{"i":"075047","n":"Minervino di Lecce"},"geometry":{"type":"Polygon","coordinates":[[[18.426,40.1074],[18.4299,40.1039],[18.4389,40.0883],[18.4347,40.0855],[18.4341,40.0805],[18.4411,40.0758],[18.4425,40.0723],[18.4416,40.0674],[18.438,40.0675],[18.4366,40.0666],[18.4294,40.0578],[18.4293,40.0548],[18.4315,40.0532],[18.4242,40.0534],[18.4187,40.0555],[18.4149,40.0644],[18.4164,40.0705],[18.4189,40.0723],[18.4099,40.0774],[18.4049,40.0778],[18.3977,40.0771],[18.3926,40.0814],[18.3904,40.0852],[18.3855,40.0854],[18.3859,40.0898],[18.385,40.0938],[18.3868,40.0983],[18.3926,40.0994],[18.4042,40.1108],[18.4139,40.1158],[18.4128,40.1128],[18.4184,40.1086],[18.4187,40.1104],[18.4216,40.1109],[18.426,40.1074]]]}},{"type":"Feature","properties":{"i":"075048","n":"Monteroni di Lecce"},"geometry":{"type":"Polygon","coordinates":[[[18.1201,40.3125],[18.1186,40.3109],[18.1091,40.3054],[18.0994,40.3031],[18.0917,40.2995],[18.0878,40.2971],[18.0849,40.2937],[18.0817,40.2965],[18.0793,40.2965],[18.0658,40.3029],[18.0548,40.3094],[18.0543,40.3137],[18.0563,40.3136],[18.062,40.3187],[18.0604,40.3211],[18.0705,40.3283],[18.1087,40.3364],[18.1176,40.3375],[18.1192,40.3349],[18.1208,40.3268],[18.1195,40.325],[18.1125,40.3219],[18.1116,40.3206],[18.1201,40.3125]]]}},{"type":"Feature","properties":{"i":"075049","n":"Montesano Salentino"},"geometry":{"type":"Polygon","coordinates":[[[18.3272,39.9965],[18.3274,39.9933],[18.3313,39.9779],[18.3327,39.9761],[18.3339,39.9765],[18.3336,39.9735],[18.3288,39.9656],[18.326,39.9628],[18.3013,39.9833],[18.2977,39.9857],[18.2929,39.9855],[18.2919,39.9877],[18.2871,39.9937],[18.2874,39.9962],[18.29,39.9986],[18.2981,39.9999],[18.3081,39.9936],[18.3099,39.9939],[18.3127,39.9965],[18.3189,40.0001],[18.3272,39.9965]]]}},{"type":"Feature","properties":{"i":"075050","n":"Morciano di Leuca"},"geometry":{"type":"Polygon","coordinates":[[[18.3398,39.8617],[18.3247,39.8516],[18.3224,39.848],[18.322,39.8453],[18.3245,39.8439],[18.3239,39.8419],[18.3223,39.84],[18.3144,39.8359],[18.3048,39.8294],[18.2999,39.8293],[18.297,39.8317],[18.2882,39.825],[18.2766,39.8302],[18.2733,39.833],[18.2656,39.8357],[18.2745,39.8388],[18.2952,39.8507],[18.3001,39.852],[18.3063,39.8564],[18.3073,39.8578],[18.3048,39.8613],[18.2936,39.8697],[18.2939,39.8712],[18.2971,39.8711],[18.3024,39.869],[18.3064,39.8659],[18.3103,39.8659],[18.3234,39.867],[18.3245,39.872],[18.3252,39.8705],[18.3344,39.8681],[18.3403,39.8648],[18.341,39.8628],[18.3398,39.8617]]]}},{"type":"Feature","properties":{"i":"075051","n":"Muro Leccese"},"geometry":{"type":"Polygon","coordinates":[[[18.3804,40.1191],[18.3747,40.111],[18.3586,40.106],[18.3556,40.1081],[18.3547,40.1116],[18.3487,40.1101],[18.3467,40.1078],[18.3447,40.0992],[18.3512,40.0989],[18.3512,40.0971],[18.3402,40.0909],[18.3364,40.0898],[18.3283,40.0918],[18.3191,40.0852],[18.3123,40.0914],[18.3077,40.0972],[18.3077,40.0985],[18.3113,40.0988],[18.3155,40.102],[18.3135,40.1051],[18.3174,40.1191],[18.3207,40.1237],[18.3315,40.1286],[18.3345,40.1288],[18.3392,40.1277],[18.3502,40.1312],[18.3514,40.1289],[18.3626,40.1263],[18.3778,40.1207],[18.3804,40.1191]]]}},{"type":"Feature","properties":{"i":"075052","n":"Nardò"},"geometry":{"type":"MultiPolygon","coordinates":[[[[17.9208,40.2178],[17.9203,40.2189],[17.9207,40.2197],[17.9217,40.2191],[17.9208,40.2178]]],[[[17.8931,40.3266],[17.8974,40.3214],[17.8984,40.3174],[17.9099,40.3068],[17.915,40.3006],[17.9297,40.2909],[17.9378,40.2812],[17.941,40.2795],[17.9425,40.2763],[17.9429,40.2696],[17.9457,40.2648],[17.949,40.2632],[17.95,40.2618],[17.9519,40.2535],[17.9582,40.25],[17.9871,40.2518],[17.9984,40.2599],[17.9997,40.2601],[18.0055,40.2571],[18.0076,40.2542],[18.008,40.2509],[18.0132,40.2479],[18.0215,40.2458],[18.0306,40.242],[18.049,40.2399],[18.0482,40.2324],[18.0489,40.2296],[18.0516,40.2251],[18.0548,40.2218],[18.0574,40.2208],[18.0596,40.2213],[18.0669,40.2246],[18.0685,40.2237],[18.0726,40.2237],[18.0774,40.2093],[18.0813,40.2026],[18.086,40.1906],[18.0828,40.1905],[18.0659,40.184],[18.0669,40.1772],[18.0567,40.1759],[18.0503,40.1763],[18.048,40.1749],[18.0479,40.1719],[18.0514,40.1614],[18.0418,40.1553],[18.0318,40.1514],[18.0237,40.1494],[18.0131,40.1284],[18.0076,40.1231],[17.9984,40.1214],[17.9953,40.1269],[17.9947,40.1311],[17.9861,40.1398],[17.9821,40.1389],[17.9801,40.1395],[17.9763,40.1424],[17.9746,40.1458],[17.9675,40.1474],[17.9613,40.152],[17.9458,40.1686],[17.9384,40.1706],[17.9253,40.184],[17.9262,40.1867],[17.9185,40.1936],[17.9179,40.2006],[17.9203,40.2046],[17.921,40.2126],[17.9235,40.2168],[17.9265,40.2184],[17.9264,40.2195],[17.9241,40.2245],[17.9134,40.2318],[17.9113,40.2338],[17.9101,40.2363],[17.9117,40.239],[17.9309,40.2532],[17.9149,40.265],[17.8778,40.2871],[17.8167,40.3085],[17.815,40.324],[17.8164,40.3372],[17.792,40.3367],[17.7992,40.3535],[17.8141,40.356],[17.8326,40.3621],[17.836,40.3625],[17.8359,40.3579],[17.8367,40.3555],[17.8513,40.3433],[17.8643,40.3371],[17.8931,40.3266]]]]}},{"type":"Feature","properties":{"i":"075053","n":"Neviano"},"geometry":{"type":"Polygon","coordinates":[[[18.1465,40.1151],[18.147,40.1076],[18.1455,40.1042],[18.1464,40.0981],[18.1552,40.0852],[18.1427,40.0746],[18.1352,40.0745],[18.1322,40.0755],[18.1223,40.0818],[18.1147,40.0821],[18.1134,40.0869],[18.1139,40.0911],[18.116,40.0944],[18.1155,40.0949],[18.1137,40.0951],[18.1105,40.0937],[18.1055,40.0903],[18.1059,40.0888],[18.104,40.0879],[18.097,40.0885],[18.0924,40.1067],[18.0986,40.1057],[18.1063,40.1091],[18.1145,40.1149],[18.1232,40.1184],[18.1299,40.1198],[18.1366,40.1184],[18.1384,40.1168],[18.1378,40.1153],[18.142,40.1123],[18.1465,40.1151]]]}},{"type":"Feature","properties":{"i":"075054","n":"Nociglia"},"geometry":{"type":"Polygon","coordinates":[[[18.3597,40.043],[18.356,40.0408],[18.3471,40.0387],[18.3401,40.0357],[18.3236,40.0272],[18.3149,40.0249],[18.3142,40.0241],[18.3189,40.0001],[18.3127,39.9965],[18.3099,39.9939],[18.3081,39.9936],[18.3058,40.0063],[18.3014,40.0187],[18.2919,40.0219],[18.2895,40.0247],[18.2893,40.0258],[18.2983,40.0268],[18.3119,40.0303],[18.3109,40.0344],[18.3085,40.0382],[18.3116,40.042],[18.322,40.047],[18.3282,40.0457],[18.3546,40.0506],[18.3597,40.043]]]}},{"type":"Feature","properties":{"i":"075055","n":"Novoli"},"geometry":{"type":"Polygon","coordinates":[[[18.0804,40.3825],[18.0716,40.3723],[18.0693,40.3675],[18.0696,40.3651],[18.082,40.3574],[18.0756,40.3553],[18.0626,40.3548],[18.051,40.3617],[18.0491,40.3649],[18.0492,40.3663],[18.0521,40.3695],[18.0481,40.3725],[18.0427,40.3736],[18.0379,40.3677],[18.0329,40.3635],[18.0186,40.3593],[18.0103,40.3555],[18.0065,40.352],[18.0053,40.3481],[17.9996,40.3461],[17.9948,40.362],[18.0042,40.3656],[18.0091,40.3688],[18.0188,40.3776],[18.0238,40.3788],[18.0307,40.3789],[18.0346,40.3817],[18.0376,40.3871],[18.0485,40.3955],[18.0527,40.3974],[18.0595,40.399],[18.0696,40.3918],[18.0782,40.3833],[18.0804,40.3825]]]}},{"type":"Feature","properties":{"i":"075056","n":"Ortelle"},"geometry":{"type":"Polygon","coordinates":[[[18.4276,40.0252],[18.4221,40.0154],[18.4183,40.0112],[18.4179,40.008],[18.4194,40.0067],[18.4118,40.0056],[18.4058,40.0075],[18.4003,40.0081],[18.4015,40.0133],[18.3952,40.0208],[18.389,40.0229],[18.3809,40.0234],[18.3828,40.026],[18.3824,40.028],[18.3799,40.0284],[18.3754,40.0348],[18.3773,40.0395],[18.3801,40.0413],[18.3962,40.0427],[18.3978,40.0436],[18.4014,40.0414],[18.4017,40.0368],[18.4097,40.0281],[18.4171,40.0339],[18.422,40.0352],[18.4241,40.0344],[18.4268,40.0317],[18.4284,40.0279],[18.4276,40.0252]]]}},{"type":"Feature","properties":{"i":"075057","n":"Otranto"},"geometry":{"type":"MultiPolygon","coordinates":[[[[18.4831,40.0772],[18.4787,40.0804],[18.4703,40.0774],[18.4457,40.0849],[18.4398,40.0881],[18.4451,40.089],[18.4496,40.093],[18.4557,40.0904],[18.4574,40.0865],[18.4677,40.0857],[18.4761,40.093],[18.4772,40.0964],[18.4679,40.0995],[18.4666,40.1016],[18.4692,40.108],[18.4738,40.1142],[18.4751,40.1199],[18.4749,40.1291],[18.4798,40.1348],[18.4797,40.1367],[18.4715,40.134],[18.4656,40.1329],[18.4661,40.1374],[18.4645,40.1472],[18.4262,40.1446],[18.4157,40.1416],[18.4007,40.1428],[18.4017,40.1456],[18.4031,40.1466],[18.4094,40.1483],[18.4113,40.1474],[18.4216,40.1505],[18.422,40.156],[18.4205,40.1606],[18.4161,40.1638],[18.4146,40.1675],[18.4141,40.176],[18.4112,40.1826],[18.4052,40.1911],[18.4083,40.1936],[18.4072,40.1953],[18.4052,40.1966],[18.402,40.2025],[18.401,40.2065],[18.4157,40.2091],[18.4108,40.2185],[18.4099,40.2245],[18.4213,40.225],[18.4228,40.2228],[18.4356,40.2249],[18.437,40.2257],[18.438,40.2283],[18.437,40.233],[18.4397,40.2521],[18.4452,40.2546],[18.4523,40.2437],[18.4566,40.2403],[18.4611,40.2331],[18.4645,40.2251],[18.4642,40.2213],[18.4593,40.2136],[18.4579,40.21],[18.4581,40.2057],[18.4605,40.199],[18.4638,40.1928],[18.4663,40.1908],[18.4688,40.1901],[18.4777,40.1799],[18.48,40.17],[18.4867,40.1612],[18.4897,40.147],[18.495,40.1453],[18.4972,40.1475],[18.5062,40.1444],[18.5136,40.1384],[18.514,40.1328],[18.5083,40.1303],[18.5068,40.1279],[18.5068,40.1248],[18.5092,40.1204],[18.5204,40.1074],[18.5179,40.1035],[18.4967,40.0897],[18.4831,40.0772]]]]}},{"type":"Feature","properties":{"i":"075058","n":"Palmariggi"},"geometry":{"type":"Polygon","coordinates":[[[18.4007,40.1428],[18.4045,40.1425],[18.4042,40.1406],[18.4085,40.1349],[18.4122,40.1351],[18.4136,40.1335],[18.4095,40.1268],[18.408,40.1251],[18.3921,40.1262],[18.3834,40.1183],[18.381,40.1186],[18.3778,40.1207],[18.3626,40.1263],[18.3514,40.1289],[18.3502,40.1312],[18.3552,40.1377],[18.3595,40.138],[18.3672,40.1402],[18.3695,40.1426],[18.3824,40.1411],[18.3852,40.1413],[18.3922,40.144],[18.4007,40.1428]]]}},{"type":"Feature","properties":{"i":"075059","n":"Parabita"},"geometry":{"type":"Polygon","coordinates":[[[18.1427,40.0746],[18.1481,40.0725],[18.1506,40.0636],[18.1494,40.0569],[18.1454,40.049],[18.141,40.0462],[18.1257,40.0409],[18.1153,40.0393],[18.108,40.0394],[18.1051,40.0421],[18.0902,40.0386],[18.078,40.0346],[18.0741,40.0406],[18.0736,40.0477],[18.079,40.0566],[18.0801,40.067],[18.0827,40.0685],[18.0854,40.0696],[18.0871,40.0693],[18.0895,40.0669],[18.0909,40.0633],[18.0931,40.0616],[18.0979,40.0607],[18.1082,40.0612],[18.1105,40.0708],[18.1108,40.0794],[18.1118,40.081],[18.1147,40.0821],[18.1223,40.0818],[18.1322,40.0755],[18.1352,40.0745],[18.1427,40.0746]]]}},{"type":"Feature","properties":{"i":"075060","n":"Patù"},"geometry":{"type":"Polygon","coordinates":[[[18.3184,39.81],[18.315,39.8082],[18.3094,39.8118],[18.3093,39.8132],[18.3014,39.8194],[18.2882,39.825],[18.297,39.8317],[18.2999,39.8293],[18.3048,39.8294],[18.3144,39.8359],[18.3223,39.84],[18.3239,39.8419],[18.3245,39.8439],[18.3269,39.843],[18.3328,39.8456],[18.3415,39.8453],[18.3431,39.8433],[18.3442,39.8391],[18.3416,39.8333],[18.3343,39.8268],[18.3248,39.8208],[18.3218,39.818],[18.3184,39.81]]]}},{"type":"Feature","properties":{"i":"075061","n":"Poggiardo"},"geometry":{"type":"Polygon","coordinates":[[[18.4187,40.0555],[18.409,40.048],[18.4003,40.0459],[18.3962,40.0427],[18.3847,40.0421],[18.3793,40.0409],[18.3767,40.0385],[18.3754,40.0348],[18.3681,40.0358],[18.3597,40.043],[18.3546,40.0506],[18.3557,40.0539],[18.3537,40.0639],[18.3623,40.067],[18.3684,40.0704],[18.3712,40.074],[18.3712,40.0778],[18.3738,40.0806],[18.3807,40.0821],[18.3855,40.0854],[18.3904,40.0852],[18.3926,40.0814],[18.3977,40.0771],[18.4049,40.0778],[18.4099,40.0774],[18.4189,40.0723],[18.4164,40.0705],[18.4149,40.0644],[18.4187,40.0555]]]}},{"type":"Feature","properties":{"i":"075063","n":"Racale"},"geometry":{"type":"Polygon","coordinates":[[[18.0985,39.9717],[18.0959,39.9684],[18.0966,39.9676],[18.1025,39.9662],[18.1064,39.9659],[18.1124,39.967],[18.1137,39.9662],[18.1179,39.962],[18.123,39.9535],[18.126,39.9527],[18.1276,39.9483],[18.1147,39.9476],[18.1098,39.9487],[18.1031,39.9516],[18.0821,39.9528],[18.0778,39.952],[18.0702,39.9476],[18.0567,39.945],[18.045,39.9357],[18.0405,39.9377],[18.0296,39.9495],[18.0296,39.9567],[18.0257,39.9627],[18.0228,39.9652],[18.0311,39.9698],[18.0454,39.9752],[18.0567,39.9809],[18.0606,39.9847],[18.0721,39.9873],[18.0748,39.9867],[18.0793,39.9806],[18.0797,39.9781],[18.0767,39.9761],[18.0739,39.9779],[18.0707,39.9751],[18.0686,39.972],[18.0683,39.9704],[18.0823,39.9712],[18.0929,39.9757],[18.0943,39.9784],[18.0975,39.9755],[18.0985,39.9717]]]}},{"type":"Feature","properties":{"i":"075064","n":"Ruffano"},"geometry":{"type":"Polygon","coordinates":[[[18.2981,39.9999],[18.29,39.9986],[18.2874,39.9962],[18.2871,39.9937],[18.2919,39.9877],[18.2865,39.9776],[18.2758,39.9655],[18.2648,39.9622],[18.2599,39.9624],[18.2576,39.9531],[18.2584,39.9404],[18.2572,39.9362],[18.2576,39.9295],[18.2504,39.9315],[18.2529,39.9341],[18.2534,39.9373],[18.2523,39.9401],[18.2436,39.9481],[18.2393,39.9611],[18.2346,39.9666],[18.2228,39.9769],[18.1949,39.9898],[18.1893,39.9903],[18.1841,39.994],[18.1887,39.9982],[18.225,40.0159],[18.2307,40.0137],[18.2335,40.0108],[18.236,40.0052],[18.2389,40.0052],[18.2487,40.0096],[18.2474,40.0141],[18.2565,40.0148],[18.266,40.0126],[18.2755,40.0083],[18.2775,40.0066],[18.2883,40.0062],[18.2976,40.004],[18.2981,39.9999]]]}},{"type":"Feature","properties":{"i":"075065","n":"Salice Salentino"},"geometry":{"type":"Polygon","coordinates":[[[17.9964,40.4043],[17.9979,40.4001],[17.9967,40.3986],[17.9948,40.3975],[17.9916,40.4004],[17.9885,40.3997],[17.9868,40.3991],[17.9829,40.3947],[17.9806,40.387],[17.9806,40.3793],[17.977,40.3699],[17.9794,40.3627],[17.9442,40.3573],[17.9385,40.3532],[17.9314,40.3505],[17.9112,40.3531],[17.9028,40.3617],[17.8908,40.3674],[17.8835,40.3728],[17.8682,40.3817],[17.8575,40.3791],[17.8513,40.3762],[17.8527,40.3736],[17.8543,40.3728],[17.8551,40.3694],[17.8369,40.3689],[17.836,40.3625],[17.8326,40.3621],[17.8141,40.356],[17.7992,40.3535],[17.7998,40.3683],[17.7995,40.3749],[17.7983,40.3796],[17.8043,40.3812],[17.8046,40.3851],[17.8121,40.3913],[17.8197,40.3946],[17.8213,40.3968],[17.8214,40.3992],[17.8259,40.399],[17.832,40.3965],[17.8394,40.3965],[17.8482,40.3996],[17.8594,40.401],[17.873,40.404],[17.915,40.3943],[17.9243,40.3913],[17.937,40.3899],[17.9424,40.3903],[17.9664,40.3985],[17.9772,40.4053],[17.9872,40.4055],[17.9964,40.4043]]]}},{"type":"Feature","properties":{"i":"075066","n":"Salve"},"geometry":{"type":"Polygon","coordinates":[[[18.3245,39.872],[18.3234,39.867],[18.3103,39.8659],[18.3064,39.8659],[18.3024,39.869],[18.2971,39.8711],[18.2939,39.8712],[18.2936,39.8697],[18.3048,39.8613],[18.3073,39.8578],[18.3063,39.8564],[18.3001,39.852],[18.2952,39.8507],[18.2745,39.8388],[18.2656,39.8357],[18.2594,39.836],[18.2378,39.8346],[18.2088,39.8377],[18.2027,39.8393],[18.192,39.8457],[18.1899,39.847],[18.188,39.8505],[18.1906,39.8534],[18.2044,39.8588],[18.2095,39.865],[18.2219,39.8617],[18.2475,39.8642],[18.2554,39.8628],[18.2576,39.8631],[18.2605,39.8654],[18.2592,39.866],[18.2577,39.8695],[18.2625,39.877],[18.2645,39.8776],[18.2747,39.8754],[18.2919,39.8745],[18.2968,39.8771],[18.2926,39.8829],[18.2998,39.8815],[18.3066,39.8786],[18.3118,39.8785],[18.3125,39.879],[18.3171,39.8782],[18.3249,39.8753],[18.3264,39.872],[18.3245,39.872]]]}},{"type":"Feature","properties":{"i":"075067","n":"Sanarica"},"geometry":{"type":"Polygon","coordinates":[[[18.3839,40.0849],[18.3844,40.084],[18.3807,40.0821],[18.3738,40.0806],[18.3712,40.0778],[18.3712,40.074],[18.3684,40.0704],[18.3623,40.067],[18.3537,40.0639],[18.3515,40.068],[18.3438,40.0693],[18.3394,40.0681],[18.3249,40.0811],[18.3227,40.0793],[18.3191,40.0852],[18.3283,40.0918],[18.3364,40.0898],[18.3402,40.0909],[18.3512,40.0971],[18.3512,40.0989],[18.3455,40.0988],[18.3447,40.0996],[18.3474,40.109],[18.3492,40.1103],[18.3547,40.1116],[18.3556,40.1081],[18.3586,40.106],[18.3747,40.111],[18.3748,40.1094],[18.3722,40.1059],[18.3617,40.1026],[18.3603,40.1008],[18.361,40.0951],[18.3661,40.0879],[18.3685,40.0857],[18.3722,40.0849],[18.3839,40.0849]]]}},{"type":"Feature","properties":{"i":"075068","n":"San Cesario di Lecce"},"geometry":{"type":"Polygon","coordinates":[[[18.1703,40.2904],[18.1652,40.2898],[18.1565,40.2834],[18.1489,40.2863],[18.1462,40.2888],[18.1484,40.2978],[18.1465,40.3031],[18.1502,40.3079],[18.1558,40.3106],[18.1627,40.3256],[18.1625,40.3272],[18.173,40.333],[18.1724,40.3314],[18.1738,40.3251],[18.1738,40.3062],[18.1748,40.2983],[18.1703,40.2904]]]}},{"type":"Feature","properties":{"i":"075069","n":"San Donato di Lecce"},"geometry":{"type":"Polygon","coordinates":[[[18.2203,40.2693],[18.2218,40.2683],[18.2244,40.2635],[18.2259,40.2578],[18.2305,40.2532],[18.2195,40.2404],[18.2104,40.2377],[18.1883,40.2364],[18.1852,40.2353],[18.1792,40.2355],[18.1764,40.2373],[18.1693,40.2502],[18.1699,40.2524],[18.1694,40.2596],[18.1674,40.2656],[18.1633,40.267],[18.1559,40.2748],[18.1532,40.2801],[18.1531,40.2844],[18.1565,40.2834],[18.1652,40.2898],[18.1703,40.2904],[18.1874,40.2813],[18.1915,40.2772],[18.1914,40.2756],[18.1932,40.2711],[18.201,40.2642],[18.2028,40.2637],[18.2166,40.2654],[18.2203,40.2693]]]}},{"type":"Feature","properties":{"i":"075070","n":"Sannicola"},"geometry":{"type":"Polygon","coordinates":[[[18.0924,40.1067],[18.094,40.0984],[18.089,40.0953],[18.0867,40.0887],[18.0889,40.0791],[18.088,40.078],[18.0858,40.0768],[18.0799,40.0811],[18.0691,40.0751],[18.061,40.0732],[18.0394,40.0703],[18.0134,40.0858],[18.018,40.1027],[18.0146,40.1084],[18.0102,40.1101],[18.0046,40.1144],[18.01,40.1171],[18.0376,40.1203],[18.0502,40.1202],[18.0511,40.1153],[18.0625,40.1102],[18.0679,40.1105],[18.0711,40.1093],[18.0722,40.1034],[18.0769,40.1045],[18.0864,40.1092],[18.0924,40.1067]]]}},{"type":"Feature","properties":{"i":"075071","n":"San Pietro in Lama"},"geometry":{"type":"Polygon","coordinates":[[[18.0957,40.2769],[18.0865,40.288],[18.0831,40.2896],[18.0838,40.2921],[18.0878,40.2971],[18.0994,40.3031],[18.1091,40.3054],[18.1199,40.3121],[18.122,40.3092],[18.1252,40.3085],[18.1298,40.3099],[18.1332,40.3136],[18.135,40.3122],[18.1366,40.3098],[18.1241,40.3011],[18.1204,40.2928],[18.1152,40.2848],[18.0995,40.2791],[18.0957,40.2769]]]}},{"type":"Feature","properties":{"i":"075072","n":"Santa Cesarea Terme"},"geometry":{"type":"Polygon","coordinates":[[[18.4831,40.0772],[18.4849,40.0756],[18.4789,40.0616],[18.4772,40.0489],[18.4755,40.0449],[18.4707,40.0408],[18.4625,40.0359],[18.4541,40.0332],[18.4424,40.0281],[18.4393,40.0256],[18.4357,40.0247],[18.4276,40.0252],[18.4284,40.0279],[18.4268,40.0317],[18.4241,40.0344],[18.422,40.0352],[18.4171,40.0339],[18.4097,40.0281],[18.4017,40.0368],[18.4014,40.0414],[18.3978,40.0436],[18.3984,40.0449],[18.4013,40.0463],[18.409,40.048],[18.4187,40.0555],[18.4242,40.0534],[18.4315,40.0532],[18.4293,40.0548],[18.4294,40.0578],[18.4357,40.0658],[18.438,40.0675],[18.4416,40.0674],[18.4421,40.0696],[18.4425,40.0723],[18.4411,40.0758],[18.4341,40.0805],[18.4347,40.0855],[18.4389,40.0883],[18.4457,40.0849],[18.4703,40.0774],[18.4787,40.0804],[18.4831,40.0772]]]}},{"type":"Feature","properties":{"i":"075073","n":"Scorrano"},"geometry":{"type":"Polygon","coordinates":[[[18.3077,40.0985],[18.3077,40.0972],[18.3123,40.0914],[18.3191,40.0852],[18.3227,40.0793],[18.3177,40.0779],[18.3131,40.0737],[18.3136,40.0697],[18.3115,40.0657],[18.2929,40.0483],[18.2854,40.0448],[18.2835,40.0414],[18.2814,40.0396],[18.279,40.0399],[18.2734,40.0483],[18.2686,40.0467],[18.2667,40.0477],[18.2662,40.0517],[18.2632,40.0543],[18.2547,40.0549],[18.2443,40.0517],[18.2352,40.0617],[18.2334,40.0667],[18.2317,40.0806],[18.2344,40.0824],[18.2476,40.0863],[18.2515,40.0892],[18.2524,40.0924],[18.2539,40.0932],[18.2617,40.0922],[18.2653,40.0908],[18.2667,40.089],[18.2729,40.0966],[18.2712,40.1002],[18.2739,40.1071],[18.279,40.1104],[18.2828,40.1115],[18.2969,40.105],[18.3002,40.1048],[18.3044,40.1063],[18.3073,40.1048],[18.3079,40.1029],[18.3077,40.0985]]]}},{"type":"Feature","properties":{"i":"075074","n":"Seclì"},"geometry":{"type":"Polygon","coordinates":[[[18.1232,40.1184],[18.1145,40.1149],[18.1025,40.1071],[18.0986,40.1057],[18.0965,40.1062],[18.0887,40.1186],[18.0906,40.1234],[18.0915,40.1332],[18.0967,40.1374],[18.1108,40.1453],[18.1136,40.1477],[18.115,40.1516],[18.12,40.1515],[18.121,40.148],[18.1216,40.1406],[18.121,40.1387],[18.1165,40.1328],[18.117,40.1253],[18.1219,40.1219],[18.1232,40.1184]]]}},{"type":"Feature","properties":{"i":"075075","n":"Sogliano Cavour"},"geometry":{"type":"Polygon","coordinates":[[[18.2236,40.1504],[18.2184,40.1483],[18.2128,40.1447],[18.2016,40.1353],[18.1851,40.1386],[18.1828,40.1431],[18.1857,40.143],[18.188,40.1556],[18.1929,40.1579],[18.2009,40.1545],[18.2064,40.1542],[18.2128,40.1583],[18.2164,40.1573],[18.2236,40.1504]]]}},{"type":"Feature","properties":{"i":"075076","n":"Soleto"},"geometry":{"type":"Polygon","coordinates":[[[18.1883,40.2364],[18.1894,40.2285],[18.1946,40.2207],[18.2012,40.2173],[18.2053,40.2176],[18.2133,40.2082],[18.2209,40.2037],[18.2257,40.2021],[18.2279,40.2028],[18.2304,40.1986],[18.2347,40.1938],[18.2393,40.1908],[18.2405,40.1883],[18.2415,40.1846],[18.2322,40.1786],[18.2235,40.1681],[18.2203,40.1607],[18.2208,40.1599],[18.2199,40.159],[18.2162,40.1586],[18.2142,40.1597],[18.2152,40.1609],[18.2021,40.1643],[18.1938,40.1729],[18.1913,40.1795],[18.186,40.1835],[18.1824,40.192],[18.169,40.1933],[18.1677,40.1941],[18.1632,40.1989],[18.156,40.2153],[18.1557,40.221],[18.1593,40.2236],[18.1715,40.2247],[18.1732,40.2282],[18.1721,40.2399],[18.1683,40.2422],[18.1725,40.2442],[18.1764,40.2373],[18.1792,40.2355],[18.1852,40.2353],[18.1883,40.2364]]]}},{"type":"Feature","properties":{"i":"075077","n":"Specchia"},"geometry":{"type":"Polygon","coordinates":[[[18.3303,39.9506],[18.3194,39.9428],[18.3095,39.9343],[18.3153,39.9291],[18.3193,39.9237],[18.322,39.9182],[18.3163,39.9163],[18.3088,39.916],[18.3054,39.9169],[18.2896,39.9145],[18.2831,39.9152],[18.2807,39.9168],[18.2723,39.9253],[18.2652,39.9307],[18.2588,39.9284],[18.2578,39.9289],[18.2572,39.9362],[18.2584,39.9404],[18.2576,39.9531],[18.2599,39.9624],[18.2648,39.9622],[18.2758,39.9655],[18.2865,39.9776],[18.2899,39.9751],[18.293,39.9702],[18.2934,39.9662],[18.2952,39.9629],[18.3049,39.9536],[18.3211,39.9506],[18.3303,39.9506]]]}},{"type":"Feature","properties":{"i":"075078","n":"Spongano"},"geometry":{"type":"Polygon","coordinates":[[[18.3754,40.0348],[18.3799,40.0284],[18.3824,40.028],[18.3828,40.026],[18.3809,40.0234],[18.3819,40.0189],[18.379,40.0102],[18.3712,40.0035],[18.3618,39.9998],[18.3588,39.9972],[18.3432,39.9975],[18.3389,39.9962],[18.3345,40.0003],[18.3314,40.0104],[18.3365,40.0171],[18.3407,40.0191],[18.346,40.0202],[18.3542,40.0272],[18.3561,40.0316],[18.3632,40.0363],[18.366,40.0374],[18.3681,40.0358],[18.3754,40.0348]]]}},{"type":"Feature","properties":{"i":"075079","n":"Squinzano"},"geometry":{"type":"MultiPolygon","coordinates":[[[[18.072,40.4468],[18.0581,40.4383],[18.0607,40.4345],[18.0589,40.4289],[18.055,40.4251],[18.0392,40.4228],[18.0327,40.4244],[18.0291,40.428],[18.0306,40.4297],[18.0262,40.4354],[18.0161,40.439],[17.998,40.4499],[17.9826,40.4538],[17.9785,40.4565],[17.991,40.465],[17.9935,40.4677],[17.9963,40.4683],[18.0064,40.4683],[18.0119,40.4666],[18.0149,40.4645],[18.0194,40.4638],[18.0266,40.4686],[18.0279,40.4717],[18.0266,40.4774],[18.0298,40.4807],[18.0401,40.4878],[18.0523,40.4688],[18.0639,40.455],[18.072,40.4468]]],[[[18.0743,40.4763],[18.0681,40.478],[18.0655,40.4771],[18.0589,40.4796],[18.0707,40.4879],[18.0725,40.4777],[18.0729,40.4767],[18.0743,40.4763]]],[[[18.0798,40.4921],[18.0802,40.4915],[18.0727,40.4868],[18.0798,40.4921]]],[[[18.1229,40.4976],[18.1016,40.4894],[18.096,40.5003],[18.0894,40.5065],[18.0921,40.5125],[18.0974,40.5154],[18.1092,40.5098],[18.1161,40.5046],[18.1229,40.4976]]]]}},{"type":"Feature","properties":{"i":"075080","n":"Sternatia"},"geometry":{"type":"Polygon","coordinates":[[[18.2433,40.246],[18.244,40.2433],[18.2399,40.2419],[18.2402,40.237],[18.2426,40.2347],[18.2439,40.234],[18.2449,40.2345],[18.2467,40.2334],[18.2507,40.2283],[18.2491,40.225],[18.2494,40.2212],[18.2479,40.2186],[18.2279,40.2028],[18.2257,40.2021],[18.2209,40.2037],[18.2133,40.2082],[18.2053,40.2176],[18.2012,40.2173],[18.1946,40.2207],[18.1894,40.2285],[18.1883,40.2364],[18.2104,40.2377],[18.219,40.2401],[18.2305,40.2532],[18.2345,40.2507],[18.2386,40.2494],[18.2433,40.246]]]}},{"type":"Feature","properties":{"i":"075081","n":"Supersano"},"geometry":{"type":"Polygon","coordinates":[[[18.2371,40.0598],[18.2403,40.0554],[18.2443,40.0517],[18.2547,40.0549],[18.2632,40.0543],[18.2652,40.0529],[18.2662,40.0517],[18.2665,40.048],[18.2686,40.0467],[18.2649,40.0464],[18.2676,40.0391],[18.2726,40.0406],[18.2723,40.0416],[18.2757,40.0418],[18.2776,40.0403],[18.2786,40.0349],[18.28,40.0332],[18.2845,40.0324],[18.288,40.0281],[18.2902,40.0233],[18.2919,40.0219],[18.3014,40.0187],[18.3058,40.0063],[18.3081,39.9936],[18.2981,39.9999],[18.2976,40.004],[18.2883,40.0062],[18.2775,40.0066],[18.2755,40.0083],[18.266,40.0126],[18.2565,40.0148],[18.2474,40.0141],[18.2487,40.0096],[18.2375,40.005],[18.236,40.0052],[18.2335,40.0108],[18.2307,40.0137],[18.225,40.0159],[18.2205,40.0136],[18.2046,40.0469],[18.1982,40.054],[18.1965,40.0571],[18.1969,40.0592],[18.1943,40.0633],[18.201,40.067],[18.2147,40.0699],[18.2145,40.0718],[18.2228,40.0741],[18.2321,40.0559],[18.2371,40.0598]]]}},{"type":"Feature","properties":{"i":"075082","n":"Surano"},"geometry":{"type":"Polygon","coordinates":[[[18.366,40.0374],[18.3561,40.0316],[18.3542,40.0272],[18.346,40.0202],[18.3407,40.0191],[18.3365,40.0171],[18.3314,40.0104],[18.3345,40.0003],[18.3272,39.9965],[18.3189,40.0001],[18.3142,40.0241],[18.3149,40.0249],[18.3236,40.0272],[18.3401,40.0357],[18.3471,40.0387],[18.356,40.0408],[18.3597,40.043],[18.366,40.0374]]]}},{"type":"Feature","properties":{"i":"075083","n":"Surbo"},"geometry":{"type":"Polygon","coordinates":[[[18.1296,40.4601],[18.1357,40.4579],[18.1407,40.4551],[18.1459,40.4498],[18.1468,40.4478],[18.1463,40.4432],[18.1442,40.4416],[18.1393,40.4328],[18.1378,40.4251],[18.1373,40.4174],[18.1525,40.4048],[18.156,40.4005],[18.1574,40.3901],[18.1566,40.3864],[18.1546,40.3847],[18.1508,40.3835],[18.1486,40.3848],[18.1457,40.383],[18.1484,40.3754],[18.1533,40.3676],[18.1375,40.3783],[18.1246,40.3829],[18.1175,40.389],[18.1126,40.3955],[18.1119,40.3978],[18.1125,40.4005],[18.1161,40.4071],[18.1229,40.4106],[18.1228,40.4161],[18.1198,40.4242],[18.1142,40.4338],[18.1129,40.4384],[18.1149,40.4409],[18.1179,40.4429],[18.1204,40.4403],[18.1244,40.4419],[18.1254,40.4485],[18.122,40.4521],[18.1244,40.4582],[18.1296,40.4601]]]}},{"type":"Feature","properties":{"i":"075084","n":"Taurisano"},"geometry":{"type":"Polygon","coordinates":[[[18.1893,39.9903],[18.1949,39.9898],[18.2228,39.9769],[18.2359,39.9654],[18.2393,39.9611],[18.2435,39.9484],[18.2523,39.9401],[18.2534,39.9373],[18.2526,39.9334],[18.2504,39.9315],[18.2435,39.9292],[18.2257,39.9253],[18.22,39.926],[18.2172,39.9285],[18.2097,39.9237],[18.2065,39.926],[18.1999,39.9268],[18.1926,39.9318],[18.1873,39.9381],[18.1869,39.9396],[18.1943,39.9448],[18.2021,39.9519],[18.1998,39.9584],[18.2047,39.9622],[18.2016,39.9694],[18.1944,39.9787],[18.1898,39.9825],[18.1878,39.9889],[18.1893,39.9903]]]}},{"type":"Feature","properties":{"i":"075085","n":"Taviano"},"geometry":{"type":"Polygon","coordinates":[[[18.104,40.0061],[18.1124,39.989],[18.1066,39.9858],[18.1061,39.987],[18.1039,39.9865],[18.0969,39.9819],[18.1002,39.9779],[18.1097,39.9812],[18.1121,39.974],[18.0985,39.9717],[18.0975,39.9755],[18.0943,39.9784],[18.0929,39.9757],[18.0823,39.9712],[18.0683,39.9704],[18.0686,39.972],[18.0707,39.9751],[18.0739,39.9779],[18.0767,39.9761],[18.0797,39.9781],[18.0793,39.9806],[18.0748,39.9867],[18.0721,39.9873],[18.0606,39.9847],[18.0567,39.9809],[18.0454,39.9752],[18.0311,39.9698],[18.0228,39.9652],[18.0152,39.968],[18.0127,39.9698],[18.0168,39.9784],[18.0225,39.9839],[18.0278,39.9875],[18.0404,39.9831],[18.0463,39.988],[18.0456,39.9915],[18.0448,39.9913],[18.0421,39.9963],[18.0476,40.0015],[18.0597,40.0042],[18.0774,40.0124],[18.0885,40.0104],[18.099,40.0102],[18.104,40.0061]]]}},{"type":"Feature","properties":{"i":"075086","n":"Tiggiano"},"geometry":{"type":"Polygon","coordinates":[[[18.3931,39.9033],[18.3973,39.8959],[18.3814,39.8966],[18.3622,39.8942],[18.3587,39.8949],[18.3467,39.894],[18.3431,39.8997],[18.3425,39.9071],[18.3418,39.9082],[18.3478,39.911],[18.3763,39.9139],[18.3788,39.9136],[18.3814,39.9116],[18.385,39.9071],[18.3901,39.9033],[18.3931,39.9033]]]}},{"type":"Feature","properties":{"i":"075087","n":"Trepuzzi"},"geometry":{"type":"MultiPolygon","coordinates":[[[[18.0804,40.3825],[18.0782,40.3833],[18.0648,40.3957],[18.0595,40.399],[18.0566,40.3986],[18.0571,40.4009],[18.0524,40.4065],[18.0411,40.4145],[18.0263,40.4207],[18.021,40.4246],[18.0161,40.4317],[18.0195,40.4375],[18.0262,40.4354],[18.0306,40.4297],[18.0291,40.428],[18.0327,40.4244],[18.0392,40.4228],[18.055,40.4251],[18.0589,40.4289],[18.0607,40.4345],[18.0581,40.4383],[18.072,40.4468],[18.0883,40.428],[18.0884,40.4234],[18.0808,40.43],[18.078,40.4271],[18.0781,40.4224],[18.0863,40.4165],[18.1066,40.4081],[18.0953,40.4002],[18.0924,40.3919],[18.0885,40.3869],[18.0823,40.3848],[18.0804,40.3825]]],[[[18.1448,40.4864],[18.1437,40.4829],[18.141,40.4814],[18.1159,40.4852],[18.1107,40.4819],[18.1094,40.4874],[18.107,40.4905],[18.1062,40.4911],[18.1016,40.4894],[18.1229,40.4976],[18.1268,40.4929],[18.1375,40.4883],[18.1448,40.4864]]]]}},{"type":"Feature","properties":{"i":"075088","n":"Tricase"},"geometry":{"type":"Polygon","coordinates":[[[18.4031,39.9601],[18.4014,39.9458],[18.3982,39.9352],[18.3951,39.9298],[18.3939,39.9161],[18.3902,39.9074],[18.3908,39.9046],[18.3931,39.9033],[18.3901,39.9033],[18.385,39.9071],[18.3814,39.9116],[18.3788,39.9136],[18.3763,39.9139],[18.3478,39.911],[18.3418,39.9082],[18.3341,39.9096],[18.3299,39.9138],[18.3277,39.9174],[18.3289,39.9202],[18.3277,39.9243],[18.3241,39.9229],[18.3208,39.9202],[18.3193,39.9237],[18.3153,39.9291],[18.3095,39.9343],[18.3194,39.9428],[18.3335,39.9527],[18.3335,39.9581],[18.326,39.9628],[18.3288,39.9656],[18.3336,39.9735],[18.3339,39.9765],[18.3387,39.9763],[18.35,39.9782],[18.3662,39.971],[18.3694,39.9718],[18.3927,39.9633],[18.3982,39.9606],[18.4031,39.9601]]]}},{"type":"Feature","properties":{"i":"075089","n":"Tuglie"},"geometry":{"type":"Polygon","coordinates":[[[18.1147,40.0821],[18.1118,40.081],[18.1108,40.0794],[18.1105,40.0708],[18.1082,40.0612],[18.0979,40.0607],[18.0931,40.0616],[18.0909,40.0633],[18.0895,40.0669],[18.0867,40.0696],[18.0784,40.0666],[18.0701,40.0707],[18.0729,40.0737],[18.0729,40.077],[18.0796,40.081],[18.0858,40.0768],[18.0887,40.0786],[18.0867,40.0887],[18.089,40.0953],[18.094,40.0984],[18.097,40.0885],[18.0979,40.0881],[18.104,40.0879],[18.1059,40.0888],[18.1055,40.0903],[18.1105,40.0937],[18.1137,40.0951],[18.1155,40.0949],[18.116,40.0944],[18.1139,40.0911],[18.1134,40.0869],[18.1147,40.0821]]]}},{"type":"Feature","properties":{"i":"075090","n":"Ugento"},"geometry":{"type":"MultiPolygon","coordinates":[[[[18.0964,39.8951],[18.0965,39.8943],[18.0957,39.8951],[18.0964,39.8951]]],[[[18.1842,39.9935],[18.1893,39.9903],[18.1878,39.9889],[18.1898,39.9825],[18.1944,39.9787],[18.2016,39.9694],[18.2047,39.9622],[18.1998,39.9584],[18.2021,39.9519],[18.1943,39.9448],[18.1869,39.9396],[18.1873,39.9381],[18.1926,39.9318],[18.1999,39.9268],[18.2065,39.926],[18.2097,39.9237],[18.2078,39.9216],[18.2045,39.916],[18.2049,39.9153],[18.2015,39.9116],[18.2049,39.9059],[18.2181,39.8928],[18.2239,39.8858],[18.2161,39.8847],[18.2156,39.8853],[18.2114,39.8841],[18.2094,39.8811],[18.2122,39.8771],[18.2039,39.867],[18.2005,39.8575],[18.1906,39.8534],[18.188,39.8505],[18.1899,39.847],[18.1733,39.8509],[18.1644,39.858],[18.148,39.863],[18.1324,39.8758],[18.12,39.8845],[18.1142,39.8868],[18.102,39.8946],[18.0944,39.8985],[18.0882,39.8993],[18.0859,39.9007],[18.0961,39.9076],[18.105,39.9155],[18.1078,39.9276],[18.1106,39.9295],[18.1186,39.931],[18.122,39.9293],[18.1248,39.9311],[18.1278,39.9368],[18.1303,39.9465],[18.1276,39.9483],[18.126,39.9527],[18.1292,39.9538],[18.1325,39.9577],[18.1385,39.9613],[18.1414,39.9683],[18.1402,39.9752],[18.1423,39.9764],[18.1487,39.9778],[18.1485,39.9811],[18.1523,39.9814],[18.1597,39.9846],[18.1791,39.9945],[18.1842,39.9935]]]]}},{"type":"Feature","properties":{"i":"075091","n":"Uggiano la Chiesa"},"geometry":{"type":"Polygon","coordinates":[[[18.4398,40.0881],[18.4389,40.0883],[18.4299,40.1039],[18.426,40.1074],[18.4426,40.1179],[18.4477,40.1239],[18.4501,40.1293],[18.461,40.1326],[18.4715,40.134],[18.4797,40.1367],[18.4798,40.1348],[18.4749,40.1291],[18.4751,40.1199],[18.4738,40.1142],[18.4692,40.108],[18.4666,40.1016],[18.4679,40.0995],[18.4772,40.0964],[18.4761,40.093],[18.4677,40.0857],[18.4574,40.0865],[18.4557,40.0904],[18.4496,40.093],[18.4451,40.089],[18.4398,40.0881]]]}},{"type":"Feature","properties":{"i":"075092","n":"Veglie"},"geometry":{"type":"Polygon","coordinates":[[[17.9794,40.3627],[17.9948,40.362],[18.0017,40.3399],[18.0017,40.3345],[17.9999,40.3308],[18.0052,40.3259],[18.0042,40.3234],[17.9976,40.322],[17.9644,40.3106],[17.9482,40.3072],[17.9374,40.3074],[17.9225,40.3139],[17.918,40.3223],[17.9172,40.3267],[17.8931,40.3266],[17.8632,40.3375],[17.8513,40.3433],[17.8463,40.3468],[17.837,40.3552],[17.8359,40.3579],[17.8369,40.3689],[17.8551,40.3694],[17.8543,40.3728],[17.8527,40.3736],[17.8513,40.3762],[17.8575,40.3791],[17.8682,40.3817],[17.8835,40.3728],[17.8908,40.3674],[17.9028,40.3617],[17.9112,40.3531],[17.9314,40.3505],[17.9385,40.3532],[17.9442,40.3573],[17.9794,40.3627]]]}},{"type":"Feature","properties":{"i":"075093","n":"Vernole"},"geometry":{"type":"Polygon","coordinates":[[[18.3752,40.3278],[18.3413,40.3147],[18.3323,40.3104],[18.3312,40.309],[18.3314,40.3068],[18.3342,40.303],[18.3294,40.296],[18.3283,40.2947],[18.32,40.2899],[18.3117,40.2809],[18.3121,40.2765],[18.3136,40.2729],[18.3153,40.2718],[18.3139,40.2707],[18.2957,40.267],[18.2923,40.2813],[18.2748,40.2907],[18.266,40.2929],[18.256,40.2993],[18.254,40.3017],[18.2573,40.3045],[18.2585,40.3149],[18.2613,40.3161],[18.2625,40.3227],[18.2623,40.3234],[18.2524,40.3283],[18.2598,40.3308],[18.2632,40.3279],[18.2678,40.3285],[18.2781,40.3321],[18.274,40.334],[18.2718,40.336],[18.2693,40.339],[18.2684,40.3419],[18.2786,40.3441],[18.2885,40.3445],[18.2973,40.3431],[18.2995,40.3454],[18.3008,40.3511],[18.2993,40.3601],[18.3014,40.3773],[18.3059,40.383],[18.3149,40.3745],[18.3515,40.3518],[18.3657,40.3389],[18.3752,40.3278]]]}},{"type":"Feature","properties":{"i":"075094","n":"Zollino"},"geometry":{"type":"Polygon","coordinates":[[[18.2611,40.1914],[18.2591,40.1929],[18.2551,40.1902],[18.254,40.1873],[18.2507,40.184],[18.2441,40.1824],[18.2415,40.1846],[18.2393,40.1908],[18.2347,40.1938],[18.2304,40.1986],[18.2279,40.2028],[18.2479,40.2186],[18.2494,40.2212],[18.2491,40.225],[18.2507,40.2283],[18.2539,40.2263],[18.2646,40.2252],[18.2713,40.2264],[18.2713,40.2271],[18.2726,40.2267],[18.2692,40.2223],[18.2635,40.2119],[18.2632,40.1996],[18.265,40.1921],[18.2611,40.1914]]]}},{"type":"Feature","properties":{"i":"075095","n":"San Cassiano"},"geometry":{"type":"Polygon","coordinates":[[[18.3537,40.0639],[18.3557,40.0539],[18.3546,40.0506],[18.3282,40.0457],[18.322,40.047],[18.3116,40.042],[18.3085,40.0382],[18.3109,40.0344],[18.3119,40.0303],[18.2983,40.0268],[18.2893,40.0258],[18.2845,40.0324],[18.28,40.0332],[18.2824,40.0342],[18.293,40.0333],[18.3046,40.0369],[18.3052,40.0389],[18.304,40.0436],[18.3046,40.0455],[18.3068,40.0481],[18.3189,40.0565],[18.3304,40.0632],[18.3317,40.0636],[18.337,40.0614],[18.341,40.0681],[18.3425,40.0688],[18.3438,40.0693],[18.3515,40.068],[18.3537,40.0639]]]}},{"type":"Feature","properties":{"i":"075096","n":"Castro"},"geometry":{"type":"Polygon","coordinates":[[[18.4357,40.0247],[18.4354,40.0202],[18.4309,40.0095],[18.4317,40.0006],[18.4235,40.0005],[18.4167,39.994],[18.3986,40.0042],[18.3984,40.0053],[18.4003,40.0081],[18.4058,40.0075],[18.4118,40.0056],[18.4194,40.0067],[18.4179,40.008],[18.4183,40.0112],[18.4221,40.0154],[18.4276,40.0252],[18.4357,40.0247]]]}},{"type":"Feature","properties":{"i":"075097","n":"Porto Cesareo"},"geometry":{"type":"MultiPolygon","coordinates":[[[[17.8948,40.2508],[17.8945,40.2516],[17.8953,40.2519],[17.8948,40.2508]]],[[[17.8909,40.2533],[17.8894,40.2537],[17.8905,40.2539],[17.8909,40.2533]]],[[[17.884,40.26],[17.8883,40.2546],[17.8839,40.2562],[17.8825,40.2578],[17.8814,40.2621],[17.883,40.2616],[17.884,40.26]]],[[[17.8742,40.2698],[17.8746,40.2693],[17.8733,40.2692],[17.8742,40.2698]]],[[[17.8655,40.2713],[17.8689,40.2695],[17.869,40.2686],[17.8671,40.2686],[17.8643,40.2712],[17.8655,40.2713]]],[[[17.9117,40.239],[17.9094,40.2385],[17.9046,40.2405],[17.896,40.2486],[17.8952,40.2506],[17.8997,40.2488],[17.9077,40.2411],[17.9106,40.2416],[17.9086,40.25],[17.9044,40.2562],[17.9012,40.2584],[17.8987,40.2592],[17.891,40.2598],[17.8846,40.2674],[17.8797,40.2716],[17.8772,40.2725],[17.8712,40.2725],[17.8683,40.2757],[17.8678,40.2785],[17.8663,40.2803],[17.8605,40.284],[17.8541,40.2859],[17.8477,40.286],[17.8437,40.2849],[17.8388,40.2817],[17.8259,40.2848],[17.8175,40.2891],[17.8103,40.29],[17.7962,40.2895],[17.7952,40.2897],[17.7928,40.2924],[17.7732,40.2948],[17.7687,40.2947],[17.767,40.2943],[17.7668,40.2934],[17.7629,40.2935],[17.768,40.3116],[17.7737,40.3118],[17.7851,40.3105],[17.7856,40.3156],[17.7834,40.3212],[17.7811,40.3243],[17.7843,40.3301],[17.7896,40.3329],[17.7927,40.336],[17.792,40.3367],[17.8164,40.3372],[17.815,40.324],[17.8167,40.3085],[17.8778,40.2871],[17.9149,40.265],[17.9309,40.2532],[17.9117,40.239]]]]}},{"type":"Feature","properties":{"i":"075098","n":"Presicce-Acquarica"},"geometry":{"type":"Polygon","coordinates":[[[18.2807,39.9168],[18.2797,39.9092],[18.2799,39.9042],[18.2885,39.8924],[18.2926,39.8829],[18.2968,39.8771],[18.2919,39.8745],[18.2747,39.8754],[18.2645,39.8776],[18.2622,39.8767],[18.2577,39.8695],[18.2592,39.866],[18.2605,39.8654],[18.2576,39.8631],[18.2554,39.8628],[18.2475,39.8642],[18.2219,39.8617],[18.2095,39.865],[18.2044,39.8588],[18.2005,39.8575],[18.2039,39.867],[18.2122,39.8771],[18.2094,39.8811],[18.2114,39.8841],[18.2156,39.8853],[18.2161,39.8847],[18.2239,39.8858],[18.2181,39.8928],[18.2049,39.9059],[18.2015,39.9116],[18.2049,39.9153],[18.2045,39.916],[18.2078,39.9216],[18.2097,39.9237],[18.2172,39.9285],[18.22,39.926],[18.2257,39.9253],[18.2435,39.9292],[18.2504,39.9315],[18.2576,39.9295],[18.2581,39.9284],[18.2652,39.9307],[18.2723,39.9253],[18.2807,39.9168]]]}}]}
