{"type":"FeatureCollection","fonte":"Confini comunali ISTAT via openpolis/geojson-italy — CC BY 4.0","features":[{"type":"Feature","properties":{"i":"049001","n":"Bibbona"},"geometry":{"type":"Polygon","coordinates":[[[10.672,43.2469],[10.6679,43.2467],[10.6662,43.2437],[10.6684,43.2404],[10.6702,43.235],[10.6684,43.232],[10.664,43.2306],[10.663,43.2305],[10.6622,43.2355],[10.6614,43.236],[10.6518,43.2352],[10.6461,43.2367],[10.6439,43.2384],[10.6445,43.2393],[10.6487,43.2404],[10.6519,43.247],[10.643,43.2474],[10.6359,43.2452],[10.6221,43.2435],[10.5754,43.2398],[10.5523,43.2372],[10.5282,43.2316],[10.5217,43.2514],[10.5113,43.2734],[10.521,43.2765],[10.528,43.276],[10.5564,43.2818],[10.582,43.2912],[10.6012,43.2858],[10.6163,43.2827],[10.6518,43.2835],[10.6571,43.2923],[10.6615,43.2908],[10.669,43.2915],[10.6793,43.2961],[10.6844,43.3008],[10.6972,43.2944],[10.6982,43.2923],[10.6964,43.2807],[10.6896,43.2769],[10.6865,43.2768],[10.6802,43.2744],[10.6672,43.2653],[10.6673,43.2553],[10.672,43.2469]]]}},{"type":"Feature","properties":{"i":"049002","n":"Campiglia Marittima"},"geometry":{"type":"Polygon","coordinates":[[[10.6269,43.0912],[10.6267,43.0897],[10.6281,43.0869],[10.6368,43.0745],[10.6415,43.0623],[10.6608,43.0308],[10.6727,43.0312],[10.6861,43.033],[10.6943,43.0326],[10.6996,43.0273],[10.7213,43.0226],[10.7225,43.0213],[10.7224,43.0158],[10.7098,43.0097],[10.6994,43.0124],[10.6783,43.0148],[10.6661,43.0125],[10.6149,42.9897],[10.5938,42.9856],[10.5442,43.0186],[10.5462,43.0277],[10.5544,43.0271],[10.5573,43.0283],[10.5605,43.0327],[10.5546,43.0381],[10.5477,43.0505],[10.557,43.0499],[10.5679,43.0568],[10.5652,43.0602],[10.5751,43.0711],[10.5785,43.076],[10.5769,43.0791],[10.5831,43.0844],[10.6074,43.0892],[10.6123,43.0924],[10.6237,43.0921],[10.6269,43.0912]]]}},{"type":"Feature","properties":{"i":"049003","n":"Campo nell'Elba"},"geometry":{"type":"MultiPolygon","coordinates":[[[[10.1068,42.5845],[10.107,42.5831],[10.1053,42.5838],[10.1068,42.5845]]],[[[10.0797,42.6194],[10.0828,42.6187],[10.0896,42.6149],[10.0853,42.6113],[10.0869,42.6014],[10.0983,42.5885],[10.1003,42.5768],[10.0999,42.5747],[10.0876,42.5682],[10.0792,42.5712],[10.0521,42.5739],[10.0496,42.5752],[10.0469,42.5778],[10.0456,42.5812],[10.0462,42.5858],[10.0535,42.589],[10.0576,42.589],[10.06,42.5873],[10.0637,42.5869],[10.0712,42.5894],[10.074,42.5913],[10.0815,42.6014],[10.0829,42.6041],[10.0826,42.6077],[10.0785,42.618],[10.0797,42.6194]]],[[[10.0803,42.622],[10.0794,42.6218],[10.0798,42.6224],[10.0803,42.622]]],[[[10.2772,42.7762],[10.2816,42.7752],[10.278,42.7644],[10.2654,42.7447],[10.2574,42.7439],[10.2462,42.7481],[10.2449,42.7501],[10.2432,42.7503],[10.239,42.7488],[10.2359,42.7463],[10.2359,42.7392],[10.2408,42.7328],[10.2405,42.7277],[10.2368,42.726],[10.2137,42.7307],[10.2065,42.7345],[10.2001,42.7355],[10.1879,42.7359],[10.1734,42.7343],[10.1522,42.73],[10.1407,42.7323],[10.1343,42.7348],[10.1222,42.742],[10.1184,42.7473],[10.1253,42.7476],[10.1415,42.7553],[10.1899,42.7743],[10.2027,42.7782],[10.225,42.7776],[10.2333,42.7738],[10.2398,42.7726],[10.2585,42.7748],[10.2657,42.7736],[10.2724,42.7738],[10.2767,42.7743],[10.2772,42.7762]]]]}},{"type":"Feature","properties":{"i":"049004","n":"Capoliveri"},"geometry":{"type":"MultiPolygon","coordinates":[[[[10.3734,42.7179],[10.3735,42.7166],[10.3722,42.7165],[10.3721,42.7176],[10.3734,42.7179]]],[[[10.3742,42.7191],[10.3753,42.7178],[10.373,42.7189],[10.3742,42.7191]]],[[[10.32,42.7345],[10.319,42.7342],[10.3193,42.7349],[10.32,42.7345]]],[[[10.3533,42.7694],[10.3577,42.7646],[10.3645,42.7614],[10.3751,42.7589],[10.383,42.7594],[10.3861,42.7603],[10.3857,42.7593],[10.3875,42.758],[10.3948,42.758],[10.4024,42.7569],[10.4097,42.7539],[10.4062,42.749],[10.4066,42.7472],[10.4113,42.7437],[10.4233,42.742],[10.4309,42.7358],[10.4331,42.7321],[10.4347,42.7216],[10.4344,42.7176],[10.4317,42.7126],[10.4239,42.7084],[10.4201,42.7077],[10.4161,42.7111],[10.4133,42.7156],[10.4112,42.7164],[10.4097,42.7164],[10.3982,42.7121],[10.3933,42.7122],[10.3823,42.7154],[10.3771,42.7194],[10.3717,42.7324],[10.3682,42.7354],[10.357,42.752],[10.3582,42.7583],[10.3561,42.76],[10.3446,42.7639],[10.3397,42.7641],[10.3221,42.7621],[10.3182,42.76],[10.3181,42.7587],[10.3257,42.7449],[10.3254,42.742],[10.322,42.7374],[10.3195,42.736],[10.3175,42.737],[10.3149,42.7425],[10.3126,42.7576],[10.3088,42.7594],[10.2994,42.7593],[10.2949,42.7566],[10.291,42.7531],[10.2889,42.746],[10.2901,42.7445],[10.29,42.7388],[10.287,42.7356],[10.2834,42.7353],[10.2699,42.7379],[10.2664,42.7422],[10.2654,42.7447],[10.278,42.7644],[10.2816,42.7752],[10.2854,42.775],[10.2994,42.779],[10.3108,42.7811],[10.3159,42.7813],[10.3212,42.7804],[10.3209,42.7789],[10.3314,42.7722],[10.3458,42.7661],[10.3513,42.7677],[10.3533,42.7694]]]]}},{"type":"Feature","properties":{"i":"049005","n":"Capraia Isola"},"geometry":{"type":"MultiPolygon","coordinates":[[[[9.7976,43.0316],[9.796,43.0321],[9.7967,43.0324],[9.7976,43.0316]]],[[[9.8257,43.0727],[9.8295,43.0705],[9.8371,43.0621],[9.836,43.0561],[9.8367,43.0507],[9.8447,43.0511],[9.847,43.0458],[9.8428,43.034],[9.8387,43.0267],[9.823,43.0165],[9.8164,43.0093],[9.8176,43.0077],[9.8172,43.0066],[9.8117,43.003],[9.7999,43.0113],[9.7932,43.0206],[9.7948,43.0255],[9.7968,43.0267],[9.7992,43.0353],[9.8009,43.0529],[9.8108,43.0608],[9.8176,43.0675],[9.822,43.0694],[9.8257,43.0727]]]]}},{"type":"Feature","properties":{"i":"049006","n":"Castagneto Carducci"},"geometry":{"type":"Polygon","coordinates":[[[10.663,43.2305],[10.6621,43.2292],[10.6636,43.2265],[10.6706,43.222],[10.68,43.2247],[10.6903,43.2242],[10.6894,43.2215],[10.6877,43.2194],[10.6904,43.2084],[10.6877,43.2032],[10.6813,43.1967],[10.6749,43.1936],[10.6621,43.1955],[10.6448,43.1921],[10.6432,43.1909],[10.6449,43.1863],[10.6474,43.1827],[10.6492,43.1704],[10.6508,43.1677],[10.6539,43.1647],[10.6526,43.1619],[10.65,43.16],[10.6394,43.1565],[10.6341,43.1505],[10.6326,43.142],[10.6331,43.1378],[10.6294,43.127],[10.6386,43.1146],[10.6362,43.1087],[10.6267,43.0984],[10.5918,43.1021],[10.5741,43.1084],[10.568,43.109],[10.5562,43.1083],[10.5461,43.1126],[10.539,43.1136],[10.5397,43.145],[10.5384,43.1696],[10.5341,43.2022],[10.5282,43.2316],[10.5523,43.2372],[10.5754,43.2398],[10.6221,43.2435],[10.6359,43.2452],[10.643,43.2474],[10.6519,43.247],[10.6487,43.2404],[10.6445,43.2393],[10.6439,43.2384],[10.6461,43.2367],[10.6518,43.2352],[10.6614,43.236],[10.6622,43.2355],[10.663,43.2305]]]}},{"type":"Feature","properties":{"i":"049007","n":"Cecina"},"geometry":{"type":"Polygon","coordinates":[[[10.5319,43.3236],[10.5405,43.3131],[10.5484,43.3099],[10.5618,43.3083],[10.563,43.3012],[10.5663,43.2973],[10.582,43.2912],[10.5564,43.2818],[10.528,43.276],[10.521,43.2765],[10.5113,43.2734],[10.5069,43.2825],[10.5005,43.2918],[10.4766,43.3105],[10.4627,43.3188],[10.4807,43.3266],[10.4827,43.3284],[10.5025,43.3485],[10.504,43.3518],[10.5053,43.3593],[10.509,43.3632],[10.5098,43.3624],[10.5147,43.3621],[10.5306,43.3679],[10.54,43.3678],[10.5337,43.3564],[10.5339,43.3526],[10.5359,43.3489],[10.5355,43.3451],[10.5328,43.3366],[10.5288,43.3305],[10.5224,43.3253],[10.5236,43.3245],[10.5319,43.3236]]]}},{"type":"Feature","properties":{"i":"049008","n":"Collesalvetti"},"geometry":{"type":"Polygon","coordinates":[[[10.5089,43.6292],[10.5048,43.6267],[10.4999,43.6251],[10.5009,43.6243],[10.4976,43.6195],[10.4967,43.6166],[10.4967,43.6152],[10.4987,43.6117],[10.498,43.6099],[10.4971,43.6084],[10.4923,43.6045],[10.4903,43.6045],[10.4895,43.5996],[10.4901,43.5916],[10.4857,43.5864],[10.4752,43.584],[10.4751,43.571],[10.4797,43.5607],[10.4794,43.5575],[10.4774,43.553],[10.4653,43.5428],[10.4643,43.5404],[10.4676,43.528],[10.4711,43.5216],[10.4739,43.5196],[10.479,43.5181],[10.4744,43.5132],[10.4738,43.5048],[10.4846,43.4864],[10.4741,43.4914],[10.4699,43.492],[10.461,43.4919],[10.4474,43.4902],[10.4469,43.4928],[10.4325,43.4977],[10.4208,43.5043],[10.4195,43.5075],[10.4166,43.5112],[10.4184,43.5324],[10.4084,43.5452],[10.4122,43.5499],[10.4115,43.5544],[10.3996,43.5616],[10.3813,43.5673],[10.3758,43.5726],[10.3755,43.5737],[10.3691,43.5756],[10.3584,43.5751],[10.3457,43.5765],[10.34,43.5811],[10.3381,43.5959],[10.3657,43.6038],[10.3782,43.6098],[10.4092,43.6206],[10.4105,43.6178],[10.4114,43.6176],[10.4342,43.6335],[10.4455,43.6346],[10.4704,43.6344],[10.4896,43.6328],[10.5004,43.6299],[10.5024,43.6286],[10.5089,43.6292]]]}},{"type":"Feature","properties":{"i":"049009","n":"Livorno"},"geometry":{"type":"MultiPolygon","coordinates":[[[[9.9018,43.4393],[9.9081,43.4356],[9.9089,43.4335],[9.9075,43.4267],[9.9057,43.4243],[9.9011,43.4198],[9.8897,43.4231],[9.8887,43.425],[9.889,43.4279],[9.8925,43.4363],[9.8941,43.4364],[9.8958,43.4354],[9.9014,43.4357],[9.9018,43.4393]]],[[[10.4195,43.5075],[10.4116,43.4963],[10.4108,43.4917],[10.4132,43.4869],[10.411,43.4783],[10.4077,43.4757],[10.4049,43.4766],[10.3972,43.4729],[10.3931,43.468],[10.3927,43.4589],[10.3787,43.4486],[10.3766,43.4485],[10.3724,43.4535],[10.3637,43.459],[10.3546,43.4634],[10.348,43.4647],[10.3446,43.4638],[10.3401,43.466],[10.3304,43.4738],[10.3292,43.4765],[10.3305,43.478],[10.3314,43.484],[10.3219,43.4957],[10.3185,43.5099],[10.3125,43.5202],[10.299,43.5368],[10.2925,43.547],[10.2947,43.5475],[10.2999,43.5462],[10.3038,43.5488],[10.3012,43.5513],[10.2959,43.5537],[10.2996,43.5599],[10.3032,43.5637],[10.3165,43.5745],[10.3199,43.5843],[10.3188,43.5845],[10.3151,43.5745],[10.3113,43.5715],[10.3094,43.5711],[10.3071,43.5719],[10.3065,43.5756],[10.304,43.5759],[10.3051,43.5665],[10.2981,43.5619],[10.2944,43.5607],[10.2956,43.5687],[10.2995,43.579],[10.299,43.5815],[10.3062,43.5862],[10.3381,43.5959],[10.3401,43.5808],[10.3457,43.5765],[10.3584,43.5751],[10.3691,43.5756],[10.3755,43.5737],[10.3758,43.5726],[10.3813,43.5673],[10.3996,43.5616],[10.4109,43.5548],[10.4118,43.5537],[10.4122,43.5499],[10.4084,43.5452],[10.4184,43.5324],[10.4166,43.5112],[10.4195,43.5075]]]]}},{"type":"Feature","properties":{"i":"049010","n":"Marciana"},"geometry":{"type":"MultiPolygon","coordinates":[[[[10.1698,42.8063],[10.1663,42.8022],[10.1775,42.8007],[10.1865,42.7952],[10.1853,42.7936],[10.2074,42.791],[10.218,42.7885],[10.2275,42.7881],[10.2287,42.7894],[10.2411,42.7873],[10.2441,42.788],[10.2489,42.7912],[10.2492,42.7936],[10.2463,42.7947],[10.2475,42.7987],[10.2504,42.8001],[10.2557,42.8005],[10.2614,42.7978],[10.2625,42.7946],[10.2724,42.7793],[10.2772,42.7762],[10.2773,42.7748],[10.2724,42.7738],[10.2657,42.7736],[10.2585,42.7748],[10.2398,42.7726],[10.2333,42.7738],[10.225,42.7776],[10.2027,42.7782],[10.1899,42.7743],[10.1415,42.7553],[10.1253,42.7476],[10.1184,42.7473],[10.1151,42.7539],[10.1098,42.7596],[10.1037,42.768],[10.1032,42.7836],[10.1047,42.789],[10.1094,42.7937],[10.125,42.8035],[10.1366,42.8074],[10.1582,42.8081],[10.1687,42.8075],[10.1698,42.8063]]]]}},{"type":"Feature","properties":{"i":"049011","n":"Marciana Marina"},"geometry":{"type":"Polygon","coordinates":[[[10.2287,42.7894],[10.2275,42.7881],[10.218,42.7885],[10.2074,42.791],[10.1853,42.7936],[10.1865,42.7952],[10.1775,42.8007],[10.1663,42.8022],[10.1698,42.8063],[10.1787,42.8078],[10.1804,42.811],[10.1852,42.8114],[10.2011,42.8063],[10.206,42.8071],[10.222,42.7927],[10.2287,42.7894]]]}},{"type":"Feature","properties":{"i":"049012","n":"Piombino"},"geometry":{"type":"MultiPolygon","coordinates":[[[[10.4932,42.9321],[10.4926,42.9323],[10.4942,42.933],[10.4932,42.9321]]],[[[10.7098,43.0097],[10.7128,43.0088],[10.7158,43.0029],[10.716,42.9994],[10.7176,42.9977],[10.723,42.9977],[10.7379,43.0014],[10.7452,42.9964],[10.7516,42.9891],[10.7501,42.9848],[10.7372,42.9772],[10.7365,42.9729],[10.7314,42.9686],[10.7224,42.9642],[10.7144,42.9591],[10.7112,42.9545],[10.7063,42.9419],[10.677,42.9496],[10.65,42.9528],[10.6183,42.9544],[10.5939,42.9543],[10.5774,42.9532],[10.5626,42.9513],[10.5538,42.9483],[10.5539,42.9453],[10.5598,42.9474],[10.563,42.9437],[10.5593,42.937],[10.5586,42.9372],[10.559,42.9386],[10.5607,42.9412],[10.5551,42.9425],[10.5461,42.9354],[10.5441,42.9362],[10.5428,42.9347],[10.5442,42.9303],[10.5513,42.9304],[10.5452,42.9216],[10.5431,42.9208],[10.5374,42.9202],[10.5254,42.9204],[10.5212,42.9226],[10.5178,42.9259],[10.5169,42.9279],[10.5103,42.9328],[10.5041,42.9314],[10.4975,42.9319],[10.4959,42.9343],[10.4986,42.9364],[10.4873,42.9569],[10.4845,42.966],[10.4855,42.9713],[10.4849,42.9793],[10.4828,42.9838],[10.4832,42.9881],[10.4853,42.9903],[10.4943,42.9946],[10.4993,42.9935],[10.501,42.9925],[10.501,42.9913],[10.5039,42.9902],[10.5083,42.9911],[10.5117,42.9932],[10.5149,42.9972],[10.5165,43.0009],[10.5157,43.0025],[10.5106,43.0059],[10.5109,43.0115],[10.512,43.0133],[10.5148,43.0152],[10.5193,43.0158],[10.534,43.0259],[10.5938,42.9856],[10.6149,42.9897],[10.6661,43.0125],[10.6783,43.0148],[10.6994,43.0124],[10.7098,43.0097]]]]}},{"type":"Feature","properties":{"i":"049013","n":"Porto Azzurro"},"geometry":{"type":"Polygon","coordinates":[[[10.4204,42.7728],[10.4108,42.7674],[10.3988,42.7638],[10.3951,42.7635],[10.383,42.7594],[10.3757,42.7589],[10.3621,42.7623],[10.3577,42.7646],[10.3533,42.7694],[10.3547,42.7733],[10.3616,42.7814],[10.3671,42.783],[10.3785,42.7808],[10.3838,42.784],[10.3904,42.7948],[10.3995,42.7917],[10.4051,42.7923],[10.4171,42.7847],[10.4196,42.7798],[10.4204,42.7728]]]}},{"type":"Feature","properties":{"i":"049014","n":"Portoferraio"},"geometry":{"type":"MultiPolygon","coordinates":[[[[10.3135,42.351],[10.3256,42.344],[10.3291,42.3343],[10.3303,42.3252],[10.3299,42.322],[10.3262,42.3199],[10.3241,42.3202],[10.3173,42.3165],[10.3168,42.315],[10.3084,42.3146],[10.2969,42.3158],[10.294,42.3173],[10.2907,42.3211],[10.2889,42.3262],[10.2938,42.3451],[10.2984,42.35],[10.3004,42.3508],[10.3073,42.3491],[10.3135,42.351]]],[[[10.3311,42.8283],[10.33,42.8282],[10.3311,42.829],[10.3311,42.8283]]],[[[10.3629,42.8105],[10.373,42.809],[10.3778,42.8057],[10.3886,42.8047],[10.3925,42.8028],[10.3904,42.7948],[10.3838,42.784],[10.3785,42.7808],[10.3671,42.783],[10.3616,42.7814],[10.3547,42.7733],[10.3533,42.7694],[10.3513,42.7677],[10.3458,42.7661],[10.3314,42.7722],[10.3209,42.7789],[10.3212,42.7804],[10.3159,42.7813],[10.3108,42.7811],[10.2994,42.779],[10.2854,42.775],[10.2816,42.7752],[10.2772,42.7762],[10.2724,42.7793],[10.2614,42.797],[10.2614,42.7978],[10.2652,42.7996],[10.2663,42.808],[10.2685,42.8132],[10.2725,42.8144],[10.2753,42.8185],[10.2697,42.8244],[10.2637,42.8244],[10.2611,42.8278],[10.2624,42.8297],[10.2667,42.8292],[10.2696,42.8255],[10.297,42.8189],[10.3169,42.8197],[10.3288,42.818],[10.3296,42.812],[10.324,42.8123],[10.3141,42.8097],[10.3145,42.8071],[10.3176,42.8046],[10.3238,42.8021],[10.341,42.7965],[10.3498,42.7974],[10.3582,42.7999],[10.3617,42.8043],[10.3608,42.805],[10.3604,42.8093],[10.3629,42.8105]]]]}},{"type":"Feature","properties":{"i":"049017","n":"Rosignano Marittimo"},"geometry":{"type":"Polygon","coordinates":[[[10.4846,43.4864],[10.4924,43.4661],[10.4933,43.4613],[10.4922,43.4604],[10.4927,43.4558],[10.4993,43.4509],[10.4999,43.4471],[10.4998,43.4464],[10.49,43.4397],[10.4819,43.436],[10.484,43.4302],[10.4856,43.4318],[10.4854,43.434],[10.4863,43.435],[10.4899,43.4367],[10.504,43.4366],[10.5068,43.4326],[10.507,43.4318],[10.5019,43.4199],[10.5014,43.4149],[10.4906,43.4057],[10.49,43.404],[10.4906,43.4026],[10.4988,43.3953],[10.5006,43.3921],[10.4998,43.3876],[10.5028,43.3771],[10.509,43.3632],[10.5053,43.3593],[10.504,43.3518],[10.5025,43.3485],[10.4827,43.3284],[10.4807,43.3266],[10.4621,43.3189],[10.4552,43.3286],[10.4561,43.34],[10.4548,43.3446],[10.4486,43.3544],[10.4461,43.3551],[10.4442,43.3542],[10.4408,43.3671],[10.4415,43.3686],[10.4407,43.3708],[10.4361,43.3792],[10.4329,43.3819],[10.4279,43.3919],[10.4255,43.3991],[10.4198,43.403],[10.4174,43.4035],[10.4093,43.4015],[10.405,43.4052],[10.3999,43.4224],[10.3947,43.4282],[10.3924,43.4288],[10.3877,43.434],[10.3791,43.4489],[10.3927,43.4589],[10.3931,43.468],[10.3972,43.4729],[10.4049,43.4766],[10.4077,43.4757],[10.411,43.4783],[10.4132,43.4869],[10.4108,43.4917],[10.4116,43.4963],[10.4195,43.5075],[10.4208,43.5043],[10.4325,43.4977],[10.4469,43.4928],[10.4474,43.4902],[10.461,43.4919],[10.4699,43.492],[10.4741,43.4914],[10.4846,43.4864]]]}},{"type":"Feature","properties":{"i":"049018","n":"San Vincenzo"},"geometry":{"type":"Polygon","coordinates":[[[10.6267,43.0984],[10.6269,43.0912],[10.6237,43.0921],[10.6123,43.0924],[10.6074,43.0892],[10.5831,43.0844],[10.5769,43.0791],[10.5785,43.076],[10.5751,43.0711],[10.5652,43.0602],[10.5679,43.0568],[10.557,43.0499],[10.5477,43.0505],[10.5546,43.0381],[10.5605,43.0327],[10.5573,43.0283],[10.5544,43.0271],[10.5462,43.0277],[10.5442,43.0186],[10.534,43.0259],[10.5193,43.0158],[10.5166,43.0152],[10.519,43.0164],[10.5216,43.0195],[10.5317,43.0529],[10.5366,43.0839],[10.539,43.1136],[10.5461,43.1126],[10.5562,43.1083],[10.568,43.109],[10.5741,43.1084],[10.5918,43.1021],[10.6267,43.0984]]]}},{"type":"Feature","properties":{"i":"049019","n":"Sassetta"},"geometry":{"type":"Polygon","coordinates":[[[10.7149,43.1141],[10.7149,43.1129],[10.6922,43.1052],[10.6488,43.1115],[10.6386,43.1146],[10.6294,43.127],[10.6331,43.1378],[10.6326,43.142],[10.6341,43.1505],[10.6394,43.1565],[10.6494,43.1597],[10.6526,43.1619],[10.6539,43.1652],[10.6508,43.1677],[10.6492,43.1716],[10.6567,43.1731],[10.6621,43.1731],[10.6632,43.1726],[10.665,43.1579],[10.6608,43.1503],[10.6631,43.1458],[10.6663,43.1441],[10.6735,43.1427],[10.689,43.1427],[10.6947,43.1298],[10.7035,43.1239],[10.7178,43.1242],[10.72,43.1205],[10.7149,43.1141]]]}},{"type":"Feature","properties":{"i":"049020","n":"Suvereto"},"geometry":{"type":"Polygon","coordinates":[[[10.7538,43.0749],[10.7557,43.073],[10.7619,43.0718],[10.7717,43.068],[10.7801,43.0636],[10.7826,43.0614],[10.7836,43.0571],[10.775,43.0486],[10.7731,43.0438],[10.7734,43.04],[10.7774,43.0278],[10.7768,43.0234],[10.7813,43.0202],[10.7956,43.0191],[10.7959,43.0169],[10.794,43.0151],[10.7838,43.0108],[10.7815,43.0079],[10.7802,43.0042],[10.7725,43.0094],[10.7657,43.0121],[10.749,43.0145],[10.7409,43.0122],[10.7379,43.0014],[10.723,42.9977],[10.7176,42.9977],[10.716,42.9994],[10.7158,43.0029],[10.7128,43.0088],[10.7098,43.0097],[10.7224,43.0158],[10.7225,43.0213],[10.7213,43.0226],[10.6996,43.0273],[10.6943,43.0326],[10.6861,43.033],[10.6727,43.0312],[10.6608,43.0308],[10.6415,43.0623],[10.6368,43.0745],[10.6281,43.0869],[10.6267,43.0897],[10.6267,43.0984],[10.6362,43.1087],[10.6386,43.1146],[10.6488,43.1115],[10.6922,43.1052],[10.7149,43.1129],[10.7149,43.1141],[10.7175,43.1088],[10.7252,43.0983],[10.7239,43.0965],[10.7234,43.0874],[10.725,43.084],[10.7227,43.079],[10.7215,43.0782],[10.7181,43.0782],[10.7163,43.0774],[10.7129,43.0729],[10.7131,43.0722],[10.7246,43.0672],[10.7274,43.0667],[10.7381,43.0685],[10.7418,43.071],[10.7538,43.0749]]]}},{"type":"Feature","properties":{"i":"049021","n":"Rio"},"geometry":{"type":"MultiPolygon","coordinates":[[[[10.434,42.7896],[10.4332,42.7902],[10.4343,42.791],[10.434,42.7896]]],[[[10.5496,42.8606],[10.5482,42.8563],[10.5466,42.856],[10.5458,42.8579],[10.548,42.8604],[10.5496,42.8606]]],[[[10.4766,42.8667],[10.4757,42.8648],[10.4744,42.8637],[10.4732,42.8638],[10.4724,42.8658],[10.4766,42.8667]]],[[[10.4756,42.8686],[10.4755,42.8678],[10.4749,42.8683],[10.4756,42.8686]]],[[[10.4241,42.8707],[10.4225,42.8709],[10.4238,42.8714],[10.4241,42.8707]]],[[[10.4204,42.7728],[10.4196,42.7798],[10.4171,42.7847],[10.4051,42.7923],[10.3995,42.7917],[10.3904,42.7948],[10.3925,42.8028],[10.3886,42.8047],[10.3778,42.8057],[10.373,42.809],[10.3629,42.8105],[10.3594,42.8128],[10.3623,42.8178],[10.371,42.821],[10.3795,42.8284],[10.3884,42.8425],[10.3905,42.8513],[10.4031,42.8646],[10.404,42.867],[10.4088,42.8713],[10.4123,42.8732],[10.421,42.8673],[10.4204,42.8614],[10.4216,42.8595],[10.4348,42.8546],[10.4422,42.8482],[10.4409,42.8412],[10.4321,42.8264],[10.4286,42.8161],[10.4297,42.8079],[10.4343,42.8029],[10.433,42.7949],[10.4329,42.7864],[10.4351,42.7812],[10.4345,42.7765],[10.4334,42.7748],[10.4204,42.7728]]]]}}]}
