{"type":"FeatureCollection","fonte":"Confini comunali ISTAT via openpolis/geojson-italy — CC BY 4.0","features":[{"type":"Feature","properties":{"i":"098001","n":"Abbadia Cerreto"},"geometry":{"type":"Polygon","coordinates":[[[9.6055,45.3229],[9.602,45.3172],[9.6085,45.3118],[9.6119,45.3062],[9.6125,45.3028],[9.6111,45.3017],[9.6073,45.3005],[9.5992,45.3037],[9.5914,45.3044],[9.5844,45.3001],[9.5798,45.2993],[9.5734,45.3068],[9.5721,45.3181],[9.5741,45.3216],[9.577,45.3225],[9.5817,45.3188],[9.5901,45.3189],[9.5928,45.3196],[9.5965,45.3252],[9.5921,45.3396],[9.5967,45.3399],[9.5964,45.336],[9.5984,45.3275],[9.6032,45.3267],[9.6055,45.3229]]]}},{"type":"Feature","properties":{"i":"098002","n":"Bertonico"},"geometry":{"type":"Polygon","coordinates":[[[9.672,45.2681],[9.668,45.2623],[9.672,45.2587],[9.6752,45.2569],[9.6781,45.2564],[9.6811,45.2571],[9.6849,45.2637],[9.6872,45.2649],[9.6905,45.2645],[9.6917,45.2636],[9.6918,45.2579],[9.6924,45.2568],[9.6947,45.2558],[9.6973,45.2557],[9.7073,45.2618],[9.714,45.2633],[9.7193,45.2628],[9.7222,45.2602],[9.7226,45.2586],[9.7206,45.2565],[9.7184,45.2557],[9.7166,45.256],[9.7148,45.2579],[9.713,45.2586],[9.7087,45.2571],[9.7074,45.2547],[9.7073,45.2518],[9.7088,45.2495],[9.711,45.2481],[9.7064,45.2465],[9.705,45.2446],[9.7024,45.2352],[9.7001,45.2326],[9.6862,45.2307],[9.6722,45.2232],[9.6446,45.2226],[9.6403,45.2253],[9.6383,45.2255],[9.6377,45.23],[9.6398,45.2341],[9.6443,45.2347],[9.6448,45.2439],[9.6413,45.254],[9.6413,45.258],[9.6422,45.2609],[9.6456,45.266],[9.6497,45.2689],[9.6606,45.2678],[9.6656,45.2685],[9.6677,45.2697],[9.672,45.2681]]]}},{"type":"Feature","properties":{"i":"098003","n":"Boffalora d'Adda"},"geometry":{"type":"Polygon","coordinates":[[[9.5056,45.3664],[9.5078,45.3668],[9.5089,45.3659],[9.5106,45.3603],[9.5091,45.3488],[9.5039,45.349],[9.4916,45.3465],[9.4888,45.345],[9.4855,45.3411],[9.4821,45.3415],[9.4727,45.3461],[9.4714,45.3459],[9.476,45.3486],[9.474,45.3525],[9.4699,45.3571],[9.4651,45.3644],[9.4651,45.367],[9.4675,45.3746],[9.4759,45.3744],[9.4786,45.3769],[9.4881,45.3707],[9.4911,45.3679],[9.5002,45.3646],[9.5056,45.3664]]]}},{"type":"Feature","properties":{"i":"098004","n":"Borghetto Lodigiano"},"geometry":{"type":"Polygon","coordinates":[[[9.5239,45.2265],[9.529,45.225],[9.531,45.2194],[9.5411,45.2168],[9.5435,45.2147],[9.5528,45.2014],[9.5482,45.2006],[9.5444,45.203],[9.5451,45.2046],[9.5422,45.208],[9.5387,45.2084],[9.5279,45.2034],[9.5197,45.1984],[9.5177,45.1958],[9.5204,45.1965],[9.5232,45.1954],[9.5259,45.1919],[9.5238,45.1908],[9.5169,45.1898],[9.5151,45.1889],[9.5157,45.1871],[9.5017,45.1861],[9.4912,45.1913],[9.4862,45.1916],[9.4807,45.1942],[9.4772,45.1981],[9.4707,45.2013],[9.462,45.209],[9.4546,45.2218],[9.4538,45.2314],[9.4579,45.2331],[9.4613,45.2325],[9.4673,45.2284],[9.4787,45.228],[9.4825,45.2326],[9.4862,45.2339],[9.491,45.2307],[9.4941,45.2243],[9.499,45.2253],[9.4994,45.2302],[9.5047,45.2326],[9.5078,45.2337],[9.518,45.2349],[9.5193,45.2336],[9.5193,45.2323],[9.5174,45.2281],[9.5204,45.2265],[9.5239,45.2265]]]}},{"type":"Feature","properties":{"i":"098005","n":"Borgo San Giovanni"},"geometry":{"type":"Polygon","coordinates":[[[9.442,45.28],[9.4445,45.2781],[9.4437,45.2728],[9.4364,45.2642],[9.4292,45.2639],[9.4245,45.2624],[9.4231,45.265],[9.4193,45.2642],[9.4163,45.2588],[9.414,45.2577],[9.4108,45.2594],[9.402,45.2692],[9.3994,45.2758],[9.3993,45.2869],[9.4002,45.2884],[9.4087,45.2908],[9.4142,45.2811],[9.4205,45.2805],[9.4262,45.2829],[9.4276,45.2853],[9.4299,45.2854],[9.4377,45.2828],[9.442,45.28]]]}},{"type":"Feature","properties":{"i":"098006","n":"Brembio"},"geometry":{"type":"Polygon","coordinates":[[[9.5748,45.236],[9.5723,45.229],[9.5727,45.2286],[9.58,45.2232],[9.5933,45.2171],[9.5935,45.2184],[9.5975,45.2207],[9.6005,45.2207],[9.6018,45.2153],[9.6038,45.2133],[9.6018,45.2082],[9.5981,45.2041],[9.5868,45.202],[9.5841,45.2002],[9.5851,45.1964],[9.5869,45.196],[9.5916,45.1925],[9.5923,45.1894],[9.5781,45.1857],[9.5796,45.1882],[9.577,45.1909],[9.557,45.196],[9.5435,45.2147],[9.5411,45.2168],[9.531,45.2194],[9.529,45.225],[9.5239,45.2265],[9.5281,45.2268],[9.5337,45.2293],[9.5333,45.2311],[9.5339,45.2319],[9.5373,45.2348],[9.5411,45.2359],[9.5424,45.2355],[9.5427,45.2309],[9.5442,45.2301],[9.5555,45.2366],[9.5591,45.2359],[9.5617,45.2342],[9.5618,45.2325],[9.5637,45.2294],[9.5661,45.2298],[9.5676,45.2372],[9.5748,45.236]]]}},{"type":"Feature","properties":{"i":"098008","n":"Casaletto Lodigiano"},"geometry":{"type":"Polygon","coordinates":[[[9.3797,45.303],[9.3804,45.3011],[9.3708,45.2844],[9.3555,45.2885],[9.348,45.2852],[9.3447,45.2791],[9.3361,45.2755],[9.333,45.277],[9.3314,45.2806],[9.3312,45.2834],[9.3322,45.2838],[9.3279,45.2903],[9.3253,45.2925],[9.3229,45.2927],[9.3287,45.2978],[9.3301,45.2982],[9.3374,45.2963],[9.3399,45.2934],[9.343,45.2912],[9.3491,45.2908],[9.3576,45.2926],[9.3544,45.3015],[9.3384,45.3057],[9.3346,45.3051],[9.3334,45.3074],[9.3362,45.3115],[9.3547,45.3208],[9.3544,45.3188],[9.3567,45.3152],[9.3598,45.3163],[9.3663,45.3118],[9.3668,45.3062],[9.369,45.3032],[9.376,45.3025],[9.3797,45.303]]]}},{"type":"Feature","properties":{"i":"098009","n":"Casalmaiocco"},"geometry":{"type":"Polygon","coordinates":[[[9.3828,45.3509],[9.3788,45.3487],[9.3624,45.3462],[9.3606,45.3497],[9.3593,45.3588],[9.3569,45.36],[9.353,45.3677],[9.3639,45.3657],[9.3823,45.3697],[9.3871,45.3693],[9.3903,45.3623],[9.385,45.3569],[9.3808,45.3545],[9.3828,45.3509]]]}},{"type":"Feature","properties":{"i":"098010","n":"Casalpusterlengo"},"geometry":{"type":"Polygon","coordinates":[[[9.6434,45.2224],[9.6451,45.2201],[9.6449,45.2163],[9.6479,45.207],[9.6601,45.1959],[9.6615,45.1915],[9.6619,45.1868],[9.6658,45.1841],[9.6659,45.1799],[9.6637,45.1707],[9.6565,45.1656],[9.6487,45.1639],[9.6336,45.1675],[9.629,45.166],[9.6251,45.1662],[9.6233,45.1679],[9.6235,45.1699],[9.6247,45.1715],[9.6291,45.1719],[9.6283,45.1743],[9.6191,45.1839],[9.6133,45.1853],[9.6102,45.1831],[9.6022,45.1879],[9.5945,45.1861],[9.5923,45.1894],[9.5916,45.1925],[9.5869,45.196],[9.5851,45.1964],[9.5841,45.2002],[9.5868,45.202],[9.5981,45.2041],[9.6018,45.2082],[9.6038,45.2133],[9.6018,45.2153],[9.6011,45.218],[9.6165,45.2206],[9.6186,45.2191],[9.6202,45.2196],[9.6151,45.2307],[9.6204,45.2283],[9.6434,45.2224]]]}},{"type":"Feature","properties":{"i":"098011","n":"Caselle Landi"},"geometry":{"type":"Polygon","coordinates":[[[9.8058,45.1298],[9.8114,45.126],[9.8123,45.1211],[9.8104,45.1159],[9.8105,45.113],[9.8136,45.1091],[9.8221,45.115],[9.8363,45.1161],[9.8361,45.1124],[9.8404,45.1064],[9.8488,45.0993],[9.8476,45.0965],[9.8427,45.0967],[9.8384,45.0956],[9.833,45.0918],[9.8312,45.0822],[9.8321,45.0783],[9.8341,45.0743],[9.8352,45.069],[9.8338,45.0617],[9.8313,45.0578],[9.8271,45.0536],[9.8238,45.0526],[9.8166,45.0545],[9.8158,45.0598],[9.8169,45.0696],[9.8151,45.0764],[9.8126,45.0786],[9.8091,45.0802],[9.7882,45.0845],[9.779,45.0896],[9.7803,45.0904],[9.7809,45.0922],[9.7809,45.0992],[9.7766,45.1068],[9.7736,45.1079],[9.7683,45.1124],[9.7674,45.1184],[9.7733,45.1236],[9.7826,45.1275],[9.7863,45.1283],[9.8058,45.1298]]]}},{"type":"Feature","properties":{"i":"098012","n":"Caselle Lurani"},"geometry":{"type":"Polygon","coordinates":[[[9.3708,45.2844],[9.3704,45.2836],[9.3739,45.2794],[9.3793,45.2748],[9.3826,45.2753],[9.384,45.2668],[9.3828,45.2644],[9.3798,45.2638],[9.3797,45.2649],[9.3768,45.2653],[9.3723,45.2628],[9.3528,45.2558],[9.3501,45.2659],[9.3449,45.2684],[9.3361,45.2755],[9.3447,45.2791],[9.348,45.2852],[9.3555,45.2885],[9.3708,45.2844]]]}},{"type":"Feature","properties":{"i":"098013","n":"Castelnuovo Bocca d'Adda"},"geometry":{"type":"Polygon","coordinates":[[[9.8911,45.1309],[9.88,45.1264],[9.8757,45.1225],[9.8752,45.1196],[9.8758,45.1171],[9.8786,45.1126],[9.8942,45.1018],[9.9006,45.0954],[9.9011,45.0887],[9.8993,45.084],[9.8958,45.0796],[9.8897,45.0763],[9.8828,45.0745],[9.8773,45.0762],[9.8754,45.0777],[9.8707,45.0856],[9.8634,45.0925],[9.858,45.0948],[9.8476,45.0965],[9.8488,45.0993],[9.8404,45.1064],[9.8361,45.1124],[9.8363,45.1161],[9.8404,45.1177],[9.8422,45.1219],[9.8389,45.1261],[9.843,45.1342],[9.851,45.1345],[9.8517,45.1337],[9.8585,45.1353],[9.8684,45.1398],[9.8725,45.1406],[9.8771,45.1379],[9.8879,45.1338],[9.8911,45.1309]]]}},{"type":"Feature","properties":{"i":"098014","n":"Castiglione d'Adda"},"geometry":{"type":"Polygon","coordinates":[[[9.7358,45.2276],[9.7324,45.2174],[9.7233,45.2163],[9.7203,45.2171],[9.7168,45.2165],[9.7116,45.2143],[9.7091,45.2037],[9.705,45.2021],[9.7002,45.2067],[9.6857,45.2089],[9.6831,45.2043],[9.6746,45.2016],[9.6725,45.2038],[9.6702,45.208],[9.673,45.2083],[9.6747,45.2117],[9.6739,45.2206],[9.6722,45.2232],[9.6862,45.2307],[9.7001,45.2326],[9.7024,45.2352],[9.705,45.2446],[9.7064,45.2465],[9.709,45.2477],[9.711,45.2481],[9.7162,45.2456],[9.722,45.2449],[9.7263,45.2422],[9.7267,45.2407],[9.7251,45.2379],[9.7173,45.2352],[9.7158,45.2339],[9.7154,45.2321],[9.7168,45.2301],[9.7257,45.2266],[9.7322,45.225],[9.7358,45.2276]]]}},{"type":"Feature","properties":{"i":"098015","n":"Castiraga Vidardo"},"geometry":{"type":"Polygon","coordinates":[[[9.3998,45.282],[9.399,45.2794],[9.3994,45.2758],[9.402,45.2692],[9.4108,45.2594],[9.414,45.2577],[9.4149,45.2535],[9.4139,45.2496],[9.4126,45.2484],[9.4023,45.2478],[9.3966,45.2517],[9.3963,45.2554],[9.3944,45.2589],[9.3798,45.2638],[9.3828,45.2644],[9.384,45.2668],[9.3826,45.2753],[9.3927,45.2818],[9.3998,45.282]]]}},{"type":"Feature","properties":{"i":"098017","n":"Cavenago d'Adda"},"geometry":{"type":"Polygon","coordinates":[[[9.6125,45.3028],[9.6174,45.3004],[9.6222,45.2934],[9.6284,45.2929],[9.6302,45.2915],[9.6305,45.289],[9.6296,45.2877],[9.6255,45.2851],[9.6287,45.2815],[9.6328,45.2836],[9.6365,45.2843],[9.6403,45.2837],[9.6445,45.2805],[9.6342,45.2762],[9.623,45.2769],[9.6212,45.2785],[9.6143,45.2807],[9.6096,45.2784],[9.6118,45.2732],[9.61,45.2716],[9.6023,45.2701],[9.5975,45.2702],[9.5933,45.274],[9.5852,45.2744],[9.582,45.2698],[9.58,45.2648],[9.5595,45.2543],[9.5575,45.2541],[9.5553,45.2552],[9.5509,45.2596],[9.5485,45.2608],[9.5477,45.2674],[9.5554,45.2684],[9.5548,45.2738],[9.5594,45.2745],[9.5659,45.2779],[9.5659,45.28],[9.5597,45.2832],[9.5582,45.2867],[9.5686,45.2881],[9.5792,45.2878],[9.5805,45.2872],[9.5822,45.284],[9.5759,45.2832],[9.5756,45.2797],[9.578,45.2778],[9.5818,45.2772],[9.5849,45.2776],[9.5921,45.2831],[9.5927,45.2875],[9.5913,45.2908],[9.5877,45.2945],[9.5829,45.2964],[9.5798,45.2993],[9.5844,45.3001],[9.5914,45.3044],[9.5992,45.3037],[9.6073,45.3005],[9.6125,45.3028]]]}},{"type":"Feature","properties":{"i":"098018","n":"Cervignano d'Adda"},"geometry":{"type":"Polygon","coordinates":[[[9.4479,45.3698],[9.4341,45.3617],[9.4321,45.3615],[9.4309,45.3629],[9.4248,45.3625],[9.4161,45.3655],[9.4152,45.3659],[9.415,45.3743],[9.4127,45.3819],[9.4092,45.3866],[9.4198,45.3825],[9.4242,45.3821],[9.434,45.378],[9.4402,45.3724],[9.45,45.3723],[9.4512,45.3711],[9.4513,45.3705],[9.4479,45.3698]]]}},{"type":"Feature","properties":{"i":"098019","n":"Codogno"},"geometry":{"type":"Polygon","coordinates":[[[9.705,45.1901],[9.7095,45.1853],[9.7185,45.179],[9.7281,45.1705],[9.7299,45.1512],[9.7285,45.1483],[9.711,45.1449],[9.7059,45.1419],[9.702,45.1422],[9.7023,45.1481],[9.7016,45.1502],[9.6997,45.1516],[9.6831,45.153],[9.6712,45.1478],[9.6706,45.1482],[9.6615,45.1596],[9.6599,45.1682],[9.6637,45.1707],[9.6659,45.1799],[9.6661,45.1825],[9.6652,45.185],[9.6886,45.1913],[9.705,45.1901]]]}},{"type":"Feature","properties":{"i":"098020","n":"Comazzo"},"geometry":{"type":"Polygon","coordinates":[[[9.4839,45.4487],[9.4816,45.4455],[9.4854,45.442],[9.4871,45.4416],[9.4884,45.4401],[9.4887,45.4381],[9.4805,45.4279],[9.4597,45.4246],[9.4546,45.4259],[9.4481,45.4316],[9.4474,45.4387],[9.4493,45.4439],[9.4537,45.4493],[9.4516,45.4544],[9.4409,45.4551],[9.4378,45.4508],[9.4377,45.4491],[9.4171,45.4385],[9.4175,45.4515],[9.4316,45.4604],[9.4335,45.4636],[9.4342,45.4688],[9.436,45.4693],[9.451,45.469],[9.4584,45.467],[9.4583,45.4651],[9.4566,45.4641],[9.4561,45.4627],[9.4619,45.4546],[9.4679,45.4501],[9.4726,45.448],[9.4839,45.4487]]]}},{"type":"Feature","properties":{"i":"098021","n":"Cornegliano Laudense"},"geometry":{"type":"Polygon","coordinates":[[[9.5058,45.2783],[9.5024,45.2728],[9.488,45.2779],[9.4752,45.2813],[9.4728,45.2802],[9.4725,45.2792],[9.4683,45.2788],[9.4651,45.2813],[9.4613,45.2866],[9.4551,45.2899],[9.4625,45.2907],[9.4623,45.2948],[9.4612,45.2976],[9.4676,45.2997],[9.4724,45.2998],[9.478,45.2965],[9.4786,45.2953],[9.4826,45.2946],[9.4925,45.2956],[9.4946,45.2904],[9.5034,45.2797],[9.5058,45.2783]]]}},{"type":"Feature","properties":{"i":"098022","n":"Corno Giovine"},"geometry":{"type":"Polygon","coordinates":[[[9.787,45.1389],[9.7903,45.1363],[9.802,45.1331],[9.8058,45.1298],[9.7863,45.1283],[9.7826,45.1275],[9.7733,45.1236],[9.7674,45.1184],[9.7683,45.1124],[9.7736,45.1079],[9.7667,45.1073],[9.7575,45.1125],[9.7578,45.1189],[9.7555,45.1199],[9.7495,45.1344],[9.7488,45.1388],[9.7463,45.1425],[9.7497,45.1444],[9.7506,45.1476],[9.7535,45.1517],[9.7618,45.1497],[9.7713,45.1489],[9.7822,45.1451],[9.787,45.1389]]]}},{"type":"Feature","properties":{"i":"098023","n":"Cornovecchio"},"geometry":{"type":"Polygon","coordinates":[[[9.8277,45.1542],[9.8255,45.1539],[9.8232,45.1518],[9.8255,45.1491],[9.8262,45.1465],[9.8253,45.1419],[9.8119,45.1327],[9.8101,45.1294],[9.8109,45.1268],[9.802,45.1331],[9.7903,45.1363],[9.787,45.1389],[9.7957,45.1435],[9.8019,45.1483],[9.8049,45.1593],[9.8091,45.1589],[9.8199,45.1633],[9.8265,45.1634],[9.8282,45.1623],[9.8287,45.1607],[9.8277,45.1542]]]}},{"type":"Feature","properties":{"i":"098024","n":"Corte Palasio"},"geometry":{"type":"Polygon","coordinates":[[[9.5603,45.3417],[9.5566,45.3405],[9.5561,45.3368],[9.5566,45.3349],[9.5603,45.3327],[9.5688,45.332],[9.5765,45.3327],[9.5833,45.3363],[9.5855,45.3396],[9.5921,45.3396],[9.5965,45.3252],[9.5928,45.3196],[9.5817,45.3188],[9.5764,45.3226],[9.5741,45.3216],[9.5721,45.3181],[9.5734,45.3068],[9.5774,45.3014],[9.5829,45.2964],[9.5877,45.2945],[9.5913,45.2908],[9.5927,45.2875],[9.5921,45.2831],[9.5849,45.2776],[9.5818,45.2772],[9.578,45.2778],[9.5756,45.2797],[9.5759,45.2832],[9.5822,45.284],[9.5805,45.2872],[9.5792,45.2878],[9.5686,45.2881],[9.5554,45.286],[9.5528,45.2871],[9.552,45.2884],[9.5541,45.2931],[9.5581,45.2953],[9.5596,45.2958],[9.5597,45.295],[9.5586,45.2944],[9.5616,45.2919],[9.5665,45.2916],[9.5681,45.2922],[9.569,45.2934],[9.5692,45.2979],[9.5679,45.2995],[9.5642,45.3007],[9.5553,45.2997],[9.5505,45.2988],[9.548,45.2967],[9.5456,45.3],[9.5437,45.3058],[9.5472,45.3095],[9.5478,45.3153],[9.5475,45.3207],[9.5446,45.3271],[9.5426,45.3343],[9.5521,45.3391],[9.5515,45.3392],[9.5603,45.3417]]]}},{"type":"Feature","properties":{"i":"098025","n":"Crespiatica"},"geometry":{"type":"Polygon","coordinates":[[[9.5721,45.3656],[9.5788,45.3634],[9.5842,45.3599],[9.5905,45.3544],[9.5967,45.3399],[9.5855,45.3396],[9.5833,45.3363],[9.5742,45.3321],[9.5603,45.3327],[9.5566,45.3349],[9.5561,45.3368],[9.5566,45.3405],[9.5633,45.3423],[9.5666,45.3636],[9.5681,45.3669],[9.5721,45.3656]]]}},{"type":"Feature","properties":{"i":"098026","n":"Fombio"},"geometry":{"type":"Polygon","coordinates":[[[9.702,45.1422],[9.6899,45.1346],[9.6861,45.1301],[9.6864,45.1283],[9.6889,45.1266],[9.6951,45.1247],[9.7011,45.1208],[9.705,45.1154],[9.71,45.1142],[9.7059,45.1061],[9.7,45.1048],[9.7007,45.1079],[9.6994,45.1101],[9.6932,45.1152],[9.6864,45.1171],[9.6853,45.1231],[9.6776,45.1278],[9.6705,45.1351],[9.6708,45.1462],[9.6712,45.1478],[9.6831,45.153],[9.6997,45.1516],[9.7016,45.1502],[9.7023,45.1481],[9.702,45.1422]]]}},{"type":"Feature","properties":{"i":"098027","n":"Galgagnano"},"geometry":{"type":"Polygon","coordinates":[[[9.4651,45.367],[9.4651,45.3644],[9.4699,45.3571],[9.474,45.3525],[9.476,45.3486],[9.4714,45.3459],[9.449,45.3475],[9.4448,45.3461],[9.4407,45.3461],[9.4365,45.3523],[9.4321,45.3615],[9.4341,45.3617],[9.4385,45.3639],[9.4415,45.3655],[9.4425,45.3672],[9.4479,45.3698],[9.4473,45.3681],[9.4492,45.3673],[9.4592,45.3666],[9.4651,45.367]]]}},{"type":"Feature","properties":{"i":"098028","n":"Graffignana"},"geometry":{"type":"Polygon","coordinates":[[[9.4545,45.2263],[9.4546,45.2218],[9.4603,45.2112],[9.4707,45.2013],[9.4463,45.1892],[9.4411,45.1898],[9.4368,45.1866],[9.4296,45.1845],[9.4277,45.1863],[9.4277,45.1882],[9.4321,45.1916],[9.4331,45.1936],[9.4322,45.1961],[9.4302,45.1987],[9.4286,45.1994],[9.4268,45.2036],[9.4277,45.2148],[9.4325,45.2182],[9.4287,45.2293],[9.4364,45.2322],[9.4394,45.2314],[9.4401,45.2295],[9.4468,45.2274],[9.4545,45.2263]]]}},{"type":"Feature","properties":{"i":"098029","n":"Guardamiglio"},"geometry":{"type":"Polygon","coordinates":[[[9.6864,45.1171],[9.6932,45.1152],[9.7004,45.1088],[9.7,45.1048],[9.6979,45.1036],[9.6953,45.1006],[9.6935,45.0959],[9.6855,45.0942],[9.6839,45.0958],[9.6808,45.0972],[9.6713,45.0999],[9.6555,45.0973],[9.6512,45.1013],[9.6437,45.1049],[9.6376,45.1044],[9.6379,45.1131],[9.6409,45.1166],[9.6396,45.1219],[9.6366,45.1264],[9.6398,45.1273],[9.6481,45.1274],[9.6592,45.1195],[9.6607,45.1164],[9.6623,45.1153],[9.6864,45.1171]]]}},{"type":"Feature","properties":{"i":"098030","n":"Livraga"},"geometry":{"type":"Polygon","coordinates":[[[9.5528,45.2014],[9.557,45.196],[9.577,45.1909],[9.5796,45.1882],[9.5781,45.1857],[9.5744,45.1843],[9.5622,45.1768],[9.5639,45.175],[9.5594,45.1739],[9.5571,45.1748],[9.557,45.1757],[9.5548,45.177],[9.5508,45.177],[9.5347,45.1677],[9.5314,45.1669],[9.5266,45.1695],[9.5264,45.1788],[9.5213,45.1806],[9.5197,45.1802],[9.5161,45.1835],[9.5151,45.1889],[9.5238,45.1908],[9.5259,45.1919],[9.5232,45.1954],[9.5204,45.1965],[9.5177,45.1958],[9.5197,45.1984],[9.5279,45.2034],[9.5397,45.2085],[9.5422,45.208],[9.5451,45.2046],[9.5444,45.203],[9.5482,45.2006],[9.5528,45.2014]]]}},{"type":"Feature","properties":{"i":"098031","n":"Lodi"},"geometry":{"type":"Polygon","coordinates":[[[9.5091,45.3488],[9.5354,45.3468],[9.5387,45.3435],[9.5521,45.3391],[9.5426,45.3343],[9.5446,45.3271],[9.5475,45.3207],[9.5478,45.3153],[9.5472,45.3095],[9.5437,45.3058],[9.5456,45.3],[9.548,45.2967],[9.5329,45.2878],[9.5203,45.2827],[9.5058,45.2783],[9.5034,45.2797],[9.4946,45.2904],[9.4925,45.2956],[9.4826,45.2946],[9.4786,45.2953],[9.478,45.2965],[9.4724,45.2998],[9.4676,45.2997],[9.4612,45.2976],[9.4623,45.2948],[9.4625,45.2907],[9.4551,45.2899],[9.4514,45.2933],[9.4495,45.3026],[9.4421,45.3158],[9.4434,45.3181],[9.447,45.3187],[9.4471,45.3254],[9.4572,45.3239],[9.4641,45.3242],[9.4805,45.329],[9.4889,45.3301],[9.4925,45.3315],[9.4962,45.3356],[9.4967,45.3372],[9.4908,45.3406],[9.4855,45.3411],[9.4864,45.3428],[9.4916,45.3465],[9.5039,45.349],[9.5091,45.3488]]]}},{"type":"Feature","properties":{"i":"098032","n":"Lodi Vecchio"},"geometry":{"type":"Polygon","coordinates":[[[9.4431,45.314],[9.4495,45.3026],[9.4514,45.2933],[9.4551,45.2899],[9.453,45.2891],[9.4401,45.2928],[9.4385,45.288],[9.4425,45.2837],[9.442,45.28],[9.4377,45.2828],[9.4299,45.2854],[9.4276,45.2853],[9.4262,45.2829],[9.4205,45.2805],[9.4142,45.2811],[9.4087,45.2908],[9.4002,45.2884],[9.3993,45.2869],[9.3996,45.2847],[9.3977,45.285],[9.3897,45.2901],[9.3935,45.2977],[9.3934,45.3],[9.392,45.3031],[9.3867,45.3065],[9.3834,45.307],[9.3775,45.3095],[9.3762,45.3109],[9.381,45.3141],[9.3847,45.3146],[9.3875,45.3128],[9.3907,45.3138],[9.3927,45.3165],[9.3874,45.3199],[9.3865,45.3214],[9.395,45.323],[9.4053,45.3199],[9.4219,45.32],[9.429,45.3149],[9.4333,45.3096],[9.4346,45.3092],[9.4393,45.3101],[9.4431,45.314]]]}},{"type":"Feature","properties":{"i":"098033","n":"Maccastorna"},"geometry":{"type":"Polygon","coordinates":[[[9.8725,45.1406],[9.8684,45.1398],[9.8585,45.1353],[9.8517,45.1337],[9.851,45.1345],[9.8406,45.134],[9.836,45.1347],[9.8348,45.1387],[9.8354,45.1407],[9.8394,45.1439],[9.839,45.15],[9.8436,45.1521],[9.8482,45.1554],[9.8596,45.1525],[9.8635,45.1537],[9.8684,45.1583],[9.8704,45.1592],[9.8719,45.1573],[9.8722,45.1502],[9.871,45.1456],[9.8725,45.1406]]]}},{"type":"Feature","properties":{"i":"098034","n":"Mairago"},"geometry":{"type":"Polygon","coordinates":[[[9.6118,45.2732],[9.6127,45.2706],[9.6157,45.2664],[9.6163,45.2599],[9.6067,45.2581],[9.607,45.2536],[9.6127,45.2512],[9.6159,45.249],[9.6165,45.2478],[9.5976,45.2435],[9.5765,45.2425],[9.574,45.2395],[9.5748,45.236],[9.5676,45.2372],[9.5646,45.2447],[9.5553,45.2552],[9.5575,45.2541],[9.5619,45.255],[9.58,45.2648],[9.582,45.2698],[9.5852,45.2744],[9.5933,45.274],[9.5975,45.2702],[9.6046,45.2704],[9.61,45.2716],[9.6118,45.2732]]]}},{"type":"Feature","properties":{"i":"098035","n":"Maleo"},"geometry":{"type":"Polygon","coordinates":[[[9.8049,45.1593],[9.8019,45.1483],[9.7957,45.1435],[9.787,45.1389],[9.7822,45.1451],[9.7713,45.1489],[9.7618,45.1497],[9.7535,45.1517],[9.7506,45.1476],[9.7497,45.1444],[9.745,45.142],[9.743,45.1446],[9.7379,45.1479],[9.7285,45.1483],[9.7299,45.1512],[9.7281,45.1705],[9.735,45.1782],[9.7389,45.1796],[9.7504,45.1803],[9.7529,45.1813],[9.7567,45.1812],[9.7646,45.1852],[9.7677,45.1879],[9.7744,45.1888],[9.7833,45.1732],[9.7839,45.1673],[9.7847,45.1658],[9.7884,45.1636],[9.7971,45.164],[9.8006,45.1627],[9.8049,45.1593]]]}},{"type":"Feature","properties":{"i":"098036","n":"Marudo"},"geometry":{"type":"Polygon","coordinates":[[[9.3798,45.2638],[9.3933,45.2595],[9.3944,45.2589],[9.3964,45.2548],[9.3915,45.2523],[9.3781,45.2485],[9.3687,45.2473],[9.3637,45.2469],[9.3543,45.2498],[9.3528,45.2558],[9.3723,45.2628],[9.3768,45.2653],[9.3797,45.2649],[9.3798,45.2638]]]}},{"type":"Feature","properties":{"i":"098037","n":"Massalengo"},"geometry":{"type":"Polygon","coordinates":[[[9.5024,45.2728],[9.5119,45.2696],[9.5143,45.2636],[9.5147,45.2566],[9.5126,45.2544],[9.5102,45.2435],[9.5084,45.2415],[9.5042,45.2428],[9.4993,45.2528],[9.4969,45.2543],[9.486,45.2542],[9.4877,45.25],[9.4805,45.25],[9.4781,45.2516],[9.4815,45.2543],[9.4822,45.2559],[9.4806,45.2581],[9.477,45.2584],[9.476,45.2602],[9.4732,45.2709],[9.4728,45.2802],[9.4761,45.2811],[9.488,45.2779],[9.5024,45.2728]]]}},{"type":"Feature","properties":{"i":"098038","n":"Meleti"},"geometry":{"type":"Polygon","coordinates":[[[9.839,45.15],[9.8394,45.1439],[9.8354,45.1407],[9.8348,45.1387],[9.836,45.1347],[9.843,45.1342],[9.8389,45.1261],[9.8422,45.1219],[9.8404,45.1177],[9.8363,45.1161],[9.8314,45.1153],[9.8272,45.1158],[9.8221,45.115],[9.8136,45.1091],[9.8105,45.113],[9.8104,45.1159],[9.8124,45.1224],[9.8101,45.1294],[9.8119,45.1327],[9.8253,45.1419],[9.8262,45.1465],[9.8255,45.1491],[9.8232,45.1518],[9.8255,45.1539],[9.8277,45.1542],[9.839,45.15]]]}},{"type":"Feature","properties":{"i":"098039","n":"Merlino"},"geometry":{"type":"Polygon","coordinates":[[[9.4805,45.4279],[9.4802,45.4199],[9.4676,45.4133],[9.4611,45.4128],[9.4415,45.4174],[9.4379,45.4195],[9.426,45.422],[9.4257,45.424],[9.4206,45.4302],[9.4154,45.4322],[9.4109,45.4351],[9.4377,45.4491],[9.4378,45.4508],[9.4409,45.4551],[9.4438,45.4553],[9.4516,45.4544],[9.453,45.4517],[9.4537,45.4493],[9.4493,45.4439],[9.4474,45.4387],[9.4483,45.4313],[9.4546,45.4259],[9.4597,45.4246],[9.4805,45.4279]]]}},{"type":"Feature","properties":{"i":"098040","n":"Montanaso Lombardo"},"geometry":{"type":"Polygon","coordinates":[[[9.4714,45.3459],[9.4727,45.3461],[9.4821,45.3415],[9.4908,45.3406],[9.4963,45.3376],[9.4965,45.3361],[9.4925,45.3315],[9.4889,45.3301],[9.4805,45.329],[9.4693,45.3254],[9.4611,45.3239],[9.4471,45.3254],[9.4417,45.327],[9.4341,45.33],[9.4289,45.3347],[9.4298,45.3421],[9.4394,45.3428],[9.4409,45.3438],[9.4407,45.3461],[9.4448,45.3461],[9.449,45.3475],[9.4714,45.3459]]]}},{"type":"Feature","properties":{"i":"098041","n":"Mulazzano"},"geometry":{"type":"Polygon","coordinates":[[[9.4049,45.3911],[9.4127,45.3819],[9.415,45.3743],[9.4152,45.3659],[9.4248,45.3625],[9.4317,45.3627],[9.4365,45.3523],[9.4407,45.3461],[9.4404,45.3432],[9.4298,45.3421],[9.4296,45.3374],[9.4288,45.3391],[9.4236,45.3442],[9.4197,45.3435],[9.4151,45.3469],[9.4133,45.3513],[9.4095,45.3572],[9.4043,45.3592],[9.3988,45.3577],[9.3878,45.349],[9.3842,45.3496],[9.3817,45.3522],[9.3808,45.3545],[9.385,45.3569],[9.3893,45.3611],[9.3902,45.363],[9.3871,45.3693],[9.3823,45.3697],[9.3782,45.3689],[9.375,45.3791],[9.3726,45.3809],[9.3731,45.3865],[9.3777,45.3869],[9.3816,45.3885],[9.3831,45.3964],[9.3846,45.3982],[9.3889,45.3998],[9.4,45.3974],[9.4015,45.392],[9.4049,45.3911]]]}},{"type":"Feature","properties":{"i":"098042","n":"Orio Litta"},"geometry":{"type":"Polygon","coordinates":[[[9.5639,45.175],[9.5725,45.1659],[9.5704,45.1525],[9.569,45.1524],[9.5686,45.1462],[9.553,45.1306],[9.5487,45.1327],[9.5429,45.1374],[9.5445,45.1397],[9.5451,45.1485],[9.5442,45.1532],[9.5368,45.1592],[9.5311,45.1619],[9.5306,45.1628],[9.5316,45.1654],[9.5314,45.1669],[9.5347,45.1677],[9.5508,45.177],[9.5548,45.177],[9.557,45.1757],[9.5571,45.1748],[9.5594,45.1739],[9.5639,45.175]]]}},{"type":"Feature","properties":{"i":"098043","n":"Ospedaletto Lodigiano"},"geometry":{"type":"Polygon","coordinates":[[[9.6048,45.1707],[9.5995,45.163],[9.5929,45.1567],[9.577,45.1523],[9.5701,45.1517],[9.5725,45.1659],[9.5622,45.1768],[9.5744,45.1843],[9.5923,45.1894],[9.5945,45.1861],[9.5966,45.1773],[9.6024,45.1761],[9.6064,45.174],[9.6066,45.1723],[9.6048,45.1707]]]}},{"type":"Feature","properties":{"i":"098044","n":"Ossago Lodigiano"},"geometry":{"type":"Polygon","coordinates":[[[9.5509,45.2596],[9.5623,45.2477],[9.5653,45.2435],[9.5676,45.2372],[9.5661,45.2298],[9.5637,45.2294],[9.5618,45.2325],[9.5617,45.2342],[9.5591,45.2359],[9.5555,45.2366],[9.5452,45.2304],[9.5433,45.2303],[9.5423,45.2319],[9.5424,45.2355],[9.5411,45.2359],[9.5373,45.2348],[9.5339,45.2319],[9.5333,45.2311],[9.5337,45.2293],[9.5281,45.2268],[9.5204,45.2265],[9.5174,45.2281],[9.5193,45.2323],[9.5188,45.2342],[9.518,45.2349],[9.5125,45.2342],[9.5084,45.2415],[9.5102,45.2435],[9.5126,45.2544],[9.5147,45.2566],[9.5181,45.2566],[9.5223,45.2541],[9.526,45.2539],[9.5337,45.2557],[9.5443,45.2599],[9.5509,45.2596]]]}},{"type":"Feature","properties":{"i":"098045","n":"Pieve Fissiraga"},"geometry":{"type":"Polygon","coordinates":[[[9.4551,45.2899],[9.4613,45.2866],[9.4651,45.2813],[9.4683,45.2788],[9.4725,45.2792],[9.4734,45.2701],[9.477,45.2584],[9.4723,45.259],[9.4688,45.2574],[9.46,45.2503],[9.4585,45.2459],[9.4552,45.2449],[9.4533,45.2444],[9.4514,45.2463],[9.4475,45.2481],[9.4425,45.2485],[9.4324,45.2456],[9.4302,45.2533],[9.4245,45.2624],[9.4292,45.2639],[9.4364,45.2642],[9.4437,45.2728],[9.4445,45.2781],[9.442,45.28],[9.4425,45.2837],[9.4385,45.288],[9.4401,45.2928],[9.453,45.2891],[9.4551,45.2899]]]}},{"type":"Feature","properties":{"i":"098046","n":"Salerano sul Lambro"},"geometry":{"type":"Polygon","coordinates":[[[9.3996,45.2847],[9.3998,45.282],[9.3927,45.2818],[9.3871,45.2777],[9.3826,45.2753],[9.3793,45.2748],[9.3739,45.2794],[9.3702,45.2841],[9.3804,45.3011],[9.3797,45.303],[9.3859,45.3068],[9.392,45.3031],[9.3934,45.3],[9.3927,45.2956],[9.3897,45.2901],[9.3977,45.285],[9.3996,45.2847]]]}},{"type":"Feature","properties":{"i":"098047","n":"San Fiorano"},"geometry":{"type":"Polygon","coordinates":[[[9.7285,45.1483],[9.7379,45.1479],[9.743,45.1446],[9.745,45.142],[9.7405,45.1417],[9.7368,45.1389],[9.7356,45.1342],[9.7324,45.1272],[9.7245,45.1277],[9.7179,45.1236],[9.71,45.1142],[9.705,45.1154],[9.7011,45.1208],[9.6951,45.1247],[9.6912,45.1257],[9.6864,45.1283],[9.6861,45.1301],[9.6899,45.1346],[9.702,45.1422],[9.7059,45.1419],[9.711,45.1449],[9.7285,45.1483]]]}},{"type":"Feature","properties":{"i":"098048","n":"San Martino in Strada"},"geometry":{"type":"Polygon","coordinates":[[[9.5582,45.2867],[9.5597,45.2832],[9.5659,45.28],[9.5659,45.2779],[9.5594,45.2745],[9.5548,45.2738],[9.5554,45.2684],[9.5477,45.2674],[9.5485,45.2608],[9.5509,45.2596],[9.5443,45.2599],[9.5337,45.2557],[9.526,45.2539],[9.5223,45.2541],[9.5181,45.2566],[9.5147,45.2566],[9.5143,45.2636],[9.5119,45.2696],[9.5024,45.2728],[9.5058,45.2783],[9.5203,45.2827],[9.5329,45.2878],[9.5505,45.2988],[9.5642,45.3007],[9.5679,45.2995],[9.5692,45.2979],[9.569,45.2934],[9.5674,45.2919],[9.5616,45.2919],[9.5586,45.2944],[9.5597,45.295],[9.5596,45.2958],[9.5547,45.2939],[9.552,45.2884],[9.5543,45.2861],[9.5582,45.2867]]]}},{"type":"Feature","properties":{"i":"098049","n":"San Rocco al Porto"},"geometry":{"type":"Polygon","coordinates":[[[9.7451,45.1058],[9.7531,45.0866],[9.7511,45.0804],[9.7477,45.0757],[9.742,45.0748],[9.7378,45.0732],[9.7333,45.0691],[9.7301,45.0636],[9.7191,45.0586],[9.7125,45.0588],[9.7079,45.0612],[9.6881,45.0682],[9.6823,45.0712],[9.6769,45.0776],[9.668,45.0798],[9.6535,45.0814],[9.6423,45.0807],[9.6349,45.084],[9.6314,45.0878],[9.6318,45.0914],[9.6344,45.0972],[9.6372,45.1008],[9.6376,45.1044],[9.6437,45.1049],[9.6512,45.1013],[9.6555,45.0973],[9.6713,45.0999],[9.6808,45.0972],[9.6839,45.0958],[9.6855,45.0942],[9.6935,45.0959],[9.6953,45.1006],[9.6979,45.1036],[9.7,45.1048],[9.7059,45.1061],[9.7075,45.1073],[9.7148,45.1067],[9.7254,45.1045],[9.7451,45.1058]]]}},{"type":"Feature","properties":{"i":"098050","n":"Sant'Angelo Lodigiano"},"geometry":{"type":"Polygon","coordinates":[[[9.433,45.2454],[9.4307,45.2437],[9.4311,45.2427],[9.4363,45.2398],[9.4407,45.2354],[9.4408,45.2336],[9.4394,45.2314],[9.4364,45.2322],[9.4287,45.2293],[9.4325,45.2182],[9.4277,45.2148],[9.4274,45.2138],[9.4268,45.2036],[9.4286,45.1994],[9.4211,45.1948],[9.4205,45.1987],[9.4211,45.2027],[9.4172,45.2059],[9.4093,45.2049],[9.4078,45.202],[9.406,45.2008],[9.4022,45.2019],[9.4017,45.208],[9.3976,45.2185],[9.3923,45.2186],[9.3873,45.224],[9.3872,45.2253],[9.3919,45.227],[9.3909,45.2317],[9.3852,45.2319],[9.3811,45.2302],[9.3785,45.232],[9.3713,45.244],[9.3637,45.2469],[9.3781,45.2485],[9.3915,45.2523],[9.3964,45.2548],[9.3966,45.2517],[9.4023,45.2478],[9.412,45.2482],[9.4139,45.2496],[9.4149,45.2535],[9.414,45.2577],[9.4163,45.2588],[9.4193,45.2642],[9.4231,45.265],[9.4302,45.2533],[9.433,45.2454]]]}},{"type":"Feature","properties":{"i":"098051","n":"Santo Stefano Lodigiano"},"geometry":{"type":"MultiPolygon","coordinates":[[[[9.7736,45.1079],[9.7766,45.1068],[9.7809,45.0992],[9.7809,45.0922],[9.7803,45.0904],[9.779,45.0896],[9.7667,45.1073],[9.7736,45.1079]]],[[[9.7463,45.1425],[9.7488,45.1388],[9.7495,45.1344],[9.7555,45.1199],[9.7578,45.1189],[9.7575,45.1125],[9.7518,45.1135],[9.7474,45.113],[9.7451,45.1109],[9.7451,45.1058],[9.7409,45.1053],[9.7254,45.1045],[9.7085,45.1074],[9.7059,45.1061],[9.71,45.1142],[9.7179,45.1236],[9.7245,45.1277],[9.7324,45.1272],[9.7356,45.1342],[9.7368,45.1389],[9.7405,45.1417],[9.7463,45.1425]]]]}},{"type":"Feature","properties":{"i":"098052","n":"Secugnago"},"geometry":{"type":"Polygon","coordinates":[[[9.5976,45.2435],[9.609,45.2294],[9.6159,45.2286],[9.6202,45.2196],[9.6186,45.2191],[9.6165,45.2206],[9.6011,45.218],[9.6005,45.2207],[9.5975,45.2207],[9.5935,45.2184],[9.5933,45.2171],[9.58,45.2232],[9.5723,45.229],[9.5748,45.236],[9.574,45.2395],[9.5765,45.2425],[9.5976,45.2435]]]}},{"type":"Feature","properties":{"i":"098053","n":"Senna Lodigiana"},"geometry":{"type":"Polygon","coordinates":[[[9.6337,45.1291],[9.6264,45.1331],[9.6224,45.134],[9.619,45.1335],[9.6151,45.1262],[9.6133,45.1139],[9.612,45.1115],[9.6091,45.1084],[9.6019,45.1041],[9.5874,45.0996],[9.586,45.105],[9.5771,45.1052],[9.5686,45.1073],[9.5624,45.1203],[9.5566,45.1275],[9.553,45.1306],[9.5686,45.1462],[9.569,45.1524],[9.57,45.1525],[9.5701,45.1517],[9.577,45.1523],[9.5929,45.1567],[9.5995,45.163],[9.6048,45.1707],[9.612,45.1639],[9.6225,45.1585],[9.6297,45.1488],[9.6281,45.1465],[9.6241,45.1436],[9.6226,45.1398],[9.6238,45.1374],[9.6296,45.1391],[9.6319,45.1381],[9.6348,45.1316],[9.6337,45.1291]]]}},{"type":"Feature","properties":{"i":"098054","n":"Somaglia"},"geometry":{"type":"Polygon","coordinates":[[[9.6599,45.1682],[9.6615,45.1596],[9.6712,45.1478],[9.6705,45.1351],[9.6776,45.1278],[9.6853,45.1231],[9.6864,45.1171],[9.6623,45.1153],[9.6607,45.1164],[9.6592,45.1195],[9.6481,45.1274],[9.6398,45.1273],[9.6366,45.1264],[9.6337,45.1291],[9.6348,45.1316],[9.6319,45.1381],[9.6296,45.1391],[9.6232,45.1376],[9.6226,45.1398],[9.6241,45.1436],[9.6281,45.1465],[9.6297,45.1488],[9.6225,45.1585],[9.612,45.1639],[9.6048,45.1707],[9.6066,45.1723],[9.6064,45.174],[9.6024,45.1761],[9.5966,45.1773],[9.5945,45.1861],[9.6022,45.1879],[9.6102,45.1831],[9.6133,45.1853],[9.6191,45.1839],[9.6283,45.1743],[9.6291,45.1719],[9.6247,45.1715],[9.6232,45.1687],[9.6233,45.1679],[9.6261,45.1658],[9.6336,45.1675],[9.6487,45.1639],[9.6565,45.1656],[9.6599,45.1682]]]}},{"type":"Feature","properties":{"i":"098055","n":"Sordio"},"geometry":{"type":"Polygon","coordinates":[[[9.3718,45.3298],[9.3586,45.3427],[9.3563,45.3435],[9.3624,45.3462],[9.3788,45.3487],[9.3824,45.3429],[9.3864,45.3404],[9.3831,45.3355],[9.3718,45.3298]]]}},{"type":"Feature","properties":{"i":"098056","n":"Tavazzano con Villavesco"},"geometry":{"type":"Polygon","coordinates":[[[9.4296,45.3374],[9.4289,45.3347],[9.4341,45.33],[9.4471,45.3254],[9.4475,45.324],[9.447,45.3187],[9.4432,45.318],[9.4421,45.3158],[9.4431,45.314],[9.4393,45.3101],[9.4366,45.3091],[9.4333,45.3096],[9.429,45.3149],[9.4219,45.32],[9.4053,45.3199],[9.395,45.323],[9.3865,45.3214],[9.3874,45.3199],[9.3833,45.3179],[9.3806,45.3188],[9.3718,45.3298],[9.3831,45.3355],[9.3864,45.3404],[9.3824,45.3429],[9.3788,45.3487],[9.3828,45.3509],[9.3842,45.3496],[9.3878,45.349],[9.3988,45.3577],[9.4043,45.3592],[9.4095,45.3572],[9.4133,45.3513],[9.4151,45.3469],[9.4197,45.3435],[9.4236,45.3442],[9.4288,45.3391],[9.4296,45.3374]]]}},{"type":"Feature","properties":{"i":"098057","n":"Terranova dei Passerini"},"geometry":{"type":"Polygon","coordinates":[[[9.6722,45.2232],[9.6739,45.2206],[9.6747,45.2117],[9.673,45.2083],[9.6702,45.208],[9.6725,45.2038],[9.6746,45.2016],[9.6831,45.2043],[9.6857,45.2089],[9.7002,45.2067],[9.7098,45.1971],[9.704,45.1959],[9.705,45.1901],[9.6886,45.1913],[9.6652,45.185],[9.6619,45.1868],[9.6615,45.1915],[9.6601,45.1959],[9.6479,45.207],[9.6449,45.2163],[9.6451,45.2201],[9.6434,45.2224],[9.6722,45.2232]]]}},{"type":"Feature","properties":{"i":"098058","n":"Turano Lodigiano"},"geometry":{"type":"Polygon","coordinates":[[[9.6445,45.2805],[9.6466,45.2758],[9.6489,45.2728],[9.652,45.272],[9.6572,45.2759],[9.6621,45.2733],[9.6643,45.2709],[9.6677,45.2697],[9.6656,45.2685],[9.6606,45.2678],[9.6497,45.2689],[9.6456,45.266],[9.6422,45.2609],[9.6413,45.254],[9.6448,45.2439],[9.6443,45.2347],[9.6398,45.2341],[9.6377,45.23],[9.6377,45.2282],[9.6383,45.2255],[9.6403,45.2253],[9.6446,45.2226],[9.6204,45.2283],[9.6163,45.2306],[9.6151,45.2307],[9.6159,45.2286],[9.6152,45.2284],[9.609,45.2294],[9.5976,45.2435],[9.6165,45.2478],[9.6159,45.249],[9.6127,45.2512],[9.607,45.2536],[9.6067,45.2581],[9.6163,45.2599],[9.6157,45.2664],[9.6127,45.2706],[9.6096,45.2784],[9.6143,45.2807],[9.6212,45.2785],[9.623,45.2769],[9.6342,45.2762],[9.6445,45.2805]]]}},{"type":"Feature","properties":{"i":"098059","n":"Valera Fratta"},"geometry":{"type":"Polygon","coordinates":[[[9.3528,45.2558],[9.3543,45.2498],[9.3514,45.2476],[9.354,45.2465],[9.3563,45.2474],[9.3593,45.2456],[9.3591,45.2402],[9.358,45.2387],[9.3502,45.2405],[9.3336,45.2466],[9.3279,45.2497],[9.3218,45.2455],[9.3224,45.2441],[9.3104,45.249],[9.3116,45.2536],[9.3155,45.2573],[9.3155,45.2601],[9.325,45.2688],[9.3295,45.2697],[9.3415,45.2713],[9.3449,45.2684],[9.3501,45.2659],[9.3528,45.2558]]]}},{"type":"Feature","properties":{"i":"098060","n":"Villanova del Sillaro"},"geometry":{"type":"Polygon","coordinates":[[[9.477,45.2584],[9.4806,45.2581],[9.4819,45.2569],[9.4822,45.255],[9.4781,45.2516],[9.4805,45.25],[9.4877,45.25],[9.486,45.2542],[9.4969,45.2543],[9.4993,45.2528],[9.5042,45.2428],[9.5084,45.2415],[9.5125,45.2342],[9.5078,45.2337],[9.4994,45.2302],[9.499,45.2253],[9.4941,45.2243],[9.491,45.2307],[9.4862,45.2339],[9.4825,45.2326],[9.4787,45.228],[9.4673,45.2284],[9.4613,45.2325],[9.4579,45.2331],[9.4538,45.2314],[9.4545,45.2263],[9.4516,45.2265],[9.4401,45.2295],[9.4392,45.2309],[9.4408,45.2336],[9.4407,45.2354],[9.4363,45.2398],[9.4311,45.2427],[9.4307,45.2437],[9.433,45.2454],[9.4425,45.2485],[9.4475,45.2481],[9.4514,45.2463],[9.4533,45.2444],[9.4585,45.2459],[9.46,45.2503],[9.4688,45.2574],[9.4723,45.259],[9.477,45.2584]]]}},{"type":"Feature","properties":{"i":"098061","n":"Zelo Buon Persico"},"geometry":{"type":"Polygon","coordinates":[[[9.4676,45.4133],[9.4696,45.4093],[9.4616,45.4014],[9.4544,45.3867],[9.4634,45.3771],[9.4675,45.3746],[9.4651,45.367],[9.4592,45.3666],[9.4477,45.3677],[9.4479,45.3698],[9.4513,45.3705],[9.45,45.3723],[9.4402,45.3724],[9.434,45.378],[9.4242,45.3821],[9.4198,45.3825],[9.4121,45.3851],[9.4092,45.3866],[9.4049,45.3911],[9.4111,45.4068],[9.4142,45.4076],[9.4171,45.4108],[9.4229,45.4218],[9.426,45.422],[9.4379,45.4195],[9.4415,45.4174],[9.4586,45.4132],[9.4639,45.4127],[9.4676,45.4133]]]}},{"type":"Feature","properties":{"i":"098062","n":"Castelgerundo"},"geometry":{"type":"Polygon","coordinates":[[[9.7769,45.2131],[9.7752,45.2111],[9.7739,45.2071],[9.7649,45.1992],[9.762,45.1923],[9.7585,45.1881],[9.7554,45.1849],[9.7502,45.1853],[9.7502,45.1828],[9.7529,45.1813],[9.7504,45.1803],[9.7389,45.1796],[9.735,45.1782],[9.7281,45.1705],[9.7185,45.179],[9.7095,45.1853],[9.705,45.1901],[9.704,45.1959],[9.7098,45.1971],[9.705,45.2021],[9.7091,45.2037],[9.7116,45.2143],[9.7168,45.2165],[9.7203,45.2171],[9.7233,45.2163],[9.7324,45.2174],[9.7358,45.2276],[9.7404,45.227],[9.7429,45.2256],[9.7434,45.2234],[9.7422,45.2202],[9.7498,45.2182],[9.7538,45.2204],[9.7628,45.2229],[9.7653,45.2216],[9.7655,45.2175],[9.7769,45.2131]]]}}]}
