{"type":"FeatureCollection","fonte":"Confini comunali ISTAT via openpolis/geojson-italy — CC BY 4.0","features":[{"type":"Feature","properties":{"i":"059001","n":"Aprilia"},"geometry":{"type":"Polygon","coordinates":[[[12.6529,41.6622],[12.6578,41.647],[12.6549,41.6402],[12.6544,41.626],[12.652,41.609],[12.6534,41.6058],[12.6618,41.5982],[12.6975,41.61],[12.6975,41.6058],[12.7032,41.5953],[12.7137,41.5935],[12.7203,41.5939],[12.7229,41.5957],[12.7249,41.5997],[12.7344,41.6042],[12.7402,41.6035],[12.741,41.6024],[12.7403,41.5931],[12.7383,41.5896],[12.7334,41.5844],[12.7323,41.5817],[12.7327,41.5808],[12.7383,41.5792],[12.7523,41.5778],[12.7559,41.5727],[12.7511,41.5627],[12.7545,41.5616],[12.7608,41.562],[12.7717,41.557],[12.7711,41.5446],[12.767,41.543],[12.7631,41.5318],[12.7569,41.5226],[12.7501,41.5154],[12.7387,41.5079],[12.7366,41.5042],[12.7269,41.4978],[12.7239,41.5007],[12.7223,41.5043],[12.7212,41.5051],[12.7021,41.5073],[12.6917,41.5069],[12.6809,41.508],[12.6803,41.516],[12.6766,41.521],[12.6541,41.5331],[12.6456,41.5364],[12.621,41.538],[12.6183,41.5403],[12.6179,41.5432],[12.6168,41.5446],[12.5949,41.5422],[12.5919,41.5412],[12.5879,41.5422],[12.5883,41.5445],[12.5842,41.5543],[12.5703,41.5776],[12.5589,41.5828],[12.5498,41.5911],[12.5434,41.5955],[12.5328,41.5984],[12.5302,41.5977],[12.5305,41.5988],[12.5327,41.6001],[12.5418,41.6039],[12.5513,41.6055],[12.5546,41.6099],[12.5549,41.6116],[12.5538,41.6133],[12.5505,41.6155],[12.5505,41.6185],[12.5522,41.62],[12.5617,41.624],[12.583,41.639],[12.5951,41.645],[12.5978,41.6502],[12.6014,41.6529],[12.611,41.6592],[12.6339,41.6719],[12.636,41.6702],[12.6455,41.6668],[12.6463,41.6652],[12.6457,41.6598],[12.6433,41.6576],[12.6529,41.6622]]]}},{"type":"Feature","properties":{"i":"059002","n":"Bassiano"},"geometry":{"type":"Polygon","coordinates":[[[13.0802,41.5609],[13.0771,41.5556],[13.0646,41.5433],[13.0586,41.5363],[13.0411,41.5293],[13.0283,41.516],[13.0212,41.5105],[13.0073,41.5155],[12.998,41.5119],[12.9915,41.5157],[12.9991,41.5264],[13.0195,41.5373],[13.0154,41.5488],[13.0117,41.5552],[13.0079,41.5594],[13.0017,41.5614],[12.9971,41.5638],[12.9881,41.5704],[12.9829,41.5725],[12.9961,41.5814],[13.0083,41.581],[13.0216,41.5735],[13.0348,41.5717],[13.0444,41.5767],[13.054,41.5776],[13.0691,41.5696],[13.0802,41.5609]]]}},{"type":"Feature","properties":{"i":"059003","n":"Campodimele"},"geometry":{"type":"Polygon","coordinates":[[[13.5521,41.414],[13.5592,41.4076],[13.5583,41.4045],[13.5604,41.4011],[13.5641,41.3991],[13.5761,41.387],[13.579,41.3803],[13.5729,41.379],[13.5664,41.3753],[13.5605,41.368],[13.5589,41.3697],[13.558,41.3696],[13.5395,41.3605],[13.5334,41.3609],[13.5192,41.3511],[13.5128,41.3498],[13.504,41.3574],[13.4976,41.368],[13.4959,41.3741],[13.4944,41.3756],[13.506,41.3789],[13.5036,41.3888],[13.4982,41.3946],[13.496,41.3987],[13.4928,41.4074],[13.4931,41.411],[13.5013,41.4183],[13.5097,41.4238],[13.5235,41.4232],[13.5333,41.4242],[13.5393,41.4239],[13.5482,41.4196],[13.5521,41.414]]]}},{"type":"Feature","properties":{"i":"059004","n":"Castelforte"},"geometry":{"type":"Polygon","coordinates":[[[13.8878,41.3196],[13.8927,41.3148],[13.8948,41.3116],[13.8947,41.3105],[13.8897,41.2975],[13.8867,41.2936],[13.8823,41.2909],[13.8511,41.2896],[13.8404,41.2835],[13.8336,41.2812],[13.8284,41.281],[13.8277,41.2834],[13.821,41.2918],[13.8192,41.2977],[13.8175,41.3128],[13.8199,41.3145],[13.8206,41.3165],[13.8204,41.3199],[13.8176,41.3253],[13.8183,41.3308],[13.8206,41.338],[13.8231,41.3387],[13.8268,41.3382],[13.8438,41.3307],[13.8569,41.3328],[13.8737,41.3383],[13.8737,41.3356],[13.8785,41.3288],[13.8837,41.3245],[13.8878,41.3196]]]}},{"type":"Feature","properties":{"i":"059005","n":"Cisterna di Latina"},"geometry":{"type":"Polygon","coordinates":[[[12.9275,41.6065],[12.93,41.6021],[12.9454,41.5887],[12.9554,41.5836],[12.9571,41.5807],[12.9564,41.5725],[12.9539,41.5714],[12.9413,41.5779],[12.9385,41.578],[12.9251,41.572],[12.9156,41.5632],[12.9148,41.5577],[12.9213,41.5538],[12.9221,41.5482],[12.8893,41.5619],[12.8884,41.5614],[12.8847,41.5549],[12.8651,41.5423],[12.8559,41.5262],[12.8382,41.5117],[12.8329,41.4928],[12.833,41.4864],[12.8367,41.4793],[12.8341,41.4743],[12.8221,41.4765],[12.8198,41.4789],[12.8057,41.4828],[12.7979,41.4907],[12.792,41.5059],[12.796,41.5127],[12.7986,41.515],[12.8004,41.5198],[12.7996,41.522],[12.7948,41.5238],[12.7894,41.5284],[12.7827,41.5403],[12.7814,41.5449],[12.7786,41.5456],[12.7711,41.5446],[12.7717,41.557],[12.7608,41.562],[12.7545,41.5616],[12.7511,41.5627],[12.7553,41.572],[12.7671,41.5841],[12.7687,41.5876],[12.7695,41.5933],[12.7708,41.5958],[12.7724,41.5973],[12.7761,41.5989],[12.7783,41.6017],[12.7817,41.6115],[12.7858,41.6185],[12.7916,41.6217],[12.7961,41.6225],[12.808,41.6204],[12.8101,41.6226],[12.8104,41.6289],[12.8093,41.6354],[12.8133,41.6385],[12.8159,41.6382],[12.8252,41.6415],[12.8255,41.6434],[12.8194,41.6487],[12.8188,41.6506],[12.8238,41.656],[12.8291,41.659],[12.8302,41.6588],[12.835,41.6523],[12.8381,41.6539],[12.8404,41.6582],[12.8398,41.6648],[12.8513,41.6664],[12.8564,41.6651],[12.8607,41.6555],[12.8592,41.6502],[12.8601,41.642],[12.8633,41.6348],[12.8644,41.6243],[12.8555,41.6223],[12.8605,41.61],[12.861,41.6061],[12.863,41.6042],[12.8752,41.5989],[12.89,41.5973],[12.8971,41.5956],[12.907,41.5972],[12.9275,41.6065]]]}},{"type":"Feature","properties":{"i":"059006","n":"Cori"},"geometry":{"type":"Polygon","coordinates":[[[12.8803,41.7018],[12.8854,41.6986],[12.894,41.6954],[12.8994,41.6901],[12.8922,41.6859],[12.8908,41.6817],[12.897,41.6788],[12.9154,41.6738],[12.9395,41.6715],[12.9431,41.6742],[12.963,41.6575],[12.9809,41.647],[12.986,41.6455],[12.9871,41.6408],[12.9825,41.6354],[12.9728,41.6188],[12.9668,41.6131],[12.95,41.6144],[12.9409,41.6134],[12.9327,41.6085],[12.907,41.5972],[12.8994,41.5957],[12.8957,41.5956],[12.89,41.5973],[12.8752,41.5989],[12.8618,41.6051],[12.8555,41.6223],[12.8644,41.6243],[12.8633,41.6348],[12.8601,41.642],[12.8592,41.6502],[12.8607,41.6555],[12.8564,41.6651],[12.8513,41.6664],[12.8495,41.6768],[12.8518,41.6864],[12.8547,41.6917],[12.8539,41.6976],[12.8511,41.7012],[12.8465,41.6987],[12.8404,41.7012],[12.8366,41.7039],[12.8385,41.7061],[12.8509,41.7148],[12.8545,41.712],[12.8598,41.7117],[12.8642,41.708],[12.8738,41.7042],[12.8766,41.704],[12.8803,41.7018]]]}},{"type":"Feature","properties":{"i":"059007","n":"Fondi"},"geometry":{"type":"Polygon","coordinates":[[[13.4273,41.3973],[13.4285,41.3938],[13.4319,41.3909],[13.4349,41.3866],[13.4359,41.3742],[13.4404,41.3727],[13.4472,41.3763],[13.4542,41.3784],[13.4599,41.3791],[13.4702,41.378],[13.4769,41.3758],[13.485,41.3816],[13.4932,41.3769],[13.4955,41.3747],[13.4976,41.368],[13.504,41.3574],[13.5128,41.3498],[13.4805,41.3138],[13.4701,41.3035],[13.4644,41.3007],[13.4607,41.2974],[13.455,41.2914],[13.4534,41.288],[13.4497,41.2852],[13.4387,41.2819],[13.4302,41.2867],[13.4227,41.2885],[13.4197,41.289],[13.4064,41.2889],[13.4046,41.2848],[13.3969,41.276],[13.3961,41.2736],[13.3745,41.2813],[13.3432,41.2896],[13.3182,41.2944],[13.2903,41.297],[13.2813,41.2972],[13.2831,41.2992],[13.3006,41.3106],[13.3022,41.3151],[13.3133,41.3254],[13.324,41.3289],[13.3305,41.3272],[13.3331,41.3256],[13.3414,41.3259],[13.3436,41.3284],[13.3427,41.3305],[13.3439,41.3335],[13.3471,41.3278],[13.3605,41.324],[13.363,41.3266],[13.3672,41.3332],[13.3657,41.3404],[13.3676,41.35],[13.3677,41.3702],[13.3603,41.3782],[13.3563,41.3811],[13.3548,41.386],[13.3555,41.3932],[13.3602,41.3978],[13.3661,41.3973],[13.3702,41.3994],[13.3755,41.4037],[13.3865,41.4045],[13.3997,41.402],[13.4089,41.3978],[13.4273,41.3973]]]}},{"type":"Feature","properties":{"i":"059008","n":"Formia"},"geometry":{"type":"Polygon","coordinates":[[[13.6513,41.318],[13.6505,41.3174],[13.6512,41.3147],[13.6782,41.3075],[13.685,41.3032],[13.7039,41.2779],[13.708,41.277],[13.7064,41.2747],[13.6946,41.2711],[13.6906,41.2689],[13.6869,41.2638],[13.6862,41.2622],[13.6868,41.2496],[13.689,41.2465],[13.6837,41.2445],[13.6705,41.2475],[13.6686,41.2484],[13.6644,41.2527],[13.662,41.2537],[13.6429,41.2589],[13.6321,41.2602],[13.6202,41.2602],[13.6084,41.2555],[13.6074,41.2547],[13.6079,41.254],[13.5894,41.2491],[13.5794,41.2444],[13.5764,41.2488],[13.5645,41.2547],[13.5532,41.2618],[13.5516,41.2652],[13.5578,41.2696],[13.5622,41.2759],[13.5675,41.2802],[13.5775,41.2856],[13.5812,41.3068],[13.5784,41.3113],[13.5765,41.3121],[13.5765,41.3139],[13.5796,41.3179],[13.5876,41.322],[13.5978,41.3338],[13.6033,41.3372],[13.6049,41.334],[13.6161,41.3211],[13.6238,41.3168],[13.6264,41.3165],[13.6279,41.3176],[13.6409,41.3192],[13.6513,41.318]]]}},{"type":"Feature","properties":{"i":"059009","n":"Gaeta"},"geometry":{"type":"Polygon","coordinates":[[[13.5794,41.2444],[13.5739,41.2402],[13.5701,41.2326],[13.5694,41.2252],[13.5712,41.2178],[13.5761,41.2148],[13.579,41.2144],[13.5895,41.2099],[13.5846,41.2069],[13.5753,41.2041],[13.5701,41.2041],[13.5707,41.2072],[13.5597,41.2106],[13.5549,41.2108],[13.5536,41.2089],[13.5456,41.2094],[13.5293,41.22],[13.5183,41.2247],[13.5126,41.2248],[13.5114,41.2241],[13.5123,41.2223],[13.5108,41.2215],[13.5033,41.2213],[13.5034,41.224],[13.5043,41.2246],[13.4849,41.2381],[13.4899,41.2395],[13.4938,41.2442],[13.5068,41.2501],[13.5295,41.2557],[13.5362,41.2564],[13.5516,41.2652],[13.5532,41.2618],[13.5645,41.2547],[13.5764,41.2488],[13.5794,41.2444]]]}},{"type":"Feature","properties":{"i":"059010","n":"Itri"},"geometry":{"type":"Polygon","coordinates":[[[13.6033,41.3372],[13.5978,41.3338],[13.5876,41.322],[13.5796,41.3179],[13.5765,41.3139],[13.5765,41.3121],[13.5784,41.3113],[13.5812,41.3068],[13.5775,41.2856],[13.5651,41.2787],[13.556,41.2679],[13.5362,41.2564],[13.5295,41.2557],[13.5131,41.2519],[13.5028,41.2484],[13.4938,41.2442],[13.4899,41.2395],[13.4872,41.2383],[13.4752,41.2394],[13.4748,41.2438],[13.4718,41.2455],[13.4702,41.2478],[13.4692,41.2521],[13.4706,41.2613],[13.4695,41.2655],[13.4658,41.2737],[13.4539,41.2827],[13.4527,41.285],[13.453,41.2872],[13.455,41.2914],[13.459,41.2957],[13.4644,41.3007],[13.4691,41.3027],[13.4726,41.3058],[13.4858,41.3194],[13.5128,41.3498],[13.5192,41.3511],[13.5334,41.3609],[13.5395,41.3605],[13.5509,41.3656],[13.5545,41.3682],[13.5589,41.3697],[13.5605,41.368],[13.573,41.3645],[13.5843,41.3585],[13.5918,41.3526],[13.5986,41.3442],[13.6024,41.3413],[13.6033,41.3372]]]}},{"type":"Feature","properties":{"i":"059011","n":"Latina"},"geometry":{"type":"Polygon","coordinates":[[[13.0247,41.4458],[12.9996,41.4279],[12.9989,41.4271],[13.0001,41.4256],[12.9924,41.4083],[12.97,41.3909],[12.948,41.3881],[12.9204,41.3864],[12.9186,41.386],[12.9152,41.3832],[12.9009,41.3917],[12.8806,41.4013],[12.8681,41.4067],[12.8514,41.4123],[12.8363,41.4149],[12.8069,41.4139],[12.797,41.4168],[12.7891,41.4179],[12.7808,41.4178],[12.7732,41.4163],[12.7749,41.4235],[12.7672,41.4355],[12.7542,41.4457],[12.7498,41.444],[12.7466,41.4442],[12.7387,41.4472],[12.7379,41.4565],[12.7396,41.4582],[12.7433,41.4589],[12.7465,41.4637],[12.7476,41.4742],[12.7436,41.479],[12.7401,41.4803],[12.7348,41.4801],[12.7273,41.4833],[12.7201,41.4995],[12.7232,41.5024],[12.7239,41.5007],[12.7269,41.4978],[12.7366,41.5042],[12.7387,41.5079],[12.7527,41.5176],[12.7631,41.5318],[12.7673,41.5434],[12.7711,41.5446],[12.7803,41.5455],[12.7818,41.5445],[12.7827,41.5403],[12.7894,41.5284],[12.7948,41.5238],[12.7992,41.5226],[12.8004,41.5201],[12.7982,41.5142],[12.796,41.5127],[12.792,41.5059],[12.7979,41.4907],[12.8057,41.4828],[12.8198,41.4789],[12.8221,41.4765],[12.8341,41.4743],[12.8367,41.4793],[12.833,41.4864],[12.8329,41.4928],[12.8382,41.5117],[12.8559,41.5262],[12.8651,41.5423],[12.8847,41.5549],[12.8867,41.5593],[12.8893,41.5619],[12.9521,41.5357],[12.9554,41.5298],[12.9535,41.5182],[12.9563,41.5139],[12.9568,41.5115],[12.9566,41.5103],[12.9539,41.5068],[12.9532,41.5013],[13.0247,41.4458]]]}},{"type":"Feature","properties":{"i":"059012","n":"Lenola"},"geometry":{"type":"Polygon","coordinates":[[[13.5125,41.4322],[13.5115,41.4236],[13.5097,41.4238],[13.5013,41.4183],[13.4931,41.411],[13.4926,41.4093],[13.496,41.3987],[13.4982,41.3946],[13.5036,41.3888],[13.506,41.3789],[13.4944,41.3756],[13.485,41.3816],[13.4769,41.3758],[13.4702,41.378],[13.4599,41.3791],[13.4542,41.3784],[13.4472,41.3763],[13.4404,41.3727],[13.4359,41.3742],[13.4349,41.3866],[13.4319,41.3909],[13.4285,41.3938],[13.4273,41.3973],[13.4282,41.4021],[13.4357,41.4174],[13.4388,41.4268],[13.4294,41.449],[13.432,41.4585],[13.4453,41.465],[13.4508,41.4611],[13.4525,41.4585],[13.4548,41.4501],[13.4556,41.4494],[13.4846,41.4386],[13.4937,41.4361],[13.4967,41.4367],[13.5053,41.4351],[13.5125,41.4322]]]}},{"type":"Feature","properties":{"i":"059013","n":"Maenza"},"geometry":{"type":"Polygon","coordinates":[[[13.1997,41.5786],[13.2014,41.5751],[13.2002,41.5724],[13.2001,41.5673],[13.2021,41.5549],[13.2079,41.5474],[13.2124,41.5434],[13.2184,41.5414],[13.2217,41.5388],[13.2258,41.5327],[13.2274,41.5266],[13.2276,41.5235],[13.226,41.517],[13.2238,41.5116],[13.216,41.5055],[13.1935,41.5071],[13.1831,41.5032],[13.1634,41.5078],[13.1671,41.5258],[13.1665,41.5356],[13.1471,41.5461],[13.1254,41.5498],[13.125,41.5504],[13.124,41.5566],[13.1302,41.5608],[13.1338,41.5611],[13.1454,41.565],[13.1502,41.5693],[13.1565,41.5721],[13.1684,41.5745],[13.1718,41.5778],[13.1751,41.5836],[13.1844,41.5845],[13.1853,41.5849],[13.1856,41.5878],[13.1949,41.5878],[13.1973,41.5871],[13.1997,41.5786]]]}},{"type":"Feature","properties":{"i":"059014","n":"Minturno"},"geometry":{"type":"Polygon","coordinates":[[[13.763,41.3014],[13.7633,41.2978],[13.7668,41.2922],[13.7746,41.2875],[13.7809,41.2819],[13.7876,41.2749],[13.7894,41.2716],[13.7882,41.2675],[13.7822,41.2594],[13.775,41.2468],[13.7737,41.2427],[13.7713,41.2414],[13.77,41.235],[13.7621,41.2226],[13.7381,41.2381],[13.7184,41.2487],[13.7074,41.2533],[13.7041,41.2536],[13.7007,41.2528],[13.689,41.2465],[13.6871,41.2489],[13.6862,41.2622],[13.6906,41.2689],[13.6946,41.2711],[13.7064,41.2747],[13.708,41.277],[13.718,41.2794],[13.7224,41.2816],[13.7291,41.2891],[13.7371,41.3004],[13.7487,41.3088],[13.754,41.3117],[13.7578,41.3107],[13.7617,41.3073],[13.7633,41.3046],[13.763,41.3014]]]}},{"type":"Feature","properties":{"i":"059015","n":"Monte San Biagio"},"geometry":{"type":"Polygon","coordinates":[[[13.3492,41.4046],[13.3602,41.3978],[13.3555,41.3932],[13.3548,41.386],[13.3563,41.3811],[13.3603,41.3782],[13.3677,41.3702],[13.3676,41.35],[13.3657,41.3404],[13.3672,41.3332],[13.3664,41.3312],[13.3605,41.324],[13.3471,41.3278],[13.3439,41.3335],[13.3427,41.3305],[13.3436,41.3284],[13.3414,41.3259],[13.3331,41.3256],[13.3305,41.3272],[13.324,41.3289],[13.3133,41.3254],[13.3097,41.331],[13.3067,41.3331],[13.2923,41.3276],[13.2869,41.3303],[13.2706,41.3529],[13.2694,41.3572],[13.2607,41.3646],[13.264,41.3689],[13.26,41.3801],[13.2571,41.3937],[13.2574,41.3954],[13.2601,41.3975],[13.2625,41.3979],[13.2795,41.3961],[13.2921,41.3971],[13.3011,41.4023],[13.3133,41.4021],[13.3179,41.4035],[13.321,41.4063],[13.3237,41.4067],[13.3365,41.4066],[13.3492,41.4046]]]}},{"type":"Feature","properties":{"i":"059016","n":"Norma"},"geometry":{"type":"Polygon","coordinates":[[[13.0251,41.5997],[13.0161,41.5933],[13.0112,41.5837],[13.0083,41.581],[12.9961,41.5814],[12.9829,41.5725],[12.9783,41.5705],[12.9741,41.5732],[12.9571,41.5807],[12.9554,41.5836],[12.9454,41.5887],[12.93,41.6021],[12.9275,41.6065],[12.9327,41.6085],[12.9409,41.6134],[12.95,41.6144],[12.9668,41.6131],[12.9728,41.6188],[12.9825,41.6354],[12.9871,41.6408],[13.0046,41.6199],[13.0158,41.612],[13.0215,41.6095],[13.0253,41.601],[13.0251,41.5997]]]}},{"type":"Feature","properties":{"i":"059017","n":"Pontinia"},"geometry":{"type":"Polygon","coordinates":[[[13.1899,41.4181],[13.1898,41.414],[13.1932,41.4072],[13.1825,41.3784],[13.173,41.3703],[13.1712,41.3679],[13.1699,41.3636],[13.1662,41.3596],[13.1545,41.3574],[13.1511,41.3561],[13.1471,41.3528],[13.146,41.3492],[13.1168,41.3287],[13.1024,41.3523],[13.0947,41.3669],[13.083,41.3787],[13.0589,41.392],[13.0518,41.3989],[13.0425,41.4051],[13.0252,41.4116],[13.0001,41.4256],[12.9989,41.4271],[13.0019,41.4299],[13.0247,41.4458],[13.0494,41.4271],[13.0823,41.4508],[13.0835,41.4507],[13.0944,41.442],[13.1206,41.46],[13.1264,41.4548],[13.1445,41.4422],[13.1499,41.4365],[13.1628,41.4306],[13.1816,41.4236],[13.1899,41.4181]]]}},{"type":"Feature","properties":{"i":"059018","n":"Ponza"},"geometry":{"type":"MultiPolygon","coordinates":[[[[12.9664,40.883],[12.9658,40.8836],[12.9666,40.8836],[12.9664,40.883]]],[[[12.9655,40.884],[12.9645,40.8844],[12.9649,40.8854],[12.9658,40.885],[12.9655,40.884]]],[[[12.9458,40.9122],[12.9451,40.9124],[12.9469,40.9124],[12.9458,40.9122]]],[[[12.9446,40.9126],[12.9431,40.9131],[12.9442,40.9141],[12.9446,40.9126]]],[[[12.8477,40.9219],[12.8465,40.9212],[12.8466,40.922],[12.8477,40.9219]]],[[[12.8487,40.9199],[12.8479,40.9218],[12.8489,40.9224],[12.8498,40.9215],[12.8487,40.9199]]],[[[12.8481,40.9249],[12.8494,40.9245],[12.8494,40.9234],[12.8471,40.9227],[12.8473,40.9249],[12.8481,40.9249]]],[[[12.9688,40.9222],[12.9619,40.9075],[12.9603,40.8981],[12.9644,40.8943],[12.9692,40.8939],[12.9632,40.8852],[12.954,40.8776],[12.9525,40.8782],[12.9477,40.887],[12.9545,40.8925],[12.9541,40.8949],[12.9522,40.8964],[12.9458,40.8961],[12.9429,40.8972],[12.9426,40.901],[12.9436,40.9056],[12.9475,40.9103],[12.9489,40.9176],[12.9483,40.9186],[12.9547,40.9218],[12.9587,40.9204],[12.9665,40.9234],[12.9687,40.9263],[12.9663,40.9283],[12.9842,40.9356],[12.9937,40.9347],[12.995,40.934],[12.9955,40.9325],[12.9923,40.93],[12.978,40.9269],[12.9688,40.9222]]],[[[13.0003,40.9327],[12.9969,40.934],[12.9982,40.9356],[13.0035,40.9375],[13.0035,40.9351],[13.0003,40.9327]]],[[[12.8527,40.9424],[12.8518,40.9425],[12.8526,40.9435],[12.8533,40.9429],[12.8527,40.9424]]],[[[12.8505,40.9425],[12.8498,40.9426],[12.8498,40.9437],[12.8507,40.9438],[12.8505,40.9425]]],[[[12.8502,40.9477],[12.8495,40.948],[12.8508,40.948],[12.8502,40.9477]]],[[[12.8598,40.945],[12.8615,40.9292],[12.853,40.9261],[12.851,40.9266],[12.8502,40.9287],[12.8545,40.9335],[12.8563,40.9425],[12.8557,40.9454],[12.8538,40.9477],[12.8542,40.9496],[12.8588,40.9482],[12.8598,40.945]]],[[[13.057,40.9645],[13.0484,40.9651],[13.046,40.9666],[13.0453,40.9684],[13.0461,40.97],[13.0509,40.9711],[13.0549,40.9739],[13.0578,40.9734],[13.0624,40.9701],[13.063,40.9678],[13.0629,40.9662],[13.061,40.965],[13.057,40.9645]]]]}},{"type":"Feature","properties":{"i":"059019","n":"Priverno"},"geometry":{"type":"Polygon","coordinates":[[[13.2272,41.4924],[13.2215,41.4919],[13.2022,41.4852],[13.1947,41.4784],[13.1933,41.4694],[13.196,41.4628],[13.2038,41.4548],[13.205,41.4468],[13.204,41.4424],[13.2021,41.4401],[13.2045,41.4368],[13.1969,41.4343],[13.1917,41.4244],[13.1899,41.4181],[13.1816,41.4236],[13.1628,41.4306],[13.1499,41.4365],[13.1445,41.4422],[13.1264,41.4548],[13.1206,41.46],[13.1123,41.4677],[13.1116,41.4696],[13.1134,41.4732],[13.1198,41.4814],[13.1189,41.4871],[13.1156,41.4882],[13.1083,41.4928],[13.1117,41.4961],[13.1184,41.4971],[13.1208,41.5],[13.1314,41.4996],[13.1483,41.5071],[13.1634,41.5078],[13.1831,41.5032],[13.1935,41.5071],[13.2156,41.5054],[13.2238,41.5116],[13.226,41.517],[13.2251,41.5012],[13.2272,41.4924]]]}},{"type":"Feature","properties":{"i":"059020","n":"Prossedi"},"geometry":{"type":"Polygon","coordinates":[[[13.2791,41.5083],[13.2793,41.4998],[13.2888,41.4899],[13.2888,41.486],[13.2944,41.4817],[13.2964,41.4766],[13.2974,41.4693],[13.2939,41.466],[13.2782,41.46],[13.2656,41.452],[13.2585,41.4548],[13.2549,41.4587],[13.2533,41.4613],[13.2523,41.4666],[13.2366,41.4903],[13.2348,41.4916],[13.2328,41.4911],[13.2326,41.4903],[13.2294,41.4903],[13.2272,41.4924],[13.2251,41.5012],[13.226,41.517],[13.2277,41.5254],[13.2258,41.5327],[13.2217,41.5388],[13.2331,41.5397],[13.2428,41.5391],[13.2527,41.5367],[13.2577,41.5342],[13.264,41.5302],[13.2709,41.5239],[13.2732,41.5206],[13.2776,41.5098],[13.2791,41.5083]]]}},{"type":"Feature","properties":{"i":"059021","n":"Roccagorga"},"geometry":{"type":"Polygon","coordinates":[[[13.1634,41.5078],[13.1483,41.5071],[13.1406,41.5032],[13.13,41.4993],[13.1208,41.5],[13.1192,41.5039],[13.1182,41.5092],[13.113,41.5145],[13.103,41.5182],[13.0984,41.5237],[13.0969,41.5296],[13.0978,41.5378],[13.1019,41.5417],[13.107,41.5505],[13.1112,41.5537],[13.1254,41.5498],[13.1471,41.5461],[13.1665,41.5356],[13.1671,41.5258],[13.1634,41.5078]]]}},{"type":"Feature","properties":{"i":"059022","n":"Rocca Massima"},"geometry":{"type":"Polygon","coordinates":[[[12.9521,41.6949],[12.9473,41.6897],[12.943,41.6865],[12.9431,41.6742],[12.9395,41.6715],[12.9154,41.6738],[12.897,41.6788],[12.8908,41.6817],[12.8922,41.6859],[12.8994,41.6901],[12.894,41.6954],[12.8854,41.6986],[12.8803,41.7018],[12.8788,41.7066],[12.8791,41.7082],[12.8803,41.7088],[12.8941,41.7116],[12.9042,41.7078],[12.9083,41.7072],[12.9203,41.7097],[12.924,41.7113],[12.9378,41.7129],[12.9427,41.7063],[12.9468,41.6984],[12.9488,41.6963],[12.9521,41.6949]]]}},{"type":"Feature","properties":{"i":"059023","n":"Roccasecca dei Volsci"},"geometry":{"type":"Polygon","coordinates":[[[13.2272,41.4924],[13.2294,41.4903],[13.2326,41.4903],[13.2328,41.4911],[13.2348,41.4916],[13.2366,41.4903],[13.2523,41.4666],[13.2533,41.4613],[13.2549,41.4587],[13.2585,41.4548],[13.2656,41.452],[13.2617,41.4468],[13.26,41.4398],[13.2547,41.4326],[13.2524,41.4333],[13.2467,41.4377],[13.2437,41.4414],[13.2418,41.4454],[13.2368,41.4497],[13.2337,41.4496],[13.2134,41.4403],[13.2072,41.4386],[13.2021,41.4401],[13.204,41.4424],[13.205,41.4468],[13.2038,41.4548],[13.196,41.4628],[13.1933,41.4694],[13.1947,41.4784],[13.2022,41.4852],[13.2215,41.4919],[13.2272,41.4924]]]}},{"type":"Feature","properties":{"i":"059024","n":"Sabaudia"},"geometry":{"type":"Polygon","coordinates":[[[13.1168,41.3287],[13.0609,41.2854],[13.0634,41.2819],[13.0672,41.2721],[13.0672,41.2647],[13.0656,41.2603],[13.071,41.2444],[13.0591,41.2431],[13.0524,41.2464],[13.0451,41.2483],[13.0396,41.2482],[13.0357,41.2474],[13.0285,41.2651],[13.0135,41.2922],[12.9986,41.3137],[12.9854,41.3295],[12.9717,41.3442],[12.9641,41.351],[12.9448,41.3656],[12.9155,41.3833],[12.9186,41.386],[12.9204,41.3864],[12.948,41.3881],[12.97,41.3909],[12.9924,41.4083],[13.0001,41.4256],[13.0262,41.4111],[13.0425,41.4051],[13.0518,41.3989],[13.0589,41.392],[13.083,41.3787],[13.0947,41.3669],[13.1024,41.3523],[13.1168,41.3287]]]}},{"type":"Feature","properties":{"i":"059025","n":"San Felice Circeo"},"geometry":{"type":"Polygon","coordinates":[[[13.1353,41.2583],[13.1296,41.2541],[13.1168,41.2485],[13.1067,41.242],[13.0936,41.2253],[13.0729,41.2225],[13.0573,41.2242],[13.0463,41.2266],[13.0414,41.23],[13.0336,41.241],[13.0334,41.2445],[13.0343,41.2473],[13.0396,41.2482],[13.0451,41.2483],[13.0494,41.2473],[13.0591,41.2431],[13.071,41.2444],[13.0656,41.2603],[13.0672,41.2647],[13.0672,41.2721],[13.0631,41.2825],[13.1115,41.2852],[13.1143,41.2823],[13.1219,41.2694],[13.1353,41.2583]]]}},{"type":"Feature","properties":{"i":"059026","n":"Santi Cosma e Damiano"},"geometry":{"type":"Polygon","coordinates":[[[13.8284,41.281],[13.8276,41.2775],[13.8287,41.2697],[13.8307,41.2664],[13.834,41.2669],[13.84,41.2624],[13.8383,41.2593],[13.8356,41.2602],[13.8336,41.255],[13.815,41.2445],[13.811,41.2468],[13.8049,41.2469],[13.7949,41.2452],[13.7882,41.242],[13.7783,41.2435],[13.7737,41.2427],[13.775,41.2468],[13.7822,41.2594],[13.7882,41.2675],[13.7894,41.2716],[13.7876,41.2749],[13.7809,41.2819],[13.7746,41.2875],[13.7668,41.2922],[13.7633,41.2978],[13.763,41.3014],[13.7824,41.3089],[13.7915,41.3101],[13.7937,41.3124],[13.7965,41.318],[13.8021,41.3196],[13.8148,41.3201],[13.8198,41.3215],[13.8206,41.3165],[13.8199,41.3145],[13.8175,41.3128],[13.8192,41.2977],[13.821,41.2918],[13.8277,41.2834],[13.8284,41.281]]]}},{"type":"Feature","properties":{"i":"059027","n":"Sermoneta"},"geometry":{"type":"Polygon","coordinates":[[[12.9829,41.5725],[12.9881,41.5704],[12.9971,41.5638],[13.0017,41.5614],[13.0079,41.5594],[13.0117,41.5552],[13.0154,41.5488],[13.0195,41.5373],[12.9991,41.5264],[12.9931,41.5184],[12.9915,41.5157],[12.991,41.513],[12.9891,41.5106],[12.9872,41.5086],[12.9798,41.505],[12.9794,41.501],[12.9801,41.4945],[12.9835,41.4903],[12.9839,41.4884],[12.977,41.4832],[12.9532,41.5013],[12.9539,41.5068],[12.9566,41.5103],[12.9568,41.5115],[12.9563,41.5139],[12.9535,41.5182],[12.9554,41.5298],[12.9521,41.5357],[12.9221,41.5482],[12.9213,41.5538],[12.9148,41.5577],[12.9156,41.5632],[12.9251,41.572],[12.9377,41.578],[12.9413,41.5779],[12.949,41.5734],[12.9547,41.5712],[12.9568,41.5736],[12.9562,41.5759],[12.9571,41.5807],[12.9741,41.5732],[12.9783,41.5705],[12.9829,41.5725]]]}},{"type":"Feature","properties":{"i":"059028","n":"Sezze"},"geometry":{"type":"Polygon","coordinates":[[[13.1037,41.545],[13.1019,41.5417],[13.0978,41.5378],[13.0969,41.5305],[13.0973,41.5262],[13.0989,41.5229],[13.103,41.5182],[13.113,41.5145],[13.1182,41.5092],[13.1191,41.5072],[13.1192,41.5039],[13.1207,41.4992],[13.1175,41.4967],[13.1117,41.4961],[13.1083,41.4928],[13.1156,41.4882],[13.1189,41.4871],[13.1198,41.4814],[13.1134,41.4732],[13.1116,41.4696],[13.1123,41.4677],[13.1206,41.46],[13.0949,41.4422],[13.0829,41.451],[13.0494,41.4271],[12.977,41.4832],[12.9839,41.4884],[12.9835,41.4903],[12.9801,41.4945],[12.9794,41.501],[12.9798,41.505],[12.9872,41.5086],[12.991,41.513],[12.9915,41.5157],[12.998,41.5119],[13.0073,41.5155],[13.0212,41.5105],[13.0283,41.516],[13.0411,41.5293],[13.0586,41.5363],[13.0646,41.5433],[13.0771,41.5556],[13.0802,41.5609],[13.0852,41.5597],[13.0956,41.5542],[13.1037,41.545]]]}},{"type":"Feature","properties":{"i":"059029","n":"Sonnino"},"geometry":{"type":"Polygon","coordinates":[[[13.2547,41.4326],[13.2708,41.4289],[13.293,41.4192],[13.3065,41.4026],[13.3011,41.4023],[13.2921,41.3971],[13.2795,41.3961],[13.2611,41.3978],[13.2574,41.3954],[13.2571,41.3937],[13.26,41.3801],[13.264,41.3697],[13.2636,41.3681],[13.2607,41.3646],[13.2599,41.3615],[13.2606,41.3571],[13.2479,41.356],[13.2435,41.3577],[13.2312,41.3558],[13.2231,41.356],[13.2113,41.3596],[13.2092,41.3609],[13.1948,41.3617],[13.1891,41.3718],[13.1845,41.3752],[13.1825,41.3784],[13.1932,41.4072],[13.1898,41.414],[13.1899,41.4181],[13.1917,41.4244],[13.1969,41.4343],[13.2043,41.4365],[13.2021,41.4401],[13.2072,41.4386],[13.2134,41.4403],[13.2337,41.4496],[13.2368,41.4497],[13.2418,41.4454],[13.2437,41.4414],[13.2467,41.4377],[13.2524,41.4333],[13.2547,41.4326]]]}},{"type":"Feature","properties":{"i":"059030","n":"Sperlonga"},"geometry":{"type":"Polygon","coordinates":[[[13.4752,41.2394],[13.4716,41.2373],[13.4635,41.2404],[13.4611,41.2417],[13.4595,41.2445],[13.4442,41.253],[13.4283,41.2593],[13.4102,41.2684],[13.3961,41.2736],[13.3969,41.276],[13.4046,41.2848],[13.4064,41.2889],[13.4197,41.289],[13.4227,41.2885],[13.4302,41.2867],[13.4387,41.2819],[13.4497,41.2852],[13.4534,41.288],[13.4527,41.2857],[13.4531,41.2837],[13.4658,41.2737],[13.4695,41.2655],[13.4706,41.2606],[13.4692,41.2516],[13.4706,41.247],[13.4748,41.2438],[13.4752,41.2394]]]}},{"type":"Feature","properties":{"i":"059031","n":"Spigno Saturnia"},"geometry":{"type":"Polygon","coordinates":[[[13.7092,41.3582],[13.7106,41.358],[13.7119,41.3552],[13.7124,41.3411],[13.7147,41.337],[13.7171,41.3349],[13.7208,41.3333],[13.733,41.3295],[13.7435,41.3214],[13.7485,41.3162],[13.7524,41.3148],[13.754,41.3117],[13.7487,41.3088],[13.7371,41.3004],[13.7291,41.2891],[13.7224,41.2816],[13.718,41.2794],[13.708,41.277],[13.7039,41.2779],[13.685,41.3032],[13.6782,41.3075],[13.6512,41.3147],[13.6505,41.3174],[13.6545,41.3204],[13.6515,41.3263],[13.6518,41.3283],[13.6577,41.3378],[13.6682,41.3431],[13.6729,41.3414],[13.6824,41.3395],[13.6886,41.3437],[13.6933,41.3508],[13.6993,41.3565],[13.7042,41.3586],[13.7092,41.3582]]]}},{"type":"Feature","properties":{"i":"059032","n":"Terracina"},"geometry":{"type":"Polygon","coordinates":[[[13.2607,41.3646],[13.2694,41.3572],[13.2706,41.3529],[13.2869,41.3303],[13.2923,41.3276],[13.3067,41.3331],[13.3097,41.331],[13.3133,41.3254],[13.3022,41.3151],[13.3006,41.3106],[13.2831,41.2992],[13.2813,41.2972],[13.2723,41.2962],[13.2661,41.2945],[13.2576,41.283],[13.2364,41.2843],[13.2176,41.2842],[13.2075,41.2833],[13.1879,41.2794],[13.1719,41.2751],[13.1353,41.2583],[13.1219,41.2694],[13.1143,41.2823],[13.1115,41.2852],[13.0631,41.2825],[13.0609,41.2851],[13.1147,41.3271],[13.146,41.3492],[13.1471,41.3528],[13.1511,41.3561],[13.1545,41.3574],[13.1662,41.3596],[13.1699,41.3636],[13.1712,41.3679],[13.173,41.3703],[13.1825,41.3784],[13.1845,41.3752],[13.1891,41.3718],[13.1948,41.3617],[13.2092,41.3609],[13.2113,41.3596],[13.2231,41.356],[13.2312,41.3558],[13.2435,41.3577],[13.2479,41.356],[13.2606,41.3571],[13.2599,41.3615],[13.2607,41.3646]]]}},{"type":"Feature","properties":{"i":"059033","n":"Ventotene"},"geometry":{"type":"MultiPolygon","coordinates":[[[[13.4565,40.7918],[13.459,40.7898],[13.4581,40.7884],[13.4561,40.7872],[13.4511,40.7876],[13.4502,40.7904],[13.4513,40.7916],[13.4535,40.7924],[13.4565,40.7918]]],[[[13.4318,40.8031],[13.4336,40.8017],[13.4354,40.7971],[13.4283,40.7904],[13.4145,40.785],[13.4089,40.7848],[13.4076,40.7855],[13.4185,40.7925],[13.4318,40.8031]]]]}}]}
