{"type":"FeatureCollection","fonte":"Confini comunali ISTAT via openpolis/geojson-italy — CC BY 4.0","features":[{"type":"Feature","properties":{"i":"046001","n":"Altopascio"},"geometry":{"type":"Polygon","coordinates":[[[10.7054,43.8427],[10.7065,43.8428],[10.7201,43.8326],[10.7263,43.8192],[10.7279,43.8133],[10.7272,43.811],[10.7184,43.8002],[10.7111,43.7864],[10.6988,43.7969],[10.6925,43.8009],[10.6863,43.8025],[10.6834,43.8019],[10.6671,43.8049],[10.6536,43.8014],[10.6455,43.795],[10.6368,43.8011],[10.6301,43.8005],[10.6325,43.8243],[10.6365,43.8312],[10.6638,43.8223],[10.6692,43.8278],[10.6747,43.827],[10.6795,43.8385],[10.684,43.8444],[10.6949,43.8449],[10.7021,43.8422],[10.7054,43.8427]]]}},{"type":"Feature","properties":{"i":"046002","n":"Bagni di Lucca"},"geometry":{"type":"Polygon","coordinates":[[[10.6287,44.1176],[10.6419,44.1086],[10.6491,44.1072],[10.6543,44.1091],[10.6631,44.1094],[10.6815,44.105],[10.6883,44.0984],[10.7125,44.0886],[10.7223,44.083],[10.7251,44.0638],[10.7187,44.0519],[10.719,44.0443],[10.7268,44.0393],[10.7307,44.0387],[10.735,44.0327],[10.7378,44.0249],[10.7275,44.0185],[10.7237,44.0174],[10.711,44.0176],[10.7055,44.0146],[10.6996,44.0105],[10.6973,44.0077],[10.696,44.0031],[10.69,43.996],[10.6768,43.9844],[10.6706,43.9862],[10.6354,43.9811],[10.6199,43.9742],[10.6025,43.9572],[10.5894,43.9534],[10.5868,43.9546],[10.5845,43.9573],[10.5766,43.9699],[10.5802,43.9715],[10.5823,43.9763],[10.5763,43.9782],[10.5693,43.9831],[10.5636,43.9883],[10.571,44.0062],[10.5625,44.0059],[10.5567,44.0012],[10.5527,44.0],[10.5513,44.0007],[10.5424,44.0118],[10.5395,44.0177],[10.5512,44.0262],[10.5642,44.0429],[10.5703,44.0469],[10.5901,44.0784],[10.5969,44.0879],[10.5982,44.0882],[10.6026,44.0932],[10.6063,44.1004],[10.6077,44.1082],[10.6067,44.1119],[10.6093,44.1163],[10.6164,44.1179],[10.6257,44.1164],[10.6287,44.1176]]]}},{"type":"Feature","properties":{"i":"046003","n":"Barga"},"geometry":{"type":"Polygon","coordinates":[[[10.5835,44.1203],[10.5755,44.1203],[10.5699,44.1186],[10.5616,44.1148],[10.5604,44.1132],[10.5505,44.1071],[10.5466,44.1069],[10.5436,44.1057],[10.538,44.0944],[10.5317,44.0775],[10.5285,44.0727],[10.5167,44.0658],[10.5129,44.0626],[10.5048,44.053],[10.4953,44.0397],[10.4911,44.0369],[10.49,44.0387],[10.4858,44.0389],[10.4841,44.038],[10.4699,44.0429],[10.4586,44.0485],[10.4458,44.0662],[10.4431,44.0735],[10.4441,44.0814],[10.4527,44.0898],[10.4564,44.0914],[10.4574,44.0915],[10.4582,44.0903],[10.4623,44.091],[10.4738,44.0958],[10.4785,44.0987],[10.4894,44.1091],[10.494,44.1157],[10.4936,44.1171],[10.4904,44.1201],[10.4898,44.1247],[10.4903,44.1262],[10.4966,44.1319],[10.4988,44.1321],[10.5042,44.1354],[10.5107,44.1465],[10.5106,44.1485],[10.5117,44.1516],[10.514,44.1544],[10.5249,44.157],[10.5426,44.1499],[10.5526,44.145],[10.5688,44.1365],[10.5758,44.1319],[10.5814,44.1268],[10.5835,44.1203]]]}},{"type":"Feature","properties":{"i":"046004","n":"Borgo a Mozzano"},"geometry":{"type":"Polygon","coordinates":[[[10.5395,44.0177],[10.5424,44.0118],[10.5513,44.0007],[10.5527,44.0],[10.5567,44.0012],[10.5625,44.0059],[10.571,44.0062],[10.5636,43.9883],[10.5693,43.9831],[10.5763,43.9782],[10.5823,43.9763],[10.5802,43.9715],[10.5766,43.9699],[10.5865,43.9548],[10.5894,43.9534],[10.5915,43.9537],[10.5955,43.943],[10.5924,43.9394],[10.591,43.9382],[10.5879,43.9377],[10.5698,43.9425],[10.5565,43.9476],[10.5431,43.951],[10.5351,43.9502],[10.528,43.9478],[10.5261,43.9481],[10.5231,43.9506],[10.5175,43.9583],[10.5155,43.9597],[10.5102,43.9566],[10.5057,43.9523],[10.5009,43.9381],[10.5068,43.9349],[10.5062,43.931],[10.4954,43.9226],[10.4826,43.9283],[10.4766,43.9301],[10.4698,43.9282],[10.4635,43.9243],[10.4543,43.9273],[10.4491,43.9302],[10.4438,43.9372],[10.4591,43.948],[10.4583,43.9499],[10.4562,43.9516],[10.4541,43.9572],[10.4583,43.9607],[10.4634,43.9629],[10.4806,43.9621],[10.4866,43.964],[10.485,43.9716],[10.4826,43.9731],[10.4881,43.9792],[10.4907,43.9801],[10.4939,43.9844],[10.4939,43.9861],[10.4909,43.9914],[10.4825,43.9947],[10.4779,43.9944],[10.4676,43.9955],[10.4651,43.9971],[10.4663,44.0025],[10.4652,44.0058],[10.466,44.0077],[10.4731,44.0116],[10.469,44.0148],[10.4698,44.0157],[10.4734,44.0169],[10.4843,44.0183],[10.4891,44.0251],[10.4928,44.0322],[10.499,44.026],[10.5253,44.0196],[10.5346,44.0199],[10.5395,44.0177]]]}},{"type":"Feature","properties":{"i":"046005","n":"Camaiore"},"geometry":{"type":"Polygon","coordinates":[[[10.413,43.9033],[10.4078,43.899],[10.3982,43.8984],[10.388,43.8989],[10.3864,43.8963],[10.386,43.8931],[10.3869,43.8909],[10.3889,43.8894],[10.3909,43.8848],[10.3781,43.881],[10.3691,43.8819],[10.3634,43.8811],[10.3606,43.8859],[10.3618,43.8887],[10.3749,43.8979],[10.3774,43.9016],[10.3728,43.9035],[10.3625,43.9049],[10.3536,43.9029],[10.3475,43.8999],[10.3333,43.8995],[10.3255,43.9057],[10.3243,43.908],[10.3092,43.9188],[10.3042,43.9212],[10.3013,43.9186],[10.2954,43.9156],[10.2926,43.919],[10.2669,43.9132],[10.2642,43.9085],[10.2645,43.9017],[10.2538,43.896],[10.2332,43.8905],[10.2274,43.8878],[10.2099,43.9106],[10.2216,43.916],[10.2445,43.9327],[10.2537,43.9426],[10.2676,43.9535],[10.2791,43.9642],[10.2787,43.9615],[10.2773,43.9601],[10.2823,43.9582],[10.2931,43.9591],[10.3031,43.9611],[10.3039,43.9621],[10.3166,43.9674],[10.3316,43.9712],[10.3397,43.9745],[10.3518,43.9733],[10.3556,43.9753],[10.3626,43.9552],[10.3673,43.9486],[10.3724,43.9453],[10.3847,43.9418],[10.3925,43.9422],[10.4047,43.9323],[10.4076,43.9313],[10.4115,43.9285],[10.4152,43.9211],[10.4144,43.9173],[10.4138,43.916],[10.4062,43.9142],[10.4044,43.9121],[10.4067,43.9057],[10.4111,43.9035],[10.413,43.9033]]]}},{"type":"Feature","properties":{"i":"046006","n":"Camporgiano"},"geometry":{"type":"Polygon","coordinates":[[[10.3236,44.1705],[10.3329,44.1678],[10.3503,44.1548],[10.3588,44.1538],[10.3612,44.1503],[10.3611,44.1492],[10.3694,44.1383],[10.3832,44.1322],[10.3812,44.132],[10.3765,44.1273],[10.3686,44.1222],[10.3602,44.1186],[10.3438,44.1097],[10.3418,44.1142],[10.3417,44.1239],[10.3408,44.1271],[10.3381,44.1327],[10.3344,44.1368],[10.3321,44.1382],[10.3227,44.1364],[10.3142,44.132],[10.3119,44.137],[10.3131,44.1393],[10.3132,44.1415],[10.3118,44.1434],[10.3074,44.1461],[10.2991,44.1502],[10.2836,44.1464],[10.2783,44.1459],[10.2707,44.1546],[10.2737,44.159],[10.2756,44.1636],[10.2809,44.1682],[10.2933,44.1744],[10.3047,44.1753],[10.3139,44.173],[10.3171,44.171],[10.3236,44.1705]]]}},{"type":"Feature","properties":{"i":"046007","n":"Capannori"},"geometry":{"type":"Polygon","coordinates":[[[10.6485,43.9109],[10.6477,43.9093],[10.6481,43.9081],[10.652,43.899],[10.6544,43.8953],[10.658,43.8927],[10.6583,43.8913],[10.6563,43.8873],[10.6501,43.8809],[10.6506,43.8696],[10.6529,43.8679],[10.6585,43.8673],[10.6448,43.8519],[10.6418,43.847],[10.6334,43.8491],[10.6328,43.8534],[10.6262,43.8562],[10.6089,43.8598],[10.6025,43.8591],[10.5996,43.8584],[10.5994,43.8576],[10.6014,43.8384],[10.6055,43.8328],[10.6059,43.8313],[10.6022,43.8275],[10.596,43.8183],[10.596,43.8112],[10.5981,43.8074],[10.6136,43.7939],[10.6154,43.7935],[10.616,43.7959],[10.6246,43.7991],[10.6301,43.8005],[10.6368,43.8011],[10.6455,43.795],[10.6363,43.7742],[10.6227,43.7567],[10.6143,43.7553],[10.6089,43.7555],[10.597,43.7592],[10.5964,43.7609],[10.5896,43.7601],[10.5601,43.7525],[10.554,43.7497],[10.5529,43.7519],[10.5484,43.7541],[10.5261,43.7616],[10.5009,43.7533],[10.4951,43.7582],[10.4975,43.7636],[10.4985,43.7703],[10.497,43.7727],[10.4919,43.775],[10.4883,43.7803],[10.4908,43.788],[10.4948,43.7957],[10.494,43.8112],[10.4967,43.8173],[10.4987,43.8192],[10.5117,43.8203],[10.5153,43.8235],[10.5222,43.8242],[10.5226,43.8218],[10.5276,43.8219],[10.531,43.8254],[10.5341,43.8379],[10.5383,43.8409],[10.5392,43.8403],[10.5395,43.8379],[10.5451,43.8377],[10.5554,43.839],[10.5591,43.8406],[10.5596,43.8471],[10.5574,43.8541],[10.5485,43.8689],[10.5495,43.8698],[10.5491,43.8771],[10.5452,43.8801],[10.5299,43.8854],[10.5294,43.8876],[10.5339,43.8966],[10.5491,43.8976],[10.5613,43.9008],[10.5687,43.905],[10.5614,43.9232],[10.5623,43.9285],[10.568,43.9347],[10.5725,43.9368],[10.5753,43.9413],[10.5879,43.9377],[10.591,43.9382],[10.5955,43.943],[10.5975,43.9381],[10.5966,43.9368],[10.5996,43.9328],[10.612,43.9312],[10.6149,43.9286],[10.6178,43.9248],[10.6171,43.9231],[10.6147,43.9213],[10.6159,43.9178],[10.6275,43.915],[10.6434,43.9125],[10.6485,43.9109]]]}},{"type":"Feature","properties":{"i":"046008","n":"Careggine"},"geometry":{"type":"Polygon","coordinates":[[[10.3438,44.1097],[10.3453,44.1062],[10.3448,44.0907],[10.3397,44.0851],[10.3375,44.0846],[10.3401,44.0798],[10.3442,44.0767],[10.3445,44.0755],[10.3322,44.0697],[10.3292,44.067],[10.3282,44.0688],[10.3077,44.0604],[10.2946,44.0618],[10.2875,44.0648],[10.2853,44.0705],[10.2871,44.0759],[10.2906,44.0761],[10.3104,44.089],[10.3111,44.0987],[10.3076,44.1135],[10.3035,44.1225],[10.3061,44.1283],[10.3074,44.1296],[10.3142,44.132],[10.3227,44.1364],[10.3321,44.1382],[10.3372,44.1341],[10.3408,44.1271],[10.3417,44.1239],[10.3418,44.1142],[10.3438,44.1097]]]}},{"type":"Feature","properties":{"i":"046009","n":"Castelnuovo di Garfagnana"},"geometry":{"type":"Polygon","coordinates":[[[10.4418,44.1184],[10.4449,44.1177],[10.4507,44.1142],[10.4517,44.1114],[10.4506,44.1076],[10.4486,44.1061],[10.4447,44.1053],[10.4398,44.1059],[10.4337,44.1035],[10.4286,44.1004],[10.421,44.0929],[10.4181,44.092],[10.4056,44.0912],[10.4001,44.0945],[10.3899,44.0973],[10.3894,44.0896],[10.3882,44.0876],[10.3848,44.0849],[10.3833,44.0882],[10.3802,44.0894],[10.3739,44.0874],[10.3666,44.0826],[10.3453,44.0768],[10.3413,44.0784],[10.3375,44.0846],[10.3397,44.0851],[10.3448,44.0907],[10.3453,44.1062],[10.3438,44.1097],[10.3602,44.1186],[10.3686,44.1222],[10.3765,44.1273],[10.3814,44.1322],[10.3832,44.1322],[10.389,44.1275],[10.3956,44.1248],[10.3997,44.1255],[10.4027,44.1275],[10.4181,44.1234],[10.4244,44.1203],[10.4292,44.1154],[10.435,44.1133],[10.4418,44.1184]]]}},{"type":"Feature","properties":{"i":"046010","n":"Castiglione di Garfagnana"},"geometry":{"type":"Polygon","coordinates":[[[10.4701,44.2261],[10.475,44.2238],[10.4838,44.2231],[10.4888,44.2205],[10.4918,44.2176],[10.4909,44.214],[10.4867,44.2069],[10.4869,44.2025],[10.4892,44.1985],[10.4934,44.1952],[10.5053,44.1886],[10.51,44.1869],[10.5229,44.1748],[10.5172,44.1726],[10.5041,44.1774],[10.5012,44.1776],[10.4818,44.1734],[10.4715,44.1686],[10.4673,44.1637],[10.4604,44.167],[10.4529,44.1672],[10.4422,44.1654],[10.4413,44.1604],[10.4424,44.153],[10.4387,44.1465],[10.4313,44.142],[10.4202,44.1371],[10.4143,44.1378],[10.4063,44.1357],[10.4012,44.1312],[10.4009,44.1287],[10.3972,44.1298],[10.3934,44.1443],[10.3858,44.1466],[10.3827,44.1494],[10.3831,44.1507],[10.3842,44.1523],[10.3857,44.1525],[10.3955,44.1507],[10.4001,44.1546],[10.4055,44.1605],[10.4133,44.1793],[10.4127,44.1848],[10.4219,44.1921],[10.4269,44.1989],[10.4314,44.2015],[10.4381,44.2023],[10.4404,44.2065],[10.4403,44.2075],[10.4362,44.2104],[10.4345,44.2152],[10.4336,44.2219],[10.4347,44.2252],[10.4357,44.2262],[10.4402,44.2265],[10.4426,44.2282],[10.452,44.2295],[10.4664,44.2297],[10.4701,44.2261]],[[10.4807,44.1895],[10.4818,44.1904],[10.4806,44.1902],[10.4807,44.1895]]]}},{"type":"Feature","properties":{"i":"046011","n":"Coreglia Antelminelli"},"geometry":{"type":"Polygon","coordinates":[[[10.6287,44.1176],[10.6257,44.1164],[10.6164,44.1179],[10.6093,44.1163],[10.6067,44.1119],[10.6077,44.1082],[10.6063,44.1004],[10.6026,44.0932],[10.5982,44.0882],[10.5969,44.0879],[10.5901,44.0784],[10.5703,44.0469],[10.5642,44.0429],[10.5512,44.0262],[10.541,44.0186],[10.5395,44.0177],[10.5346,44.0199],[10.5253,44.0196],[10.499,44.026],[10.4928,44.0322],[10.4911,44.0369],[10.4953,44.0397],[10.5048,44.053],[10.5129,44.0626],[10.5167,44.0658],[10.5274,44.0718],[10.5302,44.0751],[10.5414,44.102],[10.544,44.106],[10.5505,44.1071],[10.5604,44.1132],[10.5616,44.1148],[10.5687,44.1181],[10.5755,44.1203],[10.5835,44.1203],[10.5855,44.1186],[10.5931,44.1154],[10.6038,44.1147],[10.6051,44.1147],[10.6098,44.1186],[10.6241,44.1204],[10.6287,44.1176]]]}},{"type":"Feature","properties":{"i":"046013","n":"Forte dei Marmi"},"geometry":{"type":"Polygon","coordinates":[[[10.172,43.9786],[10.1714,43.9782],[10.173,43.9766],[10.1842,43.9669],[10.1905,43.97],[10.1973,43.9696],[10.1995,43.9609],[10.1985,43.9586],[10.1933,43.9521],[10.1863,43.948],[10.1806,43.9428],[10.1582,43.9633],[10.1431,43.9756],[10.156,43.981],[10.1668,43.9823],[10.172,43.9786]]]}},{"type":"Feature","properties":{"i":"046014","n":"Fosciandora"},"geometry":{"type":"Polygon","coordinates":[[[10.5249,44.157],[10.5137,44.1542],[10.5117,44.1516],[10.5106,44.1485],[10.5107,44.1465],[10.5042,44.1354],[10.4988,44.1321],[10.4966,44.1319],[10.4903,44.1262],[10.4898,44.1247],[10.4904,44.1201],[10.4936,44.1171],[10.494,44.1157],[10.4894,44.1091],[10.4773,44.0977],[10.4646,44.0916],[10.4588,44.0903],[10.4574,44.0908],[10.4579,44.0939],[10.4566,44.0991],[10.4548,44.1014],[10.4486,44.1061],[10.4506,44.1076],[10.4515,44.1104],[10.4507,44.1142],[10.4449,44.1177],[10.4418,44.1184],[10.4419,44.1197],[10.446,44.1242],[10.467,44.1395],[10.486,44.1426],[10.4889,44.1469],[10.4994,44.1573],[10.5197,44.1672],[10.5249,44.157]]]}},{"type":"Feature","properties":{"i":"046015","n":"Gallicano"},"geometry":{"type":"MultiPolygon","coordinates":[[[[10.4911,44.0369],[10.4928,44.0322],[10.4891,44.0251],[10.4843,44.0183],[10.4716,44.0165],[10.469,44.0148],[10.4672,44.0157],[10.4628,44.0205],[10.4607,44.028],[10.4526,44.0276],[10.4463,44.0339],[10.442,44.0333],[10.4362,44.0307],[10.4337,44.0271],[10.4205,44.022],[10.4073,44.0195],[10.3995,44.0249],[10.3866,44.0419],[10.3894,44.0467],[10.3914,44.0482],[10.3986,44.0506],[10.4037,44.05],[10.4095,44.0513],[10.4144,44.0538],[10.4163,44.0568],[10.4156,44.0605],[10.4189,44.06],[10.4234,44.0617],[10.4306,44.0674],[10.4319,44.069],[10.4319,44.0714],[10.4329,44.0725],[10.4428,44.0746],[10.4458,44.0662],[10.4586,44.0485],[10.4699,44.0429],[10.4841,44.038],[10.4858,44.0389],[10.49,44.0387],[10.4911,44.0369]]],[[[10.4574,44.0915],[10.4527,44.0898],[10.4441,44.0814],[10.4313,44.0899],[10.4259,44.0918],[10.4233,44.0948],[10.4286,44.1004],[10.4337,44.1035],[10.4398,44.1059],[10.4447,44.1053],[10.4486,44.1061],[10.4548,44.1014],[10.4566,44.0991],[10.4579,44.0939],[10.4574,44.0915]]]]}},{"type":"Feature","properties":{"i":"046017","n":"Lucca"},"geometry":{"type":"Polygon","coordinates":[[[10.5753,43.9413],[10.5725,43.9368],[10.568,43.9347],[10.5623,43.9285],[10.5618,43.9265],[10.5614,43.9232],[10.5687,43.905],[10.5613,43.9008],[10.5491,43.8976],[10.5339,43.8966],[10.5294,43.8876],[10.5299,43.8854],[10.5452,43.8801],[10.5491,43.8771],[10.5495,43.8698],[10.5485,43.8689],[10.5574,43.8541],[10.5596,43.8471],[10.5591,43.8406],[10.5554,43.839],[10.5451,43.8377],[10.5395,43.8379],[10.5392,43.8403],[10.5383,43.8409],[10.5341,43.8379],[10.531,43.8254],[10.5276,43.8219],[10.5226,43.8218],[10.5222,43.8242],[10.5153,43.8235],[10.5117,43.8203],[10.4987,43.8192],[10.4967,43.8173],[10.494,43.8112],[10.4948,43.7957],[10.4908,43.788],[10.4883,43.7803],[10.4919,43.775],[10.497,43.7727],[10.4985,43.7703],[10.4975,43.7636],[10.4951,43.7582],[10.4852,43.7602],[10.4662,43.7662],[10.452,43.767],[10.4416,43.7778],[10.4401,43.7809],[10.4393,43.7883],[10.4407,43.79],[10.4508,43.7943],[10.452,43.8045],[10.4492,43.8075],[10.4464,43.8091],[10.4447,43.8083],[10.4354,43.8127],[10.4298,43.8215],[10.427,43.8329],[10.4256,43.8348],[10.4236,43.8343],[10.4188,43.8307],[10.4138,43.8223],[10.4124,43.8253],[10.4098,43.8272],[10.4065,43.8265],[10.4048,43.8248],[10.3804,43.8126],[10.3773,43.8127],[10.3737,43.8144],[10.3742,43.8147],[10.3736,43.8191],[10.3688,43.8239],[10.3647,43.8312],[10.3676,43.8396],[10.3751,43.8422],[10.3943,43.8425],[10.3961,43.8432],[10.3966,43.8455],[10.3919,43.8501],[10.3875,43.8524],[10.3772,43.8535],[10.3732,43.8557],[10.3695,43.8596],[10.3702,43.8644],[10.3664,43.8724],[10.3632,43.8749],[10.3602,43.8791],[10.3654,43.8818],[10.3781,43.881],[10.3909,43.8848],[10.3889,43.8894],[10.3869,43.8909],[10.386,43.8931],[10.3864,43.8963],[10.388,43.8989],[10.3982,43.8984],[10.4078,43.899],[10.413,43.9033],[10.4165,43.903],[10.4252,43.9074],[10.4315,43.9088],[10.444,43.907],[10.4476,43.9055],[10.4529,43.9136],[10.4605,43.9218],[10.4698,43.9282],[10.4766,43.9301],[10.4826,43.9283],[10.4954,43.9226],[10.5062,43.931],[10.5068,43.9349],[10.5009,43.9381],[10.5057,43.9523],[10.5102,43.9566],[10.5155,43.9597],[10.5175,43.9583],[10.5231,43.9506],[10.5261,43.9481],[10.528,43.9478],[10.5351,43.9502],[10.5431,43.951],[10.5565,43.9476],[10.5698,43.9425],[10.5753,43.9413]]]}},{"type":"Feature","properties":{"i":"046018","n":"Massarosa"},"geometry":{"type":"Polygon","coordinates":[[[10.3634,43.8811],[10.3602,43.8791],[10.3632,43.8749],[10.3664,43.8724],[10.3702,43.8644],[10.3695,43.8596],[10.3732,43.8557],[10.3772,43.8535],[10.3875,43.8524],[10.3919,43.8501],[10.3966,43.8455],[10.3961,43.8432],[10.3943,43.8425],[10.3751,43.8422],[10.3676,43.8396],[10.3647,43.8312],[10.3688,43.8239],[10.3736,43.8191],[10.3742,43.8147],[10.3737,43.8144],[10.3481,43.8166],[10.339,43.8224],[10.337,43.8229],[10.3298,43.8215],[10.3203,43.8226],[10.3117,43.8278],[10.3071,43.8294],[10.3114,43.8364],[10.2616,43.8951],[10.255,43.8968],[10.2645,43.9017],[10.2642,43.9085],[10.2669,43.9132],[10.2926,43.919],[10.2954,43.9156],[10.3013,43.9186],[10.3042,43.9212],[10.3092,43.9188],[10.3243,43.908],[10.3255,43.9057],[10.3333,43.8995],[10.3475,43.8999],[10.3536,43.9029],[10.3625,43.9049],[10.3728,43.9035],[10.3774,43.9016],[10.3749,43.8979],[10.3618,43.8887],[10.3606,43.8859],[10.3634,43.8811]]]}},{"type":"Feature","properties":{"i":"046019","n":"Minucciano"},"geometry":{"type":"Polygon","coordinates":[[[10.2437,44.1831],[10.2422,44.18],[10.2501,44.1798],[10.2606,44.1825],[10.2659,44.1769],[10.2692,44.1635],[10.2737,44.159],[10.2707,44.1546],[10.2783,44.1459],[10.2623,44.1316],[10.2459,44.1284],[10.2386,44.1239],[10.2272,44.1105],[10.2145,44.1175],[10.2095,44.1187],[10.2021,44.1188],[10.1957,44.1198],[10.1893,44.1221],[10.1867,44.1246],[10.186,44.1334],[10.1846,44.1382],[10.183,44.1398],[10.1872,44.142],[10.1923,44.1541],[10.1958,44.1555],[10.1976,44.1582],[10.1947,44.1639],[10.1979,44.1706],[10.1954,44.1791],[10.19,44.1892],[10.1889,44.1977],[10.1867,44.2062],[10.1925,44.2103],[10.2046,44.2156],[10.211,44.216],[10.23,44.2279],[10.2335,44.2327],[10.2361,44.2208],[10.2301,44.215],[10.2359,44.2031],[10.2402,44.1999],[10.2418,44.1974],[10.2442,44.1869],[10.2437,44.1831]]]}},{"type":"Feature","properties":{"i":"046020","n":"Molazzana"},"geometry":{"type":"Polygon","coordinates":[[[10.4233,44.0948],[10.4259,44.0918],[10.4313,44.0899],[10.4441,44.0814],[10.4428,44.0746],[10.4329,44.0725],[10.4319,44.0714],[10.4319,44.069],[10.4306,44.0674],[10.4234,44.0617],[10.4207,44.0603],[10.4163,44.0603],[10.4133,44.0624],[10.4081,44.0619],[10.3929,44.0586],[10.3737,44.0626],[10.3636,44.0566],[10.362,44.0505],[10.3555,44.0457],[10.324,44.0345],[10.3227,44.0376],[10.3156,44.0478],[10.3159,44.0517],[10.3254,44.0563],[10.3264,44.0641],[10.3322,44.0697],[10.3431,44.0745],[10.3445,44.0755],[10.3442,44.0767],[10.3666,44.0826],[10.3739,44.0874],[10.3802,44.0894],[10.3833,44.0882],[10.3848,44.0849],[10.3882,44.0876],[10.3894,44.0896],[10.3899,44.0973],[10.4001,44.0945],[10.4056,44.0912],[10.4181,44.092],[10.421,44.0929],[10.4233,44.0948]]]}},{"type":"Feature","properties":{"i":"046021","n":"Montecarlo"},"geometry":{"type":"Polygon","coordinates":[[[10.695,43.8539],[10.7054,43.8427],[10.7021,43.8422],[10.6949,43.8449],[10.684,43.8444],[10.6795,43.8385],[10.6747,43.827],[10.6692,43.8278],[10.6638,43.8223],[10.6365,43.8312],[10.6418,43.847],[10.6448,43.8519],[10.6545,43.8633],[10.6585,43.8673],[10.6639,43.8676],[10.6708,43.8666],[10.6762,43.8679],[10.671,43.8733],[10.6749,43.8756],[10.6784,43.8755],[10.6807,43.8737],[10.6868,43.8654],[10.6877,43.8542],[10.695,43.8539]]]}},{"type":"Feature","properties":{"i":"046022","n":"Pescaglia"},"geometry":{"type":"Polygon","coordinates":[[[10.465,43.9976],[10.4663,43.9958],[10.4676,43.9955],[10.4779,43.9944],[10.4825,43.9947],[10.4909,43.9914],[10.4939,43.9861],[10.4939,43.9844],[10.4907,43.9801],[10.4881,43.9792],[10.4826,43.9731],[10.485,43.9716],[10.4866,43.964],[10.4806,43.9621],[10.4634,43.9629],[10.4583,43.9607],[10.4541,43.9572],[10.4562,43.9516],[10.4583,43.9499],[10.4591,43.948],[10.4504,43.9413],[10.4445,43.9383],[10.4438,43.9367],[10.4491,43.9302],[10.4543,43.9273],[10.4635,43.9243],[10.4529,43.9136],[10.4476,43.9055],[10.444,43.907],[10.4315,43.9088],[10.4252,43.9074],[10.4165,43.903],[10.4111,43.9035],[10.4067,43.9057],[10.4044,43.9121],[10.4062,43.9142],[10.4138,43.916],[10.4152,43.9195],[10.4134,43.9256],[10.4115,43.9285],[10.4076,43.9313],[10.4047,43.9323],[10.3925,43.9422],[10.3847,43.9418],[10.3724,43.9453],[10.3673,43.9486],[10.3626,43.9552],[10.3548,43.9772],[10.3532,43.9797],[10.3514,43.9802],[10.3501,43.9818],[10.3495,43.9837],[10.3523,43.9871],[10.3605,43.9928],[10.3768,43.994],[10.388,43.9995],[10.3923,44.0008],[10.4067,44.0013],[10.4132,43.997],[10.4177,43.9924],[10.4233,43.9913],[10.4299,43.9918],[10.4345,43.9932],[10.4443,44.0004],[10.4496,44.0003],[10.4522,43.998],[10.4562,43.9972],[10.4631,43.9969],[10.465,43.9976]]]}},{"type":"Feature","properties":{"i":"046023","n":"Piazza al Serchio"},"geometry":{"type":"MultiPolygon","coordinates":[[[[10.3397,44.2151],[10.3331,44.2101],[10.3125,44.2009],[10.3073,44.1939],[10.3079,44.1893],[10.3128,44.1852],[10.3285,44.1802],[10.3279,44.1775],[10.3236,44.1705],[10.3171,44.171],[10.3139,44.173],[10.3047,44.1753],[10.2933,44.1744],[10.2809,44.1682],[10.2756,44.1636],[10.2737,44.159],[10.2692,44.1635],[10.2659,44.1769],[10.2606,44.1825],[10.2501,44.1798],[10.2422,44.18],[10.2437,44.1831],[10.2535,44.1865],[10.2622,44.192],[10.2585,44.1989],[10.2686,44.2092],[10.273,44.2105],[10.2863,44.2169],[10.2863,44.218],[10.2819,44.2216],[10.2809,44.2233],[10.2816,44.2276],[10.2877,44.2265],[10.2952,44.2227],[10.2972,44.2181],[10.306,44.2176],[10.3301,44.2277],[10.3329,44.2282],[10.3356,44.2274],[10.3407,44.224],[10.3397,44.2151]]],[[[10.2787,44.2295],[10.2666,44.2423],[10.2668,44.245],[10.2741,44.2376],[10.2756,44.2343],[10.279,44.2307],[10.2787,44.2295]]]]}},{"type":"Feature","properties":{"i":"046024","n":"Pietrasanta"},"geometry":{"type":"MultiPolygon","coordinates":[[[[10.2754,43.961],[10.2676,43.9535],[10.2537,43.9426],[10.2445,43.9327],[10.2216,43.916],[10.2099,43.9106],[10.1976,43.9249],[10.1806,43.9428],[10.1863,43.948],[10.1933,43.9521],[10.1985,43.9586],[10.1995,43.9609],[10.1973,43.9696],[10.2158,43.9684],[10.2181,43.9695],[10.2208,43.9776],[10.2202,43.9801],[10.2178,43.9813],[10.2164,43.9836],[10.2225,43.9849],[10.241,43.9874],[10.2447,43.985],[10.2514,43.9829],[10.2551,43.9798],[10.2609,43.9721],[10.27,43.9663],[10.2739,43.9653],[10.2754,43.961]]],[[[10.172,43.9786],[10.1668,43.9823],[10.1736,43.9874],[10.1734,43.9984],[10.1803,44.0022],[10.1823,44.0041],[10.1841,44.0075],[10.1842,44.0116],[10.1877,44.014],[10.1942,44.0098],[10.2116,44.0011],[10.2156,43.995],[10.2086,43.9871],[10.2039,43.9843],[10.1838,43.9835],[10.172,43.9786]]]]}},{"type":"Feature","properties":{"i":"046025","n":"Pieve Fosciana"},"geometry":{"type":"Polygon","coordinates":[[[10.5229,44.1748],[10.5197,44.1672],[10.4994,44.1573],[10.4889,44.1469],[10.486,44.1426],[10.467,44.1395],[10.446,44.1242],[10.4419,44.1197],[10.4418,44.1184],[10.435,44.1133],[10.4292,44.1154],[10.4244,44.1203],[10.4181,44.1234],[10.4027,44.1275],[10.3997,44.1255],[10.3956,44.1248],[10.389,44.1275],[10.3832,44.1322],[10.3694,44.1383],[10.3729,44.14],[10.3787,44.1489],[10.3827,44.1494],[10.3858,44.1466],[10.3934,44.1443],[10.3972,44.1298],[10.4009,44.1287],[10.4012,44.1312],[10.4063,44.1357],[10.4143,44.1378],[10.4202,44.1371],[10.4313,44.142],[10.4387,44.1465],[10.4424,44.153],[10.4413,44.1604],[10.4422,44.1654],[10.4529,44.1672],[10.4604,44.167],[10.4673,44.1637],[10.4715,44.1686],[10.4818,44.1734],[10.5012,44.1776],[10.5041,44.1774],[10.5172,44.1726],[10.5229,44.1748]]]}},{"type":"Feature","properties":{"i":"046026","n":"Porcari"},"geometry":{"type":"Polygon","coordinates":[[[10.6418,43.847],[10.6365,43.8312],[10.6325,43.8243],[10.6301,43.8005],[10.616,43.7959],[10.6154,43.7935],[10.6136,43.7939],[10.5981,43.8074],[10.596,43.8112],[10.596,43.8183],[10.6022,43.8275],[10.6059,43.8313],[10.6055,43.8328],[10.6014,43.8384],[10.5996,43.8584],[10.6089,43.8598],[10.6262,43.8562],[10.6328,43.8534],[10.6334,43.8491],[10.6418,43.847]]]}},{"type":"Feature","properties":{"i":"046027","n":"San Romano in Garfagnana"},"geometry":{"type":"Polygon","coordinates":[[[10.3787,44.1489],[10.3729,44.14],[10.3694,44.1383],[10.3611,44.1492],[10.3612,44.1503],[10.3588,44.1538],[10.3503,44.1548],[10.3329,44.1678],[10.3236,44.1705],[10.3279,44.1775],[10.3285,44.1802],[10.3128,44.1852],[10.3079,44.1893],[10.3073,44.1939],[10.3125,44.2009],[10.3331,44.2101],[10.3397,44.2151],[10.3455,44.2148],[10.3617,44.2164],[10.3671,44.2187],[10.3756,44.2238],[10.3981,44.2286],[10.4058,44.2318],[10.4041,44.2275],[10.4015,44.2253],[10.3773,44.2139],[10.3706,44.2133],[10.3679,44.2118],[10.3667,44.2105],[10.365,44.2046],[10.3659,44.2011],[10.3656,44.1983],[10.3589,44.1915],[10.3586,44.1892],[10.3606,44.1777],[10.3631,44.1727],[10.3725,44.1635],[10.3787,44.1528],[10.3787,44.1489]]]}},{"type":"Feature","properties":{"i":"046028","n":"Seravezza"},"geometry":{"type":"Polygon","coordinates":[[[10.241,43.9874],[10.2164,43.9836],[10.2178,43.9813],[10.2202,43.9801],[10.2208,43.9776],[10.2194,43.972],[10.2181,43.9695],[10.2165,43.9684],[10.1905,43.97],[10.1842,43.9669],[10.1714,43.9782],[10.1838,43.9835],[10.2039,43.9843],[10.2086,43.9871],[10.2156,43.995],[10.2116,44.0011],[10.1942,44.0098],[10.1877,44.014],[10.1967,44.0176],[10.2056,44.0241],[10.2064,44.0293],[10.202,44.035],[10.2047,44.0382],[10.2239,44.0516],[10.2244,44.0529],[10.2226,44.0588],[10.2286,44.0669],[10.2358,44.0711],[10.2391,44.0716],[10.2411,44.064],[10.2535,44.0583],[10.2648,44.0576],[10.2669,44.0561],[10.2638,44.0456],[10.2628,44.0387],[10.253,44.0321],[10.2516,44.0301],[10.2524,44.0258],[10.2611,44.0106],[10.2656,43.9999],[10.2607,43.9971],[10.2574,43.9961],[10.2447,43.9945],[10.2407,43.9955],[10.2363,43.9945],[10.2376,43.9902],[10.241,43.9874]]]}},{"type":"Feature","properties":{"i":"046030","n":"Stazzema"},"geometry":{"type":"Polygon","coordinates":[[[10.2862,44.0671],[10.2886,44.0638],[10.2924,44.0624],[10.3062,44.0603],[10.3098,44.061],[10.3282,44.0688],[10.3292,44.067],[10.3264,44.0641],[10.3256,44.0566],[10.324,44.0553],[10.3163,44.052],[10.3156,44.0508],[10.3156,44.0478],[10.3227,44.0376],[10.324,44.0345],[10.3396,44.0264],[10.3509,44.0234],[10.3693,44.0071],[10.3756,43.9943],[10.3605,43.9928],[10.3523,43.9871],[10.3495,43.9837],[10.3514,43.9802],[10.3532,43.9797],[10.3556,43.9753],[10.3518,43.9733],[10.3397,43.9745],[10.3316,43.9712],[10.3166,43.9674],[10.3039,43.9621],[10.3031,43.9611],[10.2931,43.9591],[10.2823,43.9582],[10.2773,43.9601],[10.2787,43.9615],[10.2791,43.9642],[10.2754,43.961],[10.2739,43.9653],[10.27,43.9663],[10.2609,43.9721],[10.2551,43.9798],[10.2514,43.9829],[10.2443,43.9852],[10.2386,43.9889],[10.2362,43.9939],[10.2372,43.995],[10.2407,43.9955],[10.2447,43.9945],[10.2574,43.9961],[10.2607,43.9971],[10.2656,43.9999],[10.2611,44.0106],[10.2524,44.0258],[10.2516,44.0301],[10.253,44.0321],[10.2628,44.0387],[10.2638,44.0456],[10.2669,44.0561],[10.2648,44.0576],[10.2535,44.0583],[10.2411,44.064],[10.2391,44.0716],[10.2412,44.0777],[10.2621,44.0719],[10.2744,44.0709],[10.28,44.0671],[10.2862,44.0671]]]}},{"type":"Feature","properties":{"i":"046031","n":"Vagli Sotto"},"geometry":{"type":"Polygon","coordinates":[[[10.3142,44.132],[10.3074,44.1296],[10.3035,44.1228],[10.3076,44.1135],[10.3111,44.0987],[10.3104,44.089],[10.2906,44.0761],[10.2871,44.0759],[10.2853,44.0705],[10.2862,44.0671],[10.28,44.0671],[10.2744,44.0709],[10.2621,44.0719],[10.2412,44.0777],[10.2409,44.0814],[10.242,44.0841],[10.2406,44.0895],[10.2337,44.1021],[10.233,44.1075],[10.2272,44.1105],[10.2386,44.1239],[10.2459,44.1284],[10.2623,44.1316],[10.2783,44.1459],[10.2836,44.1464],[10.2991,44.1502],[10.3074,44.1461],[10.3128,44.1423],[10.3131,44.1393],[10.3119,44.137],[10.3142,44.132]]]}},{"type":"Feature","properties":{"i":"046033","n":"Viareggio"},"geometry":{"type":"Polygon","coordinates":[[[10.3071,43.8294],[10.2925,43.8237],[10.2579,43.8157],[10.2383,43.8556],[10.2379,43.8578],[10.2426,43.8611],[10.2398,43.8697],[10.2359,43.8764],[10.2274,43.8878],[10.2332,43.8905],[10.255,43.8968],[10.2616,43.8951],[10.3114,43.8364],[10.3071,43.8294]]]}},{"type":"Feature","properties":{"i":"046034","n":"Villa Basilica"},"geometry":{"type":"Polygon","coordinates":[[[10.675,43.985],[10.6737,43.9836],[10.6711,43.9758],[10.6728,43.9585],[10.6711,43.951],[10.6579,43.9161],[10.6509,43.9138],[10.6485,43.9109],[10.6434,43.9125],[10.6275,43.915],[10.6159,43.9178],[10.6147,43.9213],[10.6171,43.9231],[10.6178,43.9248],[10.6147,43.9289],[10.612,43.9312],[10.5996,43.9328],[10.5966,43.9368],[10.5975,43.9381],[10.5972,43.9392],[10.5915,43.9537],[10.5945,43.9552],[10.6025,43.9572],[10.6199,43.9742],[10.6354,43.9811],[10.6441,43.9829],[10.6489,43.9829],[10.6706,43.9862],[10.675,43.985]]]}},{"type":"Feature","properties":{"i":"046035","n":"Villa Collemandina"},"geometry":{"type":"Polygon","coordinates":[[[10.4357,44.2262],[10.4341,44.2242],[10.4336,44.2219],[10.4345,44.2152],[10.4362,44.2104],[10.439,44.2088],[10.4404,44.2065],[10.4381,44.2023],[10.4314,44.2015],[10.4269,44.1989],[10.4219,44.1921],[10.4127,44.1848],[10.4133,44.1793],[10.4055,44.1605],[10.4001,44.1546],[10.3955,44.1507],[10.3892,44.1523],[10.3852,44.1525],[10.3839,44.152],[10.3827,44.1494],[10.3787,44.1489],[10.3787,44.1528],[10.3725,44.1635],[10.3626,44.1734],[10.3597,44.1817],[10.3588,44.1909],[10.3596,44.1928],[10.3656,44.1983],[10.3659,44.2011],[10.365,44.2046],[10.3667,44.2105],[10.3701,44.2131],[10.3773,44.2139],[10.4015,44.2253],[10.4041,44.2275],[10.4058,44.2318],[10.414,44.2358],[10.4308,44.2266],[10.4357,44.2262]]]}},{"type":"Feature","properties":{"i":"046036","n":"Fabbriche di Vergemoli"},"geometry":{"type":"Polygon","coordinates":[[[10.4156,44.0605],[10.4163,44.0568],[10.4144,44.0538],[10.4095,44.0513],[10.4037,44.05],[10.3986,44.0506],[10.3915,44.0482],[10.3894,44.0467],[10.3869,44.0431],[10.3868,44.0415],[10.3971,44.0276],[10.4,44.0245],[10.4073,44.0195],[10.4205,44.022],[10.4337,44.0271],[10.4362,44.0307],[10.442,44.0333],[10.4463,44.0339],[10.4526,44.0276],[10.4607,44.028],[10.4628,44.0205],[10.4677,44.0153],[10.4731,44.0116],[10.466,44.0077],[10.4652,44.0058],[10.4663,44.0025],[10.465,43.9976],[10.4631,43.9969],[10.4562,43.9972],[10.4522,43.998],[10.4496,44.0003],[10.4443,44.0004],[10.4345,43.9932],[10.4299,43.9918],[10.4233,43.9913],[10.4177,43.9924],[10.4132,43.997],[10.4067,44.0013],[10.3996,44.0012],[10.3923,44.0008],[10.388,43.9995],[10.3764,43.994],[10.3756,43.9943],[10.3693,44.0071],[10.3509,44.0234],[10.3396,44.0264],[10.324,44.0345],[10.3555,44.0457],[10.362,44.0505],[10.3636,44.0566],[10.3737,44.0626],[10.3929,44.0586],[10.4081,44.0619],[10.4133,44.0624],[10.4156,44.0605]]]}},{"type":"Feature","properties":{"i":"046037","n":"Sillano Giuncugnano"},"geometry":{"type":"Polygon","coordinates":[[[10.4074,44.2493],[10.414,44.2358],[10.3981,44.2286],[10.3756,44.2238],[10.3671,44.2187],[10.3617,44.2164],[10.3455,44.2148],[10.3397,44.2151],[10.3407,44.224],[10.3356,44.2274],[10.3329,44.2282],[10.3301,44.2277],[10.306,44.2176],[10.2972,44.2181],[10.2952,44.2227],[10.2877,44.2265],[10.2816,44.2276],[10.2809,44.2233],[10.2819,44.2216],[10.2863,44.218],[10.2863,44.2169],[10.273,44.2105],[10.2686,44.2092],[10.2585,44.1989],[10.2622,44.192],[10.2535,44.1865],[10.2439,44.1827],[10.2442,44.1869],[10.2418,44.1974],[10.2402,44.1999],[10.2359,44.2031],[10.2301,44.215],[10.2361,44.2208],[10.2335,44.2327],[10.245,44.2489],[10.2471,44.2535],[10.2542,44.2548],[10.2552,44.2556],[10.2555,44.2588],[10.2533,44.2659],[10.2539,44.2686],[10.2683,44.2724],[10.273,44.276],[10.2964,44.2852],[10.3081,44.2841],[10.3141,44.2788],[10.3371,44.2715],[10.3506,44.2697],[10.3606,44.2715],[10.3696,44.2695],[10.377,44.2671],[10.4013,44.2513],[10.4074,44.2493]],[[10.2787,44.2295],[10.279,44.2307],[10.2756,44.2343],[10.2741,44.2376],[10.2668,44.245],[10.2666,44.2423],[10.2787,44.2295]]]}}]}
