{"type":"FeatureCollection","fonte":"Confini comunali ISTAT via openpolis/geojson-italy — CC BY 4.0","features":[{"type":"Feature","properties":{"i":"108001","n":"Agrate Brianza"},"geometry":{"type":"Polygon","coordinates":[[[9.3564,45.5902],[9.3623,45.5893],[9.3658,45.5867],[9.37,45.586],[9.3728,45.5866],[9.3756,45.5891],[9.3787,45.5868],[9.3842,45.586],[9.3975,45.5866],[9.3972,45.5835],[9.4031,45.5732],[9.4009,45.5721],[9.4001,45.5741],[9.3933,45.5754],[9.3706,45.5752],[9.3661,45.574],[9.3648,45.5683],[9.3596,45.5604],[9.3569,45.5592],[9.3517,45.5587],[9.3391,45.5615],[9.3264,45.5616],[9.3195,45.5655],[9.3232,45.5727],[9.3262,45.5723],[9.3324,45.5732],[9.3521,45.5872],[9.3532,45.5902],[9.3564,45.5902]]]}},{"type":"Feature","properties":{"i":"108002","n":"Aicurzio"},"geometry":{"type":"Polygon","coordinates":[[[9.4298,45.6536],[9.4222,45.6374],[9.4135,45.6331],[9.4051,45.6354],[9.4011,45.6355],[9.4003,45.6376],[9.4051,45.6424],[9.4181,45.6473],[9.4214,45.6521],[9.4226,45.6565],[9.4298,45.6536]]]}},{"type":"Feature","properties":{"i":"108003","n":"Albiate"},"geometry":{"type":"Polygon","coordinates":[[[9.2655,45.6571],[9.2652,45.6543],[9.2547,45.6525],[9.2428,45.6416],[9.2371,45.6424],[9.241,45.6474],[9.2392,45.6506],[9.2369,45.652],[9.2525,45.6655],[9.254,45.6678],[9.2655,45.6571]]]}},{"type":"Feature","properties":{"i":"108004","n":"Arcore"},"geometry":{"type":"Polygon","coordinates":[[[9.3299,45.6472],[9.3364,45.6455],[9.3421,45.6408],[9.3406,45.6381],[9.3423,45.6366],[9.3442,45.6379],[9.3461,45.6352],[9.3444,45.6295],[9.3317,45.6166],[9.3312,45.6052],[9.3289,45.6069],[9.3296,45.6099],[9.3271,45.6101],[9.3255,45.607],[9.3233,45.6088],[9.319,45.615],[9.3121,45.6185],[9.2987,45.6218],[9.2987,45.6251],[9.3006,45.6323],[9.2998,45.6341],[9.3031,45.6311],[9.3098,45.6317],[9.311,45.6328],[9.3106,45.6344],[9.3148,45.6429],[9.3219,45.6492],[9.3239,45.6496],[9.3299,45.6472]]]}},{"type":"Feature","properties":{"i":"108005","n":"Barlassina"},"geometry":{"type":"Polygon","coordinates":[[[9.1436,45.6575],[9.1391,45.6557],[9.1357,45.6517],[9.126,45.6483],[9.1076,45.6445],[9.1072,45.6454],[9.1062,45.6494],[9.1197,45.6549],[9.1223,45.6587],[9.1287,45.6626],[9.1349,45.664],[9.1393,45.6633],[9.1436,45.6575]]]}},{"type":"Feature","properties":{"i":"108006","n":"Bellusco"},"geometry":{"type":"Polygon","coordinates":[[[9.4314,45.6245],[9.4311,45.6213],[9.438,45.6168],[9.4455,45.6159],[9.4429,45.6085],[9.4468,45.5999],[9.4443,45.5994],[9.4413,45.6007],[9.44,45.6051],[9.4342,45.6058],[9.428,45.6045],[9.4222,45.6046],[9.4161,45.606],[9.4165,45.6089],[9.4137,45.6102],[9.4006,45.6104],[9.4018,45.6203],[9.3995,45.6276],[9.3999,45.6297],[9.4086,45.6287],[9.4284,45.6226],[9.4314,45.6245]]]}},{"type":"Feature","properties":{"i":"108007","n":"Bernareggio"},"geometry":{"type":"Polygon","coordinates":[[[9.4226,45.6565],[9.4214,45.6521],[9.4181,45.6473],[9.4097,45.6438],[9.4077,45.6438],[9.4051,45.6424],[9.4003,45.6376],[9.4011,45.6355],[9.3997,45.6318],[9.3948,45.6327],[9.3962,45.6347],[9.3947,45.636],[9.3916,45.6369],[9.3869,45.6363],[9.3818,45.6421],[9.388,45.6492],[9.3892,45.6558],[9.3908,45.6591],[9.3928,45.6598],[9.3984,45.6572],[9.4023,45.6573],[9.4208,45.666],[9.4197,45.6622],[9.4231,45.6601],[9.4235,45.6581],[9.4226,45.6565]]]}},{"type":"Feature","properties":{"i":"108008","n":"Besana in Brianza"},"geometry":{"type":"Polygon","coordinates":[[[9.2914,45.7201],[9.2988,45.7086],[9.3002,45.7027],[9.2996,45.7012],[9.2958,45.6991],[9.2943,45.6929],[9.2952,45.6889],[9.2995,45.6834],[9.3012,45.6825],[9.3038,45.6778],[9.3024,45.6722],[9.2963,45.6717],[9.2974,45.6788],[9.2904,45.6848],[9.2785,45.6834],[9.2807,45.6794],[9.2808,45.6775],[9.2796,45.6753],[9.2761,45.6711],[9.2696,45.6681],[9.2584,45.6727],[9.2593,45.6771],[9.2569,45.6854],[9.2511,45.6877],[9.2463,45.6919],[9.2454,45.6969],[9.246,45.6987],[9.2474,45.6996],[9.2491,45.7026],[9.2513,45.7103],[9.2619,45.718],[9.2658,45.7188],[9.2668,45.7171],[9.2734,45.714],[9.2871,45.7123],[9.2876,45.7133],[9.2867,45.7163],[9.2898,45.7198],[9.2914,45.7201]]]}},{"type":"Feature","properties":{"i":"108009","n":"Biassono"},"geometry":{"type":"Polygon","coordinates":[[[9.2998,45.6341],[9.3006,45.6323],[9.2987,45.6251],[9.298,45.6116],[9.2955,45.6134],[9.2943,45.6167],[9.2981,45.6261],[9.2969,45.6327],[9.2796,45.6299],[9.2782,45.6262],[9.2794,45.6227],[9.2615,45.6171],[9.2534,45.6289],[9.288,45.6435],[9.2998,45.6341]]]}},{"type":"Feature","properties":{"i":"108010","n":"Bovisio-Masciago"},"geometry":{"type":"Polygon","coordinates":[[[9.1105,45.6282],[9.1155,45.6265],[9.1344,45.6168],[9.1553,45.6164],[9.1767,45.619],[9.176,45.6093],[9.1701,45.6069],[9.1672,45.6079],[9.1613,45.6073],[9.1532,45.6041],[9.1503,45.6005],[9.1452,45.5987],[9.1419,45.5987],[9.1395,45.6036],[9.1405,45.6079],[9.1384,45.6124],[9.1167,45.6248],[9.1138,45.6207],[9.1094,45.6208],[9.1078,45.6227],[9.1105,45.6282]]]}},{"type":"Feature","properties":{"i":"108011","n":"Briosco"},"geometry":{"type":"Polygon","coordinates":[[[9.2688,45.7261],[9.2658,45.7188],[9.2619,45.718],[9.2513,45.7103],[9.2491,45.7026],[9.2474,45.6996],[9.2373,45.6959],[9.235,45.699],[9.2353,45.7038],[9.2325,45.7084],[9.2308,45.7143],[9.2352,45.727],[9.2425,45.7293],[9.2435,45.7328],[9.2457,45.7332],[9.2537,45.7318],[9.2594,45.7296],[9.2659,45.7258],[9.2688,45.7261]]]}},{"type":"Feature","properties":{"i":"108012","n":"Brugherio"},"geometry":{"type":"Polygon","coordinates":[[[9.3195,45.5655],[9.3264,45.5616],[9.3249,45.5599],[9.3228,45.5541],[9.3238,45.5498],[9.3212,45.5477],[9.3218,45.5444],[9.3252,45.5438],[9.3255,45.54],[9.3242,45.539],[9.3129,45.5369],[9.3052,45.5367],[9.3044,45.5379],[9.2865,45.5434],[9.2733,45.5485],[9.2687,45.5513],[9.2718,45.5566],[9.2698,45.5601],[9.2723,45.5624],[9.2765,45.5596],[9.2766,45.558],[9.2865,45.5601],[9.2973,45.5643],[9.2974,45.5665],[9.3017,45.5712],[9.3116,45.57],[9.3095,45.5684],[9.3126,45.5653],[9.3178,45.5619],[9.3189,45.5624],[9.3181,45.5644],[9.3195,45.5655]]]}},{"type":"Feature","properties":{"i":"108013","n":"Burago di Molgora"},"geometry":{"type":"Polygon","coordinates":[[[9.4002,45.596],[9.4019,45.5896],[9.3975,45.5866],[9.3842,45.586],[9.3787,45.5868],[9.3727,45.5906],[9.3737,45.6012],[9.3761,45.6054],[9.3795,45.6064],[9.3818,45.6058],[9.3821,45.6018],[9.3955,45.5987],[9.4002,45.596]]]}},{"type":"Feature","properties":{"i":"108014","n":"Camparada"},"geometry":{"type":"Polygon","coordinates":[[[9.3299,45.6472],[9.3239,45.6496],[9.3177,45.6539],[9.3138,45.6586],[9.3141,45.6607],[9.3179,45.6603],[9.3213,45.6609],[9.3251,45.6641],[9.336,45.6542],[9.3369,45.6525],[9.3336,45.6486],[9.3299,45.6472]]]}},{"type":"Feature","properties":{"i":"108015","n":"Carate Brianza"},"geometry":{"type":"Polygon","coordinates":[[[9.2584,45.6727],[9.2525,45.6655],[9.2369,45.652],[9.2285,45.6531],[9.2192,45.6595],[9.2181,45.6607],[9.2184,45.6636],[9.2116,45.6649],[9.2116,45.67],[9.2178,45.6717],[9.2298,45.6831],[9.2343,45.6842],[9.2368,45.6862],[9.2379,45.6928],[9.2373,45.6959],[9.246,45.6987],[9.2454,45.6969],[9.2463,45.6919],[9.2511,45.6877],[9.2569,45.6854],[9.2593,45.6771],[9.2584,45.6727]]]}},{"type":"Feature","properties":{"i":"108016","n":"Carnate"},"geometry":{"type":"Polygon","coordinates":[[[9.3928,45.6598],[9.3908,45.6591],[9.3892,45.6558],[9.388,45.6492],[9.3818,45.6421],[9.3869,45.6363],[9.3742,45.6312],[9.3705,45.6337],[9.3701,45.6353],[9.3733,45.638],[9.3725,45.643],[9.3705,45.6482],[9.3723,45.6551],[9.3814,45.66],[9.3853,45.6637],[9.3928,45.6598]]]}},{"type":"Feature","properties":{"i":"108017","n":"Cavenago di Brianza"},"geometry":{"type":"Polygon","coordinates":[[[9.4446,45.5919],[9.4426,45.5856],[9.4047,45.5751],[9.4031,45.5732],[9.3972,45.5835],[9.3975,45.5866],[9.4038,45.5904],[9.4141,45.5919],[9.4154,45.5905],[9.4177,45.5901],[9.4263,45.5902],[9.4342,45.5912],[9.4345,45.5924],[9.4446,45.5919]]]}},{"type":"Feature","properties":{"i":"108018","n":"Ceriano Laghetto"},"geometry":{"type":"Polygon","coordinates":[[[9.109,45.6365],[9.1079,45.6295],[9.1105,45.6282],[9.1078,45.6227],[9.0861,45.6218],[9.0529,45.6232],[9.0523,45.624],[9.0518,45.6334],[9.0573,45.6366],[9.1051,45.6378],[9.109,45.6365]]]}},{"type":"Feature","properties":{"i":"108019","n":"Cesano Maderno"},"geometry":{"type":"Polygon","coordinates":[[[9.1882,45.6329],[9.1756,45.6329],[9.1759,45.6309],[9.1798,45.6257],[9.1767,45.619],[9.1553,45.6164],[9.1344,45.6168],[9.1155,45.6265],[9.1079,45.6295],[9.109,45.6365],[9.1118,45.6396],[9.1261,45.6367],[9.1446,45.6363],[9.1484,45.6375],[9.162,45.6364],[9.1768,45.6371],[9.176,45.6436],[9.1794,45.6414],[9.185,45.6422],[9.189,45.6355],[9.1882,45.6329]]]}},{"type":"Feature","properties":{"i":"108020","n":"Cogliate"},"geometry":{"type":"Polygon","coordinates":[[[9.1076,45.6445],[9.1118,45.6396],[9.109,45.6365],[9.1051,45.6378],[9.0617,45.6368],[9.0625,45.6411],[9.0579,45.6423],[9.0548,45.6451],[9.0557,45.6465],[9.0559,45.65],[9.0627,45.65],[9.0681,45.6537],[9.0824,45.6534],[9.0893,45.652],[9.0999,45.652],[9.1028,45.6523],[9.1038,45.6536],[9.1208,45.6564],[9.1209,45.6558],[9.117,45.6534],[9.1062,45.6494],[9.1076,45.6445]]]}},{"type":"Feature","properties":{"i":"108021","n":"Concorezzo"},"geometry":{"type":"Polygon","coordinates":[[[9.3312,45.6052],[9.3358,45.6045],[9.3493,45.6049],[9.3511,45.6039],[9.3542,45.6],[9.3566,45.5933],[9.3564,45.5902],[9.3532,45.5902],[9.3521,45.5872],[9.3324,45.5732],[9.3262,45.5723],[9.3232,45.5727],[9.3212,45.5747],[9.3167,45.5834],[9.3151,45.5882],[9.3171,45.5939],[9.3128,45.5952],[9.3124,45.5968],[9.3255,45.607],[9.3271,45.6101],[9.3296,45.6099],[9.3289,45.6069],[9.3312,45.6052]]]}},{"type":"Feature","properties":{"i":"108022","n":"Correzzana"},"geometry":{"type":"Polygon","coordinates":[[[9.3141,45.6621],[9.3091,45.6623],[9.3038,45.655],[9.298,45.6567],[9.2963,45.6717],[9.3024,45.6722],[9.3038,45.6778],[9.3012,45.6825],[9.304,45.6829],[9.3057,45.6819],[9.3133,45.6657],[9.3141,45.6621]]]}},{"type":"Feature","properties":{"i":"108023","n":"Desio"},"geometry":{"type":"Polygon","coordinates":[[[9.2209,45.6359],[9.2223,45.6334],[9.2346,45.6256],[9.2297,45.6158],[9.2238,45.6088],[9.2221,45.6083],[9.2256,45.6034],[9.2103,45.5971],[9.2091,45.5993],[9.2045,45.5977],[9.2015,45.5981],[9.1935,45.6031],[9.1914,45.6026],[9.1886,45.5994],[9.1882,45.6003],[9.1815,45.6046],[9.1746,45.6062],[9.176,45.6093],[9.1767,45.619],[9.1798,45.6257],[9.1759,45.6309],[9.1756,45.6329],[9.1882,45.6329],[9.1961,45.634],[9.2045,45.6336],[9.2209,45.6359]]]}},{"type":"Feature","properties":{"i":"108024","n":"Giussano"},"geometry":{"type":"Polygon","coordinates":[[[9.2295,45.7173],[9.2316,45.7175],[9.2308,45.7143],[9.2325,45.7084],[9.2353,45.7038],[9.235,45.699],[9.2252,45.6988],[9.2221,45.6928],[9.2151,45.6856],[9.2114,45.6804],[9.2104,45.6756],[9.2115,45.6738],[9.2116,45.6649],[9.205,45.6657],[9.1964,45.668],[9.1944,45.6677],[9.1918,45.6784],[9.1961,45.6871],[9.1965,45.6949],[9.1953,45.6983],[9.2042,45.7092],[9.2141,45.715],[9.2295,45.7173]]]}},{"type":"Feature","properties":{"i":"108025","n":"Lazzate"},"geometry":{"type":"Polygon","coordinates":[[[9.1005,45.6596],[9.0957,45.6604],[9.095,45.6637],[9.0884,45.6665],[9.0616,45.6672],[9.067,45.6851],[9.0883,45.6855],[9.0896,45.6823],[9.0973,45.6748],[9.1005,45.6596]]]}},{"type":"Feature","properties":{"i":"108026","n":"Lesmo"},"geometry":{"type":"Polygon","coordinates":[[[9.3141,45.6621],[9.3138,45.6586],[9.3177,45.6539],[9.3239,45.6496],[9.3219,45.6492],[9.3148,45.6429],[9.3106,45.6344],[9.311,45.6328],[9.3098,45.6317],[9.3031,45.6311],[9.288,45.6435],[9.2881,45.6473],[9.298,45.6567],[9.3038,45.655],[9.3091,45.6623],[9.3141,45.6621]]]}},{"type":"Feature","properties":{"i":"108027","n":"Limbiate"},"geometry":{"type":"Polygon","coordinates":[[[9.1442,45.5989],[9.1468,45.5878],[9.1449,45.5837],[9.1244,45.5844],[9.1102,45.5861],[9.1033,45.5883],[9.0956,45.5879],[9.094,45.591],[9.097,45.5914],[9.1006,45.5936],[9.1008,45.5967],[9.0996,45.6],[9.0946,45.6046],[9.0944,45.6065],[9.0985,45.6085],[9.1011,45.6082],[9.1046,45.61],[9.1094,45.6208],[9.1138,45.6207],[9.1167,45.6248],[9.1384,45.6124],[9.1405,45.6079],[9.1395,45.6036],[9.1399,45.6022],[9.1419,45.5987],[9.1442,45.5989]]]}},{"type":"Feature","properties":{"i":"108028","n":"Lissone"},"geometry":{"type":"Polygon","coordinates":[[[9.2428,45.6416],[9.2419,45.6352],[9.2391,45.6324],[9.2455,45.6295],[9.2507,45.6302],[9.2526,45.6297],[9.264,45.6126],[9.2637,45.6105],[9.2599,45.6096],[9.2591,45.6082],[9.2601,45.6037],[9.258,45.6061],[9.2566,45.6058],[9.2547,45.6028],[9.2415,45.5964],[9.2312,45.5993],[9.2256,45.6034],[9.2229,45.6069],[9.2221,45.6083],[9.2238,45.6088],[9.2297,45.6158],[9.2346,45.6256],[9.2223,45.6334],[9.2209,45.6359],[9.2371,45.6424],[9.2428,45.6416]]]}},{"type":"Feature","properties":{"i":"108029","n":"Macherio"},"geometry":{"type":"Polygon","coordinates":[[[9.2815,45.6476],[9.2881,45.6473],[9.288,45.6435],[9.2552,45.6295],[9.2534,45.6289],[9.2507,45.6302],[9.2455,45.6295],[9.2391,45.6324],[9.2441,45.638],[9.2467,45.6383],[9.248,45.6369],[9.2508,45.6368],[9.2594,45.6394],[9.2796,45.6478],[9.2815,45.6476]]]}},{"type":"Feature","properties":{"i":"108030","n":"Meda"},"geometry":{"type":"Polygon","coordinates":[[[9.1797,45.6635],[9.1794,45.6594],[9.1755,45.6529],[9.1759,45.6487],[9.1703,45.6499],[9.1687,45.649],[9.1639,45.6486],[9.1486,45.6516],[9.1439,45.6536],[9.1436,45.6575],[9.1393,45.6633],[9.1392,45.6673],[9.1411,45.6785],[9.1442,45.6814],[9.1477,45.6799],[9.1526,45.6838],[9.1541,45.686],[9.1638,45.673],[9.1719,45.668],[9.1782,45.6656],[9.1797,45.6635]]]}},{"type":"Feature","properties":{"i":"108031","n":"Mezzago"},"geometry":{"type":"Polygon","coordinates":[[[9.4564,45.6257],[9.4535,45.6239],[9.449,45.6165],[9.4455,45.6159],[9.438,45.6168],[9.4311,45.6213],[9.4308,45.6234],[9.4341,45.6324],[9.4391,45.6374],[9.4514,45.6464],[9.4541,45.6406],[9.4565,45.6307],[9.4564,45.6257]]]}},{"type":"Feature","properties":{"i":"108032","n":"Misinto"},"geometry":{"type":"Polygon","coordinates":[[[9.1005,45.6596],[9.1038,45.6536],[9.1028,45.6523],[9.0893,45.652],[9.0824,45.6534],[9.0681,45.6537],[9.0627,45.65],[9.0559,45.65],[9.0529,45.6574],[9.0609,45.6577],[9.0624,45.6632],[9.0616,45.6672],[9.0884,45.6665],[9.095,45.6637],[9.0957,45.6604],[9.1005,45.6596]]]}},{"type":"Feature","properties":{"i":"108033","n":"Monza"},"geometry":{"type":"Polygon","coordinates":[[[9.298,45.6116],[9.2998,45.6087],[9.2991,45.6029],[9.2956,45.598],[9.2975,45.595],[9.3085,45.5933],[9.3171,45.5939],[9.3151,45.5882],[9.3167,45.5834],[9.3212,45.5747],[9.3232,45.5727],[9.3195,45.5655],[9.3181,45.5644],[9.3189,45.5624],[9.3178,45.5619],[9.3157,45.5631],[9.3095,45.5684],[9.3116,45.57],[9.3017,45.5712],[9.2974,45.5665],[9.2973,45.5643],[9.2865,45.5601],[9.2766,45.558],[9.2765,45.5596],[9.2723,45.5624],[9.2697,45.5596],[9.2718,45.5566],[9.2502,45.5532],[9.2557,45.5571],[9.2426,45.5634],[9.235,45.5634],[9.227,45.566],[9.2273,45.5736],[9.2377,45.5827],[9.2397,45.5855],[9.2415,45.5964],[9.2547,45.6028],[9.2567,45.6058],[9.258,45.6061],[9.2601,45.6037],[9.2669,45.6029],[9.2757,45.6083],[9.2777,45.613],[9.2794,45.6227],[9.2782,45.6262],[9.2796,45.6299],[9.2969,45.6327],[9.2981,45.6261],[9.2943,45.6167],[9.2955,45.6134],[9.298,45.6116]]]}},{"type":"Feature","properties":{"i":"108034","n":"Muggiò"},"geometry":{"type":"Polygon","coordinates":[[[9.2415,45.5964],[9.2397,45.5855],[9.2377,45.5827],[9.2273,45.5736],[9.227,45.5712],[9.2202,45.5704],[9.2234,45.5758],[9.2178,45.5793],[9.2115,45.5779],[9.2138,45.5899],[9.2103,45.5971],[9.2256,45.6034],[9.2312,45.5993],[9.2415,45.5964]]]}},{"type":"Feature","properties":{"i":"108035","n":"Nova Milanese"},"geometry":{"type":"Polygon","coordinates":[[[9.2103,45.5971],[9.2138,45.5899],[9.2115,45.5779],[9.2031,45.576],[9.2027,45.5771],[9.1934,45.5788],[9.1836,45.5821],[9.1771,45.5855],[9.1739,45.5902],[9.1886,45.5994],[9.1914,45.6026],[9.1935,45.6031],[9.2015,45.5981],[9.2045,45.5977],[9.2091,45.5993],[9.2103,45.5971]]]}},{"type":"Feature","properties":{"i":"108036","n":"Ornago"},"geometry":{"type":"Polygon","coordinates":[[[9.4468,45.5999],[9.4502,45.5918],[9.4363,45.5925],[9.4345,45.5924],[9.4342,45.5912],[9.4312,45.5906],[9.4194,45.59],[9.4154,45.5905],[9.4141,45.5919],[9.4019,45.5896],[9.4002,45.596],[9.4006,45.6],[9.3983,45.608],[9.3985,45.61],[9.4081,45.6107],[9.4137,45.6102],[9.4165,45.6089],[9.4161,45.606],[9.4222,45.6046],[9.428,45.6045],[9.4342,45.6058],[9.44,45.6051],[9.4413,45.6007],[9.4443,45.5994],[9.4468,45.5999]]]}},{"type":"Feature","properties":{"i":"108037","n":"Renate"},"geometry":{"type":"Polygon","coordinates":[[[9.2914,45.7206],[9.2867,45.7163],[9.2876,45.7133],[9.2871,45.7123],[9.2734,45.714],[9.2668,45.7171],[9.2658,45.7188],[9.2688,45.7261],[9.2794,45.7332],[9.2867,45.7306],[9.289,45.7266],[9.2887,45.723],[9.2914,45.7206]]]}},{"type":"Feature","properties":{"i":"108038","n":"Ronco Briantino"},"geometry":{"type":"Polygon","coordinates":[[[9.4144,45.6765],[9.4208,45.666],[9.4023,45.6573],[9.3984,45.6572],[9.3853,45.6637],[9.3872,45.6655],[9.3959,45.6701],[9.4062,45.673],[9.4144,45.6765]]]}},{"type":"Feature","properties":{"i":"108039","n":"Seregno"},"geometry":{"type":"Polygon","coordinates":[[[9.2116,45.6649],[9.2184,45.6636],[9.2181,45.6607],[9.224,45.6556],[9.2285,45.6531],[9.2369,45.652],[9.2392,45.6506],[9.241,45.6469],[9.2371,45.6424],[9.2209,45.6359],[9.2045,45.6336],[9.1961,45.634],[9.1882,45.6329],[9.189,45.6355],[9.185,45.6422],[9.1794,45.6414],[9.176,45.6436],[9.1755,45.6529],[9.1794,45.6594],[9.1797,45.6635],[9.1964,45.668],[9.205,45.6657],[9.2116,45.6649]]]}},{"type":"Feature","properties":{"i":"108040","n":"Seveso"},"geometry":{"type":"Polygon","coordinates":[[[9.1759,45.6487],[9.1768,45.6371],[9.162,45.6364],[9.1484,45.6375],[9.1446,45.6363],[9.1261,45.6367],[9.1118,45.6396],[9.1076,45.6445],[9.1222,45.6471],[9.1357,45.6517],[9.1391,45.6557],[9.1436,45.6575],[9.1439,45.6536],[9.1486,45.6516],[9.1639,45.6486],[9.1687,45.649],[9.1703,45.6499],[9.1759,45.6487]]]}},{"type":"Feature","properties":{"i":"108041","n":"Sovico"},"geometry":{"type":"Polygon","coordinates":[[[9.2815,45.6476],[9.2796,45.6478],[9.2594,45.6394],[9.2508,45.6368],[9.248,45.6369],[9.2467,45.6383],[9.2441,45.638],[9.2419,45.6352],[9.2428,45.6416],[9.246,45.6448],[9.2547,45.6525],[9.2652,45.6543],[9.2655,45.6571],[9.268,45.6543],[9.2815,45.6476]]]}},{"type":"Feature","properties":{"i":"108042","n":"Sulbiate"},"geometry":{"type":"Polygon","coordinates":[[[9.4468,45.6497],[9.4514,45.6464],[9.4391,45.6374],[9.4341,45.6324],[9.4314,45.6245],[9.4284,45.6226],[9.4086,45.6287],[9.3999,45.6297],[9.3997,45.6318],[9.4011,45.6355],[9.4051,45.6354],[9.4135,45.6331],[9.4222,45.6374],[9.4298,45.6536],[9.4468,45.6497]]]}},{"type":"Feature","properties":{"i":"108043","n":"Triuggio"},"geometry":{"type":"Polygon","coordinates":[[[9.2963,45.6717],[9.298,45.6567],[9.2881,45.6473],[9.2815,45.6476],[9.268,45.6543],[9.254,45.6678],[9.2584,45.6727],[9.2676,45.6684],[9.2696,45.6681],[9.2741,45.67],[9.2761,45.6711],[9.2808,45.6775],[9.2807,45.6794],[9.2785,45.6834],[9.2904,45.6848],[9.2974,45.6788],[9.2963,45.6717]]]}},{"type":"Feature","properties":{"i":"108044","n":"Usmate Velate"},"geometry":{"type":"Polygon","coordinates":[[[9.3567,45.6674],[9.3602,45.6664],[9.3691,45.6611],[9.3696,45.6578],[9.3723,45.6551],[9.3705,45.6482],[9.3725,45.643],[9.3733,45.638],[9.3717,45.6363],[9.3567,45.6335],[9.3557,45.636],[9.3556,45.6393],[9.3477,45.6392],[9.3423,45.6366],[9.3406,45.6381],[9.3421,45.6408],[9.3364,45.6455],[9.3299,45.6472],[9.3336,45.6486],[9.3369,45.6525],[9.336,45.6542],[9.3251,45.6641],[9.3413,45.6697],[9.3491,45.6686],[9.3537,45.6658],[9.3558,45.666],[9.3567,45.6674]]]}},{"type":"Feature","properties":{"i":"108045","n":"Varedo"},"geometry":{"type":"Polygon","coordinates":[[[9.1886,45.5994],[9.1769,45.5918],[9.1629,45.5915],[9.1468,45.5878],[9.1442,45.5989],[9.1474,45.5992],[9.1503,45.6005],[9.1532,45.6041],[9.1575,45.6061],[9.1672,45.6079],[9.1701,45.6069],[9.176,45.6093],[9.1746,45.6062],[9.1815,45.6046],[9.1882,45.6003],[9.1886,45.5994]]]}},{"type":"Feature","properties":{"i":"108046","n":"Vedano al Lambro"},"geometry":{"type":"Polygon","coordinates":[[[9.2601,45.6037],[9.2591,45.6082],[9.2599,45.6096],[9.2637,45.6105],[9.264,45.6126],[9.2615,45.6171],[9.2794,45.6227],[9.2777,45.613],[9.2757,45.6083],[9.2669,45.6029],[9.2601,45.6037]]]}},{"type":"Feature","properties":{"i":"108047","n":"Veduggio con Colzano"},"geometry":{"type":"Polygon","coordinates":[[[9.2742,45.7422],[9.2815,45.7368],[9.2794,45.7332],[9.2688,45.7261],[9.2659,45.7258],[9.2594,45.7296],[9.2537,45.7318],[9.2457,45.7332],[9.2435,45.7328],[9.2471,45.7426],[9.2542,45.7405],[9.2607,45.7397],[9.2742,45.7422]]]}},{"type":"Feature","properties":{"i":"108048","n":"Verano Brianza"},"geometry":{"type":"Polygon","coordinates":[[[9.235,45.699],[9.2373,45.6959],[9.2379,45.6928],[9.2368,45.6862],[9.2343,45.6842],[9.2298,45.6831],[9.2178,45.6717],[9.2116,45.67],[9.2115,45.6738],[9.2104,45.6756],[9.2114,45.6804],[9.2151,45.6856],[9.2221,45.6928],[9.2252,45.6988],[9.235,45.699]]]}},{"type":"Feature","properties":{"i":"108049","n":"Villasanta"},"geometry":{"type":"Polygon","coordinates":[[[9.3255,45.607],[9.3124,45.5968],[9.3128,45.5952],[9.3171,45.5939],[9.3085,45.5933],[9.2975,45.595],[9.2956,45.598],[9.2991,45.6029],[9.2998,45.6087],[9.298,45.6116],[9.2987,45.6218],[9.3121,45.6185],[9.319,45.615],[9.3233,45.6088],[9.3255,45.607]]]}},{"type":"Feature","properties":{"i":"108050","n":"Vimercate"},"geometry":{"type":"Polygon","coordinates":[[[9.3717,45.6363],[9.3701,45.6353],[9.3701,45.6342],[9.3742,45.6312],[9.3869,45.6363],[9.3916,45.6369],[9.3947,45.636],[9.3962,45.6347],[9.3948,45.6327],[9.3997,45.6318],[9.3995,45.6276],[9.4018,45.6203],[9.4006,45.6104],[9.3985,45.61],[9.3983,45.608],[9.4006,45.6],[9.4002,45.596],[9.3955,45.5987],[9.3821,45.6018],[9.3818,45.6058],[9.3795,45.6064],[9.3761,45.6054],[9.3737,45.6012],[9.3726,45.5928],[9.3727,45.5906],[9.3756,45.5891],[9.3728,45.5866],[9.3672,45.5862],[9.3623,45.5893],[9.3564,45.5902],[9.3566,45.5933],[9.3542,45.6],[9.3511,45.6039],[9.3493,45.6049],[9.3358,45.6045],[9.3312,45.6052],[9.3317,45.6166],[9.3444,45.6295],[9.3461,45.6352],[9.3442,45.6379],[9.3477,45.6392],[9.3556,45.6393],[9.3557,45.636],[9.3567,45.6335],[9.3717,45.6363]]]}},{"type":"Feature","properties":{"i":"108051","n":"Busnago"},"geometry":{"type":"Polygon","coordinates":[[[9.4812,45.6196],[9.4825,45.6183],[9.4836,45.6116],[9.4823,45.6058],[9.4779,45.6048],[9.4786,45.5989],[9.4817,45.5968],[9.479,45.5958],[9.4768,45.5959],[9.4715,45.6032],[9.4677,45.6037],[9.4569,45.6073],[9.4499,45.6084],[9.4461,45.6072],[9.4429,45.6085],[9.4455,45.6159],[9.449,45.6165],[9.4535,45.6239],[9.4564,45.6257],[9.4756,45.6217],[9.4812,45.6196]]]}},{"type":"Feature","properties":{"i":"108052","n":"Caponago"},"geometry":{"type":"Polygon","coordinates":[[[9.4009,45.5721],[9.3983,45.5715],[9.3931,45.5673],[9.3923,45.5653],[9.3952,45.5622],[9.388,45.5588],[9.3834,45.5577],[9.3676,45.5577],[9.3631,45.5569],[9.3614,45.5542],[9.3517,45.5587],[9.3569,45.5592],[9.3596,45.5604],[9.3648,45.5683],[9.3661,45.574],[9.3706,45.5752],[9.3933,45.5754],[9.4001,45.5741],[9.4009,45.5721]]]}},{"type":"Feature","properties":{"i":"108053","n":"Cornate d'Adda"},"geometry":{"type":"Polygon","coordinates":[[[9.4872,45.6646],[9.4879,45.6553],[9.4903,45.6505],[9.495,45.6486],[9.4959,45.6397],[9.4929,45.6384],[9.4903,45.6347],[9.4954,45.629],[9.487,45.622],[9.4851,45.6218],[9.4812,45.6196],[9.4756,45.6217],[9.4564,45.6257],[9.4565,45.6307],[9.4541,45.6406],[9.4514,45.6464],[9.4468,45.6497],[9.456,45.6585],[9.465,45.6639],[9.4653,45.6649],[9.4766,45.6693],[9.4872,45.6646]]]}},{"type":"Feature","properties":{"i":"108054","n":"Lentate sul Seveso"},"geometry":{"type":"Polygon","coordinates":[[[9.1236,45.6898],[9.1296,45.6926],[9.1399,45.6948],[9.1459,45.6913],[9.1473,45.6917],[9.1541,45.686],[9.1526,45.6838],[9.1477,45.6799],[9.1442,45.6814],[9.1411,45.6785],[9.1392,45.6673],[9.1393,45.6633],[9.1349,45.664],[9.1287,45.6626],[9.1223,45.6587],[9.1208,45.6564],[9.1038,45.6536],[9.1005,45.6596],[9.0973,45.6748],[9.0896,45.6823],[9.0883,45.6855],[9.0928,45.687],[9.1032,45.6969],[9.1102,45.6914],[9.1218,45.6885],[9.1242,45.6894],[9.1236,45.6898]]]}},{"type":"Feature","properties":{"i":"108055","n":"Roncello"},"geometry":{"type":"Polygon","coordinates":[[[9.4768,45.5959],[9.4665,45.5935],[9.4502,45.5918],[9.4429,45.6085],[9.4461,45.6072],[9.4499,45.6084],[9.4569,45.6073],[9.4677,45.6037],[9.4715,45.6032],[9.4768,45.5959]]]}}]}
