{"type":"FeatureCollection","fonte":"Confini comunali ISTAT via openpolis/geojson-italy — CC BY 4.0","features":[{"type":"Feature","properties":{"i":"043002","n":"Apiro"},"geometry":{"type":"Polygon","coordinates":[[[13.1455,43.4169],[13.1519,43.4123],[13.1553,43.4083],[13.1609,43.4009],[13.1613,43.3969],[13.1582,43.3902],[13.1472,43.3818],[13.1304,43.3663],[13.1219,43.3548],[13.1234,43.3524],[13.1272,43.3504],[13.1394,43.3511],[13.1244,43.3407],[13.1174,43.3375],[13.0871,43.3332],[13.0829,43.3308],[13.0813,43.3282],[13.0818,43.3261],[13.0798,43.3245],[13.0653,43.3233],[13.0632,43.3251],[13.0592,43.3312],[13.0514,43.3329],[13.0533,43.3339],[13.0552,43.337],[13.0543,43.3428],[13.0557,43.3491],[13.0592,43.352],[13.0648,43.3512],[13.089,43.3576],[13.1013,43.3645],[13.0993,43.3676],[13.0971,43.3674],[13.0935,43.3769],[13.0928,43.3868],[13.0827,43.3895],[13.0799,43.389],[13.0856,43.3943],[13.0865,43.3981],[13.0801,43.4054],[13.076,43.4072],[13.0713,43.4114],[13.072,43.417],[13.0768,43.4199],[13.0852,43.4233],[13.0863,43.4245],[13.0918,43.4359],[13.0977,43.4358],[13.1083,43.43],[13.119,43.4293],[13.1256,43.4277],[13.1295,43.4245],[13.1347,43.4179],[13.137,43.417],[13.1455,43.4169]]]}},{"type":"Feature","properties":{"i":"043003","n":"Appignano"},"geometry":{"type":"Polygon","coordinates":[[[13.3878,43.3759],[13.3932,43.3668],[13.3962,43.3601],[13.3919,43.3522],[13.3676,43.3461],[13.3532,43.3434],[13.3496,43.3462],[13.3387,43.3599],[13.3259,43.3717],[13.3244,43.3806],[13.3345,43.3894],[13.3359,43.3915],[13.351,43.395],[13.3562,43.3984],[13.3593,43.3937],[13.3669,43.3927],[13.3751,43.3932],[13.3807,43.3877],[13.3878,43.3759]]]}},{"type":"Feature","properties":{"i":"043004","n":"Belforte del Chienti"},"geometry":{"type":"Polygon","coordinates":[[[13.2474,43.1849],[13.2646,43.1817],[13.2662,43.1794],[13.2665,43.1765],[13.265,43.167],[13.2729,43.1584],[13.275,43.1546],[13.2758,43.1505],[13.2724,43.1534],[13.271,43.1532],[13.2636,43.1487],[13.2467,43.1419],[13.2359,43.147],[13.2321,43.1503],[13.2265,43.1533],[13.223,43.1539],[13.222,43.1524],[13.2207,43.1523],[13.2174,43.1534],[13.2126,43.1646],[13.2111,43.1663],[13.215,43.1708],[13.2252,43.177],[13.227,43.1793],[13.2323,43.1831],[13.2474,43.1849]]]}},{"type":"Feature","properties":{"i":"043005","n":"Bolognola"},"geometry":{"type":"Polygon","coordinates":[[[13.2429,42.9673],[13.227,42.9595],[13.2193,42.9545],[13.2161,42.9511],[13.2103,42.9522],[13.2036,42.9593],[13.1957,42.9654],[13.1901,42.9734],[13.1882,42.9817],[13.1881,42.9902],[13.1853,42.9926],[13.1877,43.0007],[13.1941,43.0053],[13.2093,43.0119],[13.2233,43.0191],[13.2281,43.0226],[13.2315,43.0154],[13.231,43.0141],[13.2263,43.0101],[13.2399,43.0007],[13.2448,42.9964],[13.2482,42.9922],[13.2518,42.984],[13.2467,42.9703],[13.2429,42.9673]]]}},{"type":"Feature","properties":{"i":"043006","n":"Caldarola"},"geometry":{"type":"Polygon","coordinates":[[[13.2467,43.1419],[13.2484,43.1358],[13.2439,43.122],[13.2146,43.1069],[13.2039,43.0988],[13.1929,43.0976],[13.188,43.1001],[13.1856,43.1042],[13.174,43.1067],[13.1694,43.1092],[13.1623,43.1159],[13.159,43.1199],[13.1562,43.1313],[13.1555,43.1374],[13.1592,43.1439],[13.1613,43.144],[13.1683,43.1405],[13.1716,43.1404],[13.1838,43.1415],[13.1974,43.144],[13.2111,43.1445],[13.2217,43.151],[13.223,43.1539],[13.2267,43.1532],[13.2321,43.1503],[13.2359,43.147],[13.2467,43.1419]]]}},{"type":"Feature","properties":{"i":"043007","n":"Camerino"},"geometry":{"type":"Polygon","coordinates":[[[13.1231,43.1826],[13.1267,43.1814],[13.1384,43.1735],[13.1401,43.1662],[13.1421,43.1637],[13.1557,43.1621],[13.1648,43.163],[13.1673,43.1489],[13.1613,43.144],[13.1592,43.1439],[13.1555,43.1374],[13.1562,43.1313],[13.159,43.1199],[13.1665,43.1117],[13.1626,43.1101],[13.1459,43.1086],[13.1395,43.1069],[13.1258,43.0987],[13.124,43.0966],[13.1229,43.0935],[13.1253,43.0919],[13.1175,43.0904],[13.0948,43.0798],[13.0751,43.0784],[13.0704,43.0766],[13.0685,43.0765],[13.0637,43.0783],[13.0622,43.0804],[13.0625,43.085],[13.0643,43.0884],[13.0642,43.0919],[13.0507,43.0922],[13.0462,43.0997],[13.0433,43.1063],[13.0417,43.1075],[13.0251,43.0975],[13.0189,43.0906],[13.0113,43.0948],[13.002,43.0936],[12.9901,43.0972],[12.9865,43.0999],[12.9878,43.1021],[12.9882,43.1056],[12.9866,43.1146],[12.982,43.1184],[12.9867,43.1212],[12.9926,43.1224],[12.995,43.1268],[12.9945,43.1334],[12.9932,43.1366],[12.9958,43.1472],[12.9947,43.1518],[12.9877,43.162],[12.9862,43.1631],[12.9921,43.172],[12.9975,43.1718],[13.0004,43.1693],[13.0051,43.1671],[13.0336,43.1646],[13.0356,43.1667],[13.0403,43.1786],[13.0388,43.1873],[13.0487,43.1963],[13.0514,43.1966],[13.0587,43.1961],[13.0718,43.1921],[13.0739,43.1894],[13.0844,43.1845],[13.0979,43.1802],[13.1082,43.1786],[13.1156,43.1787],[13.1186,43.1793],[13.1231,43.1826]]]}},{"type":"Feature","properties":{"i":"043008","n":"Camporotondo di Fiastrone"},"geometry":{"type":"Polygon","coordinates":[[[13.2758,43.1505],[13.2841,43.1511],[13.2854,43.1476],[13.2858,43.142],[13.2823,43.1321],[13.2785,43.1256],[13.2773,43.1222],[13.2693,43.1212],[13.2439,43.122],[13.2484,43.1358],[13.2468,43.1421],[13.2636,43.1487],[13.271,43.1532],[13.2724,43.1534],[13.2758,43.1505]]]}},{"type":"Feature","properties":{"i":"043009","n":"Castelraimondo"},"geometry":{"type":"Polygon","coordinates":[[[13.1023,43.2201],[13.1138,43.2224],[13.1269,43.2131],[13.1303,43.2076],[13.1306,43.2056],[13.1356,43.2048],[13.1287,43.1986],[13.124,43.1898],[13.1231,43.1826],[13.1184,43.1792],[13.1082,43.1786],[13.0979,43.1802],[13.0844,43.1845],[13.0739,43.1894],[13.0718,43.1921],[13.0587,43.1961],[13.0534,43.1967],[13.0487,43.1963],[13.04,43.1889],[13.0386,43.1858],[13.0269,43.1807],[13.0241,43.1831],[13.0288,43.1876],[13.0206,43.1945],[13.0112,43.1943],[12.996,43.1908],[12.9883,43.1906],[12.9789,43.1952],[12.9626,43.2075],[12.9721,43.2134],[12.9737,43.2153],[12.9861,43.2209],[12.996,43.2232],[13.009,43.2243],[13.0164,43.2217],[13.0265,43.2205],[13.0382,43.2212],[13.0384,43.2271],[13.0399,43.2235],[13.0483,43.2172],[13.0743,43.2178],[13.0877,43.2206],[13.0939,43.2203],[13.1002,43.2174],[13.1023,43.2201]]]}},{"type":"Feature","properties":{"i":"043010","n":"Castelsantangelo sul Nera"},"geometry":{"type":"Polygon","coordinates":[[[13.2418,42.892],[13.2345,42.8769],[13.233,42.8705],[13.2353,42.8677],[13.2322,42.8562],[13.2189,42.846],[13.2108,42.8415],[13.2058,42.8402],[13.2034,42.8406],[13.1881,42.8347],[13.1815,42.8371],[13.1633,42.8324],[13.1543,42.8354],[13.1404,42.8551],[13.1217,42.8739],[13.1166,42.8809],[13.1122,42.8893],[13.117,42.8896],[13.1282,42.8865],[13.1291,42.8875],[13.1295,42.8893],[13.1261,42.8939],[13.1224,42.8969],[13.1208,42.9014],[13.1211,42.9075],[13.125,42.914],[13.1315,42.9073],[13.1412,42.9029],[13.1441,42.9046],[13.147,42.91],[13.152,42.9123],[13.1654,42.9133],[13.1767,42.9118],[13.1968,42.914],[13.2117,42.9123],[13.2186,42.9165],[13.2219,42.9226],[13.2227,42.9267],[13.2257,42.9276],[13.2306,42.9225],[13.2336,42.907],[13.2351,42.9026],[13.2385,42.8987],[13.2418,42.892]]]}},{"type":"Feature","properties":{"i":"043011","n":"Cessapalombo"},"geometry":{"type":"Polygon","coordinates":[[[13.2773,43.1222],[13.2783,43.117],[13.2765,43.1153],[13.2752,43.1025],[13.2652,43.1024],[13.2607,43.1036],[13.2578,43.1032],[13.2533,43.0979],[13.2405,43.0932],[13.2405,43.0918],[13.2442,43.0894],[13.2551,43.0866],[13.2593,43.0887],[13.2627,43.0891],[13.2694,43.0883],[13.2703,43.0868],[13.2696,43.0841],[13.2665,43.0801],[13.2623,43.0782],[13.2567,43.0774],[13.2513,43.0756],[13.2464,43.0732],[13.2444,43.0694],[13.2444,43.0621],[13.2433,43.0586],[13.2325,43.0465],[13.2285,43.0442],[13.2271,43.0466],[13.218,43.0542],[13.2178,43.0604],[13.2194,43.0672],[13.213,43.0719],[13.2174,43.0752],[13.2154,43.0814],[13.2138,43.0831],[13.2084,43.0853],[13.2059,43.086],[13.2031,43.0849],[13.2002,43.0872],[13.2021,43.0903],[13.1953,43.0982],[13.2039,43.0988],[13.2146,43.1069],[13.2439,43.122],[13.2693,43.1212],[13.2773,43.1222]]]}},{"type":"Feature","properties":{"i":"043012","n":"Cingoli"},"geometry":{"type":"Polygon","coordinates":[[[13.3359,43.3915],[13.3345,43.3894],[13.3244,43.3806],[13.3259,43.3717],[13.3188,43.3696],[13.3059,43.3615],[13.2924,43.3485],[13.2909,43.3466],[13.2902,43.3435],[13.2709,43.3361],[13.2608,43.3362],[13.2512,43.3309],[13.2492,43.3288],[13.2457,43.328],[13.2434,43.3278],[13.2469,43.3365],[13.2465,43.3377],[13.243,43.3381],[13.2369,43.3378],[13.2329,43.3352],[13.2308,43.3301],[13.2273,43.3285],[13.2248,43.3284],[13.2094,43.3317],[13.2059,43.3311],[13.195,43.3234],[13.1895,43.3226],[13.1602,43.3239],[13.1552,43.3334],[13.1562,43.3417],[13.1577,43.342],[13.158,43.3434],[13.1557,43.3471],[13.1445,43.3516],[13.1272,43.3504],[13.1234,43.3524],[13.1219,43.3548],[13.1304,43.3663],[13.1472,43.3818],[13.1582,43.3902],[13.1597,43.3928],[13.1613,43.3969],[13.1609,43.4009],[13.1502,43.4136],[13.1584,43.4161],[13.1618,43.4184],[13.1697,43.4191],[13.1888,43.4184],[13.2014,43.4162],[13.2107,43.417],[13.2152,43.4228],[13.2254,43.4325],[13.2266,43.4394],[13.2444,43.4594],[13.2808,43.4612],[13.2786,43.4586],[13.2716,43.4561],[13.2715,43.4554],[13.2771,43.4473],[13.2832,43.4428],[13.2852,43.4307],[13.2887,43.4232],[13.3019,43.4144],[13.3079,43.408],[13.3109,43.4023],[13.315,43.399],[13.3258,43.3961],[13.3316,43.3953],[13.3351,43.3957],[13.3362,43.3934],[13.3359,43.3915]]]}},{"type":"Feature","properties":{"i":"043013","n":"Civitanova Marche"},"geometry":{"type":"Polygon","coordinates":[[[13.7432,43.2948],[13.7275,43.2885],[13.7146,43.2878],[13.7055,43.2862],[13.6814,43.2773],[13.6538,43.2748],[13.652,43.2975],[13.6555,43.3067],[13.6554,43.3103],[13.6521,43.3213],[13.6397,43.3293],[13.6293,43.3416],[13.6339,43.3435],[13.6527,43.3479],[13.6726,43.3466],[13.7037,43.3492],[13.7099,43.3368],[13.7186,43.3243],[13.7266,43.3147],[13.7334,43.3103],[13.7359,43.3078],[13.7432,43.2948]]]}},{"type":"Feature","properties":{"i":"043014","n":"Colmurano"},"geometry":{"type":"Polygon","coordinates":[[[13.3867,43.1799],[13.386,43.172],[13.3834,43.171],[13.3818,43.1714],[13.3786,43.1682],[13.379,43.1575],[13.3711,43.1574],[13.3581,43.1521],[13.3514,43.1516],[13.3428,43.1545],[13.3377,43.1546],[13.3209,43.1516],[13.3383,43.1612],[13.3401,43.1668],[13.3535,43.1906],[13.3561,43.1901],[13.366,43.1798],[13.3721,43.1814],[13.3812,43.1821],[13.3857,43.1814],[13.3867,43.1799]]]}},{"type":"Feature","properties":{"i":"043015","n":"Corridonia"},"geometry":{"type":"Polygon","coordinates":[[[13.5341,43.2908],[13.5435,43.2874],[13.5537,43.2781],[13.5704,43.2679],[13.5728,43.2607],[13.5694,43.2598],[13.5617,43.2535],[13.563,43.2466],[13.5593,43.2444],[13.5569,43.244],[13.5552,43.24],[13.5534,43.2247],[13.5548,43.2151],[13.5506,43.2125],[13.5283,43.212],[13.5272,43.2152],[13.5255,43.2167],[13.5181,43.2132],[13.513,43.2122],[13.5044,43.2123],[13.4989,43.2131],[13.4957,43.2146],[13.4909,43.2144],[13.4918,43.2178],[13.4904,43.2218],[13.4846,43.2305],[13.4796,43.2344],[13.4683,43.2382],[13.4574,43.2399],[13.4532,43.2389],[13.4375,43.2311],[13.4317,43.2304],[13.4285,43.2308],[13.4265,43.2286],[13.4162,43.2507],[13.4608,43.261],[13.4666,43.2614],[13.4718,43.2649],[13.4744,43.2681],[13.4855,43.2719],[13.4954,43.2728],[13.5055,43.278],[13.508,43.2819],[13.5065,43.2869],[13.5068,43.2889],[13.5086,43.291],[13.5216,43.2921],[13.5244,43.2918],[13.5285,43.2897],[13.5341,43.2908]]]}},{"type":"Feature","properties":{"i":"043016","n":"Esanatoglia"},"geometry":{"type":"Polygon","coordinates":[[[12.956,43.2167],[12.9539,43.2133],[12.9554,43.2085],[12.9502,43.2048],[12.9416,43.2095],[12.9251,43.2117],[12.9151,43.2123],[12.906,43.2119],[12.9034,43.2108],[12.8981,43.2101],[12.8925,43.2206],[12.8947,43.2271],[12.8976,43.229],[12.8972,43.232],[12.893,43.2353],[12.8867,43.2476],[12.884,43.2534],[12.8817,43.2625],[12.8815,43.2663],[12.8863,43.2703],[12.897,43.2731],[12.9025,43.2801],[12.9037,43.2802],[12.9075,43.2741],[12.9118,43.2702],[12.9695,43.2825],[12.9729,43.2837],[12.9804,43.2892],[12.9813,43.2889],[12.9822,43.2806],[12.9812,43.275],[12.985,43.2617],[12.986,43.2544],[12.9749,43.2507],[12.9699,43.2418],[12.9643,43.2355],[12.9547,43.231],[12.9527,43.2207],[12.956,43.2167]]]}},{"type":"Feature","properties":{"i":"043017","n":"Fiastra"},"geometry":{"type":"Polygon","coordinates":[[[13.2021,43.0903],[13.2002,43.0872],[13.2031,43.0849],[13.2059,43.086],[13.2084,43.0853],[13.2144,43.0827],[13.216,43.0802],[13.2174,43.075],[13.213,43.0719],[13.2194,43.0672],[13.2178,43.0604],[13.218,43.0542],[13.2271,43.0466],[13.2285,43.0442],[13.2221,43.0409],[13.2214,43.0323],[13.2231,43.0268],[13.2281,43.0226],[13.2233,43.0191],[13.2093,43.0119],[13.1941,43.0053],[13.1877,43.0007],[13.1853,42.9926],[13.1881,42.9902],[13.1882,42.9817],[13.1901,42.9734],[13.1936,42.9682],[13.1825,42.9707],[13.1631,42.9782],[13.1512,42.9784],[13.1461,42.9907],[13.1493,42.9901],[13.1437,43.0004],[13.1176,43.0267],[13.106,43.0327],[13.1034,43.035],[13.1047,43.0402],[13.108,43.0473],[13.1177,43.0493],[13.1222,43.0512],[13.1264,43.0558],[13.1284,43.0635],[13.1275,43.0731],[13.123,43.0852],[13.1212,43.0881],[13.1175,43.0904],[13.1253,43.0919],[13.1263,43.0894],[13.1311,43.0837],[13.1391,43.0822],[13.1448,43.0826],[13.148,43.0872],[13.1528,43.0898],[13.1936,43.0921],[13.1973,43.092],[13.2021,43.0903]]]}},{"type":"Feature","properties":{"i":"043019","n":"Fiuminata"},"geometry":{"type":"Polygon","coordinates":[[[12.956,43.2167],[12.9635,43.2067],[12.9609,43.2061],[12.9516,43.1977],[12.9498,43.1953],[12.9528,43.1872],[12.961,43.1771],[12.9643,43.1691],[12.9581,43.1654],[12.9521,43.1642],[12.949,43.1637],[12.9384,43.1644],[12.9301,43.1592],[12.9172,43.1445],[12.9117,43.1343],[12.9123,43.1324],[12.9122,43.1194],[12.9043,43.1039],[12.9038,43.0978],[12.8973,43.0935],[12.8945,43.0927],[12.8911,43.0936],[12.8863,43.098],[12.885,43.0999],[12.8849,43.1057],[12.8832,43.1181],[12.8813,43.1212],[12.8788,43.1224],[12.8723,43.124],[12.8585,43.1252],[12.8506,43.1225],[12.8439,43.1221],[12.8417,43.1236],[12.8331,43.139],[12.8337,43.1477],[12.8415,43.1497],[12.8519,43.1539],[12.8626,43.1674],[12.864,43.178],[12.8681,43.1888],[12.8682,43.1951],[12.8637,43.2093],[12.8614,43.2122],[12.8616,43.2132],[12.8682,43.2153],[12.8724,43.2176],[12.8773,43.2219],[12.8867,43.2246],[12.8918,43.2246],[12.8947,43.2271],[12.8925,43.2206],[12.8981,43.2101],[12.9034,43.2108],[12.906,43.2119],[12.9151,43.2123],[12.9251,43.2117],[12.9416,43.2095],[12.9502,43.2048],[12.9554,43.2085],[12.9539,43.2133],[12.956,43.2167]]]}},{"type":"Feature","properties":{"i":"043020","n":"Gagliole"},"geometry":{"type":"Polygon","coordinates":[[[13.1023,43.2201],[13.1002,43.2174],[13.0939,43.2203],[13.0877,43.2206],[13.0743,43.2178],[13.0483,43.2172],[13.0399,43.2235],[13.0384,43.2271],[13.0417,43.2298],[13.0458,43.2483],[13.063,43.2547],[13.0788,43.2623],[13.0852,43.2701],[13.0845,43.2733],[13.0799,43.2761],[13.083,43.2808],[13.0876,43.2844],[13.0991,43.2822],[13.0981,43.2745],[13.095,43.2639],[13.1008,43.2534],[13.1056,43.2475],[13.1047,43.2384],[13.102,43.2259],[13.1016,43.2226],[13.1023,43.2201]]]}},{"type":"Feature","properties":{"i":"043021","n":"Gualdo"},"geometry":{"type":"Polygon","coordinates":[[[13.3675,43.0935],[13.3759,43.092],[13.3793,43.0848],[13.3781,43.0836],[13.3765,43.0798],[13.3789,43.0768],[13.3827,43.0755],[13.3861,43.0753],[13.3881,43.0763],[13.392,43.0761],[13.3806,43.0661],[13.3791,43.0591],[13.3802,43.0561],[13.3832,43.0539],[13.3813,43.0462],[13.3783,43.0424],[13.3709,43.0421],[13.3641,43.045],[13.355,43.0441],[13.347,43.0446],[13.3324,43.0472],[13.3297,43.0491],[13.3292,43.0525],[13.3223,43.0598],[13.3219,43.0615],[13.3253,43.0742],[13.3352,43.0849],[13.3515,43.0905],[13.3626,43.0933],[13.3675,43.0935]]]}},{"type":"Feature","properties":{"i":"043022","n":"Loro Piceno"},"geometry":{"type":"Polygon","coordinates":[[[13.4358,43.1982],[13.4369,43.1951],[13.442,43.188],[13.4456,43.1722],[13.4621,43.1636],[13.4527,43.1538],[13.446,43.1507],[13.4337,43.1374],[13.4379,43.1332],[13.4368,43.1304],[13.4353,43.1292],[13.4245,43.1281],[13.409,43.1365],[13.401,43.136],[13.3963,43.1385],[13.3944,43.1403],[13.3929,43.1434],[13.3947,43.1495],[13.3926,43.1543],[13.383,43.1546],[13.3793,43.1567],[13.3786,43.1682],[13.3818,43.1714],[13.3834,43.171],[13.386,43.172],[13.3867,43.1799],[13.402,43.1878],[13.4242,43.2049],[13.4284,43.205],[13.4358,43.1982]]]}},{"type":"Feature","properties":{"i":"043023","n":"Macerata"},"geometry":{"type":"Polygon","coordinates":[[[13.4806,43.3536],[13.4878,43.3527],[13.5017,43.3537],[13.5044,43.3506],[13.5106,43.3474],[13.5129,43.3438],[13.5091,43.3416],[13.5071,43.3414],[13.5086,43.3321],[13.5161,43.3291],[13.5228,43.3084],[13.5303,43.3112],[13.5278,43.3055],[13.5335,43.2951],[13.5341,43.2908],[13.5285,43.2897],[13.5244,43.2918],[13.5216,43.2921],[13.5086,43.291],[13.5068,43.2889],[13.5065,43.2869],[13.508,43.2819],[13.5055,43.278],[13.4954,43.2728],[13.4855,43.2719],[13.4744,43.2681],[13.4718,43.2649],[13.4666,43.2614],[13.4608,43.261],[13.4162,43.2507],[13.413,43.2507],[13.3841,43.2812],[13.3792,43.2878],[13.3792,43.2978],[13.4015,43.3082],[13.4029,43.3101],[13.403,43.3138],[13.3929,43.3283],[13.3949,43.332],[13.3937,43.3391],[13.3901,43.3397],[13.3876,43.3416],[13.3869,43.3455],[13.3895,43.3511],[13.3919,43.3522],[13.3962,43.3601],[13.3969,43.3584],[13.4117,43.3435],[13.4166,43.3398],[13.4193,43.3382],[13.4205,43.3384],[13.4406,43.3325],[13.4695,43.3393],[13.4714,43.3412],[13.4724,43.3445],[13.4771,43.3527],[13.4806,43.3536]]]}},{"type":"Feature","properties":{"i":"043024","n":"Matelica"},"geometry":{"type":"Polygon","coordinates":[[[13.0514,43.3329],[13.0593,43.3311],[13.0632,43.3251],[13.0675,43.3203],[13.069,43.3163],[13.0686,43.3105],[13.072,43.3058],[13.077,43.3007],[13.088,43.2935],[13.0889,43.2881],[13.0876,43.2844],[13.083,43.2808],[13.0799,43.2761],[13.0845,43.2733],[13.0852,43.2701],[13.0788,43.2623],[13.063,43.2547],[13.0458,43.2483],[13.0417,43.2298],[13.0384,43.2271],[13.0382,43.2212],[13.0265,43.2205],[13.0164,43.2217],[13.009,43.2243],[12.996,43.2232],[12.9861,43.2209],[12.9737,43.2153],[12.9721,43.2134],[12.9626,43.2075],[12.9527,43.2207],[12.9541,43.2299],[12.9547,43.231],[12.9643,43.2355],[12.9699,43.2418],[12.9749,43.2507],[12.986,43.2544],[12.985,43.2617],[12.9812,43.275],[12.9822,43.2806],[12.9819,43.2861],[12.9814,43.2886],[12.9804,43.2892],[12.9825,43.2927],[12.9855,43.2928],[12.9883,43.3018],[12.9992,43.305],[13.0069,43.3053],[13.0102,43.3071],[13.0158,43.3113],[13.0233,43.3236],[13.0269,43.3279],[13.037,43.3344],[13.0405,43.3361],[13.0514,43.3329]]]}},{"type":"Feature","properties":{"i":"043025","n":"Mogliano"},"geometry":{"type":"Polygon","coordinates":[[[13.5183,43.1738],[13.5053,43.1736],[13.4967,43.1705],[13.494,43.1675],[13.4924,43.1641],[13.4781,43.1654],[13.4621,43.1636],[13.4456,43.1722],[13.442,43.188],[13.4369,43.1951],[13.4358,43.1982],[13.4402,43.1987],[13.4465,43.2023],[13.4554,43.205],[13.464,43.2043],[13.4781,43.2062],[13.4892,43.2125],[13.4909,43.2144],[13.4957,43.2146],[13.4989,43.2131],[13.5044,43.2123],[13.513,43.2122],[13.5181,43.2132],[13.5255,43.2167],[13.5272,43.2152],[13.5283,43.212],[13.5211,43.2092],[13.5219,43.205],[13.5259,43.1981],[13.5246,43.1916],[13.5185,43.1841],[13.5194,43.1781],[13.5183,43.1738]]]}},{"type":"Feature","properties":{"i":"043026","n":"Montecassiano"},"geometry":{"type":"Polygon","coordinates":[[[13.4806,43.3536],[13.4771,43.3527],[13.4724,43.3445],[13.4714,43.3412],[13.4695,43.3393],[13.4406,43.3325],[13.4205,43.3384],[13.4193,43.3382],[13.4117,43.3435],[13.3969,43.3584],[13.3932,43.3668],[13.3878,43.3759],[13.3987,43.384],[13.4072,43.388],[13.426,43.3895],[13.447,43.388],[13.4781,43.3684],[13.4833,43.3565],[13.4806,43.3536]]]}},{"type":"Feature","properties":{"i":"043027","n":"Monte Cavallo"},"geometry":{"type":"Polygon","coordinates":[[[12.9999,42.961],[12.984,42.9577],[12.976,42.9606],[12.9694,42.9594],[12.9645,42.9605],[12.9595,42.9675],[12.9521,42.9715],[12.9444,42.9787],[12.9441,42.994],[12.945,43.0038],[12.9464,43.0046],[12.9501,43.0107],[12.9608,43.0108],[12.9689,43.0141],[12.9938,43.0202],[13.0076,43.0197],[13.0254,43.022],[13.0316,43.0218],[13.0331,43.0158],[13.0327,43.0083],[13.0175,42.9735],[13.0106,42.9649],[13.0075,42.9628],[12.9999,42.961]]]}},{"type":"Feature","properties":{"i":"043028","n":"Montecosaro"},"geometry":{"type":"Polygon","coordinates":[[[13.6293,43.3416],[13.6397,43.3293],[13.6521,43.3213],[13.6554,43.3103],[13.6555,43.3067],[13.652,43.2975],[13.6538,43.2748],[13.6439,43.2707],[13.6319,43.2682],[13.621,43.2706],[13.6216,43.2762],[13.6229,43.2788],[13.6247,43.2797],[13.6221,43.2884],[13.6181,43.2944],[13.6126,43.3069],[13.6107,43.3222],[13.6092,43.3272],[13.6038,43.3339],[13.6115,43.3373],[13.6222,43.3406],[13.6293,43.3416]]]}},{"type":"Feature","properties":{"i":"043029","n":"Montefano"},"geometry":{"type":"Polygon","coordinates":[[[13.4809,43.4364],[13.4792,43.4305],[13.4743,43.4271],[13.4681,43.426],[13.4619,43.4238],[13.4506,43.4183],[13.4477,43.4153],[13.4436,43.4098],[13.4401,43.3946],[13.44,43.3885],[13.426,43.3895],[13.4072,43.388],[13.3987,43.384],[13.3878,43.3759],[13.3807,43.3877],[13.3751,43.3932],[13.3669,43.3927],[13.3593,43.3937],[13.3562,43.3984],[13.3564,43.4019],[13.3598,43.4059],[13.3751,43.4143],[13.3981,43.4216],[13.4012,43.4233],[13.4123,43.4351],[13.4139,43.4356],[13.4293,43.4336],[13.4351,43.4339],[13.4345,43.4374],[13.448,43.4458],[13.4602,43.4383],[13.4703,43.4389],[13.4809,43.4364]]]}},{"type":"Feature","properties":{"i":"043030","n":"Montelupone"},"geometry":{"type":"Polygon","coordinates":[[[13.5846,43.3745],[13.5863,43.3738],[13.5881,43.3705],[13.5889,43.3678],[13.5887,43.3642],[13.5907,43.3574],[13.593,43.3573],[13.5976,43.3518],[13.5976,43.3478],[13.5993,43.3439],[13.6039,43.3397],[13.6056,43.3345],[13.5963,43.3327],[13.5879,43.3298],[13.5707,43.33],[13.5578,43.3256],[13.5524,43.3246],[13.5306,43.3162],[13.5303,43.3112],[13.5228,43.3084],[13.5161,43.3291],[13.5091,43.3316],[13.5075,43.3355],[13.5071,43.3414],[13.5091,43.3416],[13.5129,43.3438],[13.5106,43.3474],[13.5044,43.3506],[13.5017,43.3537],[13.506,43.3567],[13.5106,43.3572],[13.5149,43.3565],[13.5273,43.3623],[13.5416,43.3664],[13.5479,43.3643],[13.559,43.3646],[13.5817,43.3748],[13.5846,43.3745]]]}},{"type":"Feature","properties":{"i":"043031","n":"Monte San Giusto"},"geometry":{"type":"Polygon","coordinates":[[[13.5952,43.2135],[13.5953,43.2124],[13.5931,43.2094],[13.5903,43.2083],[13.5733,43.216],[13.566,43.2167],[13.5548,43.2151],[13.5534,43.2247],[13.5552,43.24],[13.5569,43.244],[13.5593,43.2444],[13.563,43.2466],[13.5617,43.2535],[13.5648,43.2564],[13.5694,43.2598],[13.5728,43.2607],[13.5853,43.2605],[13.5878,43.2611],[13.601,43.2678],[13.6024,43.262],[13.6073,43.2493],[13.6078,43.2369],[13.6021,43.2255],[13.5973,43.2191],[13.5952,43.2135]]]}},{"type":"Feature","properties":{"i":"043032","n":"Monte San Martino"},"geometry":{"type":"Polygon","coordinates":[[[13.4669,43.0444],[13.4612,43.0272],[13.4598,43.0259],[13.4591,43.0215],[13.4597,43.0204],[13.4553,43.0184],[13.4517,43.0177],[13.435,43.0203],[13.4306,43.0224],[13.4209,43.0176],[13.4191,43.0139],[13.4144,43.0104],[13.4132,43.0116],[13.4111,43.0105],[13.4113,43.0084],[13.3978,43.0095],[13.3921,43.0112],[13.384,43.0213],[13.3822,43.0282],[13.3827,43.031],[13.3847,43.0326],[13.3852,43.0339],[13.3864,43.0343],[13.4286,43.0419],[13.4443,43.0457],[13.4518,43.0465],[13.4595,43.0529],[13.462,43.058],[13.4669,43.0444]]]}},{"type":"Feature","properties":{"i":"043033","n":"Morrovalle"},"geometry":{"type":"Polygon","coordinates":[[[13.6038,43.3339],[13.6092,43.3272],[13.6107,43.3222],[13.6126,43.3069],[13.6181,43.2944],[13.6221,43.2884],[13.6247,43.2797],[13.6229,43.2788],[13.6216,43.2762],[13.621,43.2706],[13.6149,43.2719],[13.6093,43.2719],[13.5924,43.263],[13.5863,43.2606],[13.5728,43.2607],[13.5704,43.2679],[13.5537,43.2781],[13.5435,43.2874],[13.5341,43.2908],[13.5335,43.2951],[13.5278,43.3055],[13.5303,43.3112],[13.5306,43.3162],[13.5467,43.3226],[13.5578,43.3256],[13.568,43.3294],[13.5707,43.33],[13.5879,43.3298],[13.5963,43.3327],[13.6038,43.3339]]]}},{"type":"Feature","properties":{"i":"043034","n":"Muccia"},"geometry":{"type":"Polygon","coordinates":[[[13.0751,43.0784],[13.0741,43.0757],[13.0687,43.0721],[13.0642,43.0621],[13.0582,43.0617],[13.0501,43.0644],[13.0464,43.0648],[13.0408,43.0642],[13.0303,43.0608],[13.0259,43.0567],[13.0244,43.0495],[13.021,43.0432],[13.0136,43.0413],[13.0097,43.0415],[13.0051,43.045],[13.0023,43.0459],[12.9937,43.0476],[12.9872,43.0469],[12.9797,43.0485],[12.9745,43.0517],[12.9768,43.0553],[12.9767,43.0691],[12.9842,43.0741],[12.9869,43.0751],[12.9953,43.0735],[13.0044,43.0703],[13.0087,43.0679],[13.011,43.0651],[13.0201,43.0702],[13.0207,43.0721],[13.0203,43.0731],[13.019,43.0744],[13.0167,43.0742],[13.0168,43.0808],[13.0189,43.0906],[13.0251,43.0975],[13.0417,43.1075],[13.0433,43.1063],[13.0462,43.0997],[13.0507,43.0922],[13.0642,43.0919],[13.0643,43.0884],[13.0625,43.085],[13.0622,43.0804],[13.0637,43.0783],[13.0685,43.0765],[13.0751,43.0784]]]}},{"type":"Feature","properties":{"i":"043035","n":"Penna San Giovanni"},"geometry":{"type":"Polygon","coordinates":[[[13.4838,43.0803],[13.4747,43.0749],[13.4636,43.0657],[13.462,43.0619],[13.462,43.058],[13.4597,43.0532],[13.4518,43.0465],[13.4443,43.0457],[13.4286,43.0419],[13.3891,43.0349],[13.3852,43.0339],[13.3847,43.0326],[13.3818,43.0336],[13.381,43.0365],[13.3812,43.0405],[13.3783,43.0424],[13.3813,43.0462],[13.3832,43.0539],[13.3802,43.0561],[13.379,43.0603],[13.3806,43.0661],[13.3896,43.0746],[13.3957,43.0734],[13.4014,43.0738],[13.4267,43.0821],[13.4338,43.0852],[13.4438,43.0762],[13.4496,43.0733],[13.4564,43.0757],[13.4658,43.0806],[13.4776,43.0824],[13.4838,43.0803]]]}},{"type":"Feature","properties":{"i":"043036","n":"Petriolo"},"geometry":{"type":"Polygon","coordinates":[[[13.4909,43.2144],[13.4892,43.2125],[13.4781,43.2062],[13.464,43.2043],[13.4554,43.205],[13.4465,43.2023],[13.4402,43.1987],[13.4358,43.1982],[13.4308,43.2032],[13.4346,43.2069],[13.4362,43.2073],[13.4334,43.2236],[13.4287,43.2299],[13.4265,43.2286],[13.4285,43.2308],[13.4317,43.2304],[13.4375,43.2311],[13.4532,43.2389],[13.4574,43.2399],[13.4683,43.2382],[13.4796,43.2344],[13.4846,43.2305],[13.4904,43.2218],[13.4918,43.2178],[13.4909,43.2144]]]}},{"type":"Feature","properties":{"i":"043038","n":"Pieve Torina"},"geometry":{"type":"Polygon","coordinates":[[[13.0642,43.0621],[13.0668,43.0589],[13.0697,43.058],[13.0732,43.0554],[13.0747,43.0505],[13.0722,43.0355],[13.0661,43.0224],[13.0753,43.0163],[13.0784,43.012],[13.0812,43.0048],[13.0863,42.997],[13.0945,42.9896],[13.0962,42.989],[13.0951,42.9904],[13.0963,42.9934],[13.1014,43.0007],[13.108,42.9922],[13.1089,42.9886],[13.1076,42.9804],[13.1079,42.9785],[13.112,42.9757],[13.1102,42.9712],[13.0992,42.9662],[13.0696,42.9622],[13.0696,42.9727],[13.0652,42.9794],[13.0622,42.9792],[13.0565,42.9773],[13.05,42.9732],[13.0361,42.967],[13.0317,42.9661],[13.0267,42.9638],[13.0244,42.9601],[13.0256,42.9566],[13.0232,42.9549],[13.0156,42.9525],[13.0073,42.9529],[12.9999,42.961],[13.0075,42.9628],[13.0106,42.9649],[13.0175,42.9735],[13.0327,43.0083],[13.0331,43.0158],[13.0316,43.0218],[13.0254,43.022],[13.0076,43.0197],[12.9938,43.0202],[12.9689,43.0141],[12.9608,43.0108],[12.9501,43.0107],[12.9521,43.0147],[12.9507,43.0199],[12.9469,43.0248],[12.9407,43.03],[12.9368,43.0293],[12.9308,43.0304],[12.9296,43.0321],[12.9295,43.033],[12.9362,43.0357],[12.9415,43.0396],[12.9474,43.0472],[12.9524,43.0513],[12.9681,43.0509],[12.9745,43.0517],[12.9797,43.0485],[12.9872,43.0469],[12.9956,43.0473],[13.0051,43.045],[13.0097,43.0415],[13.0136,43.0413],[13.0212,43.0433],[13.0244,43.0495],[13.0259,43.0567],[13.0303,43.0608],[13.0408,43.0642],[13.0464,43.0648],[13.0501,43.0644],[13.0582,43.0617],[13.0642,43.0621]]]}},{"type":"Feature","properties":{"i":"043039","n":"Pioraco"},"geometry":{"type":"Polygon","coordinates":[[[12.9635,43.2067],[12.9789,43.1952],[12.9858,43.1913],[12.9883,43.1906],[12.996,43.1908],[13.0112,43.1943],[13.0206,43.1945],[13.0288,43.1876],[13.0241,43.1831],[13.0269,43.1807],[13.0386,43.1858],[13.0403,43.1786],[13.0356,43.1667],[13.0336,43.1646],[13.0316,43.1644],[13.0182,43.1663],[13.0051,43.1671],[13.0004,43.1693],[12.9975,43.1718],[12.9925,43.1723],[12.9862,43.1631],[12.9692,43.1698],[12.9643,43.1691],[12.961,43.1771],[12.9528,43.1872],[12.9498,43.1953],[12.9516,43.1977],[12.9609,43.2061],[12.9635,43.2067]]]}},{"type":"Feature","properties":{"i":"043040","n":"Poggio San Vicino"},"geometry":{"type":"Polygon","coordinates":[[[13.0799,43.389],[13.0827,43.3895],[13.0928,43.3868],[13.0935,43.3769],[13.0971,43.3674],[13.0993,43.3676],[13.1013,43.3645],[13.089,43.3576],[13.0648,43.3512],[13.0592,43.352],[13.0557,43.3491],[13.0543,43.3428],[13.0552,43.337],[13.0533,43.3339],[13.0514,43.3329],[13.0405,43.3361],[13.0356,43.3398],[13.0439,43.3426],[13.0462,43.354],[13.0486,43.3584],[13.0542,43.3629],[13.0622,43.3668],[13.0637,43.3697],[13.0639,43.3779],[13.0622,43.3812],[13.0709,43.3866],[13.0708,43.3895],[13.0728,43.3914],[13.0771,43.391],[13.0799,43.389]]]}},{"type":"Feature","properties":{"i":"043041","n":"Pollenza"},"geometry":{"type":"Polygon","coordinates":[[[13.413,43.2507],[13.4104,43.2502],[13.4051,43.2472],[13.4008,43.2427],[13.3892,43.2406],[13.3487,43.2373],[13.3378,43.2377],[13.3295,43.2398],[13.3035,43.2494],[13.298,43.2523],[13.2843,43.2634],[13.294,43.2649],[13.3169,43.2709],[13.3235,43.2739],[13.3344,43.2832],[13.3468,43.2908],[13.3792,43.2978],[13.3792,43.2878],[13.38,43.2864],[13.3841,43.2812],[13.413,43.2507]]]}},{"type":"Feature","properties":{"i":"043042","n":"Porto Recanati"},"geometry":{"type":"Polygon","coordinates":[[[13.6795,43.4045],[13.6695,43.4053],[13.6623,43.4046],[13.6564,43.4026],[13.6412,43.4053],[13.6347,43.4103],[13.6333,43.413],[13.6315,43.4208],[13.6336,43.4228],[13.642,43.427],[13.6524,43.4292],[13.6574,43.4319],[13.6584,43.4341],[13.6556,43.4473],[13.6345,43.445],[13.6328,43.4484],[13.6272,43.452],[13.6035,43.4561],[13.6016,43.458],[13.6016,43.4595],[13.6078,43.4635],[13.6211,43.4663],[13.6242,43.4688],[13.628,43.4693],[13.6331,43.4721],[13.6393,43.474],[13.6423,43.4742],[13.6577,43.446],[13.67,43.4255],[13.6795,43.4045]]]}},{"type":"Feature","properties":{"i":"043043","n":"Potenza Picena"},"geometry":{"type":"Polygon","coordinates":[[[13.6795,43.4045],[13.6865,43.3868],[13.6996,43.3601],[13.7037,43.3492],[13.6726,43.3466],[13.6527,43.3479],[13.6339,43.3435],[13.6293,43.3416],[13.6222,43.3406],[13.6115,43.3373],[13.6056,43.3345],[13.6039,43.3397],[13.5993,43.3439],[13.5976,43.3478],[13.5976,43.3518],[13.593,43.3573],[13.5907,43.3574],[13.5887,43.3642],[13.5889,43.3678],[13.5881,43.3705],[13.5863,43.3738],[13.5846,43.3745],[13.5926,43.3765],[13.5959,43.3818],[13.6,43.3841],[13.6089,43.3852],[13.6134,43.3867],[13.6291,43.4009],[13.6362,43.4046],[13.6412,43.4053],[13.6564,43.4026],[13.6623,43.4046],[13.6695,43.4053],[13.6795,43.4045]]]}},{"type":"Feature","properties":{"i":"043044","n":"Recanati"},"geometry":{"type":"Polygon","coordinates":[[[13.6315,43.4208],[13.6333,43.413],[13.6347,43.4103],[13.6412,43.4053],[13.6362,43.4046],[13.6291,43.4009],[13.6134,43.3867],[13.6089,43.3852],[13.6,43.3841],[13.5959,43.3818],[13.5926,43.3765],[13.5846,43.3745],[13.5817,43.3748],[13.559,43.3646],[13.5479,43.3643],[13.5416,43.3664],[13.5273,43.3623],[13.5149,43.3565],[13.5106,43.3572],[13.5064,43.3568],[13.5017,43.3537],[13.4991,43.3531],[13.4878,43.3527],[13.4806,43.3536],[13.4833,43.3565],[13.4781,43.3684],[13.4505,43.3864],[13.447,43.388],[13.44,43.3885],[13.4396,43.3894],[13.4401,43.3946],[13.4436,43.4098],[13.4506,43.4183],[13.4619,43.4238],[13.4681,43.426],[13.4743,43.4271],[13.4792,43.4305],[13.4809,43.4364],[13.5089,43.4409],[13.5109,43.4435],[13.5173,43.4437],[13.5301,43.4401],[13.5611,43.4408],[13.5855,43.4431],[13.5944,43.4472],[13.5957,43.4465],[13.5951,43.4452],[13.5897,43.438],[13.586,43.4349],[13.5817,43.4332],[13.58,43.4288],[13.588,43.4196],[13.618,43.4172],[13.6272,43.4188],[13.6315,43.4208]]]}},{"type":"Feature","properties":{"i":"043045","n":"Ripe San Ginesio"},"geometry":{"type":"Polygon","coordinates":[[[13.379,43.1575],[13.3798,43.1561],[13.383,43.1546],[13.3926,43.1543],[13.3947,43.1495],[13.3929,43.1434],[13.3944,43.1403],[13.3963,43.1385],[13.401,43.136],[13.4039,43.1317],[13.3949,43.1346],[13.3911,43.1295],[13.3706,43.129],[13.3635,43.1297],[13.3474,43.1383],[13.3459,43.1418],[13.3472,43.1438],[13.3469,43.1535],[13.3514,43.1516],[13.3581,43.1521],[13.3711,43.1574],[13.379,43.1575]]]}},{"type":"Feature","properties":{"i":"043046","n":"San Ginesio"},"geometry":{"type":"Polygon","coordinates":[[[13.3469,43.1535],[13.3472,43.1438],[13.3459,43.1418],[13.3474,43.1383],[13.3635,43.1297],[13.3706,43.129],[13.3911,43.1295],[13.3949,43.1346],[13.4039,43.1317],[13.4061,43.1289],[13.4059,43.1266],[13.4043,43.1247],[13.4009,43.1229],[13.3992,43.1238],[13.3925,43.1237],[13.3825,43.1216],[13.3718,43.1154],[13.3652,43.1065],[13.3687,43.1025],[13.3675,43.0935],[13.3626,43.0933],[13.3515,43.0905],[13.3352,43.0849],[13.3253,43.0742],[13.3219,43.0615],[13.3223,43.0598],[13.3161,43.0575],[13.3034,43.0572],[13.2973,43.0607],[13.2946,43.0633],[13.29,43.0638],[13.2839,43.0632],[13.2849,43.0608],[13.2863,43.0599],[13.2855,43.0566],[13.2776,43.0524],[13.2752,43.0522],[13.2733,43.0532],[13.2646,43.0541],[13.2377,43.0421],[13.2221,43.0409],[13.2309,43.0451],[13.2418,43.0563],[13.2439,43.0602],[13.2444,43.0694],[13.2464,43.0732],[13.2513,43.0756],[13.2567,43.0774],[13.2623,43.0782],[13.2665,43.0801],[13.2696,43.0841],[13.2703,43.0868],[13.2694,43.0883],[13.2627,43.0891],[13.2593,43.0887],[13.2551,43.0866],[13.2442,43.0894],[13.2412,43.0912],[13.2403,43.0927],[13.2432,43.0945],[13.2533,43.0979],[13.2578,43.1032],[13.2607,43.1036],[13.2652,43.1024],[13.2752,43.1025],[13.2765,43.1153],[13.2783,43.117],[13.2773,43.1222],[13.2785,43.1256],[13.2823,43.1321],[13.2858,43.142],[13.2854,43.1476],[13.2841,43.1511],[13.2922,43.1552],[13.2974,43.1561],[13.3099,43.1546],[13.3157,43.1508],[13.3377,43.1546],[13.3469,43.1535]]]}},{"type":"Feature","properties":{"i":"043047","n":"San Severino Marche"},"geometry":{"type":"Polygon","coordinates":[[[13.2434,43.3278],[13.2344,43.3215],[13.2292,43.3115],[13.2304,43.3058],[13.2311,43.305],[13.236,43.3062],[13.2381,43.3059],[13.2385,43.2997],[13.2445,43.2925],[13.26,43.2921],[13.2736,43.2674],[13.2753,43.2655],[13.2843,43.2634],[13.2839,43.2604],[13.2802,43.2572],[13.2755,43.2558],[13.2662,43.2502],[13.2606,43.2454],[13.2478,43.2309],[13.244,43.2186],[13.2447,43.1989],[13.244,43.1956],[13.2214,43.1918],[13.1973,43.1903],[13.1785,43.19],[13.172,43.1911],[13.1611,43.1964],[13.1562,43.2016],[13.1509,43.2048],[13.1449,43.2023],[13.1415,43.2018],[13.137,43.2029],[13.1356,43.2048],[13.1306,43.2056],[13.1303,43.2076],[13.1269,43.2131],[13.1138,43.2224],[13.1023,43.2201],[13.1016,43.2226],[13.102,43.2259],[13.1047,43.2384],[13.1056,43.2475],[13.1008,43.2534],[13.095,43.2639],[13.0981,43.2745],[13.0991,43.2822],[13.0876,43.2844],[13.0889,43.2881],[13.088,43.2935],[13.077,43.3007],[13.072,43.3058],[13.0686,43.3105],[13.069,43.3163],[13.0675,43.3203],[13.0653,43.3233],[13.0805,43.3247],[13.0818,43.3261],[13.0813,43.3282],[13.0829,43.3308],[13.0871,43.3332],[13.1174,43.3375],[13.1244,43.3407],[13.1394,43.3511],[13.1418,43.3516],[13.1445,43.3516],[13.1557,43.3471],[13.158,43.3434],[13.1577,43.342],[13.1562,43.3417],[13.1552,43.3334],[13.1602,43.3239],[13.1895,43.3226],[13.195,43.3234],[13.2059,43.3311],[13.2094,43.3317],[13.2248,43.3284],[13.2273,43.3285],[13.2308,43.3301],[13.2329,43.3352],[13.2369,43.3378],[13.2456,43.3379],[13.2469,43.3365],[13.2434,43.3278]]]}},{"type":"Feature","properties":{"i":"043048","n":"Sant'Angelo in Pontano"},"geometry":{"type":"Polygon","coordinates":[[[13.4368,43.1304],[13.4408,43.1244],[13.4409,43.123],[13.4401,43.1207],[13.437,43.1177],[13.4322,43.1156],[13.4302,43.1103],[13.4303,43.0983],[13.4338,43.0852],[13.4267,43.0821],[13.4014,43.0738],[13.3957,43.0734],[13.3896,43.0746],[13.3919,43.0757],[13.3916,43.0764],[13.3881,43.0763],[13.3861,43.0753],[13.3827,43.0755],[13.3789,43.0768],[13.3773,43.0782],[13.3766,43.0801],[13.3793,43.0848],[13.3759,43.092],[13.3675,43.0935],[13.3687,43.1025],[13.3652,43.1065],[13.3718,43.1154],[13.3825,43.1216],[13.3925,43.1237],[13.3992,43.1238],[13.4009,43.1229],[13.4043,43.1247],[13.4059,43.1266],[13.4061,43.1289],[13.401,43.136],[13.409,43.1365],[13.4245,43.1281],[13.4338,43.1288],[13.4368,43.1304]]]}},{"type":"Feature","properties":{"i":"043049","n":"Sarnano"},"geometry":{"type":"Polygon","coordinates":[[[13.3223,43.0598],[13.3292,43.0525],[13.3297,43.0491],[13.3324,43.0472],[13.347,43.0446],[13.355,43.0441],[13.3641,43.045],[13.3709,43.0421],[13.36,43.0342],[13.344,43.0301],[13.3316,43.0239],[13.3239,43.0138],[13.3217,43.0091],[13.3208,43.0047],[13.3194,43.0027],[13.3139,43.0038],[13.3057,43.0017],[13.295,42.9911],[13.2768,42.9792],[13.2618,42.9706],[13.2503,42.9693],[13.2509,42.9651],[13.2429,42.9673],[13.2467,42.9703],[13.2518,42.984],[13.2482,42.9922],[13.2448,42.9964],[13.2399,43.0007],[13.2263,43.0101],[13.231,43.0141],[13.2314,43.0159],[13.2281,43.0226],[13.2231,43.0268],[13.2214,43.0323],[13.2221,43.0409],[13.2377,43.0421],[13.2646,43.0541],[13.2733,43.0532],[13.2752,43.0522],[13.2776,43.0524],[13.2855,43.0566],[13.2863,43.0599],[13.2849,43.0608],[13.2839,43.0632],[13.29,43.0638],[13.2946,43.0633],[13.2973,43.0607],[13.3034,43.0572],[13.3161,43.0575],[13.3223,43.0598]]]}},{"type":"Feature","properties":{"i":"043050","n":"Sefro"},"geometry":{"type":"Polygon","coordinates":[[[12.9862,43.1631],[12.9877,43.162],[12.9945,43.1523],[12.9958,43.1472],[12.9932,43.1366],[12.9945,43.1334],[12.995,43.1268],[12.9926,43.1224],[12.9867,43.1212],[12.982,43.1184],[12.9866,43.1146],[12.9882,43.1056],[12.9878,43.1021],[12.9865,43.0999],[12.9815,43.0988],[12.973,43.1021],[12.9728,43.1046],[12.9628,43.1072],[12.9439,43.108],[12.94,43.1077],[12.9243,43.1008],[12.9143,43.0977],[12.9092,43.0969],[12.9038,43.0978],[12.9043,43.1039],[12.9122,43.1194],[12.9123,43.1324],[12.9117,43.1343],[12.9172,43.1445],[12.9301,43.1592],[12.9384,43.1644],[12.949,43.1637],[12.9521,43.1642],[12.9581,43.1654],[12.9643,43.1691],[12.9692,43.1698],[12.9862,43.1631]]]}},{"type":"Feature","properties":{"i":"043051","n":"Serrapetrona"},"geometry":{"type":"Polygon","coordinates":[[[13.244,43.1956],[13.2474,43.1849],[13.2323,43.1831],[13.227,43.1793],[13.2252,43.177],[13.215,43.1708],[13.2111,43.1663],[13.2126,43.1646],[13.2174,43.1534],[13.2194,43.1524],[13.222,43.1524],[13.2217,43.151],[13.2111,43.1445],[13.1974,43.144],[13.1759,43.1405],[13.1683,43.1405],[13.1613,43.144],[13.1673,43.1489],[13.1648,43.163],[13.1557,43.1621],[13.1421,43.1637],[13.1401,43.1662],[13.1384,43.1735],[13.1267,43.1814],[13.1227,43.1831],[13.124,43.1898],[13.1287,43.1986],[13.1356,43.2048],[13.137,43.2029],[13.1415,43.2018],[13.1449,43.2023],[13.1509,43.2048],[13.1562,43.2016],[13.1611,43.1964],[13.172,43.1911],[13.1785,43.19],[13.2138,43.191],[13.244,43.1956]]]}},{"type":"Feature","properties":{"i":"043052","n":"Serravalle di Chienti"},"geometry":{"type":"Polygon","coordinates":[[[12.9865,43.0999],[12.9901,43.0972],[13.002,43.0936],[13.0113,43.0948],[13.0189,43.0906],[13.0168,43.0808],[13.0167,43.0742],[13.019,43.0744],[13.0207,43.0721],[13.0201,43.0702],[13.018,43.0687],[13.011,43.0651],[13.0087,43.0679],[13.0044,43.0703],[12.9953,43.0735],[12.9869,43.0751],[12.9842,43.0741],[12.9767,43.0691],[12.9768,43.0553],[12.9745,43.0517],[12.9681,43.0509],[12.9524,43.0513],[12.9474,43.0472],[12.9415,43.0396],[12.9382,43.0369],[12.9295,43.033],[12.9301,43.0305],[12.9368,43.0293],[12.9407,43.03],[12.9469,43.0248],[12.9507,43.0199],[12.9521,43.0147],[12.9491,43.0088],[12.9464,43.0046],[12.945,43.0038],[12.9441,42.994],[12.9444,42.9787],[12.9521,42.9715],[12.9595,42.9675],[12.9645,42.9605],[12.9694,42.9594],[12.976,42.9606],[12.984,42.9577],[12.9775,42.9533],[12.97,42.946],[12.9664,42.9441],[12.957,42.9418],[12.9461,42.9415],[12.9416,42.942],[12.9366,42.9449],[12.9294,42.9527],[12.9272,42.9541],[12.9211,42.955],[12.9175,42.9544],[12.9135,42.9556],[12.8958,42.9646],[12.8986,42.9736],[12.9059,42.9799],[12.9082,42.9853],[12.9038,42.9894],[12.8896,43.0069],[12.888,43.0098],[12.8885,43.0122],[12.8976,43.0247],[12.9003,43.0232],[12.9036,43.0247],[12.9066,43.0355],[12.8997,43.0427],[12.894,43.0452],[12.8931,43.0463],[12.8919,43.0486],[12.8899,43.0589],[12.8946,43.0766],[12.8973,43.0935],[12.9038,43.0978],[12.9092,43.0969],[12.9143,43.0977],[12.9243,43.1008],[12.94,43.1077],[12.9439,43.108],[12.9628,43.1072],[12.9728,43.1046],[12.973,43.1021],[12.9815,43.0988],[12.9865,43.0999]]]}},{"type":"Feature","properties":{"i":"043053","n":"Tolentino"},"geometry":{"type":"Polygon","coordinates":[[[13.413,43.2507],[13.4162,43.2507],[13.426,43.2306],[13.4265,43.2286],[13.4249,43.2257],[13.4227,43.2242],[13.4201,43.2258],[13.4121,43.2249],[13.4061,43.2214],[13.4006,43.2204],[13.3968,43.2227],[13.3798,43.2221],[13.3764,43.2205],[13.3718,43.2099],[13.3684,43.2093],[13.3605,43.2134],[13.35,43.2119],[13.3466,43.2052],[13.3478,43.2017],[13.3527,43.2003],[13.3589,43.1959],[13.3535,43.1906],[13.3401,43.1668],[13.3383,43.1612],[13.3209,43.1516],[13.3157,43.1508],[13.3099,43.1546],[13.2974,43.1561],[13.2922,43.1552],[13.2841,43.1511],[13.2758,43.1505],[13.275,43.1546],[13.2729,43.1584],[13.265,43.167],[13.2665,43.1765],[13.2662,43.1794],[13.2646,43.1817],[13.2474,43.1849],[13.244,43.1956],[13.2447,43.1989],[13.244,43.2186],[13.2478,43.2309],[13.2606,43.2454],[13.2662,43.2502],[13.2755,43.2558],[13.2802,43.2572],[13.2827,43.2589],[13.2839,43.2604],[13.2843,43.2634],[13.298,43.2523],[13.3035,43.2494],[13.3295,43.2398],[13.3378,43.2377],[13.3487,43.2373],[13.3892,43.2406],[13.4008,43.2427],[13.4051,43.2472],[13.4104,43.2502],[13.413,43.2507]]]}},{"type":"Feature","properties":{"i":"043054","n":"Treia"},"geometry":{"type":"Polygon","coordinates":[[[13.3919,43.3522],[13.3895,43.3511],[13.3875,43.3476],[13.3869,43.3451],[13.3876,43.3416],[13.3901,43.3397],[13.3937,43.3391],[13.3949,43.332],[13.3929,43.3283],[13.403,43.3138],[13.4029,43.3101],[13.4021,43.3086],[13.3792,43.2978],[13.3468,43.2908],[13.3344,43.2832],[13.3235,43.2739],[13.3169,43.2709],[13.2868,43.2636],[13.2843,43.2634],[13.2753,43.2655],[13.2648,43.2825],[13.26,43.2921],[13.2445,43.2925],[13.2385,43.2997],[13.2381,43.3059],[13.236,43.3062],[13.2311,43.305],[13.2304,43.3058],[13.2292,43.3115],[13.2344,43.3215],[13.2409,43.3263],[13.2434,43.3278],[13.2492,43.3288],[13.2512,43.3309],[13.2608,43.3362],[13.2709,43.3361],[13.2902,43.3435],[13.2909,43.3466],[13.2924,43.3485],[13.3059,43.3615],[13.3188,43.3696],[13.3231,43.371],[13.3259,43.3717],[13.3275,43.3703],[13.3387,43.3599],[13.3496,43.3462],[13.3532,43.3434],[13.3676,43.3461],[13.3919,43.3522]]]}},{"type":"Feature","properties":{"i":"043055","n":"Urbisaglia"},"geometry":{"type":"Polygon","coordinates":[[[13.4308,43.2032],[13.4284,43.205],[13.4242,43.2049],[13.402,43.1878],[13.3867,43.1799],[13.3857,43.1814],[13.3812,43.1821],[13.3721,43.1814],[13.366,43.1798],[13.3561,43.1901],[13.3535,43.1906],[13.3589,43.1959],[13.3527,43.2003],[13.348,43.2015],[13.3466,43.2052],[13.35,43.2119],[13.3534,43.2126],[13.3605,43.2134],[13.3684,43.2093],[13.3718,43.2099],[13.3764,43.2205],[13.3798,43.2221],[13.3968,43.2227],[13.4006,43.2204],[13.4023,43.2205],[13.4061,43.2214],[13.4121,43.2249],[13.4201,43.2258],[13.4215,43.2244],[13.423,43.2243],[13.4283,43.23],[13.4334,43.2236],[13.4362,43.2073],[13.4346,43.2069],[13.4308,43.2032]]]}},{"type":"Feature","properties":{"i":"043056","n":"Ussita"},"geometry":{"type":"Polygon","coordinates":[[[13.1936,42.9682],[13.1957,42.9654],[13.2036,42.9593],[13.2103,42.9522],[13.2161,42.9511],[13.2182,42.9484],[13.2189,42.9452],[13.2175,42.9413],[13.2177,42.9361],[13.2227,42.9261],[13.2215,42.9217],[13.2186,42.9165],[13.2117,42.9123],[13.1968,42.914],[13.1767,42.9118],[13.1654,42.9133],[13.152,42.9123],[13.147,42.91],[13.1441,42.9046],[13.1412,42.9029],[13.1315,42.9073],[13.125,42.914],[13.126,42.9207],[13.1232,42.9264],[13.1175,42.9274],[13.1156,42.9301],[13.1126,42.9395],[13.1155,42.9534],[13.1145,42.9679],[13.1135,42.9703],[13.1106,42.9717],[13.112,42.9757],[13.1148,42.9771],[13.1356,42.9764],[13.1441,42.9737],[13.1476,42.9747],[13.1512,42.9784],[13.1631,42.9782],[13.1825,42.9707],[13.1936,42.9682]]]}},{"type":"Feature","properties":{"i":"043057","n":"Visso"},"geometry":{"type":"MultiPolygon","coordinates":[[[[13.1106,42.9717],[13.1135,42.9703],[13.1145,42.9679],[13.1154,42.9596],[13.1155,42.9534],[13.1126,42.9395],[13.1156,42.9301],[13.1175,42.9274],[13.1232,42.9264],[13.126,42.9207],[13.1255,42.9153],[13.1211,42.9075],[13.1207,42.9019],[13.1224,42.8969],[13.1261,42.8939],[13.1295,42.8893],[13.1285,42.8866],[13.117,42.8896],[13.1122,42.8893],[13.1087,42.8901],[13.0812,42.8997],[13.0677,42.9071],[13.0547,42.9194],[13.0523,42.9196],[13.0432,42.9151],[13.037,42.9075],[13.0249,42.9026],[13.012,42.9028],[13.0053,42.9083],[13.001,42.9093],[12.997,42.9033],[12.999,42.8983],[13.0001,42.8908],[12.993,42.8795],[12.9904,42.8721],[12.9858,42.869],[12.9762,42.8698],[12.9734,42.8772],[12.9751,42.8866],[12.9738,42.8898],[12.971,42.892],[12.9691,42.9037],[12.9757,42.9211],[12.9767,42.9261],[12.9734,42.9277],[12.9693,42.9284],[12.9493,42.93],[12.9505,42.9348],[12.95,42.938],[12.9481,42.9415],[12.9577,42.9418],[12.9664,42.9441],[12.97,42.946],[12.9775,42.9533],[12.984,42.9577],[12.9999,42.961],[13.0073,42.9529],[13.0142,42.9524],[13.0212,42.954],[13.0256,42.9566],[13.0244,42.9601],[13.0267,42.9638],[13.0317,42.9661],[13.0361,42.967],[13.0613,42.9791],[13.0652,42.9794],[13.0694,42.9732],[13.0701,42.9693],[13.0696,42.9622],[13.0989,42.9661],[13.1106,42.9717]]],[[[13.1461,42.9907],[13.1512,42.9784],[13.1469,42.9743],[13.1426,42.9738],[13.1356,42.9764],[13.1238,42.977],[13.1148,42.9771],[13.112,42.9757],[13.1079,42.9785],[13.1076,42.9804],[13.1089,42.9886],[13.108,42.9922],[13.1014,43.0007],[13.103,43.0062],[13.1039,43.0083],[13.1124,43.0105],[13.1178,43.01],[13.1461,42.9907]]]]}},{"type":"Feature","properties":{"i":"043058","n":"Valfornace"},"geometry":{"type":"MultiPolygon","coordinates":[[[[13.1461,42.9907],[13.1178,43.01],[13.115,43.0107],[13.1038,43.0081],[13.1014,43.0007],[13.0952,42.9908],[13.0962,42.989],[13.0945,42.9896],[13.0863,42.997],[13.0812,43.0048],[13.0784,43.012],[13.0753,43.0163],[13.0661,43.0224],[13.0722,43.0355],[13.0747,43.0505],[13.0732,43.0554],[13.0697,43.058],[13.0668,43.0589],[13.0642,43.0621],[13.0687,43.0721],[13.0741,43.0757],[13.0751,43.0784],[13.0948,43.0798],[13.1175,43.0904],[13.1212,43.0881],[13.123,43.0852],[13.1275,43.0731],[13.1284,43.0635],[13.1264,43.0558],[13.1222,43.0512],[13.1177,43.0493],[13.108,43.0473],[13.1047,43.0402],[13.1034,43.035],[13.106,43.0327],[13.1176,43.0267],[13.1335,43.0112],[13.1437,43.0004],[13.1493,42.9901],[13.1461,42.9907]]],[[[13.1953,43.0982],[13.2021,43.0903],[13.1973,43.092],[13.1936,43.0921],[13.1528,43.0898],[13.148,43.0872],[13.1448,43.0826],[13.1354,43.0825],[13.1311,43.0837],[13.1263,43.0894],[13.1253,43.0919],[13.1229,43.0935],[13.124,43.0966],[13.1258,43.0987],[13.1395,43.1069],[13.1459,43.1086],[13.1626,43.1101],[13.1665,43.1117],[13.174,43.1067],[13.1856,43.1042],[13.188,43.1001],[13.1926,43.0977],[13.1953,43.0982]]]]}}]}
