{"type":"FeatureCollection","fonte":"Confini comunali ISTAT via openpolis/geojson-italy — CC BY 4.0","features":[{"type":"Feature","properties":{"i":"083001","n":"Alcara li Fusi"},"geometry":{"type":"Polygon","coordinates":[[[14.7308,38.0312],[14.7448,38.0105],[14.7494,38.0011],[14.7495,37.9999],[14.7472,37.9966],[14.7364,37.9897],[14.7363,37.9873],[14.7484,37.9785],[14.7614,37.9653],[14.7625,37.9623],[14.7625,37.9543],[14.7541,37.9477],[14.7501,37.9463],[14.7376,37.9467],[14.7317,37.9482],[14.7252,37.9511],[14.7191,37.9556],[14.712,37.9558],[14.6974,37.9521],[14.6839,37.953],[14.6786,37.9499],[14.6744,37.9422],[14.6767,37.9372],[14.6828,37.9333],[14.6829,37.9325],[14.6808,37.9317],[14.6758,37.9332],[14.672,37.938],[14.6708,37.9469],[14.674,37.9523],[14.6738,37.9546],[14.6709,37.9601],[14.6697,37.9647],[14.671,37.9735],[14.6671,37.9844],[14.663,37.9913],[14.6604,37.9941],[14.6594,37.9979],[14.6609,38.0034],[14.6834,38.028],[14.6819,38.0387],[14.6859,38.0445],[14.6918,38.0404],[14.6957,38.0343],[14.7023,38.0298],[14.7241,38.0297],[14.7308,38.0312]]]}},{"type":"Feature","properties":{"i":"083002","n":"Alì"},"geometry":{"type":"Polygon","coordinates":[[[15.4367,38.0368],[15.4317,38.0358],[15.4322,38.0297],[15.4298,38.0232],[15.4156,38.0132],[15.4117,38.0137],[15.406,38.0181],[15.3959,38.0325],[15.3952,38.0349],[15.3951,38.0446],[15.3899,38.052],[15.3804,38.0532],[15.3743,38.0518],[15.3685,38.0546],[15.3666,38.0608],[15.3688,38.0638],[15.3709,38.065],[15.3813,38.0675],[15.3851,38.0665],[15.3958,38.0732],[15.3982,38.0735],[15.4035,38.0664],[15.4015,38.0643],[15.4019,38.0632],[15.4094,38.0561],[15.4189,38.0438],[15.4229,38.0404],[15.4292,38.0403],[15.4354,38.0383],[15.4367,38.0368]]]}},{"type":"Feature","properties":{"i":"083003","n":"Alì Terme"},"geometry":{"type":"Polygon","coordinates":[[[15.443,38.0258],[15.4414,38.0239],[15.4411,38.0203],[15.4227,38.0018],[15.4176,37.9955],[15.4052,38.003],[15.4059,38.0137],[15.4025,38.0207],[15.4023,38.0241],[15.406,38.0181],[15.4117,38.0137],[15.4156,38.0132],[15.4298,38.0232],[15.4322,38.0297],[15.4317,38.0358],[15.4358,38.0369],[15.4378,38.0352],[15.4408,38.0275],[15.443,38.0258]]]}},{"type":"Feature","properties":{"i":"083004","n":"Antillo"},"geometry":{"type":"Polygon","coordinates":[[[15.2661,37.9565],[15.2642,37.9553],[15.2577,37.9539],[15.2548,37.9572],[15.251,37.9535],[15.2532,37.9475],[15.25,37.9382],[15.2503,37.9361],[15.2471,37.9327],[15.2426,37.9314],[15.2422,37.9276],[15.243,37.9227],[15.2411,37.9194],[15.2379,37.9181],[15.2304,37.9207],[15.2283,37.9197],[15.2201,37.9201],[15.2166,37.9191],[15.2124,37.9218],[15.2042,37.9312],[15.1896,37.9377],[15.1874,37.9401],[15.1837,37.955],[15.1817,37.9582],[15.1888,37.9657],[15.1944,37.9684],[15.2031,37.9756],[15.2007,37.9909],[15.2012,37.9923],[15.2149,37.9992],[15.2192,38.0034],[15.2278,38.0071],[15.2397,38.008],[15.2391,37.9952],[15.2479,37.9874],[15.2543,37.9831],[15.2596,37.9775],[15.2596,37.9744],[15.256,37.9709],[15.2544,37.9673],[15.2541,37.9647],[15.255,37.9623],[15.2619,37.9577],[15.2661,37.9565]]]}},{"type":"Feature","properties":{"i":"083005","n":"Barcellona Pozzo di Gotto"},"geometry":{"type":"Polygon","coordinates":[[[15.2624,38.1498],[15.2628,38.1452],[15.2637,38.1433],[15.2721,38.1365],[15.273,38.1327],[15.273,38.1285],[15.2684,38.127],[15.2637,38.123],[15.2617,38.12],[15.2599,38.1145],[15.2596,38.1031],[15.2559,38.095],[15.2625,38.0863],[15.2643,38.0854],[15.268,38.0854],[15.2705,38.0841],[15.2712,38.0813],[15.2673,38.0776],[15.2602,38.0728],[15.2574,38.0721],[15.2503,38.0731],[15.2419,38.0778],[15.2344,38.0836],[15.2333,38.0862],[15.2331,38.0905],[15.2234,38.094],[15.2177,38.098],[15.213,38.1055],[15.207,38.1131],[15.2014,38.1184],[15.1976,38.1246],[15.189,38.1289],[15.1866,38.1293],[15.1852,38.1323],[15.1706,38.1517],[15.1821,38.1591],[15.19,38.1674],[15.2095,38.1835],[15.2197,38.1773],[15.2422,38.1725],[15.2445,38.1638],[15.2569,38.1607],[15.2581,38.1571],[15.2584,38.1518],[15.2624,38.1498]]]}},{"type":"Feature","properties":{"i":"083006","n":"Basicò"},"geometry":{"type":"Polygon","coordinates":[[[15.0484,38.0375],[15.0456,38.0402],[15.0427,38.0475],[15.0419,38.0526],[15.0485,38.0628],[15.0535,38.0683],[15.0548,38.071],[15.0551,38.079],[15.0575,38.0821],[15.058,38.0804],[15.0718,38.074],[15.0819,38.0812],[15.0849,38.0797],[15.089,38.0701],[15.0888,38.0648],[15.085,38.0558],[15.0821,38.0521],[15.08,38.0512],[15.0765,38.0514],[15.0697,38.0486],[15.0513,38.0397],[15.0484,38.0375]]]}},{"type":"Feature","properties":{"i":"083007","n":"Brolo"},"geometry":{"type":"MultiPolygon","coordinates":[[[[14.8367,38.1627],[14.8419,38.155],[14.8442,38.1471],[14.8516,38.1362],[14.8542,38.1334],[14.858,38.131],[14.8581,38.1265],[14.8517,38.1273],[14.8464,38.1301],[14.8331,38.138],[14.8273,38.1436],[14.823,38.1462],[14.8116,38.1416],[14.8088,38.1473],[14.8091,38.1492],[14.811,38.151],[14.8098,38.1564],[14.8188,38.1594],[14.8367,38.1627]]]]}},{"type":"Feature","properties":{"i":"083008","n":"Capizzi"},"geometry":{"type":"Polygon","coordinates":[[[14.5316,37.9068],[14.5325,37.9049],[14.5435,37.8972],[14.5617,37.8938],[14.5631,37.8946],[14.5674,37.8943],[14.5699,37.8928],[14.5718,37.8905],[14.573,37.8873],[14.5715,37.8816],[14.568,37.878],[14.5615,37.8775],[14.556,37.8781],[14.5511,37.8762],[14.5457,37.8728],[14.5405,37.865],[14.5338,37.8605],[14.527,37.8618],[14.5169,37.8585],[14.5071,37.852],[14.5019,37.8448],[14.4928,37.8249],[14.4828,37.8134],[14.4797,37.8118],[14.4735,37.8108],[14.4589,37.8145],[14.454,37.8169],[14.4548,37.8219],[14.457,37.8275],[14.4623,37.8344],[14.4648,37.8401],[14.4614,37.8433],[14.4473,37.8488],[14.4292,37.8527],[14.4218,37.8579],[14.4182,37.8617],[14.4063,37.8664],[14.4092,37.8708],[14.4184,37.8809],[14.4241,37.8837],[14.4359,37.8831],[14.4398,37.8841],[14.4538,37.8884],[14.4606,37.8923],[14.4675,37.8948],[14.494,37.8953],[14.4987,37.8964],[14.5102,37.9026],[14.5235,37.9061],[14.5255,37.9076],[14.5316,37.9068]]]}},{"type":"Feature","properties":{"i":"083009","n":"Capo d'Orlando"},"geometry":{"type":"Polygon","coordinates":[[[14.7914,38.1524],[14.789,38.1455],[14.7876,38.1461],[14.7754,38.1436],[14.7678,38.1435],[14.7594,38.1449],[14.7455,38.1419],[14.741,38.1368],[14.737,38.1293],[14.7292,38.1196],[14.7236,38.1084],[14.7208,38.1093],[14.714,38.1145],[14.7052,38.1252],[14.7443,38.1629],[14.7486,38.1658],[14.7508,38.1656],[14.7554,38.1604],[14.7601,38.1574],[14.77,38.1563],[14.7857,38.1515],[14.7914,38.1524]]]}},{"type":"Feature","properties":{"i":"083010","n":"Capri Leone"},"geometry":{"type":"Polygon","coordinates":[[[14.7369,38.0796],[14.7278,38.0757],[14.7209,38.0778],[14.7125,38.0838],[14.7096,38.0873],[14.7113,38.0895],[14.7109,38.0923],[14.7097,38.094],[14.711,38.0984],[14.7081,38.1022],[14.7056,38.1031],[14.7063,38.1087],[14.7101,38.1109],[14.714,38.1145],[14.7208,38.1093],[14.7205,38.1074],[14.7224,38.1039],[14.7294,38.0978],[14.7378,38.0841],[14.7389,38.0818],[14.7369,38.0796]]]}},{"type":"Feature","properties":{"i":"083011","n":"Caronia"},"geometry":{"type":"Polygon","coordinates":[[[14.5583,38.0326],[14.5586,38.029],[14.5603,38.0254],[14.5735,38.0065],[14.5763,37.9972],[14.5857,37.9752],[14.5898,37.9552],[14.5919,37.9399],[14.5914,37.9347],[14.5832,37.9275],[14.5764,37.9219],[14.562,37.9142],[14.5595,37.9142],[14.5552,37.9164],[14.5488,37.9178],[14.5441,37.9172],[14.5316,37.9068],[14.5255,37.9076],[14.5235,37.9061],[14.5102,37.9026],[14.4987,37.8964],[14.4925,37.8951],[14.4675,37.8948],[14.4606,37.8923],[14.4582,37.8907],[14.4574,37.8946],[14.4547,37.8977],[14.4402,37.9069],[14.4369,37.9142],[14.4355,37.9252],[14.4334,37.934],[14.4264,37.9377],[14.4084,37.9574],[14.3986,37.961],[14.393,37.9649],[14.3864,37.9718],[14.3873,37.9759],[14.3869,37.9921],[14.3913,38.0032],[14.3912,38.0081],[14.3889,38.0169],[14.387,38.0209],[14.3942,38.0225],[14.3991,38.0246],[14.424,38.04],[14.4383,38.0408],[14.4423,38.0394],[14.4441,38.0362],[14.4473,38.0342],[14.4556,38.033],[14.4704,38.033],[14.5295,38.0435],[14.5359,38.0466],[14.553,38.0583],[14.5561,38.0513],[14.5586,38.048],[14.5599,38.044],[14.5608,38.0367],[14.5583,38.0326]]]}},{"type":"Feature","properties":{"i":"083012","n":"Casalvecchio Siculo"},"geometry":{"type":"Polygon","coordinates":[[[15.3065,37.9814],[15.3004,37.9723],[15.3079,37.9673],[15.3131,37.965],[15.3226,37.9618],[15.3281,37.9609],[15.3308,37.9591],[15.3318,37.9574],[15.3317,37.9526],[15.3232,37.944],[15.3191,37.9382],[15.3159,37.9397],[15.3107,37.9443],[15.299,37.9488],[15.2987,37.9536],[15.2922,37.9567],[15.2779,37.9569],[15.2691,37.9558],[15.2619,37.9577],[15.255,37.9623],[15.2541,37.9647],[15.2544,37.9673],[15.256,37.9709],[15.2596,37.9744],[15.2596,37.9775],[15.2543,37.9831],[15.2479,37.9874],[15.2391,37.9952],[15.2399,38.0104],[15.2549,38.0207],[15.2599,38.0257],[15.2611,38.028],[15.2688,38.0321],[15.2709,38.0238],[15.2773,38.0173],[15.2853,38.0009],[15.2869,37.9944],[15.2864,37.9914],[15.2879,37.9886],[15.2949,37.9833],[15.3053,37.9823],[15.3065,37.9814]]]}},{"type":"Feature","properties":{"i":"083013","n":"Castel di Lucio"},"geometry":{"type":"Polygon","coordinates":[[[14.3012,37.924],[14.3059,37.9203],[14.3119,37.9135],[14.3226,37.9037],[14.3237,37.9019],[14.3246,37.8973],[14.3254,37.887],[14.3252,37.8843],[14.3148,37.8731],[14.3109,37.8676],[14.3022,37.861],[14.2978,37.8587],[14.2931,37.8533],[14.2938,37.8489],[14.3013,37.8363],[14.2799,37.8401],[14.2733,37.847],[14.274,37.8625],[14.2716,37.8706],[14.2687,37.8765],[14.2747,37.8894],[14.2756,37.8972],[14.2747,37.9035],[14.2852,37.91],[14.2921,37.9172],[14.2919,37.9186],[14.3012,37.924]]]}},{"type":"Feature","properties":{"i":"083014","n":"Castell'Umberto"},"geometry":{"type":"Polygon","coordinates":[[[14.8019,38.0935],[14.807,38.0909],[14.8226,38.0795],[14.831,38.0731],[14.8369,38.0669],[14.8486,38.0583],[14.845,38.0561],[14.8391,38.0549],[14.8202,38.0544],[14.8165,38.0554],[14.8135,38.0582],[14.8058,38.0699],[14.7997,38.0744],[14.7927,38.0756],[14.7813,38.0849],[14.7803,38.0871],[14.788,38.0917],[14.7971,38.0944],[14.8019,38.0935]]]}},{"type":"Feature","properties":{"i":"083015","n":"Castelmola"},"geometry":{"type":"Polygon","coordinates":[[[15.2823,37.8838],[15.29,37.8765],[15.29,37.8709],[15.287,37.8654],[15.2811,37.8579],[15.2683,37.8478],[15.2574,37.8461],[15.2501,37.8441],[15.2488,37.8429],[15.2382,37.8468],[15.2362,37.8726],[15.2381,37.8766],[15.2373,37.8802],[15.2416,37.8831],[15.2446,37.8888],[15.2456,37.8893],[15.2476,37.8887],[15.2694,37.8801],[15.2781,37.8814],[15.2823,37.8838]]]}},{"type":"Feature","properties":{"i":"083016","n":"Castroreale"},"geometry":{"type":"Polygon","coordinates":[[[15.2712,38.0813],[15.2767,38.0708],[15.2786,38.0616],[15.276,38.0582],[15.2702,38.0541],[15.2651,38.0535],[15.2603,38.0513],[15.2589,38.0426],[15.2608,38.0269],[15.2549,38.0207],[15.2409,38.0113],[15.2399,38.0104],[15.2397,38.008],[15.2278,38.0071],[15.2322,38.0092],[15.2295,38.0111],[15.2193,38.0149],[15.2177,38.021],[15.2212,38.0251],[15.2142,38.0321],[15.2105,38.0412],[15.2115,38.0462],[15.211,38.0483],[15.2058,38.0549],[15.2019,38.0582],[15.1947,38.0591],[15.1905,38.0607],[15.1893,38.0641],[15.1909,38.0708],[15.1903,38.0777],[15.1888,38.0804],[15.1801,38.0849],[15.1771,38.0888],[15.1783,38.0953],[15.1869,38.1183],[15.1866,38.1293],[15.189,38.1289],[15.1976,38.1246],[15.2014,38.1184],[15.207,38.1131],[15.213,38.1055],[15.2177,38.098],[15.2234,38.094],[15.2331,38.0905],[15.2333,38.0862],[15.2344,38.0836],[15.2419,38.0778],[15.2486,38.0738],[15.253,38.0724],[15.2574,38.0721],[15.2602,38.0728],[15.2673,38.0776],[15.2712,38.0813]]]}},{"type":"Feature","properties":{"i":"083017","n":"Cesarò"},"geometry":{"type":"Polygon","coordinates":[[[14.7376,37.9467],[14.7369,37.9443],[14.7348,37.942],[14.7324,37.941],[14.7311,37.9419],[14.7271,37.9406],[14.72,37.9363],[14.712,37.9253],[14.7135,37.9226],[14.7195,37.9169],[14.7388,37.9025],[14.738,37.9013],[14.7396,37.8901],[14.7385,37.8837],[14.7403,37.8765],[14.7368,37.8559],[14.7381,37.8485],[14.7391,37.8472],[14.7422,37.8474],[14.7465,37.8556],[14.7545,37.8653],[14.7586,37.8684],[14.7607,37.8684],[14.7779,37.8624],[14.7868,37.8554],[14.7894,37.8516],[14.7928,37.8416],[14.7919,37.8388],[14.8024,37.8165],[14.8028,37.8109],[14.8009,37.8047],[14.7973,37.8033],[14.7931,37.8063],[14.7872,37.8087],[14.775,37.8118],[14.7683,37.8206],[14.7639,37.8221],[14.7562,37.822],[14.7503,37.821],[14.7465,37.8176],[14.7448,37.8171],[14.7393,37.8187],[14.7241,37.8164],[14.7201,37.8172],[14.7173,37.8213],[14.7076,37.8283],[14.7026,37.8404],[14.7014,37.8545],[14.6994,37.8651],[14.6942,37.8686],[14.6901,37.8695],[14.6866,37.8687],[14.6794,37.8706],[14.679,37.8701],[14.6848,37.8644],[14.6864,37.8607],[14.6852,37.8572],[14.6823,37.8535],[14.6778,37.8276],[14.6833,37.8157],[14.6922,37.8089],[14.6946,37.8053],[14.6894,37.7999],[14.6823,37.7955],[14.679,37.7955],[14.6661,37.7996],[14.6558,37.8042],[14.645,37.8069],[14.6267,37.8074],[14.6228,37.8062],[14.6044,37.8089],[14.5917,37.8148],[14.5857,37.8204],[14.5696,37.8326],[14.5615,37.8365],[14.5581,37.8361],[14.5542,37.837],[14.5527,37.8393],[14.5576,37.8512],[14.562,37.8541],[14.5691,37.8566],[14.5731,37.8589],[14.5722,37.8748],[14.5717,37.8776],[14.5702,37.8796],[14.5715,37.8816],[14.573,37.8873],[14.571,37.8917],[14.5674,37.8943],[14.5631,37.8946],[14.5617,37.8938],[14.5435,37.8972],[14.5325,37.9049],[14.5316,37.9068],[14.5441,37.9172],[14.5488,37.9178],[14.5552,37.9164],[14.5595,37.9142],[14.562,37.9142],[14.5764,37.9219],[14.5914,37.9347],[14.6019,37.9271],[14.605,37.9232],[14.615,37.9181],[14.6249,37.9149],[14.6427,37.9123],[14.6461,37.9043],[14.6478,37.9028],[14.6495,37.9038],[14.6533,37.9098],[14.6543,37.913],[14.6546,37.9184],[14.6521,37.9231],[14.6655,37.9248],[14.6673,37.9257],[14.6746,37.9304],[14.6745,37.934],[14.6802,37.9318],[14.6828,37.9323],[14.6828,37.9333],[14.6767,37.9372],[14.6744,37.9416],[14.6786,37.9499],[14.6832,37.9528],[14.6876,37.9532],[14.6974,37.9521],[14.712,37.9558],[14.7191,37.9556],[14.7252,37.9511],[14.7317,37.9482],[14.7376,37.9467]]]}},{"type":"Feature","properties":{"i":"083018","n":"Condrò"},"geometry":{"type":"Polygon","coordinates":[[[15.3436,38.1433],[15.3392,38.1453],[15.3352,38.1519],[15.3176,38.1725],[15.3193,38.1908],[15.3231,38.1988],[15.3234,38.1926],[15.3244,38.19],[15.3284,38.1822],[15.3351,38.1738],[15.3365,38.1703],[15.3364,38.1659],[15.3456,38.1477],[15.3436,38.1433]]]}},{"type":"Feature","properties":{"i":"083019","n":"Falcone"},"geometry":{"type":"Polygon","coordinates":[[[15.0874,38.1202],[15.0914,38.1092],[15.0911,38.1056],[15.0845,38.1053],[15.0728,38.0985],[15.064,38.0899],[15.0619,38.0865],[15.0579,38.0826],[15.046,38.085],[15.041,38.0869],[15.052,38.1013],[15.0521,38.1044],[15.0558,38.1084],[15.0634,38.1128],[15.0696,38.1269],[15.0741,38.1226],[15.0803,38.1209],[15.0874,38.1202]]]}},{"type":"Feature","properties":{"i":"083020","n":"Ficarra"},"geometry":{"type":"Polygon","coordinates":[[[14.8581,38.1265],[14.8596,38.1231],[14.86,38.1154],[14.8632,38.1063],[14.871,38.0959],[14.855,38.1007],[14.8506,38.1041],[14.8459,38.103],[14.8418,38.0989],[14.8358,38.0951],[14.8311,38.0936],[14.8118,38.107],[14.8057,38.1093],[14.8041,38.1125],[14.8061,38.1153],[14.8116,38.1318],[14.8116,38.1416],[14.823,38.1462],[14.8273,38.1436],[14.8331,38.138],[14.8464,38.1301],[14.8517,38.1273],[14.8581,38.1265]]]}},{"type":"Feature","properties":{"i":"083021","n":"Fiumedinisi"},"geometry":{"type":"Polygon","coordinates":[[[15.3908,38.0804],[15.3912,38.0775],[15.3928,38.0759],[15.4029,38.0771],[15.4081,38.0791],[15.4127,38.0748],[15.4035,38.0664],[15.3985,38.0731],[15.397,38.0737],[15.3851,38.0665],[15.3813,38.0675],[15.3709,38.065],[15.3688,38.0638],[15.3666,38.0608],[15.3681,38.0551],[15.3727,38.0525],[15.3749,38.0519],[15.3804,38.0532],[15.3899,38.052],[15.3933,38.0478],[15.3951,38.0446],[15.3956,38.0331],[15.4023,38.0241],[15.4025,38.0207],[15.4059,38.0137],[15.4052,38.003],[15.3978,38.006],[15.3843,38.0036],[15.3808,38.0021],[15.3743,38.0052],[15.3699,38.0096],[15.3658,38.0176],[15.3662,38.021],[15.3641,38.0265],[15.3515,38.0338],[15.3473,38.0379],[15.3483,38.0431],[15.345,38.0455],[15.3435,38.0449],[15.3403,38.0404],[15.3335,38.0365],[15.33,38.0356],[15.3195,38.036],[15.3161,38.0386],[15.3155,38.0448],[15.3263,38.0545],[15.3298,38.0621],[15.3354,38.0687],[15.3468,38.0713],[15.3622,38.0787],[15.3658,38.0821],[15.3733,38.0846],[15.3773,38.0849],[15.3845,38.0837],[15.3908,38.0804]]]}},{"type":"Feature","properties":{"i":"083022","n":"Floresta"},"geometry":{"type":"Polygon","coordinates":[[[14.9484,37.9806],[14.9524,37.9786],[14.9535,37.9623],[14.956,37.9547],[14.952,37.9517],[14.9412,37.9508],[14.9375,37.9521],[14.9323,37.9547],[14.9301,37.9606],[14.9281,37.9607],[14.9182,37.9562],[14.8958,37.9487],[14.8782,37.9347],[14.8753,37.939],[14.8714,37.9496],[14.8708,37.9534],[14.8723,37.9597],[14.8754,37.9652],[14.8766,37.9688],[14.8744,37.9756],[14.8757,37.9816],[14.8787,37.9828],[14.881,37.9864],[14.8988,37.9932],[14.9061,37.9935],[14.9084,37.9918],[14.9184,37.9956],[14.9218,37.9914],[14.9237,37.9913],[14.9297,37.9939],[14.932,37.9938],[14.9474,37.9872],[14.9484,37.9806]]]}},{"type":"Feature","properties":{"i":"083023","n":"Fondachelli-Fantina"},"geometry":{"type":"Polygon","coordinates":[[[15.2208,38.0041],[15.2187,38.0031],[15.2149,37.9992],[15.2009,37.9919],[15.2031,37.9756],[15.1944,37.9684],[15.1888,37.9657],[15.1817,37.9582],[15.171,37.9562],[15.1611,37.9586],[15.1518,37.9689],[15.1453,37.9728],[15.1414,37.977],[15.1526,37.9917],[15.1619,37.9951],[15.1609,38.0008],[15.1585,38.0048],[15.1581,38.0113],[15.1583,38.0185],[15.1629,38.0322],[15.1617,38.0413],[15.1597,38.0438],[15.1597,38.0454],[15.1645,38.0514],[15.1687,38.0541],[15.1759,38.0489],[15.1804,38.0471],[15.1825,38.0469],[15.1858,38.0486],[15.1903,38.048],[15.199,38.0412],[15.2046,38.0312],[15.2081,38.0171],[15.2108,38.0139],[15.2155,38.0124],[15.2185,38.0095],[15.2208,38.0041]]]}},{"type":"Feature","properties":{"i":"083024","n":"Forza d'Agrò"},"geometry":{"type":"Polygon","coordinates":[[[15.319,37.9382],[15.3125,37.9343],[15.31,37.9347],[15.3096,37.9362],[15.3081,37.9374],[15.3063,37.9374],[15.3044,37.9346],[15.3029,37.9299],[15.3038,37.9265],[15.3053,37.928],[15.3056,37.9293],[15.3074,37.9304],[15.3182,37.9248],[15.3323,37.9225],[15.3427,37.9153],[15.3421,37.9125],[15.3435,37.9098],[15.336,37.9053],[15.3289,37.9098],[15.3197,37.9201],[15.3199,37.922],[15.3128,37.925],[15.3113,37.9234],[15.3101,37.9188],[15.31,37.9148],[15.3064,37.9112],[15.293,37.9077],[15.2872,37.9083],[15.2869,37.9138],[15.2826,37.9202],[15.281,37.9255],[15.2883,37.9348],[15.2888,37.9392],[15.2908,37.9417],[15.299,37.9488],[15.3107,37.9443],[15.3159,37.9397],[15.319,37.9382]]]}},{"type":"Feature","properties":{"i":"083025","n":"Francavilla di Sicilia"},"geometry":{"type":"Polygon","coordinates":[[[15.0889,37.9791],[15.0937,37.9754],[15.0974,37.974],[15.1037,37.9764],[15.1266,37.9728],[15.1365,37.9745],[15.1414,37.977],[15.1453,37.9728],[15.1518,37.9689],[15.1611,37.9586],[15.171,37.9562],[15.1817,37.9582],[15.1837,37.955],[15.1874,37.9401],[15.1817,37.936],[15.1811,37.9338],[15.1717,37.921],[15.1688,37.9184],[15.1622,37.9157],[15.1555,37.9104],[15.1554,37.9058],[15.1628,37.9019],[15.1607,37.8971],[15.1601,37.8927],[15.1605,37.8904],[15.1615,37.8896],[15.1585,37.8896],[15.1556,37.8909],[15.1536,37.895],[15.1526,37.8955],[15.1454,37.8952],[15.1408,37.8936],[15.1306,37.894],[15.1277,37.8976],[15.1117,37.9061],[15.0971,37.9027],[15.0807,37.9023],[15.0715,37.904],[15.0644,37.9079],[15.0614,37.9109],[15.0592,37.9166],[15.0608,37.9192],[15.0624,37.9258],[15.063,37.9293],[15.0619,37.9319],[15.0489,37.9447],[15.043,37.9475],[15.0536,37.9546],[15.0552,37.9602],[15.0544,37.9668],[15.0559,37.9684],[15.0767,37.9786],[15.0809,37.9795],[15.0879,37.9797],[15.0889,37.9791]]]}},{"type":"Feature","properties":{"i":"083026","n":"Frazzanò"},"geometry":{"type":"Polygon","coordinates":[[[14.7595,38.0737],[14.7585,38.0651],[14.7654,38.0569],[14.7651,38.0534],[14.7616,38.0484],[14.7442,38.0482],[14.7442,38.0497],[14.7313,38.0726],[14.7278,38.0757],[14.7369,38.0796],[14.7453,38.0815],[14.7439,38.0797],[14.744,38.0763],[14.7449,38.0747],[14.7508,38.0716],[14.7595,38.0737]]]}},{"type":"Feature","properties":{"i":"083027","n":"Furci Siculo"},"geometry":{"type":"Polygon","coordinates":[[[15.2862,38.0309],[15.2869,38.0263],[15.2906,38.0155],[15.2929,38.0115],[15.2993,38.0044],[15.3045,38.0007],[15.336,37.9827],[15.3645,37.9766],[15.3774,37.9683],[15.3866,37.9639],[15.3802,37.9572],[15.3749,37.959],[15.3637,37.9603],[15.359,37.9618],[15.3541,37.9653],[15.3472,37.9651],[15.3345,37.9689],[15.3205,37.9766],[15.3168,37.9811],[15.3065,37.9814],[15.3053,37.9823],[15.2949,37.9833],[15.2879,37.9886],[15.2864,37.9914],[15.2869,37.9944],[15.2853,38.0009],[15.2773,38.0173],[15.2709,38.0238],[15.2688,38.0321],[15.2862,38.0309]]]}},{"type":"Feature","properties":{"i":"083028","n":"Furnari"},"geometry":{"type":"Polygon","coordinates":[[[15.1328,38.1068],[15.1326,38.1038],[15.1341,38.102],[15.1354,38.1018],[15.1341,38.0966],[15.1304,38.0949],[15.1252,38.0978],[15.1236,38.0965],[15.1222,38.0938],[15.122,38.0884],[15.1169,38.0895],[15.1065,38.085],[15.1027,38.0828],[15.097,38.0769],[15.0913,38.0875],[15.0921,38.0917],[15.0958,38.0969],[15.0976,38.1053],[15.0949,38.1059],[15.0911,38.1056],[15.0914,38.1092],[15.0874,38.1202],[15.0952,38.1208],[15.1018,38.1224],[15.1088,38.125],[15.1193,38.1306],[15.1241,38.1234],[15.1242,38.1157],[15.1273,38.1115],[15.1328,38.1068]]]}},{"type":"Feature","properties":{"i":"083029","n":"Gaggi"},"geometry":{"type":"Polygon","coordinates":[[[15.2373,37.8802],[15.2381,37.8766],[15.2362,37.8726],[15.2382,37.8468],[15.2347,37.8451],[15.2229,37.8467],[15.2211,37.8504],[15.213,37.8543],[15.2099,37.8571],[15.2096,37.8601],[15.2125,37.8653],[15.218,37.8803],[15.2211,37.8834],[15.2373,37.8802]]]}},{"type":"Feature","properties":{"i":"083030","n":"Galati Mamertino"},"geometry":{"type":"Polygon","coordinates":[[[14.8021,38.0386],[14.804,38.0344],[14.8041,38.032],[14.7999,38.023],[14.8035,38.0167],[14.8068,38.0116],[14.8131,38.0074],[14.8141,38.006],[14.8171,38.0006],[14.8175,37.9971],[14.8198,37.9939],[14.8357,37.981],[14.8386,37.9764],[14.835,37.971],[14.8316,37.9677],[14.8284,37.9661],[14.8248,37.966],[14.8112,37.9699],[14.8026,37.9696],[14.7987,37.9678],[14.7963,37.9645],[14.7885,37.9624],[14.7842,37.9655],[14.7813,37.9726],[14.7658,37.9821],[14.7599,37.9898],[14.757,37.9951],[14.7576,37.9982],[14.7592,38.0],[14.7644,38.003],[14.7709,38.0133],[14.7695,38.0156],[14.7609,38.0205],[14.7594,38.0225],[14.7576,38.0265],[14.7559,38.0349],[14.7565,38.0405],[14.7581,38.0416],[14.7616,38.0484],[14.7649,38.0531],[14.7731,38.0508],[14.7767,38.0475],[14.7845,38.0431],[14.7922,38.0405],[14.8021,38.0386]]]}},{"type":"Feature","properties":{"i":"083031","n":"Gallodoro"},"geometry":{"type":"Polygon","coordinates":[[[15.3289,37.9098],[15.3235,37.9088],[15.3152,37.8994],[15.3122,37.899],[15.3092,37.8973],[15.2987,37.8892],[15.2933,37.8876],[15.2874,37.8885],[15.286,37.8897],[15.2849,37.8933],[15.2883,37.8942],[15.2892,37.8981],[15.2872,37.9083],[15.293,37.9077],[15.3064,37.9112],[15.31,37.9148],[15.3101,37.9188],[15.3113,37.9234],[15.3128,37.925],[15.3199,37.922],[15.3197,37.9201],[15.3289,37.9098]]]}},{"type":"Feature","properties":{"i":"083032","n":"Giardini-Naxos"},"geometry":{"type":"Polygon","coordinates":[[[15.2808,37.8426],[15.2731,37.8358],[15.2691,37.8307],[15.269,37.8277],[15.2703,37.8261],[15.2732,37.8243],[15.2755,37.8247],[15.276,37.823],[15.2741,37.8203],[15.2626,37.8123],[15.2585,37.807],[15.2528,37.8089],[15.2463,37.8128],[15.2466,37.8175],[15.2484,37.821],[15.2532,37.8236],[15.2607,37.8303],[15.2667,37.8381],[15.2692,37.8444],[15.2755,37.8455],[15.2786,37.8449],[15.2808,37.8426]]]}},{"type":"Feature","properties":{"i":"083033","n":"Gioiosa Marea"},"geometry":{"type":"Polygon","coordinates":[[[14.9642,38.1575],[14.9578,38.1533],[14.9491,38.1518],[14.9469,38.1523],[14.9374,38.1493],[14.9321,38.1464],[14.9323,38.145],[14.9298,38.1445],[14.9221,38.1398],[14.9174,38.1301],[14.9141,38.1203],[14.9143,38.1174],[14.9159,38.114],[14.9164,38.1082],[14.9128,38.1096],[14.9102,38.1117],[14.9015,38.1228],[14.8896,38.1404],[14.8858,38.1443],[14.888,38.1434],[14.9006,38.1417],[14.8996,38.1453],[14.9001,38.1488],[14.9042,38.1552],[14.904,38.1587],[14.8943,38.1696],[14.8906,38.1725],[14.8974,38.1789],[14.9147,38.1919],[14.9234,38.1899],[14.9284,38.1851],[14.9404,38.1798],[14.9474,38.1747],[14.9521,38.1675],[14.9642,38.1575]]]}},{"type":"Feature","properties":{"i":"083034","n":"Graniti"},"geometry":{"type":"Polygon","coordinates":[[[15.2224,37.883],[15.2211,37.8834],[15.218,37.8803],[15.2125,37.8653],[15.2096,37.8601],[15.2062,37.8608],[15.2002,37.8651],[15.1959,37.8671],[15.1971,37.8753],[15.2029,37.8894],[15.2084,37.8939],[15.2156,37.9024],[15.2165,37.9104],[15.2154,37.9179],[15.2166,37.9191],[15.2201,37.9201],[15.2283,37.9197],[15.2304,37.9207],[15.2319,37.9172],[15.2301,37.9116],[15.2306,37.9004],[15.2278,37.8899],[15.2224,37.883]]]}},{"type":"Feature","properties":{"i":"083035","n":"Gualtieri Sicaminò"},"geometry":{"type":"Polygon","coordinates":[[[15.3176,38.1725],[15.3352,38.1519],[15.3392,38.1453],[15.3458,38.1426],[15.3517,38.1422],[15.3638,38.1431],[15.3606,38.1339],[15.3595,38.1267],[15.3551,38.1163],[15.3464,38.1042],[15.3444,38.1032],[15.3422,38.1029],[15.3399,38.1063],[15.3374,38.1073],[15.3305,38.1148],[15.3319,38.117],[15.3301,38.131],[15.3229,38.1421],[15.3204,38.1516],[15.3167,38.1598],[15.3138,38.1607],[15.3044,38.16],[15.3072,38.1617],[15.3129,38.1736],[15.3159,38.174],[15.3176,38.1725]]]}},{"type":"Feature","properties":{"i":"083036","n":"Itala"},"geometry":{"type":"Polygon","coordinates":[[[15.4409,38.064],[15.4417,38.0618],[15.4388,38.0579],[15.4387,38.0548],[15.4437,38.0479],[15.4518,38.0438],[15.4569,38.0391],[15.443,38.0258],[15.4408,38.0275],[15.4392,38.0324],[15.4359,38.038],[15.4289,38.0404],[15.4229,38.0404],[15.4189,38.0438],[15.4094,38.0561],[15.406,38.0587],[15.4015,38.0643],[15.4127,38.0748],[15.4188,38.0711],[15.4271,38.0693],[15.4409,38.064]]]}},{"type":"Feature","properties":{"i":"083037","n":"Leni"},"geometry":{"type":"Polygon","coordinates":[[[14.8447,38.5647],[14.8457,38.5564],[14.8491,38.5478],[14.8486,38.5417],[14.8467,38.5379],[14.8284,38.5472],[14.821,38.5482],[14.8053,38.554],[14.7967,38.5608],[14.7958,38.5624],[14.7987,38.5661],[14.8139,38.5654],[14.8263,38.5683],[14.8373,38.5676],[14.8412,38.5649],[14.8447,38.5647]]]}},{"type":"Feature","properties":{"i":"083038","n":"Letojanni"},"geometry":{"type":"Polygon","coordinates":[[[15.336,37.9053],[15.3188,37.8886],[15.3096,37.8813],[15.3043,37.8756],[15.29,37.8765],[15.2823,37.8838],[15.28,37.8899],[15.2825,37.894],[15.2841,37.8948],[15.286,37.8897],[15.2874,37.8885],[15.2933,37.8876],[15.2987,37.8892],[15.3092,37.8973],[15.3122,37.899],[15.3152,37.8994],[15.3235,37.9088],[15.3289,37.9098],[15.336,37.9053]]]}},{"type":"Feature","properties":{"i":"083039","n":"Librizzi"},"geometry":{"type":"Polygon","coordinates":[[[15.0106,38.072],[15.0061,38.0715],[15.0022,38.0672],[14.9855,38.0628],[14.9826,38.0638],[14.9757,38.072],[14.9721,38.0731],[14.9676,38.0714],[14.9545,38.0696],[14.9374,38.0714],[14.9311,38.0736],[14.9275,38.0771],[14.9259,38.0811],[14.9265,38.0841],[14.9248,38.0912],[14.9217,38.095],[14.9206,38.0979],[14.9245,38.0997],[14.9293,38.1001],[14.9428,38.0989],[14.9493,38.1014],[14.9586,38.1062],[14.9633,38.1074],[14.9662,38.1075],[14.9722,38.1037],[14.976,38.105],[14.9945,38.091],[14.9984,38.0902],[15.003,38.0801],[15.0106,38.072]]]}},{"type":"Feature","properties":{"i":"083040","n":"Limina"},"geometry":{"type":"Polygon","coordinates":[[[15.299,37.9488],[15.2903,37.9411],[15.2888,37.9392],[15.2883,37.9348],[15.281,37.9255],[15.2752,37.9264],[15.2643,37.9376],[15.2626,37.9381],[15.2572,37.9359],[15.254,37.9363],[15.25,37.9382],[15.2532,37.9475],[15.251,37.9535],[15.2548,37.9572],[15.2577,37.9539],[15.2642,37.9553],[15.2661,37.9565],[15.2691,37.9558],[15.2779,37.9569],[15.2922,37.9567],[15.2987,37.9536],[15.299,37.9488]]]}},{"type":"Feature","properties":{"i":"083041","n":"Lipari"},"geometry":{"type":"MultiPolygon","coordinates":[[[[14.96,38.4323],[14.9648,38.4296],[14.9686,38.4251],[14.9675,38.4224],[14.9624,38.4198],[14.9636,38.4121],[14.9806,38.4097],[14.9853,38.4066],[14.997,38.3963],[15.0005,38.3856],[15.0053,38.376],[15.0051,38.3738],[15.0025,38.3712],[14.9921,38.3667],[14.9828,38.3671],[14.9776,38.3688],[14.968,38.3759],[14.9569,38.382],[14.9488,38.388],[14.9475,38.3917],[14.9395,38.4022],[14.9389,38.4077],[14.9395,38.4113],[14.9455,38.4171],[14.9539,38.418],[14.9559,38.4189],[14.9562,38.4202],[14.9534,38.4245],[14.9541,38.4288],[14.9568,38.4312],[14.96,38.4323]]],[[[14.9605,38.5234],[14.9625,38.5213],[14.9618,38.5131],[14.9634,38.5026],[14.9616,38.4981],[14.9626,38.4909],[14.9646,38.4884],[14.9681,38.4859],[14.971,38.4851],[14.9735,38.486],[14.9769,38.486],[14.9798,38.4845],[14.9807,38.4832],[14.9795,38.4792],[14.9629,38.4768],[14.9627,38.4779],[14.9617,38.4784],[14.9571,38.477],[14.9553,38.4744],[14.9545,38.4721],[14.957,38.4631],[14.9568,38.4597],[14.9591,38.4551],[14.9622,38.4536],[14.9622,38.4512],[14.9583,38.4419],[14.9557,38.4395],[14.9532,38.4392],[14.9454,38.441],[14.9423,38.4426],[14.9415,38.4494],[14.9346,38.4595],[14.9181,38.4629],[14.9132,38.465],[14.8996,38.4782],[14.8999,38.4916],[14.9022,38.4948],[14.9034,38.4992],[14.9047,38.5112],[14.9125,38.5184],[14.9262,38.523],[14.932,38.5202],[14.9456,38.5196],[14.9605,38.5234]]],[[[14.3619,38.5543],[14.3648,38.5525],[14.3665,38.5496],[14.3636,38.5378],[14.3598,38.5321],[14.356,38.5307],[14.349,38.5308],[14.3426,38.5332],[14.3396,38.5396],[14.3392,38.5433],[14.3403,38.5482],[14.345,38.5526],[14.3478,38.5537],[14.3619,38.5543]]],[[[14.5532,38.5858],[14.5614,38.5847],[14.5762,38.5809],[14.5806,38.5749],[14.5814,38.5726],[14.5796,38.5673],[14.5804,38.5624],[14.5815,38.5611],[14.586,38.5589],[14.5879,38.5585],[14.591,38.5598],[14.5927,38.5592],[14.5938,38.5578],[14.5933,38.5558],[14.5871,38.5536],[14.5841,38.5546],[14.5826,38.556],[14.5774,38.5574],[14.5677,38.5589],[14.5602,38.5577],[14.5537,38.5604],[14.5411,38.572],[14.5394,38.5775],[14.5415,38.5824],[14.5441,38.5854],[14.5532,38.5858]]],[[[15.0976,38.6403],[15.0981,38.6388],[15.0959,38.6392],[15.0976,38.6403]]],[[[15.1143,38.6404],[15.1156,38.6388],[15.1141,38.6385],[15.1124,38.6393],[15.1143,38.6404]]],[[[15.0729,38.6467],[15.0769,38.644],[15.0774,38.6413],[15.0779,38.636],[15.0752,38.6313],[15.0732,38.6289],[15.0632,38.6255],[15.0571,38.6248],[15.0559,38.6254],[15.0546,38.6291],[15.0601,38.6437],[15.0687,38.6472],[15.0729,38.6467]]],[[[15.1086,38.665],[15.1091,38.6643],[15.1076,38.665],[15.1086,38.665]]],[[[15.1143,38.666],[15.1178,38.6646],[15.118,38.6611],[15.1103,38.6621],[15.1096,38.6633],[15.1104,38.6643],[15.1143,38.666]]],[[[15.2214,38.812],[15.2394,38.8063],[15.2423,38.805],[15.2432,38.8034],[15.2415,38.7993],[15.2308,38.7886],[15.2294,38.7822],[15.2269,38.7772],[15.2172,38.7724],[15.2075,38.775],[15.1945,38.7813],[15.1896,38.7858],[15.1875,38.7907],[15.1896,38.796],[15.194,38.7967],[15.1987,38.7988],[15.2059,38.8036],[15.2132,38.8105],[15.2162,38.8117],[15.2214,38.812]]],[[[15.2525,38.8175],[15.2519,38.817],[15.2512,38.8177],[15.2525,38.8175]]]]}},{"type":"Feature","properties":{"i":"083042","n":"Longi"},"geometry":{"type":"Polygon","coordinates":[[[14.7885,37.9624],[14.7847,37.9512],[14.7825,37.9492],[14.7808,37.9457],[14.7648,37.9402],[14.7627,37.9358],[14.7628,37.9277],[14.7615,37.9233],[14.7565,37.9168],[14.7579,37.9141],[14.7633,37.9119],[14.7725,37.9101],[14.7779,37.9057],[14.7785,37.9041],[14.7755,37.9026],[14.7721,37.8978],[14.7713,37.8952],[14.7721,37.8933],[14.7714,37.8901],[14.7669,37.8885],[14.7645,37.8895],[14.7631,37.8919],[14.7636,37.8963],[14.76,37.8998],[14.748,37.9002],[14.7388,37.9025],[14.7195,37.9169],[14.7135,37.9226],[14.712,37.9253],[14.72,37.9363],[14.7271,37.9406],[14.7311,37.9419],[14.7324,37.941],[14.7348,37.942],[14.7369,37.9443],[14.7376,37.9467],[14.7501,37.9463],[14.7541,37.9477],[14.7625,37.9543],[14.7625,37.9623],[14.7614,37.9653],[14.7484,37.9785],[14.7362,37.9875],[14.7364,37.9897],[14.7464,37.996],[14.7495,37.9999],[14.7448,38.0105],[14.7308,38.0312],[14.735,38.0305],[14.7392,38.0423],[14.7442,38.0482],[14.7616,38.0484],[14.7589,38.0429],[14.7565,38.0405],[14.7559,38.0349],[14.7576,38.0265],[14.7609,38.0205],[14.7695,38.0156],[14.7709,38.0129],[14.7644,38.003],[14.7592,38.0],[14.7576,37.9982],[14.757,37.9951],[14.7599,37.9898],[14.7658,37.9821],[14.7813,37.9726],[14.7842,37.9655],[14.7885,37.9624]]]}},{"type":"Feature","properties":{"i":"083043","n":"Malfa"},"geometry":{"type":"MultiPolygon","coordinates":[[[[14.8007,38.579],[14.8004,38.5798],[14.8016,38.5794],[14.8007,38.579]]],[[[14.8713,38.5775],[14.8635,38.5766],[14.8447,38.5647],[14.8412,38.5649],[14.8373,38.5676],[14.8263,38.5683],[14.8139,38.5654],[14.7987,38.5661],[14.7994,38.5713],[14.8007,38.5738],[14.8078,38.5824],[14.814,38.583],[14.8347,38.5824],[14.8457,38.5794],[14.8511,38.5803],[14.8563,38.5822],[14.8661,38.5832],[14.8722,38.5806],[14.8713,38.5775]]]]}},{"type":"Feature","properties":{"i":"083044","n":"Malvagna"},"geometry":{"type":"Polygon","coordinates":[[[15.0715,37.904],[15.0581,37.8983],[15.0543,37.9133],[15.0505,37.9234],[15.0494,37.9243],[15.0382,37.9268],[15.0348,37.9299],[15.0361,37.9386],[15.0387,37.9451],[15.043,37.9475],[15.0489,37.9447],[15.0619,37.9319],[15.063,37.9293],[15.0624,37.9258],[15.0608,37.9192],[15.0592,37.9166],[15.0608,37.9117],[15.0644,37.9079],[15.0715,37.904]]]}},{"type":"Feature","properties":{"i":"083045","n":"Mandanici"},"geometry":{"type":"Polygon","coordinates":[[[15.3195,38.036],[15.3207,38.0311],[15.3231,38.0277],[15.3266,38.026],[15.3291,38.026],[15.335,38.0204],[15.335,38.0182],[15.3432,38.0155],[15.3469,38.0069],[15.3469,38.0053],[15.3489,38.0034],[15.351,38.003],[15.3488,37.9918],[15.3464,37.9896],[15.3449,37.9891],[15.3319,37.9946],[15.3209,37.9978],[15.3116,38.006],[15.3069,38.012],[15.3049,38.0214],[15.3079,38.0248],[15.3089,38.0276],[15.3099,38.0315],[15.309,38.0372],[15.3161,38.0386],[15.3195,38.036]]]}},{"type":"Feature","properties":{"i":"083046","n":"Mazzarrà Sant'Andrea"},"geometry":{"type":"Polygon","coordinates":[[[15.1387,38.1073],[15.1385,38.1028],[15.1408,38.0978],[15.1416,38.0867],[15.1393,38.0754],[15.1399,38.0746],[15.1391,38.0631],[15.1368,38.059],[15.1307,38.0571],[15.125,38.0599],[15.1213,38.0629],[15.1239,38.0664],[15.1254,38.0762],[15.122,38.0884],[15.122,38.0924],[15.1232,38.0959],[15.1252,38.0978],[15.1304,38.0949],[15.1341,38.0966],[15.1354,38.1018],[15.1341,38.102],[15.1326,38.1038],[15.1328,38.1068],[15.1387,38.1073]]]}},{"type":"Feature","properties":{"i":"083047","n":"Merì"},"geometry":{"type":"Polygon","coordinates":[[[15.2637,38.1589],[15.2624,38.1498],[15.2584,38.1518],[15.2581,38.1571],[15.2569,38.1607],[15.2445,38.1638],[15.2422,38.1725],[15.2544,38.1679],[15.2632,38.1632],[15.2641,38.1615],[15.2637,38.1589]]]}},{"type":"Feature","properties":{"i":"083048","n":"Messina"},"geometry":{"type":"Polygon","coordinates":[[[15.4772,38.0546],[15.4661,38.0555],[15.46,38.0577],[15.4476,38.0647],[15.4454,38.065],[15.4409,38.064],[15.4271,38.0693],[15.4188,38.0711],[15.4146,38.0731],[15.4081,38.0791],[15.4159,38.0858],[15.4232,38.1003],[15.4313,38.1069],[15.4362,38.1093],[15.4458,38.1159],[15.4458,38.1195],[15.4489,38.1296],[15.4568,38.1371],[15.46,38.1433],[15.4637,38.1574],[15.4644,38.1648],[15.4708,38.1735],[15.4801,38.1906],[15.4781,38.1941],[15.4766,38.1993],[15.48,38.2126],[15.4816,38.2138],[15.4802,38.2239],[15.4687,38.2298],[15.4601,38.2323],[15.4538,38.238],[15.4488,38.2451],[15.4439,38.2487],[15.4495,38.2513],[15.5168,38.2957],[15.5414,38.3014],[15.5509,38.2999],[15.561,38.2947],[15.5689,38.2885],[15.5782,38.2838],[15.5892,38.2801],[15.6017,38.2775],[15.6087,38.2748],[15.6183,38.2731],[15.6412,38.2725],[15.6482,38.271],[15.6522,38.2692],[15.6533,38.2677],[15.652,38.2647],[15.6114,38.2567],[15.5869,38.2482],[15.5836,38.2467],[15.5816,38.2447],[15.5706,38.2305],[15.5675,38.2245],[15.5661,38.2156],[15.5617,38.2089],[15.5582,38.1971],[15.5576,38.1904],[15.5586,38.1889],[15.5627,38.1881],[15.5669,38.1906],[15.5696,38.1958],[15.5681,38.1965],[15.5624,38.1965],[15.5664,38.1978],[15.5727,38.1972],[15.5746,38.1932],[15.5724,38.1897],[15.5631,38.1834],[15.5329,38.1461],[15.5229,38.1298],[15.5171,38.1177],[15.5075,38.102],[15.5,38.0857],[15.4938,38.0749],[15.4889,38.0692],[15.4814,38.0633],[15.4784,38.0584],[15.4772,38.0546]]]}},{"type":"Feature","properties":{"i":"083049","n":"Milazzo"},"geometry":{"type":"MultiPolygon","coordinates":[[[[15.2727,38.2078],[15.2731,38.2067],[15.272,38.1997],[15.2701,38.1972],[15.2688,38.1925],[15.2687,38.1861],[15.2696,38.1835],[15.2532,38.1684],[15.2367,38.174],[15.2197,38.1773],[15.2095,38.1835],[15.2194,38.1958],[15.2253,38.2048],[15.2369,38.2311],[15.2412,38.2436],[15.2409,38.2451],[15.2364,38.248],[15.2356,38.2556],[15.2372,38.26],[15.2369,38.2639],[15.2359,38.266],[15.2332,38.268],[15.229,38.2691],[15.225,38.2681],[15.2244,38.2703],[15.2333,38.2713],[15.2381,38.2698],[15.2502,38.2551],[15.2518,38.2519],[15.2535,38.246],[15.2472,38.2295],[15.2409,38.2183],[15.2414,38.2169],[15.2485,38.212],[15.2545,38.2096],[15.2614,38.2079],[15.2727,38.2078]]]]}},{"type":"Feature","properties":{"i":"083050","n":"Militello Rosmarino"},"geometry":{"type":"Polygon","coordinates":[[[14.6768,38.0666],[14.6827,38.0603],[14.684,38.0486],[14.6859,38.0445],[14.6819,38.0387],[14.6834,38.028],[14.6609,38.0034],[14.6594,37.9979],[14.6604,37.9941],[14.663,37.9913],[14.6671,37.9844],[14.671,37.9735],[14.6697,37.9647],[14.6709,37.9601],[14.6738,37.9546],[14.674,37.9523],[14.6708,37.9469],[14.672,37.938],[14.675,37.9337],[14.6662,37.9351],[14.6498,37.9449],[14.6402,37.9663],[14.6374,37.9692],[14.6273,37.9746],[14.6256,37.9824],[14.6277,37.9909],[14.6278,37.9942],[14.6304,37.994],[14.6386,37.9914],[14.647,37.9873],[14.6519,37.9832],[14.6554,37.978],[14.659,37.9761],[14.6612,37.9841],[14.6584,37.9892],[14.6568,37.9942],[14.6581,38.0075],[14.6545,38.018],[14.6544,38.0243],[14.6527,38.0327],[14.6532,38.0351],[14.6594,38.0366],[14.6599,38.0431],[14.6547,38.0498],[14.655,38.0539],[14.6555,38.0552],[14.6596,38.0564],[14.6699,38.0737],[14.6768,38.0666]]]}},{"type":"Feature","properties":{"i":"083051","n":"Mirto"},"geometry":{"type":"Polygon","coordinates":[[[14.7236,38.1084],[14.7292,38.1077],[14.7463,38.1009],[14.7615,38.0987],[14.7653,38.0971],[14.773,38.0916],[14.7714,38.085],[14.7694,38.0819],[14.7627,38.0773],[14.7595,38.0737],[14.7508,38.0716],[14.7442,38.0754],[14.7439,38.0797],[14.7453,38.0815],[14.7369,38.0796],[14.7389,38.0818],[14.7328,38.093],[14.7294,38.0978],[14.7224,38.1039],[14.7208,38.1067],[14.7208,38.1093],[14.7236,38.1084]]]}},{"type":"Feature","properties":{"i":"083052","n":"Mistretta"},"geometry":{"type":"Polygon","coordinates":[[[14.4582,37.8907],[14.4529,37.8881],[14.4359,37.8831],[14.4249,37.884],[14.4188,37.8812],[14.4092,37.8708],[14.4027,37.8601],[14.3994,37.8563],[14.3996,37.8534],[14.3961,37.8483],[14.3921,37.851],[14.382,37.8515],[14.3583,37.8492],[14.3501,37.8477],[14.3267,37.8376],[14.3224,37.8397],[14.3161,37.8403],[14.3042,37.8378],[14.3013,37.8363],[14.2938,37.8489],[14.2931,37.8533],[14.2978,37.8587],[14.3022,37.861],[14.3109,37.8676],[14.3148,37.8731],[14.3252,37.8843],[14.3254,37.887],[14.3237,37.9019],[14.3059,37.9203],[14.3012,37.924],[14.303,37.9324],[14.3002,37.9387],[14.2963,37.9415],[14.2956,37.9453],[14.3063,37.946],[14.3082,37.9501],[14.3217,37.9522],[14.3271,37.954],[14.3296,37.9524],[14.3459,37.9531],[14.3615,37.9643],[14.3632,37.9616],[14.3701,37.9563],[14.3806,37.9575],[14.3868,37.9663],[14.3895,37.9679],[14.3986,37.961],[14.4084,37.9574],[14.4264,37.9377],[14.4334,37.934],[14.4355,37.9252],[14.4369,37.9142],[14.4402,37.9069],[14.4547,37.8977],[14.4574,37.8946],[14.4582,37.8907]]]}},{"type":"Feature","properties":{"i":"083053","n":"Moio Alcantara"},"geometry":{"type":"Polygon","coordinates":[[[15.0581,37.8983],[15.0492,37.8948],[15.0426,37.8937],[15.0316,37.895],[15.029,37.8961],[15.028,37.8973],[15.0287,37.8978],[15.028,37.9029],[15.0258,37.9055],[15.0243,37.9107],[15.026,37.9206],[15.0276,37.9251],[15.0348,37.9299],[15.0382,37.9268],[15.0501,37.924],[15.0543,37.9133],[15.0581,37.8983]]]}},{"type":"Feature","properties":{"i":"083054","n":"Monforte San Giorgio"},"geometry":{"type":"Polygon","coordinates":[[[15.3547,38.1843],[15.3567,38.1808],[15.3642,38.1739],[15.384,38.1673],[15.3861,38.1657],[15.3948,38.1541],[15.4,38.1495],[15.4072,38.1492],[15.4158,38.1439],[15.4221,38.138],[15.4229,38.135],[15.4395,38.1195],[15.4404,38.117],[15.4434,38.1144],[15.4362,38.1093],[15.4313,38.1069],[15.4232,38.1003],[15.4159,38.0858],[15.4081,38.0791],[15.4029,38.0771],[15.3932,38.0758],[15.3913,38.0772],[15.3908,38.0804],[15.3951,38.0813],[15.3962,38.0916],[15.4049,38.0987],[15.4027,38.1122],[15.4007,38.1157],[15.3926,38.1185],[15.3907,38.1203],[15.3924,38.1261],[15.3912,38.1304],[15.3884,38.1314],[15.3868,38.131],[15.3822,38.1343],[15.3754,38.1422],[15.3751,38.1466],[15.3676,38.1575],[15.366,38.1636],[15.3576,38.1687],[15.3527,38.17],[15.3475,38.1768],[15.3453,38.1833],[15.3456,38.189],[15.3313,38.2046],[15.3287,38.209],[15.3277,38.2148],[15.3411,38.2158],[15.3409,38.2108],[15.3416,38.2077],[15.3488,38.1911],[15.351,38.1874],[15.3547,38.1843]]]}},{"type":"Feature","properties":{"i":"083055","n":"Mongiuffi Melia"},"geometry":{"type":"Polygon","coordinates":[[[15.2752,37.9264],[15.281,37.9255],[15.2826,37.9202],[15.2869,37.9138],[15.289,37.8959],[15.2883,37.8942],[15.2862,37.8933],[15.2849,37.8933],[15.2838,37.8948],[15.2809,37.8916],[15.28,37.8899],[15.2823,37.8838],[15.2781,37.8814],[15.2694,37.8801],[15.2456,37.8893],[15.2436,37.8875],[15.2416,37.8831],[15.2373,37.8802],[15.2224,37.883],[15.2278,37.8899],[15.2306,37.9004],[15.2301,37.9116],[15.2319,37.9172],[15.2304,37.9207],[15.2379,37.9181],[15.2408,37.9192],[15.243,37.9227],[15.2422,37.9276],[15.2426,37.9314],[15.2471,37.9327],[15.2503,37.9361],[15.2598,37.9323],[15.2627,37.9272],[15.2651,37.9264],[15.2731,37.9271],[15.2752,37.9264]]]}},{"type":"Feature","properties":{"i":"083056","n":"Montagnareale"},"geometry":{"type":"Polygon","coordinates":[[[14.9662,38.1075],[14.9586,38.1062],[14.9493,38.1014],[14.9428,38.0989],[14.9293,38.1001],[14.9245,38.0997],[14.9209,38.0984],[14.9164,38.1082],[14.9159,38.114],[14.914,38.1196],[14.9174,38.1301],[14.9221,38.1398],[14.9318,38.1451],[14.9355,38.1386],[14.939,38.1371],[14.9436,38.1373],[14.9444,38.1399],[14.9544,38.1399],[14.9593,38.1193],[14.9603,38.1176],[14.9649,38.1138],[14.9662,38.1075]]]}},{"type":"Feature","properties":{"i":"083057","n":"Montalbano Elicona"},"geometry":{"type":"Polygon","coordinates":[[[15.041,38.0869],[15.046,38.085],[15.0579,38.0826],[15.0551,38.079],[15.0548,38.071],[15.0535,38.0683],[15.0485,38.0628],[15.0419,38.0526],[15.0427,38.0475],[15.0456,38.0402],[15.0484,38.0375],[15.0465,38.0346],[15.0448,38.0287],[15.0469,38.0201],[15.0463,38.012],[15.0469,38.0076],[15.0512,37.9849],[15.0487,37.9777],[15.0559,37.9684],[15.0544,37.9668],[15.0552,37.9602],[15.053,37.9538],[15.0387,37.9451],[15.0312,37.9487],[15.0192,37.9519],[15.0176,37.9537],[15.0199,37.9584],[15.0228,37.9608],[15.0241,37.9647],[15.0244,37.9731],[15.0263,37.9824],[15.0246,37.984],[15.0056,37.9836],[14.9948,37.9847],[14.9749,37.9818],[14.968,37.9804],[14.965,37.9787],[14.9603,37.9775],[14.9524,37.9786],[14.9484,37.9806],[14.9593,37.984],[14.962,37.9862],[14.9653,37.9902],[14.9698,37.9983],[14.9799,38.0093],[14.9843,38.0117],[14.987,38.0143],[14.9861,38.0233],[14.9872,38.0323],[14.9911,38.0418],[14.9967,38.0468],[15.0029,38.0503],[15.0058,38.0559],[15.0103,38.0675],[15.0106,38.072],[15.0143,38.0738],[15.0152,38.0764],[15.0336,38.0892],[15.041,38.0869]]]}},{"type":"Feature","properties":{"i":"083058","n":"Motta Camastra"},"geometry":{"type":"Polygon","coordinates":[[[15.2166,37.9191],[15.2152,37.9173],[15.2165,37.9104],[15.2156,37.9024],[15.2084,37.8939],[15.2029,37.8894],[15.1971,37.8753],[15.1959,37.8671],[15.1917,37.8711],[15.1856,37.8752],[15.1739,37.8775],[15.1605,37.8904],[15.1607,37.8971],[15.1628,37.9019],[15.1554,37.9058],[15.1555,37.9104],[15.1622,37.9157],[15.1688,37.9184],[15.1717,37.921],[15.1811,37.9338],[15.1817,37.936],[15.1874,37.9401],[15.1896,37.9377],[15.1928,37.9358],[15.1959,37.9352],[15.2042,37.9312],[15.2124,37.9218],[15.2166,37.9191]]]}},{"type":"Feature","properties":{"i":"083059","n":"Motta d'Affermo"},"geometry":{"type":"Polygon","coordinates":[[[14.326,37.9595],[14.3135,37.9724],[14.3091,37.9758],[14.2927,37.9852],[14.2841,37.9913],[14.2824,37.993],[14.2821,37.9958],[14.2705,38.0093],[14.2702,38.0127],[14.2854,38.0073],[14.2885,38.007],[14.309,38.0079],[14.325,38.012],[14.3263,38.0072],[14.3255,38.003],[14.326,37.9955],[14.3266,37.994],[14.3284,37.9928],[14.3263,37.9779],[14.3283,37.9642],[14.326,37.9595]]]}},{"type":"Feature","properties":{"i":"083060","n":"Naso"},"geometry":{"type":"Polygon","coordinates":[[[14.8116,38.1416],[14.8116,38.1318],[14.8061,38.1153],[14.8041,38.1125],[14.8052,38.1097],[14.8091,38.108],[14.8082,38.1059],[14.8017,38.0996],[14.801,38.0962],[14.8019,38.0935],[14.7971,38.0944],[14.788,38.0917],[14.7803,38.0871],[14.7668,38.0962],[14.7624,38.0984],[14.7463,38.1009],[14.7292,38.1077],[14.7236,38.1084],[14.7292,38.1196],[14.737,38.1293],[14.741,38.1368],[14.7455,38.1419],[14.7594,38.1449],[14.7678,38.1435],[14.7754,38.1436],[14.7876,38.1461],[14.789,38.1455],[14.7914,38.1524],[14.7977,38.1548],[14.8098,38.1564],[14.811,38.151],[14.8091,38.1492],[14.8088,38.1473],[14.8116,38.1416]]]}},{"type":"Feature","properties":{"i":"083061","n":"Nizza di Sicilia"},"geometry":{"type":"MultiPolygon","coordinates":[[[[15.4052,38.003],[15.4176,37.9955],[15.4046,37.9833],[15.3973,37.9875],[15.3957,37.9909],[15.3864,37.9965],[15.3808,38.0021],[15.3843,38.0036],[15.3978,38.006],[15.4052,38.003]]],[[[15.3743,38.0052],[15.3707,38.0049],[15.3669,38.0011],[15.356,38.0047],[15.3465,38.015],[15.335,38.0182],[15.335,38.0204],[15.3291,38.026],[15.3266,38.026],[15.3231,38.0277],[15.3207,38.0311],[15.3195,38.036],[15.33,38.0356],[15.3335,38.0365],[15.3403,38.0404],[15.3435,38.0449],[15.3456,38.0452],[15.3485,38.0424],[15.3473,38.0379],[15.3515,38.0338],[15.3641,38.0265],[15.3662,38.021],[15.3658,38.0176],[15.3699,38.0096],[15.3743,38.0052]]]]}},{"type":"Feature","properties":{"i":"083062","n":"Novara di Sicilia"},"geometry":{"type":"Polygon","coordinates":[[[15.1687,38.0541],[15.1645,38.0514],[15.1597,38.0454],[15.1597,38.0438],[15.1617,38.0413],[15.1629,38.0322],[15.1583,38.0185],[15.1581,38.0113],[15.1585,38.0048],[15.1609,38.0008],[15.1621,37.9965],[15.1616,37.9948],[15.1526,37.9917],[15.1414,37.977],[15.1365,37.9745],[15.1266,37.9728],[15.1037,37.9764],[15.0974,37.974],[15.0894,37.9783],[15.0871,38.0019],[15.0951,38.0084],[15.0962,38.0129],[15.1063,38.0326],[15.1115,38.0369],[15.1148,38.0377],[15.1232,38.0494],[15.1172,38.0551],[15.1142,38.0563],[15.1138,38.0587],[15.1151,38.0609],[15.1213,38.0629],[15.125,38.0599],[15.1307,38.0571],[15.1368,38.059],[15.1391,38.0631],[15.1399,38.0746],[15.1474,38.0732],[15.147,38.0701],[15.1512,38.0616],[15.1644,38.0596],[15.1691,38.0544],[15.1687,38.0541]]]}},{"type":"Feature","properties":{"i":"083063","n":"Oliveri"},"geometry":{"type":"Polygon","coordinates":[[[15.0696,38.1269],[15.0634,38.1128],[15.0558,38.1084],[15.0521,38.1044],[15.052,38.1013],[15.041,38.0869],[15.0336,38.0892],[15.0259,38.106],[15.0252,38.1117],[15.0279,38.1177],[15.0387,38.1227],[15.0419,38.1264],[15.0468,38.1294],[15.0505,38.1306],[15.0562,38.1315],[15.0696,38.1269]]]}},{"type":"Feature","properties":{"i":"083064","n":"Pace del Mela"},"geometry":{"type":"Polygon","coordinates":[[[15.3176,38.1725],[15.3159,38.174],[15.3129,38.1736],[15.3072,38.1617],[15.3044,38.16],[15.2969,38.164],[15.2912,38.1686],[15.2857,38.1703],[15.2833,38.1702],[15.2843,38.1716],[15.2865,38.1727],[15.2908,38.1715],[15.2924,38.1716],[15.2929,38.1727],[15.2892,38.1808],[15.2885,38.1882],[15.2928,38.2064],[15.3036,38.2081],[15.3187,38.2121],[15.3179,38.2112],[15.3195,38.2061],[15.3243,38.2031],[15.3193,38.1908],[15.3176,38.1725]]]}},{"type":"Feature","properties":{"i":"083065","n":"Pagliara"},"geometry":{"type":"Polygon","coordinates":[[[15.351,38.003],[15.3615,37.9972],[15.3653,37.9918],[15.3646,37.9903],[15.3663,37.9871],[15.3768,37.98],[15.3853,37.9776],[15.3854,37.9728],[15.3806,37.9665],[15.3645,37.9766],[15.336,37.9827],[15.3045,38.0007],[15.2993,38.0044],[15.2929,38.0115],[15.2906,38.0155],[15.2869,38.0263],[15.2862,38.0309],[15.2889,38.0311],[15.3045,38.0364],[15.309,38.0372],[15.3099,38.0315],[15.3089,38.0276],[15.3079,38.0248],[15.3049,38.0214],[15.3061,38.0136],[15.3116,38.006],[15.3209,37.9978],[15.3319,37.9946],[15.3457,37.9892],[15.3488,37.9918],[15.351,38.003]]]}},{"type":"Feature","properties":{"i":"083066","n":"Patti"},"geometry":{"type":"MultiPolygon","coordinates":[[[[15.0562,38.1315],[15.0468,38.1294],[15.0411,38.1258],[15.0387,38.1227],[15.0279,38.1177],[15.0252,38.1117],[15.0259,38.106],[15.0336,38.0892],[15.0152,38.0764],[15.0143,38.0738],[15.0106,38.072],[15.003,38.0801],[14.9984,38.0902],[14.9945,38.091],[14.976,38.105],[14.9722,38.1037],[14.9664,38.1072],[14.9649,38.1138],[14.9603,38.1176],[14.9593,38.1193],[14.9544,38.1399],[14.9444,38.1399],[14.9436,38.1373],[14.939,38.1371],[14.9355,38.1386],[14.9321,38.1464],[14.9374,38.1493],[14.9458,38.1521],[14.9491,38.1518],[14.9578,38.1533],[14.9642,38.1575],[14.9684,38.1537],[14.9767,38.1507],[14.9852,38.1503],[14.9929,38.1513],[15.0047,38.1493],[15.0117,38.1491],[15.0371,38.1513],[15.0472,38.1492],[15.0564,38.1418],[15.0547,38.1395],[15.0562,38.1315]]]]}},{"type":"Feature","properties":{"i":"083067","n":"Pettineo"},"geometry":{"type":"Polygon","coordinates":[[[14.326,37.9595],[14.3271,37.954],[14.3217,37.9522],[14.3082,37.9501],[14.3063,37.946],[14.2956,37.9453],[14.2963,37.9415],[14.3002,37.9387],[14.3028,37.9332],[14.3031,37.9308],[14.3012,37.924],[14.291,37.9184],[14.2802,37.9184],[14.26,37.9159],[14.2529,37.917],[14.252,37.92],[14.2538,37.9293],[14.2534,37.9347],[14.25,37.9362],[14.2424,37.9442],[14.2367,37.9482],[14.2401,37.9496],[14.2495,37.9505],[14.2623,37.9503],[14.2725,37.9536],[14.2844,37.959],[14.2775,37.9762],[14.2728,37.9832],[14.271,37.9908],[14.2792,37.9928],[14.2824,37.993],[14.2906,37.9866],[14.3091,37.9758],[14.3135,37.9724],[14.326,37.9595]]]}},{"type":"Feature","properties":{"i":"083068","n":"Piraino"},"geometry":{"type":"Polygon","coordinates":[[[14.8858,38.1443],[14.8817,38.1446],[14.8756,38.141],[14.8667,38.1332],[14.858,38.131],[14.8542,38.1334],[14.8516,38.1362],[14.8442,38.1471],[14.8419,38.155],[14.8367,38.1627],[14.8612,38.1686],[14.8693,38.1678],[14.8768,38.1685],[14.8906,38.1725],[14.8943,38.1696],[14.9035,38.1595],[14.9045,38.1561],[14.9001,38.1488],[14.8996,38.1453],[14.9006,38.1417],[14.888,38.1434],[14.8858,38.1443]]]}},{"type":"Feature","properties":{"i":"083069","n":"Raccuja"},"geometry":{"type":"Polygon","coordinates":[[[14.9209,38.0619],[14.9239,38.0598],[14.9273,38.0388],[14.93,38.0321],[14.9315,38.0308],[14.9374,38.0291],[14.9405,38.0263],[14.9424,38.0227],[14.9458,38.0133],[14.943,38.0078],[14.9433,38.0009],[14.9455,37.9978],[14.9544,37.99],[14.962,37.9862],[14.9593,37.984],[14.9484,37.9806],[14.9474,37.9872],[14.932,37.9938],[14.9297,37.9939],[14.9237,37.9913],[14.9218,37.9914],[14.9197,37.9935],[14.9179,37.9974],[14.9065,38.0036],[14.9034,38.0063],[14.9027,38.0096],[14.906,38.0287],[14.906,38.035],[14.9053,38.0406],[14.9036,38.0455],[14.8895,38.0585],[14.8813,38.0621],[14.894,38.0724],[14.8965,38.0711],[14.9083,38.0684],[14.9209,38.0619]]]}},{"type":"Feature","properties":{"i":"083070","n":"Reitano"},"geometry":{"type":"Polygon","coordinates":[[[14.3615,37.9643],[14.3459,37.9531],[14.3296,37.9524],[14.3271,37.954],[14.326,37.9595],[14.3283,37.9642],[14.3263,37.9779],[14.3284,37.9928],[14.3266,37.994],[14.326,37.9955],[14.3255,38.003],[14.3263,38.0072],[14.325,38.012],[14.3385,38.0187],[14.3488,37.9945],[14.3491,37.9866],[14.3505,37.9807],[14.3551,37.9703],[14.3588,37.9659],[14.3615,37.9643]]]}},{"type":"Feature","properties":{"i":"083071","n":"Roccafiorita"},"geometry":{"type":"Polygon","coordinates":[[[15.2752,37.9264],[15.2731,37.9271],[15.2651,37.9264],[15.2627,37.9272],[15.2603,37.932],[15.2503,37.9361],[15.25,37.9382],[15.254,37.9363],[15.2572,37.9359],[15.2626,37.9381],[15.2643,37.9376],[15.2752,37.9264]]]}},{"type":"Feature","properties":{"i":"083072","n":"Roccalumera"},"geometry":{"type":"Polygon","coordinates":[[[15.3743,38.0052],[15.3808,38.0021],[15.3864,37.9965],[15.3957,37.9909],[15.3973,37.9875],[15.4046,37.9833],[15.3866,37.9639],[15.3806,37.9665],[15.3854,37.9728],[15.3853,37.9776],[15.3768,37.98],[15.3663,37.9871],[15.3646,37.9903],[15.3653,37.9918],[15.3615,37.9972],[15.3539,38.0018],[15.3489,38.0034],[15.3469,38.0053],[15.3469,38.0069],[15.3432,38.0155],[15.3465,38.015],[15.356,38.0047],[15.3629,38.002],[15.3669,38.0011],[15.3707,38.0049],[15.3743,38.0052]]]}},{"type":"Feature","properties":{"i":"083073","n":"Roccavaldina"},"geometry":{"type":"Polygon","coordinates":[[[15.3659,38.1922],[15.3769,38.1898],[15.3787,38.1867],[15.3823,38.1836],[15.3851,38.1841],[15.3877,38.1862],[15.3886,38.1883],[15.3998,38.1796],[15.4013,38.1707],[15.3997,38.1674],[15.3881,38.1637],[15.384,38.1673],[15.3642,38.1739],[15.3567,38.1808],[15.3547,38.1843],[15.3628,38.1849],[15.3641,38.1861],[15.3626,38.1872],[15.3637,38.1917],[15.3659,38.1922]]]}},{"type":"Feature","properties":{"i":"083074","n":"Roccella Valdemone"},"geometry":{"type":"Polygon","coordinates":[[[15.0387,37.9451],[15.0361,37.9386],[15.0348,37.9299],[15.0276,37.9251],[15.026,37.9206],[15.0243,37.9107],[15.0258,37.9055],[15.028,37.9029],[15.0287,37.8978],[15.028,37.8973],[15.0117,37.8994],[15.0022,37.8978],[14.9925,37.9066],[14.989,37.911],[14.9827,37.9246],[14.9691,37.9368],[14.9658,37.9467],[14.9675,37.9486],[14.9741,37.9519],[14.9772,37.9524],[14.983,37.9574],[14.9833,37.9594],[14.9796,37.9668],[14.9755,37.9696],[14.9577,37.9745],[14.9536,37.9788],[14.9603,37.9775],[14.965,37.9787],[14.968,37.9804],[14.9749,37.9818],[14.9948,37.9847],[15.0056,37.9836],[15.0246,37.984],[15.0263,37.9824],[15.0244,37.9731],[15.0241,37.9647],[15.0228,37.9608],[15.0199,37.9584],[15.0176,37.9537],[15.0192,37.9519],[15.0312,37.9487],[15.0387,37.9451]]]}},{"type":"Feature","properties":{"i":"083075","n":"Rodì Milici"},"geometry":{"type":"Polygon","coordinates":[[[15.1868,38.1251],[15.1869,38.1183],[15.1783,38.0953],[15.1771,38.0888],[15.1801,38.0849],[15.1888,38.0804],[15.1903,38.0777],[15.1909,38.0708],[15.1893,38.0641],[15.1905,38.0607],[15.1947,38.0591],[15.2019,38.0582],[15.2058,38.0549],[15.211,38.0483],[15.2115,38.0462],[15.2105,38.0412],[15.2142,38.0321],[15.2212,38.0251],[15.2177,38.021],[15.2193,38.0149],[15.2295,38.0111],[15.2322,38.0092],[15.2208,38.0041],[15.2185,38.0095],[15.2155,38.0124],[15.2108,38.0139],[15.2081,38.0171],[15.2046,38.0312],[15.199,38.0412],[15.1897,38.0482],[15.1858,38.0486],[15.1816,38.0469],[15.1759,38.0489],[15.1687,38.0541],[15.1691,38.0544],[15.1644,38.0596],[15.1512,38.0616],[15.147,38.0701],[15.1474,38.0732],[15.1399,38.0746],[15.1393,38.0754],[15.1416,38.0867],[15.1408,38.0978],[15.1385,38.1028],[15.1397,38.1117],[15.1386,38.1169],[15.1398,38.1206],[15.1429,38.1222],[15.1609,38.1253],[15.1706,38.1255],[15.1809,38.1239],[15.1868,38.1251]]]}},{"type":"Feature","properties":{"i":"083076","n":"Rometta"},"geometry":{"type":"Polygon","coordinates":[[[15.46,38.1433],[15.4568,38.1371],[15.4489,38.1296],[15.4458,38.1195],[15.446,38.1163],[15.4434,38.1144],[15.4404,38.117],[15.4395,38.1195],[15.4229,38.135],[15.4221,38.138],[15.4158,38.1439],[15.4072,38.1492],[15.4,38.1495],[15.393,38.1562],[15.3881,38.1637],[15.3997,38.1674],[15.4013,38.1707],[15.3998,38.1796],[15.4098,38.1855],[15.4116,38.1899],[15.4077,38.203],[15.3991,38.2165],[15.3934,38.2296],[15.4203,38.2406],[15.4228,38.2349],[15.4292,38.2043],[15.4276,38.1933],[15.4245,38.1908],[15.4223,38.1875],[15.422,38.1802],[15.4252,38.1723],[15.4333,38.1628],[15.4438,38.1564],[15.4514,38.1495],[15.4542,38.1445],[15.46,38.1433]]]}},{"type":"Feature","properties":{"i":"083077","n":"San Filippo del Mela"},"geometry":{"type":"Polygon","coordinates":[[[15.2928,38.2064],[15.2885,38.1882],[15.2889,38.1817],[15.293,38.1731],[15.2924,38.1716],[15.2856,38.1724],[15.2833,38.1702],[15.2814,38.1661],[15.2637,38.1589],[15.2641,38.1615],[15.2632,38.1632],[15.2532,38.1684],[15.2696,38.1835],[15.2687,38.1861],[15.2688,38.1925],[15.2701,38.1972],[15.272,38.1997],[15.2731,38.2067],[15.2727,38.2078],[15.2928,38.2064]]]}},{"type":"Feature","properties":{"i":"083078","n":"San Fratello"},"geometry":{"type":"Polygon","coordinates":[[[14.6151,38.0443],[14.6246,38.0178],[14.6247,38.0079],[14.6268,37.9957],[14.6278,37.9942],[14.6277,37.9909],[14.6256,37.9824],[14.6273,37.9746],[14.6374,37.9692],[14.6402,37.9663],[14.6498,37.9449],[14.6662,37.9351],[14.6745,37.934],[14.6746,37.9304],[14.6673,37.9257],[14.6655,37.9248],[14.6521,37.9231],[14.6546,37.9184],[14.6543,37.913],[14.6533,37.9098],[14.6495,37.9038],[14.6478,37.9028],[14.6461,37.9043],[14.6427,37.9123],[14.6249,37.9149],[14.615,37.9181],[14.605,37.9232],[14.6019,37.9271],[14.5914,37.9347],[14.5919,37.9399],[14.5914,37.9442],[14.5857,37.9752],[14.5763,37.9972],[14.5735,38.0065],[14.5646,38.0185],[14.5586,38.029],[14.5583,38.0326],[14.5795,38.0283],[14.5854,38.03],[14.5805,38.0332],[14.5795,38.0353],[14.5808,38.0389],[14.5836,38.0421],[14.6034,38.0458],[14.6071,38.0433],[14.6074,38.0415],[14.6151,38.0443]]]}},{"type":"Feature","properties":{"i":"083079","n":"San Marco d'Alunzio"},"geometry":{"type":"Polygon","coordinates":[[[14.7278,38.0757],[14.7313,38.0726],[14.7444,38.0489],[14.7392,38.0423],[14.7352,38.0308],[14.7343,38.0302],[14.7308,38.0312],[14.7241,38.0297],[14.7123,38.0294],[14.7023,38.0298],[14.6957,38.0343],[14.6918,38.0404],[14.6859,38.0445],[14.684,38.0486],[14.6827,38.0603],[14.6768,38.0666],[14.6825,38.0723],[14.6878,38.0804],[14.6979,38.0846],[14.7036,38.0879],[14.7087,38.0937],[14.7097,38.094],[14.7113,38.0901],[14.7096,38.0873],[14.7125,38.0838],[14.7209,38.0778],[14.7278,38.0757]]]}},{"type":"Feature","properties":{"i":"083080","n":"San Pier Niceto"},"geometry":{"type":"Polygon","coordinates":[[[15.3277,38.2148],[15.3287,38.209],[15.3313,38.2046],[15.3456,38.189],[15.3453,38.1833],[15.3475,38.1768],[15.3527,38.17],[15.3576,38.1687],[15.366,38.1636],[15.3676,38.1575],[15.3751,38.1466],[15.3754,38.1422],[15.3822,38.1343],[15.3868,38.131],[15.3884,38.1314],[15.3912,38.1304],[15.3924,38.1261],[15.3907,38.1203],[15.3926,38.1185],[15.4007,38.1157],[15.4027,38.1122],[15.4049,38.0987],[15.3962,38.0916],[15.3951,38.0813],[15.3908,38.0804],[15.3864,38.0833],[15.3773,38.0849],[15.3733,38.0846],[15.3658,38.0821],[15.3594,38.0856],[15.3496,38.0931],[15.3439,38.0995],[15.3422,38.1029],[15.3464,38.1042],[15.3551,38.1163],[15.3578,38.1221],[15.3595,38.1267],[15.3606,38.1339],[15.3638,38.1431],[15.3517,38.1422],[15.3436,38.1433],[15.3456,38.1477],[15.3364,38.1659],[15.3365,38.1703],[15.3351,38.1738],[15.3284,38.1822],[15.3239,38.1913],[15.3231,38.1988],[15.3243,38.2031],[15.3195,38.2061],[15.3179,38.2112],[15.3187,38.2121],[15.3277,38.2148]]]}},{"type":"Feature","properties":{"i":"083081","n":"San Piero Patti"},"geometry":{"type":"Polygon","coordinates":[[[14.962,37.9862],[14.9544,37.99],[14.9455,37.9978],[14.9433,38.0009],[14.943,38.0078],[14.9458,38.0133],[14.9424,38.0227],[14.9405,38.0263],[14.9374,38.0291],[14.9315,38.0308],[14.93,38.0321],[14.9273,38.0388],[14.9239,38.0598],[14.9209,38.0619],[14.9233,38.0628],[14.9271,38.0667],[14.9293,38.0715],[14.9311,38.0736],[14.9374,38.0714],[14.9545,38.0696],[14.9676,38.0714],[14.9722,38.0731],[14.9757,38.072],[14.9826,38.0638],[14.9855,38.0628],[15.0022,38.0672],[15.0061,38.0715],[15.0106,38.072],[15.0103,38.0675],[15.0058,38.0559],[15.0029,38.0503],[14.9967,38.0468],[14.9911,38.0418],[14.9872,38.0323],[14.9861,38.0233],[14.987,38.0143],[14.9843,38.0117],[14.9799,38.0093],[14.9698,37.9983],[14.9653,37.9902],[14.962,37.9862]]]}},{"type":"Feature","properties":{"i":"083082","n":"San Salvatore di Fitalia"},"geometry":{"type":"Polygon","coordinates":[[[14.8135,38.0582],[14.808,38.0563],[14.7985,38.0554],[14.7991,38.0502],[14.8021,38.0386],[14.7922,38.0405],[14.7845,38.0431],[14.7767,38.0475],[14.7731,38.0508],[14.7649,38.0531],[14.7654,38.0569],[14.7585,38.0651],[14.7587,38.0709],[14.761,38.0758],[14.7704,38.0832],[14.773,38.0916],[14.7803,38.0871],[14.7813,38.0849],[14.7927,38.0756],[14.7997,38.0744],[14.8058,38.0699],[14.8135,38.0582]]]}},{"type":"Feature","properties":{"i":"083083","n":"Santa Domenica Vittoria"},"geometry":{"type":"Polygon","coordinates":[[[15.0022,37.8978],[14.9934,37.8931],[14.9851,37.8914],[14.9833,37.8918],[14.9799,37.8931],[14.979,37.8945],[14.9797,37.9001],[14.9789,37.907],[14.9603,37.9102],[14.9557,37.9121],[14.9534,37.9179],[14.9523,37.9243],[14.9427,37.9393],[14.9414,37.9426],[14.9409,37.9497],[14.9412,37.9508],[14.952,37.9517],[14.956,37.9547],[14.9535,37.9623],[14.9524,37.9786],[14.9536,37.9788],[14.9577,37.9745],[14.9755,37.9696],[14.9796,37.9668],[14.9833,37.9594],[14.983,37.9574],[14.9772,37.9524],[14.9741,37.9519],[14.9675,37.9486],[14.9658,37.9467],[14.9691,37.9368],[14.9827,37.9246],[14.989,37.911],[14.9925,37.9066],[15.0022,37.8978]]]}},{"type":"Feature","properties":{"i":"083084","n":"Sant'Agata di Militello"},"geometry":{"type":"Polygon","coordinates":[[[14.6278,37.9942],[14.6268,37.9957],[14.6247,38.0079],[14.6246,38.0178],[14.6151,38.0443],[14.6128,38.0478],[14.6135,38.054],[14.6128,38.0598],[14.6097,38.0683],[14.6085,38.0695],[14.6174,38.0732],[14.6209,38.0715],[14.6281,38.0708],[14.6324,38.0713],[14.6435,38.0774],[14.6553,38.087],[14.6591,38.0843],[14.6675,38.075],[14.6699,38.0737],[14.6596,38.0564],[14.6555,38.0552],[14.655,38.0539],[14.6547,38.0498],[14.6599,38.0431],[14.6594,38.0366],[14.6532,38.0351],[14.6527,38.0327],[14.6544,38.0243],[14.6545,38.018],[14.6581,38.0075],[14.6568,37.9942],[14.6584,37.9892],[14.6612,37.9841],[14.659,37.9761],[14.6554,37.978],[14.6519,37.9832],[14.647,37.9873],[14.6386,37.9914],[14.6278,37.9942]]]}},{"type":"Feature","properties":{"i":"083085","n":"Sant'Alessio Siculo"},"geometry":{"type":"Polygon","coordinates":[[[15.3486,37.9342],[15.3574,37.9313],[15.348,37.9214],[15.3452,37.9154],[15.3485,37.913],[15.346,37.9102],[15.3444,37.9097],[15.3435,37.9098],[15.3421,37.9125],[15.3427,37.9153],[15.3323,37.9225],[15.3182,37.9248],[15.3074,37.9304],[15.3056,37.9293],[15.3053,37.928],[15.3038,37.9265],[15.3028,37.9287],[15.3044,37.9346],[15.3068,37.9377],[15.3091,37.9368],[15.31,37.9347],[15.3125,37.9343],[15.3191,37.9382],[15.331,37.9352],[15.3462,37.9336],[15.3486,37.9342]]]}},{"type":"Feature","properties":{"i":"083086","n":"Santa Lucia del Mela"},"geometry":{"type":"Polygon","coordinates":[[[15.3044,38.16],[15.3138,38.1607],[15.3167,38.1598],[15.3204,38.1516],[15.3229,38.1421],[15.3301,38.131],[15.3319,38.117],[15.3305,38.1148],[15.3374,38.1073],[15.3399,38.1063],[15.342,38.1038],[15.3439,38.0995],[15.3496,38.0931],[15.3594,38.0856],[15.3658,38.0821],[15.3622,38.0787],[15.3468,38.0713],[15.3354,38.0687],[15.3298,38.0621],[15.3263,38.0545],[15.3155,38.0448],[15.3161,38.0386],[15.3045,38.0364],[15.2875,38.0308],[15.2688,38.0321],[15.2611,38.028],[15.2589,38.0426],[15.2603,38.0513],[15.2651,38.0535],[15.2702,38.0541],[15.276,38.0582],[15.2786,38.0616],[15.2767,38.0708],[15.2712,38.0813],[15.2705,38.0841],[15.268,38.0854],[15.2628,38.086],[15.2559,38.095],[15.2596,38.1031],[15.2599,38.1145],[15.2617,38.12],[15.2637,38.123],[15.2684,38.127],[15.273,38.1285],[15.273,38.1327],[15.2721,38.1365],[15.2637,38.1433],[15.2628,38.1452],[15.2624,38.1498],[15.2637,38.1589],[15.2814,38.1661],[15.2833,38.1702],[15.2847,38.1703],[15.2912,38.1686],[15.2969,38.164],[15.3044,38.16]]]}},{"type":"Feature","properties":{"i":"083087","n":"Santa Marina Salina"},"geometry":{"type":"Polygon","coordinates":[[[14.8467,38.5379],[14.8486,38.5417],[14.8491,38.5478],[14.8457,38.5564],[14.8447,38.5647],[14.8635,38.5766],[14.8713,38.5775],[14.8717,38.5699],[14.8741,38.5616],[14.8684,38.5521],[14.8696,38.5407],[14.8708,38.5388],[14.8669,38.5362],[14.8553,38.5346],[14.8467,38.5379]]]}},{"type":"Feature","properties":{"i":"083088","n":"Sant'Angelo di Brolo"},"geometry":{"type":"Polygon","coordinates":[[[14.8858,38.1443],[14.8896,38.1404],[14.9015,38.1228],[14.9102,38.1117],[14.9128,38.1096],[14.9164,38.1082],[14.9209,38.0984],[14.9205,38.0975],[14.9217,38.095],[14.9248,38.0912],[14.9265,38.0841],[14.9259,38.0818],[14.9265,38.0788],[14.9311,38.0736],[14.9293,38.0715],[14.9271,38.0667],[14.9233,38.0628],[14.9209,38.0619],[14.9083,38.0684],[14.8965,38.0711],[14.894,38.0724],[14.8839,38.0859],[14.871,38.0959],[14.8632,38.1063],[14.86,38.1154],[14.8596,38.1231],[14.8581,38.1265],[14.858,38.131],[14.8667,38.1332],[14.8756,38.141],[14.8817,38.1446],[14.8858,38.1443]]]}},{"type":"Feature","properties":{"i":"083089","n":"Santa Teresa di Riva"},"geometry":{"type":"MultiPolygon","coordinates":[[[[15.3802,37.9572],[15.3574,37.9313],[15.3486,37.9342],[15.3484,37.9371],[15.3493,37.9398],[15.3517,37.9441],[15.3542,37.9445],[15.355,37.9467],[15.3551,37.949],[15.3532,37.9518],[15.3465,37.9557],[15.3473,37.9588],[15.3519,37.9628],[15.3499,37.9656],[15.3541,37.9653],[15.359,37.9618],[15.3625,37.9606],[15.3749,37.959],[15.3802,37.9572]]],[[[15.3205,37.9766],[15.3186,37.9728],[15.3144,37.9715],[15.3136,37.9696],[15.3194,37.9663],[15.3224,37.9671],[15.3281,37.9609],[15.3226,37.9618],[15.3131,37.965],[15.3079,37.9673],[15.3004,37.9723],[15.3072,37.9815],[15.3168,37.9811],[15.3205,37.9766]]]]}},{"type":"Feature","properties":{"i":"083090","n":"San Teodoro"},"geometry":{"type":"Polygon","coordinates":[[[14.7201,37.8172],[14.7043,37.812],[14.6946,37.8053],[14.6922,37.8089],[14.6833,37.8157],[14.6778,37.8276],[14.6823,37.8535],[14.6852,37.8572],[14.6864,37.8607],[14.6848,37.8644],[14.6799,37.8688],[14.6791,37.8704],[14.6866,37.8687],[14.6901,37.8695],[14.6942,37.8686],[14.6994,37.8651],[14.7014,37.8545],[14.7026,37.8404],[14.7076,37.8283],[14.7173,37.8213],[14.7201,37.8172]]]}},{"type":"Feature","properties":{"i":"083091","n":"Santo Stefano di Camastra"},"geometry":{"type":"Polygon","coordinates":[[[14.3895,37.9679],[14.3868,37.9663],[14.3806,37.9575],[14.3709,37.9562],[14.3632,37.9616],[14.3615,37.9643],[14.3588,37.9659],[14.3551,37.9703],[14.3502,37.9815],[14.349,37.9875],[14.3488,37.9945],[14.3385,38.0187],[14.3494,38.0188],[14.3562,38.0167],[14.357,38.0151],[14.3641,38.0146],[14.3756,38.0166],[14.387,38.0209],[14.3889,38.0169],[14.3912,38.0081],[14.3913,38.0032],[14.3869,37.9921],[14.3873,37.9759],[14.3863,37.9727],[14.3895,37.9679]]]}},{"type":"Feature","properties":{"i":"083092","n":"Saponara"},"geometry":{"type":"Polygon","coordinates":[[[15.4791,38.1882],[15.4708,38.1735],[15.4644,38.1648],[15.4637,38.1574],[15.46,38.1433],[15.4542,38.1445],[15.4514,38.1495],[15.4438,38.1564],[15.4333,38.1628],[15.4252,38.1723],[15.422,38.1802],[15.4223,38.1875],[15.4245,38.1908],[15.4276,38.1933],[15.4292,38.2043],[15.4228,38.2349],[15.4203,38.2406],[15.4261,38.2413],[15.428,38.239],[15.4305,38.2287],[15.4342,38.2235],[15.437,38.2214],[15.4402,38.2214],[15.4423,38.2224],[15.4446,38.2208],[15.4498,38.2144],[15.4513,38.2113],[15.4548,38.2077],[15.4605,38.2037],[15.4716,38.1912],[15.4758,38.1883],[15.4791,38.1882]]]}},{"type":"Feature","properties":{"i":"083093","n":"Savoca"},"geometry":{"type":"Polygon","coordinates":[[[15.3499,37.9656],[15.3519,37.9628],[15.3473,37.9588],[15.3465,37.9557],[15.3532,37.9518],[15.3551,37.949],[15.355,37.9467],[15.3542,37.9445],[15.3517,37.9441],[15.3493,37.9398],[15.3484,37.9371],[15.3486,37.9342],[15.3462,37.9336],[15.331,37.9352],[15.3191,37.9382],[15.3232,37.944],[15.3317,37.9526],[15.3318,37.9574],[15.3224,37.9671],[15.3203,37.9662],[15.3182,37.9667],[15.3136,37.9696],[15.3142,37.9713],[15.3186,37.9728],[15.3205,37.9766],[15.3345,37.9689],[15.3472,37.9651],[15.3499,37.9656]]]}},{"type":"Feature","properties":{"i":"083094","n":"Scaletta Zanclea"},"geometry":{"type":"Polygon","coordinates":[[[15.4772,38.0546],[15.4569,38.0391],[15.4518,38.0438],[15.4437,38.0479],[15.4384,38.056],[15.4388,38.0579],[15.4417,38.0618],[15.4409,38.064],[15.4454,38.065],[15.4476,38.0647],[15.46,38.0577],[15.4661,38.0555],[15.4772,38.0546]]]}},{"type":"Feature","properties":{"i":"083095","n":"Sinagra"},"geometry":{"type":"Polygon","coordinates":[[[14.871,38.0959],[14.8839,38.0859],[14.894,38.0724],[14.8813,38.0621],[14.8757,38.0663],[14.8577,38.0602],[14.8486,38.0583],[14.8369,38.0669],[14.831,38.0731],[14.8226,38.0795],[14.807,38.0909],[14.8019,38.0935],[14.801,38.0962],[14.8025,38.1009],[14.8082,38.1059],[14.8091,38.108],[14.8118,38.107],[14.8311,38.0936],[14.8358,38.0951],[14.8418,38.0989],[14.8459,38.103],[14.8506,38.1041],[14.855,38.1007],[14.871,38.0959]]]}},{"type":"Feature","properties":{"i":"083096","n":"Spadafora"},"geometry":{"type":"Polygon","coordinates":[[[15.3998,38.1796],[15.3886,38.1883],[15.3873,38.1938],[15.3813,38.2004],[15.3756,38.2087],[15.3733,38.22],[15.3711,38.2235],[15.3775,38.2244],[15.3934,38.2296],[15.3991,38.2165],[15.4077,38.203],[15.4116,38.1899],[15.4098,38.1855],[15.3998,38.1796]]]}},{"type":"Feature","properties":{"i":"083097","n":"Taormina"},"geometry":{"type":"MultiPolygon","coordinates":[[[[15.3008,37.8507],[15.3016,37.8501],[15.301,37.8494],[15.2999,37.8502],[15.3008,37.8507]]],[[[15.3043,37.8756],[15.2977,37.8654],[15.2966,37.8624],[15.2969,37.8595],[15.3003,37.8579],[15.3019,37.8528],[15.2924,37.8473],[15.2892,37.848],[15.2862,37.8476],[15.2808,37.8426],[15.2786,37.8449],[15.2755,37.8455],[15.2692,37.8444],[15.2667,37.8381],[15.2607,37.8303],[15.2532,37.8236],[15.2484,37.821],[15.2466,37.8175],[15.2323,37.8302],[15.2273,37.8419],[15.2229,37.8467],[15.2347,37.8451],[15.2382,37.8468],[15.2488,37.8429],[15.2501,37.8441],[15.2574,37.8461],[15.2683,37.8478],[15.2811,37.8579],[15.287,37.8654],[15.29,37.8709],[15.29,37.8765],[15.3043,37.8756]]]]}},{"type":"Feature","properties":{"i":"083098","n":"Torregrotta"},"geometry":{"type":"Polygon","coordinates":[[[15.3659,38.1922],[15.3637,38.1917],[15.3626,38.1872],[15.3641,38.1861],[15.3628,38.1849],[15.3547,38.1843],[15.351,38.1874],[15.3416,38.2077],[15.3409,38.2108],[15.3411,38.2158],[15.3536,38.2178],[15.3574,38.1988],[15.3659,38.1922]]]}},{"type":"Feature","properties":{"i":"083099","n":"Tortorici"},"geometry":{"type":"Polygon","coordinates":[[[14.881,37.9864],[14.8787,37.9828],[14.8757,37.9816],[14.8744,37.9756],[14.8766,37.9688],[14.8754,37.9652],[14.8723,37.9597],[14.8708,37.9526],[14.8743,37.9409],[14.8782,37.9347],[14.8778,37.9325],[14.8625,37.9287],[14.8549,37.931],[14.8483,37.9421],[14.8502,37.9497],[14.8519,37.9533],[14.8513,37.9551],[14.8491,37.9568],[14.8414,37.9589],[14.8405,37.959],[14.8391,37.955],[14.8397,37.9527],[14.8393,37.9513],[14.8346,37.943],[14.8285,37.9351],[14.8213,37.9368],[14.8089,37.9441],[14.8009,37.9528],[14.7847,37.9512],[14.7885,37.9624],[14.7963,37.9645],[14.7987,37.9678],[14.8017,37.9694],[14.8112,37.9699],[14.8248,37.966],[14.8284,37.9661],[14.8316,37.9677],[14.835,37.971],[14.8386,37.9764],[14.8357,37.981],[14.8198,37.9939],[14.8175,37.9971],[14.8171,38.0006],[14.8141,38.006],[14.8131,38.0074],[14.8068,38.0116],[14.8002,38.0225],[14.8041,38.032],[14.804,38.0344],[14.8016,38.0397],[14.7985,38.0554],[14.808,38.0563],[14.8135,38.0582],[14.8165,38.0554],[14.8202,38.0544],[14.8391,38.0549],[14.845,38.0561],[14.8486,38.0583],[14.8582,38.0491],[14.8647,38.0453],[14.8666,38.0426],[14.8665,38.0407],[14.8625,38.0356],[14.8625,38.0314],[14.8638,38.0278],[14.8687,38.0196],[14.8751,38.0151],[14.8767,38.0119],[14.8759,38.0089],[14.8731,38.0056],[14.8721,38.0022],[14.8724,38.0002],[14.8747,37.9959],[14.877,37.9943],[14.8791,37.9914],[14.881,37.9864]]]}},{"type":"Feature","properties":{"i":"083100","n":"Tripi"},"geometry":{"type":"Polygon","coordinates":[[[15.122,38.0884],[15.1254,38.0769],[15.1239,38.0664],[15.1213,38.0629],[15.1158,38.0615],[15.1145,38.0603],[15.1138,38.0581],[15.1142,38.0563],[15.1172,38.0551],[15.1232,38.0494],[15.1148,38.0377],[15.1115,38.0369],[15.1063,38.0326],[15.0962,38.0129],[15.0951,38.0084],[15.0871,38.0019],[15.0876,37.993],[15.089,37.9867],[15.0889,37.9791],[15.0879,37.9797],[15.0809,37.9795],[15.0767,37.9786],[15.0559,37.9684],[15.0487,37.9777],[15.0512,37.9849],[15.0463,38.012],[15.0469,38.0201],[15.0448,38.0287],[15.0465,38.0346],[15.0484,38.0375],[15.0513,38.0397],[15.0646,38.0462],[15.0765,38.0514],[15.0814,38.0516],[15.085,38.0558],[15.0888,38.0648],[15.089,38.0701],[15.0849,38.0797],[15.0819,38.0812],[15.0718,38.074],[15.058,38.0804],[15.0575,38.0821],[15.0619,38.0865],[15.064,38.0899],[15.0728,38.0985],[15.0845,38.1053],[15.086,38.1055],[15.0949,38.1059],[15.0976,38.1053],[15.0958,38.0969],[15.0921,38.0917],[15.0913,38.0875],[15.097,38.0769],[15.1027,38.0828],[15.1065,38.085],[15.1169,38.0895],[15.122,38.0884]]]}},{"type":"Feature","properties":{"i":"083101","n":"Tusa"},"geometry":{"type":"Polygon","coordinates":[[[14.2702,38.0127],[14.2705,38.0093],[14.2821,37.9958],[14.2827,37.9941],[14.2824,37.993],[14.271,37.9908],[14.2728,37.9832],[14.2775,37.9762],[14.2844,37.959],[14.2725,37.9536],[14.261,37.95],[14.2495,37.9505],[14.2401,37.9496],[14.2367,37.9482],[14.2303,37.9486],[14.2264,37.9508],[14.2299,37.9562],[14.2287,37.9583],[14.2217,37.9672],[14.2131,37.9722],[14.2046,37.9904],[14.193,38.0028],[14.1861,38.0124],[14.1835,38.0194],[14.1891,38.0177],[14.2192,38.0126],[14.2365,38.0104],[14.252,38.0097],[14.2535,38.0087],[14.2579,38.0091],[14.2702,38.0127]]]}},{"type":"Feature","properties":{"i":"083102","n":"Ucria"},"geometry":{"type":"Polygon","coordinates":[[[14.9184,37.9956],[14.9084,37.9918],[14.9061,37.9935],[14.8988,37.9932],[14.881,37.9864],[14.8791,37.9914],[14.877,37.9943],[14.8747,37.9959],[14.8724,38.0002],[14.8721,38.0022],[14.8731,38.0056],[14.8759,38.0089],[14.8767,38.0119],[14.8751,38.0151],[14.8687,38.0196],[14.8638,38.0278],[14.8625,38.0314],[14.8625,38.0356],[14.8665,38.0407],[14.8661,38.0439],[14.8582,38.0491],[14.8486,38.0583],[14.8577,38.0602],[14.8757,38.0663],[14.8813,38.0621],[14.8908,38.0575],[14.9036,38.0455],[14.9053,38.0406],[14.906,38.0287],[14.9027,38.0096],[14.9034,38.0063],[14.9065,38.0036],[14.9179,37.9974],[14.9184,37.9956]]]}},{"type":"Feature","properties":{"i":"083103","n":"Valdina"},"geometry":{"type":"Polygon","coordinates":[[[15.3769,38.1898],[15.3659,38.1922],[15.358,38.198],[15.3568,38.2002],[15.3536,38.2178],[15.3568,38.2186],[15.3599,38.2161],[15.3649,38.2103],[15.3663,38.2042],[15.3705,38.1968],[15.3764,38.1923],[15.3769,38.1898]]]}},{"type":"Feature","properties":{"i":"083104","n":"Venetico"},"geometry":{"type":"Polygon","coordinates":[[[15.3886,38.1883],[15.3877,38.1862],[15.3838,38.1837],[15.3823,38.1836],[15.3797,38.1856],[15.3769,38.1898],[15.3764,38.1923],[15.3705,38.1968],[15.3663,38.2042],[15.3649,38.2103],[15.3599,38.2161],[15.3568,38.2186],[15.3711,38.2235],[15.3733,38.22],[15.3756,38.2087],[15.3813,38.2004],[15.3873,38.1938],[15.3886,38.1883]]]}},{"type":"Feature","properties":{"i":"083105","n":"Villafranca Tirrena"},"geometry":{"type":"Polygon","coordinates":[[[15.4439,38.2487],[15.4488,38.2451],[15.4538,38.238],[15.4601,38.2323],[15.4687,38.2298],[15.4802,38.2239],[15.4816,38.2138],[15.48,38.2126],[15.4766,38.1993],[15.4781,38.1941],[15.4801,38.1906],[15.4791,38.1882],[15.4758,38.1883],[15.4716,38.1912],[15.4605,38.2037],[15.4548,38.2077],[15.4513,38.2113],[15.4498,38.2144],[15.4446,38.2208],[15.4423,38.2224],[15.4402,38.2214],[15.437,38.2214],[15.4342,38.2235],[15.4305,38.2287],[15.428,38.239],[15.4261,38.2413],[15.4439,38.2487]]]}},{"type":"Feature","properties":{"i":"083106","n":"Terme Vigliatore"},"geometry":{"type":"Polygon","coordinates":[[[15.1866,38.1293],[15.1868,38.1251],[15.1809,38.1239],[15.1668,38.1256],[15.1609,38.1253],[15.1424,38.122],[15.1398,38.1206],[15.1388,38.1187],[15.1387,38.1155],[15.1397,38.1125],[15.1391,38.1079],[15.1328,38.1068],[15.1273,38.1115],[15.1242,38.1157],[15.1241,38.1234],[15.1193,38.1306],[15.1338,38.1383],[15.1497,38.1424],[15.1706,38.1517],[15.1852,38.1323],[15.1866,38.1293]]]}},{"type":"Feature","properties":{"i":"083107","n":"Acquedolci"},"geometry":{"type":"Polygon","coordinates":[[[14.6151,38.0443],[14.6074,38.0415],[14.6071,38.0433],[14.6034,38.0458],[14.5836,38.0421],[14.5808,38.0389],[14.5795,38.0353],[14.5805,38.0332],[14.5854,38.03],[14.5795,38.0283],[14.5583,38.0326],[14.5608,38.0367],[14.5599,38.044],[14.5586,38.048],[14.5561,38.0513],[14.553,38.0583],[14.5564,38.0601],[14.5599,38.0602],[14.5741,38.059],[14.5852,38.059],[14.5965,38.0628],[14.6085,38.0695],[14.6097,38.0683],[14.6124,38.0616],[14.6135,38.054],[14.6128,38.0478],[14.6151,38.0443]]]}},{"type":"Feature","properties":{"i":"083108","n":"Torrenova"},"geometry":{"type":"Polygon","coordinates":[[[14.714,38.1145],[14.7101,38.1109],[14.7063,38.1087],[14.7056,38.1031],[14.7081,38.1022],[14.711,38.0984],[14.7097,38.094],[14.7087,38.0937],[14.7036,38.0879],[14.6979,38.0846],[14.6878,38.0804],[14.6825,38.0723],[14.6768,38.0666],[14.6699,38.0737],[14.6675,38.075],[14.6591,38.0843],[14.6553,38.087],[14.6637,38.0897],[14.6783,38.0995],[14.692,38.1118],[14.7052,38.1252],[14.714,38.1145]]]}}]}
