{"type":"FeatureCollection","fonte":"Confini comunali ISTAT via openpolis/geojson-italy — CC BY 4.0","features":[{"type":"Feature","properties":{"i":"015002","n":"Abbiategrasso"},"geometry":{"type":"Polygon","coordinates":[[[8.9182,45.421],[8.9369,45.3999],[8.9603,45.4021],[8.9626,45.3986],[8.9605,45.3952],[8.9599,45.392],[8.962,45.3856],[8.9559,45.3829],[8.9509,45.3865],[8.9489,45.3853],[8.9498,45.3841],[8.952,45.384],[8.954,45.3828],[8.9566,45.38],[8.9541,45.3749],[8.9513,45.3745],[8.9477,45.3835],[8.9387,45.3838],[8.917,45.3744],[8.9009,45.3654],[8.8972,45.3657],[8.8901,45.3585],[8.893,45.352],[8.9013,45.349],[8.9067,45.3418],[8.9113,45.3416],[8.9142,45.3439],[8.9196,45.3337],[8.9256,45.3272],[8.9196,45.3205],[8.9112,45.3236],[8.9063,45.3264],[8.9069,45.3278],[8.911,45.331],[8.9109,45.3321],[8.9098,45.3329],[8.887,45.3399],[8.8722,45.3423],[8.8659,45.3443],[8.864,45.3512],[8.8643,45.3529],[8.8678,45.3561],[8.8679,45.3574],[8.8662,45.3594],[8.8579,45.3627],[8.8498,45.3678],[8.8475,45.3733],[8.8471,45.3841],[8.8476,45.3903],[8.8429,45.3938],[8.8422,45.3989],[8.8504,45.4026],[8.8642,45.4067],[8.8707,45.4114],[8.8811,45.4148],[8.886,45.4127],[8.894,45.4174],[8.8961,45.4154],[8.9046,45.4174],[8.9095,45.4197],[8.9102,45.4208],[8.9154,45.4216],[8.9182,45.421]]]}},{"type":"Feature","properties":{"i":"015005","n":"Albairate"},"geometry":{"type":"Polygon","coordinates":[[[8.9579,45.4437],[8.96,45.4432],[8.9624,45.4401],[8.9662,45.4321],[8.963,45.428],[8.966,45.4218],[8.9728,45.4171],[8.9746,45.413],[8.9709,45.412],[8.9701,45.4146],[8.9677,45.4134],[8.9669,45.4105],[8.9677,45.4066],[8.9722,45.408],[8.9728,45.4061],[8.972,45.4032],[8.967,45.4025],[8.9658,45.4048],[8.9608,45.4034],[8.9603,45.4021],[8.9369,45.3999],[8.9219,45.4174],[8.9154,45.4228],[8.9236,45.4252],[8.9247,45.427],[8.9227,45.4314],[8.921,45.432],[8.9203,45.4384],[8.9275,45.4408],[8.9332,45.4415],[8.9359,45.4402],[8.9399,45.4418],[8.9381,45.4451],[8.9417,45.449],[8.9472,45.4422],[8.954,45.4417],[8.9579,45.4437]]]}},{"type":"Feature","properties":{"i":"015007","n":"Arconate"},"geometry":{"type":"Polygon","coordinates":[[[8.8484,45.5543],[8.8519,45.5501],[8.8579,45.5497],[8.8615,45.5456],[8.8648,45.5391],[8.8649,45.5347],[8.8628,45.5335],[8.8613,45.5308],[8.8566,45.5308],[8.8396,45.526],[8.8346,45.5257],[8.8265,45.5289],[8.8157,45.5272],[8.8162,45.53],[8.8198,45.5384],[8.8294,45.545],[8.8328,45.5576],[8.8465,45.5563],[8.8484,45.5543]]]}},{"type":"Feature","properties":{"i":"015009","n":"Arese"},"geometry":{"type":"Polygon","coordinates":[[[9.0822,45.5596],[9.084,45.5558],[9.0867,45.5556],[9.0893,45.5532],[9.0925,45.5461],[9.0891,45.5447],[9.0877,45.5433],[9.0873,45.5413],[9.0884,45.5384],[9.091,45.5346],[9.0969,45.5304],[9.0929,45.5288],[9.0896,45.5307],[9.0825,45.5292],[9.0793,45.5329],[9.0741,45.5427],[9.0633,45.5521],[9.0534,45.5534],[9.0485,45.5564],[9.0484,45.558],[9.0489,45.5599],[9.0548,45.5669],[9.0648,45.5676],[9.0687,45.5633],[9.0669,45.5625],[9.0731,45.5599],[9.0822,45.5596]]]}},{"type":"Feature","properties":{"i":"015010","n":"Arluno"},"geometry":{"type":"Polygon","coordinates":[[[8.9672,45.5235],[8.9681,45.5219],[8.9611,45.5168],[8.9623,45.5107],[8.9806,45.5069],[8.9826,45.5046],[8.9757,45.5018],[8.9676,45.5025],[8.9601,45.5052],[8.959,45.5003],[8.9595,45.4989],[8.9531,45.5],[8.9445,45.4966],[8.9423,45.4898],[8.9392,45.4862],[8.9312,45.4875],[8.928,45.4896],[8.9237,45.4977],[8.9194,45.4996],[8.9174,45.5019],[8.9169,45.5055],[8.9181,45.5126],[8.9148,45.5163],[8.9159,45.5179],[8.9319,45.5252],[8.9514,45.5246],[8.953,45.5275],[8.9573,45.5245],[8.9617,45.5246],[8.9672,45.5235]]]}},{"type":"Feature","properties":{"i":"015011","n":"Assago"},"geometry":{"type":"Polygon","coordinates":[[[9.1578,45.4029],[9.1425,45.3976],[9.1389,45.3935],[9.1389,45.3888],[9.1378,45.3851],[9.135,45.38],[9.1231,45.3851],[9.1228,45.389],[9.119,45.3999],[9.1143,45.4081],[9.115,45.4102],[9.1235,45.4141],[9.1276,45.4147],[9.1305,45.4135],[9.1315,45.416],[9.1334,45.4142],[9.1379,45.4154],[9.1363,45.4172],[9.1443,45.4181],[9.1545,45.4161],[9.1574,45.4124],[9.1589,45.4082],[9.1578,45.4029]]]}},{"type":"Feature","properties":{"i":"015012","n":"Bareggio"},"geometry":{"type":"Polygon","coordinates":[[[8.9985,45.5],[9.0082,45.4953],[9.0112,45.4885],[9.0102,45.4878],[9.0127,45.4813],[9.0192,45.4709],[9.0232,45.4614],[9.005,45.4555],[9.0026,45.4538],[9.0024,45.452],[8.994,45.4556],[8.9878,45.4552],[8.9851,45.4566],[8.985,45.4633],[8.9826,45.4706],[8.9773,45.4741],[8.9756,45.4771],[8.9829,45.4831],[8.9877,45.4849],[8.9917,45.4884],[8.9926,45.4977],[8.9888,45.5037],[8.9985,45.5]]]}},{"type":"Feature","properties":{"i":"015014","n":"Basiano"},"geometry":{"type":"Polygon","coordinates":[[[9.4665,45.5935],[9.4712,45.5834],[9.473,45.581],[9.4811,45.5731],[9.483,45.5717],[9.4839,45.5724],[9.4813,45.5648],[9.4728,45.5675],[9.453,45.5807],[9.4495,45.581],[9.4426,45.5856],[9.4446,45.5919],[9.4502,45.5918],[9.4665,45.5935]]]}},{"type":"Feature","properties":{"i":"015015","n":"Basiglio"},"geometry":{"type":"Polygon","coordinates":[[[9.1671,45.3674],[9.1692,45.3669],[9.1791,45.3531],[9.1875,45.3372],[9.1849,45.3346],[9.18,45.3338],[9.1705,45.3282],[9.1663,45.3295],[9.1673,45.3297],[9.1664,45.3313],[9.1598,45.34],[9.1545,45.3394],[9.1521,45.34],[9.1485,45.3458],[9.1466,45.3589],[9.144,45.3618],[9.1474,45.3608],[9.1489,45.3612],[9.1508,45.3624],[9.1523,45.3663],[9.1577,45.3687],[9.1649,45.3669],[9.1671,45.3674]]]}},{"type":"Feature","properties":{"i":"015016","n":"Bellinzago Lombardo"},"geometry":{"type":"Polygon","coordinates":[[[9.4605,45.5306],[9.4529,45.5282],[9.447,45.5248],[9.4379,45.5247],[9.438,45.5253],[9.4359,45.5256],[9.4324,45.5213],[9.4301,45.5225],[9.429,45.5386],[9.452,45.5474],[9.4547,45.5469],[9.4583,45.5438],[9.4614,45.5355],[9.4605,45.5306]]]}},{"type":"Feature","properties":{"i":"015019","n":"Bernate Ticino"},"geometry":{"type":"Polygon","coordinates":[[[8.8384,45.4814],[8.8391,45.475],[8.8356,45.4743],[8.82,45.4679],[8.8179,45.4661],[8.8187,45.4639],[8.8203,45.4632],[8.8171,45.4585],[8.8084,45.4556],[8.8,45.4558],[8.7884,45.4625],[8.7882,45.4642],[8.7901,45.4662],[8.7912,45.4702],[8.7906,45.4802],[8.7875,45.4862],[8.7935,45.4876],[8.7978,45.4909],[8.8121,45.4914],[8.818,45.4926],[8.8233,45.4946],[8.826,45.498],[8.8315,45.5013],[8.8351,45.5002],[8.836,45.499],[8.8365,45.4938],[8.8348,45.4899],[8.8288,45.4859],[8.8314,45.4811],[8.8384,45.4814]]]}},{"type":"Feature","properties":{"i":"015022","n":"Besate"},"geometry":{"type":"Polygon","coordinates":[[[8.9883,45.3216],[8.9987,45.3025],[8.9963,45.3013],[8.9851,45.3004],[8.9738,45.2974],[8.9691,45.2944],[8.9666,45.2898],[8.9673,45.2871],[8.966,45.2856],[8.9639,45.2842],[8.9589,45.283],[8.9501,45.2869],[8.9466,45.2891],[8.9446,45.2915],[8.9439,45.3136],[8.942,45.316],[8.9335,45.3195],[8.9357,45.3233],[8.9382,45.3246],[8.9416,45.3232],[8.9692,45.3188],[8.9866,45.3238],[8.9873,45.3239],[8.9883,45.3216]]]}},{"type":"Feature","properties":{"i":"015024","n":"Binasco"},"geometry":{"type":"Polygon","coordinates":[[[9.1125,45.338],[9.1169,45.331],[9.1204,45.3291],[9.124,45.3246],[9.1247,45.3233],[9.1241,45.3218],[9.1208,45.3216],[9.1168,45.3245],[9.1033,45.3257],[9.091,45.3238],[9.0901,45.3258],[9.0849,45.3253],[9.0824,45.3347],[9.0866,45.3349],[9.0997,45.338],[9.1017,45.3403],[9.1125,45.338]]]}},{"type":"Feature","properties":{"i":"015026","n":"Boffalora sopra Ticino"},"geometry":{"type":"Polygon","coordinates":[[[8.8626,45.4718],[8.863,45.4694],[8.8579,45.4692],[8.8512,45.4656],[8.8318,45.4519],[8.8253,45.4488],[8.8212,45.4483],[8.8179,45.4467],[8.8152,45.4422],[8.8157,45.4367],[8.818,45.4347],[8.81,45.4326],[8.8081,45.4333],[8.808,45.4358],[8.81,45.4374],[8.8078,45.4477],[8.8052,45.4497],[8.8,45.4558],[8.8084,45.4556],[8.8171,45.4585],[8.8203,45.4632],[8.8187,45.4639],[8.8179,45.4661],[8.824,45.4698],[8.8391,45.475],[8.8392,45.478],[8.8474,45.4791],[8.8481,45.4785],[8.8488,45.4741],[8.8511,45.4709],[8.8626,45.4718]]]}},{"type":"Feature","properties":{"i":"015027","n":"Bollate"},"geometry":{"type":"Polygon","coordinates":[[[9.1367,45.5675],[9.1397,45.5669],[9.1477,45.5673],[9.1488,45.5654],[9.1491,45.5626],[9.1471,45.5621],[9.1448,45.559],[9.1449,45.5562],[9.1487,45.5509],[9.1476,45.5458],[9.144,45.5453],[9.1322,45.5411],[9.1272,45.5384],[9.122,45.5342],[9.1222,45.532],[9.1194,45.5374],[9.106,45.5352],[9.1003,45.5331],[9.0969,45.5304],[9.0905,45.5352],[9.0873,45.5413],[9.0877,45.5433],[9.0891,45.5447],[9.0925,45.5461],[9.0893,45.5532],[9.0867,45.5556],[9.084,45.5558],[9.0822,45.5596],[9.09,45.5644],[9.0926,45.5674],[9.0967,45.5686],[9.1011,45.568],[9.1034,45.5636],[9.1095,45.5582],[9.1142,45.5582],[9.1292,45.5587],[9.1386,45.5661],[9.1367,45.5675]]]}},{"type":"Feature","properties":{"i":"015032","n":"Bresso"},"geometry":{"type":"Polygon","coordinates":[[[9.1926,45.5458],[9.1974,45.5453],[9.205,45.5425],[9.2087,45.5375],[9.2107,45.5375],[9.2057,45.5293],[9.2002,45.5291],[9.1957,45.5277],[9.189,45.5271],[9.182,45.5344],[9.1791,45.5353],[9.1872,45.545],[9.1926,45.5458]]]}},{"type":"Feature","properties":{"i":"015035","n":"Bubbiano"},"geometry":{"type":"Polygon","coordinates":[[[9.014,45.3336],[9.0202,45.326],[9.0013,45.3199],[8.9958,45.321],[8.9917,45.3228],[8.9937,45.3261],[8.9942,45.3372],[8.993,45.34],[9.0065,45.3343],[9.014,45.3336]]]}},{"type":"Feature","properties":{"i":"015036","n":"Buccinasco"},"geometry":{"type":"Polygon","coordinates":[[[9.1315,45.416],[9.1305,45.4135],[9.1276,45.4147],[9.1235,45.4141],[9.115,45.4102],[9.1143,45.4081],[9.119,45.3999],[9.1228,45.389],[9.1237,45.3825],[9.1229,45.3796],[9.1154,45.3776],[9.1121,45.3797],[9.1017,45.3821],[9.0994,45.3883],[9.1034,45.3922],[9.1009,45.3975],[9.0923,45.4008],[9.0918,45.4027],[9.0893,45.4054],[9.0867,45.4226],[9.091,45.4237],[9.0996,45.4224],[9.1172,45.4273],[9.1183,45.4345],[9.1204,45.4374],[9.1267,45.4286],[9.1309,45.4208],[9.1315,45.416]]]}},{"type":"Feature","properties":{"i":"015038","n":"Buscate"},"geometry":{"type":"Polygon","coordinates":[[[8.8292,45.562],[8.8328,45.5576],[8.8294,45.545],[8.8198,45.5384],[8.8162,45.53],[8.8157,45.5272],[8.8136,45.5291],[8.8096,45.5294],[8.796,45.5264],[8.7945,45.5269],[8.7938,45.5284],[8.7987,45.5335],[8.7953,45.5387],[8.7963,45.5432],[8.8027,45.5541],[8.8074,45.5595],[8.8129,45.5622],[8.8292,45.562]]]}},{"type":"Feature","properties":{"i":"015040","n":"Bussero"},"geometry":{"type":"Polygon","coordinates":[[[9.3834,45.5384],[9.3839,45.5342],[9.3834,45.5307],[9.3816,45.527],[9.3786,45.5263],[9.3788,45.5235],[9.3675,45.5263],[9.3607,45.5317],[9.3547,45.5327],[9.3521,45.5406],[9.3667,45.5478],[9.3669,45.5467],[9.3716,45.5455],[9.3797,45.5455],[9.3843,45.5413],[9.3834,45.5384]]]}},{"type":"Feature","properties":{"i":"015041","n":"Busto Garolfo"},"geometry":{"type":"Polygon","coordinates":[[[8.8997,45.5593],[8.9066,45.5584],[8.9137,45.552],[8.9148,45.5486],[8.9164,45.5492],[8.9142,45.5404],[8.9186,45.5383],[8.8885,45.5312],[8.8853,45.5297],[8.8822,45.5262],[8.8763,45.5247],[8.8694,45.5266],[8.8613,45.5308],[8.8628,45.5335],[8.8649,45.5347],[8.8648,45.5391],[8.8615,45.5456],[8.8579,45.5497],[8.8519,45.5501],[8.8472,45.5565],[8.8601,45.5579],[8.8645,45.5544],[8.8742,45.5607],[8.8758,45.5592],[8.8839,45.5566],[8.8931,45.5575],[8.8997,45.5593]]]}},{"type":"Feature","properties":{"i":"015042","n":"Calvignasco"},"geometry":{"type":"Polygon","coordinates":[[[9.0299,45.3346],[9.0348,45.3212],[9.0333,45.3189],[9.0292,45.3166],[9.0202,45.326],[9.014,45.3336],[9.0299,45.3346]]]}},{"type":"Feature","properties":{"i":"015044","n":"Cambiago"},"geometry":{"type":"Polygon","coordinates":[[[9.4495,45.581],[9.4496,45.5755],[9.4366,45.5664],[9.4066,45.5577],[9.4051,45.5603],[9.4,45.5633],[9.3952,45.5622],[9.3923,45.5653],[9.3931,45.5673],[9.3983,45.5715],[9.4031,45.5732],[9.4047,45.5751],[9.4215,45.58],[9.4426,45.5856],[9.4495,45.581]]]}},{"type":"Feature","properties":{"i":"015046","n":"Canegrate"},"geometry":{"type":"Polygon","coordinates":[[[8.9478,45.5719],[8.9392,45.5675],[8.9148,45.5486],[8.9137,45.552],[8.9066,45.5584],[8.904,45.5624],[8.906,45.5647],[8.9134,45.5683],[8.9219,45.5709],[8.9218,45.5736],[8.9211,45.5745],[8.9251,45.5774],[8.9262,45.5762],[8.9304,45.5764],[8.9296,45.578],[8.9326,45.5805],[8.9403,45.5785],[8.9478,45.5719]]]}},{"type":"Feature","properties":{"i":"015050","n":"Carpiano"},"geometry":{"type":"Polygon","coordinates":[[[9.2973,45.353],[9.3033,45.3452],[9.3072,45.3426],[9.2987,45.3363],[9.2994,45.3346],[9.3091,45.3279],[9.3031,45.3272],[9.2978,45.3295],[9.2872,45.3304],[9.2823,45.3301],[9.2812,45.3278],[9.2735,45.3246],[9.2563,45.3258],[9.2476,45.3253],[9.246,45.3245],[9.2396,45.3279],[9.2418,45.3284],[9.2389,45.3399],[9.2493,45.3468],[9.2471,45.3605],[9.2528,45.3643],[9.2688,45.3651],[9.2894,45.3587],[9.2919,45.3603],[9.2962,45.3568],[9.2973,45.353]]]}},{"type":"Feature","properties":{"i":"015051","n":"Carugate"},"geometry":{"type":"Polygon","coordinates":[[[9.3517,45.5587],[9.3614,45.5542],[9.3618,45.5515],[9.3667,45.5478],[9.3521,45.5406],[9.348,45.5399],[9.3385,45.5424],[9.3321,45.5459],[9.3247,45.548],[9.3212,45.5477],[9.3238,45.5498],[9.3228,45.5541],[9.3249,45.5599],[9.327,45.5619],[9.3391,45.5615],[9.3517,45.5587]]]}},{"type":"Feature","properties":{"i":"015055","n":"Casarile"},"geometry":{"type":"Polygon","coordinates":[[[9.1208,45.3216],[9.1285,45.3135],[9.1294,45.3111],[9.1259,45.3086],[9.0799,45.3035],[9.0736,45.308],[9.0808,45.3158],[9.0849,45.3253],[9.0901,45.3258],[9.091,45.3238],[9.1033,45.3257],[9.1168,45.3245],[9.1208,45.3216]]]}},{"type":"Feature","properties":{"i":"015058","n":"Casorezzo"},"geometry":{"type":"Polygon","coordinates":[[[8.9186,45.5383],[8.9248,45.5337],[8.9291,45.5329],[8.9319,45.5252],[8.9159,45.5179],[8.9148,45.5163],[8.893,45.5152],[8.8822,45.5262],[8.8853,45.5297],[8.8885,45.5312],[8.9186,45.5383]]]}},{"type":"Feature","properties":{"i":"015059","n":"Cassano d'Adda"},"geometry":{"type":"Polygon","coordinates":[[[9.5279,45.5549],[9.526,45.5491],[9.5268,45.5428],[9.5303,45.536],[9.5374,45.5294],[9.5371,45.5257],[9.5503,45.5242],[9.5516,45.5213],[9.5515,45.519],[9.5479,45.516],[9.5487,45.5117],[9.5412,45.5015],[9.5187,45.5084],[9.5178,45.5069],[9.5192,45.5045],[9.5142,45.5014],[9.5088,45.5026],[9.5016,45.5085],[9.4949,45.5109],[9.4955,45.5118],[9.4953,45.5169],[9.4941,45.5191],[9.4869,45.5185],[9.4854,45.5175],[9.4806,45.5186],[9.4809,45.5225],[9.4819,45.524],[9.4861,45.5259],[9.4948,45.5279],[9.5057,45.5364],[9.5014,45.5478],[9.4994,45.5497],[9.4984,45.5538],[9.4988,45.5581],[9.5196,45.5588],[9.5232,45.5532],[9.5279,45.5549]]]}},{"type":"Feature","properties":{"i":"015060","n":"Cassina de' Pecchi"},"geometry":{"type":"Polygon","coordinates":[[[9.3788,45.5235],[9.3889,45.5252],[9.3947,45.5233],[9.4062,45.5153],[9.408,45.5115],[9.3963,45.5078],[9.3893,45.5071],[9.3883,45.509],[9.3841,45.5121],[9.3799,45.5128],[9.3672,45.5109],[9.3583,45.5079],[9.3547,45.5062],[9.3553,45.5037],[9.3547,45.5036],[9.3481,45.5031],[9.3466,45.5052],[9.3452,45.5086],[9.3473,45.5089],[9.3496,45.5121],[9.3523,45.5204],[9.3551,45.5241],[9.359,45.5254],[9.3593,45.5245],[9.3675,45.5263],[9.3788,45.5235]]]}},{"type":"Feature","properties":{"i":"015061","n":"Cassinetta di Lugagnano"},"geometry":{"type":"Polygon","coordinates":[[[8.921,45.432],[8.9227,45.4314],[8.9247,45.427],[8.9236,45.4252],[8.9157,45.4233],[8.9154,45.4228],[8.9182,45.421],[8.9154,45.4216],[8.9102,45.4208],[8.9095,45.4197],[8.9046,45.4174],[8.8961,45.4154],[8.894,45.4174],[8.8959,45.418],[8.8965,45.4203],[8.8936,45.4233],[8.8917,45.4289],[8.9093,45.434],[8.9121,45.4358],[8.921,45.432]]]}},{"type":"Feature","properties":{"i":"015062","n":"Castano Primo"},"geometry":{"type":"Polygon","coordinates":[[[8.7824,45.5663],[8.787,45.5663],[8.7946,45.5635],[8.7978,45.5607],[8.8049,45.5604],[8.8106,45.561],[8.8074,45.5595],[8.8027,45.5541],[8.7963,45.5432],[8.7953,45.5387],[8.7987,45.5335],[8.7938,45.5284],[8.7945,45.5269],[8.796,45.5264],[8.794,45.523],[8.7914,45.5232],[8.7905,45.5271],[8.7841,45.5302],[8.7794,45.5293],[8.7576,45.5419],[8.7535,45.5404],[8.7474,45.5415],[8.7305,45.5409],[8.7223,45.5315],[8.7194,45.5311],[8.711,45.5413],[8.7164,45.5443],[8.7262,45.5439],[8.7315,45.5483],[8.7376,45.5544],[8.7404,45.5625],[8.7495,45.5668],[8.7477,45.5723],[8.7568,45.5744],[8.7571,45.5721],[8.7595,45.5718],[8.777,45.5656],[8.7824,45.5663]]]}},{"type":"Feature","properties":{"i":"015070","n":"Cernusco sul Naviglio"},"geometry":{"type":"Polygon","coordinates":[[[9.3521,45.5406],[9.3547,45.5327],[9.3607,45.5317],[9.3675,45.5263],[9.3593,45.5245],[9.359,45.5254],[9.3551,45.5241],[9.3523,45.5204],[9.3496,45.5121],[9.3473,45.5089],[9.3452,45.5086],[9.3481,45.5031],[9.348,45.5003],[9.3439,45.5009],[9.3435,45.5026],[9.341,45.5041],[9.3371,45.5049],[9.3333,45.512],[9.3279,45.5147],[9.3053,45.5134],[9.3069,45.5143],[9.3032,45.5238],[9.3031,45.5261],[9.3053,45.5288],[9.3092,45.5301],[9.3086,45.5329],[9.3052,45.5367],[9.3129,45.5369],[9.3242,45.539],[9.3255,45.54],[9.3252,45.5438],[9.3218,45.5444],[9.3212,45.5477],[9.3247,45.548],[9.3321,45.5459],[9.3435,45.5407],[9.348,45.5399],[9.3521,45.5406]]]}},{"type":"Feature","properties":{"i":"015071","n":"Cerro al Lambro"},"geometry":{"type":"Polygon","coordinates":[[[9.336,45.3467],[9.3436,45.3385],[9.3464,45.3297],[9.3547,45.3208],[9.3388,45.313],[9.338,45.3146],[9.3316,45.3122],[9.3247,45.3182],[9.3218,45.3222],[9.3109,45.3265],[9.2994,45.3346],[9.2987,45.3363],[9.3188,45.3511],[9.3217,45.3516],[9.3265,45.3487],[9.3328,45.3504],[9.3342,45.3497],[9.336,45.3467]]]}},{"type":"Feature","properties":{"i":"015072","n":"Cerro Maggiore"},"geometry":{"type":"Polygon","coordinates":[[[8.9673,45.6083],[8.9707,45.6044],[8.9697,45.5983],[8.9703,45.5929],[8.971,45.5909],[8.9747,45.5867],[8.9835,45.5911],[8.9986,45.5773],[8.9893,45.5722],[8.9797,45.57],[8.9715,45.5697],[8.9713,45.5716],[8.9634,45.578],[8.9642,45.5806],[8.9615,45.5826],[8.9598,45.5836],[8.9558,45.584],[8.9441,45.5893],[8.9401,45.5921],[8.935,45.5934],[8.9448,45.6016],[8.9295,45.6098],[8.9391,45.6107],[8.9412,45.6094],[8.9412,45.607],[8.9419,45.6061],[8.9471,45.6052],[8.9589,45.6082],[8.9673,45.6083]]]}},{"type":"Feature","properties":{"i":"015074","n":"Cesano Boscone"},"geometry":{"type":"Polygon","coordinates":[[[9.103,45.4473],[9.1054,45.4458],[9.1052,45.4435],[9.1005,45.4375],[9.0991,45.437],[9.0959,45.44],[9.0872,45.4386],[9.0924,45.4309],[9.0914,45.4284],[9.0887,45.4275],[9.085,45.4287],[9.0827,45.4318],[9.0799,45.4323],[9.0754,45.43],[9.0749,45.4295],[9.0757,45.4289],[9.0737,45.4287],[9.0685,45.4324],[9.0694,45.4335],[9.0737,45.4343],[9.079,45.4386],[9.0767,45.4513],[9.0783,45.4527],[9.0868,45.4528],[9.0951,45.4503],[9.0989,45.4469],[9.103,45.4473]]]}},{"type":"Feature","properties":{"i":"015076","n":"Cesate"},"geometry":{"type":"Polygon","coordinates":[[[9.0946,45.6046],[9.0996,45.6],[9.1008,45.5967],[9.1006,45.5936],[9.097,45.5914],[9.094,45.591],[9.0954,45.5873],[9.0641,45.5868],[9.066,45.5958],[9.0652,45.5973],[9.0604,45.6002],[9.0613,45.6077],[9.0946,45.6046]]]}},{"type":"Feature","properties":{"i":"015077","n":"Cinisello Balsamo"},"geometry":{"type":"Polygon","coordinates":[[[9.227,45.5712],[9.227,45.566],[9.235,45.5634],[9.2426,45.5634],[9.2557,45.5571],[9.2473,45.5512],[9.2402,45.5498],[9.2177,45.5368],[9.2087,45.5375],[9.205,45.5425],[9.1974,45.5453],[9.1926,45.5458],[9.1978,45.5553],[9.1967,45.5621],[9.1943,45.5617],[9.1925,45.5658],[9.199,45.5735],[9.2031,45.576],[9.2178,45.5793],[9.2234,45.5758],[9.2202,45.5704],[9.227,45.5712]]]}},{"type":"Feature","properties":{"i":"015078","n":"Cisliano"},"geometry":{"type":"Polygon","coordinates":[[[9.0024,45.452],[9.0007,45.4491],[9.0081,45.4431],[9.019,45.4285],[9.0231,45.4261],[9.0238,45.4248],[9.021,45.424],[9.0105,45.4238],[9.0008,45.4204],[8.9939,45.423],[8.9833,45.4253],[8.9788,45.4242],[8.9791,45.4188],[8.9775,45.4167],[8.9754,45.416],[8.9706,45.4183],[8.966,45.4218],[8.963,45.428],[8.9662,45.4321],[8.9624,45.4401],[8.96,45.4432],[8.9579,45.4437],[8.9601,45.4477],[8.9624,45.4477],[8.9644,45.4464],[8.9661,45.4468],[8.9644,45.4516],[8.961,45.4562],[8.9644,45.458],[8.968,45.4574],[8.9705,45.4555],[8.9721,45.4559],[8.9736,45.4569],[8.9746,45.4631],[8.9837,45.4663],[8.9854,45.4608],[8.9846,45.4599],[8.9851,45.4566],[8.9878,45.4552],[8.994,45.4556],[9.0024,45.452]]]}},{"type":"Feature","properties":{"i":"015081","n":"Cologno Monzese"},"geometry":{"type":"Polygon","coordinates":[[[9.3052,45.5367],[9.3086,45.5329],[9.3092,45.5301],[9.3053,45.5288],[9.3031,45.5261],[9.2986,45.5259],[9.2703,45.5189],[9.2681,45.516],[9.2625,45.5158],[9.2585,45.519],[9.2615,45.5242],[9.2647,45.5276],[9.2656,45.5299],[9.2627,45.5424],[9.2607,45.5435],[9.2603,45.5428],[9.2595,45.5437],[9.2595,45.5455],[9.2652,45.5504],[9.2687,45.5513],[9.2733,45.5485],[9.2865,45.5434],[9.3044,45.5379],[9.3052,45.5367]]]}},{"type":"Feature","properties":{"i":"015082","n":"Colturano"},"geometry":{"type":"Polygon","coordinates":[[[9.3642,45.3864],[9.3556,45.3767],[9.351,45.3764],[9.3489,45.3775],[9.3443,45.374],[9.3415,45.3704],[9.334,45.3679],[9.3331,45.368],[9.3268,45.3767],[9.3217,45.3815],[9.3212,45.3849],[9.3212,45.3871],[9.3268,45.3882],[9.3367,45.388],[9.3549,45.3854],[9.3642,45.3864]]]}},{"type":"Feature","properties":{"i":"015085","n":"Corbetta"},"geometry":{"type":"Polygon","coordinates":[[[8.961,45.4562],[8.9644,45.4516],[8.9661,45.4468],[8.9644,45.4464],[8.9624,45.4477],[8.9601,45.4477],[8.9579,45.4437],[8.9562,45.4427],[8.954,45.4417],[8.9489,45.4417],[8.9472,45.4422],[8.9417,45.449],[8.9381,45.4451],[8.9399,45.4418],[8.9359,45.4402],[8.9332,45.4415],[8.9275,45.4408],[8.9203,45.4384],[8.921,45.432],[8.9121,45.4358],[8.9151,45.4368],[8.9131,45.4379],[8.9083,45.4377],[8.9077,45.442],[8.9081,45.4483],[8.9071,45.4518],[8.907,45.4569],[8.902,45.4691],[8.9009,45.4689],[8.8998,45.4712],[8.8997,45.4797],[8.905,45.4819],[8.9218,45.4797],[8.9294,45.4807],[8.934,45.4839],[8.9345,45.4871],[8.9383,45.4865],[8.9381,45.4852],[8.9398,45.4814],[8.9466,45.4786],[8.9498,45.4698],[8.9555,45.4657],[8.9562,45.466],[8.9558,45.4672],[8.9541,45.469],[8.9554,45.4689],[8.9638,45.4617],[8.9642,45.4607],[8.9617,45.4601],[8.9606,45.4608],[8.9562,45.4588],[8.9588,45.456],[8.961,45.4562]]]}},{"type":"Feature","properties":{"i":"015086","n":"Cormano"},"geometry":{"type":"Polygon","coordinates":[[[9.1872,45.545],[9.1781,45.5348],[9.1688,45.5357],[9.1559,45.5331],[9.1476,45.5458],[9.1487,45.5509],[9.1682,45.5557],[9.1727,45.5503],[9.1738,45.5479],[9.1738,45.5447],[9.1806,45.5429],[9.1872,45.545]]]}},{"type":"Feature","properties":{"i":"015087","n":"Cornaredo"},"geometry":{"type":"Polygon","coordinates":[[[9.0222,45.5147],[9.0239,45.513],[9.0351,45.5084],[9.0416,45.5106],[9.0465,45.5081],[9.052,45.5034],[9.0475,45.5027],[9.04,45.504],[9.0366,45.5018],[9.0359,45.4993],[9.0387,45.494],[9.0393,45.4901],[9.0354,45.4734],[9.0357,45.4693],[9.0294,45.466],[9.0306,45.4633],[9.0232,45.4614],[9.0192,45.4709],[9.0127,45.4813],[9.0102,45.4878],[9.0112,45.4885],[9.0082,45.4953],[8.9985,45.5],[8.9975,45.5038],[9.0044,45.5062],[9.0091,45.5069],[9.0201,45.5141],[9.0222,45.5147]]]}},{"type":"Feature","properties":{"i":"015093","n":"Corsico"},"geometry":{"type":"Polygon","coordinates":[[[9.1204,45.4374],[9.1183,45.4345],[9.1172,45.4273],[9.0996,45.4224],[9.091,45.4237],[9.0871,45.4231],[9.0867,45.421],[9.0749,45.4295],[9.0799,45.4323],[9.0827,45.4318],[9.085,45.4287],[9.0887,45.4275],[9.092,45.4287],[9.0924,45.4309],[9.0872,45.4386],[9.0959,45.44],[9.0991,45.437],[9.1005,45.4375],[9.1052,45.4435],[9.1054,45.4458],[9.103,45.4473],[9.1068,45.4499],[9.1112,45.4483],[9.1204,45.4374]]]}},{"type":"Feature","properties":{"i":"015096","n":"Cuggiono"},"geometry":{"type":"Polygon","coordinates":[[[8.8157,45.5272],[8.8202,45.5235],[8.8215,45.5181],[8.8251,45.5111],[8.8274,45.5092],[8.83,45.5093],[8.8321,45.5068],[8.8334,45.503],[8.826,45.498],[8.8233,45.4946],[8.818,45.4926],[8.8121,45.4914],[8.7978,45.4909],[8.7935,45.4876],[8.7796,45.4846],[8.7753,45.4844],[8.7702,45.4865],[8.7603,45.4969],[8.7571,45.4981],[8.7733,45.5047],[8.789,45.5075],[8.7941,45.5159],[8.7932,45.5215],[8.796,45.5264],[8.8096,45.5294],[8.8136,45.5291],[8.8157,45.5272]]]}},{"type":"Feature","properties":{"i":"015097","n":"Cusago"},"geometry":{"type":"Polygon","coordinates":[[[9.0428,45.4637],[9.045,45.4592],[9.0471,45.4582],[9.0482,45.4564],[9.05,45.4514],[9.0445,45.4492],[9.047,45.446],[9.0538,45.4451],[9.0548,45.4426],[9.0517,45.4318],[9.0504,45.4312],[9.0484,45.4305],[9.0404,45.4306],[9.0322,45.4321],[9.0252,45.432],[9.0248,45.4296],[9.0254,45.427],[9.0231,45.4261],[9.019,45.4285],[9.0081,45.4431],[9.0007,45.4491],[9.0033,45.4545],[9.0306,45.4633],[9.0294,45.466],[9.0343,45.4689],[9.0357,45.4693],[9.0428,45.4637]]]}},{"type":"Feature","properties":{"i":"015098","n":"Cusano Milanino"},"geometry":{"type":"Polygon","coordinates":[[[9.1926,45.5458],[9.1806,45.5429],[9.1738,45.5447],[9.1738,45.5479],[9.1727,45.5503],[9.1682,45.5557],[9.185,45.5595],[9.1861,45.5599],[9.1861,45.5615],[9.1967,45.5621],[9.1978,45.5553],[9.1926,45.5458]]]}},{"type":"Feature","properties":{"i":"015099","n":"Dairago"},"geometry":{"type":"Polygon","coordinates":[[[8.8777,45.5717],[8.8748,45.5712],[8.8725,45.5675],[8.8733,45.5658],[8.8761,45.5647],[8.8768,45.5628],[8.8702,45.5576],[8.8645,45.5544],[8.8601,45.5579],[8.8472,45.5565],[8.8484,45.5543],[8.8465,45.5563],[8.8328,45.5576],[8.8292,45.562],[8.837,45.5685],[8.843,45.5713],[8.86,45.5749],[8.866,45.5759],[8.8697,45.5699],[8.8735,45.5723],[8.8741,45.5771],[8.8751,45.5776],[8.8778,45.5748],[8.8777,45.5717]]]}},{"type":"Feature","properties":{"i":"015101","n":"Dresano"},"geometry":{"type":"Polygon","coordinates":[[[9.3782,45.3689],[9.3639,45.3657],[9.353,45.3677],[9.351,45.3764],[9.3556,45.3767],[9.3642,45.3864],[9.3731,45.3865],[9.3726,45.3809],[9.375,45.3791],[9.3782,45.3689]]]}},{"type":"Feature","properties":{"i":"015103","n":"Gaggiano"},"geometry":{"type":"Polygon","coordinates":[[[9.0231,45.4261],[9.0254,45.427],[9.0291,45.4243],[9.0318,45.4204],[9.0304,45.4164],[9.0398,45.4095],[9.0621,45.4159],[9.0651,45.4109],[9.0623,45.41],[9.0628,45.4091],[9.069,45.4044],[9.0721,45.4053],[9.0723,45.4071],[9.0753,45.4041],[9.0754,45.3992],[9.0723,45.3974],[9.0694,45.3975],[9.0699,45.3918],[9.0683,45.3923],[9.066,45.391],[9.0659,45.389],[9.063,45.386],[9.0556,45.3833],[9.0488,45.377],[9.0417,45.376],[9.036,45.3786],[9.0385,45.3738],[9.0249,45.3642],[9.0172,45.3684],[9.0146,45.3747],[9.0125,45.3772],[9.0101,45.3913],[9.0119,45.3958],[9.0097,45.4],[9.0047,45.4002],[9.0066,45.404],[9.0019,45.405],[8.994,45.4054],[8.987,45.4116],[8.9834,45.4125],[8.9809,45.4097],[8.9827,45.4075],[8.985,45.4074],[8.9867,45.4036],[8.978,45.4035],[8.9761,45.4054],[8.9775,45.4063],[8.9753,45.408],[8.9722,45.408],[8.9677,45.4066],[8.9668,45.41],[8.9677,45.4134],[8.9701,45.4146],[8.9709,45.412],[8.9746,45.413],[8.9728,45.4171],[8.9754,45.416],[8.9775,45.4167],[8.9795,45.4201],[8.9788,45.4242],[8.9833,45.4253],[8.9939,45.423],[9.0008,45.4204],[9.0105,45.4238],[9.021,45.424],[9.0238,45.4248],[9.0231,45.4261]]]}},{"type":"Feature","properties":{"i":"015105","n":"Garbagnate Milanese"},"geometry":{"type":"Polygon","coordinates":[[[9.0954,45.5873],[9.0996,45.5807],[9.1011,45.568],[9.0967,45.5686],[9.0926,45.5674],[9.09,45.5644],[9.0822,45.5596],[9.0731,45.5599],[9.0669,45.5625],[9.0687,45.5633],[9.0648,45.5676],[9.0548,45.5669],[9.053,45.5691],[9.0495,45.5775],[9.0508,45.5806],[9.0577,45.5813],[9.063,45.5804],[9.0641,45.5868],[9.0954,45.5873]]]}},{"type":"Feature","properties":{"i":"015106","n":"Gessate"},"geometry":{"type":"Polygon","coordinates":[[[9.4535,45.556],[9.4516,45.5518],[9.4523,45.5506],[9.452,45.5474],[9.4318,45.5397],[9.4142,45.5488],[9.4139,45.5511],[9.4125,45.5523],[9.4097,45.5521],[9.4066,45.5577],[9.4366,45.5664],[9.4496,45.5755],[9.4514,45.5753],[9.4506,45.5699],[9.4535,45.556]]]}},{"type":"Feature","properties":{"i":"015108","n":"Gorgonzola"},"geometry":{"type":"Polygon","coordinates":[[[9.4318,45.5397],[9.429,45.5386],[9.4301,45.5225],[9.4324,45.5213],[9.4315,45.5191],[9.4271,45.5207],[9.4252,45.5162],[9.4257,45.5137],[9.4219,45.5107],[9.4161,45.5101],[9.4164,45.5112],[9.4149,45.5116],[9.411,45.5122],[9.408,45.5115],[9.4062,45.5153],[9.3947,45.5233],[9.3889,45.5252],[9.3788,45.5235],[9.3786,45.5263],[9.3816,45.527],[9.3834,45.5307],[9.3839,45.5342],[9.3834,45.5384],[9.393,45.5389],[9.4134,45.5455],[9.4142,45.5488],[9.4318,45.5397]]]}},{"type":"Feature","properties":{"i":"015110","n":"Grezzago"},"geometry":{"type":"Polygon","coordinates":[[[9.51,45.5878],[9.5096,45.5865],[9.5064,45.5872],[9.5001,45.5826],[9.4986,45.583],[9.4895,45.5885],[9.483,45.5894],[9.479,45.5958],[9.4817,45.5968],[9.4842,45.5965],[9.4886,45.5992],[9.5021,45.5959],[9.5051,45.5909],[9.51,45.5878]]]}},{"type":"Feature","properties":{"i":"015112","n":"Gudo Visconti"},"geometry":{"type":"Polygon","coordinates":[[[9.0159,45.3706],[9.0081,45.3702],[8.9983,45.3667],[8.9823,45.3636],[8.9812,45.3651],[8.976,45.3676],[8.9657,45.3659],[8.9645,45.3681],[8.9692,45.3693],[8.9702,45.3717],[8.9748,45.3762],[8.9784,45.3738],[8.9837,45.3755],[8.9857,45.3778],[8.9899,45.3799],[9.0019,45.3823],[9.0065,45.3845],[9.0062,45.3868],[8.999,45.3959],[9.0019,45.3988],[9.0068,45.4005],[9.0097,45.4],[9.0119,45.3958],[9.0101,45.3913],[9.0125,45.3772],[9.0146,45.3747],[9.0159,45.3706]]]}},{"type":"Feature","properties":{"i":"015113","n":"Inveruno"},"geometry":{"type":"Polygon","coordinates":[[[8.8613,45.5308],[8.8694,45.5266],[8.8763,45.5247],[8.8822,45.5262],[8.893,45.5152],[8.8837,45.5107],[8.8722,45.5082],[8.8706,45.5077],[8.8708,45.507],[8.8581,45.5047],[8.8543,45.506],[8.8513,45.5059],[8.8334,45.503],[8.8321,45.5068],[8.83,45.5093],[8.8274,45.5092],[8.8251,45.5111],[8.8215,45.5181],[8.8202,45.5235],[8.8157,45.5272],[8.8265,45.5289],[8.8346,45.5257],[8.8396,45.526],[8.8566,45.5308],[8.8613,45.5308]]]}},{"type":"Feature","properties":{"i":"015114","n":"Inzago"},"geometry":{"type":"Polygon","coordinates":[[[9.4988,45.5581],[9.4984,45.5538],[9.4994,45.5497],[9.5014,45.5478],[9.5057,45.5364],[9.4948,45.5279],[9.4861,45.5259],[9.4819,45.524],[9.4809,45.5225],[9.4757,45.5238],[9.4751,45.5224],[9.4726,45.5222],[9.4632,45.5249],[9.4617,45.5304],[9.4605,45.5306],[9.4614,45.5355],[9.4583,45.5438],[9.4557,45.5466],[9.452,45.5474],[9.4523,45.5506],[9.4516,45.5518],[9.4535,45.556],[9.4576,45.5532],[9.4636,45.5523],[9.4762,45.5564],[9.4804,45.5621],[9.4988,45.5581]]]}},{"type":"Feature","properties":{"i":"015115","n":"Lacchiarella"},"geometry":{"type":"Polygon","coordinates":[[[9.1849,45.3346],[9.1927,45.333],[9.1998,45.3338],[9.2017,45.3348],[9.2006,45.3254],[9.1966,45.317],[9.1869,45.312],[9.1821,45.3107],[9.1886,45.301],[9.1937,45.295],[9.2008,45.2911],[9.193,45.2912],[9.1876,45.2922],[9.1838,45.2939],[9.1807,45.2985],[9.1793,45.2982],[9.178,45.2994],[9.1659,45.2996],[9.1581,45.298],[9.1513,45.2988],[9.1469,45.3055],[9.1411,45.3096],[9.1391,45.3098],[9.1381,45.3084],[9.1347,45.3078],[9.1294,45.3111],[9.1285,45.3135],[9.1208,45.3216],[9.1236,45.3215],[9.1247,45.3235],[9.1204,45.3291],[9.1169,45.331],[9.1125,45.338],[9.1157,45.3408],[9.1156,45.3419],[9.1231,45.3457],[9.1278,45.3465],[9.1384,45.3453],[9.1439,45.3467],[9.1478,45.3493],[9.1485,45.3458],[9.1521,45.34],[9.1545,45.3394],[9.1598,45.34],[9.1642,45.3349],[9.1673,45.3297],[9.1663,45.3295],[9.1674,45.329],[9.1705,45.3282],[9.18,45.3338],[9.1849,45.3346]]]}},{"type":"Feature","properties":{"i":"015116","n":"Lainate"},"geometry":{"type":"Polygon","coordinates":[[[9.0495,45.5775],[9.053,45.5691],[9.0548,45.5669],[9.0489,45.5599],[9.0357,45.5555],[9.0271,45.551],[9.0254,45.5435],[9.0151,45.5411],[9.0079,45.5446],[9.0078,45.5527],[9.0089,45.5553],[9.0081,45.5691],[9.0026,45.5684],[8.9973,45.5666],[8.9955,45.5675],[8.9962,45.5698],[9.0021,45.5742],[9.0029,45.5762],[9.0228,45.5845],[9.0257,45.5885],[9.0373,45.5824],[9.0495,45.5775]]]}},{"type":"Feature","properties":{"i":"015118","n":"Legnano"},"geometry":{"type":"Polygon","coordinates":[[[8.9391,45.6107],[8.9295,45.6098],[8.9448,45.6016],[8.9337,45.5929],[8.9296,45.5876],[8.9251,45.5774],[8.9211,45.5745],[8.9189,45.5778],[8.9135,45.5804],[8.9074,45.5777],[8.8965,45.5683],[8.896,45.5714],[8.894,45.5741],[8.8834,45.5797],[8.8806,45.5789],[8.8806,45.5748],[8.8793,45.5725],[8.8777,45.5717],[8.8778,45.5748],[8.8751,45.5776],[8.8741,45.5771],[8.8735,45.5723],[8.8697,45.5699],[8.866,45.5759],[8.8711,45.5775],[8.8736,45.5806],[8.8718,45.5865],[8.8678,45.592],[8.8738,45.5942],[8.8799,45.5982],[8.8997,45.6054],[8.9116,45.6063],[8.9155,45.6074],[8.9259,45.6195],[8.9376,45.6239],[8.9423,45.6201],[8.9411,45.615],[8.9391,45.6107]]]}},{"type":"Feature","properties":{"i":"015122","n":"Liscate"},"geometry":{"type":"Polygon","coordinates":[[[9.4066,45.4914],[9.4078,45.4895],[9.4161,45.4857],[9.4288,45.4822],[9.4321,45.4781],[9.4312,45.4745],[9.432,45.4703],[9.4342,45.4688],[9.4335,45.4636],[9.4316,45.4604],[9.4182,45.4516],[9.4175,45.4515],[9.4171,45.4569],[9.4153,45.4583],[9.4105,45.4581],[9.4077,45.4638],[9.4079,45.4656],[9.4016,45.4706],[9.3896,45.4767],[9.3808,45.486],[9.3794,45.4898],[9.3822,45.4902],[9.4003,45.4885],[9.4066,45.4914]]]}},{"type":"Feature","properties":{"i":"015125","n":"Locate di Triulzi"},"geometry":{"type":"Polygon","coordinates":[[[9.249,45.362],[9.2471,45.3605],[9.2493,45.3468],[9.2389,45.3399],[9.2418,45.3284],[9.2396,45.3279],[9.2374,45.3284],[9.2315,45.3336],[9.2295,45.3334],[9.2296,45.3354],[9.2182,45.3452],[9.2101,45.3463],[9.2097,45.3513],[9.2126,45.3532],[9.2125,45.3551],[9.2097,45.3571],[9.2047,45.3586],[9.2014,45.3624],[9.2008,45.3644],[9.2067,45.3609],[9.2172,45.3671],[9.2184,45.3734],[9.2307,45.3774],[9.2275,45.3832],[9.2232,45.3851],[9.2205,45.3891],[9.2224,45.3896],[9.2286,45.3864],[9.2338,45.3872],[9.2363,45.3845],[9.2408,45.3758],[9.2469,45.3667],[9.249,45.362]]]}},{"type":"Feature","properties":{"i":"015130","n":"Magenta"},"geometry":{"type":"Polygon","coordinates":[[[8.8997,45.4797],[8.8993,45.473],[8.9009,45.4689],[8.902,45.4691],[8.9068,45.4575],[8.9071,45.4518],[8.8999,45.451],[8.8891,45.4462],[8.8735,45.4461],[8.8646,45.45],[8.8637,45.4498],[8.8603,45.4483],[8.8581,45.4459],[8.86,45.4395],[8.86,45.4363],[8.8519,45.4322],[8.8446,45.4297],[8.8401,45.4271],[8.8377,45.4236],[8.8321,45.4208],[8.8245,45.4195],[8.8244,45.4301],[8.8263,45.4326],[8.8243,45.4351],[8.818,45.4347],[8.8157,45.4367],[8.8152,45.4422],[8.8179,45.4467],[8.8212,45.4483],[8.8253,45.4488],[8.8318,45.4519],[8.8512,45.4656],[8.8579,45.4692],[8.863,45.4694],[8.8626,45.4718],[8.8634,45.4725],[8.8714,45.4747],[8.8778,45.4782],[8.8812,45.483],[8.8997,45.4797]]]}},{"type":"Feature","properties":{"i":"015131","n":"Magnago"},"geometry":{"type":"Polygon","coordinates":[[[8.8064,45.6017],[8.8111,45.5939],[8.8119,45.5908],[8.8199,45.5832],[8.8283,45.5824],[8.8347,45.5779],[8.837,45.5685],[8.8292,45.562],[8.8129,45.5622],[8.8106,45.561],[8.8049,45.5604],[8.7978,45.5607],[8.7946,45.5635],[8.787,45.5663],[8.7824,45.5663],[8.7828,45.5706],[8.7879,45.5782],[8.794,45.5821],[8.7992,45.6021],[8.8064,45.6017]]]}},{"type":"Feature","properties":{"i":"015134","n":"Marcallo con Casone"},"geometry":{"type":"Polygon","coordinates":[[[8.892,45.491],[8.8917,45.4811],[8.8812,45.483],[8.8778,45.4782],[8.8714,45.4747],[8.8661,45.4737],[8.8626,45.4718],[8.8511,45.4709],[8.8488,45.4741],[8.8481,45.4785],[8.8474,45.4791],[8.8392,45.478],[8.8366,45.4852],[8.8373,45.4863],[8.8405,45.4868],[8.8406,45.4854],[8.8416,45.4842],[8.852,45.4854],[8.8651,45.4927],[8.8727,45.5018],[8.8858,45.5043],[8.8881,45.5043],[8.8915,45.4982],[8.8911,45.4926],[8.892,45.491]]]}},{"type":"Feature","properties":{"i":"015136","n":"Masate"},"geometry":{"type":"Polygon","coordinates":[[[9.4813,45.5648],[9.4804,45.5621],[9.4762,45.5564],[9.4636,45.5523],[9.4576,45.5532],[9.4535,45.556],[9.4506,45.5699],[9.4514,45.5753],[9.4496,45.5755],[9.4495,45.581],[9.453,45.5807],[9.4728,45.5675],[9.4813,45.5648]]]}},{"type":"Feature","properties":{"i":"015139","n":"Mediglia"},"geometry":{"type":"Polygon","coordinates":[[[9.3762,45.4307],[9.3829,45.4268],[9.3829,45.4226],[9.3848,45.4223],[9.385,45.4174],[9.3786,45.4184],[9.3699,45.4232],[9.3581,45.4079],[9.3547,45.401],[9.3564,45.3982],[9.3591,45.3987],[9.3647,45.3958],[9.3642,45.3864],[9.3549,45.3854],[9.3367,45.388],[9.3268,45.3882],[9.3212,45.3871],[9.3213,45.3863],[9.3168,45.3893],[9.3101,45.3977],[9.299,45.4085],[9.2966,45.4132],[9.2994,45.4162],[9.3053,45.4193],[9.3128,45.4247],[9.3198,45.4255],[9.3206,45.4234],[9.322,45.4222],[9.3254,45.423],[9.3316,45.4261],[9.3343,45.4296],[9.3363,45.4348],[9.338,45.437],[9.3413,45.4361],[9.3453,45.4367],[9.35,45.4313],[9.3725,45.4273],[9.3734,45.4272],[9.3762,45.4307]]]}},{"type":"Feature","properties":{"i":"015140","n":"Melegnano"},"geometry":{"type":"Polygon","coordinates":[[[9.336,45.3467],[9.3342,45.3497],[9.3328,45.3504],[9.3265,45.3487],[9.3217,45.3516],[9.3188,45.3511],[9.3072,45.3426],[9.3033,45.3452],[9.2973,45.353],[9.3131,45.3596],[9.3173,45.3632],[9.3256,45.367],[9.3287,45.3665],[9.3326,45.367],[9.3331,45.368],[9.334,45.3679],[9.3343,45.3626],[9.3357,45.3594],[9.3371,45.3597],[9.338,45.357],[9.3373,45.3487],[9.336,45.3467]]]}},{"type":"Feature","properties":{"i":"015142","n":"Melzo"},"geometry":{"type":"Polygon","coordinates":[[[9.4522,45.4934],[9.4486,45.4906],[9.4471,45.4857],[9.4288,45.4822],[9.4207,45.4841],[9.4075,45.4897],[9.4066,45.4914],[9.4062,45.4955],[9.4014,45.5003],[9.3963,45.5078],[9.4091,45.5121],[9.4164,45.5112],[9.4161,45.5101],[9.4219,45.5107],[9.4257,45.5137],[9.4256,45.5176],[9.4378,45.5114],[9.4393,45.5081],[9.4386,45.5037],[9.4419,45.5017],[9.4529,45.4984],[9.4522,45.4934]]]}},{"type":"Feature","properties":{"i":"015144","n":"Mesero"},"geometry":{"type":"Polygon","coordinates":[[[8.8708,45.507],[8.8727,45.5018],[8.8651,45.4927],[8.852,45.4854],[8.8416,45.4842],[8.8406,45.4854],[8.8405,45.4868],[8.8373,45.4863],[8.8366,45.4852],[8.8384,45.4814],[8.8314,45.4811],[8.8297,45.4837],[8.8288,45.4859],[8.8348,45.4899],[8.8365,45.4938],[8.836,45.499],[8.8351,45.5002],[8.8315,45.5013],[8.8334,45.503],[8.8513,45.5059],[8.8543,45.506],[8.8581,45.5047],[8.8708,45.507]]]}},{"type":"Feature","properties":{"i":"015146","n":"Milano"},"geometry":{"type":"Polygon","coordinates":[[[9.1791,45.5353],[9.182,45.5344],[9.189,45.5271],[9.1957,45.5277],[9.2002,45.5291],[9.2167,45.5284],[9.2215,45.5234],[9.2334,45.5199],[9.2568,45.5183],[9.2586,45.519],[9.2625,45.5158],[9.2681,45.516],[9.2683,45.5168],[9.2695,45.5103],[9.2716,45.5067],[9.278,45.5052],[9.2775,45.5034],[9.2735,45.5018],[9.2714,45.502],[9.2723,45.5057],[9.2682,45.5057],[9.2611,45.5042],[9.2604,45.499],[9.2624,45.4791],[9.2605,45.4766],[9.2601,45.4716],[9.2662,45.472],[9.2716,45.468],[9.272,45.462],[9.2657,45.4511],[9.2669,45.4486],[9.2666,45.4351],[9.2636,45.4322],[9.2479,45.4237],[9.2414,45.4192],[9.2502,45.4146],[9.2479,45.4131],[9.2387,45.4093],[9.2321,45.4083],[9.2246,45.4087],[9.2231,45.4095],[9.218,45.4072],[9.2165,45.403],[9.2167,45.3998],[9.2148,45.3971],[9.2081,45.3971],[9.2014,45.3928],[9.2007,45.3909],[9.1969,45.3877],[9.1926,45.3867],[9.1911,45.3883],[9.1911,45.3926],[9.19,45.3928],[9.1872,45.3912],[9.1822,45.3909],[9.1733,45.3971],[9.1691,45.4025],[9.1581,45.4025],[9.1589,45.4082],[9.1574,45.4124],[9.1545,45.4161],[9.1443,45.4181],[9.1363,45.4172],[9.1379,45.4154],[9.1334,45.4142],[9.1315,45.416],[9.1309,45.4208],[9.1267,45.4286],[9.1215,45.4362],[9.1112,45.4483],[9.1068,45.4499],[9.103,45.4473],[9.0989,45.4469],[9.0951,45.4503],[9.0868,45.4528],[9.0783,45.4527],[9.0767,45.4513],[9.079,45.4386],[9.0728,45.4338],[9.0694,45.4335],[9.054,45.4397],[9.0548,45.4426],[9.0538,45.4451],[9.047,45.446],[9.0445,45.4492],[9.05,45.4514],[9.0471,45.4582],[9.045,45.4592],[9.0428,45.4637],[9.0432,45.4647],[9.074,45.4598],[9.0747,45.4652],[9.0771,45.4721],[9.0756,45.476],[9.0661,45.485],[9.0568,45.4976],[9.0539,45.5048],[9.0605,45.5044],[9.0674,45.5049],[9.0692,45.5058],[9.0721,45.5054],[9.0804,45.4973],[9.0862,45.4986],[9.0883,45.4978],[9.0907,45.5027],[9.0975,45.5065],[9.0977,45.5087],[9.0935,45.5186],[9.0956,45.5235],[9.0929,45.5288],[9.099,45.5321],[9.0994,45.5312],[9.0972,45.5292],[9.0972,45.527],[9.1029,45.5226],[9.1179,45.52],[9.1237,45.5206],[9.1239,45.5228],[9.1325,45.5235],[9.1416,45.5207],[9.1514,45.5203],[9.1585,45.5334],[9.1688,45.5357],[9.1781,45.5348],[9.1791,45.5353]]]}},{"type":"Feature","properties":{"i":"015150","n":"Morimondo"},"geometry":{"type":"Polygon","coordinates":[[[8.9692,45.3693],[8.9645,45.3681],[8.9657,45.3659],[8.976,45.3676],[8.9812,45.3651],[8.9823,45.3636],[8.9841,45.3582],[8.9741,45.3534],[8.9816,45.3449],[8.993,45.34],[8.9942,45.3372],[8.9937,45.3261],[8.9917,45.3228],[8.9883,45.3216],[8.9873,45.3239],[8.9866,45.3238],[8.9692,45.3188],[8.9416,45.3232],[8.9377,45.3246],[8.9357,45.3233],[8.9335,45.3195],[8.9297,45.3198],[8.9246,45.3167],[8.921,45.319],[8.9196,45.3205],[8.925,45.3261],[8.9255,45.3278],[8.9196,45.3337],[8.9125,45.3465],[8.9396,45.3588],[8.9475,45.364],[8.9442,45.3688],[8.9459,45.3745],[8.9504,45.376],[8.952,45.3743],[8.9541,45.3749],[8.9567,45.3797],[8.954,45.3828],[8.952,45.384],[8.9498,45.3841],[8.9489,45.3853],[8.9509,45.3865],[8.9547,45.384],[8.9692,45.3693]]]}},{"type":"Feature","properties":{"i":"015151","n":"Motta Visconti"},"geometry":{"type":"Polygon","coordinates":[[[8.9923,45.301],[8.9949,45.2957],[9.01,45.2928],[9.0158,45.2906],[9.0167,45.2836],[9.0187,45.2806],[9.0151,45.2759],[9.007,45.2781],[9.0028,45.2764],[8.9829,45.265],[8.9741,45.2736],[8.9589,45.283],[8.9639,45.2842],[8.966,45.2856],[8.9673,45.2871],[8.9666,45.2898],[8.9691,45.2944],[8.9738,45.2974],[8.9851,45.3004],[8.9923,45.301]]]}},{"type":"Feature","properties":{"i":"015154","n":"Nerviano"},"geometry":{"type":"Polygon","coordinates":[[[9.0078,45.5527],[9.004,45.5493],[8.9844,45.543],[8.9757,45.5362],[8.9683,45.5266],[8.9672,45.5235],[8.9617,45.5246],[8.9573,45.5245],[8.953,45.5275],[8.9545,45.5319],[8.961,45.5369],[8.9632,45.5428],[8.9591,45.5523],[8.9594,45.564],[8.9717,45.5674],[8.973,45.5685],[8.9715,45.5697],[8.9797,45.57],[8.9893,45.5722],[8.9986,45.5773],[9.0021,45.5742],[8.9962,45.5698],[8.9955,45.5675],[8.9973,45.5666],[9.0026,45.5684],[9.0081,45.5691],[9.0089,45.5553],[9.0078,45.5527]]]}},{"type":"Feature","properties":{"i":"015155","n":"Nosate"},"geometry":{"type":"Polygon","coordinates":[[[8.7392,45.5602],[8.7376,45.5544],[8.7262,45.5439],[8.7164,45.5443],[8.711,45.5413],[8.7091,45.5439],[8.7062,45.5528],[8.7069,45.5583],[8.7143,45.5622],[8.7179,45.5656],[8.7189,45.5693],[8.7235,45.5692],[8.7243,45.5661],[8.7302,45.561],[8.7392,45.5602]]]}},{"type":"Feature","properties":{"i":"015157","n":"Novate Milanese"},"geometry":{"type":"Polygon","coordinates":[[[9.1476,45.5458],[9.1559,45.5331],[9.1585,45.5334],[9.1514,45.5203],[9.1416,45.5207],[9.1325,45.5235],[9.1222,45.5227],[9.1225,45.525],[9.1248,45.5263],[9.1241,45.5293],[9.1222,45.532],[9.122,45.5342],[9.1242,45.5363],[9.1322,45.5411],[9.144,45.5453],[9.1476,45.5458]]]}},{"type":"Feature","properties":{"i":"015158","n":"Noviglio"},"geometry":{"type":"Polygon","coordinates":[[[9.0699,45.3918],[9.0753,45.3916],[9.0777,45.3895],[9.0809,45.3838],[9.0765,45.3804],[9.0759,45.376],[9.0765,45.3744],[9.0828,45.3733],[9.0825,45.3738],[9.0864,45.3719],[9.0892,45.3688],[9.0896,45.366],[9.089,45.3638],[9.0834,45.3603],[9.0767,45.3602],[9.0729,45.3592],[9.0713,45.3569],[9.072,45.3534],[9.0765,45.3495],[9.0868,45.3508],[9.091,45.3495],[9.0982,45.3446],[9.0995,45.3406],[9.1017,45.3403],[9.0997,45.338],[9.0866,45.3349],[9.0824,45.3347],[9.0774,45.3375],[9.0731,45.3388],[9.0692,45.339],[9.0645,45.3376],[9.0629,45.341],[9.0655,45.3417],[9.0644,45.3469],[9.0545,45.352],[9.0423,45.3556],[9.04,45.3579],[9.0369,45.364],[9.0373,45.3669],[9.0402,45.3708],[9.036,45.3786],[9.0417,45.376],[9.0493,45.3772],[9.0556,45.3833],[9.063,45.386],[9.0659,45.389],[9.066,45.391],[9.0683,45.3923],[9.0699,45.3918]]]}},{"type":"Feature","properties":{"i":"015159","n":"Opera"},"geometry":{"type":"Polygon","coordinates":[[[9.2148,45.3971],[9.2224,45.3896],[9.2205,45.3891],[9.2232,45.3851],[9.2275,45.3832],[9.2307,45.3774],[9.2184,45.3734],[9.2172,45.3671],[9.2063,45.3607],[9.2008,45.3644],[9.1982,45.3647],[9.1932,45.3699],[9.1941,45.3711],[9.1942,45.3765],[9.1914,45.3783],[9.1921,45.3793],[9.1893,45.3834],[9.1895,45.3856],[9.1911,45.3883],[9.1926,45.3867],[9.1969,45.3877],[9.2007,45.3909],[9.2014,45.3928],[9.2081,45.3971],[9.2148,45.3971]]]}},{"type":"Feature","properties":{"i":"015164","n":"Ossona"},"geometry":{"type":"Polygon","coordinates":[[[8.9148,45.5163],[8.9181,45.5126],[8.9169,45.5055],[8.9174,45.5019],[8.907,45.4945],[8.8949,45.4913],[8.8915,45.4912],[8.8915,45.4982],[8.8881,45.5043],[8.8727,45.5018],[8.8706,45.5077],[8.8837,45.5107],[8.893,45.5152],[8.9148,45.5163]]]}},{"type":"Feature","properties":{"i":"015165","n":"Ozzero"},"geometry":{"type":"Polygon","coordinates":[[[8.9504,45.376],[8.9459,45.3745],[8.9442,45.3688],[8.9475,45.364],[8.9396,45.3588],[8.9125,45.3465],[8.9142,45.3439],[8.9113,45.3416],[8.9067,45.3418],[8.9013,45.349],[8.893,45.352],[8.8901,45.3585],[8.8972,45.3657],[8.9009,45.3654],[8.917,45.3744],[8.9387,45.3838],[8.9477,45.3835],[8.9504,45.376]]]}},{"type":"Feature","properties":{"i":"015166","n":"Paderno Dugnano"},"geometry":{"type":"Polygon","coordinates":[[[9.1769,45.5918],[9.1739,45.5902],[9.1771,45.5855],[9.1836,45.5821],[9.1934,45.5788],[9.2027,45.5771],[9.2031,45.576],[9.199,45.5735],[9.1925,45.5658],[9.1943,45.5617],[9.1861,45.5615],[9.1861,45.5599],[9.185,45.5595],[9.1487,45.5509],[9.1464,45.5533],[9.1448,45.5568],[9.1448,45.559],[9.1471,45.5621],[9.1491,45.5626],[9.1493,45.5641],[9.1477,45.5673],[9.1397,45.5669],[9.1367,45.5675],[9.136,45.5711],[9.1388,45.5776],[9.1457,45.5782],[9.1449,45.5837],[9.1468,45.5878],[9.1629,45.5915],[9.1769,45.5918]]]}},{"type":"Feature","properties":{"i":"015167","n":"Pantigliate"},"geometry":{"type":"Polygon","coordinates":[[[9.3696,45.4523],[9.3711,45.4495],[9.3732,45.4405],[9.3775,45.4356],[9.3765,45.4312],[9.3734,45.4272],[9.35,45.4313],[9.3453,45.4367],[9.3413,45.4361],[9.3431,45.44],[9.3429,45.4441],[9.3445,45.4484],[9.3576,45.455],[9.36,45.4549],[9.3648,45.4516],[9.3696,45.4523]]]}},{"type":"Feature","properties":{"i":"015168","n":"Parabiago"},"geometry":{"type":"Polygon","coordinates":[[[8.9634,45.578],[8.9713,45.5716],[8.9715,45.5697],[8.973,45.5685],[8.971,45.5672],[8.9594,45.564],[8.9591,45.5523],[8.9632,45.5428],[8.961,45.5369],[8.9545,45.5319],[8.9514,45.5246],[8.9319,45.5252],[8.9291,45.5329],[8.9248,45.5337],[8.9186,45.5383],[8.9142,45.5404],[8.9164,45.5492],[8.9392,45.5675],[8.9478,45.5719],[8.9544,45.5729],[8.9555,45.5738],[8.9543,45.5755],[8.9595,45.5787],[8.9634,45.578]]]}},{"type":"Feature","properties":{"i":"015169","n":"Paullo"},"geometry":{"type":"Polygon","coordinates":[[[9.426,45.422],[9.4229,45.4218],[9.4171,45.4108],[9.4142,45.4076],[9.4111,45.4068],[9.4049,45.3911],[9.4015,45.392],[9.4,45.3974],[9.3889,45.3998],[9.3893,45.4053],[9.3907,45.4064],[9.385,45.4174],[9.3843,45.4263],[9.3877,45.4267],[9.3893,45.4217],[9.3912,45.4214],[9.4012,45.4278],[9.4005,45.4296],[9.3988,45.4291],[9.3995,45.4277],[9.3985,45.4272],[9.3965,45.428],[9.3953,45.431],[9.397,45.4356],[9.4097,45.4382],[9.4109,45.4351],[9.4154,45.4322],[9.4206,45.4302],[9.4257,45.424],[9.426,45.422]]]}},{"type":"Feature","properties":{"i":"015170","n":"Pero"},"geometry":{"type":"Polygon","coordinates":[[[9.0945,45.5164],[9.0977,45.5087],[9.0975,45.5065],[9.0907,45.5027],[9.0883,45.4978],[9.0862,45.4986],[9.0804,45.4973],[9.0721,45.5054],[9.0692,45.5058],[9.0586,45.5119],[9.0554,45.5168],[9.0552,45.5189],[9.0575,45.5192],[9.0559,45.5242],[9.0666,45.5223],[9.0702,45.52],[9.071,45.5182],[9.0767,45.5155],[9.0927,45.5168],[9.0945,45.5164]]]}},{"type":"Feature","properties":{"i":"015171","n":"Peschiera Borromeo"},"geometry":{"type":"Polygon","coordinates":[[[9.3201,45.4616],[9.3334,45.4513],[9.3445,45.4484],[9.3429,45.4441],[9.3431,45.44],[9.3413,45.4361],[9.3387,45.4371],[9.3373,45.4365],[9.3343,45.4296],[9.3324,45.427],[9.3254,45.423],[9.322,45.4222],[9.3206,45.4234],[9.3198,45.4255],[9.3128,45.4247],[9.3053,45.4193],[9.2994,45.4162],[9.296,45.4129],[9.283,45.426],[9.273,45.4289],[9.2667,45.4378],[9.2669,45.4486],[9.2657,45.4511],[9.272,45.462],[9.2837,45.4555],[9.2882,45.4559],[9.2904,45.4572],[9.2904,45.4581],[9.303,45.463],[9.3091,45.4717],[9.3142,45.4723],[9.3188,45.4684],[9.3201,45.4616]]]}},{"type":"Feature","properties":{"i":"015172","n":"Pessano con Bornago"},"geometry":{"type":"Polygon","coordinates":[[[9.4066,45.5577],[9.4097,45.5521],[9.4125,45.5523],[9.4139,45.5511],[9.4145,45.5489],[9.4134,45.5455],[9.393,45.5389],[9.3845,45.5383],[9.3834,45.5384],[9.3843,45.5413],[9.3797,45.5455],[9.3716,45.5455],[9.3669,45.5467],[9.3667,45.5478],[9.3618,45.5515],[9.3613,45.5549],[9.3631,45.5569],[9.3676,45.5577],[9.3834,45.5577],[9.388,45.5588],[9.3952,45.5622],[9.4,45.5633],[9.4051,45.5603],[9.4066,45.5577]]]}},{"type":"Feature","properties":{"i":"015173","n":"Pieve Emanuele"},"geometry":{"type":"Polygon","coordinates":[[[9.2008,45.3644],[9.2014,45.3624],[9.2047,45.3586],[9.2097,45.3571],[9.2125,45.3551],[9.2126,45.3532],[9.2097,45.3513],[9.2101,45.3463],[9.2182,45.3452],[9.2296,45.3354],[9.2295,45.3334],[9.2308,45.3312],[9.2272,45.3273],[9.2249,45.326],[9.2183,45.3261],[9.2085,45.3327],[9.2017,45.3348],[9.1998,45.3338],[9.1927,45.333],[9.1849,45.3346],[9.1875,45.3372],[9.1849,45.3423],[9.1791,45.3531],[9.1692,45.3669],[9.1671,45.3674],[9.1656,45.3711],[9.1717,45.3773],[9.1888,45.3796],[9.1942,45.3765],[9.1941,45.3711],[9.1932,45.3699],[9.1959,45.3664],[9.1982,45.3647],[9.2008,45.3644]]]}},{"type":"Feature","properties":{"i":"015175","n":"Pioltello"},"geometry":{"type":"Polygon","coordinates":[[[9.3439,45.5009],[9.3464,45.4951],[9.3421,45.4882],[9.338,45.4848],[9.3342,45.4746],[9.3342,45.468],[9.3311,45.4646],[9.3201,45.4616],[9.3188,45.4684],[9.3142,45.4723],[9.3091,45.4717],[9.3065,45.4867],[9.312,45.4951],[9.3083,45.4975],[9.303,45.5048],[9.3023,45.5072],[9.3053,45.5134],[9.3279,45.5147],[9.3333,45.512],[9.3371,45.5049],[9.341,45.5041],[9.3435,45.5026],[9.3439,45.5009]]]}},{"type":"Feature","properties":{"i":"015176","n":"Pogliano Milanese"},"geometry":{"type":"Polygon","coordinates":[[[9.0132,45.5416],[9.0057,45.5331],[9.004,45.5348],[8.9827,45.5294],[8.9785,45.5277],[8.9705,45.5211],[8.9684,45.52],[8.9676,45.521],[8.9681,45.5219],[8.9672,45.5235],[8.9683,45.5266],[8.9757,45.5362],[8.9844,45.543],[9.004,45.5493],[9.0078,45.5527],[9.0079,45.5446],[9.0132,45.5416]]]}},{"type":"Feature","properties":{"i":"015177","n":"Pozzo d'Adda"},"geometry":{"type":"Polygon","coordinates":[[[9.5096,45.5865],[9.5138,45.5862],[9.5128,45.5796],[9.5091,45.5724],[9.5034,45.5669],[9.502,45.558],[9.4857,45.5605],[9.4804,45.5621],[9.4839,45.5724],[9.5064,45.5872],[9.5096,45.5865]]]}},{"type":"Feature","properties":{"i":"015178","n":"Pozzuolo Martesana"},"geometry":{"type":"Polygon","coordinates":[[[9.4809,45.5225],[9.4806,45.5186],[9.4854,45.5175],[9.4869,45.5185],[9.4941,45.5191],[9.4953,45.5169],[9.4955,45.5118],[9.494,45.5093],[9.4692,45.5011],[9.4665,45.4978],[9.4648,45.4939],[9.4581,45.493],[9.4522,45.4934],[9.4529,45.4984],[9.4419,45.5017],[9.4386,45.5037],[9.4393,45.5081],[9.4378,45.5114],[9.4256,45.5176],[9.4271,45.5207],[9.4315,45.5191],[9.4359,45.5256],[9.438,45.5253],[9.4379,45.5247],[9.447,45.5248],[9.4529,45.5282],[9.4605,45.5306],[9.4617,45.5304],[9.4632,45.5249],[9.464,45.5246],[9.4726,45.5222],[9.4751,45.5224],[9.4757,45.5238],[9.4809,45.5225]]]}},{"type":"Feature","properties":{"i":"015179","n":"Pregnana Milanese"},"geometry":{"type":"Polygon","coordinates":[[[9.0222,45.5147],[9.0201,45.5141],[9.0091,45.5069],[9.0044,45.5062],[8.9975,45.5038],[8.9985,45.5],[8.9841,45.5051],[8.9821,45.5082],[8.9869,45.5096],[8.9944,45.514],[9.0075,45.5285],[9.0044,45.532],[9.0065,45.5336],[9.0119,45.5328],[9.0166,45.5301],[9.0222,45.5147]]]}},{"type":"Feature","properties":{"i":"015181","n":"Rescaldina"},"geometry":{"type":"Polygon","coordinates":[[[8.9565,45.6335],[8.9574,45.6316],[8.9535,45.6293],[8.9546,45.6255],[8.9559,45.6251],[8.9672,45.6282],[8.9734,45.618],[8.9782,45.6146],[8.9673,45.6083],[8.9589,45.6082],[8.9471,45.6052],[8.9419,45.6061],[8.9412,45.607],[8.9412,45.6094],[8.9391,45.6107],[8.9411,45.615],[8.9423,45.6201],[8.9376,45.6239],[8.9367,45.6235],[8.9324,45.6265],[8.9303,45.631],[8.9296,45.6346],[8.9307,45.6363],[8.937,45.6396],[8.9365,45.6415],[8.9399,45.6426],[8.9565,45.6335]]]}},{"type":"Feature","properties":{"i":"015182","n":"Rho"},"geometry":{"type":"Polygon","coordinates":[[[9.0929,45.5288],[9.0956,45.5235],[9.0935,45.5186],[9.0945,45.5164],[9.0927,45.5168],[9.0767,45.5155],[9.071,45.5182],[9.0702,45.52],[9.0666,45.5223],[9.0559,45.5242],[9.0575,45.5192],[9.0552,45.5189],[9.0554,45.5168],[9.0586,45.5119],[9.0692,45.5058],[9.0674,45.5049],[9.0605,45.5044],[9.0545,45.505],[9.0416,45.5106],[9.0351,45.5084],[9.0239,45.513],[9.0222,45.5147],[9.0166,45.5301],[9.0119,45.5328],[9.0065,45.5336],[9.0132,45.5416],[9.0151,45.5411],[9.0254,45.5435],[9.0271,45.551],[9.0357,45.5555],[9.0489,45.5599],[9.0485,45.5564],[9.0495,45.5556],[9.0534,45.5534],[9.0633,45.5521],[9.0741,45.5427],[9.0793,45.5329],[9.0825,45.5292],[9.0896,45.5307],[9.0929,45.5288]]]}},{"type":"Feature","properties":{"i":"015183","n":"Robecchetto con Induno"},"geometry":{"type":"Polygon","coordinates":[[[8.794,45.523],[8.7932,45.5215],[8.7941,45.5159],[8.789,45.5075],[8.7733,45.5047],[8.7571,45.4981],[8.7385,45.4985],[8.7279,45.5024],[8.7227,45.5064],[8.7228,45.5076],[8.7282,45.5101],[8.7377,45.5122],[8.7385,45.5156],[8.7526,45.5235],[8.7608,45.5323],[8.7559,45.5387],[8.7535,45.5404],[8.7576,45.5419],[8.7794,45.5293],[8.7841,45.5302],[8.7905,45.5271],[8.7914,45.5232],[8.794,45.523]]]}},{"type":"Feature","properties":{"i":"015184","n":"Robecco sul Naviglio"},"geometry":{"type":"Polygon","coordinates":[[[8.9071,45.4518],[8.9081,45.4483],[8.9077,45.442],[8.9083,45.4377],[8.9131,45.4379],[8.9151,45.4368],[8.9093,45.434],[8.8917,45.4289],[8.8936,45.4233],[8.8965,45.4203],[8.8959,45.418],[8.886,45.4127],[8.8811,45.4148],[8.8707,45.4114],[8.8642,45.4067],[8.8504,45.4026],[8.8422,45.3989],[8.8291,45.4154],[8.8245,45.4195],[8.8321,45.4208],[8.8377,45.4236],[8.8401,45.4271],[8.8446,45.4297],[8.8519,45.4322],[8.86,45.4363],[8.86,45.4395],[8.8581,45.4459],[8.8603,45.4483],[8.8637,45.4498],[8.8646,45.45],[8.8735,45.4461],[8.8891,45.4462],[8.8999,45.451],[8.9071,45.4518]]]}},{"type":"Feature","properties":{"i":"015185","n":"Rodano"},"geometry":{"type":"Polygon","coordinates":[[[9.3685,45.4858],[9.363,45.4845],[9.3632,45.4831],[9.3689,45.4777],[9.3699,45.4728],[9.364,45.469],[9.3637,45.4675],[9.3646,45.4635],[9.3696,45.4523],[9.3648,45.4516],[9.36,45.4549],[9.3576,45.455],[9.3445,45.4484],[9.3334,45.4513],[9.3201,45.4616],[9.3311,45.4646],[9.3342,45.468],[9.3342,45.4746],[9.338,45.4848],[9.3421,45.4882],[9.3464,45.4951],[9.3439,45.5009],[9.348,45.5003],[9.3479,45.4996],[9.3522,45.496],[9.3637,45.4986],[9.3682,45.4895],[9.3685,45.4858]]]}},{"type":"Feature","properties":{"i":"015188","n":"Rosate"},"geometry":{"type":"Polygon","coordinates":[[[9.0668,45.3378],[9.0681,45.3375],[9.0691,45.3341],[9.0671,45.332],[9.0648,45.3314],[9.046,45.3413],[9.0366,45.3415],[9.0291,45.3401],[9.029,45.3362],[9.0299,45.3346],[9.014,45.3336],[9.0065,45.3343],[8.9816,45.3449],[8.9741,45.3534],[8.9841,45.3582],[8.9823,45.3636],[8.9882,45.3643],[9.0115,45.3706],[9.0159,45.3706],[9.0172,45.3684],[9.0249,45.3642],[9.0385,45.3738],[9.0402,45.3705],[9.0373,45.3669],[9.0369,45.364],[9.04,45.3579],[9.0423,45.3556],[9.0545,45.352],[9.0644,45.3469],[9.0655,45.3417],[9.0629,45.341],[9.0645,45.3376],[9.0668,45.3378]]]}},{"type":"Feature","properties":{"i":"015189","n":"Rozzano"},"geometry":{"type":"Polygon","coordinates":[[[9.1911,45.3883],[9.1901,45.3876],[9.1893,45.3834],[9.1921,45.3793],[9.1914,45.3783],[9.1888,45.3796],[9.1853,45.3794],[9.1717,45.3773],[9.1656,45.3711],[9.1671,45.3674],[9.1649,45.3669],[9.1577,45.3687],[9.154,45.3675],[9.1523,45.3663],[9.1508,45.3624],[9.1479,45.3608],[9.144,45.3618],[9.1436,45.3655],[9.141,45.3703],[9.1364,45.3745],[9.1355,45.3767],[9.135,45.38],[9.1378,45.3851],[9.1389,45.3888],[9.1389,45.3935],[9.1425,45.3976],[9.1578,45.4029],[9.1691,45.4025],[9.1733,45.3971],[9.1822,45.3909],[9.1872,45.3912],[9.19,45.3928],[9.1911,45.3926],[9.1911,45.3883]]]}},{"type":"Feature","properties":{"i":"015191","n":"San Colombano al Lambro"},"geometry":{"type":"Polygon","coordinates":[[[9.5157,45.1871],[9.5161,45.1835],[9.5186,45.181],[9.5264,45.1788],[9.5266,45.1695],[9.5314,45.1669],[9.5316,45.1654],[9.4783,45.1615],[9.4775,45.1657],[9.4748,45.1674],[9.469,45.1686],[9.4594,45.1778],[9.4568,45.1833],[9.447,45.187],[9.4397,45.186],[9.4385,45.1876],[9.4411,45.1898],[9.4463,45.1892],[9.4707,45.2013],[9.4772,45.1981],[9.4807,45.1942],[9.4855,45.1918],[9.4912,45.1913],[9.5017,45.1861],[9.5157,45.1871]]]}},{"type":"Feature","properties":{"i":"015192","n":"San Donato Milanese"},"geometry":{"type":"Polygon","coordinates":[[[9.2966,45.4132],[9.299,45.4085],[9.2934,45.4063],[9.2883,45.4057],[9.2762,45.4078],[9.2713,45.4032],[9.2664,45.401],[9.2586,45.4037],[9.2387,45.4024],[9.2275,45.3918],[9.2233,45.3892],[9.2148,45.3971],[9.2167,45.3998],[9.2165,45.403],[9.218,45.4072],[9.2231,45.4095],[9.2246,45.4087],[9.2321,45.4083],[9.2387,45.4093],[9.2502,45.4146],[9.2414,45.4192],[9.2479,45.4237],[9.2636,45.4322],[9.2666,45.4351],[9.2667,45.4378],[9.273,45.4289],[9.283,45.426],[9.2897,45.4198],[9.2949,45.4135],[9.2966,45.4132]]]}},{"type":"Feature","properties":{"i":"015194","n":"San Giorgio su Legnano"},"geometry":{"type":"Polygon","coordinates":[[[8.9211,45.5745],[8.9218,45.5736],[8.9219,45.5709],[8.915,45.569],[8.906,45.5647],[8.904,45.5624],[8.9066,45.5584],[8.8997,45.5593],[8.8984,45.5612],[8.9007,45.5637],[8.8965,45.5683],[8.9074,45.5777],[8.914,45.5805],[8.9189,45.5778],[8.9211,45.5745]]]}},{"type":"Feature","properties":{"i":"015195","n":"San Giuliano Milanese"},"geometry":{"type":"Polygon","coordinates":[[[9.3213,45.3863],[9.3217,45.3815],[9.3268,45.3767],[9.3329,45.3691],[9.3326,45.367],[9.3287,45.3665],[9.3256,45.367],[9.3173,45.3632],[9.3131,45.3596],[9.2973,45.353],[9.2962,45.3568],[9.2919,45.3603],[9.2894,45.3587],[9.2688,45.3651],[9.2529,45.3643],[9.249,45.362],[9.2469,45.3667],[9.2408,45.3758],[9.2363,45.3845],[9.2338,45.3872],[9.2286,45.3864],[9.2233,45.3892],[9.2275,45.3918],[9.2387,45.4024],[9.2586,45.4037],[9.2664,45.401],[9.2713,45.4032],[9.2762,45.4078],[9.2883,45.4057],[9.2934,45.4063],[9.299,45.4085],[9.3101,45.3977],[9.3168,45.3893],[9.3213,45.3863]]]}},{"type":"Feature","properties":{"i":"015200","n":"Santo Stefano Ticino"},"geometry":{"type":"Polygon","coordinates":[[[8.9345,45.4871],[8.934,45.4839],[8.9294,45.4807],[8.9218,45.4797],[8.905,45.4819],[8.8997,45.4797],[8.8917,45.4811],[8.892,45.491],[8.907,45.4945],[8.9174,45.5019],[8.9194,45.4996],[8.9237,45.4977],[8.928,45.4896],[8.9312,45.4875],[8.9345,45.4871]]]}},{"type":"Feature","properties":{"i":"015201","n":"San Vittore Olona"},"geometry":{"type":"Polygon","coordinates":[[[8.9634,45.578],[8.9595,45.5787],[8.9543,45.5755],[8.9555,45.5738],[8.9544,45.5729],[8.9478,45.5719],[8.9403,45.5785],[8.9335,45.5806],[8.9296,45.578],[8.9304,45.5764],[8.9262,45.5762],[8.9251,45.5774],[8.9296,45.5876],[8.9337,45.5929],[8.935,45.5934],[8.9401,45.5921],[8.9441,45.5893],[8.9558,45.584],[8.9598,45.5836],[8.9642,45.5806],[8.9634,45.578]]]}},{"type":"Feature","properties":{"i":"015202","n":"San Zenone al Lambro"},"geometry":{"type":"Polygon","coordinates":[[[9.3563,45.3435],[9.3586,45.3427],[9.3718,45.3298],[9.3806,45.3188],[9.3833,45.3179],[9.3874,45.3199],[9.3927,45.3165],[9.3911,45.3141],[9.3882,45.313],[9.3869,45.3128],[9.3847,45.3146],[9.381,45.3141],[9.3763,45.3113],[9.3775,45.3095],[9.3834,45.307],[9.3859,45.3068],[9.3797,45.303],[9.376,45.3025],[9.369,45.3032],[9.3668,45.3062],[9.3663,45.3118],[9.3598,45.3163],[9.358,45.3152],[9.356,45.3159],[9.3544,45.3188],[9.3547,45.3208],[9.3464,45.3297],[9.3436,45.3385],[9.3414,45.3401],[9.3563,45.3435]]]}},{"type":"Feature","properties":{"i":"015204","n":"Sedriano"},"geometry":{"type":"Polygon","coordinates":[[[8.9888,45.5037],[8.9926,45.4977],[8.9924,45.4897],[8.9917,45.4884],[8.9877,45.4849],[8.9829,45.4831],[8.9756,45.4771],[8.9773,45.4741],[8.9826,45.4706],[8.9837,45.4663],[8.9746,45.4631],[8.9727,45.4654],[8.9687,45.4658],[8.9641,45.4714],[8.9633,45.4749],[8.9639,45.4822],[8.9614,45.4886],[8.959,45.5003],[8.9601,45.5051],[8.9676,45.5025],[8.9757,45.5018],[8.9841,45.5051],[8.9888,45.5037]]]}},{"type":"Feature","properties":{"i":"015205","n":"Segrate"},"geometry":{"type":"Polygon","coordinates":[[[9.3023,45.5072],[9.3034,45.5039],[9.3083,45.4975],[9.312,45.4951],[9.3065,45.4867],[9.3091,45.4717],[9.303,45.463],[9.2904,45.4581],[9.2904,45.4572],[9.2882,45.4559],[9.2837,45.4555],[9.272,45.462],[9.2716,45.468],[9.2662,45.472],[9.2602,45.4714],[9.2605,45.4766],[9.2624,45.4791],[9.2604,45.499],[9.2611,45.5042],[9.2682,45.5057],[9.2723,45.5057],[9.2714,45.502],[9.2738,45.5018],[9.2775,45.5034],[9.278,45.5052],[9.2746,45.5063],[9.275,45.5069],[9.28,45.5074],[9.2885,45.5069],[9.3002,45.5093],[9.3023,45.5072]]]}},{"type":"Feature","properties":{"i":"015206","n":"Senago"},"geometry":{"type":"Polygon","coordinates":[[[9.1449,45.5837],[9.1457,45.5782],[9.1388,45.5776],[9.1364,45.5727],[9.136,45.5711],[9.1367,45.5675],[9.1386,45.5661],[9.1292,45.5587],[9.1095,45.5582],[9.1034,45.5636],[9.1011,45.5669],[9.0996,45.5807],[9.0954,45.5873],[9.0956,45.5879],[9.0995,45.5886],[9.1033,45.5883],[9.1102,45.5861],[9.1244,45.5844],[9.1449,45.5837]]]}},{"type":"Feature","properties":{"i":"015209","n":"Sesto San Giovanni"},"geometry":{"type":"Polygon","coordinates":[[[9.2687,45.5513],[9.2652,45.5504],[9.2595,45.5455],[9.2595,45.5437],[9.2603,45.5428],[9.2607,45.5435],[9.2627,45.5424],[9.2656,45.5299],[9.2647,45.5276],[9.2586,45.52],[9.2586,45.519],[9.2568,45.5183],[9.2334,45.5199],[9.2215,45.5234],[9.2167,45.5284],[9.2057,45.5293],[9.2107,45.5375],[9.2177,45.5368],[9.2402,45.5498],[9.2473,45.5512],[9.2502,45.5532],[9.2718,45.5566],[9.2687,45.5513]]]}},{"type":"Feature","properties":{"i":"015210","n":"Settala"},"geometry":{"type":"Polygon","coordinates":[[[9.3896,45.4767],[9.3962,45.4736],[9.4056,45.4679],[9.4079,45.4656],[9.4077,45.4638],[9.4105,45.4581],[9.4153,45.4583],[9.4171,45.4569],[9.4178,45.4461],[9.4171,45.4385],[9.4109,45.4351],[9.4097,45.4382],[9.397,45.4356],[9.3953,45.431],[9.3965,45.428],[9.3985,45.4272],[9.3995,45.4277],[9.3988,45.4291],[9.4005,45.4296],[9.4012,45.4278],[9.3912,45.4214],[9.3893,45.4217],[9.3877,45.4267],[9.3843,45.4263],[9.3848,45.4223],[9.3829,45.4226],[9.3829,45.4268],[9.3762,45.4307],[9.3775,45.4356],[9.3732,45.4405],[9.3711,45.4495],[9.3671,45.4571],[9.3637,45.4675],[9.364,45.469],[9.3699,45.4728],[9.3689,45.4777],[9.3632,45.4831],[9.363,45.4845],[9.3685,45.4858],[9.3715,45.4856],[9.3805,45.4807],[9.3854,45.4763],[9.3896,45.4767]]]}},{"type":"Feature","properties":{"i":"015211","n":"Settimo Milanese"},"geometry":{"type":"Polygon","coordinates":[[[9.0428,45.4637],[9.0357,45.4693],[9.0354,45.4734],[9.0393,45.4901],[9.0387,45.494],[9.0359,45.4993],[9.0366,45.5018],[9.04,45.504],[9.0475,45.5027],[9.052,45.5034],[9.0465,45.5081],[9.0545,45.505],[9.0539,45.5048],[9.0541,45.5031],[9.0568,45.4976],[9.0661,45.485],[9.0756,45.476],[9.0771,45.4721],[9.0747,45.4652],[9.074,45.4598],[9.0456,45.4646],[9.0432,45.4647],[9.0428,45.4637]]]}},{"type":"Feature","properties":{"i":"015213","n":"Solaro"},"geometry":{"type":"Polygon","coordinates":[[[9.1078,45.6227],[9.1094,45.6208],[9.1046,45.61],[9.1011,45.6082],[9.0985,45.6085],[9.0944,45.6065],[9.0946,45.6046],[9.0613,45.6077],[9.0581,45.6095],[9.0577,45.6128],[9.0545,45.6129],[9.0532,45.6152],[9.0527,45.6193],[9.0529,45.6232],[9.0861,45.6218],[9.1078,45.6227]]]}},{"type":"Feature","properties":{"i":"015219","n":"Trezzano Rosa"},"geometry":{"type":"Polygon","coordinates":[[[9.5001,45.5826],[9.483,45.5717],[9.4712,45.5834],[9.4665,45.5935],[9.479,45.5958],[9.483,45.5894],[9.4895,45.5885],[9.5001,45.5826]]]}},{"type":"Feature","properties":{"i":"015220","n":"Trezzano sul Naviglio"},"geometry":{"type":"Polygon","coordinates":[[[9.0694,45.4335],[9.0684,45.4327],[9.0693,45.4314],[9.0737,45.4287],[9.0757,45.4289],[9.0867,45.421],[9.0893,45.4054],[9.0867,45.4043],[9.0804,45.4053],[9.078,45.4089],[9.0723,45.4071],[9.0721,45.4053],[9.069,45.4044],[9.0628,45.4091],[9.0623,45.41],[9.0651,45.4109],[9.0621,45.4159],[9.0398,45.4095],[9.0304,45.4164],[9.0318,45.4204],[9.0291,45.4243],[9.0254,45.427],[9.0248,45.4289],[9.0252,45.432],[9.0322,45.4321],[9.0404,45.4306],[9.0484,45.4305],[9.0504,45.4312],[9.0517,45.4318],[9.054,45.4397],[9.0694,45.4335]]]}},{"type":"Feature","properties":{"i":"015221","n":"Trezzo sull'Adda"},"geometry":{"type":"Polygon","coordinates":[[[9.5154,45.6255],[9.5177,45.6246],[9.5199,45.6221],[9.5312,45.5999],[9.533,45.5922],[9.51,45.5878],[9.5051,45.5909],[9.5021,45.5959],[9.4886,45.5992],[9.4851,45.5969],[9.4833,45.5965],[9.4786,45.5989],[9.4779,45.6048],[9.4823,45.6058],[9.4836,45.6116],[9.4825,45.6183],[9.4812,45.6196],[9.4851,45.6218],[9.487,45.622],[9.4954,45.629],[9.4903,45.6347],[9.4929,45.6384],[9.4959,45.6397],[9.4953,45.6338],[9.4955,45.6325],[9.497,45.6315],[9.5088,45.6271],[9.5154,45.6255]]]}},{"type":"Feature","properties":{"i":"015222","n":"Tribiano"},"geometry":{"type":"Polygon","coordinates":[[[9.385,45.4174],[9.3907,45.4064],[9.3893,45.4053],[9.3889,45.3998],[9.3846,45.3982],[9.3831,45.3964],[9.3816,45.3885],[9.3777,45.3869],[9.3642,45.3864],[9.3647,45.3958],[9.3591,45.3987],[9.3564,45.3982],[9.3547,45.401],[9.3581,45.4079],[9.3699,45.4232],[9.3786,45.4184],[9.385,45.4174]]]}},{"type":"Feature","properties":{"i":"015224","n":"Truccazzano"},"geometry":{"type":"Polygon","coordinates":[[[9.5142,45.5014],[9.5036,45.4926],[9.4989,45.4872],[9.4936,45.4785],[9.4916,45.465],[9.488,45.4566],[9.4846,45.4519],[9.4839,45.4487],[9.4726,45.448],[9.4679,45.4501],[9.4619,45.4546],[9.4561,45.4627],[9.4566,45.4641],[9.4583,45.4651],[9.4584,45.467],[9.451,45.469],[9.4342,45.4688],[9.432,45.4703],[9.4312,45.4745],[9.4321,45.4781],[9.4288,45.4822],[9.4471,45.4857],[9.4486,45.4906],[9.4522,45.4934],[9.4581,45.493],[9.4648,45.4939],[9.4685,45.5007],[9.494,45.5093],[9.4949,45.5109],[9.5016,45.5085],[9.5088,45.5026],[9.5142,45.5014]]]}},{"type":"Feature","properties":{"i":"015226","n":"Turbigo"},"geometry":{"type":"Polygon","coordinates":[[[8.7535,45.5404],[8.7559,45.5387],[8.7608,45.5323],[8.7526,45.5235],[8.7385,45.5156],[8.7377,45.5122],[8.7282,45.5101],[8.7228,45.5076],[8.7199,45.5102],[8.7126,45.5212],[8.7126,45.5243],[8.7144,45.5279],[8.7194,45.5311],[8.7223,45.5315],[8.7305,45.5409],[8.7474,45.5415],[8.7535,45.5404]]]}},{"type":"Feature","properties":{"i":"015229","n":"Vanzago"},"geometry":{"type":"Polygon","coordinates":[[[9.0057,45.5331],[9.0044,45.532],[9.0075,45.5285],[8.9944,45.514],[8.9869,45.5096],[8.9821,45.5082],[8.9841,45.5051],[8.9826,45.5046],[8.9806,45.5069],[8.9623,45.5107],[8.9611,45.5168],[8.9681,45.5219],[8.9676,45.521],[8.9684,45.52],[8.9705,45.5211],[8.9785,45.5277],[9.004,45.5348],[9.0057,45.5331]]]}},{"type":"Feature","properties":{"i":"015230","n":"Vaprio d'Adda"},"geometry":{"type":"Polygon","coordinates":[[[9.5386,45.5823],[9.5346,45.5706],[9.5314,45.5666],[9.5255,45.5629],[9.5248,45.5617],[9.525,45.5587],[9.5279,45.5549],[9.5232,45.5532],[9.5196,45.5588],[9.502,45.558],[9.5034,45.5669],[9.5091,45.5724],[9.5128,45.5796],[9.5138,45.5862],[9.5096,45.5865],[9.51,45.5878],[9.533,45.5922],[9.5386,45.5823]]]}},{"type":"Feature","properties":{"i":"015236","n":"Vernate"},"geometry":{"type":"Polygon","coordinates":[[[9.0668,45.3378],[9.0692,45.339],[9.0731,45.3388],[9.0774,45.3375],[9.0824,45.3347],[9.0849,45.3253],[9.0808,45.3158],[9.0699,45.3145],[9.0719,45.3064],[9.0567,45.3037],[9.0364,45.3013],[9.0301,45.2965],[9.025,45.305],[9.0287,45.307],[9.0317,45.3038],[9.0354,45.3028],[9.0364,45.3032],[9.0317,45.3145],[9.0292,45.3166],[9.0333,45.3189],[9.0348,45.3212],[9.029,45.3362],[9.0291,45.3401],[9.0366,45.3415],[9.046,45.3413],[9.0648,45.3314],[9.0671,45.332],[9.0691,45.3341],[9.0681,45.3375],[9.0668,45.3378]]]}},{"type":"Feature","properties":{"i":"015237","n":"Vignate"},"geometry":{"type":"Polygon","coordinates":[[[9.3963,45.5078],[9.4014,45.5003],[9.4062,45.4955],[9.4069,45.4923],[9.4066,45.4914],[9.4036,45.4897],[9.4003,45.4885],[9.3822,45.4902],[9.3794,45.4898],[9.3808,45.486],[9.3896,45.4767],[9.3854,45.4763],[9.3782,45.482],[9.3715,45.4856],[9.3685,45.4858],[9.3682,45.4895],[9.3637,45.4986],[9.3522,45.496],[9.3479,45.4996],[9.3481,45.5031],[9.3553,45.5037],[9.3547,45.5062],[9.3672,45.5109],[9.3799,45.5128],[9.3841,45.5121],[9.3883,45.509],[9.3893,45.5071],[9.3963,45.5078]]]}},{"type":"Feature","properties":{"i":"015242","n":"Vimodrone"},"geometry":{"type":"Polygon","coordinates":[[[9.3053,45.5134],[9.3023,45.5072],[9.3002,45.5093],[9.2885,45.5069],[9.28,45.5074],[9.2733,45.5064],[9.2716,45.5067],[9.2695,45.5103],[9.2683,45.5168],[9.2703,45.5189],[9.2986,45.5259],[9.3031,45.5261],[9.3032,45.5238],[9.3069,45.5143],[9.3053,45.5134]]]}},{"type":"Feature","properties":{"i":"015243","n":"Vittuone"},"geometry":{"type":"Polygon","coordinates":[[[8.9595,45.4989],[8.9605,45.4919],[8.9639,45.4822],[8.9633,45.4749],[8.9641,45.4714],[8.9687,45.4658],[8.9727,45.4654],[8.9749,45.4621],[8.9736,45.4569],[8.9708,45.4555],[8.968,45.4574],[8.9644,45.458],[8.961,45.4562],[8.9588,45.456],[8.9562,45.4588],[8.9606,45.4608],[8.9617,45.4601],[8.9642,45.4607],[8.9638,45.4617],[8.9554,45.4689],[8.9541,45.469],[8.9558,45.4672],[8.9562,45.466],[8.9555,45.4657],[8.9498,45.4698],[8.9466,45.4786],[8.9398,45.4814],[8.9381,45.4852],[8.9383,45.4865],[8.9392,45.4862],[8.9423,45.4898],[8.9445,45.4966],[8.9531,45.5],[8.9595,45.4989]]]}},{"type":"Feature","properties":{"i":"015244","n":"Vizzolo Predabissi"},"geometry":{"type":"Polygon","coordinates":[[[9.353,45.3677],[9.3569,45.36],[9.3593,45.3588],[9.3606,45.3497],[9.3624,45.3462],[9.3563,45.3435],[9.3414,45.3401],[9.336,45.3467],[9.3373,45.3487],[9.338,45.357],[9.3371,45.3597],[9.3357,45.3594],[9.3343,45.3626],[9.334,45.3679],[9.3415,45.3704],[9.3443,45.374],[9.3493,45.3776],[9.351,45.3764],[9.353,45.3677]]]}},{"type":"Feature","properties":{"i":"015247","n":"Zibido San Giacomo"},"geometry":{"type":"Polygon","coordinates":[[[9.0893,45.4054],[9.0918,45.4027],[9.0923,45.4008],[9.1009,45.3975],[9.1019,45.3961],[9.1034,45.3922],[9.0994,45.3883],[9.1017,45.3821],[9.1121,45.3797],[9.1154,45.3776],[9.1229,45.3796],[9.1237,45.3825],[9.1231,45.3851],[9.135,45.38],[9.1359,45.3754],[9.141,45.3703],[9.1436,45.3655],[9.144,45.3618],[9.1466,45.3589],[9.1478,45.3493],[9.1439,45.3467],[9.1384,45.3453],[9.1278,45.3465],[9.1231,45.3457],[9.1156,45.3419],[9.1157,45.3408],[9.1125,45.338],[9.0995,45.3406],[9.0982,45.3446],[9.091,45.3495],[9.0868,45.3508],[9.0765,45.3495],[9.072,45.3534],[9.0713,45.3569],[9.0729,45.3592],[9.0767,45.3602],[9.0834,45.3603],[9.089,45.3638],[9.0896,45.366],[9.0892,45.3688],[9.0864,45.3719],[9.0825,45.3738],[9.0828,45.3733],[9.0765,45.3744],[9.0759,45.376],[9.0765,45.3804],[9.0809,45.3838],[9.0777,45.3895],[9.0753,45.3916],[9.0699,45.3918],[9.0694,45.3975],[9.0723,45.3974],[9.0754,45.3992],[9.0753,45.4041],[9.0723,45.4071],[9.078,45.4089],[9.0804,45.4053],[9.0867,45.4043],[9.0893,45.4054]]]}},{"type":"Feature","properties":{"i":"015248","n":"Villa Cortese"},"geometry":{"type":"Polygon","coordinates":[[[8.8965,45.5683],[8.9007,45.5637],[8.8984,45.5612],[8.8997,45.5593],[8.8931,45.5575],[8.8839,45.5566],[8.8758,45.5592],[8.8742,45.5607],[8.8768,45.5632],[8.8761,45.5647],[8.8733,45.5658],[8.8725,45.5675],[8.8748,45.5712],[8.8793,45.5725],[8.8806,45.5748],[8.8806,45.5789],[8.8834,45.5797],[8.894,45.5741],[8.896,45.5714],[8.8965,45.5683]]]}},{"type":"Feature","properties":{"i":"015249","n":"Vanzaghello"},"geometry":{"type":"Polygon","coordinates":[[[8.7824,45.5663],[8.777,45.5656],[8.7595,45.5718],[8.7571,45.5721],[8.7568,45.5744],[8.7646,45.5764],[8.7671,45.5781],[8.7685,45.5829],[8.7764,45.5872],[8.7823,45.5865],[8.786,45.5982],[8.7862,45.6024],[8.7992,45.6021],[8.794,45.5821],[8.7879,45.5782],[8.7828,45.5706],[8.7824,45.5663]]]}},{"type":"Feature","properties":{"i":"015250","n":"Baranzate"},"geometry":{"type":"Polygon","coordinates":[[[9.1222,45.532],[9.1241,45.5293],[9.1248,45.5263],[9.1225,45.525],[9.1221,45.5239],[9.1222,45.5227],[9.1239,45.5228],[9.1237,45.5206],[9.1179,45.52],[9.1029,45.5226],[9.0972,45.527],[9.0972,45.5292],[9.0994,45.5312],[9.099,45.5321],[9.106,45.5352],[9.1194,45.5374],[9.1222,45.532]]]}},{"type":"Feature","properties":{"i":"015251","n":"Vermezzo con Zelo"},"geometry":{"type":"Polygon","coordinates":[[[9.0047,45.4002],[9.0011,45.3982],[8.999,45.3957],[9.0062,45.3868],[9.0065,45.3845],[9.0019,45.3823],[8.9899,45.3799],[8.9857,45.3778],[8.9837,45.3755],[8.9784,45.3738],[8.9748,45.3762],[8.9702,45.3717],[8.9692,45.3693],[8.9559,45.3829],[8.962,45.3856],[8.9599,45.392],[8.9605,45.3952],[8.9626,45.3986],[8.9603,45.4021],[8.9608,45.4034],[8.9658,45.4048],[8.967,45.4025],[8.972,45.4032],[8.9728,45.4061],[8.9722,45.408],[8.9737,45.4081],[8.9753,45.408],[8.9773,45.4066],[8.9761,45.4054],[8.978,45.4035],[8.9867,45.4036],[8.985,45.4074],[8.9827,45.4075],[8.9809,45.4097],[8.9834,45.4125],[8.987,45.4116],[8.994,45.4054],[9.0019,45.405],[9.0066,45.404],[9.0047,45.4002]]]}}]}
