{"type":"FeatureCollection","fonte":"Confini comunali ISTAT via openpolis/geojson-italy — CC BY 4.0","features":[{"type":"Feature","properties":{"i":"020001","n":"Acquanegra sul Chiese"},"geometry":{"type":"Polygon","coordinates":[[[10.4587,45.1743],[10.4638,45.1703],[10.4729,45.1666],[10.4869,45.1624],[10.4918,45.1596],[10.4914,45.1575],[10.4984,45.1462],[10.509,45.1465],[10.5168,45.1487],[10.5259,45.1476],[10.5064,45.1261],[10.5033,45.1315],[10.4993,45.1331],[10.4925,45.1324],[10.486,45.1375],[10.4799,45.144],[10.4763,45.1457],[10.4614,45.1465],[10.4497,45.1443],[10.4454,45.1419],[10.4465,45.1396],[10.4455,45.1372],[10.4435,45.1358],[10.4396,45.1352],[10.435,45.1367],[10.4312,45.1401],[10.427,45.1398],[10.4213,45.1412],[10.4154,45.1454],[10.409,45.1482],[10.4089,45.1511],[10.4104,45.1559],[10.4077,45.1671],[10.4152,45.1795],[10.4212,45.1842],[10.4352,45.1827],[10.4464,45.1835],[10.4539,45.1829],[10.4587,45.1743]]]}},{"type":"Feature","properties":{"i":"020002","n":"Asola"},"geometry":{"type":"Polygon","coordinates":[[[10.4516,45.2713],[10.4648,45.2587],[10.4651,45.2554],[10.4627,45.2497],[10.4622,45.2455],[10.463,45.242],[10.464,45.2413],[10.4838,45.2395],[10.4843,45.2355],[10.4802,45.2296],[10.4942,45.2279],[10.4919,45.224],[10.4941,45.2192],[10.5046,45.216],[10.4835,45.1948],[10.4831,45.1936],[10.4837,45.1922],[10.4805,45.1826],[10.4769,45.1795],[10.4667,45.1776],[10.4587,45.1743],[10.4539,45.1829],[10.4464,45.1835],[10.4352,45.1827],[10.4228,45.1836],[10.4171,45.1898],[10.4068,45.1917],[10.3976,45.1952],[10.396,45.195],[10.3936,45.1939],[10.3999,45.1771],[10.403,45.1767],[10.404,45.1713],[10.4034,45.1692],[10.3967,45.1714],[10.3928,45.1807],[10.3911,45.1828],[10.3826,45.1845],[10.3738,45.1844],[10.3735,45.1849],[10.3828,45.1864],[10.3837,45.1907],[10.3732,45.2029],[10.3658,45.2096],[10.3637,45.2096],[10.3614,45.2147],[10.3577,45.2252],[10.3572,45.231],[10.3594,45.2382],[10.36,45.2434],[10.362,45.2461],[10.3702,45.2411],[10.3757,45.2408],[10.3784,45.2409],[10.3805,45.2477],[10.3835,45.2485],[10.3936,45.2456],[10.3973,45.2501],[10.401,45.2459],[10.4129,45.2461],[10.4217,45.2512],[10.4245,45.2551],[10.4335,45.2629],[10.4369,45.274],[10.4516,45.2713]]]}},{"type":"Feature","properties":{"i":"020003","n":"Bagnolo San Vito"},"geometry":{"type":"Polygon","coordinates":[[[10.8891,45.1024],[10.8927,45.1027],[10.8968,45.1056],[10.9017,45.1068],[10.9031,45.1043],[10.9043,45.1038],[10.9106,45.1065],[10.9188,45.1079],[10.9213,45.1054],[10.9202,45.0991],[10.9344,45.0921],[10.9429,45.0928],[10.9476,45.0921],[10.954,45.0883],[10.963,45.0813],[10.9817,45.0718],[10.9824,45.0693],[10.955,45.0662],[10.9508,45.0666],[10.9401,45.072],[10.9215,45.0782],[10.9142,45.0786],[10.9104,45.0776],[10.9082,45.0749],[10.9068,45.06],[10.9083,45.0561],[10.9114,45.0532],[10.9122,45.0503],[10.9069,45.0461],[10.9027,45.046],[10.8978,45.0471],[10.8766,45.0593],[10.8726,45.0608],[10.8658,45.0599],[10.8539,45.0541],[10.8414,45.0462],[10.8386,45.0475],[10.8314,45.0535],[10.8265,45.0609],[10.8232,45.0721],[10.8181,45.0764],[10.8149,45.0835],[10.8177,45.0894],[10.8258,45.1021],[10.8225,45.1074],[10.8263,45.1111],[10.8366,45.1117],[10.8463,45.1069],[10.8501,45.1013],[10.8528,45.0999],[10.8674,45.096],[10.8779,45.0942],[10.8871,45.0988],[10.8891,45.1024]]]}},{"type":"Feature","properties":{"i":"020007","n":"Bozzolo"},"geometry":{"type":"Polygon","coordinates":[[[10.5064,45.1261],[10.5167,45.1195],[10.5159,45.1135],[10.5167,45.1097],[10.5131,45.1028],[10.5035,45.0946],[10.5,45.0904],[10.5002,45.0879],[10.4968,45.0854],[10.4929,45.0834],[10.4906,45.0841],[10.4842,45.0773],[10.4811,45.0755],[10.4796,45.0752],[10.4768,45.0766],[10.4765,45.0796],[10.4731,45.0847],[10.4678,45.0855],[10.4626,45.089],[10.4632,45.0937],[10.4667,45.0955],[10.4618,45.1058],[10.4576,45.112],[10.4566,45.1153],[10.4591,45.1199],[10.4665,45.1244],[10.4882,45.1268],[10.4925,45.1324],[10.4993,45.1331],[10.5021,45.1321],[10.5033,45.1315],[10.5064,45.1261]]]}},{"type":"Feature","properties":{"i":"020008","n":"Canneto sull'Oglio"},"geometry":{"type":"Polygon","coordinates":[[[10.4221,45.1843],[10.4152,45.1795],[10.4077,45.1671],[10.4104,45.1559],[10.4089,45.1511],[10.409,45.1482],[10.4154,45.1454],[10.4213,45.1412],[10.419,45.1396],[10.4223,45.1356],[10.4223,45.1328],[10.4202,45.1308],[10.4179,45.13],[10.4154,45.1312],[10.4144,45.1333],[10.4036,45.1366],[10.3836,45.1393],[10.3767,45.1415],[10.3683,45.1465],[10.3656,45.1515],[10.364,45.1577],[10.3654,45.1602],[10.3647,45.1617],[10.3584,45.1646],[10.3532,45.1654],[10.338,45.1721],[10.3347,45.1757],[10.33,45.1788],[10.3277,45.1843],[10.3327,45.1885],[10.345,45.1919],[10.3638,45.1862],[10.3738,45.1844],[10.3826,45.1845],[10.388,45.1835],[10.3911,45.1828],[10.3928,45.1807],[10.3967,45.1714],[10.4034,45.1692],[10.404,45.1713],[10.403,45.1767],[10.3999,45.1771],[10.3936,45.1939],[10.3976,45.1952],[10.4068,45.1917],[10.4171,45.1898],[10.4221,45.1843]]]}},{"type":"Feature","properties":{"i":"020010","n":"Casalmoro"},"geometry":{"type":"Polygon","coordinates":[[[10.4369,45.274],[10.4335,45.2629],[10.4245,45.2551],[10.4217,45.2512],[10.4153,45.2471],[10.4115,45.2459],[10.401,45.2459],[10.3973,45.2501],[10.3907,45.2547],[10.3947,45.278],[10.3973,45.2815],[10.3977,45.2839],[10.3971,45.2857],[10.3984,45.2858],[10.4018,45.2879],[10.4078,45.2927],[10.4202,45.295],[10.4251,45.2966],[10.4299,45.2798],[10.4333,45.2758],[10.4369,45.274]]]}},{"type":"Feature","properties":{"i":"020011","n":"Casaloldo"},"geometry":{"type":"Polygon","coordinates":[[[10.5099,45.2666],[10.5109,45.263],[10.5139,45.2576],[10.5132,45.2546],[10.5109,45.2511],[10.5088,45.2451],[10.5104,45.2419],[10.5119,45.241],[10.4954,45.2276],[10.4802,45.2296],[10.4843,45.2355],[10.4838,45.2395],[10.464,45.2413],[10.463,45.242],[10.4622,45.2455],[10.4627,45.2497],[10.4651,45.2554],[10.4648,45.2587],[10.4516,45.2713],[10.4514,45.2724],[10.4516,45.274],[10.4579,45.276],[10.4736,45.2749],[10.4817,45.2733],[10.5016,45.2751],[10.5076,45.2679],[10.5099,45.2666]]]}},{"type":"Feature","properties":{"i":"020012","n":"Casalromano"},"geometry":{"type":"Polygon","coordinates":[[[10.3735,45.1849],[10.3638,45.1862],[10.345,45.1919],[10.3327,45.1885],[10.327,45.1842],[10.3136,45.187],[10.3118,45.1887],[10.3124,45.1904],[10.3115,45.1931],[10.3097,45.1913],[10.3093,45.1922],[10.3118,45.1992],[10.3141,45.2027],[10.3177,45.2047],[10.334,45.2053],[10.3431,45.2075],[10.3436,45.2113],[10.3571,45.2151],[10.3614,45.2154],[10.3637,45.2096],[10.3658,45.2096],[10.3732,45.2029],[10.3837,45.1907],[10.3828,45.1864],[10.3735,45.1849]]]}},{"type":"Feature","properties":{"i":"020013","n":"Castelbelforte"},"geometry":{"type":"Polygon","coordinates":[[[10.9368,45.2329],[10.934,45.228],[10.9308,45.2255],[10.9315,45.2176],[10.935,45.2142],[10.9361,45.214],[10.9342,45.2106],[10.9324,45.21],[10.929,45.2112],[10.9231,45.2115],[10.9155,45.2074],[10.8954,45.2003],[10.8941,45.1983],[10.8952,45.1965],[10.9008,45.1942],[10.8993,45.1917],[10.8962,45.1895],[10.8909,45.1892],[10.8844,45.1918],[10.877,45.1933],[10.8735,45.1923],[10.8717,45.1909],[10.8698,45.1909],[10.8622,45.196],[10.871,45.204],[10.8713,45.2078],[10.8602,45.2178],[10.855,45.2207],[10.8564,45.2219],[10.8584,45.2214],[10.8656,45.2266],[10.8735,45.2406],[10.883,45.2374],[10.8901,45.2372],[10.8945,45.2406],[10.8968,45.2471],[10.8997,45.2457],[10.8999,45.2424],[10.9021,45.2375],[10.9214,45.2344],[10.9368,45.2329]]]}},{"type":"Feature","properties":{"i":"020014","n":"Castel d'Ario"},"geometry":{"type":"Polygon","coordinates":[[[10.9927,45.153],[10.9787,45.139],[10.9764,45.1379],[10.9681,45.1407],[10.9674,45.1425],[10.9709,45.1458],[10.9692,45.1473],[10.9552,45.1526],[10.9619,45.1597],[10.9582,45.1608],[10.9603,45.1645],[10.953,45.1695],[10.9508,45.1802],[10.9406,45.1831],[10.9357,45.1896],[10.9427,45.1983],[10.947,45.2057],[10.966,45.2056],[10.9854,45.1987],[10.9907,45.1957],[10.9968,45.1874],[10.9932,45.1841],[10.9988,45.1647],[10.9977,45.1579],[10.995,45.1535],[10.9927,45.153]]]}},{"type":"Feature","properties":{"i":"020015","n":"Castel Goffredo"},"geometry":{"type":"Polygon","coordinates":[[[10.4713,45.3323],[10.4788,45.3282],[10.4885,45.3205],[10.5041,45.3054],[10.5119,45.3023],[10.519,45.3071],[10.5209,45.3072],[10.5323,45.3018],[10.5365,45.2931],[10.542,45.2862],[10.5468,45.2841],[10.5351,45.2726],[10.5277,45.2707],[10.5241,45.2727],[10.5187,45.2713],[10.5099,45.2666],[10.5076,45.2679],[10.5016,45.2751],[10.4817,45.2733],[10.4736,45.2749],[10.4579,45.276],[10.4516,45.274],[10.4516,45.2713],[10.4352,45.2744],[10.4299,45.2798],[10.4244,45.2988],[10.4257,45.3049],[10.4315,45.313],[10.4286,45.3216],[10.4464,45.3207],[10.4472,45.3271],[10.4534,45.3264],[10.455,45.3249],[10.4659,45.3252],[10.4658,45.3299],[10.4639,45.3336],[10.4648,45.3345],[10.468,45.3345],[10.4713,45.3323]]]}},{"type":"Feature","properties":{"i":"020016","n":"Castellucchio"},"geometry":{"type":"Polygon","coordinates":[[[10.6823,45.1527],[10.6841,45.1518],[10.6849,45.1493],[10.6875,45.1319],[10.6893,45.1256],[10.6877,45.12],[10.6577,45.1074],[10.6565,45.1075],[10.6259,45.1185],[10.6186,45.1234],[10.62,45.1293],[10.6015,45.1383],[10.595,45.1386],[10.5825,45.1452],[10.5916,45.1555],[10.5934,45.1604],[10.5846,45.163],[10.577,45.1683],[10.5733,45.1718],[10.5781,45.1828],[10.5824,45.1885],[10.5846,45.1898],[10.594,45.1919],[10.5985,45.1882],[10.6104,45.1813],[10.6332,45.1757],[10.6701,45.1611],[10.6714,45.1575],[10.6703,45.1557],[10.6745,45.1525],[10.6823,45.1527]]]}},{"type":"Feature","properties":{"i":"020017","n":"Castiglione delle Stiviere"},"geometry":{"type":"Polygon","coordinates":[[[10.5434,45.3897],[10.5409,45.3876],[10.5374,45.3822],[10.5366,45.3795],[10.5343,45.3576],[10.5279,45.3607],[10.5221,45.3602],[10.5094,45.3548],[10.5009,45.349],[10.4914,45.3347],[10.4861,45.3309],[10.4765,45.3289],[10.4713,45.3323],[10.4693,45.3379],[10.4679,45.3434],[10.4685,45.3594],[10.464,45.3707],[10.4596,45.3786],[10.4503,45.3831],[10.4585,45.3921],[10.467,45.4066],[10.4504,45.4174],[10.4512,45.4186],[10.4536,45.4162],[10.4562,45.4155],[10.4812,45.414],[10.4926,45.4143],[10.494,45.415],[10.5114,45.4123],[10.5192,45.4088],[10.524,45.4056],[10.5434,45.3897]]]}},{"type":"Feature","properties":{"i":"020018","n":"Cavriana"},"geometry":{"type":"Polygon","coordinates":[[[10.6137,45.3827],[10.6164,45.3783],[10.6163,45.3757],[10.6176,45.373],[10.635,45.3655],[10.6408,45.3648],[10.6504,45.3609],[10.6591,45.3562],[10.6721,45.3544],[10.6724,45.3526],[10.6557,45.3536],[10.644,45.3468],[10.6365,45.3445],[10.6345,45.3405],[10.636,45.3378],[10.6256,45.3303],[10.6171,45.3141],[10.6105,45.3044],[10.61,45.2898],[10.6111,45.2858],[10.6076,45.2869],[10.6064,45.2823],[10.6046,45.2817],[10.6008,45.2828],[10.5977,45.2877],[10.5983,45.2946],[10.6006,45.2985],[10.5998,45.3173],[10.5978,45.3228],[10.5957,45.3258],[10.5878,45.3286],[10.5716,45.3323],[10.5646,45.3387],[10.5571,45.3424],[10.5673,45.3569],[10.5753,45.3592],[10.5811,45.3622],[10.5819,45.3639],[10.5817,45.3683],[10.5764,45.3781],[10.5774,45.3803],[10.5854,45.3836],[10.5922,45.3851],[10.5979,45.3873],[10.6137,45.3827]]]}},{"type":"Feature","properties":{"i":"020019","n":"Ceresara"},"geometry":{"type":"Polygon","coordinates":[[[10.5909,45.2827],[10.5992,45.271],[10.6059,45.2652],[10.6114,45.2565],[10.6049,45.2508],[10.5959,45.2446],[10.5898,45.2438],[10.5758,45.2497],[10.5708,45.2505],[10.5691,45.2481],[10.5682,45.2417],[10.5689,45.2377],[10.5839,45.2275],[10.5934,45.2225],[10.5894,45.2189],[10.5871,45.2179],[10.5833,45.2184],[10.5783,45.2169],[10.5759,45.2142],[10.5736,45.2098],[10.5617,45.2152],[10.5591,45.2129],[10.5528,45.2149],[10.546,45.2214],[10.5491,45.2315],[10.5472,45.235],[10.5443,45.237],[10.5409,45.2384],[10.5294,45.2405],[10.5104,45.2419],[10.509,45.2446],[10.5109,45.2511],[10.5132,45.2546],[10.5139,45.2576],[10.5109,45.263],[10.5099,45.2666],[10.5187,45.2713],[10.5241,45.2727],[10.5277,45.2707],[10.5351,45.2726],[10.5468,45.2841],[10.5508,45.2904],[10.5534,45.291],[10.5822,45.2807],[10.5868,45.28],[10.5909,45.2827]]]}},{"type":"Feature","properties":{"i":"020020","n":"Commessaggio"},"geometry":{"type":"Polygon","coordinates":[[[10.5987,45.037],[10.5998,45.0314],[10.5994,45.0266],[10.5926,45.0207],[10.5842,45.0195],[10.5775,45.0235],[10.5707,45.0264],[10.5576,45.0235],[10.5437,45.0333],[10.5341,45.044],[10.5343,45.0453],[10.5318,45.0516],[10.5396,45.0551],[10.555,45.0525],[10.5625,45.0471],[10.5744,45.0428],[10.5848,45.041],[10.5972,45.0402],[10.5987,45.037]]]}},{"type":"Feature","properties":{"i":"020021","n":"Curtatone"},"geometry":{"type":"Polygon","coordinates":[[[10.7261,45.1612],[10.7259,45.1541],[10.7265,45.149],[10.7316,45.1412],[10.7455,45.1349],[10.754,45.1321],[10.7697,45.1337],[10.7742,45.1307],[10.7744,45.1207],[10.7731,45.1162],[10.7681,45.1083],[10.7662,45.1036],[10.7654,45.099],[10.7658,45.0965],[10.7635,45.0941],[10.757,45.0898],[10.7508,45.0833],[10.7479,45.0673],[10.7442,45.0629],[10.7432,45.0617],[10.7415,45.0618],[10.7316,45.0664],[10.7258,45.0603],[10.723,45.0555],[10.7068,45.0602],[10.6908,45.0673],[10.6886,45.0697],[10.6768,45.0716],[10.6745,45.0708],[10.6612,45.0794],[10.6569,45.0788],[10.6516,45.0802],[10.651,45.0811],[10.6635,45.0961],[10.6665,45.1015],[10.6593,45.1049],[10.6579,45.1059],[10.6576,45.1074],[10.6877,45.12],[10.6893,45.1256],[10.6875,45.1319],[10.6849,45.1493],[10.6841,45.1518],[10.6823,45.1527],[10.6833,45.157],[10.6937,45.1652],[10.6941,45.1635],[10.6975,45.1619],[10.7214,45.1604],[10.7261,45.1612]]]}},{"type":"Feature","properties":{"i":"020022","n":"Dosolo"},"geometry":{"type":"Polygon","coordinates":[[[10.6867,44.9866],[10.6789,44.9764],[10.6647,44.9689],[10.6562,44.9578],[10.6547,44.9543],[10.6503,44.9481],[10.6394,44.9394],[10.6309,44.9302],[10.6279,44.9242],[10.6252,44.9256],[10.6228,44.9253],[10.6119,44.9211],[10.6112,44.9354],[10.6092,44.9414],[10.607,44.9541],[10.6152,44.9698],[10.6139,44.9734],[10.6141,44.9773],[10.6179,44.9787],[10.6218,44.9785],[10.6331,44.9835],[10.6348,44.9904],[10.6501,44.9886],[10.656,44.9887],[10.685,44.9998],[10.6862,44.9997],[10.6867,44.9866]]]}},{"type":"Feature","properties":{"i":"020024","n":"Gazoldo degli Ippoliti"},"geometry":{"type":"Polygon","coordinates":[[[10.595,45.1909],[10.594,45.1919],[10.5846,45.1898],[10.5824,45.1885],[10.5781,45.1828],[10.5748,45.1754],[10.5682,45.1782],[10.5609,45.1785],[10.5579,45.1774],[10.5483,45.177],[10.5437,45.1774],[10.5336,45.1869],[10.5342,45.1884],[10.5436,45.1986],[10.5568,45.2096],[10.5612,45.2153],[10.5864,45.2045],[10.5907,45.2072],[10.594,45.2057],[10.5959,45.2042],[10.5978,45.1989],[10.5973,45.1941],[10.595,45.1909]]]}},{"type":"Feature","properties":{"i":"020025","n":"Gazzuolo"},"geometry":{"type":"Polygon","coordinates":[[[10.5767,45.0997],[10.5842,45.0969],[10.586,45.0946],[10.5834,45.0743],[10.5912,45.0611],[10.5947,45.0569],[10.6006,45.0374],[10.5987,45.037],[10.5972,45.0402],[10.5848,45.041],[10.5744,45.0428],[10.5625,45.0471],[10.555,45.0525],[10.5396,45.0551],[10.5348,45.0678],[10.5322,45.072],[10.5331,45.0745],[10.5433,45.0801],[10.5458,45.0854],[10.546,45.0949],[10.5482,45.1011],[10.5607,45.1008],[10.5684,45.0993],[10.5767,45.0997]]]}},{"type":"Feature","properties":{"i":"020026","n":"Goito"},"geometry":{"type":"Polygon","coordinates":[[[10.6111,45.2858],[10.6245,45.2813],[10.629,45.2861],[10.6453,45.2855],[10.6494,45.2845],[10.6818,45.2865],[10.7037,45.2849],[10.7119,45.2821],[10.712,45.2801],[10.7127,45.2799],[10.7199,45.2817],[10.7234,45.2879],[10.7281,45.2915],[10.7319,45.2787],[10.7305,45.2751],[10.7269,45.272],[10.7244,45.2671],[10.7326,45.257],[10.7325,45.2561],[10.7316,45.2546],[10.7238,45.2541],[10.7234,45.2478],[10.7251,45.2443],[10.7249,45.2401],[10.7195,45.233],[10.7184,45.2232],[10.7112,45.2174],[10.7109,45.2109],[10.7149,45.2084],[10.7081,45.2067],[10.702,45.2063],[10.6982,45.2075],[10.6874,45.2057],[10.6605,45.2148],[10.6425,45.2227],[10.6254,45.2228],[10.6147,45.2201],[10.6088,45.2283],[10.6042,45.2328],[10.5934,45.2225],[10.5839,45.2275],[10.5689,45.2377],[10.5682,45.2417],[10.5691,45.2481],[10.5708,45.2505],[10.5758,45.2497],[10.5898,45.2438],[10.5959,45.2446],[10.611,45.2559],[10.6114,45.2565],[10.6059,45.2652],[10.5992,45.271],[10.5909,45.2827],[10.5942,45.2822],[10.5967,45.2847],[10.5912,45.2873],[10.5983,45.2946],[10.5977,45.2877],[10.5998,45.2838],[10.6019,45.282],[10.6046,45.2817],[10.6064,45.2823],[10.6079,45.2871],[10.6111,45.2858]]]}},{"type":"Feature","properties":{"i":"020027","n":"Gonzaga"},"geometry":{"type":"Polygon","coordinates":[[[10.8976,44.9664],[10.9004,44.9604],[10.8947,44.9507],[10.8892,44.9448],[10.8859,44.9397],[10.8886,44.9336],[10.8878,44.9258],[10.8874,44.9249],[10.8816,44.9219],[10.8786,44.9212],[10.874,44.9218],[10.8713,44.9209],[10.8676,44.9221],[10.866,44.9236],[10.867,44.9282],[10.8654,44.9296],[10.8477,44.9257],[10.8415,44.93],[10.8401,44.9319],[10.8125,44.9378],[10.8088,44.9361],[10.7924,44.9397],[10.7768,44.942],[10.7665,44.9457],[10.7477,44.948],[10.7446,44.9489],[10.7429,44.953],[10.7482,44.9627],[10.759,44.9656],[10.7634,44.9649],[10.7681,44.9662],[10.7855,44.9799],[10.7894,44.9812],[10.7983,44.981],[10.8013,44.9783],[10.8061,44.9686],[10.8096,44.9676],[10.8202,44.972],[10.8261,44.9759],[10.8341,44.9762],[10.8517,44.9723],[10.8569,44.9735],[10.867,44.9805],[10.8695,44.9832],[10.8735,44.9852],[10.8779,44.9804],[10.8955,44.9691],[10.8976,44.9664]]]}},{"type":"Feature","properties":{"i":"020028","n":"Guidizzolo"},"geometry":{"type":"Polygon","coordinates":[[[10.5983,45.2946],[10.5912,45.2873],[10.5967,45.2847],[10.5942,45.2822],[10.5909,45.2827],[10.5868,45.28],[10.576,45.2825],[10.5534,45.291],[10.5508,45.2904],[10.5485,45.2919],[10.5446,45.2956],[10.5395,45.3025],[10.5381,45.3058],[10.5378,45.3129],[10.5399,45.3167],[10.5578,45.3363],[10.5571,45.3424],[10.5646,45.3387],[10.5716,45.3323],[10.5878,45.3286],[10.5957,45.3258],[10.5978,45.3228],[10.5998,45.3173],[10.6006,45.2985],[10.5983,45.2946]]]}},{"type":"Feature","properties":{"i":"020029","n":"Magnacavallo"},"geometry":{"type":"Polygon","coordinates":[[[11.2201,44.9953],[11.2205,44.9907],[11.2149,44.9747],[11.2157,44.9711],[11.213,44.9722],[11.2064,44.9772],[11.1962,44.9769],[11.1923,44.9774],[11.187,44.9797],[11.1888,44.9838],[11.1854,44.9872],[11.1758,44.9841],[11.1683,44.9839],[11.1631,44.9853],[11.1607,44.9912],[11.1509,44.9926],[11.142,44.9925],[11.1275,44.9892],[11.1324,45.0027],[11.1376,45.006],[11.144,45.0122],[11.1575,45.0288],[11.1614,45.0306],[11.1738,45.0257],[11.1827,45.0236],[11.2017,45.023],[11.2112,45.0199],[11.2148,45.0164],[11.2189,45.0082],[11.2288,45.0017],[11.2233,45.0002],[11.2175,44.9969],[11.2201,44.9953]]]}},{"type":"Feature","properties":{"i":"020030","n":"Mantova"},"geometry":{"type":"Polygon","coordinates":[[[10.8144,45.1845],[10.8181,45.1823],[10.8295,45.1811],[10.8347,45.1786],[10.8357,45.1726],[10.8344,45.166],[10.8309,45.162],[10.8404,45.1578],[10.8483,45.1555],[10.8603,45.1538],[10.8661,45.15],[10.8677,45.1461],[10.8815,45.1423],[10.8793,45.1374],[10.8796,45.1351],[10.8842,45.1366],[10.8903,45.1368],[10.8944,45.1352],[10.8956,45.1327],[10.8957,45.1299],[10.8909,45.1238],[10.8902,45.1199],[10.8927,45.1176],[10.8988,45.1168],[10.901,45.1157],[10.9035,45.1115],[10.9017,45.1068],[10.8968,45.1056],[10.8927,45.1027],[10.8891,45.1024],[10.8741,45.1095],[10.8677,45.1103],[10.8549,45.1161],[10.8533,45.1175],[10.8545,45.1198],[10.8533,45.1218],[10.8393,45.1288],[10.8235,45.1332],[10.8131,45.1315],[10.7904,45.1256],[10.7864,45.1266],[10.7777,45.1331],[10.7742,45.1307],[10.7697,45.1337],[10.754,45.1321],[10.7455,45.1349],[10.7316,45.1412],[10.7265,45.149],[10.7259,45.1541],[10.7262,45.1638],[10.7236,45.1655],[10.723,45.1707],[10.7238,45.1725],[10.7275,45.1752],[10.7346,45.1774],[10.7437,45.1778],[10.7457,45.1762],[10.759,45.1736],[10.7652,45.1814],[10.7705,45.1865],[10.7963,45.1841],[10.8088,45.1817],[10.8111,45.179],[10.8144,45.1845]]]}},{"type":"Feature","properties":{"i":"020031","n":"Marcaria"},"geometry":{"type":"Polygon","coordinates":[[[10.5748,45.1754],[10.5733,45.1718],[10.577,45.1683],[10.5846,45.163],[10.5934,45.1604],[10.5916,45.1555],[10.5825,45.1452],[10.595,45.1386],[10.6015,45.1383],[10.62,45.1293],[10.6186,45.1234],[10.6259,45.1185],[10.6576,45.1074],[10.6579,45.1059],[10.6593,45.1049],[10.6665,45.1015],[10.6635,45.0961],[10.6509,45.081],[10.6516,45.0802],[10.6561,45.0789],[10.6612,45.0794],[10.6745,45.0708],[10.6634,45.0596],[10.6656,45.0499],[10.6668,45.0469],[10.6687,45.0453],[10.6628,45.0428],[10.6354,45.0397],[10.6349,45.0378],[10.6252,45.0349],[10.6221,45.0356],[10.6182,45.0412],[10.6129,45.0424],[10.6109,45.0414],[10.6098,45.0397],[10.6099,45.0352],[10.6063,45.0344],[10.6035,45.0349],[10.6006,45.0374],[10.5947,45.0569],[10.5912,45.0611],[10.5834,45.0743],[10.5862,45.0936],[10.585,45.0964],[10.5767,45.0997],[10.5743,45.1031],[10.5588,45.1134],[10.5514,45.1138],[10.546,45.1124],[10.5388,45.1129],[10.5167,45.1195],[10.5064,45.1261],[10.531,45.153],[10.5326,45.1559],[10.5395,45.1639],[10.5417,45.1652],[10.5469,45.1653],[10.5506,45.1691],[10.5469,45.1751],[10.5437,45.1774],[10.5483,45.177],[10.5579,45.1774],[10.5609,45.1785],[10.5682,45.1782],[10.5748,45.1754]]]}},{"type":"Feature","properties":{"i":"020032","n":"Mariana Mantovana"},"geometry":{"type":"Polygon","coordinates":[[[10.5013,45.2126],[10.5163,45.2065],[10.5115,45.1996],[10.5045,45.1916],[10.5035,45.1907],[10.4987,45.1896],[10.4944,45.1851],[10.4934,45.182],[10.4977,45.1786],[10.498,45.1756],[10.4977,45.1729],[10.4965,45.1715],[10.4921,45.174],[10.4906,45.1724],[10.4893,45.1662],[10.4929,45.1603],[10.4914,45.1575],[10.4921,45.1593],[10.489,45.1615],[10.4638,45.1703],[10.4587,45.1743],[10.4667,45.1776],[10.4769,45.1795],[10.4805,45.1826],[10.4837,45.1922],[10.4831,45.1936],[10.4835,45.1948],[10.5013,45.2126]]]}},{"type":"Feature","properties":{"i":"020033","n":"Marmirolo"},"geometry":{"type":"Polygon","coordinates":[[[10.7486,45.2942],[10.7467,45.2797],[10.753,45.2623],[10.7633,45.2529],[10.77,45.2482],[10.7911,45.2269],[10.7969,45.2218],[10.7952,45.2167],[10.7889,45.2127],[10.7848,45.2121],[10.7771,45.2051],[10.7681,45.199],[10.7653,45.198],[10.752,45.1977],[10.7507,45.1951],[10.7458,45.1942],[10.7393,45.1943],[10.7327,45.197],[10.7274,45.2015],[10.7164,45.2067],[10.7109,45.2109],[10.7107,45.2118],[10.7112,45.2174],[10.7184,45.2232],[10.7195,45.233],[10.7249,45.2401],[10.7251,45.2443],[10.7234,45.2478],[10.7238,45.2541],[10.7316,45.2546],[10.7325,45.2561],[10.7326,45.257],[10.7244,45.2671],[10.7269,45.272],[10.7305,45.2751],[10.7319,45.2787],[10.7289,45.2902],[10.7281,45.2915],[10.7234,45.2879],[10.721,45.2946],[10.7169,45.3009],[10.7103,45.3035],[10.7037,45.3036],[10.7005,45.3053],[10.7002,45.3068],[10.7026,45.3116],[10.7064,45.3163],[10.7095,45.3159],[10.7164,45.3166],[10.722,45.3188],[10.7261,45.3181],[10.7312,45.3152],[10.7331,45.3054],[10.7289,45.2961],[10.7283,45.2913],[10.7374,45.2872],[10.7486,45.2942]]]}},{"type":"Feature","properties":{"i":"020034","n":"Medole"},"geometry":{"type":"Polygon","coordinates":[[[10.5508,45.2904],[10.5468,45.2841],[10.5447,45.2846],[10.542,45.2862],[10.5365,45.2931],[10.5323,45.3018],[10.5245,45.3061],[10.519,45.3071],[10.5119,45.3023],[10.5041,45.3054],[10.4885,45.3205],[10.4788,45.3282],[10.4765,45.3289],[10.4861,45.3309],[10.4914,45.3347],[10.5009,45.349],[10.5094,45.3548],[10.5221,45.3602],[10.5279,45.3607],[10.5343,45.3576],[10.5571,45.3424],[10.5578,45.3363],[10.5399,45.3167],[10.5378,45.3129],[10.5381,45.3058],[10.5395,45.3025],[10.5446,45.2956],[10.5508,45.2904]]]}},{"type":"Feature","properties":{"i":"020035","n":"Moglia"},"geometry":{"type":"Polygon","coordinates":[[[10.9611,44.9925],[10.9632,44.9891],[10.9688,44.9868],[10.9725,44.9793],[10.9501,44.9579],[10.9498,44.9542],[10.954,44.9415],[10.9506,44.9333],[10.9514,44.9279],[10.946,44.9254],[10.9414,44.9219],[10.9171,44.9241],[10.8903,44.9124],[10.8879,44.9143],[10.8888,44.9165],[10.898,44.9218],[10.8766,44.9171],[10.874,44.9218],[10.8801,44.9214],[10.8874,44.9249],[10.8878,44.9258],[10.8886,44.9336],[10.8859,44.9397],[10.8892,44.9448],[10.8947,44.9507],[10.9004,44.9604],[10.8976,44.9664],[10.9142,44.9739],[10.9232,44.9792],[10.9248,44.9757],[10.9232,44.9694],[10.9244,44.9654],[10.9279,44.9635],[10.9329,44.9631],[10.9338,44.9645],[10.9344,44.9693],[10.9344,44.9766],[10.936,44.9811],[10.9435,44.9882],[10.947,44.9899],[10.953,44.9919],[10.9611,44.9925]]]}},{"type":"Feature","properties":{"i":"020036","n":"Monzambano"},"geometry":{"type":"Polygon","coordinates":[[[10.7176,45.4008],[10.7192,45.4003],[10.7168,45.3956],[10.7079,45.3858],[10.6989,45.3803],[10.6983,45.379],[10.6995,45.376],[10.7064,45.37],[10.7146,45.3679],[10.7045,45.3594],[10.6918,45.354],[10.6721,45.3544],[10.6591,45.3562],[10.6504,45.3609],[10.6408,45.3648],[10.635,45.3655],[10.6176,45.373],[10.6163,45.3757],[10.6164,45.3783],[10.6137,45.3827],[10.6174,45.3837],[10.6333,45.385],[10.6426,45.3904],[10.6422,45.3937],[10.6459,45.4059],[10.6488,45.4098],[10.6517,45.411],[10.6541,45.411],[10.6598,45.4093],[10.6722,45.4037],[10.6756,45.404],[10.6819,45.4074],[10.6839,45.4071],[10.6926,45.3988],[10.6952,45.3943],[10.702,45.3911],[10.7134,45.3948],[10.7164,45.3974],[10.7176,45.4008]]]}},{"type":"Feature","properties":{"i":"020037","n":"Motteggiana"},"geometry":{"type":"Polygon","coordinates":[[[10.7107,45.0524],[10.7331,45.0448],[10.7481,45.0438],[10.7545,45.0451],[10.7648,45.0454],[10.795,45.0412],[10.8359,45.0431],[10.8406,45.0331],[10.8358,45.0303],[10.8351,45.0289],[10.8357,45.0246],[10.8384,45.0217],[10.844,45.0214],[10.8466,45.0196],[10.8395,45.0115],[10.8323,45.0113],[10.8259,45.0155],[10.821,45.0148],[10.8163,45.0157],[10.8116,45.0192],[10.8123,45.022],[10.8059,45.0299],[10.7941,45.0333],[10.7909,45.036],[10.7791,45.034],[10.781,45.0329],[10.7881,45.0324],[10.7915,45.0303],[10.7925,45.0259],[10.7905,45.0237],[10.7882,45.0229],[10.7759,45.0259],[10.753,45.0293],[10.7501,45.0283],[10.7449,45.0286],[10.7365,45.0326],[10.7355,45.0341],[10.7359,45.0352],[10.7195,45.0396],[10.7133,45.0396],[10.7146,45.0379],[10.7142,45.0316],[10.7124,45.0252],[10.7087,45.0227],[10.7041,45.0234],[10.6985,45.0279],[10.6954,45.0294],[10.6854,45.0296],[10.6819,45.029],[10.6652,45.0384],[10.6693,45.039],[10.6773,45.0379],[10.6832,45.0391],[10.6943,45.0464],[10.6984,45.0506],[10.702,45.0529],[10.7107,45.0524]]]}},{"type":"Feature","properties":{"i":"020038","n":"Ostiglia"},"geometry":{"type":"Polygon","coordinates":[[[11.2034,45.1117],[11.2055,45.1095],[11.1884,45.1015],[11.1775,45.0973],[11.1768,45.0885],[11.1793,45.0876],[11.1829,45.0879],[11.1875,45.0865],[11.1884,45.0841],[11.1826,45.0789],[11.1755,45.0749],[11.1736,45.0708],[11.1743,45.0616],[11.1753,45.0601],[11.1811,45.0612],[11.1915,45.0609],[11.2005,45.0603],[11.2069,45.0585],[11.2023,45.0565],[11.1854,45.0536],[11.1629,45.0448],[11.1487,45.0464],[11.1441,45.0481],[11.1403,45.0506],[11.1312,45.0609],[11.1269,45.0679],[11.1242,45.0684],[11.1206,45.0673],[11.12,45.0744],[11.1109,45.0881],[11.1089,45.0959],[11.1054,45.0965],[11.0976,45.0952],[11.0941,45.0997],[11.0949,45.1061],[11.1001,45.1125],[11.1021,45.1131],[11.1056,45.1082],[11.1171,45.1045],[11.1274,45.1032],[11.1325,45.1061],[11.1348,45.1099],[11.1356,45.1173],[11.1377,45.1233],[11.1459,45.126],[11.1476,45.1258],[11.1556,45.1209],[11.1645,45.1175],[11.1739,45.1157],[11.1832,45.1127],[11.1876,45.1099],[11.2034,45.1117]]]}},{"type":"Feature","properties":{"i":"020039","n":"Pegognaga"},"geometry":{"type":"Polygon","coordinates":[[[10.9232,44.9792],[10.9142,44.9739],[10.8976,44.9664],[10.8955,44.9691],[10.8779,44.9804],[10.8735,44.9852],[10.8722,44.9851],[10.867,44.9805],[10.8569,44.9735],[10.8517,44.9723],[10.8341,44.9762],[10.8261,44.9759],[10.8202,44.972],[10.8096,44.9676],[10.8061,44.9686],[10.8013,44.9783],[10.7983,44.981],[10.7958,44.9814],[10.807,44.9979],[10.8128,45.0019],[10.8147,45.0023],[10.8163,45.0157],[10.821,45.0148],[10.8259,45.0155],[10.8323,45.0113],[10.8395,45.0115],[10.8463,45.0186],[10.8466,45.0196],[10.8457,45.0208],[10.8376,45.0221],[10.8363,45.0233],[10.8351,45.0265],[10.8351,45.0289],[10.8364,45.0311],[10.8406,45.0331],[10.845,45.0332],[10.8514,45.0322],[10.8629,45.0273],[10.8764,45.0239],[10.8798,45.0245],[10.8807,45.0255],[10.8807,45.032],[10.8828,45.0322],[10.8925,45.0294],[10.8993,45.0248],[10.9075,45.0176],[10.9092,45.0152],[10.9096,45.0075],[10.9232,44.9792]]]}},{"type":"Feature","properties":{"i":"020041","n":"Piubega"},"geometry":{"type":"Polygon","coordinates":[[[10.5591,45.2129],[10.5568,45.2096],[10.5447,45.199],[10.5436,45.1986],[10.54,45.2024],[10.5392,45.202],[10.534,45.1981],[10.5325,45.1946],[10.528,45.1912],[10.5199,45.1984],[10.5163,45.2065],[10.5013,45.2126],[10.5045,45.2162],[10.4993,45.218],[10.495,45.2186],[10.4919,45.224],[10.4942,45.2279],[10.4954,45.2276],[10.5117,45.2407],[10.5104,45.2419],[10.5294,45.2405],[10.5409,45.2384],[10.5472,45.235],[10.5491,45.2315],[10.546,45.2214],[10.5528,45.2149],[10.5591,45.2129]]]}},{"type":"Feature","properties":{"i":"020042","n":"Poggio Rusco"},"geometry":{"type":"Polygon","coordinates":[[[11.2157,44.9711],[11.2139,44.9681],[11.2129,44.9638],[11.2143,44.9518],[11.2131,44.9435],[11.2054,44.9414],[11.2021,44.9395],[11.1909,44.9386],[11.1585,44.9381],[11.1535,44.9334],[11.1524,44.9332],[11.1429,44.9374],[11.1243,44.9514],[11.1204,44.9536],[11.1006,44.958],[11.0956,44.9577],[11.0887,44.9593],[11.1075,44.98],[11.1275,44.9892],[11.142,44.9925],[11.1509,44.9926],[11.1607,44.9912],[11.1631,44.9853],[11.1683,44.9839],[11.1758,44.9841],[11.1854,44.9872],[11.1888,44.9838],[11.187,44.9797],[11.1923,44.9774],[11.1962,44.9769],[11.2064,44.9772],[11.213,44.9722],[11.2157,44.9711]]]}},{"type":"Feature","properties":{"i":"020043","n":"Pomponesco"},"geometry":{"type":"Polygon","coordinates":[[[10.6119,44.9211],[10.5988,44.9147],[10.5924,44.9148],[10.5824,44.9126],[10.5829,44.9266],[10.5807,44.9315],[10.5705,44.942],[10.5719,44.9486],[10.574,44.951],[10.5826,44.9513],[10.5897,44.9531],[10.5954,44.958],[10.6092,44.9656],[10.611,44.9706],[10.6071,44.9733],[10.6025,44.9749],[10.6025,44.9758],[10.6049,44.9778],[10.6097,44.9789],[10.6141,44.9773],[10.6139,44.9734],[10.6152,44.9698],[10.607,44.9541],[10.6092,44.9414],[10.6112,44.9354],[10.6119,44.9211]]]}},{"type":"Feature","properties":{"i":"020044","n":"Ponti sul Mincio"},"geometry":{"type":"Polygon","coordinates":[[[10.7145,45.4176],[10.7165,45.415],[10.7194,45.4056],[10.7169,45.3985],[10.7158,45.3966],[10.7134,45.3948],[10.702,45.3911],[10.6952,45.3943],[10.6926,45.3988],[10.6839,45.4071],[10.6819,45.4074],[10.6738,45.4036],[10.6702,45.4043],[10.6613,45.4086],[10.6551,45.4106],[10.6546,45.4158],[10.6652,45.4277],[10.6694,45.4263],[10.7023,45.4214],[10.7145,45.4176]]]}},{"type":"Feature","properties":{"i":"020045","n":"Porto Mantovano"},"geometry":{"type":"Polygon","coordinates":[[[10.83,45.2168],[10.8383,45.2146],[10.8286,45.2054],[10.8273,45.2002],[10.8288,45.1993],[10.8167,45.188],[10.8111,45.179],[10.8088,45.1817],[10.7963,45.1841],[10.7705,45.1865],[10.7652,45.1814],[10.759,45.1736],[10.7457,45.1762],[10.7437,45.1778],[10.7346,45.1774],[10.7275,45.1752],[10.7238,45.1725],[10.723,45.1707],[10.7236,45.1655],[10.7262,45.1638],[10.7261,45.1612],[10.7214,45.1604],[10.6975,45.1619],[10.6938,45.1639],[10.6947,45.1671],[10.6916,45.1762],[10.6848,45.1782],[10.6892,45.1941],[10.6911,45.2046],[10.6917,45.2061],[10.6933,45.2065],[10.6982,45.2075],[10.702,45.2063],[10.7081,45.2067],[10.7149,45.2084],[10.7164,45.2067],[10.7274,45.2015],[10.7327,45.197],[10.7393,45.1943],[10.7458,45.1942],[10.7507,45.1951],[10.752,45.1977],[10.7653,45.198],[10.7681,45.199],[10.7771,45.2051],[10.7848,45.2121],[10.7889,45.2127],[10.7952,45.2167],[10.7975,45.2257],[10.816,45.2196],[10.8261,45.2186],[10.83,45.2168]]]}},{"type":"Feature","properties":{"i":"020046","n":"Quingentole"},"geometry":{"type":"Polygon","coordinates":[[[11.0556,45.0444],[11.0632,45.0443],[11.0779,45.0473],[11.0753,45.0416],[11.0761,45.031],[11.0732,45.0174],[11.0675,45.0169],[11.063,45.0177],[11.0567,45.016],[11.0529,45.0143],[11.0477,45.0098],[11.0403,45.0067],[11.0353,45.0087],[11.0372,45.0118],[11.0381,45.0159],[11.0362,45.025],[11.0345,45.0272],[11.0271,45.0308],[11.0259,45.0454],[11.0226,45.0513],[11.003,45.0544],[11.0035,45.0561],[11.0095,45.0632],[11.023,45.0554],[11.0409,45.0471],[11.0556,45.0444]]]}},{"type":"Feature","properties":{"i":"020047","n":"Quistello"},"geometry":{"type":"Polygon","coordinates":[[[11.0353,45.0087],[11.0292,45.0018],[11.0323,45.0],[11.0389,45.0002],[11.0364,44.9915],[11.0248,44.9886],[11.0098,44.9795],[11.0043,44.9807],[10.9989,44.972],[10.989,44.9645],[10.97,44.9527],[10.9731,44.9457],[10.9762,44.9419],[10.9664,44.9345],[10.9506,44.9333],[10.954,44.9415],[10.9498,44.9542],[10.9501,44.9579],[10.9725,44.9793],[10.9688,44.9868],[10.9632,44.9891],[10.9611,44.9925],[10.9612,45.0047],[10.9671,45.0053],[10.9686,45.0033],[10.9711,45.0038],[10.9769,45.0077],[10.9811,45.0135],[10.9768,45.0199],[10.9737,45.0219],[10.9726,45.0209],[10.9708,45.0213],[10.9629,45.0251],[10.9631,45.0279],[10.9717,45.0375],[10.981,45.0386],[10.9854,45.0354],[10.9914,45.0342],[11.0005,45.0352],[11.0031,45.0383],[11.0029,45.0419],[11.0013,45.0454],[10.995,45.046],[10.9994,45.0521],[10.994,45.0555],[10.9988,45.058],[11.0038,45.0593],[11.0073,45.0641],[11.0095,45.0632],[11.0035,45.0561],[11.003,45.0542],[11.0222,45.0514],[11.0246,45.0485],[11.0259,45.0454],[11.0271,45.0308],[11.0345,45.0272],[11.0362,45.025],[11.0381,45.0159],[11.0372,45.0118],[11.0353,45.0087]]]}},{"type":"Feature","properties":{"i":"020048","n":"Redondesco"},"geometry":{"type":"Polygon","coordinates":[[[10.5436,45.1986],[10.5342,45.1884],[10.5336,45.1869],[10.5423,45.1784],[10.5469,45.1751],[10.5506,45.1691],[10.5469,45.1653],[10.5417,45.1652],[10.5395,45.1639],[10.5259,45.1476],[10.5168,45.1487],[10.509,45.1465],[10.4984,45.1462],[10.4914,45.1575],[10.4929,45.1603],[10.4893,45.1662],[10.4906,45.1724],[10.4921,45.174],[10.4965,45.1715],[10.4977,45.1729],[10.4977,45.1786],[10.4934,45.182],[10.4944,45.1851],[10.4987,45.1896],[10.5035,45.1907],[10.5045,45.1916],[10.5115,45.1996],[10.5163,45.2065],[10.5199,45.1984],[10.528,45.1912],[10.5325,45.1946],[10.534,45.1981],[10.5383,45.2016],[10.54,45.2024],[10.5436,45.1986]]]}},{"type":"Feature","properties":{"i":"020050","n":"Rivarolo Mantovano"},"geometry":{"type":"Polygon","coordinates":[[[10.4929,45.0834],[10.492,45.083],[10.4926,45.0787],[10.4951,45.068],[10.4938,45.0563],[10.4781,45.0568],[10.4669,45.0594],[10.4602,45.057],[10.4464,45.0469],[10.4388,45.0448],[10.4198,45.0414],[10.4155,45.0413],[10.4132,45.0422],[10.4124,45.0434],[10.4136,45.0568],[10.415,45.0643],[10.4161,45.0667],[10.4166,45.0762],[10.4151,45.08],[10.4152,45.0858],[10.4173,45.0919],[10.423,45.091],[10.439,45.091],[10.4453,45.0922],[10.4632,45.0937],[10.4626,45.089],[10.4678,45.0855],[10.4731,45.0847],[10.4765,45.0796],[10.4768,45.0766],[10.4796,45.0752],[10.4842,45.0773],[10.4906,45.0841],[10.4929,45.0834]]]}},{"type":"Feature","properties":{"i":"020051","n":"Rodigo"},"geometry":{"type":"Polygon","coordinates":[[[10.6917,45.2061],[10.6848,45.1782],[10.6916,45.1762],[10.6947,45.1671],[10.6937,45.1652],[10.6833,45.157],[10.6823,45.1527],[10.676,45.1522],[10.6705,45.1554],[10.6714,45.1575],[10.6701,45.1611],[10.6332,45.1757],[10.6104,45.1813],[10.6049,45.1842],[10.595,45.1909],[10.5973,45.1941],[10.5978,45.1989],[10.5959,45.2042],[10.5907,45.2072],[10.5864,45.2045],[10.5736,45.2098],[10.5772,45.2161],[10.5833,45.2184],[10.5871,45.2179],[10.5894,45.2189],[10.6042,45.2328],[10.6088,45.2283],[10.6147,45.2201],[10.6254,45.2228],[10.6425,45.2227],[10.6605,45.2148],[10.6874,45.2057],[10.6917,45.2061]]]}},{"type":"Feature","properties":{"i":"020052","n":"Roncoferraro"},"geometry":{"type":"Polygon","coordinates":[[[10.9582,45.1608],[10.9619,45.1597],[10.9552,45.1526],[10.9692,45.1473],[10.9709,45.1458],[10.9674,45.1425],[10.9681,45.1407],[10.9752,45.138],[10.9776,45.138],[10.9787,45.139],[10.9794,45.137],[10.982,45.1352],[10.9984,45.1242],[11.0044,45.1215],[11.0096,45.1206],[11.0116,45.1212],[11.0126,45.1226],[11.0205,45.1228],[11.0226,45.1214],[11.0264,45.1158],[11.0256,45.1126],[11.023,45.1123],[11.0194,45.1082],[11.0073,45.0883],[11.0057,45.0884],[11.002,45.0906],[10.9947,45.0908],[10.9832,45.0841],[10.9812,45.0795],[10.9817,45.0718],[10.963,45.0813],[10.954,45.0883],[10.9476,45.0921],[10.9429,45.0928],[10.9344,45.0921],[10.9202,45.0991],[10.9213,45.1054],[10.9188,45.1079],[10.9106,45.1065],[10.9053,45.104],[10.9031,45.1043],[10.9017,45.1068],[10.9035,45.1115],[10.901,45.1157],[10.8988,45.1168],[10.8927,45.1176],[10.8902,45.1199],[10.8909,45.1238],[10.8957,45.1299],[10.8949,45.1347],[10.8903,45.1368],[10.8842,45.1366],[10.8804,45.1349],[10.8791,45.1357],[10.8815,45.1423],[10.8862,45.1494],[10.8838,45.1511],[10.8831,45.156],[10.894,45.1617],[10.9013,45.1689],[10.9035,45.1698],[10.9133,45.1675],[10.9197,45.1623],[10.9241,45.1608],[10.9426,45.1593],[10.952,45.1614],[10.9582,45.1608]]]}},{"type":"Feature","properties":{"i":"020053","n":"Roverbella"},"geometry":{"type":"Polygon","coordinates":[[[10.84,45.2729],[10.8408,45.2654],[10.8466,45.2566],[10.8763,45.2527],[10.8792,45.2472],[10.8819,45.2469],[10.889,45.2486],[10.8968,45.2471],[10.8945,45.2406],[10.8901,45.2372],[10.883,45.2374],[10.8735,45.2406],[10.8656,45.2266],[10.8584,45.2214],[10.8564,45.2219],[10.8547,45.2243],[10.8423,45.2254],[10.838,45.2277],[10.8351,45.2245],[10.843,45.2196],[10.8411,45.2176],[10.8329,45.2193],[10.83,45.2168],[10.8261,45.2186],[10.816,45.2196],[10.798,45.2257],[10.7975,45.2257],[10.7969,45.2218],[10.7911,45.2269],[10.77,45.2482],[10.7633,45.2529],[10.753,45.2623],[10.7467,45.2797],[10.7486,45.2942],[10.7828,45.3154],[10.812,45.2967],[10.8163,45.2934],[10.8169,45.2893],[10.827,45.2839],[10.8294,45.282],[10.8323,45.2776],[10.84,45.2729]]]}},{"type":"Feature","properties":{"i":"020054","n":"Sabbioneta"},"geometry":{"type":"Polygon","coordinates":[[[10.5576,45.0235],[10.5572,45.0187],[10.559,45.0167],[10.5764,45.0139],[10.6012,45.0122],[10.6029,45.0103],[10.6025,45.0076],[10.6011,45.0056],[10.5969,45.004],[10.5847,45.0043],[10.571,45.002],[10.5579,45.0069],[10.5552,45.0069],[10.5491,45.0052],[10.5415,45.0015],[10.5393,44.9967],[10.5336,44.992],[10.5124,44.9838],[10.4844,44.9803],[10.4691,44.98],[10.4606,44.9809],[10.4557,44.9824],[10.4586,44.9914],[10.4575,44.9968],[10.4578,45.0052],[10.4589,45.0081],[10.463,45.0118],[10.4644,45.0147],[10.4709,45.0138],[10.4766,45.0143],[10.4811,45.0153],[10.4906,45.02],[10.5014,45.0216],[10.5112,45.0183],[10.5132,45.0228],[10.5139,45.029],[10.5185,45.0334],[10.5212,45.0376],[10.5199,45.0408],[10.5343,45.0453],[10.5342,45.044],[10.5437,45.0333],[10.5576,45.0235]]]}},{"type":"Feature","properties":{"i":"020055","n":"San Benedetto Po"},"geometry":{"type":"Polygon","coordinates":[[[10.9824,45.0693],[11.0031,45.0656],[11.0073,45.0641],[11.0038,45.0593],[10.9988,45.058],[10.994,45.0555],[10.9994,45.0521],[10.995,45.046],[11.0013,45.0454],[11.0033,45.0404],[11.0031,45.0383],[10.9996,45.0348],[10.9914,45.0342],[10.9854,45.0354],[10.981,45.0386],[10.9717,45.0375],[10.9631,45.0279],[10.9629,45.0251],[10.9708,45.0213],[10.9726,45.0209],[10.9737,45.0219],[10.9768,45.0199],[10.9811,45.0135],[10.9769,45.0077],[10.9711,45.0038],[10.9686,45.0033],[10.9671,45.0053],[10.9612,45.0047],[10.9611,44.9925],[10.953,44.9919],[10.947,44.9899],[10.9435,44.9882],[10.936,44.9811],[10.9344,44.9766],[10.9344,44.9693],[10.9338,44.9645],[10.9329,44.9631],[10.9266,44.9639],[10.9237,44.9666],[10.9232,44.9694],[10.9248,44.9757],[10.9096,45.0075],[10.9092,45.0152],[10.9075,45.0176],[10.8993,45.0248],[10.8925,45.0294],[10.8828,45.0322],[10.8807,45.032],[10.8807,45.0255],[10.8798,45.0245],[10.8764,45.0239],[10.8629,45.0273],[10.8496,45.0326],[10.8406,45.0331],[10.8359,45.0431],[10.8539,45.0541],[10.8658,45.0599],[10.8726,45.0608],[10.8766,45.0593],[10.8978,45.0471],[10.9027,45.046],[10.9069,45.0461],[10.9122,45.0503],[10.9114,45.0532],[10.9083,45.0561],[10.9068,45.06],[10.9082,45.0749],[10.9104,45.0776],[10.9142,45.0786],[10.9215,45.0782],[10.9401,45.072],[10.9508,45.0666],[10.955,45.0662],[10.9824,45.0693]]]}},{"type":"Feature","properties":{"i":"020056","n":"San Giacomo delle Segnate"},"geometry":{"type":"Polygon","coordinates":[[[11.0226,44.9527],[10.9975,44.9551],[10.9888,44.9514],[10.9821,44.9452],[10.9762,44.9419],[10.9731,44.9457],[10.97,44.9527],[10.989,44.9645],[10.9989,44.972],[11.0043,44.9807],[11.0098,44.9795],[11.0248,44.9886],[11.0356,44.9918],[11.0396,44.9898],[11.0413,44.9853],[11.0498,44.9817],[11.0549,44.9813],[11.0555,44.972],[11.0519,44.9708],[11.0378,44.9585],[11.0292,44.9587],[11.0226,44.9527]]]}},{"type":"Feature","properties":{"i":"020057","n":"San Giorgio Bigarello"},"geometry":{"type":"Polygon","coordinates":[[[10.8564,45.2219],[10.8549,45.2203],[10.8602,45.2178],[10.8713,45.2078],[10.871,45.204],[10.8622,45.196],[10.8698,45.1909],[10.8717,45.1909],[10.8735,45.1923],[10.877,45.1933],[10.8844,45.1918],[10.8909,45.1892],[10.8962,45.1895],[10.8993,45.1917],[10.9008,45.1942],[10.8952,45.1965],[10.8941,45.1983],[10.8954,45.2003],[10.9155,45.2074],[10.9231,45.2115],[10.929,45.2112],[10.9324,45.21],[10.9342,45.2106],[10.9361,45.214],[10.9385,45.214],[10.9448,45.2112],[10.947,45.2057],[10.9427,45.1983],[10.9357,45.1896],[10.9406,45.1831],[10.9508,45.1802],[10.953,45.1695],[10.9603,45.1645],[10.9598,45.1629],[10.9582,45.1608],[10.952,45.1614],[10.9426,45.1593],[10.9241,45.1608],[10.9197,45.1623],[10.9133,45.1675],[10.9035,45.1698],[10.9013,45.1689],[10.894,45.1617],[10.8831,45.156],[10.8838,45.1511],[10.8862,45.1494],[10.8815,45.1423],[10.8677,45.1461],[10.8661,45.15],[10.8603,45.1538],[10.8483,45.1555],[10.8404,45.1578],[10.8309,45.162],[10.8344,45.166],[10.8357,45.1726],[10.8347,45.1786],[10.8295,45.1811],[10.8181,45.1823],[10.8145,45.1849],[10.8177,45.189],[10.8288,45.1993],[10.8273,45.2002],[10.8286,45.2054],[10.8383,45.2146],[10.83,45.2168],[10.8329,45.2193],[10.8411,45.2176],[10.843,45.2196],[10.8351,45.2245],[10.838,45.2277],[10.8423,45.2254],[10.8547,45.2243],[10.8564,45.2219]]]}},{"type":"Feature","properties":{"i":"020058","n":"San Giovanni del Dosso"},"geometry":{"type":"Polygon","coordinates":[[[11.0963,44.9815],[11.0979,44.9844],[11.1036,44.9846],[11.1075,44.98],[11.0887,44.9593],[11.0721,44.9617],[11.0595,44.9489],[11.049,44.9512],[11.0303,44.9514],[11.0226,44.9527],[11.0292,44.9587],[11.0378,44.9585],[11.0519,44.9708],[11.0555,44.972],[11.0549,44.9813],[11.0498,44.9817],[11.0413,44.9853],[11.0396,44.9898],[11.0364,44.9915],[11.0389,45.0002],[11.0457,44.9978],[11.0505,44.9941],[11.0515,44.9906],[11.0526,44.9898],[11.0706,44.9858],[11.0847,44.9812],[11.092,44.9805],[11.0963,44.9815]]]}},{"type":"Feature","properties":{"i":"020059","n":"San Martino dall'Argine"},"geometry":{"type":"Polygon","coordinates":[[[10.5767,45.0997],[10.5684,45.0993],[10.5607,45.1008],[10.5482,45.1011],[10.546,45.0949],[10.5458,45.0854],[10.5433,45.0801],[10.5331,45.0745],[10.5205,45.0733],[10.5019,45.0749],[10.4974,45.0759],[10.492,45.083],[10.5002,45.0879],[10.5,45.0904],[10.5035,45.0946],[10.5131,45.1028],[10.5167,45.1097],[10.5159,45.1135],[10.5167,45.1195],[10.5388,45.1129],[10.546,45.1124],[10.5514,45.1138],[10.5588,45.1134],[10.5743,45.1031],[10.5767,45.0997]]]}},{"type":"Feature","properties":{"i":"020060","n":"Schivenoglia"},"geometry":{"type":"Polygon","coordinates":[[[11.0963,44.9815],[11.092,44.9805],[11.0847,44.9812],[11.0706,44.9858],[11.0553,44.989],[11.0515,44.9906],[11.0505,44.9941],[11.0445,44.9985],[11.0389,45.0002],[11.0323,45.0],[11.0292,45.0018],[11.0353,45.0087],[11.0403,45.0067],[11.0477,45.0098],[11.0529,45.0143],[11.0567,45.016],[11.063,45.0177],[11.0691,45.0168],[11.0724,45.0172],[11.0732,45.0174],[11.0732,45.0185],[11.077,45.0189],[11.0932,45.0198],[11.0923,45.0139],[11.0883,45.0066],[11.0879,44.998],[11.0963,44.9815]]]}},{"type":"Feature","properties":{"i":"020061","n":"Sermide e Felonica"},"geometry":{"type":"Polygon","coordinates":[[[11.388,44.9738],[11.3958,44.9713],[11.409,44.9695],[11.4219,44.9638],[11.4255,44.9608],[11.4273,44.9579],[11.4276,44.9537],[11.4267,44.9501],[11.4262,44.9521],[11.4057,44.9487],[11.3997,44.9526],[11.3902,44.9558],[11.3767,44.9581],[11.3628,44.9555],[11.36,44.9509],[11.3572,44.9501],[11.3343,44.9584],[11.3228,44.9612],[11.3087,44.9605],[11.2854,44.9568],[11.2723,44.9383],[11.2618,44.9454],[11.2567,44.9468],[11.2462,44.9514],[11.2434,44.9479],[11.2318,44.9448],[11.2131,44.9435],[11.2143,44.9518],[11.2129,44.9638],[11.2139,44.9681],[11.2157,44.9711],[11.2149,44.9747],[11.2205,44.9907],[11.2201,44.9953],[11.2211,44.9966],[11.2224,44.9965],[11.2324,44.9895],[11.2411,44.9927],[11.2357,44.9957],[11.2334,44.9988],[11.2353,45.0008],[11.2418,45.0027],[11.2483,45.0059],[11.2435,45.0107],[11.2419,45.0173],[11.2496,45.0263],[11.2589,45.0308],[11.2646,45.0317],[11.2699,45.0284],[11.2728,45.0241],[11.2733,45.0192],[11.2755,45.0173],[11.3016,45.0142],[11.3087,45.0124],[11.3132,45.0097],[11.3221,45.0002],[11.3335,44.9914],[11.388,44.9738]]]}},{"type":"Feature","properties":{"i":"020062","n":"Serravalle a Po"},"geometry":{"type":"Polygon","coordinates":[[[11.0729,45.0987],[11.0783,45.0992],[11.0876,45.0983],[11.0976,45.0952],[11.1054,45.0965],[11.1089,45.0959],[11.1109,45.0881],[11.12,45.0744],[11.1206,45.0673],[11.1156,45.0639],[11.1103,45.0554],[11.106,45.053],[11.102,45.0549],[11.0971,45.0591],[11.0952,45.0599],[11.0901,45.0605],[11.0831,45.0596],[11.0813,45.0579],[11.0779,45.0473],[11.0632,45.0443],[11.0556,45.0444],[11.049,45.0617],[11.0507,45.0662],[11.0523,45.0759],[11.0498,45.0829],[11.0516,45.0908],[11.0507,45.096],[11.0434,45.0968],[11.0563,45.1041],[11.0608,45.1034],[11.0729,45.0987]]]}},{"type":"Feature","properties":{"i":"020063","n":"Solferino"},"geometry":{"type":"Polygon","coordinates":[[[10.58,45.3811],[10.5774,45.3803],[10.5764,45.3781],[10.5815,45.3691],[10.5819,45.3639],[10.5811,45.3622],[10.5753,45.3592],[10.5673,45.3569],[10.5571,45.3424],[10.5343,45.3576],[10.5366,45.3795],[10.5374,45.3822],[10.5409,45.3876],[10.5434,45.3897],[10.5481,45.3858],[10.5559,45.388],[10.5658,45.3873],[10.58,45.3811]]]}},{"type":"Feature","properties":{"i":"020064","n":"Sustinente"},"geometry":{"type":"Polygon","coordinates":[[[11.0508,45.1094],[11.0729,45.0987],[11.0608,45.1034],[11.0563,45.1041],[11.0434,45.0968],[11.0507,45.096],[11.0516,45.0908],[11.0498,45.0829],[11.0523,45.0759],[11.0507,45.0662],[11.049,45.0617],[11.0557,45.0441],[11.0409,45.0471],[11.023,45.0554],[11.0052,45.065],[10.9824,45.0693],[10.9812,45.0795],[10.9832,45.0841],[10.9947,45.0908],[11.002,45.0906],[11.0057,45.0884],[11.0073,45.0883],[11.0194,45.1082],[11.023,45.1123],[11.0256,45.1126],[11.0263,45.1137],[11.0264,45.1158],[11.0257,45.1172],[11.0286,45.1151],[11.0384,45.1116],[11.0508,45.1094]]]}},{"type":"Feature","properties":{"i":"020065","n":"Suzzara"},"geometry":{"type":"Polygon","coordinates":[[[10.8163,45.0157],[10.8147,45.0023],[10.8128,45.0019],[10.807,44.9979],[10.7958,44.9814],[10.7894,44.9812],[10.7855,44.9799],[10.7681,44.9662],[10.7634,44.9649],[10.759,44.9656],[10.7482,44.9627],[10.7424,44.9721],[10.7411,44.9809],[10.7382,44.9854],[10.7316,44.9914],[10.7274,44.992],[10.7132,44.9861],[10.7113,44.983],[10.7121,44.9764],[10.7108,44.9731],[10.7022,44.9651],[10.6956,44.9621],[10.693,44.962],[10.691,44.9627],[10.688,44.9659],[10.6891,44.9674],[10.6936,44.9695],[10.696,44.9745],[10.6867,44.9866],[10.6862,44.9997],[10.6891,45.0065],[10.6885,45.0092],[10.6839,45.0172],[10.6819,45.02],[10.6712,45.0271],[10.6538,45.029],[10.6503,45.0307],[10.6489,45.0338],[10.6542,45.038],[10.6652,45.0384],[10.6819,45.029],[10.6854,45.0296],[10.6954,45.0294],[10.6985,45.0279],[10.7041,45.0234],[10.7087,45.0227],[10.7124,45.0252],[10.7142,45.0316],[10.7146,45.0379],[10.7133,45.0396],[10.7195,45.0396],[10.7359,45.0352],[10.7355,45.0341],[10.7365,45.0326],[10.7449,45.0286],[10.7501,45.0283],[10.753,45.0293],[10.7759,45.0259],[10.7887,45.0229],[10.7925,45.0259],[10.7915,45.0303],[10.7881,45.0324],[10.781,45.0329],[10.7791,45.034],[10.7904,45.0361],[10.7941,45.0333],[10.8059,45.0299],[10.8123,45.022],[10.8116,45.0192],[10.8163,45.0157]]]}},{"type":"Feature","properties":{"i":"020066","n":"Viadana"},"geometry":{"type":"Polygon","coordinates":[[[10.7107,45.0524],[10.702,45.0529],[10.6984,45.0506],[10.6943,45.0464],[10.6832,45.0391],[10.6773,45.0379],[10.6693,45.039],[10.655,45.0383],[10.6493,45.0345],[10.6492,45.0319],[10.652,45.0297],[10.6555,45.0285],[10.6712,45.0271],[10.6819,45.02],[10.6889,45.008],[10.6891,45.0065],[10.6874,45.0017],[10.6862,44.9997],[10.6833,44.9993],[10.675,44.9955],[10.656,44.9887],[10.6501,44.9886],[10.6348,44.9904],[10.6331,44.9835],[10.6218,44.9785],[10.6179,44.9787],[10.6141,44.9773],[10.6097,44.9789],[10.6058,44.9782],[10.6034,44.9767],[10.6025,44.9749],[10.6071,44.9733],[10.611,44.9706],[10.6092,44.9656],[10.5954,44.958],[10.5897,44.9531],[10.5826,44.9513],[10.574,44.951],[10.5719,44.9486],[10.5705,44.942],[10.5807,44.9315],[10.5834,44.9253],[10.5824,44.9126],[10.5816,44.9123],[10.5723,44.9087],[10.5686,44.9083],[10.5537,44.9108],[10.5317,44.9131],[10.5199,44.9127],[10.515,44.9144],[10.5052,44.9219],[10.5011,44.9238],[10.4812,44.9301],[10.464,44.9372],[10.4667,44.9425],[10.4717,44.9454],[10.4765,44.9468],[10.4969,44.9495],[10.5013,44.9536],[10.5078,44.9724],[10.5103,44.9728],[10.5234,44.9709],[10.5269,44.9734],[10.5291,44.9793],[10.5313,44.9809],[10.554,44.9865],[10.5546,44.9888],[10.5567,44.9913],[10.5642,44.9956],[10.5821,44.9976],[10.5914,45.0027],[10.5999,45.0048],[10.6025,45.0076],[10.6029,45.0103],[10.6012,45.0122],[10.5764,45.0139],[10.559,45.0167],[10.5572,45.0187],[10.5576,45.0235],[10.5707,45.0264],[10.5775,45.0235],[10.5842,45.0195],[10.5926,45.0207],[10.5994,45.0266],[10.5998,45.0314],[10.5987,45.037],[10.6006,45.0374],[10.6016,45.036],[10.6046,45.0345],[10.6087,45.0347],[10.61,45.0354],[10.6098,45.0397],[10.6125,45.0423],[10.6182,45.0412],[10.6221,45.0356],[10.6252,45.0349],[10.6349,45.0378],[10.6354,45.0397],[10.6628,45.0428],[10.6687,45.0453],[10.6704,45.0491],[10.6728,45.0508],[10.6903,45.0524],[10.6928,45.0543],[10.6955,45.0551],[10.702,45.0547],[10.7107,45.0524]]]}},{"type":"Feature","properties":{"i":"020068","n":"Villimpenta"},"geometry":{"type":"Polygon","coordinates":[[[11.0356,45.1501],[11.0466,45.1531],[11.0505,45.1496],[11.0423,45.1439],[11.0423,45.1399],[11.0438,45.1343],[11.0375,45.131],[11.0289,45.1279],[11.0287,45.123],[11.039,45.114],[11.0508,45.1094],[11.0384,45.1116],[11.0286,45.1151],[11.0257,45.1172],[11.0226,45.1214],[11.0205,45.1228],[11.0126,45.1226],[11.0116,45.1212],[11.0096,45.1206],[11.0044,45.1215],[10.9984,45.1242],[10.982,45.1352],[10.9794,45.137],[10.9787,45.139],[10.9927,45.153],[10.9937,45.1515],[10.9957,45.151],[11.0086,45.1503],[11.0102,45.1487],[11.0172,45.1526],[11.0216,45.1558],[11.0213,45.1566],[11.0284,45.1592],[11.0296,45.1585],[11.0318,45.1541],[11.0318,45.1523],[11.0356,45.1501]]]}},{"type":"Feature","properties":{"i":"020070","n":"Volta Mantovana"},"geometry":{"type":"Polygon","coordinates":[[[10.6855,45.3537],[10.6869,45.3426],[10.6935,45.3405],[10.7058,45.3394],[10.715,45.3339],[10.7155,45.3323],[10.7149,45.3289],[10.7132,45.3237],[10.7088,45.3199],[10.7026,45.3116],[10.7002,45.3068],[10.7005,45.3053],[10.7037,45.3036],[10.7103,45.3035],[10.7169,45.3009],[10.721,45.2946],[10.7234,45.2879],[10.7199,45.2817],[10.7122,45.2799],[10.7119,45.2821],[10.7037,45.2849],[10.6818,45.2865],[10.6494,45.2845],[10.6453,45.2855],[10.629,45.2861],[10.6245,45.2813],[10.6111,45.2858],[10.61,45.2898],[10.6105,45.3044],[10.6171,45.3141],[10.6256,45.3303],[10.636,45.3378],[10.6345,45.3405],[10.6365,45.3445],[10.644,45.3468],[10.6557,45.3536],[10.6724,45.3526],[10.6721,45.3544],[10.6855,45.3537]]]}},{"type":"Feature","properties":{"i":"020071","n":"Borgo Virgilio"},"geometry":{"type":"Polygon","coordinates":[[[10.8891,45.1024],[10.8871,45.0988],[10.8779,45.0942],[10.8674,45.096],[10.8528,45.0999],[10.8501,45.1013],[10.8463,45.1069],[10.8366,45.1117],[10.8263,45.1111],[10.8225,45.1074],[10.8258,45.1021],[10.8177,45.0894],[10.8149,45.0835],[10.8181,45.0764],[10.8232,45.0721],[10.8265,45.0609],[10.8314,45.0535],[10.8386,45.0475],[10.8414,45.0462],[10.8359,45.0431],[10.795,45.0412],[10.7648,45.0454],[10.7545,45.0451],[10.7481,45.0438],[10.7331,45.0448],[10.708,45.0533],[10.702,45.0547],[10.6955,45.0551],[10.6928,45.0543],[10.6903,45.0524],[10.6716,45.0505],[10.6687,45.0453],[10.6668,45.0469],[10.6656,45.0499],[10.6634,45.0596],[10.6745,45.0708],[10.6764,45.0716],[10.6886,45.0697],[10.6908,45.0673],[10.7068,45.0602],[10.723,45.0555],[10.7258,45.0603],[10.7316,45.0664],[10.739,45.0628],[10.7432,45.0617],[10.7479,45.0673],[10.7508,45.0833],[10.757,45.0898],[10.7635,45.0941],[10.7658,45.0965],[10.7654,45.099],[10.7662,45.1036],[10.7681,45.1083],[10.7731,45.1162],[10.7744,45.1207],[10.7742,45.1307],[10.7777,45.1331],[10.7864,45.1266],[10.7904,45.1256],[10.8131,45.1315],[10.8235,45.1332],[10.8393,45.1288],[10.8533,45.1218],[10.8545,45.1198],[10.8533,45.1175],[10.8549,45.1161],[10.8677,45.1103],[10.8741,45.1095],[10.8891,45.1024]]]}},{"type":"Feature","properties":{"i":"020072","n":"Borgo Mantovano"},"geometry":{"type":"Polygon","coordinates":[[[11.1692,45.0472],[11.1663,45.038],[11.1614,45.0306],[11.1575,45.0288],[11.144,45.0122],[11.1376,45.006],[11.1324,45.0027],[11.1275,44.9892],[11.1075,44.98],[11.1036,44.9846],[11.0979,44.9844],[11.0963,44.9815],[11.0879,44.998],[11.0883,45.0066],[11.0923,45.0139],[11.0932,45.0198],[11.0732,45.0185],[11.0761,45.031],[11.0753,45.0416],[11.0813,45.0579],[11.0831,45.0596],[11.0901,45.0605],[11.0952,45.0599],[11.0971,45.0591],[11.102,45.0549],[11.106,45.053],[11.1115,45.0564],[11.1148,45.0628],[11.1166,45.0649],[11.1226,45.0681],[11.1259,45.0683],[11.1281,45.0666],[11.1303,45.062],[11.1357,45.0553],[11.1403,45.0506],[11.1441,45.0481],[11.1511,45.0459],[11.1609,45.0448],[11.1644,45.0452],[11.1692,45.0472]]]}},{"type":"Feature","properties":{"i":"020073","n":"Borgocarbonara"},"geometry":{"type":"Polygon","coordinates":[[[11.2704,45.044],[11.2631,45.0336],[11.2646,45.0317],[11.2589,45.0308],[11.2496,45.0263],[11.2419,45.0173],[11.2435,45.0107],[11.2483,45.0059],[11.2418,45.0027],[11.2353,45.0008],[11.2336,44.999],[11.2357,44.9957],[11.2411,44.9927],[11.234,44.9895],[11.2324,44.9895],[11.2224,44.9965],[11.2211,44.9966],[11.2201,44.9953],[11.2175,44.9969],[11.2233,45.0002],[11.2288,45.0017],[11.2189,45.0082],[11.2148,45.0164],[11.2112,45.0199],[11.2017,45.023],[11.1827,45.0236],[11.1738,45.0257],[11.1614,45.0306],[11.1663,45.038],[11.1692,45.0472],[11.1873,45.0542],[11.2023,45.0565],[11.2069,45.0585],[11.2149,45.0564],[11.235,45.0446],[11.2404,45.043],[11.2476,45.0445],[11.257,45.0539],[11.2614,45.0563],[11.2643,45.0568],[11.2676,45.0552],[11.2687,45.0534],[11.2706,45.0475],[11.2704,45.044]]]}}]}
