{"type":"FeatureCollection","fonte":"Confini comunali ISTAT via openpolis/geojson-italy — CC BY 4.0","features":[{"type":"Feature","properties":{"i":"036001","n":"Bastiglia"},"geometry":{"type":"Polygon","coordinates":[[[11.0056,44.7043],[11.0007,44.7006],[10.9964,44.7006],[10.9884,44.7063],[10.9817,44.7077],[10.9721,44.7141],[10.9659,44.7194],[10.9838,44.7306],[10.9849,44.7352],[10.9863,44.7372],[10.9967,44.7336],[11.0171,44.7312],[11.019,44.7329],[11.0225,44.732],[11.0208,44.7224],[11.0108,44.7094],[11.0056,44.7043]]]}},{"type":"Feature","properties":{"i":"036002","n":"Bomporto"},"geometry":{"type":"Polygon","coordinates":[[[11.0993,44.7718],[11.0961,44.7714],[11.0925,44.7665],[11.0891,44.7639],[11.0798,44.7605],[11.0627,44.7523],[11.0589,44.7503],[11.0511,44.7442],[11.0418,44.7306],[11.0422,44.7295],[11.0475,44.7256],[11.0491,44.7225],[11.0459,44.7179],[11.0408,44.7186],[11.0376,44.718],[11.0323,44.715],[11.019,44.695],[11.0087,44.6845],[10.9963,44.6878],[11.0015,44.6966],[11.0105,44.7012],[11.0056,44.7043],[11.0108,44.7094],[11.0208,44.7224],[11.0225,44.732],[11.019,44.7329],[11.0171,44.7312],[10.9967,44.7336],[10.9863,44.7372],[10.9935,44.739],[10.995,44.7405],[10.9919,44.7449],[10.9852,44.7491],[10.9856,44.7495],[10.9929,44.752],[11.0026,44.7512],[11.016,44.7661],[11.0202,44.7669],[11.0328,44.7591],[11.0323,44.7582],[11.033,44.7577],[11.034,44.7573],[11.0363,44.7584],[11.0466,44.7664],[11.0475,44.7685],[11.0523,44.7733],[11.0599,44.7792],[11.0733,44.7863],[11.0867,44.8068],[11.1133,44.8002],[11.1169,44.7963],[11.1122,44.7876],[11.1099,44.7864],[11.1026,44.7796],[11.1011,44.7744],[11.0993,44.7718]]]}},{"type":"Feature","properties":{"i":"036003","n":"Campogalliano"},"geometry":{"type":"Polygon","coordinates":[[[10.885,44.7137],[10.8856,44.7125],[10.8836,44.7076],[10.8744,44.6978],[10.8727,44.6982],[10.8701,44.6948],[10.8668,44.6855],[10.8666,44.6789],[10.8514,44.6722],[10.8533,44.6655],[10.8506,44.6582],[10.8435,44.6579],[10.837,44.66],[10.8324,44.6602],[10.8276,44.6598],[10.8153,44.6565],[10.8129,44.6612],[10.8173,44.6918],[10.8067,44.6966],[10.8062,44.6975],[10.8075,44.7014],[10.8097,44.7033],[10.8134,44.7103],[10.8198,44.7297],[10.8181,44.7384],[10.8154,44.7416],[10.8175,44.7463],[10.8193,44.7424],[10.8393,44.7369],[10.8718,44.7241],[10.8733,44.7227],[10.873,44.72],[10.869,44.7184],[10.885,44.7137]]]}},{"type":"Feature","properties":{"i":"036004","n":"Camposanto"},"geometry":{"type":"Polygon","coordinates":[[[11.1782,44.7962],[11.1778,44.7929],[11.1741,44.7914],[11.1498,44.7862],[11.1399,44.7858],[11.1349,44.7864],[11.1299,44.7829],[11.1127,44.7782],[11.106,44.7714],[11.1014,44.7712],[11.0993,44.7718],[11.1011,44.7744],[11.1026,44.7796],[11.1099,44.7864],[11.1122,44.7876],[11.1168,44.7965],[11.1133,44.8002],[11.0867,44.8068],[11.0993,44.8226],[11.1016,44.8242],[11.1049,44.8246],[11.1059,44.8265],[11.1279,44.8164],[11.1316,44.8134],[11.1379,44.8055],[11.155,44.8039],[11.2019,44.8104],[11.1935,44.8204],[11.2142,44.8263],[11.2211,44.8147],[11.222,44.8113],[11.1799,44.7977],[11.1782,44.7962]]]}},{"type":"Feature","properties":{"i":"036005","n":"Carpi"},"geometry":{"type":"Polygon","coordinates":[[[10.9669,44.8268],[10.9721,44.8252],[10.9756,44.8262],[10.9852,44.826],[11.0044,44.8157],[11.0079,44.8121],[11.0078,44.8097],[11.0053,44.8096],[11.0023,44.8073],[11.002,44.7973],[10.9977,44.7893],[10.9957,44.7884],[10.9945,44.7858],[10.9942,44.7796],[10.9954,44.7769],[10.9947,44.7724],[10.991,44.7701],[10.9842,44.7717],[10.9823,44.7754],[10.9773,44.7782],[10.973,44.7787],[10.9729,44.7758],[10.9585,44.7752],[10.9514,44.7758],[10.944,44.7826],[10.9373,44.7845],[10.9349,44.7864],[10.9381,44.7909],[10.9311,44.794],[10.9271,44.7882],[10.9145,44.7832],[10.91,44.778],[10.8998,44.7619],[10.8987,44.7595],[10.8992,44.757],[10.8981,44.7482],[10.8963,44.7433],[10.895,44.7423],[10.8888,44.7413],[10.8924,44.735],[10.8904,44.7311],[10.8914,44.726],[10.8889,44.7226],[10.8876,44.7195],[10.8884,44.7192],[10.8848,44.7134],[10.869,44.7184],[10.873,44.72],[10.8733,44.7227],[10.8718,44.7241],[10.8393,44.7369],[10.8193,44.7424],[10.8175,44.7463],[10.8176,44.7491],[10.8155,44.7546],[10.8162,44.7574],[10.8181,44.7602],[10.825,44.763],[10.8275,44.7658],[10.8382,44.7828],[10.8398,44.7932],[10.8368,44.7978],[10.8184,44.8041],[10.815,44.8072],[10.8374,44.8443],[10.8363,44.8484],[10.8387,44.8521],[10.844,44.8546],[10.8501,44.8665],[10.8602,44.8651],[10.8765,44.8666],[10.8783,44.8677],[10.8806,44.8677],[10.9073,44.8759],[10.9195,44.8827],[10.9245,44.8828],[10.9311,44.8859],[10.9333,44.8904],[10.9373,44.8899],[10.9369,44.8868],[10.9321,44.8761],[10.9287,44.8708],[10.9229,44.8668],[10.9191,44.8617],[10.9165,44.8374],[10.917,44.8344],[10.921,44.8297],[10.9262,44.8258],[10.9293,44.8237],[10.9359,44.8211],[10.937,44.8183],[10.9359,44.8043],[10.9514,44.7986],[10.9589,44.8104],[10.9633,44.8243],[10.9669,44.8268]]]}},{"type":"Feature","properties":{"i":"036006","n":"Castelfranco Emilia"},"geometry":{"type":"Polygon","coordinates":[[[11.0781,44.647],[11.1278,44.6314],[11.1183,44.6178],[11.1322,44.6091],[11.1424,44.605],[11.1439,44.6003],[11.1478,44.5925],[11.1523,44.5891],[11.1508,44.5874],[11.1403,44.5825],[11.1327,44.5759],[11.1275,44.5693],[11.1316,44.5674],[11.1275,44.5646],[11.114,44.5514],[11.1047,44.5395],[11.1123,44.5378],[11.1141,44.5362],[11.1109,44.5281],[11.1081,44.5247],[11.1023,44.5253],[11.0974,44.5278],[11.0872,44.5301],[11.0752,44.5282],[11.069,44.5253],[11.0562,44.534],[11.0558,44.5375],[11.0485,44.5486],[11.0562,44.5703],[11.0409,44.5756],[11.0448,44.5808],[11.0413,44.5886],[11.0328,44.5893],[11.0343,44.5995],[11.0155,44.607],[11.0141,44.6095],[11.0143,44.6123],[11.0102,44.6197],[11.0041,44.6269],[11.0047,44.6323],[10.9988,44.6318],[10.9961,44.6306],[10.9961,44.626],[10.9923,44.6244],[10.9894,44.626],[10.9869,44.6303],[10.9887,44.6364],[10.9869,44.6444],[10.9835,44.6455],[10.9831,44.6491],[10.9875,44.6586],[10.9907,44.6596],[10.9924,44.6625],[11.0099,44.6541],[11.0413,44.6449],[11.0498,44.6456],[11.0501,44.6494],[11.0536,44.6549],[11.0781,44.647]]]}},{"type":"Feature","properties":{"i":"036007","n":"Castelnuovo Rangone"},"geometry":{"type":"Polygon","coordinates":[[[10.9713,44.5792],[10.9735,44.5632],[10.9727,44.5597],[10.9674,44.555],[10.962,44.5535],[10.9595,44.5504],[10.9566,44.5423],[10.9535,44.5431],[10.9506,44.541],[10.9462,44.5358],[10.9284,44.5342],[10.9206,44.5373],[10.9195,44.5409],[10.9125,44.5436],[10.9193,44.5518],[10.9207,44.5545],[10.9109,44.5558],[10.8954,44.5608],[10.8885,44.5676],[10.8794,44.574],[10.8831,44.5796],[10.8916,44.5871],[10.892,44.5909],[10.8942,44.5938],[10.8973,44.5938],[10.8998,44.5927],[10.8992,44.592],[10.9032,44.5854],[10.913,44.5781],[10.9278,44.5694],[10.927,44.5681],[10.9271,44.5661],[10.9346,44.5635],[10.9433,44.5683],[10.9495,44.573],[10.9554,44.5789],[10.9655,44.5824],[10.9651,44.5788],[10.9704,44.5782],[10.9713,44.5792]]]}},{"type":"Feature","properties":{"i":"036008","n":"Castelvetro di Modena"},"geometry":{"type":"Polygon","coordinates":[[[10.9566,44.5423],[10.9875,44.5335],[10.9902,44.5307],[10.991,44.5289],[10.9851,44.5211],[10.9806,44.521],[10.9776,44.5223],[10.9745,44.5146],[10.9736,44.5067],[10.983,44.5036],[10.9614,44.4844],[10.9529,44.4804],[10.9502,44.4799],[10.944,44.4812],[10.9302,44.477],[10.9233,44.47],[10.9196,44.4624],[10.9145,44.4614],[10.9055,44.4621],[10.9014,44.4594],[10.8987,44.4562],[10.8957,44.4548],[10.8827,44.4581],[10.8803,44.4604],[10.8782,44.4683],[10.8784,44.4875],[10.8972,44.5076],[10.9009,44.5098],[10.9039,44.5094],[10.9106,44.5122],[10.9131,44.5149],[10.9126,44.5178],[10.9095,44.5198],[10.901,44.5289],[10.9019,44.5334],[10.9063,44.5388],[10.9125,44.5436],[10.9195,44.5409],[10.9206,44.5373],[10.9284,44.5342],[10.9462,44.5358],[10.9506,44.541],[10.9535,44.5431],[10.9566,44.5423]]]}},{"type":"Feature","properties":{"i":"036009","n":"Cavezzo"},"geometry":{"type":"Polygon","coordinates":[[[11.0423,44.8436],[11.0448,44.8418],[11.0443,44.8394],[11.0399,44.8295],[11.0367,44.8267],[11.0364,44.8238],[11.0376,44.8229],[11.0337,44.8206],[11.0301,44.8216],[11.0226,44.8146],[11.0122,44.8136],[11.0044,44.8157],[10.9852,44.826],[10.9756,44.8262],[10.9735,44.8252],[10.9709,44.8254],[10.9603,44.829],[10.9571,44.8316],[10.9551,44.8346],[10.9556,44.838],[10.959,44.8402],[10.9708,44.8529],[10.9712,44.8552],[10.9705,44.856],[10.9737,44.8559],[10.9771,44.8585],[10.9783,44.8638],[10.9818,44.8665],[10.9922,44.8681],[10.9963,44.8725],[10.9983,44.8675],[11.0003,44.8649],[11.0051,44.8626],[11.0128,44.8599],[11.0154,44.8603],[11.0165,44.8613],[11.0231,44.8618],[11.0274,44.8585],[11.0294,44.8546],[11.0283,44.8511],[11.0313,44.8471],[11.0423,44.8436]]]}},{"type":"Feature","properties":{"i":"036010","n":"Concordia sulla Secchia"},"geometry":{"type":"Polygon","coordinates":[[[11.0226,44.9527],[11.0303,44.9514],[11.049,44.9512],[11.0579,44.9497],[11.0595,44.9489],[11.059,44.9465],[11.0552,44.9434],[11.0562,44.9392],[11.0636,44.9357],[11.0458,44.9179],[11.0374,44.9076],[11.0356,44.9036],[11.0337,44.9024],[11.0306,44.9045],[11.0206,44.9081],[11.0111,44.9078],[11.0023,44.9088],[10.9949,44.9037],[10.9871,44.9015],[10.9746,44.8923],[10.963,44.8858],[10.9617,44.8833],[10.9617,44.8795],[10.9455,44.888],[10.949,44.8942],[10.9521,44.896],[10.9562,44.8964],[10.9636,44.9088],[10.9583,44.9142],[10.9521,44.9166],[10.9458,44.9236],[10.946,44.9244],[10.9514,44.9279],[10.9506,44.9333],[10.9672,44.9348],[10.9762,44.9419],[10.9821,44.9452],[10.9888,44.9514],[10.9975,44.9551],[11.0226,44.9527]]]}},{"type":"Feature","properties":{"i":"036011","n":"Fanano"},"geometry":{"type":"Polygon","coordinates":[[[10.8613,44.2322],[10.8501,44.2275],[10.8559,44.2127],[10.8552,44.2074],[10.8465,44.1999],[10.8404,44.1991],[10.8351,44.197],[10.8326,44.1948],[10.8282,44.1877],[10.8244,44.1836],[10.8198,44.1808],[10.8185,44.1674],[10.8078,44.1543],[10.8045,44.1399],[10.8069,44.1356],[10.8099,44.1326],[10.8148,44.1187],[10.8148,44.1162],[10.8033,44.1191],[10.8014,44.123],[10.7981,44.1263],[10.7943,44.1278],[10.7846,44.1292],[10.7733,44.1347],[10.7674,44.14],[10.7605,44.1502],[10.7577,44.1526],[10.7543,44.1541],[10.7416,44.1564],[10.715,44.1558],[10.7079,44.1597],[10.7023,44.1661],[10.7002,44.1704],[10.705,44.1854],[10.7042,44.1912],[10.7209,44.1957],[10.7256,44.1985],[10.7261,44.1997],[10.7256,44.2057],[10.7289,44.2162],[10.7583,44.2165],[10.7847,44.2182],[10.791,44.2252],[10.7928,44.2285],[10.8034,44.234],[10.7988,44.239],[10.7958,44.2408],[10.8007,44.2455],[10.8165,44.25],[10.8228,44.2504],[10.8283,44.2478],[10.8362,44.2422],[10.8508,44.2356],[10.8613,44.2322]]]}},{"type":"Feature","properties":{"i":"036012","n":"Finale Emilia"},"geometry":{"type":"Polygon","coordinates":[[[11.3664,44.8373],[11.3609,44.8379],[11.3543,44.8364],[11.3517,44.8336],[11.3401,44.8308],[11.3234,44.8326],[11.3217,44.8301],[11.3117,44.8264],[11.3092,44.8248],[11.3062,44.8176],[11.3014,44.8099],[11.2984,44.8063],[11.2933,44.8028],[11.2406,44.8047],[11.2228,44.8022],[11.2165,44.8047],[11.209,44.8044],[11.1947,44.8001],[11.1834,44.7957],[11.1782,44.7962],[11.1799,44.7977],[11.2222,44.8115],[11.2207,44.8155],[11.2142,44.8263],[11.1935,44.8204],[11.1905,44.8234],[11.1839,44.8268],[11.1814,44.8311],[11.182,44.8377],[11.1905,44.8587],[11.1914,44.8641],[11.2251,44.8872],[11.2347,44.906],[11.2406,44.9007],[11.2454,44.8983],[11.2503,44.9005],[11.2644,44.8976],[11.2808,44.8925],[11.2853,44.8901],[11.2971,44.8875],[11.3283,44.8749],[11.3376,44.8723],[11.3429,44.8725],[11.3563,44.8615],[11.3684,44.8424],[11.3685,44.8408],[11.3664,44.8373]]]}},{"type":"Feature","properties":{"i":"036013","n":"Fiorano Modenese"},"geometry":{"type":"Polygon","coordinates":[[[10.8656,44.5477],[10.8588,44.5317],[10.8527,44.5232],[10.8488,44.5136],[10.8438,44.5122],[10.8387,44.5125],[10.8262,44.506],[10.8249,44.5044],[10.8241,44.5027],[10.8286,44.4955],[10.8276,44.4945],[10.8243,44.4926],[10.8185,44.4922],[10.8133,44.4922],[10.8067,44.494],[10.7913,44.494],[10.8018,44.4996],[10.8032,44.5012],[10.8034,44.503],[10.812,44.5106],[10.8144,44.5138],[10.8125,44.5181],[10.8112,44.5193],[10.7961,44.519],[10.7918,44.5181],[10.7896,44.52],[10.789,44.5218],[10.7902,44.5242],[10.7943,44.5259],[10.8007,44.5345],[10.8023,44.5414],[10.8118,44.5672],[10.8151,44.5685],[10.8195,44.5655],[10.8257,44.5601],[10.8343,44.5507],[10.8369,44.5567],[10.8377,44.5569],[10.85,44.5504],[10.8613,44.5511],[10.8658,44.5493],[10.8656,44.5477]]]}},{"type":"Feature","properties":{"i":"036014","n":"Fiumalbo"},"geometry":{"type":"Polygon","coordinates":[[[10.7001,44.1935],[10.7042,44.1912],[10.705,44.1854],[10.7002,44.1704],[10.7023,44.1661],[10.7072,44.1604],[10.7124,44.1572],[10.7107,44.1557],[10.7089,44.155],[10.7006,44.1551],[10.6966,44.1564],[10.6892,44.1572],[10.6779,44.156],[10.6717,44.1542],[10.6616,44.154],[10.6454,44.1587],[10.644,44.1601],[10.641,44.1595],[10.6357,44.1533],[10.6332,44.1462],[10.6226,44.1412],[10.6223,44.1383],[10.6252,44.1271],[10.6241,44.1204],[10.6098,44.1186],[10.616,44.1257],[10.617,44.1353],[10.6035,44.1436],[10.602,44.1461],[10.6019,44.148],[10.6053,44.1597],[10.6068,44.1701],[10.6083,44.175],[10.6109,44.1742],[10.6157,44.1753],[10.6313,44.1863],[10.6327,44.191],[10.6305,44.1931],[10.6276,44.1989],[10.6272,44.2022],[10.6458,44.2003],[10.6795,44.2017],[10.7001,44.1935]]]}},{"type":"Feature","properties":{"i":"036015","n":"Formigine"},"geometry":{"type":"Polygon","coordinates":[[[10.894,44.5935],[10.892,44.5909],[10.8916,44.5871],[10.8831,44.5796],[10.8794,44.574],[10.8885,44.5676],[10.8954,44.5608],[10.9109,44.5558],[10.9207,44.5545],[10.9193,44.5518],[10.9125,44.5436],[10.9063,44.5388],[10.8975,44.5383],[10.8987,44.5431],[10.884,44.5437],[10.8684,44.5469],[10.8656,44.5477],[10.8658,44.5493],[10.8613,44.5511],[10.85,44.5504],[10.8377,44.5569],[10.8369,44.5567],[10.8343,44.5507],[10.8257,44.5601],[10.8195,44.5655],[10.8144,44.5692],[10.7966,44.5791],[10.7946,44.5833],[10.7937,44.5885],[10.7948,44.5966],[10.7945,44.6038],[10.7927,44.607],[10.7868,44.6065],[10.787,44.6147],[10.7862,44.6216],[10.7844,44.6248],[10.7878,44.624],[10.7972,44.6256],[10.8009,44.6241],[10.7994,44.6211],[10.808,44.6176],[10.809,44.62],[10.8239,44.6187],[10.8264,44.6171],[10.8246,44.6104],[10.8336,44.6055],[10.8352,44.6023],[10.8313,44.6012],[10.8306,44.5994],[10.8434,44.5982],[10.8554,44.602],[10.8752,44.5985],[10.8752,44.5968],[10.8814,44.5947],[10.894,44.5935]]]}},{"type":"Feature","properties":{"i":"036016","n":"Frassinoro"},"geometry":{"type":"MultiPolygon","coordinates":[[[[10.4807,44.1895],[10.4806,44.1902],[10.4818,44.1904],[10.4807,44.1895]]],[[[10.6,44.2969],[10.597,44.2912],[10.5931,44.2905],[10.5886,44.2838],[10.5866,44.2744],[10.5904,44.2683],[10.5883,44.2604],[10.5846,44.2522],[10.5834,44.2465],[10.5853,44.2418],[10.577,44.2381],[10.5441,44.2066],[10.535,44.2033],[10.5168,44.1923],[10.51,44.1869],[10.5053,44.1886],[10.4934,44.1952],[10.4892,44.1985],[10.4869,44.2025],[10.4867,44.2069],[10.4909,44.214],[10.4918,44.2176],[10.4884,44.2209],[10.4846,44.2228],[10.475,44.2238],[10.4701,44.2261],[10.4725,44.2288],[10.4807,44.2316],[10.4848,44.2357],[10.487,44.263],[10.4892,44.2643],[10.4966,44.2653],[10.5071,44.2713],[10.5104,44.274],[10.5158,44.2818],[10.5152,44.2861],[10.5109,44.298],[10.5116,44.3026],[10.5159,44.3135],[10.5253,44.328],[10.5269,44.3358],[10.5259,44.3427],[10.5264,44.3453],[10.5351,44.339],[10.5431,44.3299],[10.5579,44.3235],[10.5616,44.3236],[10.5678,44.325],[10.5785,44.325],[10.5902,44.3225],[10.6018,44.3183],[10.6043,44.3157],[10.601,44.3152],[10.5992,44.3136],[10.5944,44.3088],[10.5923,44.3054],[10.5923,44.3026],[10.5999,44.2996],[10.6,44.2969]]]]}},{"type":"Feature","properties":{"i":"036017","n":"Guiglia"},"geometry":{"type":"Polygon","coordinates":[[[10.9902,44.4405],[10.9967,44.4295],[11.0018,44.4244],[11.0033,44.4141],[11.0012,44.4057],[10.9853,44.3902],[10.9724,44.3803],[10.9684,44.3783],[10.9668,44.3763],[10.9647,44.3688],[10.965,44.3678],[10.9657,44.3668],[10.9723,44.3641],[10.9749,44.3601],[10.9745,44.3587],[10.9692,44.3565],[10.9608,44.3555],[10.9565,44.3562],[10.9501,44.3598],[10.9427,44.3601],[10.9363,44.3583],[10.9237,44.3517],[10.9193,44.3626],[10.9132,44.3816],[10.9147,44.3857],[10.9207,44.3921],[10.9232,44.3972],[10.9238,44.3995],[10.9231,44.4139],[10.9241,44.4185],[10.9329,44.4342],[10.9379,44.44],[10.9425,44.443],[10.9449,44.4416],[10.952,44.4421],[10.9608,44.4438],[10.9902,44.4405]]]}},{"type":"Feature","properties":{"i":"036018","n":"Lama Mocogno"},"geometry":{"type":"Polygon","coordinates":[[[10.762,44.327],[10.7813,44.3123],[10.7815,44.3103],[10.777,44.3072],[10.7722,44.3055],[10.7592,44.305],[10.7589,44.3021],[10.76,44.2966],[10.7421,44.2908],[10.7301,44.2827],[10.7284,44.2799],[10.7292,44.2768],[10.7218,44.2693],[10.7126,44.2719],[10.7022,44.2606],[10.6952,44.2547],[10.6867,44.2513],[10.682,44.2473],[10.6789,44.2463],[10.6657,44.2455],[10.6629,44.2525],[10.66,44.2547],[10.6571,44.2567],[10.6487,44.2583],[10.6443,44.2611],[10.6412,44.2653],[10.6413,44.2689],[10.6392,44.2731],[10.6352,44.2749],[10.6402,44.2804],[10.6429,44.2805],[10.6488,44.2871],[10.6503,44.2899],[10.6684,44.3007],[10.6751,44.3072],[10.6759,44.3168],[10.6732,44.3206],[10.6677,44.3247],[10.6669,44.3263],[10.6673,44.3275],[10.6734,44.3387],[10.6797,44.3445],[10.6854,44.3476],[10.6908,44.3522],[10.6985,44.3643],[10.7057,44.3658],[10.7049,44.3541],[10.7075,44.3396],[10.7102,44.3323],[10.7268,44.3274],[10.7328,44.3192],[10.7398,44.3172],[10.762,44.327]]]}},{"type":"Feature","properties":{"i":"036019","n":"Maranello"},"geometry":{"type":"Polygon","coordinates":[[[10.9063,44.5388],[10.9019,44.5334],[10.901,44.5289],[10.9095,44.5198],[10.9126,44.5178],[10.9131,44.5149],[10.9106,44.5122],[10.9039,44.5094],[10.9009,44.5098],[10.8972,44.5076],[10.8784,44.4875],[10.8782,44.4683],[10.8793,44.4634],[10.8695,44.4589],[10.869,44.4636],[10.8634,44.4639],[10.8517,44.4771],[10.8505,44.4823],[10.8469,44.4902],[10.8243,44.4926],[10.8286,44.4955],[10.8241,44.5027],[10.8262,44.506],[10.8387,44.5125],[10.8438,44.5122],[10.8488,44.5136],[10.8527,44.5232],[10.8588,44.5317],[10.8656,44.5477],[10.884,44.5437],[10.8987,44.5431],[10.8975,44.5383],[10.9063,44.5388]]]}},{"type":"Feature","properties":{"i":"036020","n":"Marano sul Panaro"},"geometry":{"type":"Polygon","coordinates":[[[10.9882,44.4577],[10.9854,44.456],[10.9792,44.4539],[10.9522,44.4505],[10.9379,44.44],[10.9315,44.4324],[10.9241,44.4185],[10.9231,44.4139],[10.9238,44.3995],[10.9232,44.3972],[10.9207,44.3921],[10.9147,44.3857],[10.9089,44.3868],[10.894,44.3877],[10.885,44.3854],[10.8819,44.3889],[10.8809,44.3912],[10.8841,44.3965],[10.8844,44.4017],[10.8785,44.4077],[10.8836,44.4139],[10.8772,44.4285],[10.8675,44.4334],[10.864,44.4393],[10.8664,44.4503],[10.8665,44.455],[10.8683,44.4582],[10.8793,44.4634],[10.8803,44.4604],[10.8827,44.4581],[10.8957,44.4548],[10.8987,44.4562],[10.9014,44.4594],[10.9055,44.4621],[10.9145,44.4614],[10.9196,44.4624],[10.9233,44.47],[10.9302,44.477],[10.944,44.4812],[10.9483,44.4808],[10.9573,44.4713],[10.9638,44.4696],[10.9719,44.4663],[10.9882,44.4577]]]}},{"type":"Feature","properties":{"i":"036021","n":"Medolla"},"geometry":{"type":"Polygon","coordinates":[[[11.0888,44.8745],[11.0855,44.8623],[11.0883,44.8585],[11.1029,44.8546],[11.1089,44.8546],[11.1142,44.8496],[11.1145,44.8485],[11.1142,44.8446],[11.1125,44.8397],[11.1055,44.8327],[11.1026,44.8274],[11.1059,44.8265],[11.1049,44.8246],[11.1016,44.8242],[11.0993,44.8226],[11.0867,44.8068],[11.0704,44.8094],[11.04,44.824],[11.0376,44.8229],[11.0364,44.8238],[11.0367,44.8267],[11.0399,44.8295],[11.0443,44.8394],[11.0448,44.8418],[11.0423,44.8436],[11.0436,44.8489],[11.0535,44.8571],[11.065,44.8639],[11.0739,44.8658],[11.0827,44.874],[11.0888,44.8745]]]}},{"type":"Feature","properties":{"i":"036022","n":"Mirandola"},"geometry":{"type":"Polygon","coordinates":[[[11.0887,44.9593],[11.0956,44.9577],[11.1006,44.958],[11.1204,44.9536],[11.1243,44.9514],[11.1429,44.9374],[11.1513,44.9333],[11.1535,44.9334],[11.1585,44.9381],[11.1909,44.9386],[11.2021,44.9395],[11.2054,44.9414],[11.2131,44.9435],[11.2318,44.9448],[11.2434,44.9479],[11.2462,44.9514],[11.2604,44.9331],[11.2549,44.9245],[11.2381,44.9126],[11.226,44.8881],[11.224,44.8864],[11.1884,44.8807],[11.1815,44.8793],[11.1718,44.8756],[11.1559,44.8733],[11.1471,44.8748],[11.141,44.8777],[11.1382,44.8782],[11.1329,44.8771],[11.1265,44.8728],[11.1195,44.8702],[11.1157,44.8703],[11.098,44.8754],[11.0835,44.8743],[11.0739,44.8658],[11.065,44.8639],[11.0535,44.8571],[11.0436,44.8489],[11.0423,44.8436],[11.0313,44.8471],[11.0283,44.8511],[11.0294,44.8546],[11.0274,44.8585],[11.0231,44.8618],[11.0165,44.8613],[11.0154,44.8603],[11.0128,44.8599],[11.0003,44.8649],[10.9983,44.8675],[10.9963,44.8725],[10.9976,44.8741],[11.0032,44.8788],[11.0113,44.8788],[11.0143,44.8807],[11.016,44.8843],[11.0156,44.8862],[11.0179,44.8929],[11.0306,44.8976],[11.0358,44.9009],[11.0364,44.9024],[11.0356,44.9036],[11.0374,44.9076],[11.0458,44.9179],[11.0636,44.9357],[11.0562,44.9392],[11.0552,44.9434],[11.059,44.9465],[11.0604,44.9502],[11.0721,44.9617],[11.0887,44.9593]]]}},{"type":"Feature","properties":{"i":"036023","n":"Modena"},"geometry":{"type":"MultiPolygon","coordinates":[[[[10.9659,44.7194],[10.9721,44.7141],[10.9817,44.7077],[10.9884,44.7063],[10.9964,44.7006],[11.0007,44.7006],[11.0056,44.7043],[11.0106,44.7015],[11.0087,44.6997],[11.0048,44.6986],[11.0015,44.6966],[10.9963,44.6878],[11.0087,44.6845],[10.9999,44.6741],[10.9944,44.6686],[10.9904,44.6659],[10.9906,44.6643],[10.9924,44.6625],[10.9907,44.6596],[10.9875,44.6586],[10.9831,44.6491],[10.9835,44.6455],[10.9869,44.6444],[10.9887,44.6364],[10.9869,44.6303],[10.9894,44.626],[10.9923,44.6244],[10.9961,44.626],[10.996,44.6241],[10.9983,44.6195],[11.0061,44.6126],[11.0109,44.6068],[11.0104,44.6051],[11.0023,44.5982],[10.9972,44.5991],[10.992,44.5951],[10.9914,44.5871],[10.9885,44.5727],[10.989,44.571],[10.9848,44.5694],[10.9788,44.5722],[10.9743,44.5787],[10.9718,44.5801],[10.9704,44.5782],[10.9651,44.5788],[10.9655,44.5824],[10.9554,44.5789],[10.9495,44.573],[10.9433,44.5683],[10.9346,44.5635],[10.9271,44.5661],[10.927,44.5681],[10.9278,44.5694],[10.913,44.5781],[10.9032,44.5854],[10.8992,44.592],[10.8998,44.5927],[10.8973,44.5938],[10.8814,44.5947],[10.8752,44.5968],[10.8752,44.5985],[10.8554,44.602],[10.8434,44.5982],[10.8306,44.5994],[10.8313,44.6012],[10.8352,44.6023],[10.8336,44.6055],[10.8246,44.6104],[10.8264,44.6171],[10.8239,44.6187],[10.809,44.62],[10.808,44.6176],[10.7994,44.6211],[10.8009,44.6241],[10.7972,44.6256],[10.7878,44.624],[10.7844,44.6248],[10.782,44.6278],[10.7832,44.6309],[10.7891,44.6343],[10.7932,44.6387],[10.7942,44.6415],[10.7949,44.6501],[10.7969,44.6527],[10.8046,44.6552],[10.8153,44.6565],[10.8276,44.6598],[10.836,44.6602],[10.8435,44.6579],[10.8506,44.6582],[10.8533,44.6655],[10.8514,44.6722],[10.8666,44.6789],[10.8668,44.6855],[10.8701,44.6948],[10.8727,44.6982],[10.8744,44.6978],[10.8836,44.7076],[10.8856,44.7125],[10.885,44.7137],[10.8884,44.7192],[10.8876,44.7195],[10.8889,44.7226],[10.8914,44.726],[10.8966,44.7254],[10.9006,44.7212],[10.9179,44.7168],[10.9227,44.7135],[10.9288,44.7106],[10.9281,44.7089],[10.9475,44.7046],[10.957,44.7137],[10.9659,44.7194]]],[[[10.8912,44.7289],[10.8904,44.7311],[10.8924,44.735],[10.8966,44.7304],[10.8912,44.7289]]],[[[10.895,44.7423],[10.8937,44.739],[10.8907,44.7373],[10.8888,44.7413],[10.895,44.7423]]]]}},{"type":"Feature","properties":{"i":"036024","n":"Montecreto"},"geometry":{"type":"Polygon","coordinates":[[[10.7922,44.2972],[10.7888,44.2934],[10.7814,44.2823],[10.7746,44.2747],[10.764,44.2701],[10.7558,44.2651],[10.7349,44.2444],[10.7321,44.2342],[10.7175,44.2166],[10.7123,44.2086],[10.7081,44.2003],[10.7054,44.1981],[10.7057,44.2012],[10.709,44.2097],[10.7132,44.2149],[10.7131,44.2186],[10.7059,44.2232],[10.7024,44.2246],[10.6891,44.2348],[10.6843,44.2419],[10.682,44.2473],[10.6824,44.2478],[10.6867,44.2513],[10.6952,44.2547],[10.7022,44.2606],[10.7126,44.2719],[10.7218,44.2693],[10.7292,44.2768],[10.7284,44.2799],[10.7301,44.2827],[10.744,44.2919],[10.76,44.2966],[10.7752,44.2989],[10.7893,44.2991],[10.7922,44.2972]]]}},{"type":"Feature","properties":{"i":"036025","n":"Montefiorino"},"geometry":{"type":"Polygon","coordinates":[[[10.6,44.2969],[10.5999,44.2996],[10.5923,44.3026],[10.5923,44.3054],[10.5944,44.3088],[10.5992,44.3136],[10.601,44.3152],[10.6043,44.3157],[10.6018,44.3183],[10.5902,44.3225],[10.5785,44.325],[10.5678,44.325],[10.5616,44.3236],[10.5579,44.3235],[10.5496,44.3266],[10.5431,44.3299],[10.5351,44.339],[10.5264,44.3453],[10.5277,44.35],[10.5387,44.3552],[10.5512,44.3598],[10.5855,44.3619],[10.5891,44.3614],[10.5958,44.3634],[10.6142,44.3748],[10.619,44.3793],[10.6201,44.3824],[10.6239,44.3795],[10.6391,44.3742],[10.6423,44.3718],[10.645,44.3685],[10.6485,44.3581],[10.6437,44.3416],[10.6306,44.3238],[10.6237,44.3168],[10.6118,44.2997],[10.6095,44.2978],[10.6068,44.2971],[10.6031,44.2965],[10.6,44.2969]]]}},{"type":"Feature","properties":{"i":"036026","n":"Montese"},"geometry":{"type":"Polygon","coordinates":[[[11.0022,44.306],[10.9938,44.3031],[10.9643,44.3013],[10.952,44.2949],[10.9497,44.2929],[10.9495,44.2869],[10.9601,44.2791],[10.9674,44.2787],[10.9686,44.2741],[10.9668,44.2725],[10.9661,44.2681],[10.9678,44.2632],[10.9649,44.2547],[10.9666,44.2514],[10.967,44.2434],[10.9642,44.2406],[10.9586,44.2317],[10.957,44.2263],[10.9403,44.2256],[10.9149,44.211],[10.9072,44.2054],[10.9011,44.2062],[10.8933,44.213],[10.8897,44.2245],[10.8742,44.2268],[10.8613,44.2322],[10.8694,44.235],[10.8699,44.237],[10.8604,44.2404],[10.8609,44.2482],[10.8643,44.2508],[10.867,44.2572],[10.8663,44.26],[10.8634,44.2633],[10.8639,44.2675],[10.8819,44.2843],[10.8942,44.3003],[10.8976,44.3036],[10.9065,44.307],[10.9179,44.3134],[10.9273,44.322],[10.9363,44.3166],[10.9442,44.3142],[10.9729,44.3206],[10.9784,44.3242],[10.9891,44.3252],[11.0027,44.3242],[11.0039,44.3232],[11.0065,44.3121],[11.0034,44.3068],[11.0022,44.306]]]}},{"type":"Feature","properties":{"i":"036027","n":"Nonantola"},"geometry":{"type":"Polygon","coordinates":[[[11.117,44.7104],[11.1148,44.7058],[11.0781,44.647],[11.0536,44.6549],[11.0501,44.6494],[11.0498,44.6456],[11.0413,44.6449],[11.0099,44.6541],[10.9959,44.6605],[10.9906,44.6643],[10.9904,44.6659],[10.9944,44.6686],[10.9999,44.6741],[11.0109,44.6871],[11.019,44.695],[11.0317,44.7144],[11.0376,44.718],[11.0408,44.7186],[11.0459,44.7179],[11.0491,44.7225],[11.0543,44.7213],[11.0651,44.7255],[11.0803,44.7276],[11.0889,44.7243],[11.0945,44.718],[11.1017,44.7144],[11.117,44.7104]]]}},{"type":"Feature","properties":{"i":"036028","n":"Novi di Modena"},"geometry":{"type":"Polygon","coordinates":[[[10.9617,44.8795],[10.9612,44.8744],[10.9651,44.8647],[10.9594,44.8612],[10.9583,44.8592],[10.9582,44.8569],[10.9602,44.8551],[10.9651,44.8568],[10.9696,44.8566],[10.971,44.8556],[10.9712,44.8544],[10.9704,44.8525],[10.9639,44.8453],[10.9554,44.8376],[10.9551,44.8346],[10.9571,44.8316],[10.9603,44.829],[10.9669,44.8268],[10.9633,44.8243],[10.9589,44.8104],[10.9514,44.7986],[10.9359,44.8043],[10.937,44.8183],[10.9359,44.8211],[10.9293,44.8237],[10.921,44.8297],[10.917,44.8344],[10.9165,44.8374],[10.9191,44.8617],[10.9229,44.8668],[10.9287,44.8708],[10.9321,44.8761],[10.9375,44.8897],[10.9333,44.8904],[10.9311,44.8859],[10.9245,44.8828],[10.9195,44.8827],[10.9073,44.8759],[10.8806,44.8677],[10.8783,44.8677],[10.8808,44.8706],[10.881,44.8894],[10.8774,44.8932],[10.8771,44.9019],[10.8803,44.9043],[10.8879,44.9143],[10.8903,44.9124],[10.9171,44.9241],[10.9414,44.9219],[10.946,44.9254],[10.9514,44.9279],[10.946,44.9244],[10.9458,44.9236],[10.9521,44.9166],[10.9583,44.9142],[10.9636,44.9088],[10.9562,44.8964],[10.9521,44.896],[10.949,44.8942],[10.9455,44.888],[10.9617,44.8795]]]}},{"type":"Feature","properties":{"i":"036029","n":"Palagano"},"geometry":{"type":"Polygon","coordinates":[[[10.669,44.3958],[10.6683,44.3922],[10.6689,44.3899],[10.6763,44.3851],[10.6829,44.3783],[10.6913,44.3664],[10.6974,44.3635],[10.6908,44.3522],[10.6854,44.3476],[10.6797,44.3445],[10.6734,44.3387],[10.6673,44.3275],[10.6669,44.3263],[10.6677,44.3247],[10.6732,44.3206],[10.6759,44.3168],[10.6755,44.3077],[10.6684,44.3007],[10.6503,44.2899],[10.6488,44.2871],[10.6429,44.2805],[10.6402,44.2804],[10.6352,44.2749],[10.6278,44.2727],[10.6165,44.2634],[10.585,44.2436],[10.5839,44.2443],[10.5834,44.2465],[10.5846,44.2522],[10.5883,44.2604],[10.5904,44.2683],[10.5865,44.2748],[10.5896,44.2857],[10.5931,44.2905],[10.597,44.2912],[10.6,44.2969],[10.6031,44.2965],[10.6095,44.2978],[10.6125,44.3005],[10.6237,44.3168],[10.6306,44.3238],[10.6412,44.3376],[10.6445,44.343],[10.6469,44.3513],[10.6485,44.3581],[10.645,44.3685],[10.6431,44.3712],[10.6391,44.3742],[10.6239,44.3795],[10.6201,44.3824],[10.624,44.3908],[10.6223,44.398],[10.6353,44.4015],[10.656,44.4054],[10.666,44.4032],[10.6669,44.3988],[10.669,44.3958]]]}},{"type":"Feature","properties":{"i":"036030","n":"Pavullo nel Frignano"},"geometry":{"type":"Polygon","coordinates":[[[10.9147,44.3857],[10.9132,44.3816],[10.9193,44.3626],[10.9237,44.3517],[10.9259,44.3484],[10.9291,44.3377],[10.9313,44.3337],[10.9306,44.328],[10.9273,44.322],[10.9179,44.3134],[10.9065,44.307],[10.8976,44.3036],[10.8942,44.3003],[10.8819,44.2843],[10.8652,44.269],[10.8557,44.2669],[10.8495,44.2673],[10.844,44.2696],[10.827,44.2721],[10.8123,44.2764],[10.8017,44.2893],[10.7893,44.2991],[10.7752,44.2989],[10.76,44.2966],[10.7589,44.3021],[10.7592,44.305],[10.7722,44.3055],[10.7776,44.3075],[10.7819,44.3112],[10.762,44.327],[10.7664,44.3318],[10.7691,44.3426],[10.7653,44.3508],[10.7629,44.3527],[10.7643,44.3688],[10.7642,44.3766],[10.7651,44.3779],[10.772,44.382],[10.7795,44.3817],[10.7892,44.383],[10.7923,44.3862],[10.7985,44.3897],[10.8095,44.3925],[10.8214,44.3926],[10.8255,44.3906],[10.8357,44.3899],[10.8484,44.3927],[10.857,44.3958],[10.8707,44.4023],[10.8785,44.4077],[10.8844,44.4017],[10.8841,44.3965],[10.8809,44.3912],[10.8819,44.3889],[10.885,44.3854],[10.894,44.3877],[10.9089,44.3868],[10.9147,44.3857]]]}},{"type":"Feature","properties":{"i":"036031","n":"Pievepelago"},"geometry":{"type":"Polygon","coordinates":[[[10.6272,44.2022],[10.6276,44.1989],[10.6305,44.1931],[10.6327,44.191],[10.6313,44.1863],[10.6157,44.1753],[10.6109,44.1742],[10.6083,44.175],[10.6068,44.1701],[10.6053,44.1597],[10.6017,44.1472],[10.6045,44.1428],[10.617,44.1353],[10.616,44.1257],[10.6098,44.1186],[10.6051,44.1147],[10.5931,44.1154],[10.5855,44.1186],[10.5835,44.1203],[10.5814,44.1268],[10.5758,44.1319],[10.5688,44.1365],[10.5426,44.1499],[10.5249,44.157],[10.5197,44.1672],[10.5229,44.1748],[10.51,44.1871],[10.5168,44.1923],[10.535,44.2033],[10.5441,44.2066],[10.577,44.2381],[10.5853,44.2418],[10.5901,44.2415],[10.5995,44.239],[10.6039,44.2376],[10.609,44.2343],[10.6273,44.2163],[10.6286,44.2046],[10.6272,44.2022]]]}},{"type":"Feature","properties":{"i":"036032","n":"Polinago"},"geometry":{"type":"Polygon","coordinates":[[[10.739,44.4087],[10.7469,44.3989],[10.7466,44.3957],[10.7473,44.3929],[10.7505,44.3866],[10.7603,44.3822],[10.7642,44.3766],[10.7643,44.3688],[10.7629,44.3527],[10.7653,44.3508],[10.7691,44.3426],[10.7664,44.3318],[10.762,44.327],[10.7398,44.3172],[10.7328,44.3192],[10.7268,44.3274],[10.7102,44.3323],[10.7075,44.3396],[10.7049,44.3541],[10.7057,44.3658],[10.7,44.3648],[10.6974,44.3635],[10.6925,44.3653],[10.6829,44.3783],[10.6763,44.3851],[10.6689,44.3899],[10.6683,44.3914],[10.669,44.3958],[10.6724,44.3951],[10.6845,44.3972],[10.6865,44.4017],[10.6849,44.407],[10.6881,44.4107],[10.6985,44.4186],[10.7248,44.4264],[10.7282,44.4241],[10.7339,44.4142],[10.739,44.4087]]]}},{"type":"Feature","properties":{"i":"036033","n":"Prignano sulla Secchia"},"geometry":{"type":"Polygon","coordinates":[[[10.7903,44.4923],[10.7884,44.4898],[10.7881,44.4875],[10.7912,44.4794],[10.789,44.4666],[10.786,44.4588],[10.7856,44.4598],[10.7804,44.4625],[10.7642,44.463],[10.7593,44.4567],[10.7573,44.4475],[10.7542,44.4397],[10.7538,44.4322],[10.7543,44.4277],[10.76,44.4148],[10.739,44.4087],[10.7339,44.4142],[10.7282,44.4241],[10.7248,44.4264],[10.6985,44.4186],[10.6881,44.4107],[10.6849,44.407],[10.6865,44.4017],[10.684,44.3968],[10.6724,44.3951],[10.669,44.3958],[10.6669,44.3988],[10.666,44.4032],[10.656,44.4054],[10.6353,44.4015],[10.6223,44.398],[10.6215,44.4059],[10.624,44.4083],[10.6315,44.4208],[10.6434,44.43],[10.6507,44.433],[10.6556,44.4395],[10.6537,44.445],[10.6535,44.4483],[10.6549,44.4542],[10.6576,44.4584],[10.667,44.467],[10.6706,44.4692],[10.6843,44.4723],[10.6895,44.475],[10.693,44.4776],[10.6988,44.4847],[10.7026,44.488],[10.7229,44.4992],[10.7264,44.4998],[10.7221,44.4982],[10.7211,44.4955],[10.7265,44.4897],[10.7432,44.4872],[10.7473,44.493],[10.7547,44.4994],[10.7614,44.5021],[10.766,44.501],[10.7756,44.4902],[10.7903,44.4923]]]}},{"type":"Feature","properties":{"i":"036034","n":"Ravarino"},"geometry":{"type":"Polygon","coordinates":[[[11.117,44.7104],[11.1017,44.7144],[11.0945,44.718],[11.0889,44.7243],[11.0803,44.7276],[11.0651,44.7255],[11.0536,44.7213],[11.0491,44.7225],[11.0475,44.7256],[11.0422,44.7295],[11.0418,44.7306],[11.05,44.743],[11.0589,44.7503],[11.0798,44.7605],[11.0891,44.7639],[11.0925,44.7665],[11.0967,44.7718],[11.106,44.7714],[11.1127,44.7782],[11.1299,44.7829],[11.1224,44.7486],[11.117,44.7104]]]}},{"type":"Feature","properties":{"i":"036035","n":"Riolunato"},"geometry":{"type":"Polygon","coordinates":[[[10.682,44.2473],[10.6843,44.2419],[10.6891,44.2348],[10.7024,44.2246],[10.7085,44.2218],[10.7133,44.2182],[10.7132,44.2149],[10.709,44.2097],[10.7057,44.2012],[10.7054,44.1981],[10.7001,44.1935],[10.6795,44.2017],[10.6458,44.2003],[10.6272,44.2022],[10.6286,44.2046],[10.6273,44.2163],[10.6133,44.2302],[10.609,44.2343],[10.6039,44.2376],[10.5916,44.2412],[10.5853,44.2418],[10.585,44.2436],[10.6165,44.2634],[10.6278,44.2727],[10.6352,44.2749],[10.6392,44.2731],[10.6413,44.2689],[10.6412,44.2653],[10.6443,44.2611],[10.6487,44.2583],[10.6571,44.2567],[10.66,44.2547],[10.6629,44.2525],[10.6657,44.2455],[10.6789,44.2463],[10.682,44.2473]]]}},{"type":"Feature","properties":{"i":"036036","n":"San Cesario sul Panaro"},"geometry":{"type":"Polygon","coordinates":[[[11.0562,44.534],[11.056,44.5285],[11.055,44.5263],[11.0426,44.5281],[11.0309,44.5276],[11.0302,44.532],[11.034,44.5443],[11.0337,44.5466],[11.0325,44.5482],[11.0274,44.5513],[11.0187,44.5544],[10.9998,44.5683],[10.9888,44.5713],[10.9885,44.5733],[10.9914,44.5871],[10.992,44.5951],[10.9972,44.5991],[11.0023,44.5982],[11.011,44.6062],[11.0106,44.6078],[11.0061,44.6126],[10.9983,44.6195],[10.996,44.6241],[10.9961,44.6306],[10.9988,44.6318],[11.0047,44.6323],[11.0041,44.6269],[11.0102,44.6197],[11.0143,44.6123],[11.0141,44.6095],[11.0155,44.607],[11.0343,44.5995],[11.0328,44.5893],[11.0413,44.5886],[11.0448,44.5808],[11.0409,44.5756],[11.0562,44.5703],[11.0485,44.5486],[11.0558,44.5375],[11.0562,44.534]]]}},{"type":"Feature","properties":{"i":"036037","n":"San Felice sul Panaro"},"geometry":{"type":"Polygon","coordinates":[[[11.1935,44.8204],[11.2019,44.8104],[11.159,44.8041],[11.1379,44.8055],[11.1316,44.8134],[11.1279,44.8164],[11.1026,44.8274],[11.1055,44.8327],[11.1125,44.8397],[11.1142,44.8446],[11.1144,44.8493],[11.1089,44.8546],[11.1029,44.8546],[11.0883,44.8585],[11.0855,44.8623],[11.0888,44.8745],[11.0992,44.8753],[11.1157,44.8703],[11.1195,44.8702],[11.1265,44.8728],[11.1329,44.8771],[11.1382,44.8782],[11.141,44.8777],[11.1471,44.8748],[11.1559,44.8733],[11.1718,44.8756],[11.1815,44.8793],[11.1884,44.8807],[11.224,44.8864],[11.1914,44.8641],[11.1905,44.8587],[11.1827,44.8407],[11.1814,44.8311],[11.1839,44.8268],[11.1905,44.8234],[11.1935,44.8204]]]}},{"type":"Feature","properties":{"i":"036038","n":"San Possidonio"},"geometry":{"type":"Polygon","coordinates":[[[11.0356,44.9036],[11.0364,44.9024],[11.0358,44.9009],[11.0306,44.8976],[11.0179,44.8929],[11.0156,44.8862],[11.016,44.8843],[11.015,44.8818],[11.0113,44.8788],[11.0032,44.8788],[11.0007,44.8773],[10.9922,44.8681],[10.9818,44.8665],[10.978,44.8634],[10.9771,44.8585],[10.9737,44.8559],[10.9662,44.8569],[10.9602,44.8551],[10.9584,44.8562],[10.958,44.8578],[10.9594,44.8612],[10.9651,44.8647],[10.9612,44.8744],[10.9615,44.882],[10.9626,44.8853],[10.9746,44.8923],[10.9871,44.9015],[10.9949,44.9037],[11.0023,44.9088],[11.0111,44.9078],[11.0206,44.9081],[11.0306,44.9045],[11.0337,44.9024],[11.0356,44.9036]]]}},{"type":"Feature","properties":{"i":"036039","n":"San Prospero"},"geometry":{"type":"Polygon","coordinates":[[[11.0867,44.8068],[11.0733,44.7863],[11.0599,44.7792],[11.0523,44.7733],[11.0475,44.7685],[11.0466,44.7664],[11.0363,44.7584],[11.034,44.7573],[11.033,44.7577],[11.0323,44.7582],[11.0328,44.7591],[11.0202,44.7669],[11.016,44.7661],[11.0026,44.7512],[10.9929,44.752],[10.9852,44.7491],[10.9827,44.7504],[10.9832,44.7522],[10.9898,44.756],[10.9962,44.7634],[10.9917,44.7705],[10.9947,44.7724],[10.9954,44.7769],[10.9942,44.7796],[10.9948,44.7871],[10.996,44.7887],[10.9977,44.7893],[11.002,44.7973],[11.0023,44.8073],[11.0053,44.8096],[11.0071,44.8094],[11.008,44.8101],[11.0072,44.8134],[11.0044,44.8157],[11.0122,44.8136],[11.0226,44.8146],[11.0301,44.8216],[11.0337,44.8206],[11.04,44.824],[11.0704,44.8094],[11.0867,44.8068]]]}},{"type":"Feature","properties":{"i":"036040","n":"Sassuolo"},"geometry":{"type":"Polygon","coordinates":[[[10.7913,44.494],[10.7903,44.4923],[10.7871,44.4914],[10.7758,44.4902],[10.7736,44.4918],[10.766,44.501],[10.7614,44.5021],[10.7547,44.4994],[10.7473,44.493],[10.7432,44.4872],[10.7274,44.4892],[10.7211,44.4955],[10.7221,44.4982],[10.7297,44.5009],[10.7427,44.5125],[10.7667,44.5427],[10.7752,44.564],[10.7768,44.5798],[10.7807,44.5918],[10.7853,44.5998],[10.7868,44.6065],[10.7927,44.607],[10.7945,44.6038],[10.794,44.5865],[10.7966,44.5791],[10.8151,44.5685],[10.8118,44.5672],[10.8107,44.5656],[10.8023,44.5414],[10.8007,44.5345],[10.7943,44.5259],[10.7902,44.5242],[10.789,44.5218],[10.7896,44.52],[10.7918,44.5181],[10.7961,44.519],[10.8112,44.5193],[10.8125,44.5181],[10.8144,44.5138],[10.812,44.5106],[10.8034,44.503],[10.8032,44.5012],[10.8018,44.4996],[10.7913,44.494]]]}},{"type":"Feature","properties":{"i":"036041","n":"Savignano sul Panaro"},"geometry":{"type":"Polygon","coordinates":[[[11.055,44.5263],[11.0575,44.525],[11.0583,44.5224],[11.0584,44.5129],[11.0647,44.5034],[11.0654,44.5003],[11.0634,44.4941],[11.0617,44.4919],[11.0553,44.4875],[11.0511,44.4784],[11.051,44.4714],[11.0475,44.467],[11.0285,44.461],[11.0263,44.4597],[11.0141,44.4477],[11.0093,44.4452],[10.991,44.4414],[10.9902,44.4405],[10.9608,44.4438],[10.952,44.4421],[10.9449,44.4416],[10.9425,44.443],[10.9525,44.4506],[10.9792,44.4539],[10.9852,44.4559],[10.9883,44.4576],[10.9899,44.4602],[11.0002,44.4695],[11.0064,44.4736],[11.0139,44.475],[11.0224,44.475],[11.0273,44.4776],[11.0384,44.5013],[11.0397,44.5075],[11.039,44.5124],[11.0309,44.5276],[11.0426,44.5281],[11.055,44.5263]]]}},{"type":"Feature","properties":{"i":"036042","n":"Serramazzoni"},"geometry":{"type":"Polygon","coordinates":[[[10.8243,44.4926],[10.8469,44.4902],[10.8505,44.4823],[10.8517,44.4771],[10.8634,44.4639],[10.869,44.4636],[10.8695,44.4589],[10.8669,44.4564],[10.8664,44.4503],[10.864,44.4393],[10.8675,44.4334],[10.8772,44.4285],[10.8836,44.4139],[10.8756,44.4051],[10.857,44.3958],[10.8484,44.3927],[10.8357,44.3899],[10.8255,44.3906],[10.8214,44.3926],[10.8095,44.3925],[10.7985,44.3897],[10.7923,44.3862],[10.7892,44.383],[10.7795,44.3817],[10.772,44.382],[10.7651,44.3779],[10.7642,44.3766],[10.7603,44.3822],[10.7505,44.3866],[10.7473,44.3929],[10.7466,44.3957],[10.7469,44.3989],[10.739,44.4087],[10.7529,44.4123],[10.7602,44.4152],[10.7543,44.4277],[10.7538,44.4322],[10.7542,44.4397],[10.7573,44.4475],[10.7593,44.4567],[10.7642,44.463],[10.7804,44.4625],[10.7856,44.4598],[10.786,44.4588],[10.789,44.4666],[10.7912,44.4794],[10.7881,44.4884],[10.7913,44.494],[10.8067,44.494],[10.8133,44.4922],[10.8243,44.4926]]]}},{"type":"Feature","properties":{"i":"036043","n":"Sestola"},"geometry":{"type":"Polygon","coordinates":[[[10.8652,44.269],[10.8634,44.2665],[10.8632,44.264],[10.8641,44.262],[10.8663,44.26],[10.867,44.2572],[10.8643,44.2508],[10.8609,44.2482],[10.8604,44.2404],[10.8699,44.237],[10.8694,44.235],[10.8604,44.2324],[10.8508,44.2356],[10.8362,44.2422],[10.8254,44.2494],[10.8218,44.2506],[10.8165,44.25],[10.8007,44.2455],[10.7958,44.2408],[10.7988,44.239],[10.8034,44.234],[10.7928,44.2285],[10.791,44.2252],[10.7847,44.2182],[10.7583,44.2165],[10.7295,44.2164],[10.7281,44.2145],[10.7257,44.2063],[10.7261,44.1997],[10.7256,44.1985],[10.7209,44.1957],[10.7042,44.1912],[10.7001,44.1935],[10.7081,44.2003],[10.7123,44.2086],[10.7175,44.2166],[10.7321,44.2342],[10.7349,44.2444],[10.7558,44.2651],[10.764,44.2701],[10.7746,44.2747],[10.7814,44.2823],[10.7888,44.2934],[10.7922,44.2972],[10.8017,44.2893],[10.8123,44.2764],[10.827,44.2721],[10.844,44.2696],[10.8495,44.2673],[10.8557,44.2669],[10.8652,44.269]]]}},{"type":"Feature","properties":{"i":"036044","n":"Soliera"},"geometry":{"type":"Polygon","coordinates":[[[10.9917,44.7705],[10.9958,44.7649],[10.9959,44.7627],[10.9898,44.756],[10.9832,44.7522],[10.9826,44.7506],[10.9919,44.7449],[10.995,44.7401],[10.9935,44.739],[10.9863,44.7372],[10.9849,44.7352],[10.9838,44.7306],[10.957,44.7137],[10.9478,44.7046],[10.9281,44.7089],[10.9288,44.7106],[10.9227,44.7135],[10.9179,44.7168],[10.9006,44.7212],[10.8966,44.7254],[10.8914,44.726],[10.8912,44.7289],[10.8966,44.7304],[10.8907,44.7373],[10.8937,44.739],[10.8966,44.7442],[10.8981,44.7482],[10.8992,44.757],[10.8988,44.7597],[10.9027,44.7668],[10.91,44.778],[10.9145,44.7832],[10.9271,44.7882],[10.9311,44.794],[10.9381,44.7909],[10.9349,44.7864],[10.9373,44.7845],[10.944,44.7826],[10.9514,44.7758],[10.9585,44.7752],[10.9729,44.7758],[10.973,44.7787],[10.9773,44.7782],[10.9823,44.7754],[10.9842,44.7717],[10.9909,44.77],[10.9917,44.7705]]]}},{"type":"Feature","properties":{"i":"036045","n":"Spilamberto"},"geometry":{"type":"Polygon","coordinates":[[[10.989,44.571],[10.9998,44.5683],[11.0187,44.5544],[11.0274,44.5513],[11.0325,44.5482],[11.0339,44.5459],[11.0338,44.5427],[11.0301,44.5308],[11.0311,44.5263],[11.0394,44.5114],[11.0391,44.5047],[11.0322,44.5051],[11.0157,44.5075],[11.0019,44.5104],[10.9868,44.5105],[10.9847,44.5093],[10.983,44.5036],[10.9736,44.5067],[10.974,44.5128],[10.9776,44.5223],[10.9806,44.521],[10.9851,44.5211],[10.991,44.5289],[10.9902,44.5307],[10.9875,44.5335],[10.9566,44.5423],[10.9595,44.5504],[10.962,44.5535],[10.9674,44.555],[10.9727,44.5597],[10.9735,44.5632],[10.9714,44.5802],[10.9743,44.5787],[10.9788,44.5722],[10.9848,44.5694],[10.989,44.571]]]}},{"type":"Feature","properties":{"i":"036046","n":"Vignola"},"geometry":{"type":"Polygon","coordinates":[[[11.0391,44.5047],[11.0384,44.5013],[11.0273,44.4776],[11.0224,44.475],[11.0139,44.475],[11.0064,44.4736],[11.0002,44.4695],[10.9907,44.461],[10.9882,44.4577],[10.9719,44.4663],[10.9638,44.4696],[10.9573,44.4713],[10.9483,44.4808],[10.9502,44.4799],[10.9529,44.4804],[10.9614,44.4844],[10.983,44.5036],[10.9847,44.5093],[10.9868,44.5105],[11.0032,44.5103],[11.0157,44.5075],[11.0322,44.5051],[11.0391,44.5047]]]}},{"type":"Feature","properties":{"i":"036047","n":"Zocca"},"geometry":{"type":"Polygon","coordinates":[[[11.0376,44.3426],[11.0399,44.3325],[11.038,44.3284],[11.0351,44.3252],[11.0316,44.3234],[11.0294,44.3173],[11.0263,44.3128],[11.0135,44.3009],[11.0079,44.2969],[11.0046,44.2972],[11.0038,44.3022],[11.0022,44.306],[11.0034,44.3068],[11.0065,44.3121],[11.0039,44.3232],[11.0027,44.3242],[10.9891,44.3252],[10.9784,44.3242],[10.9729,44.3206],[10.9442,44.3142],[10.9363,44.3166],[10.9273,44.322],[10.9306,44.328],[10.9313,44.3337],[10.9291,44.3377],[10.9259,44.3484],[10.9237,44.3517],[10.9363,44.3583],[10.9427,44.3601],[10.9501,44.3598],[10.9565,44.3562],[10.9608,44.3555],[10.9692,44.3565],[10.9745,44.3587],[10.9749,44.3601],[10.9723,44.3641],[10.9657,44.3668],[10.965,44.3678],[10.9647,44.3688],[10.9668,44.3763],[10.9684,44.3783],[10.9724,44.3803],[10.9853,44.3902],[11.0012,44.4057],[11.0033,44.4141],[11.0018,44.4244],[10.9967,44.4295],[11.0177,44.4301],[11.0258,44.4292],[11.0368,44.4266],[11.0401,44.4245],[11.0482,44.4161],[11.0492,44.4082],[11.0357,44.3924],[11.0288,44.3804],[11.0224,44.3735],[11.0222,44.3614],[11.0235,44.3554],[11.0281,44.3499],[11.0349,44.3465],[11.0376,44.3426]]]}}]}
