{"type":"FeatureCollection","fonte":"Confini comunali ISTAT via openpolis/geojson-italy — CC BY 4.0","features":[{"type":"Feature","properties":{"i":"045001","n":"Aulla"},"geometry":{"type":"Polygon","coordinates":[[[10.0337,44.1735],[10.0242,44.1721],[10.0247,44.1764],[10.017,44.1803],[10.0094,44.1808],[10.0035,44.1789],[9.9881,44.1675],[9.982,44.1644],[9.9757,44.1641],[9.9733,44.1671],[9.9662,44.1692],[9.9608,44.1678],[9.9547,44.1649],[9.9491,44.1677],[9.9443,44.1681],[9.9337,44.1672],[9.9218,44.17],[9.9069,44.1672],[9.8979,44.1636],[9.893,44.1665],[9.8924,44.168],[9.9205,44.1888],[9.9216,44.1898],[9.9213,44.1927],[9.9224,44.1951],[9.934,44.1966],[9.9378,44.1946],[9.9412,44.1939],[9.9609,44.2011],[9.9652,44.2043],[9.9661,44.2076],[9.9629,44.2163],[9.9633,44.2192],[9.9687,44.2228],[9.9719,44.2239],[9.9898,44.2264],[9.9901,44.2321],[10.0002,44.2384],[10.0267,44.246],[10.0345,44.2453],[10.0464,44.2489],[10.051,44.2511],[10.0592,44.2491],[10.0617,44.2467],[10.063,44.2399],[10.0619,44.228],[10.0596,44.2236],[10.0554,44.2191],[10.046,44.2202],[10.0384,44.2189],[10.0336,44.2099],[10.0327,44.206],[10.0343,44.1925],[10.0327,44.1819],[10.0337,44.1735]]]}},{"type":"Feature","properties":{"i":"045002","n":"Bagnone"},"geometry":{"type":"Polygon","coordinates":[[[10.0532,44.373],[10.0625,44.3681],[10.0669,44.3634],[10.0781,44.3567],[10.0762,44.3516],[10.0706,44.3473],[10.0681,44.3405],[10.0687,44.3364],[10.0668,44.3313],[10.0627,44.3245],[10.0548,44.3206],[10.0527,44.3178],[10.0533,44.3118],[10.0555,44.3048],[10.054,44.2998],[10.0467,44.2939],[10.0379,44.2899],[10.0091,44.2679],[10.0001,44.263],[9.9938,44.2675],[9.99,44.2764],[9.9786,44.2774],[9.9772,44.29],[9.979,44.2979],[9.9831,44.3002],[9.9852,44.3073],[9.9842,44.309],[9.9669,44.3187],[9.9685,44.3276],[9.9746,44.3411],[9.9676,44.3481],[9.9702,44.349],[9.9769,44.3562],[9.9903,44.3732],[9.9949,44.3759],[9.9997,44.3765],[10.0086,44.3805],[10.0165,44.387],[10.0302,44.3812],[10.0422,44.3743],[10.0532,44.373]]]}},{"type":"Feature","properties":{"i":"045003","n":"Carrara"},"geometry":{"type":"Polygon","coordinates":[[[10.0958,44.1252],[10.0999,44.122],[10.103,44.121],[10.1066,44.1211],[10.1152,44.1248],[10.1223,44.1239],[10.1244,44.1199],[10.1307,44.1185],[10.1367,44.1188],[10.1452,44.1124],[10.1496,44.1077],[10.1554,44.1091],[10.1594,44.1114],[10.1592,44.1091],[10.1608,44.1058],[10.1659,44.102],[10.1706,44.0965],[10.17,44.0904],[10.1638,44.0838],[10.1494,44.0731],[10.1319,44.0625],[10.1226,44.0604],[10.1129,44.0651],[10.1084,44.0645],[10.1079,44.0624],[10.1018,44.0519],[10.085,44.0412],[10.0812,44.0414],[10.0631,44.0322],[10.061,44.0307],[10.0603,44.0293],[10.0353,44.0347],[10.0188,44.0445],[10.029,44.0597],[10.0349,44.0643],[10.06,44.0794],[10.0704,44.0924],[10.0688,44.0983],[10.06,44.1058],[10.0536,44.1101],[10.0504,44.1106],[10.0483,44.1129],[10.0474,44.1151],[10.0494,44.119],[10.0583,44.1267],[10.0625,44.129],[10.0731,44.1286],[10.0891,44.124],[10.0958,44.1252]]]}},{"type":"Feature","properties":{"i":"045004","n":"Casola in Lunigiana"},"geometry":{"type":"Polygon","coordinates":[[[10.2335,44.2327],[10.23,44.2279],[10.211,44.216],[10.2046,44.2156],[10.1925,44.2103],[10.1867,44.2062],[10.1889,44.1977],[10.19,44.1892],[10.1954,44.1791],[10.1979,44.1706],[10.1947,44.1639],[10.1976,44.1588],[10.1958,44.1555],[10.1923,44.1541],[10.1872,44.142],[10.1849,44.1403],[10.183,44.1398],[10.1758,44.1481],[10.1602,44.1727],[10.1458,44.1778],[10.1387,44.1875],[10.1293,44.1934],[10.1425,44.2037],[10.153,44.2141],[10.1549,44.2202],[10.1616,44.2301],[10.1684,44.2317],[10.175,44.2376],[10.1877,44.2393],[10.2027,44.2402],[10.2242,44.2461],[10.2354,44.255],[10.2409,44.2563],[10.2434,44.2559],[10.2471,44.2535],[10.245,44.2489],[10.2335,44.2327]]]}},{"type":"Feature","properties":{"i":"045005","n":"Comano"},"geometry":{"type":"Polygon","coordinates":[[[10.142,44.3539],[10.1445,44.3533],[10.1599,44.3447],[10.1653,44.3341],[10.1685,44.3294],[10.1735,44.3276],[10.1849,44.3215],[10.1877,44.317],[10.1932,44.3151],[10.1953,44.3159],[10.2017,44.3124],[10.2033,44.3102],[10.1989,44.3073],[10.196,44.3009],[10.1944,44.2995],[10.1808,44.2937],[10.1664,44.2897],[10.1564,44.284],[10.1354,44.2795],[10.1263,44.2795],[10.1145,44.2771],[10.0949,44.2692],[10.0878,44.269],[10.0838,44.2767],[10.0831,44.2835],[10.0777,44.293],[10.0736,44.2982],[10.0738,44.3004],[10.0762,44.3025],[10.0871,44.3085],[10.0889,44.3103],[10.0913,44.3168],[10.1153,44.3334],[10.1219,44.3409],[10.1217,44.343],[10.118,44.3455],[10.1075,44.3468],[10.1017,44.3484],[10.1183,44.3529],[10.1333,44.3543],[10.142,44.3539]]]}},{"type":"Feature","properties":{"i":"045006","n":"Filattiera"},"geometry":{"type":"Polygon","coordinates":[[[10.0165,44.387],[10.0086,44.3805],[9.9997,44.3765],[9.9949,44.3759],[9.9903,44.3732],[9.9769,44.3562],[9.9702,44.349],[9.9622,44.3449],[9.9556,44.3424],[9.9528,44.3421],[9.9505,44.3405],[9.9482,44.3351],[9.947,44.3244],[9.9488,44.3183],[9.9456,44.3152],[9.9416,44.3139],[9.9389,44.3139],[9.927,44.3217],[9.9157,44.3278],[9.9108,44.3332],[9.9082,44.3376],[9.9081,44.3448],[9.8995,44.3572],[9.9019,44.3595],[9.9044,44.381],[9.926,44.3924],[9.9704,44.4036],[9.9893,44.4043],[9.994,44.4017],[9.9966,44.3983],[10.0084,44.3901],[10.0165,44.387]]]}},{"type":"Feature","properties":{"i":"045007","n":"Fivizzano"},"geometry":{"type":"Polygon","coordinates":[[[10.2539,44.2686],[10.2533,44.2659],[10.2556,44.2578],[10.2552,44.2556],[10.2542,44.2548],[10.2481,44.2534],[10.2424,44.2562],[10.2376,44.2557],[10.2354,44.255],[10.2242,44.2461],[10.2027,44.2402],[10.1877,44.2393],[10.175,44.2376],[10.1684,44.2317],[10.1616,44.2301],[10.1549,44.2202],[10.153,44.2141],[10.1425,44.2037],[10.1323,44.1955],[10.1292,44.1939],[10.1387,44.1875],[10.1458,44.1778],[10.1602,44.1727],[10.1758,44.1481],[10.1846,44.1382],[10.1862,44.1326],[10.1867,44.1246],[10.1893,44.1221],[10.1797,44.1152],[10.1776,44.1149],[10.1653,44.117],[10.1608,44.1154],[10.1593,44.113],[10.1594,44.1114],[10.1584,44.1107],[10.1554,44.1091],[10.1496,44.1077],[10.1452,44.1124],[10.1367,44.1188],[10.1307,44.1185],[10.1244,44.1199],[10.1223,44.1239],[10.1152,44.1248],[10.1066,44.1211],[10.1021,44.1211],[10.0999,44.122],[10.0958,44.1252],[10.095,44.1279],[10.0887,44.1338],[10.0832,44.1416],[10.081,44.1504],[10.0785,44.1534],[10.0762,44.1587],[10.0766,44.1617],[10.0781,44.1638],[10.0743,44.1678],[10.0645,44.1699],[10.0622,44.1682],[10.0543,44.1583],[10.0502,44.1571],[10.048,44.1679],[10.0459,44.1697],[10.0337,44.1735],[10.0327,44.1819],[10.0343,44.1925],[10.0327,44.206],[10.0358,44.2148],[10.0384,44.2189],[10.046,44.2202],[10.0554,44.2191],[10.0596,44.2236],[10.0619,44.228],[10.063,44.2399],[10.0617,44.2467],[10.0603,44.2486],[10.054,44.2505],[10.0589,44.2535],[10.0803,44.2564],[10.0844,44.2593],[10.0867,44.2675],[10.0878,44.269],[10.0949,44.2692],[10.1145,44.2771],[10.1263,44.2795],[10.1354,44.2795],[10.1564,44.284],[10.1664,44.2897],[10.1808,44.2937],[10.1944,44.2995],[10.196,44.3009],[10.1989,44.3073],[10.2033,44.3102],[10.2069,44.3051],[10.2124,44.3028],[10.2181,44.3047],[10.2263,44.3],[10.2303,44.295],[10.237,44.2816],[10.2539,44.2686]]]}},{"type":"Feature","properties":{"i":"045008","n":"Fosdinovo"},"geometry":{"type":"Polygon","coordinates":[[[10.0337,44.1735],[10.0459,44.1697],[10.048,44.1679],[10.0502,44.1571],[10.0543,44.1583],[10.0622,44.1682],[10.0645,44.1699],[10.0743,44.1678],[10.0781,44.1638],[10.0766,44.1617],[10.0762,44.1587],[10.0785,44.1534],[10.081,44.1504],[10.0832,44.1416],[10.0887,44.1338],[10.095,44.1279],[10.0958,44.1252],[10.0891,44.124],[10.0731,44.1286],[10.0625,44.129],[10.0583,44.1267],[10.0494,44.119],[10.0474,44.1151],[10.0318,44.1186],[10.0186,44.1192],[10.011,44.1147],[10.003,44.1086],[9.9933,44.0927],[9.9867,44.0969],[9.9891,44.1029],[9.9941,44.1058],[9.9951,44.1157],[9.9931,44.1204],[9.9868,44.1224],[9.9836,44.1248],[9.9773,44.1401],[9.9804,44.1451],[9.9764,44.1518],[9.9785,44.1613],[9.9757,44.1641],[9.982,44.1644],[9.9881,44.1675],[10.0035,44.1789],[10.0094,44.1808],[10.017,44.1803],[10.0247,44.1764],[10.0242,44.1721],[10.0337,44.1735]]]}},{"type":"Feature","properties":{"i":"045009","n":"Licciana Nardi"},"geometry":{"type":"Polygon","coordinates":[[[10.1017,44.3484],[10.1075,44.3468],[10.118,44.3455],[10.1217,44.343],[10.1219,44.3409],[10.1153,44.3334],[10.0913,44.3168],[10.0889,44.3103],[10.0871,44.3085],[10.0762,44.3025],[10.0738,44.3004],[10.0736,44.2982],[10.0777,44.293],[10.0831,44.2835],[10.0838,44.2767],[10.0878,44.269],[10.0867,44.2675],[10.0844,44.2593],[10.0803,44.2564],[10.0589,44.2535],[10.054,44.2505],[10.051,44.2511],[10.0464,44.2489],[10.0345,44.2453],[10.0267,44.246],[10.0002,44.2384],[9.9901,44.2321],[9.9898,44.2264],[9.9719,44.2239],[9.9687,44.2228],[9.9633,44.2192],[9.9617,44.2227],[9.9546,44.2282],[9.9563,44.2434],[9.9649,44.2433],[9.9754,44.2449],[9.9958,44.261],[10.0091,44.2679],[10.0379,44.2899],[10.0467,44.2939],[10.054,44.2998],[10.0555,44.3048],[10.0533,44.3118],[10.0527,44.3178],[10.0548,44.3206],[10.0627,44.3245],[10.0668,44.3313],[10.0687,44.3364],[10.0681,44.3405],[10.0706,44.3473],[10.0762,44.3516],[10.0781,44.3567],[10.0807,44.3571],[10.092,44.3524],[10.0949,44.3484],[10.0983,44.3463],[10.0992,44.3461],[10.1017,44.3484]]]}},{"type":"Feature","properties":{"i":"045010","n":"Massa"},"geometry":{"type":"Polygon","coordinates":[[[10.2272,44.1105],[10.233,44.1075],[10.2337,44.1021],[10.2406,44.0895],[10.242,44.0841],[10.2409,44.0814],[10.2412,44.0777],[10.2391,44.0716],[10.2358,44.0711],[10.2286,44.0669],[10.2226,44.0588],[10.2244,44.0529],[10.2239,44.0516],[10.2047,44.0382],[10.202,44.035],[10.1976,44.0343],[10.1916,44.0349],[10.1874,44.039],[10.1845,44.0392],[10.1651,44.0324],[10.155,44.0188],[10.1499,44.0134],[10.1474,44.0084],[10.1496,43.998],[10.1537,43.9943],[10.1517,43.9896],[10.1369,43.9801],[10.1158,43.9963],[10.0908,44.0126],[10.0688,44.0254],[10.0603,44.0293],[10.061,44.0307],[10.0631,44.0322],[10.0812,44.0414],[10.085,44.0412],[10.1018,44.0519],[10.1079,44.0624],[10.1084,44.0645],[10.1129,44.0651],[10.1226,44.0604],[10.1319,44.0625],[10.1494,44.0731],[10.1638,44.0838],[10.17,44.0904],[10.1708,44.0957],[10.1659,44.102],[10.1619,44.1047],[10.1601,44.107],[10.1592,44.1091],[10.1593,44.113],[10.1608,44.1154],[10.1653,44.117],[10.1776,44.1149],[10.1797,44.1152],[10.1893,44.1221],[10.1957,44.1198],[10.2021,44.1188],[10.2095,44.1187],[10.2145,44.1175],[10.2272,44.1105]]]}},{"type":"Feature","properties":{"i":"045011","n":"Montignoso"},"geometry":{"type":"Polygon","coordinates":[[[10.202,44.035],[10.2064,44.0293],[10.2056,44.0241],[10.1967,44.0176],[10.1877,44.014],[10.1842,44.0116],[10.1841,44.0075],[10.1823,44.0041],[10.1803,44.0022],[10.1734,43.9984],[10.1736,43.9874],[10.1668,43.9823],[10.156,43.981],[10.1431,43.9756],[10.1369,43.9801],[10.1517,43.9896],[10.1537,43.9943],[10.1496,43.998],[10.1474,44.0084],[10.1499,44.0134],[10.155,44.0188],[10.1651,44.0324],[10.1845,44.0392],[10.1874,44.039],[10.1916,44.0349],[10.1976,44.0343],[10.202,44.035]]]}},{"type":"Feature","properties":{"i":"045012","n":"Mulazzo"},"geometry":{"type":"Polygon","coordinates":[[[9.9078,44.3383],[9.9108,44.3332],[9.9157,44.3278],[9.927,44.3217],[9.9389,44.3139],[9.9416,44.3139],[9.9431,44.311],[9.9407,44.305],[9.9421,44.2966],[9.947,44.2828],[9.9531,44.2728],[9.9515,44.2555],[9.9468,44.2523],[9.9416,44.2539],[9.9458,44.2608],[9.9457,44.2622],[9.9388,44.268],[9.9183,44.276],[9.9136,44.2761],[9.9042,44.2729],[9.8998,44.2724],[9.892,44.2741],[9.8882,44.2772],[9.8783,44.2801],[9.8695,44.2773],[9.8544,44.2681],[9.8515,44.2709],[9.8441,44.2718],[9.8361,44.2765],[9.8353,44.2789],[9.8232,44.2816],[9.8218,44.2813],[9.8148,44.2862],[9.8198,44.29],[9.821,44.2925],[9.8207,44.2934],[9.8166,44.2951],[9.8142,44.2972],[9.8137,44.301],[9.8148,44.3109],[9.8172,44.3137],[9.8289,44.322],[9.8444,44.3237],[9.8557,44.3308],[9.8654,44.3354],[9.8774,44.3391],[9.8843,44.3399],[9.9011,44.3364],[9.9078,44.3383]]]}},{"type":"Feature","properties":{"i":"045013","n":"Podenzana"},"geometry":{"type":"MultiPolygon","coordinates":[[[[9.865,44.1807],[9.8576,44.1935],[9.8641,44.2031],[9.87,44.2175],[9.8754,44.2239],[9.8809,44.222],[9.8898,44.2105],[9.8912,44.2078],[9.8914,44.2054],[9.8805,44.2001],[9.8733,44.1952],[9.8716,44.1897],[9.865,44.1807]]],[[[9.9633,44.2192],[9.9629,44.2163],[9.9661,44.2076],[9.9652,44.2043],[9.9609,44.2011],[9.9412,44.1939],[9.9378,44.1946],[9.9285,44.1985],[9.9145,44.1996],[9.9095,44.2043],[9.9082,44.208],[9.9085,44.2098],[9.9128,44.2124],[9.9386,44.2252],[9.9515,44.2295],[9.9534,44.2293],[9.961,44.2234],[9.9633,44.2192]]]]}},{"type":"Feature","properties":{"i":"045014","n":"Pontremoli"},"geometry":{"type":"Polygon","coordinates":[[[9.9713,44.4632],[9.9696,44.4582],[9.972,44.4514],[9.9811,44.4451],[9.988,44.4451],[9.9936,44.4459],[9.996,44.447],[9.9969,44.4465],[10.0011,44.443],[10.0043,44.4373],[10.0064,44.4324],[10.0055,44.4285],[10.0025,44.4229],[9.9962,44.4156],[9.9893,44.4043],[9.9704,44.4036],[9.926,44.3924],[9.9044,44.381],[9.9019,44.3595],[9.8995,44.3572],[9.9081,44.3448],[9.9078,44.3383],[9.906,44.3377],[9.9011,44.3364],[9.8843,44.3399],[9.8774,44.3391],[9.8654,44.3354],[9.8557,44.3308],[9.8444,44.3237],[9.8289,44.322],[9.8214,44.3322],[9.8187,44.3439],[9.8239,44.3503],[9.8234,44.3613],[9.8306,44.367],[9.8351,44.3689],[9.8445,44.3673],[9.8498,44.3687],[9.8502,44.3785],[9.8484,44.3805],[9.8454,44.3825],[9.8381,44.3773],[9.8351,44.3764],[9.8193,44.3783],[9.8037,44.3776],[9.789,44.3805],[9.7785,44.3803],[9.7672,44.3868],[9.7632,44.39],[9.7605,44.39],[9.7553,44.3925],[9.7533,44.3977],[9.7529,44.4009],[9.7574,44.4072],[9.7631,44.4081],[9.7728,44.4168],[9.7812,44.4249],[9.7905,44.4369],[9.8071,44.4491],[9.8109,44.451],[9.8167,44.4521],[9.8172,44.4556],[9.8158,44.4618],[9.8197,44.4661],[9.8218,44.4668],[9.8325,44.4686],[9.8551,44.4706],[9.8746,44.4695],[9.8926,44.4702],[9.9,44.4727],[9.9015,44.4713],[9.9092,44.468],[9.9182,44.4708],[9.9331,44.4711],[9.9537,44.4684],[9.9707,44.4644],[9.9713,44.4632]]]}},{"type":"Feature","properties":{"i":"045015","n":"Tresana"},"geometry":{"type":"Polygon","coordinates":[[[9.9468,44.2523],[9.9472,44.2505],[9.9561,44.2446],[9.9546,44.2282],[9.9534,44.2293],[9.9515,44.2295],[9.9386,44.2252],[9.9085,44.2098],[9.8912,44.2078],[9.8851,44.2172],[9.8809,44.222],[9.8677,44.2275],[9.8635,44.2282],[9.857,44.234],[9.8567,44.2356],[9.859,44.2374],[9.86,44.2395],[9.8602,44.2524],[9.8561,44.2582],[9.8542,44.2677],[9.8695,44.2773],[9.8783,44.2801],[9.8882,44.2772],[9.892,44.2741],[9.8998,44.2724],[9.9042,44.2729],[9.9136,44.2761],[9.9183,44.276],[9.9388,44.268],[9.9457,44.2622],[9.9458,44.2608],[9.9416,44.2539],[9.9468,44.2523]]]}},{"type":"Feature","properties":{"i":"045016","n":"Villafranca in Lunigiana"},"geometry":{"type":"Polygon","coordinates":[[[10.0001,44.263],[9.9958,44.261],[9.9754,44.2449],[9.9649,44.2433],[9.9563,44.2434],[9.9561,44.2446],[9.9536,44.2469],[9.9472,44.2505],[9.9468,44.2523],[9.9515,44.2555],[9.9531,44.2728],[9.947,44.2828],[9.9421,44.2966],[9.9407,44.305],[9.9432,44.3108],[9.9416,44.3139],[9.9456,44.3152],[9.9488,44.3183],[9.947,44.3244],[9.9475,44.331],[9.95,44.34],[9.9528,44.3421],[9.9556,44.3424],[9.9622,44.3449],[9.9676,44.3481],[9.9746,44.3411],[9.9685,44.3276],[9.9668,44.3192],[9.9842,44.309],[9.9852,44.3073],[9.9831,44.3002],[9.979,44.2979],[9.9772,44.29],[9.9786,44.2774],[9.99,44.2764],[9.9938,44.2675],[10.0001,44.263]]]}},{"type":"Feature","properties":{"i":"045017","n":"Zeri"},"geometry":{"type":"Polygon","coordinates":[[[9.8289,44.322],[9.8172,44.3137],[9.8148,44.3109],[9.8137,44.301],[9.8142,44.2972],[9.8166,44.2951],[9.8207,44.2934],[9.8204,44.2907],[9.8131,44.2847],[9.8064,44.2828],[9.7827,44.2975],[9.7772,44.3002],[9.773,44.3007],[9.7695,44.3022],[9.7642,44.3058],[9.7639,44.3095],[9.7615,44.3141],[9.7583,44.3184],[9.7531,44.3227],[9.7424,44.3271],[9.7295,44.3283],[9.727,44.3313],[9.7153,44.3573],[9.7111,44.3636],[9.7063,44.3662],[9.6904,44.3652],[9.6867,44.3659],[9.69,44.3691],[9.7169,44.3832],[9.7254,44.3822],[9.7321,44.3794],[9.7405,44.3806],[9.7442,44.3823],[9.7448,44.3895],[9.7621,44.3905],[9.7785,44.3803],[9.789,44.3805],[9.8037,44.3776],[9.8193,44.3783],[9.836,44.3764],[9.8459,44.3825],[9.8502,44.3785],[9.8498,44.3687],[9.8445,44.3673],[9.8351,44.3689],[9.8306,44.367],[9.8234,44.3613],[9.8239,44.3503],[9.8187,44.3439],[9.8214,44.3322],[9.8289,44.322]]]}}]}
