{"type":"FeatureCollection","fonte":"Confini comunali ISTAT via openpolis/geojson-italy — CC BY 4.0","features":[{"type":"Feature","properties":{"i":"077001","n":"Accettura"},"geometry":{"type":"Polygon","coordinates":[[[16.1482,40.5438],[16.1516,40.5414],[16.1697,40.5233],[16.1703,40.5216],[16.1701,40.5145],[16.1677,40.5103],[16.1682,40.5071],[16.177,40.4967],[16.1801,40.4941],[16.1835,40.4934],[16.1952,40.4986],[16.1981,40.4984],[16.2008,40.4964],[16.2011,40.4926],[16.2029,40.4911],[16.2113,40.4885],[16.2194,40.4833],[16.2213,40.4781],[16.2269,40.4712],[16.2178,40.4588],[16.2169,40.4562],[16.2173,40.4505],[16.2115,40.4481],[16.2053,40.4441],[16.1998,40.4381],[16.1905,40.4313],[16.1754,40.4316],[16.1708,40.4298],[16.164,40.4318],[16.159,40.4364],[16.1558,40.4413],[16.1436,40.4473],[16.1407,40.4539],[16.1282,40.458],[16.118,40.4583],[16.1148,40.4603],[16.1111,40.4665],[16.0956,40.4843],[16.0967,40.4862],[16.1013,40.4888],[16.1114,40.4923],[16.1164,40.4997],[16.1161,40.5011],[16.1109,40.5083],[16.0811,40.5413],[16.0778,40.5441],[16.0757,40.5446],[16.0892,40.551],[16.096,40.5531],[16.1052,40.56],[16.1255,40.5565],[16.129,40.5538],[16.1316,40.5487],[16.1405,40.5442],[16.1482,40.5438]]]}},{"type":"Feature","properties":{"i":"077002","n":"Aliano"},"geometry":{"type":"Polygon","coordinates":[[[16.3522,40.3098],[16.3463,40.3069],[16.3334,40.3045],[16.3319,40.3036],[16.328,40.298],[16.3189,40.2797],[16.3141,40.2752],[16.3055,40.272],[16.29,40.2691],[16.2822,40.269],[16.2709,40.2708],[16.2575,40.2742],[16.2517,40.2726],[16.2452,40.2675],[16.2417,40.2665],[16.2183,40.2664],[16.2005,40.2652],[16.1955,40.2654],[16.1876,40.2907],[16.1728,40.2997],[16.1723,40.3054],[16.1707,40.3092],[16.1631,40.3115],[16.171,40.3181],[16.1855,40.3167],[16.1884,40.3169],[16.1894,40.3183],[16.1891,40.3205],[16.1837,40.3273],[16.1753,40.3308],[16.1749,40.3384],[16.1809,40.3399],[16.1951,40.3407],[16.2132,40.344],[16.2219,40.3378],[16.2281,40.3359],[16.2371,40.3362],[16.2631,40.3427],[16.2682,40.343],[16.2746,40.3418],[16.2893,40.3363],[16.322,40.3339],[16.3303,40.3298],[16.344,40.3147],[16.3522,40.3098]]]}},{"type":"Feature","properties":{"i":"077003","n":"Bernalda"},"geometry":{"type":"Polygon","coordinates":[[[16.8672,40.3979],[16.8542,40.3794],[16.8224,40.342],[16.8141,40.3441],[16.8106,40.35],[16.8017,40.3611],[16.7946,40.3635],[16.7922,40.3634],[16.7858,40.3586],[16.7819,40.3621],[16.7771,40.3741],[16.7726,40.3811],[16.7707,40.382],[16.7648,40.3837],[16.7618,40.3828],[16.7218,40.3909],[16.7209,40.3901],[16.7198,40.3862],[16.7224,40.384],[16.727,40.3828],[16.7272,40.3821],[16.7203,40.3798],[16.716,40.3797],[16.7147,40.3802],[16.7154,40.3834],[16.7138,40.3878],[16.6962,40.3845],[16.6878,40.3924],[16.6826,40.3923],[16.6796,40.3909],[16.6776,40.3875],[16.6701,40.3882],[16.6683,40.3921],[16.6699,40.3918],[16.6712,40.3932],[16.6712,40.3978],[16.6696,40.399],[16.6647,40.3974],[16.6609,40.3929],[16.6533,40.3957],[16.6548,40.3996],[16.6541,40.4033],[16.6526,40.4047],[16.6583,40.4088],[16.6593,40.4115],[16.659,40.4163],[16.6626,40.4231],[16.6653,40.4241],[16.6647,40.4287],[16.662,40.4336],[16.6513,40.4458],[16.6498,40.4514],[16.6501,40.4553],[16.6581,40.4589],[16.6757,40.4507],[16.6825,40.4421],[16.6822,40.438],[16.6848,40.4365],[16.6924,40.4351],[16.695,40.4384],[16.7028,40.4374],[16.7123,40.4308],[16.7148,40.427],[16.7144,40.4241],[16.715,40.4224],[16.7198,40.423],[16.7258,40.4267],[16.7341,40.4368],[16.7433,40.4552],[16.7495,40.4652],[16.7541,40.4701],[16.7567,40.4676],[16.7552,40.464],[16.7583,40.463],[16.7621,40.4624],[16.7855,40.4629],[16.7945,40.4611],[16.8028,40.4574],[16.8046,40.4554],[16.8083,40.4479],[16.8102,40.433],[16.8164,40.4292],[16.8288,40.4161],[16.8337,40.4124],[16.8375,40.4116],[16.8466,40.4078],[16.8534,40.4037],[16.8589,40.4038],[16.8614,40.3999],[16.8672,40.3979]]]}},{"type":"Feature","properties":{"i":"077004","n":"Calciano"},"geometry":{"type":"Polygon","coordinates":[[[16.2495,40.598],[16.2494,40.596],[16.2371,40.596],[16.2368,40.593],[16.2377,40.5916],[16.2341,40.5821],[16.227,40.5736],[16.2291,40.5706],[16.2308,40.5708],[16.2347,40.568],[16.2292,40.5637],[16.2201,40.5608],[16.2058,40.5616],[16.1987,40.5601],[16.197,40.5591],[16.1968,40.5554],[16.1953,40.5573],[16.1862,40.5626],[16.1758,40.5653],[16.1672,40.5647],[16.1644,40.5633],[16.1547,40.555],[16.1499,40.5477],[16.1482,40.5438],[16.1437,40.5436],[16.1405,40.5442],[16.1316,40.5487],[16.129,40.5538],[16.1255,40.5565],[16.1052,40.56],[16.1145,40.575],[16.121,40.5836],[16.1354,40.5861],[16.1412,40.5897],[16.1653,40.5963],[16.1756,40.5957],[16.1825,40.5968],[16.1846,40.5989],[16.1854,40.6019],[16.1843,40.6073],[16.1881,40.6101],[16.1943,40.6129],[16.2133,40.6079],[16.2235,40.6086],[16.2419,40.6224],[16.2415,40.6189],[16.2437,40.6132],[16.2503,40.6042],[16.2495,40.598]]]}},{"type":"Feature","properties":{"i":"077005","n":"Cirigliano"},"geometry":{"type":"Polygon","coordinates":[[[16.1754,40.4316],[16.177,40.4188],[16.1786,40.4152],[16.1792,40.3964],[16.177,40.3896],[16.1775,40.3869],[16.1789,40.3849],[16.1668,40.3877],[16.1593,40.3918],[16.1573,40.3937],[16.1507,40.4047],[16.1495,40.4214],[16.1459,40.4256],[16.1435,40.4276],[16.1395,40.429],[16.1279,40.4303],[16.1316,40.4355],[16.1321,40.4408],[16.1341,40.4448],[16.1385,40.4492],[16.1417,40.4511],[16.1427,40.4483],[16.1448,40.4464],[16.1558,40.4413],[16.159,40.4364],[16.164,40.4318],[16.1708,40.4298],[16.1754,40.4316]]]}},{"type":"Feature","properties":{"i":"077006","n":"Colobraro"},"geometry":{"type":"Polygon","coordinates":[[[16.4875,40.2037],[16.4739,40.1988],[16.4685,40.1956],[16.4662,40.193],[16.4559,40.1875],[16.4485,40.1856],[16.445,40.1826],[16.4402,40.1726],[16.4207,40.1635],[16.4104,40.1622],[16.3999,40.1649],[16.3847,40.1758],[16.3806,40.1761],[16.3703,40.1837],[16.3594,40.1862],[16.3532,40.1987],[16.3512,40.2004],[16.3491,40.2047],[16.3501,40.2078],[16.349,40.2155],[16.3546,40.2215],[16.3587,40.2245],[16.361,40.2315],[16.3602,40.2354],[16.3621,40.2437],[16.3698,40.2498],[16.3703,40.2533],[16.3697,40.2558],[16.375,40.2512],[16.3836,40.2474],[16.3969,40.2451],[16.4084,40.2458],[16.4101,40.2423],[16.4087,40.2393],[16.4097,40.2326],[16.4125,40.2299],[16.4183,40.2271],[16.4245,40.2255],[16.4437,40.2251],[16.4636,40.2204],[16.4875,40.2037]]]}},{"type":"Feature","properties":{"i":"077007","n":"Craco"},"geometry":{"type":"Polygon","coordinates":[[[16.4859,40.3796],[16.4919,40.3789],[16.5002,40.3748],[16.5141,40.3734],[16.5179,40.3685],[16.5186,40.3646],[16.518,40.3593],[16.5188,40.3579],[16.5107,40.3598],[16.5052,40.3585],[16.4875,40.3531],[16.4772,40.3462],[16.4761,40.3401],[16.4772,40.3199],[16.4767,40.3162],[16.4546,40.326],[16.4414,40.3277],[16.4302,40.3341],[16.4292,40.34],[16.4274,40.3412],[16.4181,40.3432],[16.4082,40.3435],[16.3988,40.3412],[16.3812,40.3424],[16.3796,40.3445],[16.3771,40.3514],[16.3781,40.356],[16.3795,40.3575],[16.3768,40.363],[16.3704,40.3718],[16.3691,40.3762],[16.3686,40.3824],[16.371,40.3981],[16.3701,40.4071],[16.3704,40.4123],[16.3725,40.417],[16.3781,40.4204],[16.3884,40.4147],[16.4218,40.4072],[16.4381,40.4014],[16.4456,40.4021],[16.4489,40.4016],[16.4519,40.4],[16.464,40.3869],[16.4755,40.3797],[16.4772,40.3792],[16.4859,40.3796]]]}},{"type":"Feature","properties":{"i":"077008","n":"Ferrandina"},"geometry":{"type":"Polygon","coordinates":[[[16.4196,40.5641],[16.4219,40.5644],[16.4276,40.5632],[16.443,40.5563],[16.4525,40.5488],[16.4549,40.5422],[16.4547,40.5399],[16.4581,40.5362],[16.4732,40.5249],[16.4743,40.5233],[16.4746,40.521],[16.4856,40.5141],[16.4967,40.5054],[16.5028,40.498],[16.5059,40.4911],[16.5041,40.4877],[16.5041,40.4847],[16.5122,40.4689],[16.5168,40.4638],[16.5244,40.4615],[16.5274,40.455],[16.5265,40.452],[16.53,40.4432],[16.5263,40.4412],[16.5127,40.4253],[16.5002,40.4042],[16.4973,40.4026],[16.494,40.3935],[16.493,40.384],[16.4859,40.3796],[16.4772,40.3792],[16.4755,40.3797],[16.464,40.3869],[16.4519,40.4],[16.4489,40.4016],[16.4456,40.4021],[16.4381,40.4014],[16.4218,40.4072],[16.3884,40.4147],[16.3781,40.4204],[16.3752,40.4209],[16.3699,40.4273],[16.3672,40.4347],[16.3679,40.4364],[16.3677,40.4383],[16.3654,40.4422],[16.3548,40.451],[16.3488,40.4541],[16.3471,40.4537],[16.3446,40.4544],[16.3391,40.4585],[16.3405,40.469],[16.3438,40.4711],[16.3488,40.4769],[16.3536,40.4855],[16.3625,40.4973],[16.3533,40.5148],[16.3552,40.5164],[16.3565,40.521],[16.3495,40.5406],[16.3494,40.5484],[16.3512,40.5534],[16.3559,40.558],[16.3708,40.5835],[16.3765,40.5815],[16.3928,40.5721],[16.4144,40.5648],[16.4196,40.5641]]]}},{"type":"Feature","properties":{"i":"077009","n":"Garaguso"},"geometry":{"type":"Polygon","coordinates":[[[16.2807,40.5905],[16.2761,40.5882],[16.2662,40.5878],[16.2546,40.5891],[16.2492,40.5871],[16.2497,40.586],[16.2613,40.5814],[16.2654,40.5762],[16.2658,40.5706],[16.2647,40.5643],[16.2665,40.5543],[16.2683,40.5512],[16.2803,40.5409],[16.2883,40.5284],[16.2895,40.5256],[16.2894,40.5223],[16.2879,40.5206],[16.2896,40.5169],[16.2487,40.5157],[16.2383,40.5187],[16.2201,40.5279],[16.2083,40.5415],[16.2056,40.5482],[16.2033,40.5514],[16.1998,40.5542],[16.1968,40.5554],[16.197,40.5591],[16.1987,40.5601],[16.2058,40.5616],[16.2201,40.5608],[16.2292,40.5637],[16.2347,40.568],[16.2308,40.5708],[16.2291,40.5706],[16.227,40.5736],[16.2341,40.5821],[16.2377,40.5916],[16.2368,40.5952],[16.2378,40.5965],[16.2494,40.596],[16.2495,40.598],[16.257,40.5972],[16.2785,40.5917],[16.2807,40.5905]]]}},{"type":"Feature","properties":{"i":"077010","n":"Gorgoglione"},"geometry":{"type":"Polygon","coordinates":[[[16.1789,40.3849],[16.1876,40.376],[16.1959,40.3646],[16.2093,40.3535],[16.212,40.349],[16.2132,40.344],[16.1951,40.3407],[16.1809,40.3399],[16.1749,40.3384],[16.1634,40.3385],[16.166,40.3475],[16.1555,40.3635],[16.1539,40.3745],[16.1199,40.3959],[16.1186,40.3979],[16.1131,40.3989],[16.1136,40.4017],[16.1131,40.4031],[16.1105,40.4045],[16.1059,40.4106],[16.1052,40.4203],[16.1103,40.4271],[16.1147,40.4295],[16.1279,40.4303],[16.1368,40.4296],[16.1435,40.4276],[16.1494,40.4218],[16.1507,40.4047],[16.1573,40.3937],[16.1593,40.3918],[16.1668,40.3877],[16.1789,40.3849]]]}},{"type":"Feature","properties":{"i":"077011","n":"Grassano"},"geometry":{"type":"Polygon","coordinates":[[[16.3034,40.6729],[16.3037,40.6681],[16.3027,40.6643],[16.3047,40.6548],[16.3059,40.6528],[16.3075,40.651],[16.3158,40.6461],[16.3216,40.6463],[16.3209,40.6404],[16.3191,40.6344],[16.315,40.6282],[16.31,40.6228],[16.3071,40.6122],[16.3091,40.5975],[16.3114,40.5924],[16.3068,40.5901],[16.2904,40.5878],[16.2835,40.5895],[16.2785,40.5917],[16.257,40.5972],[16.2495,40.598],[16.2503,40.6042],[16.2439,40.6127],[16.2415,40.6189],[16.2419,40.6224],[16.2404,40.6246],[16.2401,40.6291],[16.2367,40.6397],[16.2374,40.6415],[16.2525,40.65],[16.2597,40.6522],[16.2737,40.6518],[16.2815,40.6528],[16.2908,40.6501],[16.3022,40.6533],[16.2967,40.669],[16.293,40.6736],[16.2919,40.6732],[16.2817,40.6628],[16.2791,40.663],[16.2699,40.6694],[16.2695,40.6756],[16.2711,40.6787],[16.2823,40.6744],[16.2994,40.6743],[16.3034,40.6729]]]}},{"type":"Feature","properties":{"i":"077012","n":"Grottole"},"geometry":{"type":"Polygon","coordinates":[[[16.4551,40.6231],[16.4395,40.6126],[16.4387,40.6114],[16.436,40.6065],[16.4342,40.6003],[16.4359,40.5927],[16.4346,40.589],[16.424,40.5809],[16.4196,40.5641],[16.4144,40.5648],[16.3928,40.5721],[16.3765,40.5815],[16.3708,40.5835],[16.3709,40.584],[16.3667,40.586],[16.3575,40.5876],[16.353,40.5866],[16.3502,40.587],[16.342,40.5892],[16.3291,40.5955],[16.3147,40.5935],[16.3114,40.5924],[16.3091,40.5975],[16.3071,40.6122],[16.31,40.6228],[16.315,40.6282],[16.3187,40.6338],[16.3209,40.6404],[16.3215,40.6465],[16.3181,40.6459],[16.3171,40.6516],[16.312,40.658],[16.3151,40.6653],[16.3182,40.6674],[16.3227,40.6665],[16.3239,40.6673],[16.332,40.676],[16.3337,40.6819],[16.3371,40.6868],[16.3402,40.6862],[16.3501,40.6781],[16.3519,40.6776],[16.3544,40.68],[16.3548,40.6822],[16.3542,40.6833],[16.3642,40.6877],[16.3751,40.691],[16.379,40.6913],[16.3862,40.6944],[16.398,40.7045],[16.4002,40.7074],[16.4138,40.7019],[16.4159,40.698],[16.421,40.6827],[16.4253,40.6754],[16.4243,40.6694],[16.414,40.6568],[16.412,40.6464],[16.4154,40.6423],[16.4214,40.6391],[16.4389,40.6315],[16.4553,40.6266],[16.4551,40.6231]]]}},{"type":"Feature","properties":{"i":"077013","n":"Irsina"},"geometry":{"type":"Polygon","coordinates":[[[16.4002,40.7074],[16.398,40.7045],[16.3862,40.6944],[16.379,40.6913],[16.3751,40.691],[16.3642,40.6877],[16.3542,40.6833],[16.3548,40.6822],[16.3544,40.68],[16.3519,40.6776],[16.3501,40.6781],[16.3402,40.6862],[16.3371,40.6868],[16.3337,40.6819],[16.332,40.676],[16.3227,40.6665],[16.3195,40.667],[16.3183,40.6686],[16.3143,40.6709],[16.3079,40.6731],[16.3052,40.6736],[16.3034,40.6729],[16.2994,40.6743],[16.2823,40.6744],[16.2675,40.6796],[16.2385,40.6818],[16.2318,40.6815],[16.2272,40.679],[16.2238,40.6782],[16.2189,40.6794],[16.216,40.6803],[16.2135,40.6822],[16.2122,40.6898],[16.2105,40.6934],[16.2083,40.6949],[16.2016,40.6975],[16.1965,40.6978],[16.1793,40.7009],[16.1759,40.7035],[16.1564,40.7073],[16.1569,40.7141],[16.159,40.7182],[16.1639,40.7238],[16.1639,40.7248],[16.1629,40.7256],[16.1566,40.7252],[16.1523,40.7229],[16.1512,40.7192],[16.1491,40.72],[16.1491,40.731],[16.1422,40.7372],[16.1347,40.742],[16.1264,40.7532],[16.121,40.7631],[16.1179,40.7643],[16.1149,40.7676],[16.1174,40.7718],[16.1195,40.7732],[16.1213,40.776],[16.1217,40.7843],[16.1203,40.7904],[16.1214,40.7961],[16.1229,40.7973],[16.134,40.8016],[16.1688,40.8057],[16.1795,40.8103],[16.1872,40.8148],[16.2032,40.8211],[16.2124,40.8284],[16.2316,40.8328],[16.2407,40.836],[16.2441,40.838],[16.252,40.8333],[16.2544,40.8281],[16.2635,40.8183],[16.2699,40.8136],[16.2747,40.8069],[16.2844,40.7992],[16.2979,40.7934],[16.3162,40.7831],[16.3469,40.752],[16.3602,40.7453],[16.3794,40.737],[16.3848,40.7327],[16.4002,40.7074]]]}},{"type":"Feature","properties":{"i":"077014","n":"Matera"},"geometry":{"type":"MultiPolygon","coordinates":[[[[16.6338,40.7548],[16.6362,40.758],[16.6415,40.7559],[16.646,40.7552],[16.6465,40.7542],[16.6459,40.7525],[16.6423,40.7516],[16.6358,40.7534],[16.6338,40.7548]]],[[[16.6634,40.7489],[16.6732,40.7385],[16.7249,40.7138],[16.7087,40.7054],[16.7078,40.7084],[16.7045,40.7112],[16.6965,40.7026],[16.7091,40.693],[16.7171,40.6895],[16.7272,40.6884],[16.7257,40.6776],[16.7133,40.6421],[16.7101,40.6302],[16.7119,40.6203],[16.7142,40.6143],[16.724,40.6024],[16.7283,40.6014],[16.7208,40.5961],[16.7118,40.5928],[16.7098,40.593],[16.6953,40.5956],[16.6806,40.6009],[16.6759,40.6008],[16.6738,40.5946],[16.6721,40.5934],[16.6663,40.5929],[16.6582,40.5938],[16.6296,40.5834],[16.6108,40.5723],[16.5969,40.5665],[16.5902,40.5691],[16.5832,40.5767],[16.5775,40.587],[16.5792,40.5904],[16.579,40.5915],[16.5765,40.5949],[16.5702,40.5991],[16.5647,40.5988],[16.562,40.5972],[16.5548,40.5964],[16.5477,40.6008],[16.5394,40.6032],[16.5252,40.6023],[16.5111,40.6071],[16.5081,40.6107],[16.4785,40.6145],[16.4622,40.6191],[16.4551,40.6231],[16.4553,40.6266],[16.4389,40.6315],[16.4214,40.6391],[16.4154,40.6423],[16.412,40.6464],[16.414,40.6568],[16.4243,40.6694],[16.4253,40.6754],[16.421,40.6827],[16.4159,40.698],[16.4138,40.7019],[16.4201,40.702],[16.43,40.704],[16.462,40.7239],[16.4817,40.7392],[16.4965,40.7586],[16.5011,40.7623],[16.5067,40.7578],[16.5084,40.7534],[16.5145,40.7492],[16.5227,40.7461],[16.5238,40.7432],[16.5222,40.741],[16.5204,40.7401],[16.5235,40.7354],[16.5384,40.7254],[16.5397,40.7252],[16.544,40.7255],[16.5428,40.7297],[16.5369,40.7346],[16.5379,40.7421],[16.5313,40.7452],[16.5369,40.7529],[16.5526,40.758],[16.5545,40.7577],[16.5586,40.7545],[16.5608,40.7499],[16.5611,40.7464],[16.5683,40.7372],[16.5724,40.7369],[16.578,40.742],[16.5732,40.748],[16.569,40.7504],[16.5669,40.7533],[16.5692,40.7591],[16.5746,40.7618],[16.5856,40.7626],[16.5889,40.7603],[16.5894,40.7555],[16.5944,40.7526],[16.5991,40.7546],[16.606,40.7555],[16.6143,40.7529],[16.6271,40.7542],[16.6331,40.7534],[16.6391,40.7508],[16.6371,40.7482],[16.6403,40.7448],[16.6454,40.7454],[16.6517,40.7409],[16.6494,40.738],[16.6529,40.7363],[16.6615,40.7368],[16.6634,40.7489]]]]}},{"type":"Feature","properties":{"i":"077015","n":"Miglionico"},"geometry":{"type":"Polygon","coordinates":[[[16.5902,40.5691],[16.5869,40.5615],[16.5828,40.5562],[16.5791,40.5538],[16.5593,40.5569],[16.5534,40.5566],[16.5431,40.5503],[16.5391,40.5459],[16.5224,40.5433],[16.5139,40.5433],[16.4922,40.5475],[16.4764,40.5369],[16.4722,40.5309],[16.4686,40.5279],[16.4576,40.5366],[16.4547,40.5399],[16.4549,40.5422],[16.4525,40.5488],[16.443,40.5563],[16.4276,40.5632],[16.4219,40.5644],[16.4196,40.5641],[16.424,40.5809],[16.4346,40.589],[16.4359,40.5927],[16.4342,40.6003],[16.436,40.6065],[16.4387,40.6114],[16.4395,40.6126],[16.4551,40.6231],[16.4616,40.6193],[16.4785,40.6145],[16.5081,40.6107],[16.5111,40.6071],[16.5252,40.6023],[16.5394,40.6032],[16.5477,40.6008],[16.5548,40.5964],[16.562,40.5972],[16.5647,40.5988],[16.5702,40.5991],[16.5765,40.5949],[16.5786,40.5922],[16.5792,40.5906],[16.5776,40.5879],[16.5777,40.5865],[16.5832,40.5767],[16.5902,40.5691]]]}},{"type":"Feature","properties":{"i":"077016","n":"Montalbano Jonico"},"geometry":{"type":"Polygon","coordinates":[[[16.5188,40.3579],[16.5535,40.3495],[16.5634,40.3477],[16.5689,40.3477],[16.5762,40.3451],[16.5845,40.3454],[16.5883,40.3462],[16.6045,40.338],[16.6091,40.3377],[16.6081,40.3315],[16.6209,40.3232],[16.6286,40.3206],[16.6335,40.3199],[16.65,40.3205],[16.6594,40.3179],[16.6634,40.31],[16.6755,40.2988],[16.6877,40.2916],[16.67,40.2693],[16.6628,40.2709],[16.6615,40.2721],[16.6503,40.2692],[16.6486,40.2632],[16.6521,40.2544],[16.6466,40.2472],[16.6182,40.2526],[16.6176,40.2525],[16.617,40.2478],[16.6178,40.2437],[16.6151,40.2426],[16.61,40.2434],[16.6046,40.2469],[16.6006,40.2538],[16.587,40.2586],[16.5608,40.2628],[16.5536,40.2659],[16.543,40.2741],[16.5302,40.2806],[16.5184,40.2853],[16.5041,40.2883],[16.4968,40.289],[16.4928,40.2946],[16.4887,40.2961],[16.4848,40.3024],[16.4864,40.3064],[16.4857,40.3086],[16.4842,40.3108],[16.4788,40.3139],[16.4767,40.3162],[16.4772,40.3199],[16.4761,40.3401],[16.4772,40.3462],[16.4875,40.3531],[16.5052,40.3585],[16.5107,40.3598],[16.5188,40.3579]]]}},{"type":"Feature","properties":{"i":"077017","n":"Montescaglioso"},"geometry":{"type":"Polygon","coordinates":[[[16.7118,40.5928],[16.7158,40.5872],[16.7137,40.5765],[16.7078,40.5646],[16.7057,40.5544],[16.7057,40.5502],[16.7145,40.545],[16.7216,40.5372],[16.7225,40.5335],[16.7176,40.5262],[16.7167,40.5236],[16.7243,40.5146],[16.7311,40.5126],[16.7348,40.5124],[16.7363,40.5108],[16.7372,40.5051],[16.7362,40.5022],[16.7319,40.4962],[16.7196,40.4814],[16.7206,40.4792],[16.7328,40.4716],[16.7356,40.4679],[16.7437,40.4647],[16.7495,40.4652],[16.7433,40.4552],[16.7341,40.4368],[16.7258,40.4267],[16.7198,40.423],[16.715,40.4224],[16.7144,40.4241],[16.7148,40.427],[16.7123,40.4308],[16.7028,40.4374],[16.695,40.4384],[16.6924,40.4351],[16.6848,40.4365],[16.6822,40.438],[16.6825,40.4421],[16.6757,40.4507],[16.6581,40.4589],[16.6501,40.4553],[16.6498,40.4514],[16.6513,40.4458],[16.662,40.4336],[16.6647,40.4287],[16.6652,40.4237],[16.6626,40.4231],[16.659,40.4163],[16.6593,40.4115],[16.6583,40.4088],[16.6526,40.4047],[16.6501,40.407],[16.6478,40.4071],[16.6478,40.4028],[16.6453,40.3995],[16.6419,40.3995],[16.6413,40.4018],[16.6421,40.4043],[16.6389,40.405],[16.6343,40.4047],[16.6314,40.4022],[16.6304,40.4004],[16.6256,40.4013],[16.6246,40.4039],[16.6266,40.4107],[16.6219,40.4104],[16.6193,40.4085],[16.6173,40.4086],[16.6068,40.4199],[16.6017,40.4226],[16.6043,40.439],[16.6059,40.4432],[16.6127,40.4411],[16.6179,40.4412],[16.6326,40.4468],[16.6406,40.4564],[16.6409,40.4575],[16.639,40.4658],[16.6338,40.4705],[16.6299,40.4721],[16.626,40.4779],[16.6227,40.4892],[16.625,40.4932],[16.6278,40.5014],[16.6246,40.5057],[16.6188,40.5104],[16.5988,40.5358],[16.5937,40.5375],[16.5808,40.5493],[16.5797,40.5514],[16.5802,40.5543],[16.5828,40.5562],[16.5869,40.5615],[16.5902,40.5691],[16.5981,40.5666],[16.6119,40.5729],[16.6296,40.5834],[16.6358,40.5858],[16.6582,40.5938],[16.6663,40.5929],[16.6721,40.5934],[16.6738,40.5946],[16.6759,40.6008],[16.6806,40.6009],[16.6953,40.5956],[16.7118,40.5928]]]}},{"type":"Feature","properties":{"i":"077018","n":"Nova Siri"},"geometry":{"type":"Polygon","coordinates":[[[16.6638,40.1317],[16.6453,40.1181],[16.6394,40.1227],[16.6292,40.1281],[16.6278,40.1297],[16.6229,40.1314],[16.6201,40.1319],[16.6097,40.129],[16.6038,40.1295],[16.5873,40.1335],[16.5857,40.1334],[16.5765,40.1289],[16.5664,40.1281],[16.5619,40.1299],[16.5562,40.1285],[16.5399,40.1237],[16.53,40.1181],[16.5241,40.1229],[16.5236,40.1244],[16.5177,40.1287],[16.5031,40.1299],[16.4933,40.1335],[16.4888,40.1341],[16.483,40.1379],[16.4811,40.1417],[16.4868,40.1446],[16.4909,40.148],[16.5039,40.1525],[16.5106,40.1587],[16.5207,40.164],[16.5351,40.1695],[16.5539,40.1685],[16.567,40.1701],[16.5739,40.1695],[16.5923,40.1656],[16.5958,40.1634],[16.6029,40.1547],[16.6062,40.153],[16.62,40.1492],[16.6315,40.1483],[16.6356,40.1499],[16.6367,40.1529],[16.6439,40.1521],[16.6564,40.149],[16.6585,40.1476],[16.6598,40.144],[16.661,40.1356],[16.6638,40.1317]]]}},{"type":"Feature","properties":{"i":"077019","n":"Oliveto Lucano"},"geometry":{"type":"Polygon","coordinates":[[[16.1968,40.5554],[16.1998,40.5542],[16.2033,40.5514],[16.2056,40.5482],[16.2083,40.5415],[16.2201,40.5279],[16.2333,40.5214],[16.2171,40.52],[16.215,40.516],[16.2154,40.5139],[16.2188,40.508],[16.2179,40.5035],[16.2008,40.4964],[16.1978,40.4985],[16.1956,40.4987],[16.185,40.4938],[16.1814,40.4937],[16.177,40.4967],[16.1682,40.5071],[16.1677,40.5103],[16.1701,40.5145],[16.1703,40.5216],[16.1697,40.5233],[16.1516,40.5414],[16.1482,40.5438],[16.1499,40.5477],[16.1547,40.555],[16.1644,40.5633],[16.1672,40.5647],[16.1758,40.5653],[16.1862,40.5626],[16.1953,40.5573],[16.1968,40.5554]]]}},{"type":"Feature","properties":{"i":"077020","n":"Pisticci"},"geometry":{"type":"Polygon","coordinates":[[[16.603,40.4214],[16.6068,40.4199],[16.6173,40.4086],[16.6193,40.4085],[16.6219,40.4104],[16.6266,40.4107],[16.6246,40.4039],[16.6256,40.4013],[16.6304,40.4004],[16.6314,40.4022],[16.6343,40.4047],[16.6389,40.405],[16.6421,40.4043],[16.6413,40.4018],[16.6419,40.3995],[16.6447,40.3992],[16.6478,40.4028],[16.6482,40.4046],[16.6473,40.4055],[16.6475,40.4066],[16.6492,40.4074],[16.6542,40.4029],[16.6548,40.3991],[16.6533,40.3957],[16.6609,40.3929],[16.6652,40.3977],[16.6679,40.3989],[16.6701,40.3989],[16.6712,40.3978],[16.6712,40.3932],[16.6699,40.3918],[16.6683,40.3921],[16.6701,40.3882],[16.6776,40.3875],[16.6796,40.3909],[16.6826,40.3923],[16.6878,40.3924],[16.6962,40.3845],[16.7138,40.3878],[16.7154,40.3834],[16.7147,40.3802],[16.7196,40.3797],[16.7272,40.3821],[16.727,40.3828],[16.7224,40.384],[16.7198,40.3862],[16.7211,40.3904],[16.7226,40.3909],[16.7618,40.3828],[16.7648,40.3837],[16.7707,40.382],[16.7726,40.3811],[16.7771,40.3741],[16.7819,40.3621],[16.7858,40.3586],[16.7922,40.3634],[16.7946,40.3635],[16.8013,40.3613],[16.8062,40.3561],[16.8141,40.3441],[16.8224,40.342],[16.8185,40.3386],[16.8135,40.3306],[16.7874,40.3031],[16.7748,40.2843],[16.773,40.2874],[16.7708,40.2891],[16.764,40.2904],[16.7574,40.2903],[16.753,40.2945],[16.7497,40.2958],[16.7204,40.2963],[16.7086,40.2997],[16.7023,40.3022],[16.6813,40.3132],[16.6655,40.3158],[16.6601,40.3159],[16.6594,40.3179],[16.65,40.3205],[16.6335,40.3199],[16.6286,40.3206],[16.6173,40.325],[16.6081,40.3315],[16.6091,40.3377],[16.6045,40.338],[16.5883,40.3462],[16.5845,40.3454],[16.5762,40.3451],[16.5689,40.3477],[16.5634,40.3477],[16.5535,40.3495],[16.5194,40.3577],[16.518,40.3593],[16.5186,40.3646],[16.5179,40.3685],[16.5141,40.3734],[16.5002,40.3748],[16.4919,40.3789],[16.4859,40.3796],[16.493,40.384],[16.494,40.3935],[16.4973,40.4026],[16.5002,40.4042],[16.5127,40.4253],[16.5263,40.4412],[16.5293,40.443],[16.5322,40.4419],[16.5347,40.4423],[16.5362,40.4441],[16.5439,40.4432],[16.5558,40.4396],[16.5659,40.4333],[16.5741,40.4216],[16.5764,40.417],[16.5903,40.4206],[16.5985,40.4179],[16.5992,40.4162],[16.6002,40.4159],[16.6028,40.4189],[16.603,40.4214]]]}},{"type":"Feature","properties":{"i":"077021","n":"Policoro"},"geometry":{"type":"Polygon","coordinates":[[[16.7365,40.2106],[16.7325,40.2028],[16.7131,40.1819],[16.6899,40.1519],[16.6854,40.1472],[16.6825,40.1497],[16.6787,40.151],[16.6689,40.1501],[16.6647,40.1513],[16.6538,40.1628],[16.6414,40.1681],[16.6312,40.1743],[16.598,40.1972],[16.6012,40.2028],[16.6056,40.2077],[16.61,40.2099],[16.6244,40.2138],[16.632,40.2208],[16.6394,40.2299],[16.6407,40.2336],[16.645,40.2379],[16.659,40.241],[16.679,40.237],[16.6836,40.2294],[16.69,40.2256],[16.7255,40.2202],[16.7257,40.2186],[16.7233,40.2151],[16.7181,40.2101],[16.7185,40.2086],[16.7212,40.2063],[16.7253,40.2058],[16.7299,40.2097],[16.7365,40.2106]]]}},{"type":"Feature","properties":{"i":"077022","n":"Pomarico"},"geometry":{"type":"Polygon","coordinates":[[[16.5802,40.5543],[16.5797,40.5514],[16.5808,40.5493],[16.5937,40.5375],[16.5988,40.5358],[16.6188,40.5104],[16.6246,40.5057],[16.6278,40.5014],[16.625,40.4932],[16.6227,40.4892],[16.626,40.4779],[16.6299,40.4721],[16.6338,40.4705],[16.639,40.4658],[16.6409,40.4575],[16.6331,40.4472],[16.6307,40.4457],[16.6179,40.4412],[16.6127,40.4411],[16.6069,40.4431],[16.6056,40.4429],[16.6043,40.439],[16.6017,40.4226],[16.603,40.4214],[16.6028,40.4189],[16.6014,40.4166],[16.5999,40.4159],[16.5985,40.4179],[16.5903,40.4206],[16.5764,40.417],[16.5741,40.4216],[16.5659,40.4333],[16.5558,40.4396],[16.5439,40.4432],[16.5362,40.4441],[16.5347,40.4423],[16.5322,40.4419],[16.53,40.4432],[16.5265,40.452],[16.5274,40.455],[16.5244,40.4615],[16.5184,40.4631],[16.5144,40.4659],[16.5044,40.4839],[16.5038,40.4866],[16.5059,40.4911],[16.5028,40.498],[16.4967,40.5054],[16.4856,40.5141],[16.4746,40.521],[16.4735,40.5246],[16.4686,40.5279],[16.4722,40.5309],[16.4764,40.5369],[16.4922,40.5475],[16.5139,40.5433],[16.5224,40.5433],[16.5391,40.5459],[16.5431,40.5503],[16.5534,40.5566],[16.5593,40.5569],[16.5772,40.5538],[16.5802,40.5543]]]}},{"type":"Feature","properties":{"i":"077023","n":"Rotondella"},"geometry":{"type":"Polygon","coordinates":[[[16.598,40.1972],[16.6312,40.1743],[16.6414,40.1681],[16.6538,40.1628],[16.6647,40.1513],[16.6689,40.1501],[16.6787,40.151],[16.6825,40.1497],[16.6854,40.1472],[16.6638,40.1317],[16.661,40.1356],[16.6598,40.144],[16.6585,40.1476],[16.6564,40.149],[16.6439,40.1521],[16.6367,40.1529],[16.6356,40.1499],[16.6315,40.1483],[16.62,40.1492],[16.6062,40.153],[16.6029,40.1547],[16.5958,40.1634],[16.5923,40.1656],[16.5739,40.1695],[16.5658,40.1701],[16.5539,40.1685],[16.5351,40.1695],[16.5207,40.164],[16.5106,40.1587],[16.5039,40.1525],[16.4909,40.148],[16.4868,40.1446],[16.4811,40.1417],[16.4779,40.1424],[16.4718,40.1482],[16.4702,40.151],[16.4708,40.1563],[16.4725,40.1595],[16.4796,40.1637],[16.483,40.1702],[16.4828,40.1752],[16.4784,40.2001],[16.5099,40.2145],[16.5358,40.2224],[16.5559,40.2225],[16.5633,40.2214],[16.5676,40.2186],[16.5706,40.2153],[16.5858,40.2033],[16.598,40.1972]]]}},{"type":"Feature","properties":{"i":"077024","n":"Salandra"},"geometry":{"type":"Polygon","coordinates":[[[16.3708,40.5835],[16.3559,40.558],[16.3512,40.5534],[16.3494,40.5484],[16.3495,40.5406],[16.3565,40.521],[16.3552,40.5164],[16.3533,40.5148],[16.3625,40.4973],[16.3536,40.4855],[16.3488,40.4769],[16.3438,40.4711],[16.3405,40.469],[16.34,40.467],[16.3323,40.4716],[16.3225,40.484],[16.3154,40.4874],[16.3098,40.4887],[16.3074,40.4905],[16.3079,40.4951],[16.3114,40.5049],[16.3109,40.5076],[16.3081,40.51],[16.2952,40.5118],[16.2926,40.5133],[16.2896,40.5169],[16.2879,40.5206],[16.2894,40.5223],[16.2895,40.5256],[16.2883,40.5284],[16.2803,40.5409],[16.2683,40.5512],[16.2665,40.5543],[16.2647,40.5643],[16.2658,40.5706],[16.2654,40.5762],[16.2613,40.5814],[16.2497,40.586],[16.2492,40.5871],[16.2546,40.5891],[16.2662,40.5878],[16.2761,40.5882],[16.2807,40.5905],[16.2911,40.5878],[16.3068,40.5901],[16.3147,40.5935],[16.3291,40.5955],[16.342,40.5892],[16.353,40.5866],[16.3575,40.5876],[16.3667,40.586],[16.3709,40.584],[16.3708,40.5835]]]}},{"type":"Feature","properties":{"i":"077025","n":"San Giorgio Lucano"},"geometry":{"type":"Polygon","coordinates":[[[16.4211,40.1439],[16.4199,40.1285],[16.4177,40.1256],[16.411,40.1232],[16.4097,40.12],[16.4142,40.1095],[16.4153,40.104],[16.4134,40.0994],[16.4121,40.0921],[16.4149,40.0845],[16.4142,40.0807],[16.4064,40.0729],[16.4022,40.0635],[16.4008,40.0576],[16.3986,40.0557],[16.3868,40.0598],[16.3843,40.0619],[16.3805,40.0734],[16.383,40.0794],[16.3831,40.0813],[16.3707,40.0766],[16.3667,40.0725],[16.3625,40.0727],[16.3656,40.0794],[16.374,40.0904],[16.3739,40.092],[16.3663,40.0944],[16.361,40.0881],[16.3553,40.0909],[16.369,40.1038],[16.3756,40.109],[16.3688,40.112],[16.3592,40.114],[16.3536,40.117],[16.3594,40.1192],[16.3552,40.1222],[16.3505,40.1233],[16.3517,40.127],[16.3618,40.1383],[16.3691,40.1402],[16.3743,40.1464],[16.3835,40.1516],[16.3981,40.154],[16.4059,40.1462],[16.4107,40.1434],[16.4173,40.1456],[16.4198,40.1455],[16.4211,40.1439]]]}},{"type":"Feature","properties":{"i":"077026","n":"San Mauro Forte"},"geometry":{"type":"Polygon","coordinates":[[[16.2896,40.5169],[16.2926,40.5133],[16.2952,40.5118],[16.3081,40.51],[16.3109,40.5076],[16.3114,40.5049],[16.3079,40.4951],[16.3074,40.4905],[16.3098,40.4887],[16.3154,40.4874],[16.3225,40.484],[16.3323,40.4716],[16.34,40.467],[16.3391,40.4585],[16.3446,40.4544],[16.3471,40.4537],[16.3488,40.4541],[16.3548,40.451],[16.3654,40.4422],[16.3677,40.4383],[16.3679,40.4364],[16.3672,40.4347],[16.3699,40.4273],[16.3752,40.4209],[16.3781,40.4204],[16.3725,40.417],[16.3416,40.4219],[16.3263,40.4295],[16.3091,40.4344],[16.2961,40.436],[16.2869,40.4408],[16.2799,40.4457],[16.2704,40.4463],[16.2417,40.4452],[16.2173,40.4505],[16.2169,40.4562],[16.2178,40.4588],[16.2269,40.4712],[16.2213,40.4781],[16.2194,40.4833],[16.2113,40.4885],[16.2029,40.4911],[16.2011,40.4926],[16.2008,40.4964],[16.2179,40.5035],[16.2188,40.508],[16.2154,40.5139],[16.215,40.516],[16.2171,40.52],[16.2333,40.5214],[16.2383,40.5187],[16.2487,40.5157],[16.2896,40.5169]]]}},{"type":"Feature","properties":{"i":"077027","n":"Stigliano"},"geometry":{"type":"Polygon","coordinates":[[[16.3725,40.417],[16.3704,40.4123],[16.3701,40.4071],[16.371,40.3981],[16.3686,40.3824],[16.3691,40.3762],[16.3704,40.3718],[16.3768,40.363],[16.3795,40.3575],[16.3781,40.356],[16.3771,40.3514],[16.3809,40.3425],[16.3919,40.3411],[16.3988,40.3412],[16.4082,40.3435],[16.4181,40.3432],[16.4274,40.3412],[16.4292,40.34],[16.4302,40.3341],[16.4414,40.3277],[16.4472,40.3265],[16.4532,40.3263],[16.4593,40.3244],[16.4767,40.3162],[16.4788,40.3139],[16.4836,40.3112],[16.4864,40.307],[16.4848,40.3024],[16.4887,40.2961],[16.4928,40.2946],[16.4968,40.289],[16.4719,40.2894],[16.4681,40.2905],[16.4569,40.298],[16.4471,40.3018],[16.4395,40.3082],[16.4265,40.3168],[16.4121,40.318],[16.3863,40.3136],[16.3756,40.3104],[16.3522,40.3098],[16.344,40.3147],[16.3303,40.3298],[16.322,40.3339],[16.2893,40.3363],[16.2746,40.3418],[16.2682,40.343],[16.2631,40.3427],[16.2371,40.3362],[16.2294,40.3358],[16.223,40.3372],[16.2132,40.344],[16.212,40.349],[16.2093,40.3535],[16.1959,40.3646],[16.1876,40.376],[16.1775,40.3869],[16.1771,40.3917],[16.1792,40.3964],[16.1786,40.4152],[16.177,40.4188],[16.1754,40.4316],[16.1905,40.4313],[16.1998,40.4381],[16.2053,40.4441],[16.2115,40.4481],[16.2173,40.4505],[16.2417,40.4452],[16.2704,40.4463],[16.2799,40.4457],[16.2869,40.4408],[16.2961,40.436],[16.3091,40.4344],[16.3263,40.4295],[16.3416,40.4219],[16.3725,40.417]]]}},{"type":"Feature","properties":{"i":"077028","n":"Tricarico"},"geometry":{"type":"MultiPolygon","coordinates":[[[[15.984,40.6058],[15.9788,40.6046],[15.976,40.6048],[15.9548,40.6108],[15.9517,40.615],[15.951,40.6218],[15.9516,40.6268],[15.9414,40.6379],[15.9536,40.6484],[15.9598,40.6488],[15.9662,40.6465],[15.9733,40.6459],[15.9812,40.6488],[15.983,40.6464],[15.9807,40.6396],[15.98,40.6326],[15.9807,40.6225],[15.9824,40.6158],[15.9838,40.6142],[15.9846,40.6113],[15.984,40.6058]]],[[[16.3181,40.6459],[16.3158,40.6461],[16.3075,40.651],[16.3047,40.6548],[16.3027,40.6643],[16.3037,40.6681],[16.3034,40.6729],[16.304,40.6733],[16.3056,40.6736],[16.312,40.6719],[16.3184,40.6684],[16.3186,40.6674],[16.3151,40.6653],[16.312,40.658],[16.3171,40.6516],[16.3181,40.6459]]],[[[16.2711,40.6787],[16.2695,40.6756],[16.2699,40.6694],[16.2791,40.663],[16.2817,40.6628],[16.2919,40.6732],[16.293,40.6736],[16.2967,40.669],[16.3022,40.6533],[16.2908,40.6501],[16.2815,40.6528],[16.2737,40.6518],[16.2597,40.6522],[16.2525,40.65],[16.2374,40.6415],[16.2367,40.6397],[16.2401,40.6291],[16.2404,40.6246],[16.2419,40.6224],[16.2235,40.6086],[16.2133,40.6079],[16.1943,40.6129],[16.1881,40.6101],[16.1843,40.6073],[16.1854,40.6019],[16.1846,40.5989],[16.1825,40.5968],[16.1756,40.5957],[16.1653,40.5963],[16.1412,40.5897],[16.1354,40.5861],[16.12,40.5832],[16.1152,40.583],[16.111,40.5858],[16.1048,40.5918],[16.098,40.5964],[16.0819,40.6006],[16.0786,40.604],[16.0708,40.6206],[16.0658,40.6228],[16.0629,40.623],[16.0525,40.6289],[16.0515,40.6317],[16.0482,40.6356],[16.0555,40.6505],[16.0561,40.6564],[16.0609,40.6606],[16.0642,40.6616],[16.0689,40.6606],[16.0742,40.6607],[16.0797,40.6629],[16.0809,40.666],[16.0853,40.6683],[16.1014,40.6731],[16.1184,40.6854],[16.1283,40.6947],[16.1361,40.6971],[16.1459,40.6957],[16.1489,40.7032],[16.1472,40.7115],[16.1475,40.7154],[16.1512,40.7192],[16.1523,40.7229],[16.1566,40.7252],[16.1629,40.7256],[16.1641,40.7243],[16.159,40.7182],[16.1569,40.7141],[16.1564,40.7073],[16.1759,40.7035],[16.1793,40.7009],[16.1965,40.6978],[16.2016,40.6975],[16.2083,40.6949],[16.2105,40.6934],[16.2122,40.6898],[16.2132,40.6868],[16.2133,40.6826],[16.216,40.6803],[16.2238,40.6782],[16.2272,40.679],[16.2318,40.6815],[16.2385,40.6818],[16.2675,40.6796],[16.2711,40.6787]]]]}},{"type":"Feature","properties":{"i":"077029","n":"Tursi"},"geometry":{"type":"Polygon","coordinates":[[[16.4968,40.289],[16.5041,40.2883],[16.5184,40.2853],[16.5291,40.2811],[16.543,40.2741],[16.5536,40.2659],[16.5608,40.2628],[16.587,40.2586],[16.6006,40.2538],[16.6046,40.2469],[16.61,40.2434],[16.6158,40.2427],[16.6222,40.2453],[16.6424,40.2385],[16.6458,40.2383],[16.6414,40.2343],[16.6394,40.2299],[16.632,40.2208],[16.6244,40.2138],[16.61,40.2099],[16.6056,40.2077],[16.6012,40.2028],[16.598,40.1972],[16.5854,40.2036],[16.5793,40.208],[16.5644,40.2211],[16.5559,40.2225],[16.5431,40.2229],[16.5334,40.2218],[16.5099,40.2145],[16.4875,40.2037],[16.4636,40.2204],[16.4437,40.2251],[16.4245,40.2255],[16.4183,40.2271],[16.4125,40.2299],[16.4097,40.2326],[16.4087,40.2393],[16.4101,40.2423],[16.4084,40.2458],[16.3947,40.2454],[16.3836,40.2474],[16.375,40.2512],[16.3685,40.257],[16.3677,40.2624],[16.3727,40.2706],[16.3714,40.2779],[16.3676,40.281],[16.364,40.2879],[16.3748,40.2964],[16.3756,40.3104],[16.3863,40.3136],[16.4128,40.3181],[16.4265,40.3168],[16.4395,40.3082],[16.4471,40.3018],[16.4569,40.298],[16.4689,40.2902],[16.4719,40.2894],[16.4968,40.289]]]}},{"type":"Feature","properties":{"i":"077030","n":"Valsinni"},"geometry":{"type":"Polygon","coordinates":[[[16.4811,40.1417],[16.483,40.1379],[16.4888,40.1341],[16.4933,40.1335],[16.5031,40.1299],[16.4945,40.1247],[16.4703,40.1341],[16.4525,40.1346],[16.4439,40.1323],[16.4396,40.1302],[16.4313,40.1325],[16.4198,40.1455],[16.4152,40.1453],[16.4107,40.1434],[16.4059,40.1462],[16.3981,40.154],[16.3965,40.1538],[16.3938,40.1599],[16.3935,40.1631],[16.3954,40.1659],[16.3973,40.167],[16.3999,40.1649],[16.4096,40.1623],[16.421,40.1637],[16.4402,40.1726],[16.445,40.1826],[16.4485,40.1856],[16.4559,40.1875],[16.4662,40.193],[16.4685,40.1956],[16.4737,40.1987],[16.4784,40.2001],[16.4828,40.1752],[16.483,40.1702],[16.4796,40.1637],[16.4725,40.1595],[16.471,40.1571],[16.4699,40.1525],[16.472,40.148],[16.4783,40.1421],[16.4811,40.1417]]]}},{"type":"Feature","properties":{"i":"077031","n":"Scanzano Jonico"},"geometry":{"type":"Polygon","coordinates":[[[16.7748,40.2843],[16.7644,40.2668],[16.7521,40.2492],[16.7412,40.2247],[16.7365,40.2106],[16.7299,40.2097],[16.7253,40.2058],[16.7208,40.2065],[16.7183,40.2088],[16.7181,40.2101],[16.7233,40.2151],[16.7257,40.2186],[16.7255,40.2202],[16.69,40.2256],[16.6836,40.2294],[16.679,40.237],[16.659,40.241],[16.6458,40.2383],[16.6424,40.2385],[16.629,40.2425],[16.6227,40.2452],[16.6178,40.2437],[16.6175,40.2448],[16.6171,40.2481],[16.6176,40.2525],[16.6182,40.2526],[16.6466,40.2472],[16.6521,40.2544],[16.6486,40.2632],[16.6503,40.2692],[16.6615,40.2721],[16.6628,40.2709],[16.67,40.2693],[16.6877,40.2916],[16.6755,40.2988],[16.6634,40.31],[16.6601,40.3159],[16.6655,40.3158],[16.6813,40.3132],[16.7049,40.3009],[16.7204,40.2963],[16.7497,40.2958],[16.753,40.2945],[16.7574,40.2903],[16.764,40.2904],[16.7708,40.2891],[16.773,40.2874],[16.7748,40.2843]]]}}]}
