{"type":"FeatureCollection","fonte":"Confini comunali ISTAT via openpolis/geojson-italy — CC BY 4.0","features":[{"type":"Feature","properties":{"i":"063001","n":"Acerra"},"geometry":{"type":"Polygon","coordinates":[[[14.4148,40.997],[14.4138,40.9945],[14.4065,40.9889],[14.4048,40.9861],[14.4185,40.9816],[14.4247,40.9809],[14.427,40.9813],[14.4289,40.9841],[14.4333,40.9848],[14.4522,40.9835],[14.4546,40.9719],[14.4385,40.9584],[14.4175,40.9553],[14.4148,40.9515],[14.4142,40.9493],[14.4155,40.9446],[14.4135,40.94],[14.4038,40.9353],[14.4024,40.9309],[14.4006,40.9319],[14.3975,40.9312],[14.3859,40.9237],[14.3866,40.9217],[14.3742,40.9211],[14.3548,40.9231],[14.3615,40.9309],[14.3521,40.9444],[14.3439,40.9476],[14.3381,40.9523],[14.3387,40.9595],[14.3435,40.9616],[14.348,40.9678],[14.3515,40.9772],[14.3474,40.9842],[14.335,41.0018],[14.3461,41.0],[14.3557,41.0018],[14.3625,41.0007],[14.4062,41.0014],[14.4117,40.9998],[14.4148,40.997]]]}},{"type":"Feature","properties":{"i":"063002","n":"Afragola"},"geometry":{"type":"Polygon","coordinates":[[[14.3566,40.9374],[14.3616,40.9305],[14.3548,40.9231],[14.3448,40.9209],[14.3358,40.9117],[14.3354,40.9019],[14.3308,40.8972],[14.3293,40.9009],[14.3267,40.9039],[14.3236,40.9035],[14.315,40.905],[14.31,40.9069],[14.3072,40.9094],[14.3056,40.9134],[14.2975,40.9192],[14.2983,40.9298],[14.3058,40.94],[14.3034,40.9451],[14.3058,40.9436],[14.3124,40.9417],[14.3208,40.946],[14.3437,40.9466],[14.3461,40.9461],[14.3511,40.942],[14.3499,40.9378],[14.3509,40.9349],[14.3536,40.9354],[14.3566,40.9374]]]}},{"type":"Feature","properties":{"i":"063003","n":"Agerola"},"geometry":{"type":"MultiPolygon","coordinates":[[[[14.5721,40.6467],[14.5704,40.6451],[14.5702,40.6428],[14.5716,40.64],[14.5755,40.6377],[14.5804,40.6368],[14.5802,40.6341],[14.5774,40.6279],[14.5701,40.6235],[14.5675,40.6232],[14.5602,40.6255],[14.5565,40.6285],[14.5507,40.6235],[14.5445,40.6214],[14.5376,40.6242],[14.5294,40.6236],[14.5273,40.6219],[14.5236,40.6212],[14.5179,40.6219],[14.513,40.6279],[14.5113,40.638],[14.5118,40.6411],[14.511,40.645],[14.5094,40.6457],[14.5131,40.6493],[14.5232,40.6542],[14.5262,40.6545],[14.5344,40.6523],[14.5365,40.6592],[14.5506,40.6669],[14.5552,40.6679],[14.5552,40.6651],[14.558,40.6613],[14.5666,40.6519],[14.5705,40.6503],[14.5725,40.6484],[14.5721,40.6467]]],[[[14.5508,40.6704],[14.5417,40.668],[14.5379,40.6708],[14.5382,40.6721],[14.5508,40.6704]]]]}},{"type":"Feature","properties":{"i":"063004","n":"Anacapri"},"geometry":{"type":"Polygon","coordinates":[[[14.2174,40.5609],[14.2284,40.5565],[14.23,40.5447],[14.2311,40.5417],[14.2253,40.5406],[14.2124,40.5399],[14.197,40.5361],[14.199,40.5409],[14.198,40.5549],[14.1985,40.5598],[14.2003,40.5611],[14.2118,40.5619],[14.2174,40.5609]]]}},{"type":"Feature","properties":{"i":"063005","n":"Arzano"},"geometry":{"type":"Polygon","coordinates":[[[14.2826,40.9168],[14.2799,40.9074],[14.2806,40.9052],[14.2691,40.9021],[14.264,40.9018],[14.2551,40.9082],[14.2509,40.9082],[14.2501,40.9118],[14.2514,40.9148],[14.2572,40.9209],[14.2664,40.9239],[14.271,40.9244],[14.2826,40.9168]]]}},{"type":"Feature","properties":{"i":"063006","n":"Bacoli"},"geometry":{"type":"MultiPolygon","coordinates":[[[[14.0869,40.7932],[14.0894,40.7921],[14.0908,40.7904],[14.0857,40.793],[14.0869,40.7932]]],[[[14.0775,40.8255],[14.0721,40.8178],[14.082,40.8118],[14.0819,40.8014],[14.0876,40.7942],[14.0793,40.7924],[14.0782,40.7917],[14.0781,40.7899],[14.0802,40.7888],[14.0886,40.7872],[14.0904,40.7834],[14.0902,40.7798],[14.0891,40.7779],[14.0861,40.78],[14.084,40.7826],[14.0841,40.7848],[14.0828,40.7857],[14.0771,40.7875],[14.0648,40.7887],[14.0654,40.7969],[14.0564,40.8055],[14.0445,40.8111],[14.0461,40.8148],[14.0475,40.8248],[14.048,40.8356],[14.0474,40.8451],[14.0644,40.8461],[14.0681,40.8449],[14.0687,40.838],[14.0775,40.8255]]]]}},{"type":"Feature","properties":{"i":"063007","n":"Barano d'Ischia"},"geometry":{"type":"Polygon","coordinates":[[[13.9542,40.7073],[13.956,40.7047],[13.9541,40.7007],[13.948,40.7048],[13.9403,40.7067],[13.937,40.7062],[13.9329,40.7043],[13.9237,40.6976],[13.9209,40.6974],[13.9146,40.7002],[13.9052,40.7015],[13.9001,40.7014],[13.8968,40.7],[13.8984,40.7018],[13.9039,40.7028],[13.9064,40.7043],[13.9059,40.7299],[13.9099,40.7296],[13.9158,40.7321],[13.9273,40.7396],[13.9351,40.7342],[13.9328,40.729],[13.9342,40.7248],[13.9374,40.7228],[13.94,40.7192],[13.9407,40.7135],[13.9477,40.7082],[13.9542,40.7073]]]}},{"type":"Feature","properties":{"i":"063008","n":"Boscoreale"},"geometry":{"type":"Polygon","coordinates":[[[14.5508,40.7895],[14.5449,40.7781],[14.5353,40.7791],[14.5221,40.7778],[14.507,40.773],[14.5073,40.7692],[14.5018,40.7699],[14.4936,40.7692],[14.4835,40.7651],[14.4734,40.7565],[14.4633,40.7631],[14.466,40.7665],[14.4705,40.7701],[14.4728,40.7747],[14.4714,40.7797],[14.4664,40.7879],[14.4711,40.7866],[14.4837,40.7764],[14.4866,40.7751],[14.4996,40.7777],[14.5046,40.7881],[14.5122,40.7944],[14.5207,40.7989],[14.5272,40.7944],[14.5281,40.7928],[14.5371,40.7907],[14.5508,40.7895]]]}},{"type":"Feature","properties":{"i":"063009","n":"Boscotrecase"},"geometry":{"type":"Polygon","coordinates":[[[14.4664,40.7879],[14.4714,40.7797],[14.4728,40.7747],[14.4719,40.7723],[14.4633,40.7631],[14.4608,40.764],[14.4506,40.7612],[14.4521,40.7755],[14.4508,40.7803],[14.4432,40.7874],[14.4404,40.7961],[14.4337,40.8053],[14.4264,40.8213],[14.441,40.8046],[14.4494,40.7998],[14.4664,40.7879]]]}},{"type":"Feature","properties":{"i":"063010","n":"Brusciano"},"geometry":{"type":"Polygon","coordinates":[[[14.4282,40.9455],[14.4261,40.943],[14.425,40.9375],[14.4252,40.9319],[14.4338,40.9248],[14.4339,40.9209],[14.4334,40.9175],[14.431,40.912],[14.4295,40.91],[14.4267,40.9106],[14.4253,40.904],[14.423,40.9031],[14.4161,40.9103],[14.4165,40.9251],[14.4128,40.9286],[14.4126,40.9394],[14.4153,40.9433],[14.4142,40.9493],[14.4147,40.9512],[14.4207,40.9504],[14.421,40.9475],[14.4219,40.9465],[14.4282,40.9455]]]}},{"type":"Feature","properties":{"i":"063011","n":"Caivano"},"geometry":{"type":"Polygon","coordinates":[[[14.335,41.0018],[14.3474,40.9842],[14.3515,40.9772],[14.348,40.9678],[14.3435,40.9616],[14.3387,40.9595],[14.3381,40.9523],[14.3439,40.9476],[14.3521,40.9444],[14.3547,40.9411],[14.3566,40.9374],[14.3514,40.9346],[14.3499,40.9378],[14.3511,40.942],[14.3456,40.9463],[14.3373,40.9469],[14.3348,40.9461],[14.3208,40.946],[14.3124,40.9417],[14.3058,40.9436],[14.2961,40.9502],[14.2963,40.9522],[14.2934,40.9563],[14.2948,40.9684],[14.293,40.9697],[14.2938,40.9763],[14.2919,40.9843],[14.2913,40.9935],[14.2937,41.0017],[14.2976,41.0047],[14.3266,41.0001],[14.335,41.0018]]]}},{"type":"Feature","properties":{"i":"063012","n":"Calvizzano"},"geometry":{"type":"Polygon","coordinates":[[[14.201,40.9018],[14.1721,40.9035],[14.1598,40.9052],[14.1505,40.9137],[14.1544,40.9155],[14.1561,40.9122],[14.1649,40.9112],[14.1676,40.9131],[14.1697,40.9164],[14.194,40.9156],[14.1926,40.9112],[14.1954,40.9052],[14.201,40.9018]]]}},{"type":"Feature","properties":{"i":"063013","n":"Camposano"},"geometry":{"type":"Polygon","coordinates":[[[14.539,40.9556],[14.5395,40.9502],[14.541,40.9471],[14.5377,40.9433],[14.5333,40.943],[14.5277,40.9467],[14.5219,40.9494],[14.5186,40.9498],[14.5123,40.9528],[14.5045,40.9622],[14.5122,40.9618],[14.5277,40.9587],[14.5351,40.9587],[14.5382,40.957],[14.539,40.9556]]]}},{"type":"Feature","properties":{"i":"063014","n":"Capri"},"geometry":{"type":"MultiPolygon","coordinates":[[[[14.2529,40.5413],[14.254,40.5402],[14.2529,40.5396],[14.2522,40.5398],[14.2529,40.5413]]],[[[14.2566,40.5429],[14.256,40.543],[14.2566,40.544],[14.2571,40.5437],[14.2566,40.5429]]],[[[14.2311,40.5417],[14.23,40.5447],[14.2284,40.5565],[14.2174,40.5609],[14.2298,40.5596],[14.2417,40.5558],[14.253,40.557],[14.2602,40.5615],[14.2635,40.5604],[14.2664,40.5566],[14.2593,40.5471],[14.2534,40.5432],[14.2509,40.5434],[14.2444,40.5467],[14.2342,40.5451],[14.2318,40.5434],[14.2311,40.5417]]]]}},{"type":"Feature","properties":{"i":"063015","n":"Carbonara di Nola"},"geometry":{"type":"Polygon","coordinates":[[[14.5963,40.8568],[14.5863,40.8585],[14.5758,40.8626],[14.5702,40.8812],[14.5655,40.8802],[14.5619,40.8776],[14.5558,40.8792],[14.5554,40.88],[14.5574,40.8892],[14.5784,40.8784],[14.5871,40.8726],[14.5963,40.8568]]]}},{"type":"Feature","properties":{"i":"063016","n":"Cardito"},"geometry":{"type":"Polygon","coordinates":[[[14.3034,40.9451],[14.3057,40.9396],[14.301,40.9341],[14.2982,40.9285],[14.2895,40.9262],[14.2858,40.9313],[14.2843,40.935],[14.284,40.9429],[14.2911,40.9462],[14.2919,40.9472],[14.2913,40.9485],[14.2961,40.9502],[14.3034,40.9451]]]}},{"type":"Feature","properties":{"i":"063017","n":"Casalnuovo di Napoli"},"geometry":{"type":"Polygon","coordinates":[[[14.3742,40.9211],[14.3665,40.9104],[14.3575,40.9014],[14.3579,40.8975],[14.362,40.8924],[14.3649,40.8929],[14.3654,40.8859],[14.3582,40.8862],[14.3579,40.8921],[14.3548,40.8961],[14.348,40.8966],[14.3363,40.8936],[14.3307,40.8936],[14.3308,40.8972],[14.3354,40.9019],[14.3358,40.9117],[14.3448,40.9209],[14.3545,40.9231],[14.3742,40.9211]]]}},{"type":"Feature","properties":{"i":"063018","n":"Casamarciano"},"geometry":{"type":"Polygon","coordinates":[[[14.5853,40.934],[14.5879,40.9336],[14.5797,40.9309],[14.5718,40.9253],[14.5689,40.9266],[14.5648,40.927],[14.5652,40.9253],[14.5646,40.9245],[14.5602,40.9232],[14.5561,40.9241],[14.555,40.9257],[14.5467,40.9282],[14.5426,40.9267],[14.5358,40.937],[14.5354,40.9398],[14.5454,40.9399],[14.551,40.9449],[14.5702,40.9476],[14.5714,40.9419],[14.5731,40.9392],[14.5853,40.934]]]}},{"type":"Feature","properties":{"i":"063019","n":"Casamicciola Terme"},"geometry":{"type":"Polygon","coordinates":[[[13.9313,40.7461],[13.9302,40.7408],[13.9158,40.7321],[13.9099,40.7296],[13.8938,40.73],[13.8908,40.7405],[13.8909,40.7425],[13.8975,40.7512],[13.9084,40.749],[13.9239,40.7508],[13.928,40.7475],[13.9313,40.7461]]]}},{"type":"Feature","properties":{"i":"063020","n":"Casandrino"},"geometry":{"type":"Polygon","coordinates":[[[14.2572,40.9209],[14.2514,40.9148],[14.2428,40.9132],[14.2428,40.9164],[14.2413,40.9212],[14.2393,40.9265],[14.2374,40.9286],[14.2379,40.9331],[14.2406,40.9368],[14.2458,40.9404],[14.25,40.9405],[14.2504,40.937],[14.2552,40.9282],[14.2572,40.9209]]]}},{"type":"Feature","properties":{"i":"063021","n":"Casavatore"},"geometry":{"type":"Polygon","coordinates":[[[14.2806,40.9052],[14.2844,40.898],[14.2788,40.8911],[14.2753,40.8907],[14.2702,40.8922],[14.269,40.8975],[14.2691,40.9021],[14.2806,40.9052]]]}},{"type":"Feature","properties":{"i":"063022","n":"Casola di Napoli"},"geometry":{"type":"Polygon","coordinates":[[[14.5615,40.6898],[14.5413,40.6897],[14.5297,40.6917],[14.5281,40.6949],[14.5216,40.6998],[14.5178,40.7044],[14.5175,40.7059],[14.5279,40.7055],[14.5302,40.7007],[14.5431,40.698],[14.5494,40.6958],[14.5582,40.6922],[14.5615,40.6898]]]}},{"type":"Feature","properties":{"i":"063023","n":"Casoria"},"geometry":{"type":"Polygon","coordinates":[[[14.3308,40.8972],[14.3315,40.8865],[14.3293,40.8827],[14.3258,40.8803],[14.3231,40.8795],[14.3134,40.8785],[14.3087,40.8805],[14.3068,40.8849],[14.3001,40.891],[14.2875,40.8977],[14.2844,40.898],[14.2798,40.9069],[14.2826,40.9168],[14.2836,40.9235],[14.2895,40.9262],[14.2982,40.9285],[14.2975,40.9192],[14.3056,40.9134],[14.3072,40.9094],[14.31,40.9069],[14.315,40.905],[14.3236,40.9035],[14.3267,40.9039],[14.3293,40.9009],[14.3308,40.8972]]]}},{"type":"Feature","properties":{"i":"063024","n":"Castellammare di Stabia"},"geometry":{"type":"Polygon","coordinates":[[[14.498,40.7225],[14.5011,40.7147],[14.4992,40.7076],[14.5013,40.7044],[14.5016,40.7023],[14.501,40.6988],[14.4993,40.6964],[14.4981,40.6861],[14.5024,40.6868],[14.4902,40.6644],[14.4812,40.6683],[14.4703,40.6705],[14.4591,40.6743],[14.4542,40.6792],[14.4419,40.6833],[14.4508,40.6885],[14.4636,40.6925],[14.4706,40.693],[14.4709,40.6918],[14.4734,40.6915],[14.4783,40.6953],[14.482,40.7032],[14.4788,40.7125],[14.4728,40.7218],[14.4739,40.7158],[14.4732,40.7155],[14.4707,40.7221],[14.4705,40.7288],[14.4752,40.7291],[14.4764,40.7303],[14.4771,40.7381],[14.4792,40.7418],[14.4808,40.7409],[14.4819,40.7369],[14.4878,40.7288],[14.4933,40.7283],[14.498,40.7225]]]}},{"type":"Feature","properties":{"i":"063025","n":"Castello di Cisterna"},"geometry":{"type":"Polygon","coordinates":[[[14.423,40.9031],[14.4191,40.9011],[14.4189,40.8979],[14.4176,40.896],[14.413,40.8992],[14.4037,40.9126],[14.403,40.9171],[14.4044,40.921],[14.4049,40.9275],[14.4048,40.9291],[14.4024,40.9309],[14.4033,40.9347],[14.4112,40.939],[14.4126,40.9394],[14.4128,40.9286],[14.4165,40.9251],[14.4161,40.9103],[14.423,40.9031]]]}},{"type":"Feature","properties":{"i":"063026","n":"Cercola"},"geometry":{"type":"Polygon","coordinates":[[[14.3642,40.8501],[14.3491,40.848],[14.3489,40.8497],[14.3532,40.8582],[14.3497,40.8641],[14.3465,40.8669],[14.3559,40.874],[14.3626,40.8769],[14.3706,40.8692],[14.3686,40.8638],[14.3609,40.8607],[14.3669,40.8553],[14.369,40.8543],[14.3642,40.8501]]]}},{"type":"Feature","properties":{"i":"063027","n":"Cicciano"},"geometry":{"type":"Polygon","coordinates":[[[14.5507,40.9625],[14.5554,40.9569],[14.539,40.9556],[14.5382,40.957],[14.5351,40.9587],[14.5277,40.9587],[14.5122,40.9618],[14.5022,40.9625],[14.4909,40.9705],[14.4888,40.973],[14.4972,40.9717],[14.5065,40.9718],[14.5063,40.9744],[14.5312,40.9774],[14.5404,40.9718],[14.5461,40.97],[14.5506,40.9655],[14.5507,40.9625]]]}},{"type":"Feature","properties":{"i":"063028","n":"Cimitile"},"geometry":{"type":"Polygon","coordinates":[[[14.5102,40.9551],[14.5123,40.9528],[14.5186,40.9498],[14.5219,40.9494],[14.5277,40.9467],[14.5333,40.943],[14.5377,40.9433],[14.5354,40.9398],[14.5358,40.937],[14.5329,40.9396],[14.5228,40.9372],[14.5083,40.9448],[14.5037,40.9508],[14.5029,40.9555],[14.5056,40.9547],[14.5102,40.9551]]]}},{"type":"Feature","properties":{"i":"063029","n":"Comiziano"},"geometry":{"type":"Polygon","coordinates":[[[14.5554,40.9569],[14.5532,40.9543],[14.5535,40.953],[14.557,40.9502],[14.5608,40.9485],[14.5604,40.9457],[14.551,40.9449],[14.5454,40.9399],[14.5354,40.9398],[14.541,40.9471],[14.5395,40.9502],[14.539,40.9556],[14.5554,40.9569]]]}},{"type":"Feature","properties":{"i":"063030","n":"Crispano"},"geometry":{"type":"Polygon","coordinates":[[[14.2961,40.9502],[14.2913,40.9485],[14.2919,40.9472],[14.2911,40.9462],[14.2848,40.9438],[14.2789,40.9507],[14.285,40.9574],[14.2845,40.9603],[14.293,40.9697],[14.2948,40.9684],[14.2934,40.9563],[14.2963,40.9522],[14.2961,40.9502]]]}},{"type":"Feature","properties":{"i":"063031","n":"Forio"},"geometry":{"type":"Polygon","coordinates":[[[13.877,40.757],[13.8815,40.7507],[13.8827,40.7426],[13.8853,40.7375],[13.8888,40.7365],[13.892,40.737],[13.8938,40.73],[13.8876,40.7252],[13.8846,40.7255],[13.8829,40.7215],[13.8806,40.712],[13.8815,40.7],[13.8761,40.6982],[13.8728,40.6981],[13.8525,40.7099],[13.8604,40.7154],[13.8613,40.7177],[13.8599,40.7256],[13.8556,40.731],[13.8547,40.7374],[13.8569,40.7403],[13.8566,40.7387],[13.8591,40.7381],[13.8633,40.7408],[13.8652,40.7432],[13.8685,40.7515],[13.8685,40.7526],[13.8648,40.7535],[13.8619,40.7574],[13.8663,40.7598],[13.8718,40.7611],[13.877,40.757]]]}},{"type":"Feature","properties":{"i":"063032","n":"Frattamaggiore"},"geometry":{"type":"Polygon","coordinates":[[[14.2789,40.9507],[14.2848,40.9438],[14.2839,40.9421],[14.2841,40.9358],[14.2858,40.9313],[14.2895,40.9262],[14.2836,40.9235],[14.2826,40.9168],[14.271,40.9244],[14.2664,40.9239],[14.269,40.9251],[14.2668,40.936],[14.2625,40.9406],[14.2596,40.9466],[14.2602,40.9502],[14.2641,40.9519],[14.2657,40.9536],[14.2679,40.9523],[14.2765,40.9499],[14.2789,40.9507]]]}},{"type":"Feature","properties":{"i":"063033","n":"Frattaminore"},"geometry":{"type":"Polygon","coordinates":[[[14.2789,40.9507],[14.2765,40.9499],[14.2679,40.9523],[14.2657,40.9536],[14.2641,40.9519],[14.2628,40.9522],[14.2613,40.9531],[14.2584,40.9582],[14.2635,40.9616],[14.2845,40.9603],[14.285,40.9574],[14.2789,40.9507]]]}},{"type":"Feature","properties":{"i":"063034","n":"Giugliano in Campania"},"geometry":{"type":"Polygon","coordinates":[[[14.1442,40.9672],[14.1469,40.9594],[14.1441,40.9571],[14.1389,40.956],[14.1297,40.9499],[14.1383,40.9447],[14.1444,40.9436],[14.1565,40.9511],[14.1666,40.9526],[14.1663,40.9456],[14.1683,40.9455],[14.1731,40.9496],[14.1732,40.9521],[14.1722,40.954],[14.189,40.953],[14.1972,40.9539],[14.2143,40.9493],[14.2232,40.9326],[14.2217,40.929],[14.2173,40.9242],[14.2189,40.9198],[14.2208,40.9182],[14.2146,40.9183],[14.2067,40.9221],[14.1983,40.922],[14.1846,40.9236],[14.1663,40.9219],[14.1601,40.9227],[14.1578,40.9284],[14.1157,40.9328],[14.1087,40.9353],[14.108,40.9333],[14.1083,40.9302],[14.1095,40.9261],[14.1118,40.9236],[14.1144,40.9173],[14.1149,40.9131],[14.112,40.9023],[14.1016,40.8931],[14.0976,40.8852],[14.0976,40.8834],[14.0998,40.8786],[14.0809,40.8787],[14.0628,40.8707],[14.0586,40.8755],[14.04,40.8778],[14.0319,40.8988],[14.0354,40.9003],[14.0271,40.9171],[14.0273,40.9214],[14.0288,40.9249],[14.0191,40.9415],[14.018,40.9479],[14.0232,40.9512],[14.0277,40.9483],[14.037,40.9496],[14.0456,40.9537],[14.043,40.9577],[14.0474,40.9592],[14.0616,40.9601],[14.0821,40.9596],[14.093,40.9602],[14.0988,40.9623],[14.1122,40.979],[14.1403,40.9791],[14.1442,40.9672]]]}},{"type":"Feature","properties":{"i":"063035","n":"Gragnano"},"geometry":{"type":"Polygon","coordinates":[[[14.5175,40.7059],[14.5178,40.7044],[14.5216,40.6998],[14.5281,40.6949],[14.5297,40.6917],[14.5413,40.6897],[14.5615,40.6898],[14.561,40.688],[14.5628,40.6876],[14.578,40.6848],[14.5805,40.6856],[14.5778,40.679],[14.5745,40.6773],[14.5738,40.6755],[14.5751,40.6732],[14.5717,40.6699],[14.566,40.6689],[14.5594,40.6698],[14.5552,40.6679],[14.5508,40.6704],[14.5382,40.6721],[14.5376,40.6705],[14.5358,40.6701],[14.5309,40.6708],[14.5278,40.6726],[14.5275,40.6745],[14.5234,40.6807],[14.5162,40.6809],[14.5032,40.6879],[14.5018,40.6866],[14.4981,40.6861],[14.4993,40.6964],[14.501,40.6988],[14.5016,40.7023],[14.5013,40.7044],[14.4992,40.7076],[14.5176,40.7107],[14.5181,40.7074],[14.5175,40.7059]]]}},{"type":"Feature","properties":{"i":"063036","n":"Grumo Nevano"},"geometry":{"type":"Polygon","coordinates":[[[14.2664,40.9239],[14.2572,40.9209],[14.2552,40.9282],[14.2504,40.937],[14.25,40.9405],[14.2522,40.9461],[14.2602,40.9502],[14.2596,40.9466],[14.2625,40.9406],[14.2668,40.936],[14.269,40.9251],[14.2664,40.9239]]]}},{"type":"Feature","properties":{"i":"063037","n":"Ischia"},"geometry":{"type":"Polygon","coordinates":[[[13.9542,40.7073],[13.9477,40.7082],[13.9407,40.7135],[13.94,40.7192],[13.9374,40.7228],[13.9342,40.7248],[13.9328,40.729],[13.9351,40.7342],[13.9273,40.7396],[13.9305,40.7411],[13.9313,40.7461],[13.9374,40.747],[13.9409,40.7468],[13.9551,40.7405],[13.9609,40.7318],[13.962,40.7222],[13.9643,40.7197],[13.9652,40.7171],[13.9646,40.712],[13.9619,40.7101],[13.9584,40.711],[13.9547,40.7091],[13.9542,40.7073]]]}},{"type":"Feature","properties":{"i":"063038","n":"Lacco Ameno"},"geometry":{"type":"Polygon","coordinates":[[[13.8975,40.7512],[13.8909,40.7425],[13.8908,40.7405],[13.892,40.737],[13.8859,40.7369],[13.8827,40.7426],[13.8815,40.7507],[13.877,40.757],[13.878,40.7591],[13.8841,40.7592],[13.8854,40.7563],[13.892,40.7526],[13.8975,40.7512]]]}},{"type":"Feature","properties":{"i":"063039","n":"Lettere"},"geometry":{"type":"Polygon","coordinates":[[[14.5799,40.7096],[14.5773,40.7053],[14.577,40.7014],[14.5874,40.6949],[14.5906,40.694],[14.5903,40.6903],[14.578,40.6848],[14.561,40.688],[14.5615,40.6898],[14.5582,40.6922],[14.5494,40.6958],[14.5431,40.698],[14.5302,40.7007],[14.5279,40.7055],[14.5175,40.7059],[14.5181,40.7074],[14.5229,40.7091],[14.5294,40.7071],[14.537,40.7119],[14.5417,40.7161],[14.5457,40.7177],[14.5571,40.7195],[14.5651,40.7224],[14.5677,40.7224],[14.5705,40.716],[14.5754,40.7104],[14.5799,40.7096]]]}},{"type":"Feature","properties":{"i":"063040","n":"Liveri"},"geometry":{"type":"Polygon","coordinates":[[[14.5677,40.8922],[14.5595,40.888],[14.5574,40.8892],[14.5541,40.8922],[14.5546,40.9001],[14.5601,40.9085],[14.5735,40.9094],[14.5756,40.9084],[14.5762,40.9032],[14.5727,40.8962],[14.568,40.8939],[14.5677,40.8922]]]}},{"type":"Feature","properties":{"i":"063041","n":"Marano di Napoli"},"geometry":{"type":"Polygon","coordinates":[[[14.201,40.9018],[14.205,40.8978],[14.2025,40.8939],[14.2042,40.89],[14.2021,40.886],[14.1864,40.8793],[14.187,40.8734],[14.1831,40.8724],[14.1724,40.8736],[14.1554,40.868],[14.1547,40.8715],[14.1563,40.8782],[14.1576,40.8788],[14.1586,40.8827],[14.157,40.8875],[14.154,40.8884],[14.152,40.8926],[14.1541,40.8955],[14.1418,40.8971],[14.1386,40.8955],[14.1319,40.896],[14.1233,40.8977],[14.1199,40.9011],[14.1194,40.9035],[14.1422,40.9045],[14.1471,40.9063],[14.1539,40.9108],[14.1598,40.9052],[14.1721,40.9035],[14.201,40.9018]]]}},{"type":"Feature","properties":{"i":"063042","n":"Mariglianella"},"geometry":{"type":"Polygon","coordinates":[[[14.4295,40.9097],[14.4334,40.9175],[14.4338,40.9248],[14.4252,40.9319],[14.425,40.9375],[14.4261,40.943],[14.4282,40.9455],[14.4305,40.9459],[14.4392,40.939],[14.4436,40.9345],[14.4436,40.9324],[14.4431,40.9254],[14.4398,40.9216],[14.435,40.9119],[14.432,40.9097],[14.4295,40.9097]]]}},{"type":"Feature","properties":{"i":"063043","n":"Marigliano"},"geometry":{"type":"Polygon","coordinates":[[[14.4726,40.9589],[14.4707,40.9589],[14.4702,40.9554],[14.4721,40.9446],[14.4767,40.9428],[14.4787,40.9431],[14.4801,40.9335],[14.4745,40.9301],[14.4726,40.9237],[14.4729,40.9195],[14.4713,40.9143],[14.4674,40.913],[14.4649,40.9098],[14.4655,40.8996],[14.4618,40.9014],[14.4589,40.9016],[14.4566,40.9004],[14.4494,40.9014],[14.4354,40.9063],[14.4291,40.9064],[14.4295,40.9097],[14.432,40.9097],[14.435,40.9119],[14.4398,40.9216],[14.4431,40.9254],[14.4436,40.9345],[14.4352,40.9426],[14.4305,40.9459],[14.4282,40.9455],[14.4219,40.9465],[14.421,40.9475],[14.4207,40.9504],[14.4147,40.9512],[14.4175,40.9553],[14.4385,40.9584],[14.4546,40.9719],[14.4631,40.9704],[14.4675,40.9665],[14.4726,40.9589]]]}},{"type":"Feature","properties":{"i":"063044","n":"Massa Lubrense"},"geometry":{"type":"MultiPolygon","coordinates":[[[[14.3984,40.5828],[14.3958,40.5839],[14.3989,40.5832],[14.3984,40.5828]]],[[[14.3782,40.589],[14.3775,40.5873],[14.3752,40.5875],[14.3762,40.5888],[14.3782,40.589]]],[[[14.3468,40.627],[14.355,40.6208],[14.3553,40.6182],[14.3596,40.6145],[14.3625,40.6133],[14.3768,40.6132],[14.3817,40.6072],[14.3912,40.6059],[14.3928,40.5948],[14.3473,40.5795],[14.3455,40.5758],[14.3464,40.5741],[14.3457,40.5719],[14.3376,40.57],[14.3381,40.5725],[14.341,40.5761],[14.3403,40.5771],[14.3376,40.5768],[14.3353,40.5763],[14.3315,40.5738],[14.3294,40.5714],[14.3245,40.569],[14.3234,40.5703],[14.3221,40.5787],[14.3234,40.5902],[14.328,40.5954],[14.3299,40.6073],[14.3335,40.6092],[14.3327,40.6085],[14.3336,40.608],[14.3362,40.6101],[14.3415,40.6183],[14.3387,40.6258],[14.3411,40.6273],[14.3468,40.627]]]]}},{"type":"Feature","properties":{"i":"063045","n":"Melito di Napoli"},"geometry":{"type":"Polygon","coordinates":[[[14.2374,40.9286],[14.2393,40.9265],[14.2413,40.9212],[14.2428,40.9164],[14.2428,40.9132],[14.2408,40.9129],[14.2379,40.9074],[14.2339,40.9063],[14.2306,40.9092],[14.226,40.9095],[14.2208,40.9182],[14.2189,40.9198],[14.2173,40.9242],[14.2217,40.929],[14.2232,40.9326],[14.2254,40.9288],[14.2374,40.9286]]]}},{"type":"Feature","properties":{"i":"063046","n":"Meta"},"geometry":{"type":"Polygon","coordinates":[[[14.432,40.6283],[14.4268,40.6302],[14.4062,40.6427],[14.4056,40.6436],[14.408,40.6516],[14.4205,40.6464],[14.4315,40.6347],[14.432,40.6283]]]}},{"type":"Feature","properties":{"i":"063047","n":"Monte di Procida"},"geometry":{"type":"MultiPolygon","coordinates":[[[[14.0356,40.7998],[14.0384,40.7984],[14.0358,40.7984],[14.0353,40.8003],[14.0356,40.7998]]],[[[14.0648,40.7887],[14.0602,40.7876],[14.0479,40.7895],[14.045,40.7907],[14.0436,40.7929],[14.041,40.7942],[14.0399,40.794],[14.0392,40.792],[14.04,40.7945],[14.0411,40.7946],[14.0415,40.8047],[14.0445,40.8111],[14.0564,40.8055],[14.0654,40.7969],[14.0648,40.7887]]]]}},{"type":"Feature","properties":{"i":"063048","n":"Mugnano di Napoli"},"geometry":{"type":"Polygon","coordinates":[[[14.2208,40.9182],[14.2261,40.9092],[14.2252,40.9031],[14.2238,40.9002],[14.2225,40.8994],[14.205,40.8978],[14.201,40.9018],[14.1954,40.9052],[14.1926,40.9112],[14.194,40.9156],[14.2036,40.9158],[14.2059,40.9169],[14.2067,40.9221],[14.2146,40.9183],[14.2208,40.9182]]]}},{"type":"Feature","properties":{"i":"063049","n":"Napoli"},"geometry":{"type":"MultiPolygon","coordinates":[[[[14.1875,40.7921],[14.187,40.7912],[14.1864,40.7914],[14.1875,40.7921]]],[[[14.2797,40.8374],[14.2901,40.833],[14.2997,40.8262],[14.29,40.8329],[14.2798,40.8371],[14.2785,40.8358],[14.2797,40.8374]]],[[[14.2514,40.9148],[14.2501,40.9118],[14.2509,40.9082],[14.2551,40.9082],[14.264,40.9018],[14.2691,40.9021],[14.269,40.8975],[14.2702,40.8922],[14.2753,40.8907],[14.2788,40.8911],[14.2844,40.898],[14.2875,40.8977],[14.3001,40.891],[14.3068,40.8849],[14.3087,40.8805],[14.3134,40.8785],[14.3258,40.8803],[14.3312,40.876],[14.3378,40.8735],[14.3441,40.8693],[14.3497,40.8641],[14.3532,40.8582],[14.3489,40.8497],[14.3491,40.848],[14.3402,40.8457],[14.3412,40.8438],[14.3303,40.8364],[14.327,40.8324],[14.3257,40.8291],[14.3192,40.8276],[14.3153,40.8276],[14.3176,40.8253],[14.3232,40.8231],[14.3203,40.8208],[14.3164,40.8251],[14.3084,40.8295],[14.2868,40.8366],[14.2826,40.8385],[14.2775,40.8424],[14.2646,40.8438],[14.2601,40.8419],[14.2559,40.838],[14.2611,40.8342],[14.2524,40.8347],[14.2504,40.83],[14.2471,40.8289],[14.2421,40.8313],[14.2319,40.8319],[14.2268,40.831],[14.2213,40.8279],[14.2205,40.8265],[14.2217,40.8252],[14.2143,40.8204],[14.2078,40.8125],[14.2057,40.8077],[14.2073,40.8024],[14.1994,40.7975],[14.1903,40.7939],[14.1841,40.7939],[14.175,40.7989],[14.167,40.7955],[14.1637,40.7926],[14.1607,40.7933],[14.1594,40.7951],[14.1598,40.7976],[14.1634,40.7986],[14.1681,40.7972],[14.1724,40.7991],[14.1733,40.8024],[14.1725,40.8054],[14.1707,40.8064],[14.1691,40.8063],[14.1646,40.8131],[14.1589,40.8171],[14.1594,40.8212],[14.1557,40.8326],[14.1553,40.8384],[14.1599,40.8411],[14.1611,40.8442],[14.1605,40.8464],[14.1545,40.8518],[14.1519,40.8523],[14.1452,40.8519],[14.1381,40.8488],[14.1323,40.8555],[14.1377,40.8584],[14.1406,40.8671],[14.1466,40.8686],[14.1505,40.8674],[14.1554,40.868],[14.1724,40.8736],[14.1831,40.8724],[14.187,40.8734],[14.1864,40.8793],[14.2021,40.886],[14.2042,40.89],[14.2025,40.8939],[14.205,40.8978],[14.2225,40.8994],[14.2238,40.9002],[14.2252,40.9031],[14.226,40.9095],[14.2306,40.9092],[14.2339,40.9063],[14.2379,40.9074],[14.2408,40.9129],[14.2514,40.9148]]]]}},{"type":"Feature","properties":{"i":"063050","n":"Nola"},"geometry":{"type":"MultiPolygon","coordinates":[[[[14.4882,40.8762],[14.4742,40.8816],[14.4729,40.8854],[14.4766,40.891],[14.4837,40.8873],[14.4846,40.8834],[14.4874,40.8828],[14.4905,40.88],[14.4882,40.8762]]],[[[14.4771,40.9815],[14.4855,40.9813],[14.4952,40.9792],[14.5063,40.9744],[14.5067,40.9722],[14.5059,40.9717],[14.4972,40.9717],[14.4888,40.973],[14.4909,40.9705],[14.5008,40.9634],[14.5045,40.9622],[14.5102,40.9551],[14.5056,40.9547],[14.5029,40.9555],[14.5037,40.9508],[14.5083,40.9448],[14.5228,40.9372],[14.5329,40.9396],[14.5358,40.937],[14.5426,40.9267],[14.5467,40.9282],[14.555,40.9257],[14.5561,40.9241],[14.5602,40.9232],[14.5646,40.9245],[14.5652,40.9253],[14.5648,40.927],[14.5689,40.9266],[14.5718,40.9253],[14.5699,40.9233],[14.5745,40.9153],[14.5718,40.9131],[14.5723,40.91],[14.5735,40.9094],[14.5652,40.9085],[14.5624,40.9121],[14.563,40.9137],[14.5595,40.9165],[14.5386,40.9199],[14.5399,40.9154],[14.5386,40.9123],[14.535,40.9116],[14.5388,40.9077],[14.5446,40.9074],[14.5528,40.9028],[14.5546,40.9001],[14.5541,40.8922],[14.5278,40.8783],[14.5136,40.8745],[14.5086,40.8659],[14.5097,40.8613],[14.5125,40.8579],[14.511,40.8575],[14.5055,40.859],[14.491,40.8662],[14.4851,40.8664],[14.4762,40.8638],[14.4754,40.8645],[14.4786,40.8697],[14.4823,40.8735],[14.4875,40.8753],[14.4997,40.8748],[14.5052,40.8784],[14.516,40.8884],[14.5222,40.8928],[14.5241,40.8982],[14.523,40.9111],[14.5219,40.9139],[14.5182,40.9145],[14.5148,40.9174],[14.5146,40.9223],[14.5132,40.9247],[14.5104,40.9265],[14.4983,40.9288],[14.4937,40.9374],[14.4896,40.9402],[14.4784,40.9452],[14.4731,40.9552],[14.4723,40.9595],[14.4675,40.9665],[14.4631,40.9704],[14.4546,40.9719],[14.4522,40.9839],[14.4599,40.9835],[14.4704,40.9815],[14.4771,40.9815]],[[14.4971,40.8745],[14.4959,40.8748],[14.4952,40.8734],[14.4963,40.8731],[14.4971,40.8745]],[[14.4966,40.866],[14.496,40.8642],[14.4975,40.864],[14.4983,40.8658],[14.4966,40.866]]]]}},{"type":"Feature","properties":{"i":"063051","n":"Ottaviano"},"geometry":{"type":"MultiPolygon","coordinates":[[[[14.4966,40.866],[14.4983,40.8658],[14.4975,40.864],[14.496,40.8642],[14.4966,40.866]]],[[[14.5125,40.8579],[14.5142,40.8578],[14.5295,40.8444],[14.5303,40.8372],[14.5228,40.8379],[14.5114,40.8413],[14.4956,40.8423],[14.4885,40.8441],[14.4834,40.8321],[14.4449,40.8289],[14.4483,40.8245],[14.4487,40.8212],[14.448,40.8179],[14.4376,40.8103],[14.4362,40.8099],[14.4264,40.8214],[14.4417,40.8397],[14.4586,40.8494],[14.4683,40.8573],[14.4711,40.8585],[14.4762,40.8638],[14.4851,40.8664],[14.491,40.8662],[14.5055,40.859],[14.5104,40.8574],[14.5125,40.8579]]],[[[14.4971,40.8745],[14.4963,40.8731],[14.4952,40.8734],[14.4959,40.8748],[14.4971,40.8745]]]]}},{"type":"Feature","properties":{"i":"063052","n":"Palma Campania"},"geometry":{"type":"Polygon","coordinates":[[[14.5963,40.8568],[14.6055,40.8476],[14.5826,40.8486],[14.5711,40.8472],[14.5641,40.834],[14.5578,40.8325],[14.5509,40.8324],[14.5477,40.8312],[14.5463,40.8285],[14.5319,40.8317],[14.5429,40.8633],[14.5312,40.8737],[14.5183,40.8757],[14.5278,40.8783],[14.5541,40.8922],[14.5574,40.8892],[14.5554,40.88],[14.5558,40.8792],[14.5619,40.8776],[14.5655,40.8802],[14.5702,40.8812],[14.5758,40.8626],[14.5863,40.8585],[14.5963,40.8568]]]}},{"type":"Feature","properties":{"i":"063053","n":"Piano di Sorrento"},"geometry":{"type":"Polygon","coordinates":[[[14.4056,40.6436],[14.4089,40.6407],[14.4268,40.6302],[14.432,40.6283],[14.4386,40.629],[14.4424,40.6284],[14.448,40.6239],[14.4489,40.6223],[14.4486,40.6178],[14.4419,40.6161],[14.4394,40.6141],[14.4189,40.6103],[14.4167,40.6118],[14.4129,40.6167],[14.4074,40.6255],[14.4059,40.631],[14.4016,40.6366],[14.3997,40.638],[14.4056,40.6436]]]}},{"type":"Feature","properties":{"i":"063054","n":"Pimonte"},"geometry":{"type":"Polygon","coordinates":[[[14.5379,40.6708],[14.5417,40.668],[14.5508,40.6704],[14.5552,40.6679],[14.5506,40.6669],[14.5365,40.6592],[14.5344,40.6523],[14.5262,40.6545],[14.5232,40.6542],[14.5131,40.6493],[14.5094,40.6457],[14.4999,40.6495],[14.4963,40.6587],[14.4902,40.6644],[14.5032,40.6879],[14.5162,40.6809],[14.5234,40.6807],[14.5275,40.6745],[14.5278,40.6726],[14.5294,40.6714],[14.535,40.67],[14.5379,40.6708]]]}},{"type":"Feature","properties":{"i":"063055","n":"Poggiomarino"},"geometry":{"type":"Polygon","coordinates":[[[14.5742,40.8003],[14.5737,40.7968],[14.5753,40.7953],[14.5764,40.7923],[14.5767,40.7883],[14.5759,40.7869],[14.5527,40.7927],[14.5508,40.7895],[14.5371,40.7907],[14.5281,40.7928],[14.5272,40.7944],[14.5207,40.7989],[14.5244,40.8055],[14.5301,40.8052],[14.5318,40.8085],[14.5296,40.8175],[14.5315,40.8248],[14.5319,40.8317],[14.56,40.8247],[14.56,40.821],[14.5569,40.8101],[14.5645,40.8024],[14.5662,40.8035],[14.5742,40.8003]]]}},{"type":"Feature","properties":{"i":"063056","n":"Pollena Trocchia"},"geometry":{"type":"Polygon","coordinates":[[[14.3654,40.8859],[14.3655,40.8843],[14.3702,40.8805],[14.3851,40.8649],[14.3943,40.8599],[14.3953,40.8543],[14.3974,40.8488],[14.4072,40.8446],[14.4108,40.842],[14.4164,40.8369],[14.4169,40.8335],[14.4151,40.8325],[14.4146,40.834],[14.4126,40.8352],[14.4082,40.8348],[14.4014,40.837],[14.3894,40.8465],[14.385,40.8472],[14.3725,40.8522],[14.3669,40.8553],[14.3608,40.8602],[14.3652,40.8628],[14.3686,40.8638],[14.3706,40.8692],[14.3626,40.8769],[14.3582,40.8862],[14.3654,40.8859]]]}},{"type":"Feature","properties":{"i":"063057","n":"Pomigliano d'Arco"},"geometry":{"type":"MultiPolygon","coordinates":[[[[14.3943,40.8899],[14.3949,40.8875],[14.3895,40.887],[14.3885,40.8888],[14.3925,40.8924],[14.3943,40.8899]]],[[[14.4024,40.9309],[14.4048,40.9291],[14.4046,40.9221],[14.403,40.9171],[14.4037,40.9126],[14.413,40.8992],[14.4149,40.8982],[14.4135,40.8935],[14.4085,40.8955],[14.3986,40.8958],[14.3855,40.8978],[14.3851,40.8941],[14.3807,40.8932],[14.3789,40.8982],[14.3649,40.8929],[14.362,40.8924],[14.3579,40.8975],[14.3574,40.9007],[14.3579,40.9024],[14.3665,40.9104],[14.3742,40.9211],[14.3866,40.9217],[14.3859,40.9237],[14.3975,40.9312],[14.4006,40.9319],[14.4024,40.9309]]]]}},{"type":"Feature","properties":{"i":"063058","n":"Pompei"},"geometry":{"type":"Polygon","coordinates":[[[14.5073,40.7692],[14.5094,40.7687],[14.5108,40.7652],[14.511,40.7573],[14.514,40.7462],[14.5138,40.7448],[14.5062,40.7427],[14.5054,40.7405],[14.5085,40.7378],[14.5175,40.738],[14.5196,40.7371],[14.5205,40.7348],[14.5101,40.7302],[14.498,40.7225],[14.4933,40.7283],[14.4878,40.7288],[14.4819,40.7369],[14.4813,40.7399],[14.4792,40.7418],[14.4758,40.7521],[14.4734,40.7565],[14.4821,40.7642],[14.4877,40.7671],[14.4952,40.7696],[14.5018,40.7699],[14.5073,40.7692]]]}},{"type":"Feature","properties":{"i":"063059","n":"Portici"},"geometry":{"type":"Polygon","coordinates":[[[14.3384,40.8044],[14.3352,40.8063],[14.3335,40.8094],[14.3355,40.8086],[14.3359,40.8094],[14.3321,40.8137],[14.3223,40.8206],[14.3203,40.8208],[14.3232,40.8231],[14.3283,40.8254],[14.3344,40.8254],[14.3496,40.8276],[14.351,40.828],[14.3518,40.83],[14.3547,40.8292],[14.3569,40.8259],[14.3577,40.8149],[14.345,40.8105],[14.3398,40.8068],[14.3384,40.8044]]]}},{"type":"Feature","properties":{"i":"063060","n":"Pozzuoli"},"geometry":{"type":"Polygon","coordinates":[[[14.1406,40.8671],[14.1377,40.8584],[14.1323,40.8555],[14.1381,40.8488],[14.1452,40.8519],[14.1519,40.8523],[14.1545,40.8518],[14.1605,40.8464],[14.1611,40.8442],[14.1599,40.8411],[14.1553,40.8384],[14.1557,40.8326],[14.1594,40.8212],[14.1589,40.8171],[14.1246,40.8203],[14.1177,40.8224],[14.1197,40.8241],[14.1165,40.828],[14.1072,40.8314],[14.0892,40.8307],[14.0775,40.8255],[14.0687,40.838],[14.0681,40.8449],[14.0644,40.8461],[14.0474,40.8451],[14.0445,40.8624],[14.04,40.8778],[14.0586,40.8755],[14.0628,40.8707],[14.0809,40.8787],[14.0986,40.8787],[14.1039,40.878],[14.1247,40.8683],[14.1406,40.8671]]]}},{"type":"Feature","properties":{"i":"063061","n":"Procida"},"geometry":{"type":"Polygon","coordinates":[[[14.019,40.7675],[14.0223,40.7662],[14.0335,40.7663],[14.0363,40.7643],[14.0363,40.7621],[14.0324,40.7583],[14.0313,40.7616],[14.027,40.761],[14.0227,40.7589],[14.0201,40.756],[14.0195,40.7512],[14.0131,40.7486],[14.0137,40.7442],[14.0176,40.7394],[14.0131,40.7402],[14.0102,40.7421],[14.0072,40.7484],[14.0011,40.7469],[13.9968,40.7433],[13.9977,40.7401],[13.993,40.7409],[13.9902,40.7431],[13.9919,40.7469],[13.9947,40.7492],[14.0022,40.7478],[14.0095,40.7592],[14.0083,40.761],[14.0098,40.7688],[14.0163,40.7704],[14.019,40.7675]]]}},{"type":"Feature","properties":{"i":"063062","n":"Qualiano"},"geometry":{"type":"Polygon","coordinates":[[[14.1641,40.9222],[14.1606,40.9208],[14.1588,40.9178],[14.1595,40.9159],[14.1544,40.9155],[14.1505,40.9137],[14.1474,40.9131],[14.1337,40.9154],[14.1206,40.9131],[14.1149,40.9131],[14.1146,40.9165],[14.1124,40.9223],[14.1095,40.9261],[14.1081,40.9312],[14.1082,40.9346],[14.1087,40.9353],[14.1098,40.9351],[14.1157,40.9328],[14.1578,40.9284],[14.1601,40.9227],[14.1641,40.9222]]]}},{"type":"Feature","properties":{"i":"063063","n":"Quarto"},"geometry":{"type":"Polygon","coordinates":[[[14.1194,40.9035],[14.1199,40.9011],[14.1233,40.8977],[14.1319,40.896],[14.1386,40.8955],[14.1418,40.8971],[14.1541,40.8955],[14.152,40.8926],[14.154,40.8884],[14.157,40.8875],[14.1586,40.8827],[14.1576,40.8788],[14.1563,40.8782],[14.1547,40.8715],[14.1554,40.868],[14.1505,40.8674],[14.1466,40.8686],[14.1406,40.8671],[14.1247,40.8683],[14.1039,40.878],[14.0998,40.8786],[14.0974,40.884],[14.1016,40.8931],[14.112,40.9023],[14.1194,40.9035]]]}},{"type":"Feature","properties":{"i":"063064","n":"Ercolano"},"geometry":{"type":"Polygon","coordinates":[[[14.3936,40.8317],[14.3982,40.8305],[14.4073,40.8311],[14.4141,40.8321],[14.4169,40.8335],[14.4282,40.8358],[14.4364,40.8329],[14.4264,40.8214],[14.3924,40.8137],[14.3784,40.8037],[14.3701,40.7958],[14.3652,40.7975],[14.3583,40.7976],[14.3576,40.7967],[14.357,40.7915],[14.3537,40.7915],[14.3518,40.7926],[14.3456,40.7996],[14.3406,40.8037],[14.3384,40.8044],[14.3398,40.8068],[14.345,40.8105],[14.3577,40.8149],[14.3569,40.8259],[14.3547,40.8292],[14.3502,40.8306],[14.3495,40.8329],[14.3562,40.8383],[14.3814,40.8381],[14.3896,40.8353],[14.3909,40.8315],[14.3936,40.8317]]]}},{"type":"Feature","properties":{"i":"063065","n":"Roccarainola"},"geometry":{"type":"Polygon","coordinates":[[[14.5659,41.0151],[14.5719,41.0095],[14.5741,41.0044],[14.5738,41.0019],[14.5811,40.9933],[14.5814,40.9828],[14.5782,40.9672],[14.5767,40.963],[14.5724,40.9641],[14.5635,40.9615],[14.5612,40.9623],[14.56,40.9644],[14.5507,40.9625],[14.5506,40.9655],[14.5461,40.97],[14.5404,40.9718],[14.5312,40.9774],[14.5063,40.9744],[14.4952,40.9792],[14.4855,40.9813],[14.4771,40.9815],[14.4834,40.9924],[14.492,40.9942],[14.4961,40.994],[14.5174,40.9889],[14.5224,40.9892],[14.5332,40.996],[14.5344,40.9977],[14.5312,41.0133],[14.5348,41.0177],[14.5406,41.0198],[14.547,41.017],[14.5631,41.0167],[14.5659,41.0151]]]}},{"type":"Feature","properties":{"i":"063066","n":"San Gennaro Vesuviano"},"geometry":{"type":"Polygon","coordinates":[[[14.532,40.8319],[14.5303,40.8372],[14.5295,40.8444],[14.5142,40.8578],[14.5114,40.8588],[14.5097,40.8613],[14.5086,40.8659],[14.5136,40.8745],[14.515,40.8754],[14.5183,40.8757],[14.5312,40.8737],[14.5429,40.8633],[14.532,40.8319]]]}},{"type":"Feature","properties":{"i":"063067","n":"San Giorgio a Cremano"},"geometry":{"type":"Polygon","coordinates":[[[14.3471,40.8472],[14.3562,40.8383],[14.3495,40.8329],[14.3502,40.8306],[14.3518,40.83],[14.351,40.828],[14.3344,40.8254],[14.3283,40.8254],[14.3232,40.8231],[14.3176,40.8253],[14.3154,40.8273],[14.3161,40.8281],[14.3192,40.8276],[14.3257,40.8291],[14.327,40.8324],[14.3303,40.8364],[14.3412,40.8438],[14.3402,40.8457],[14.3471,40.8472]]]}},{"type":"Feature","properties":{"i":"063068","n":"San Giuseppe Vesuviano"},"geometry":{"type":"Polygon","coordinates":[[[14.5303,40.8372],[14.5321,40.83],[14.5296,40.8175],[14.5319,40.8088],[14.5301,40.8052],[14.529,40.8049],[14.5244,40.8055],[14.4996,40.8179],[14.4723,40.8239],[14.4483,40.8245],[14.4449,40.8289],[14.4834,40.8321],[14.4885,40.8441],[14.4956,40.8423],[14.5114,40.8413],[14.5228,40.8379],[14.5303,40.8372]]]}},{"type":"Feature","properties":{"i":"063069","n":"San Paolo Bel Sito"},"geometry":{"type":"Polygon","coordinates":[[[14.5652,40.9085],[14.5601,40.9085],[14.5546,40.9001],[14.5528,40.9028],[14.5505,40.9044],[14.5446,40.9074],[14.5388,40.9077],[14.535,40.9116],[14.5386,40.9123],[14.5399,40.9154],[14.5386,40.9199],[14.5595,40.9165],[14.563,40.9137],[14.5624,40.9121],[14.5652,40.9085]]]}},{"type":"Feature","properties":{"i":"063070","n":"San Sebastiano al Vesuvio"},"geometry":{"type":"Polygon","coordinates":[[[14.3936,40.8317],[14.3909,40.8315],[14.3896,40.8353],[14.3814,40.8381],[14.3562,40.8383],[14.3471,40.8472],[14.3642,40.8501],[14.3884,40.8376],[14.3919,40.8349],[14.3936,40.8317]]]}},{"type":"Feature","properties":{"i":"063071","n":"Sant'Agnello"},"geometry":{"type":"Polygon","coordinates":[[[14.3997,40.638],[14.4016,40.6366],[14.4059,40.631],[14.4074,40.6255],[14.4129,40.6167],[14.4167,40.6118],[14.4189,40.6103],[14.4162,40.6068],[14.4069,40.5993],[14.406,40.6006],[14.4061,40.6031],[14.4084,40.6071],[14.4018,40.6131],[14.3991,40.6192],[14.3931,40.6287],[14.3876,40.6333],[14.3924,40.6369],[14.3997,40.638]]]}},{"type":"Feature","properties":{"i":"063072","n":"Sant'Anastasia"},"geometry":{"type":"Polygon","coordinates":[[[14.4135,40.8935],[14.4146,40.8862],[14.4189,40.876],[14.4169,40.8702],[14.4184,40.8621],[14.425,40.8411],[14.4282,40.8358],[14.4169,40.8335],[14.4164,40.8369],[14.4108,40.842],[14.4072,40.8446],[14.3974,40.8488],[14.3953,40.8543],[14.3943,40.8599],[14.3851,40.8649],[14.3702,40.8805],[14.3655,40.8843],[14.3649,40.8929],[14.3789,40.8982],[14.3807,40.8932],[14.3851,40.8941],[14.3855,40.8978],[14.3986,40.8958],[14.4085,40.8955],[14.4135,40.8935]],[[14.3943,40.8899],[14.3925,40.8924],[14.3885,40.8888],[14.3895,40.887],[14.3949,40.8875],[14.3943,40.8899]]]}},{"type":"Feature","properties":{"i":"063073","n":"Sant'Antimo"},"geometry":{"type":"Polygon","coordinates":[[[14.2522,40.9461],[14.25,40.9405],[14.2458,40.9404],[14.2406,40.9368],[14.2379,40.9331],[14.2374,40.9286],[14.2265,40.9286],[14.2254,40.9288],[14.2232,40.9326],[14.2143,40.9493],[14.22,40.951],[14.2252,40.9509],[14.2319,40.9535],[14.2328,40.9588],[14.2413,40.9548],[14.2522,40.9461]]]}},{"type":"Feature","properties":{"i":"063074","n":"Sant'Antonio Abate"},"geometry":{"type":"Polygon","coordinates":[[[14.5651,40.7224],[14.5571,40.7195],[14.5457,40.7177],[14.5417,40.7161],[14.537,40.7119],[14.5294,40.7071],[14.5229,40.7091],[14.5181,40.7074],[14.5176,40.7107],[14.5208,40.7113],[14.5222,40.725],[14.5205,40.7348],[14.5261,40.7347],[14.5345,40.7361],[14.5379,40.7372],[14.5427,40.7402],[14.5437,40.74],[14.5462,40.739],[14.5473,40.7374],[14.5479,40.7343],[14.5539,40.7295],[14.5604,40.7316],[14.5637,40.7266],[14.5651,40.7224]]]}},{"type":"Feature","properties":{"i":"063075","n":"San Vitaliano"},"geometry":{"type":"Polygon","coordinates":[[[14.5009,40.9282],[14.4981,40.9211],[14.4851,40.9216],[14.481,40.9206],[14.478,40.9186],[14.4699,40.9099],[14.4649,40.9098],[14.4674,40.913],[14.4713,40.9143],[14.4729,40.9195],[14.4726,40.9237],[14.4745,40.9301],[14.4801,40.9335],[14.4787,40.9431],[14.4767,40.9428],[14.4721,40.9446],[14.4702,40.9554],[14.4707,40.9589],[14.4726,40.9589],[14.4731,40.9552],[14.4784,40.9452],[14.4896,40.9402],[14.4937,40.9374],[14.4983,40.9288],[14.5009,40.9282]]]}},{"type":"Feature","properties":{"i":"063076","n":"Saviano"},"geometry":{"type":"Polygon","coordinates":[[[14.4875,40.8753],[14.4905,40.88],[14.4874,40.8828],[14.4846,40.8834],[14.4843,40.8883],[14.4776,40.893],[14.4784,40.8982],[14.484,40.9035],[14.4875,40.9053],[14.4941,40.9106],[14.5009,40.9282],[14.5104,40.9265],[14.5132,40.9247],[14.5146,40.9223],[14.5148,40.9174],[14.5182,40.9145],[14.5219,40.9139],[14.523,40.9111],[14.5241,40.8982],[14.5232,40.8943],[14.5208,40.8915],[14.516,40.8884],[14.5052,40.8784],[14.4997,40.8748],[14.4875,40.8753]]]}},{"type":"Feature","properties":{"i":"063077","n":"Scisciano"},"geometry":{"type":"Polygon","coordinates":[[[14.484,40.8868],[14.4766,40.891],[14.4729,40.8854],[14.4655,40.8996],[14.4649,40.9098],[14.4699,40.9099],[14.478,40.9186],[14.481,40.9206],[14.4851,40.9216],[14.4981,40.9211],[14.4941,40.9106],[14.4875,40.9053],[14.484,40.9035],[14.4784,40.8982],[14.4776,40.893],[14.4843,40.8883],[14.484,40.8868]]]}},{"type":"Feature","properties":{"i":"063078","n":"Serrara Fontana"},"geometry":{"type":"Polygon","coordinates":[[[13.8968,40.7],[13.8942,40.6964],[13.8926,40.6969],[13.8908,40.6991],[13.8872,40.7003],[13.8815,40.7],[13.8806,40.712],[13.8811,40.7159],[13.8846,40.7255],[13.8876,40.7252],[13.8938,40.73],[13.9059,40.7299],[13.9064,40.7043],[13.9039,40.7028],[13.8984,40.7018],[13.8968,40.7]]]}},{"type":"Feature","properties":{"i":"063079","n":"Somma Vesuviana"},"geometry":{"type":"Polygon","coordinates":[[[14.4655,40.8996],[14.4742,40.8816],[14.4882,40.8762],[14.4875,40.8753],[14.4823,40.8735],[14.4786,40.8697],[14.4754,40.8645],[14.4762,40.8638],[14.4711,40.8585],[14.4683,40.8573],[14.4586,40.8494],[14.4417,40.8397],[14.4364,40.8329],[14.4282,40.8358],[14.425,40.8411],[14.4184,40.8621],[14.4169,40.8702],[14.4189,40.876],[14.4146,40.8862],[14.4136,40.8917],[14.4149,40.8982],[14.4176,40.896],[14.4189,40.8979],[14.4191,40.9011],[14.4222,40.9031],[14.4253,40.904],[14.4267,40.9106],[14.4295,40.91],[14.4291,40.9064],[14.4354,40.9063],[14.4494,40.9014],[14.4566,40.9004],[14.4589,40.9016],[14.4618,40.9014],[14.4655,40.8996]]]}},{"type":"Feature","properties":{"i":"063080","n":"Sorrento"},"geometry":{"type":"Polygon","coordinates":[[[14.4069,40.5993],[14.4004,40.5972],[14.3955,40.5947],[14.3928,40.5948],[14.3912,40.6059],[14.3817,40.6072],[14.3768,40.6132],[14.3625,40.6133],[14.3596,40.6145],[14.3553,40.6182],[14.355,40.6208],[14.3468,40.627],[14.3492,40.6322],[14.3537,40.6333],[14.3651,40.6277],[14.3785,40.6291],[14.3876,40.6333],[14.3931,40.6287],[14.3991,40.6192],[14.4018,40.6131],[14.4084,40.6071],[14.4061,40.6031],[14.406,40.6006],[14.4069,40.5993]]]}},{"type":"Feature","properties":{"i":"063081","n":"Striano"},"geometry":{"type":"Polygon","coordinates":[[[14.5881,40.8056],[14.5742,40.8003],[14.5662,40.8035],[14.5645,40.8024],[14.5569,40.8101],[14.56,40.821],[14.56,40.8247],[14.5463,40.8285],[14.5477,40.8312],[14.5516,40.8326],[14.5578,40.8325],[14.5641,40.834],[14.5646,40.8352],[14.5655,40.8328],[14.5866,40.8218],[14.5903,40.8182],[14.5895,40.808],[14.5881,40.8056]]]}},{"type":"Feature","properties":{"i":"063082","n":"Terzigno"},"geometry":{"type":"Polygon","coordinates":[[[14.5244,40.8055],[14.5207,40.7989],[14.5122,40.7944],[14.5046,40.7881],[14.4996,40.7777],[14.4866,40.7751],[14.4837,40.7764],[14.4711,40.7866],[14.4664,40.7879],[14.4494,40.7998],[14.441,40.8046],[14.4362,40.8099],[14.4401,40.8117],[14.4476,40.8174],[14.4487,40.8212],[14.4483,40.8245],[14.4723,40.8239],[14.4996,40.8179],[14.5244,40.8055]]]}},{"type":"Feature","properties":{"i":"063083","n":"Torre Annunziata"},"geometry":{"type":"MultiPolygon","coordinates":[[[[14.4639,40.7299],[14.4636,40.7288],[14.4626,40.7294],[14.4639,40.7299]]],[[[14.4506,40.7612],[14.4608,40.764],[14.4633,40.7631],[14.4741,40.7557],[14.4792,40.7418],[14.4771,40.7381],[14.4767,40.7308],[14.4758,40.7296],[14.4705,40.7288],[14.4611,40.7425],[14.4486,40.7529],[14.4431,40.752],[14.4313,40.7531],[14.4255,40.7514],[14.4303,40.7607],[14.4297,40.7663],[14.4286,40.7671],[14.435,40.766],[14.4374,40.7647],[14.4368,40.7641],[14.4386,40.7619],[14.4428,40.7604],[14.4464,40.7602],[14.4506,40.7612]]]]}},{"type":"Feature","properties":{"i":"063084","n":"Torre del Greco"},"geometry":{"type":"Polygon","coordinates":[[[14.4286,40.7671],[14.4297,40.7663],[14.4303,40.7607],[14.4255,40.7514],[14.4182,40.752],[14.4089,40.7542],[14.4003,40.7576],[14.3933,40.7616],[14.3846,40.7702],[14.3598,40.788],[14.3569,40.7916],[14.3576,40.7967],[14.3583,40.7976],[14.3636,40.7977],[14.3701,40.7958],[14.3784,40.8037],[14.3924,40.8137],[14.4264,40.8214],[14.4333,40.793],[14.4324,40.7867],[14.4289,40.7802],[14.4273,40.7696],[14.4286,40.7671]]]}},{"type":"Feature","properties":{"i":"063085","n":"Tufino"},"geometry":{"type":"Polygon","coordinates":[[[14.5767,40.963],[14.5783,40.9634],[14.5816,40.9586],[14.5803,40.9561],[14.5834,40.9459],[14.5853,40.934],[14.5731,40.9392],[14.5714,40.9419],[14.5702,40.9476],[14.5604,40.9457],[14.5608,40.9485],[14.557,40.9502],[14.5535,40.953],[14.5532,40.9543],[14.5554,40.9569],[14.5507,40.9625],[14.56,40.9644],[14.5612,40.9623],[14.5635,40.9615],[14.5724,40.9641],[14.5767,40.963]]]}},{"type":"Feature","properties":{"i":"063086","n":"Vico Equense"},"geometry":{"type":"Polygon","coordinates":[[[14.4902,40.6644],[14.4963,40.6587],[14.4999,40.6495],[14.5019,40.6482],[14.4965,40.6462],[14.4874,40.6475],[14.4816,40.6472],[14.4799,40.6434],[14.4811,40.6404],[14.4752,40.636],[14.4658,40.6342],[14.4646,40.6327],[14.4622,40.6278],[14.4623,40.626],[14.4669,40.6209],[14.4687,40.6202],[14.4665,40.6189],[14.4621,40.6178],[14.4567,40.6197],[14.4486,40.6178],[14.4489,40.6223],[14.448,40.6239],[14.4424,40.6284],[14.4386,40.629],[14.432,40.6283],[14.4315,40.6347],[14.4205,40.6464],[14.4068,40.6519],[14.4035,40.656],[14.4094,40.66],[14.4125,40.6599],[14.4213,40.6617],[14.4307,40.6662],[14.4345,40.672],[14.4373,40.6797],[14.439,40.6818],[14.4417,40.6834],[14.4542,40.6792],[14.4591,40.6743],[14.4703,40.6705],[14.4812,40.6683],[14.4902,40.6644]]]}},{"type":"Feature","properties":{"i":"063087","n":"Villaricca"},"geometry":{"type":"MultiPolygon","coordinates":[[[[14.1505,40.9137],[14.1539,40.9108],[14.1471,40.9063],[14.1434,40.9048],[14.1194,40.9035],[14.112,40.9023],[14.1149,40.9131],[14.1206,40.9131],[14.1337,40.9154],[14.1474,40.9131],[14.1505,40.9137]]],[[[14.2067,40.9221],[14.2059,40.9169],[14.2036,40.9158],[14.1829,40.9156],[14.1697,40.9164],[14.1676,40.9131],[14.1649,40.9112],[14.1561,40.9122],[14.1542,40.9153],[14.1595,40.9159],[14.1588,40.9178],[14.1606,40.9208],[14.1641,40.9222],[14.1846,40.9236],[14.1983,40.922],[14.2067,40.9221]]]]}},{"type":"Feature","properties":{"i":"063088","n":"Visciano"},"geometry":{"type":"Polygon","coordinates":[[[14.6105,40.9294],[14.6146,40.9284],[14.6168,40.9265],[14.6161,40.9228],[14.6172,40.9178],[14.6207,40.9117],[14.626,40.9131],[14.6391,40.9145],[14.6575,40.9125],[14.6616,40.9135],[14.6645,40.9152],[14.6697,40.9049],[14.6611,40.9039],[14.6511,40.9039],[14.648,40.9052],[14.6459,40.9087],[14.6362,40.9108],[14.6268,40.9104],[14.6267,40.907],[14.6189,40.9119],[14.6103,40.9093],[14.5995,40.9117],[14.5965,40.9106],[14.5975,40.9119],[14.5971,40.9143],[14.5848,40.9127],[14.5743,40.9091],[14.5723,40.91],[14.572,40.9136],[14.5745,40.9153],[14.5699,40.9233],[14.5797,40.9309],[14.5885,40.9336],[14.5953,40.9312],[14.603,40.9296],[14.6105,40.9294]]]}},{"type":"Feature","properties":{"i":"063089","n":"Volla"},"geometry":{"type":"Polygon","coordinates":[[[14.3582,40.8862],[14.3626,40.8769],[14.3559,40.874],[14.3465,40.8669],[14.3378,40.8735],[14.3312,40.876],[14.3258,40.8803],[14.3301,40.8835],[14.3311,40.8852],[14.3316,40.8876],[14.3307,40.8936],[14.3363,40.8936],[14.348,40.8966],[14.3548,40.8961],[14.3579,40.8921],[14.3582,40.8862]]]}},{"type":"Feature","properties":{"i":"063090","n":"Santa Maria la Carità"},"geometry":{"type":"Polygon","coordinates":[[[14.5176,40.7107],[14.4992,40.7076],[14.5011,40.7147],[14.498,40.7225],[14.5101,40.7302],[14.5205,40.7348],[14.5222,40.725],[14.5208,40.7113],[14.5176,40.7107]]]}},{"type":"Feature","properties":{"i":"063091","n":"Trecase"},"geometry":{"type":"Polygon","coordinates":[[[14.4506,40.7612],[14.4464,40.7602],[14.4428,40.7604],[14.4386,40.7619],[14.4368,40.7641],[14.4374,40.7647],[14.4315,40.767],[14.4286,40.7671],[14.4273,40.7696],[14.4289,40.7802],[14.4324,40.7867],[14.4333,40.793],[14.4264,40.8213],[14.4337,40.8053],[14.4404,40.7961],[14.4432,40.7874],[14.4508,40.7803],[14.4521,40.7755],[14.4506,40.7612]]]}},{"type":"Feature","properties":{"i":"063092","n":"Massa di Somma"},"geometry":{"type":"Polygon","coordinates":[[[14.4151,40.8325],[14.4064,40.8309],[14.3948,40.831],[14.3936,40.8317],[14.3919,40.8349],[14.3884,40.8376],[14.3642,40.8501],[14.369,40.8543],[14.3725,40.8522],[14.385,40.8472],[14.3894,40.8465],[14.4014,40.837],[14.4082,40.8348],[14.4126,40.8352],[14.4146,40.834],[14.4151,40.8325]]]}}]}
