{"type":"FeatureCollection","fonte":"Confini comunali ISTAT via openpolis/geojson-italy — CC BY 4.0","features":[{"type":"Feature","properties":{"i":"003001","n":"Agrate Conturbia"},"geometry":{"type":"Polygon","coordinates":[[[8.593,45.6703],[8.591,45.6695],[8.5867,45.6572],[8.5864,45.651],[8.5879,45.6491],[8.5901,45.6402],[8.5829,45.6386],[8.5791,45.6394],[8.5648,45.6472],[8.5593,45.6483],[8.5476,45.6689],[8.5455,45.6685],[8.5432,45.6699],[8.5404,45.6761],[8.5419,45.6803],[8.5448,45.683],[8.5507,45.6847],[8.5639,45.6845],[8.5713,45.6909],[8.5726,45.6912],[8.5808,45.6875],[8.5871,45.6802],[8.593,45.6703]]]}},{"type":"Feature","properties":{"i":"003002","n":"Ameno"},"geometry":{"type":"Polygon","coordinates":[[[8.4786,45.7971],[8.4828,45.7869],[8.4821,45.7859],[8.4717,45.7816],[8.4674,45.781],[8.4639,45.7857],[8.4591,45.7847],[8.4556,45.774],[8.4502,45.7717],[8.4415,45.771],[8.4362,45.7732],[8.4316,45.7769],[8.4248,45.7874],[8.4279,45.7968],[8.4342,45.7973],[8.4367,45.7997],[8.4404,45.8009],[8.4443,45.8013],[8.4501,45.7993],[8.4534,45.7995],[8.4645,45.8021],[8.4645,45.8029],[8.4786,45.7971]]]}},{"type":"Feature","properties":{"i":"003006","n":"Armeno"},"geometry":{"type":"Polygon","coordinates":[[[8.4982,45.8473],[8.495,45.8346],[8.498,45.8331],[8.5062,45.8347],[8.5069,45.8277],[8.5023,45.8209],[8.4923,45.8229],[8.4909,45.8222],[8.4902,45.8197],[8.4924,45.8182],[8.4962,45.8121],[8.4896,45.8031],[8.4786,45.7971],[8.4645,45.8029],[8.4607,45.8068],[8.4504,45.813],[8.438,45.8101],[8.4312,45.8121],[8.4293,45.8153],[8.4239,45.8184],[8.4203,45.8305],[8.4206,45.8358],[8.4249,45.8389],[8.4284,45.84],[8.4356,45.8443],[8.4492,45.8558],[8.4543,45.8663],[8.4559,45.8735],[8.4574,45.8766],[8.4597,45.8729],[8.4732,45.8638],[8.4752,45.8562],[8.491,45.8495],[8.4982,45.8473]]]}},{"type":"Feature","properties":{"i":"003008","n":"Arona"},"geometry":{"type":"Polygon","coordinates":[[[8.5557,45.775],[8.5796,45.7517],[8.5625,45.7459],[8.5543,45.7356],[8.5577,45.7293],[8.553,45.7253],[8.5469,45.7276],[8.5424,45.7351],[8.5388,45.7434],[8.5398,45.7501],[8.5389,45.7567],[8.5309,45.7649],[8.5228,45.7681],[8.5158,45.7653],[8.5166,45.7627],[8.504,45.7651],[8.5025,45.7651],[8.4994,45.7627],[8.4969,45.7644],[8.4988,45.7663],[8.4993,45.7701],[8.5044,45.7731],[8.52,45.7802],[8.5335,45.7847],[8.5381,45.7848],[8.5409,45.7748],[8.5418,45.774],[8.5557,45.775]]]}},{"type":"Feature","properties":{"i":"003012","n":"Barengo"},"geometry":{"type":"Polygon","coordinates":[[[8.5369,45.5902],[8.5384,45.588],[8.5382,45.5835],[8.5284,45.5701],[8.5276,45.5657],[8.5282,45.5609],[8.5349,45.5455],[8.5272,45.5399],[8.5208,45.5383],[8.5118,45.5425],[8.5076,45.5424],[8.5029,45.5462],[8.4993,45.5548],[8.4924,45.5576],[8.4885,45.5654],[8.4818,45.5619],[8.482,45.5638],[8.4795,45.5724],[8.4782,45.5824],[8.4931,45.5869],[8.5033,45.592],[8.515,45.5925],[8.5172,45.5932],[8.5206,45.5957],[8.5201,45.5974],[8.5224,45.5981],[8.5337,45.5991],[8.5363,45.5937],[8.5356,45.5939],[8.5348,45.5923],[8.5349,45.5901],[8.5369,45.5902]]]}},{"type":"Feature","properties":{"i":"003016","n":"Bellinzago Novarese"},"geometry":{"type":"Polygon","coordinates":[[[8.6938,45.5767],[8.6989,45.5727],[8.7055,45.5692],[8.707,45.5594],[8.7064,45.5555],[8.7007,45.5562],[8.686,45.5539],[8.6724,45.5428],[8.6648,45.5341],[8.6453,45.5233],[8.6314,45.5214],[8.6273,45.5224],[8.6247,45.5242],[8.6126,45.5219],[8.6128,45.5233],[8.6113,45.5263],[8.6037,45.5309],[8.5965,45.532],[8.5946,45.5339],[8.5945,45.5427],[8.5987,45.5531],[8.599,45.5625],[8.5963,45.5642],[8.5966,45.5657],[8.5978,45.5702],[8.6037,45.576],[8.6125,45.5791],[8.6154,45.5784],[8.6182,45.5765],[8.6228,45.5769],[8.6332,45.5797],[8.6334,45.581],[8.6484,45.5799],[8.6639,45.5772],[8.6772,45.5737],[8.6925,45.5747],[8.6938,45.5767]]]}},{"type":"Feature","properties":{"i":"003018","n":"Biandrate"},"geometry":{"type":"Polygon","coordinates":[[[8.4971,45.4558],[8.5073,45.4554],[8.5072,45.4535],[8.506,45.4536],[8.5057,45.4513],[8.5069,45.4451],[8.5076,45.4431],[8.514,45.4368],[8.5164,45.4261],[8.5107,45.4243],[8.5102,45.4278],[8.5059,45.4355],[8.4889,45.4415],[8.4809,45.4479],[8.4621,45.4469],[8.4606,45.4454],[8.4596,45.4403],[8.4523,45.4402],[8.4462,45.4385],[8.4371,45.4448],[8.4347,45.4493],[8.4453,45.4538],[8.4494,45.4632],[8.4486,45.4665],[8.4498,45.4676],[8.4528,45.4673],[8.4548,45.4662],[8.4731,45.464],[8.4745,45.4641],[8.4753,45.4666],[8.4807,45.4672],[8.4851,45.4643],[8.4905,45.4567],[8.4971,45.4558]]]}},{"type":"Feature","properties":{"i":"003019","n":"Boca"},"geometry":{"type":"Polygon","coordinates":[[[8.4344,45.6746],[8.4413,45.6645],[8.441,45.6624],[8.4308,45.659],[8.4283,45.6608],[8.4149,45.6663],[8.3932,45.6794],[8.3916,45.6824],[8.3875,45.685],[8.3737,45.6919],[8.3741,45.6985],[8.3817,45.6971],[8.3888,45.699],[8.3898,45.7021],[8.392,45.7035],[8.3929,45.7032],[8.4012,45.6987],[8.4056,45.6922],[8.4093,45.6888],[8.421,45.6812],[8.4283,45.679],[8.4292,45.6797],[8.4344,45.6746]]]}},{"type":"Feature","properties":{"i":"003021","n":"Bogogno"},"geometry":{"type":"Polygon","coordinates":[[[8.5419,45.6803],[8.5404,45.6757],[8.5425,45.6711],[8.5455,45.6685],[8.5476,45.6689],[8.5593,45.6483],[8.5504,45.6497],[8.5466,45.6482],[8.5383,45.6475],[8.5228,45.6476],[8.5204,45.6506],[8.5164,45.6663],[8.5165,45.678],[8.5251,45.6786],[8.5329,45.6803],[8.5419,45.6803]]]}},{"type":"Feature","properties":{"i":"003022","n":"Bolzano Novarese"},"geometry":{"type":"Polygon","coordinates":[[[8.4619,45.7514],[8.4394,45.7551],[8.4346,45.7582],[8.4334,45.7667],[8.4338,45.7694],[8.4502,45.7717],[8.4533,45.7695],[8.4628,45.7569],[8.4638,45.7525],[8.4619,45.7514]]]}},{"type":"Feature","properties":{"i":"003023","n":"Borgolavezzaro"},"geometry":{"type":"Polygon","coordinates":[[[8.7248,45.3357],[8.7264,45.3323],[8.7234,45.322],[8.7167,45.3081],[8.7172,45.3055],[8.7153,45.3021],[8.6906,45.2925],[8.6889,45.294],[8.6866,45.294],[8.666,45.2919],[8.6636,45.2943],[8.6631,45.2997],[8.6589,45.3037],[8.6596,45.3047],[8.6593,45.3147],[8.6551,45.323],[8.6557,45.3257],[8.6606,45.3258],[8.6633,45.3267],[8.6763,45.325],[8.6804,45.3287],[8.6824,45.336],[8.6937,45.3371],[8.6982,45.3387],[8.7016,45.3439],[8.7107,45.3422],[8.7203,45.3393],[8.7248,45.3357]]]}},{"type":"Feature","properties":{"i":"003024","n":"Borgomanero"},"geometry":{"type":"Polygon","coordinates":[[[8.4917,45.7253],[8.4902,45.722],[8.4831,45.7143],[8.4829,45.7079],[8.4845,45.7021],[8.4904,45.7006],[8.4983,45.7006],[8.5066,45.6969],[8.5115,45.6882],[8.5144,45.6802],[8.5165,45.678],[8.5164,45.6663],[8.5119,45.6637],[8.4935,45.6599],[8.4911,45.6654],[8.4814,45.668],[8.479,45.6722],[8.4685,45.6811],[8.4649,45.6831],[8.4587,45.6844],[8.4481,45.6803],[8.4467,45.6807],[8.4459,45.685],[8.4443,45.6874],[8.4335,45.6943],[8.4309,45.6984],[8.4221,45.7063],[8.4137,45.7134],[8.4041,45.7199],[8.4091,45.7192],[8.424,45.7197],[8.4331,45.7243],[8.4445,45.728],[8.4522,45.7146],[8.455,45.7153],[8.4573,45.7171],[8.4562,45.7203],[8.4625,45.7212],[8.4664,45.7208],[8.4711,45.7231],[8.4685,45.7278],[8.4738,45.7304],[8.4747,45.7349],[8.4787,45.7375],[8.4804,45.7376],[8.4819,45.7369],[8.484,45.732],[8.4917,45.7253]]]}},{"type":"Feature","properties":{"i":"003025","n":"Borgo Ticino"},"geometry":{"type":"Polygon","coordinates":[[[8.6314,45.6904],[8.6228,45.6852],[8.6149,45.6745],[8.6113,45.6739],[8.6072,45.6701],[8.6061,45.6712],[8.593,45.6703],[8.5871,45.6802],[8.5808,45.6875],[8.5747,45.6905],[8.5758,45.692],[8.5748,45.696],[8.5678,45.7032],[8.5733,45.7069],[8.5782,45.7074],[8.5804,45.711],[8.5853,45.7081],[8.5909,45.7108],[8.5974,45.7118],[8.6021,45.7113],[8.6136,45.7017],[8.6299,45.6929],[8.6314,45.6904]]]}},{"type":"Feature","properties":{"i":"003026","n":"Briga Novarese"},"geometry":{"type":"Polygon","coordinates":[[[8.4685,45.7278],[8.4711,45.7231],[8.4664,45.7208],[8.4625,45.7212],[8.4562,45.7203],[8.4573,45.7171],[8.455,45.7153],[8.4522,45.7146],[8.4455,45.7256],[8.4445,45.728],[8.4444,45.731],[8.448,45.737],[8.4493,45.741],[8.4571,45.7464],[8.4595,45.7475],[8.4627,45.7471],[8.4701,45.7421],[8.4656,45.7307],[8.4685,45.7278]]]}},{"type":"Feature","properties":{"i":"003027","n":"Briona"},"geometry":{"type":"Polygon","coordinates":[[[8.5349,45.5455],[8.5412,45.5471],[8.5423,45.5342],[8.5441,45.5266],[8.5534,45.5238],[8.5576,45.5122],[8.5619,45.5089],[8.5577,45.5088],[8.5514,45.5107],[8.5357,45.5084],[8.5355,45.5018],[8.5346,45.4996],[8.529,45.5048],[8.5242,45.5141],[8.5206,45.5148],[8.5109,45.5142],[8.5061,45.5207],[8.4985,45.5248],[8.4859,45.528],[8.4667,45.5221],[8.457,45.531],[8.4487,45.5359],[8.4508,45.5368],[8.4571,45.5432],[8.4635,45.5478],[8.4754,45.5586],[8.4885,45.5654],[8.4924,45.5576],[8.4993,45.5548],[8.5029,45.5462],[8.5076,45.5424],[8.5118,45.5425],[8.5208,45.5383],[8.5272,45.5399],[8.5349,45.5455]]]}},{"type":"Feature","properties":{"i":"003030","n":"Caltignaga"},"geometry":{"type":"Polygon","coordinates":[[[8.596,45.5454],[8.5945,45.5427],[8.5946,45.5339],[8.5965,45.532],[8.6037,45.5309],[8.6113,45.5263],[8.6127,45.5236],[8.6125,45.5173],[8.6107,45.5114],[8.6085,45.5079],[8.6096,45.5051],[8.6009,45.5042],[8.586,45.501],[8.5799,45.4983],[8.577,45.4985],[8.5702,45.5043],[8.5627,45.5079],[8.5576,45.5122],[8.5534,45.5238],[8.5441,45.5266],[8.5423,45.5342],[8.5412,45.5471],[8.5448,45.548],[8.5446,45.5512],[8.559,45.5535],[8.5682,45.554],[8.5765,45.5459],[8.5841,45.5467],[8.596,45.5454]]]}},{"type":"Feature","properties":{"i":"003032","n":"Cameri"},"geometry":{"type":"Polygon","coordinates":[[[8.711,45.5413],[8.7194,45.5311],[8.7144,45.5279],[8.7124,45.5236],[8.7132,45.5199],[8.7111,45.52],[8.7078,45.5175],[8.7089,45.513],[8.7048,45.5077],[8.701,45.5065],[8.6891,45.4985],[8.6732,45.4892],[8.6574,45.4835],[8.6515,45.4821],[8.6538,45.4768],[8.6467,45.4769],[8.6391,45.4753],[8.637,45.4768],[8.6329,45.4798],[8.6262,45.4878],[8.6203,45.49],[8.6124,45.4998],[8.6085,45.5075],[8.6107,45.5114],[8.6125,45.5173],[8.6126,45.5219],[8.6247,45.5242],[8.6273,45.5224],[8.6314,45.5214],[8.6453,45.5233],[8.6648,45.5341],[8.6724,45.5428],[8.686,45.5539],[8.7007,45.5562],[8.7064,45.5555],[8.7062,45.5528],[8.7072,45.5491],[8.7091,45.5439],[8.711,45.5413]]]}},{"type":"Feature","properties":{"i":"003036","n":"Carpignano Sesia"},"geometry":{"type":"Polygon","coordinates":[[[8.4312,45.5593],[8.4354,45.5505],[8.4391,45.5471],[8.4478,45.5433],[8.4487,45.5332],[8.4418,45.5316],[8.4353,45.528],[8.4262,45.5206],[8.4116,45.5172],[8.403,45.5163],[8.4032,45.5312],[8.3978,45.5408],[8.4,45.541],[8.3993,45.5609],[8.4119,45.5671],[8.4128,45.5656],[8.4168,45.5641],[8.4184,45.5652],[8.4206,45.5651],[8.4312,45.5593]]]}},{"type":"Feature","properties":{"i":"003037","n":"Casalbeltrame"},"geometry":{"type":"Polygon","coordinates":[[[8.5107,45.4243],[8.508,45.4207],[8.5077,45.4138],[8.5084,45.4097],[8.5041,45.4096],[8.4987,45.4101],[8.4929,45.4133],[8.4818,45.4137],[8.4511,45.419],[8.4363,45.4186],[8.4348,45.4236],[8.4364,45.4257],[8.4401,45.4274],[8.4462,45.4385],[8.4523,45.4402],[8.4596,45.4403],[8.4612,45.4465],[8.4652,45.4474],[8.4805,45.4479],[8.4889,45.4415],[8.5059,45.4355],[8.5102,45.4278],[8.5107,45.4243]]]}},{"type":"Feature","properties":{"i":"003039","n":"Casaleggio Novara"},"geometry":{"type":"Polygon","coordinates":[[[8.5346,45.4996],[8.5332,45.497],[8.5348,45.4895],[8.5284,45.4904],[8.5161,45.4824],[8.5086,45.4752],[8.5019,45.4702],[8.4962,45.4691],[8.4957,45.4709],[8.4855,45.4721],[8.4806,45.4805],[8.4699,45.489],[8.4821,45.4952],[8.4936,45.4981],[8.5197,45.4996],[8.5278,45.5025],[8.529,45.5048],[8.5346,45.4996]]]}},{"type":"Feature","properties":{"i":"003040","n":"Casalino"},"geometry":{"type":"Polygon","coordinates":[[[8.5351,45.4221],[8.5401,45.4218],[8.5434,45.4227],[8.5452,45.4233],[8.5459,45.4255],[8.5519,45.4244],[8.5567,45.4124],[8.5639,45.4047],[8.5661,45.3982],[8.567,45.3919],[8.5647,45.3876],[8.556,45.383],[8.5536,45.3777],[8.555,45.3629],[8.5531,45.3615],[8.5509,45.3561],[8.542,45.3478],[8.5319,45.3448],[8.5264,45.3422],[8.5092,45.343],[8.5042,45.3441],[8.5007,45.3463],[8.4975,45.351],[8.4984,45.3618],[8.4961,45.3742],[8.4853,45.3757],[8.4869,45.3804],[8.4892,45.3801],[8.4912,45.3813],[8.4919,45.3851],[8.5005,45.3975],[8.5054,45.4068],[8.5084,45.4097],[8.5077,45.4138],[8.508,45.4207],[8.5107,45.4243],[8.5164,45.4261],[8.5192,45.4232],[8.5198,45.4209],[8.5351,45.4221]]]}},{"type":"Feature","properties":{"i":"003041","n":"Casalvolone"},"geometry":{"type":"Polygon","coordinates":[[[8.5084,45.4097],[8.5054,45.4068],[8.5005,45.3975],[8.4919,45.3851],[8.4912,45.3813],[8.4901,45.3806],[8.482,45.3808],[8.4799,45.38],[8.4714,45.3792],[8.4703,45.3842],[8.4589,45.3819],[8.459,45.3801],[8.4553,45.3782],[8.4555,45.3825],[8.441,45.397],[8.4384,45.4037],[8.4333,45.4121],[8.4291,45.4121],[8.4295,45.4185],[8.4315,45.4167],[8.4363,45.4186],[8.4511,45.419],[8.4818,45.4137],[8.4929,45.4133],[8.4987,45.4101],[8.5084,45.4097]]]}},{"type":"Feature","properties":{"i":"003042","n":"Castellazzo Novarese"},"geometry":{"type":"Polygon","coordinates":[[[8.529,45.5048],[8.5278,45.5025],[8.5197,45.4996],[8.4936,45.4981],[8.4821,45.4952],[8.4814,45.4981],[8.4773,45.5049],[8.4616,45.5169],[8.4667,45.5221],[8.4859,45.528],[8.4882,45.5276],[8.4985,45.5248],[8.5061,45.5207],[8.5109,45.5142],[8.5206,45.5148],[8.5242,45.5141],[8.529,45.5048]]]}},{"type":"Feature","properties":{"i":"003043","n":"Castelletto sopra Ticino"},"geometry":{"type":"Polygon","coordinates":[[[8.6542,45.712],[8.6544,45.7079],[8.6461,45.6927],[8.6414,45.6872],[8.6404,45.6847],[8.637,45.6865],[8.6385,45.6899],[8.6327,45.6914],[8.6314,45.6904],[8.6299,45.6929],[8.6136,45.7017],[8.6033,45.7109],[8.5974,45.7118],[8.5935,45.7112],[8.5909,45.7108],[8.5853,45.7081],[8.5804,45.711],[8.5743,45.7177],[8.5775,45.7205],[8.5871,45.723],[8.5938,45.7304],[8.6021,45.7263],[8.6346,45.7228],[8.6429,45.7232],[8.6488,45.7196],[8.6542,45.712]]]}},{"type":"Feature","properties":{"i":"003044","n":"Cavaglietto"},"geometry":{"type":"Polygon","coordinates":[[[8.506,45.6121],[8.5097,45.6086],[8.5142,45.6066],[8.5189,45.6031],[8.5206,45.5957],[8.515,45.5925],[8.5033,45.592],[8.4931,45.5869],[8.4818,45.5839],[8.4784,45.597],[8.4782,45.6007],[8.4832,45.6024],[8.4875,45.6028],[8.4949,45.6134],[8.506,45.6121]]]}},{"type":"Feature","properties":{"i":"003045","n":"Cavaglio d'Agogna"},"geometry":{"type":"Polygon","coordinates":[[[8.4956,45.6135],[8.4929,45.6111],[8.4875,45.6028],[8.4832,45.6024],[8.4782,45.6007],[8.4784,45.597],[8.4818,45.5839],[8.4738,45.5807],[8.4649,45.5956],[8.4514,45.6283],[8.4585,45.6307],[8.4634,45.6314],[8.4698,45.6296],[8.4721,45.6253],[8.4723,45.6231],[8.4784,45.6227],[8.4831,45.6237],[8.4899,45.6237],[8.4951,45.6211],[8.4975,45.6183],[8.4979,45.6161],[8.4956,45.6135]]]}},{"type":"Feature","properties":{"i":"003047","n":"Cavallirio"},"geometry":{"type":"Polygon","coordinates":[[[8.4308,45.659],[8.4335,45.6539],[8.4214,45.6516],[8.4213,45.6499],[8.4189,45.6488],[8.4117,45.6476],[8.4027,45.649],[8.3956,45.6535],[8.3899,45.6543],[8.3842,45.6563],[8.3828,45.6676],[8.3854,45.6772],[8.386,45.6858],[8.3916,45.6824],[8.3932,45.6794],[8.4149,45.6663],[8.4283,45.6608],[8.4308,45.659]]]}},{"type":"Feature","properties":{"i":"003049","n":"Cerano"},"geometry":{"type":"Polygon","coordinates":[[[8.8245,45.4195],[8.8291,45.4154],[8.8422,45.3989],[8.8429,45.3938],[8.8332,45.3914],[8.8264,45.3912],[8.8233,45.3922],[8.8112,45.3891],[8.8105,45.3888],[8.8119,45.3833],[8.8015,45.3792],[8.7934,45.379],[8.7791,45.3833],[8.7691,45.3876],[8.765,45.3876],[8.7624,45.3821],[8.764,45.3773],[8.7597,45.3764],[8.755,45.3769],[8.7307,45.3755],[8.7304,45.3761],[8.7318,45.3803],[8.7517,45.3847],[8.7528,45.3868],[8.749,45.4007],[8.7448,45.4101],[8.7523,45.4107],[8.7524,45.416],[8.7546,45.4192],[8.7586,45.4225],[8.7747,45.4272],[8.7789,45.427],[8.7971,45.4291],[8.8084,45.4315],[8.81,45.4326],[8.8195,45.4352],[8.8231,45.4353],[8.8249,45.4348],[8.8263,45.4326],[8.8244,45.4301],[8.8245,45.4195]]]}},{"type":"Feature","properties":{"i":"003051","n":"Colazza"},"geometry":{"type":"Polygon","coordinates":[[[8.5017,45.7861],[8.4909,45.782],[8.4893,45.7775],[8.4828,45.7869],[8.4786,45.7971],[8.4896,45.8031],[8.5013,45.7952],[8.5028,45.7917],[8.5017,45.7861]]]}},{"type":"Feature","properties":{"i":"003052","n":"Comignago"},"geometry":{"type":"Polygon","coordinates":[[[8.553,45.7253],[8.5583,45.7273],[8.5743,45.7177],[8.5804,45.711],[8.5782,45.7074],[8.5733,45.7069],[8.5678,45.7032],[8.5649,45.707],[8.5632,45.7081],[8.5501,45.7097],[8.5441,45.7118],[8.544,45.7187],[8.5489,45.7251],[8.5466,45.7271],[8.5469,45.7276],[8.553,45.7253]]]}},{"type":"Feature","properties":{"i":"003055","n":"Cressa"},"geometry":{"type":"Polygon","coordinates":[[[8.5228,45.6476],[8.5239,45.6418],[8.5212,45.6312],[8.5192,45.6297],[8.5069,45.6294],[8.5059,45.6302],[8.5058,45.6286],[8.5048,45.6273],[8.502,45.6268],[8.4966,45.6315],[8.4993,45.6361],[8.4959,45.6467],[8.4956,45.6548],[8.4935,45.6599],[8.5119,45.6637],[8.5164,45.6663],[8.5204,45.6506],[8.5228,45.6476]]]}},{"type":"Feature","properties":{"i":"003058","n":"Cureggio"},"geometry":{"type":"Polygon","coordinates":[[[8.4814,45.668],[8.4809,45.6664],[8.4719,45.6665],[8.4674,45.6657],[8.4667,45.6635],[8.4679,45.6619],[8.4621,45.6549],[8.4573,45.6531],[8.4501,45.6527],[8.4335,45.6539],[8.4308,45.659],[8.441,45.6624],[8.4413,45.6645],[8.4344,45.6746],[8.4467,45.6807],[8.4481,45.6803],[8.4587,45.6844],[8.4649,45.6831],[8.4685,45.6811],[8.479,45.6722],[8.4814,45.668]]]}},{"type":"Feature","properties":{"i":"003060","n":"Divignano"},"geometry":{"type":"MultiPolygon","coordinates":[[[[8.6093,45.6616],[8.6086,45.6614],[8.6078,45.6634],[8.6093,45.6616]]],[[[8.6072,45.6701],[8.6078,45.6663],[8.6067,45.6538],[8.6105,45.6475],[8.6068,45.6424],[8.5947,45.6401],[8.5901,45.6402],[8.5879,45.6491],[8.5864,45.651],[8.5867,45.6572],[8.591,45.6695],[8.6024,45.6713],[8.6061,45.6712],[8.6072,45.6701]]]]}},{"type":"Feature","properties":{"i":"003062","n":"Dormelletto"},"geometry":{"type":"Polygon","coordinates":[[[8.5938,45.7304],[8.5871,45.723],[8.5775,45.7205],[8.5743,45.7177],[8.5583,45.7273],[8.553,45.7253],[8.5577,45.7293],[8.5543,45.7356],[8.5625,45.7459],[8.5796,45.7517],[8.5837,45.7475],[8.591,45.7335],[8.5938,45.7304]]]}},{"type":"Feature","properties":{"i":"003065","n":"Fara Novarese"},"geometry":{"type":"Polygon","coordinates":[[[8.4818,45.5619],[8.4754,45.5586],[8.4635,45.5478],[8.4571,45.5432],[8.4508,45.5368],[8.4487,45.5359],[8.4478,45.5433],[8.4391,45.5471],[8.4354,45.5505],[8.4312,45.5593],[8.4734,45.5773],[8.4738,45.5807],[8.4782,45.5824],[8.4795,45.5724],[8.482,45.5638],[8.4818,45.5619]]]}},{"type":"Feature","properties":{"i":"003066","n":"Fontaneto d'Agogna"},"geometry":{"type":"Polygon","coordinates":[[[8.4935,45.6599],[8.4956,45.6548],[8.4959,45.6467],[8.4993,45.6361],[8.4966,45.6315],[8.502,45.6268],[8.5048,45.6273],[8.5058,45.6286],[8.5059,45.6302],[8.5084,45.6229],[8.5078,45.6167],[8.506,45.6121],[8.4956,45.6135],[8.4979,45.6161],[8.4975,45.6183],[8.4951,45.6211],[8.4899,45.6237],[8.4831,45.6237],[8.4784,45.6227],[8.4723,45.6231],[8.4721,45.6253],[8.4698,45.6296],[8.4634,45.6314],[8.4585,45.6307],[8.4514,45.6283],[8.4547,45.6191],[8.4492,45.6181],[8.4454,45.6176],[8.4451,45.6199],[8.4311,45.6273],[8.4318,45.6421],[8.4269,45.6478],[8.4267,45.6528],[8.4335,45.6539],[8.4501,45.6527],[8.4573,45.6531],[8.4621,45.6549],[8.4679,45.6619],[8.4667,45.6635],[8.4674,45.6657],[8.4719,45.6665],[8.4809,45.6664],[8.4814,45.668],[8.4908,45.6656],[8.4924,45.6636],[8.4935,45.6599]]]}},{"type":"Feature","properties":{"i":"003068","n":"Galliate"},"geometry":{"type":"Polygon","coordinates":[[[8.7132,45.5199],[8.7199,45.5102],[8.7228,45.5076],[8.7228,45.506],[8.7279,45.5024],[8.7385,45.4985],[8.7571,45.4981],[8.7603,45.4969],[8.7687,45.4878],[8.7735,45.4847],[8.7796,45.4846],[8.7875,45.4862],[8.789,45.4841],[8.7769,45.4809],[8.7705,45.4768],[8.7469,45.4775],[8.7408,45.4765],[8.736,45.4719],[8.7296,45.4744],[8.713,45.4715],[8.7056,45.4642],[8.7005,45.4575],[8.693,45.4566],[8.6883,45.4637],[8.6798,45.4678],[8.6717,45.4699],[8.6663,45.4688],[8.6566,45.4699],[8.6515,45.4821],[8.6574,45.4835],[8.6732,45.4892],[8.6891,45.4985],[8.701,45.5065],[8.7048,45.5077],[8.7089,45.513],[8.7078,45.5175],[8.7111,45.52],[8.7132,45.5199]]]}},{"type":"Feature","properties":{"i":"003069","n":"Garbagna Novarese"},"geometry":{"type":"Polygon","coordinates":[[[8.6956,45.3991],[8.6964,45.3941],[8.692,45.3928],[8.6866,45.3925],[8.6826,45.3898],[8.6843,45.3847],[8.6736,45.3815],[8.6551,45.3779],[8.6486,45.3781],[8.6457,45.3807],[8.639,45.3845],[8.6295,45.3873],[8.6292,45.3928],[8.6318,45.3978],[8.6345,45.3973],[8.6458,45.3979],[8.6472,45.3983],[8.6498,45.4013],[8.654,45.4025],[8.664,45.4024],[8.6662,45.4006],[8.6758,45.4061],[8.6809,45.4076],[8.6847,45.4016],[8.6888,45.398],[8.6956,45.3991]]]}},{"type":"Feature","properties":{"i":"003070","n":"Gargallo"},"geometry":{"type":"Polygon","coordinates":[[[8.4331,45.7243],[8.4257,45.7202],[8.4228,45.7195],[8.4091,45.7192],[8.4041,45.7199],[8.399,45.7191],[8.3907,45.721],[8.3859,45.7202],[8.3856,45.7221],[8.3859,45.7251],[8.3873,45.727],[8.3969,45.7288],[8.4072,45.7296],[8.4115,45.7273],[8.4147,45.7276],[8.4196,45.7311],[8.4211,45.7361],[8.4276,45.7324],[8.4331,45.7243]]]}},{"type":"Feature","properties":{"i":"003073","n":"Ghemme"},"geometry":{"type":"Polygon","coordinates":[[[8.4547,45.6191],[8.4649,45.5956],[8.4522,45.5912],[8.4348,45.5883],[8.4287,45.5861],[8.4232,45.5808],[8.4139,45.5748],[8.4115,45.5709],[8.4119,45.5671],[8.3989,45.5608],[8.3932,45.5702],[8.3915,45.5751],[8.3912,45.5782],[8.3937,45.5832],[8.3931,45.5925],[8.3983,45.5928],[8.4003,45.5948],[8.4018,45.5966],[8.4024,45.6012],[8.4061,45.6071],[8.4176,45.6159],[8.4269,45.6252],[8.4311,45.631],[8.4314,45.627],[8.4451,45.6199],[8.4454,45.6176],[8.4547,45.6191]]]}},{"type":"Feature","properties":{"i":"003076","n":"Gozzano"},"geometry":{"type":"Polygon","coordinates":[[[8.4338,45.7694],[8.4334,45.7667],[8.4346,45.7582],[8.4394,45.7551],[8.4619,45.7514],[8.4595,45.7475],[8.4493,45.741],[8.448,45.737],[8.4444,45.731],[8.4445,45.728],[8.4331,45.7243],[8.4272,45.7328],[8.4175,45.7383],[8.4107,45.7455],[8.4054,45.7493],[8.3986,45.7506],[8.3963,45.7502],[8.3949,45.7539],[8.3953,45.7555],[8.4068,45.7616],[8.4096,45.7646],[8.4201,45.7689],[8.4338,45.7694]]]}},{"type":"Feature","properties":{"i":"003077","n":"Granozzo con Monticello"},"geometry":{"type":"Polygon","coordinates":[[[8.6214,45.389],[8.6214,45.3855],[8.6227,45.3808],[8.6202,45.3648],[8.6164,45.3651],[8.6142,45.3669],[8.6115,45.3666],[8.6094,45.363],[8.6138,45.3591],[8.6154,45.3545],[8.6128,45.3543],[8.5991,45.3486],[8.5908,45.3519],[8.5869,45.3519],[8.5809,45.35],[8.5779,45.3478],[8.571,45.3486],[8.5572,45.3533],[8.5538,45.3615],[8.5531,45.3615],[8.555,45.3629],[8.5536,45.3781],[8.556,45.383],[8.5603,45.3853],[8.5612,45.3817],[8.5622,45.3815],[8.5847,45.3837],[8.5935,45.3841],[8.5946,45.3831],[8.6009,45.3855],[8.6001,45.3929],[8.6077,45.3922],[8.6192,45.3884],[8.6214,45.389]]]}},{"type":"Feature","properties":{"i":"003079","n":"Grignasco"},"geometry":{"type":"Polygon","coordinates":[[[8.3741,45.6985],[8.3737,45.6919],[8.369,45.6882],[8.3569,45.6723],[8.3411,45.6618],[8.3373,45.6641],[8.3329,45.6741],[8.3106,45.6972],[8.3123,45.7002],[8.3149,45.7023],[8.3169,45.7008],[8.3202,45.7038],[8.3263,45.7029],[8.3498,45.7042],[8.355,45.7061],[8.3647,45.7074],[8.3675,45.7073],[8.3692,45.7063],[8.3741,45.6985]]]}},{"type":"Feature","properties":{"i":"003082","n":"Invorio"},"geometry":{"type":"Polygon","coordinates":[[[8.4893,45.7775],[8.4993,45.7701],[8.4988,45.7663],[8.4969,45.7644],[8.4994,45.7627],[8.5003,45.7632],[8.5057,45.7536],[8.5031,45.7405],[8.4979,45.7321],[8.4949,45.7302],[8.4951,45.727],[8.4917,45.7253],[8.484,45.732],[8.4819,45.7369],[8.4804,45.7376],[8.4787,45.7375],[8.4747,45.7349],[8.4733,45.7299],[8.4682,45.7278],[8.4656,45.7307],[8.4701,45.7421],[8.4627,45.7471],[8.4595,45.7475],[8.4619,45.7514],[8.4638,45.7525],[8.4628,45.7569],[8.4533,45.7695],[8.4502,45.7717],[8.4556,45.774],[8.4587,45.7841],[8.4625,45.7857],[8.4643,45.7855],[8.4674,45.781],[8.4717,45.7816],[8.4803,45.7849],[8.4828,45.7869],[8.4893,45.7775]]]}},{"type":"Feature","properties":{"i":"003083","n":"Landiona"},"geometry":{"type":"Polygon","coordinates":[[[8.4393,45.5006],[8.443,45.4955],[8.4432,45.4929],[8.4411,45.4879],[8.4251,45.4843],[8.422,45.4858],[8.4146,45.4823],[8.4119,45.48],[8.4061,45.4841],[8.4007,45.4915],[8.4018,45.4932],[8.4032,45.5005],[8.4025,45.5073],[8.4074,45.5061],[8.4206,45.5073],[8.4307,45.506],[8.4372,45.5042],[8.4387,45.5026],[8.4393,45.5006]]]}},{"type":"Feature","properties":{"i":"003084","n":"Lesa"},"geometry":{"type":"Polygon","coordinates":[[[8.5938,45.8282],[8.592,45.8244],[8.5879,45.8189],[8.5816,45.8137],[8.5635,45.8072],[8.5583,45.8036],[8.5548,45.7981],[8.5415,45.8008],[8.5365,45.8036],[8.5382,45.8094],[8.5407,45.8116],[8.5475,45.8226],[8.5475,45.8262],[8.546,45.8323],[8.5411,45.8385],[8.5451,45.8472],[8.5512,45.8516],[8.5607,45.8515],[8.5634,45.8457],[8.563,45.8409],[8.5618,45.8376],[8.5653,45.8354],[8.5689,45.8341],[8.5781,45.8336],[8.5938,45.8282]]]}},{"type":"Feature","properties":{"i":"003088","n":"Maggiora"},"geometry":{"type":"Polygon","coordinates":[[[8.4041,45.7199],[8.4137,45.7134],[8.4221,45.7063],[8.4309,45.6984],[8.4335,45.6943],[8.4443,45.6874],[8.4459,45.685],[8.4467,45.6807],[8.4344,45.6746],[8.4292,45.6797],[8.4283,45.679],[8.421,45.6812],[8.4093,45.6888],[8.4056,45.6922],[8.4012,45.6987],[8.3885,45.7053],[8.3827,45.709],[8.3813,45.7107],[8.3818,45.7142],[8.3848,45.7161],[8.3869,45.7204],[8.3907,45.721],[8.399,45.7191],[8.4041,45.7199]]]}},{"type":"Feature","properties":{"i":"003090","n":"Mandello Vitta"},"geometry":{"type":"Polygon","coordinates":[[[8.4821,45.4952],[8.4699,45.489],[8.4687,45.49],[8.4535,45.4901],[8.4447,45.4934],[8.4393,45.5006],[8.4491,45.5042],[8.4589,45.5127],[8.4616,45.5169],[8.4773,45.5049],[8.4814,45.4981],[8.4821,45.4952]]]}},{"type":"Feature","properties":{"i":"003091","n":"Marano Ticino"},"geometry":{"type":"Polygon","coordinates":[[[8.6068,45.6424],[8.608,45.6409],[8.615,45.6379],[8.6296,45.639],[8.6388,45.6374],[8.6522,45.6323],[8.6579,45.6323],[8.6616,45.6345],[8.6652,45.6315],[8.6659,45.6293],[8.6629,45.6226],[8.6586,45.6247],[8.654,45.624],[8.6462,45.6198],[8.6301,45.6188],[8.6239,45.6219],[8.622,45.626],[8.6067,45.626],[8.6042,45.6269],[8.5947,45.6401],[8.6068,45.6424]]]}},{"type":"Feature","properties":{"i":"003093","n":"Massino Visconti"},"geometry":{"type":"Polygon","coordinates":[[[8.5411,45.8385],[8.546,45.8323],[8.5475,45.8262],[8.5475,45.8226],[8.5407,45.8116],[8.5382,45.8094],[8.5271,45.8147],[8.5124,45.8255],[8.5069,45.8277],[8.5062,45.8347],[8.5138,45.8349],[8.5199,45.836],[8.5242,45.8391],[8.5286,45.8402],[8.5337,45.8401],[8.5411,45.8385]]]}},{"type":"Feature","properties":{"i":"003095","n":"Meina"},"geometry":{"type":"Polygon","coordinates":[[[8.5523,45.7881],[8.5557,45.775],[8.5416,45.7741],[8.5381,45.7848],[8.5335,45.7847],[8.52,45.7802],[8.4993,45.7701],[8.4893,45.7775],[8.4909,45.782],[8.5017,45.7861],[8.5082,45.7841],[8.5077,45.7832],[8.5149,45.7842],[8.518,45.7856],[8.5193,45.7873],[8.5243,45.7895],[8.5318,45.7952],[8.5365,45.8036],[8.5415,45.8008],[8.5548,45.7981],[8.5523,45.7881]]]}},{"type":"Feature","properties":{"i":"003097","n":"Mezzomerico"},"geometry":{"type":"Polygon","coordinates":[[[8.6239,45.6219],[8.6226,45.6216],[8.6211,45.615],[8.6235,45.6095],[8.6204,45.609],[8.6145,45.61],[8.6022,45.609],[8.5982,45.6061],[8.5899,45.603],[8.5886,45.6038],[8.5847,45.6139],[8.5866,45.6208],[8.5845,45.6342],[8.5829,45.6386],[8.5901,45.6402],[8.5947,45.6401],[8.6042,45.6269],[8.6067,45.626],[8.622,45.626],[8.6239,45.6219]]]}},{"type":"Feature","properties":{"i":"003098","n":"Miasino"},"geometry":{"type":"Polygon","coordinates":[[[8.4645,45.8029],[8.4645,45.8021],[8.4534,45.7995],[8.4501,45.7993],[8.4443,45.8013],[8.4404,45.8009],[8.4367,45.7997],[8.4342,45.7973],[8.4279,45.7968],[8.4247,45.8012],[8.4228,45.8025],[8.4169,45.8013],[8.4083,45.8075],[8.4182,45.8164],[8.4239,45.8184],[8.4293,45.8153],[8.4312,45.8121],[8.438,45.8101],[8.4504,45.813],[8.4607,45.8068],[8.4645,45.8029]]]}},{"type":"Feature","properties":{"i":"003100","n":"Momo"},"geometry":{"type":"Polygon","coordinates":[[[8.5978,45.5702],[8.5963,45.5644],[8.599,45.5625],[8.5987,45.5531],[8.596,45.5454],[8.5841,45.5467],[8.5765,45.5459],[8.5682,45.554],[8.559,45.5535],[8.5446,45.5512],[8.5448,45.548],[8.5349,45.5455],[8.5282,45.5609],[8.5276,45.5657],[8.5284,45.5701],[8.5382,45.5835],[8.5384,45.588],[8.5369,45.5902],[8.5391,45.5914],[8.5535,45.5891],[8.5624,45.5916],[8.5782,45.5975],[8.581,45.5993],[8.5855,45.5988],[8.5853,45.5883],[8.5872,45.581],[8.595,45.578],[8.5978,45.5702]]]}},{"type":"Feature","properties":{"i":"003103","n":"Nebbiuno"},"geometry":{"type":"Polygon","coordinates":[[[8.5382,45.8094],[8.5365,45.8036],[8.5318,45.7952],[8.5243,45.7895],[8.5193,45.7873],[8.5212,45.7924],[8.5209,45.794],[8.5173,45.7972],[8.5141,45.7982],[8.511,45.7981],[8.5056,45.8],[8.4992,45.8047],[8.4944,45.8055],[8.4909,45.8047],[8.4962,45.8121],[8.4924,45.8182],[8.4902,45.8197],[8.4909,45.8222],[8.4923,45.8229],[8.5023,45.8209],[8.5069,45.8277],[8.5124,45.8255],[8.5271,45.8147],[8.5382,45.8094]]]}},{"type":"Feature","properties":{"i":"003104","n":"Nibbiola"},"geometry":{"type":"Polygon","coordinates":[[[8.6295,45.3873],[8.639,45.3845],[8.6505,45.3776],[8.6736,45.3815],[8.6785,45.3633],[8.6725,45.3599],[8.6635,45.3579],[8.6546,45.3582],[8.6454,45.356],[8.6462,45.3547],[8.6455,45.3516],[8.6307,45.3545],[8.6264,45.3598],[8.6267,45.3639],[8.6256,45.3675],[8.6234,45.3709],[8.621,45.3723],[8.6227,45.3808],[8.6214,45.3855],[8.6214,45.389],[8.6295,45.3873]]]}},{"type":"Feature","properties":{"i":"003106","n":"Novara"},"geometry":{"type":"Polygon","coordinates":[[[8.6538,45.4768],[8.6566,45.4699],[8.6663,45.4688],[8.6717,45.4699],[8.6798,45.4678],[8.6883,45.4637],[8.6926,45.4567],[8.7005,45.4575],[8.6991,45.4536],[8.7034,45.4428],[8.6975,45.4418],[8.6932,45.4346],[8.692,45.4273],[8.6868,45.4255],[8.6719,45.4227],[8.6689,45.4156],[8.6738,45.4087],[8.6766,45.4095],[8.6809,45.4076],[8.6758,45.4061],[8.6662,45.4006],[8.664,45.4024],[8.654,45.4025],[8.6498,45.4013],[8.6472,45.3983],[8.6458,45.3979],[8.6345,45.3973],[8.6318,45.3978],[8.6292,45.3928],[8.6295,45.3873],[8.6214,45.389],[8.6192,45.3884],[8.6077,45.3922],[8.6001,45.3929],[8.6009,45.3855],[8.5946,45.3831],[8.5935,45.3841],[8.5847,45.3837],[8.5612,45.3817],[8.5603,45.3853],[8.5647,45.3876],[8.567,45.3919],[8.5661,45.3982],[8.5639,45.4047],[8.5567,45.4124],[8.5519,45.4244],[8.5459,45.4255],[8.5452,45.4233],[8.5434,45.4227],[8.5401,45.4218],[8.5351,45.4221],[8.5334,45.4263],[8.5293,45.444],[8.5334,45.4481],[8.5366,45.4491],[8.5448,45.4458],[8.5633,45.4434],[8.5645,45.4417],[8.5736,45.4472],[8.5748,45.4496],[8.5751,45.4576],[8.572,45.4603],[8.5692,45.4674],[8.5689,45.4774],[8.5724,45.48],[8.5776,45.4903],[8.5785,45.497],[8.577,45.4985],[8.5799,45.4983],[8.586,45.501],[8.6009,45.5042],[8.6096,45.5051],[8.6124,45.4998],[8.6203,45.49],[8.6262,45.4878],[8.6329,45.4798],[8.6391,45.4753],[8.6467,45.4769],[8.6538,45.4768]]]}},{"type":"Feature","properties":{"i":"003108","n":"Oleggio"},"geometry":{"type":"Polygon","coordinates":[[[8.6629,45.6226],[8.6642,45.6211],[8.6662,45.6207],[8.678,45.6215],[8.6821,45.6203],[8.6856,45.6176],[8.6899,45.6123],[8.6939,45.6096],[8.6888,45.6082],[8.6919,45.6041],[8.6993,45.6017],[8.6991,45.6027],[8.7001,45.604],[8.7031,45.6001],[8.7048,45.5942],[8.7044,45.5883],[8.6949,45.5813],[8.6934,45.5788],[8.6938,45.5767],[8.6925,45.5747],[8.6772,45.5737],[8.6639,45.5772],[8.6484,45.5799],[8.6334,45.581],[8.6332,45.5797],[8.6228,45.5769],[8.6182,45.5765],[8.6154,45.5784],[8.6125,45.5791],[8.6037,45.576],[8.5978,45.5702],[8.595,45.578],[8.5872,45.581],[8.5853,45.5883],[8.5855,45.5988],[8.5804,45.599],[8.5809,45.6003],[8.5857,45.6015],[8.5886,45.6038],[8.5899,45.603],[8.5946,45.6045],[8.6022,45.609],[8.6145,45.61],[8.6204,45.609],[8.6235,45.6095],[8.6211,45.615],[8.6226,45.6216],[8.6233,45.6218],[8.6301,45.6188],[8.6462,45.6198],[8.654,45.624],[8.6586,45.6247],[8.6629,45.6226]]]}},{"type":"Feature","properties":{"i":"003109","n":"Oleggio Castello"},"geometry":{"type":"Polygon","coordinates":[[[8.5469,45.7276],[8.5466,45.7271],[8.5214,45.73],[8.5148,45.7338],[8.5146,45.7366],[8.5229,45.746],[8.5228,45.7521],[8.521,45.7601],[8.5234,45.7679],[8.5309,45.7649],[8.5389,45.7567],[8.5398,45.7501],[8.5388,45.7434],[8.5424,45.7351],[8.5469,45.7276]]]}},{"type":"Feature","properties":{"i":"003112","n":"Orta San Giulio"},"geometry":{"type":"Polygon","coordinates":[[[8.4279,45.7968],[8.4257,45.7916],[8.425,45.7868],[8.4316,45.7769],[8.4362,45.7732],[8.4415,45.771],[8.4338,45.7694],[8.4201,45.7689],[8.412,45.7883],[8.3933,45.7914],[8.3955,45.7967],[8.3963,45.8044],[8.3956,45.8069],[8.4084,45.8074],[8.4169,45.8013],[8.4228,45.8025],[8.4247,45.8012],[8.4279,45.7968]]]}},{"type":"Feature","properties":{"i":"003114","n":"Paruzzaro"},"geometry":{"type":"Polygon","coordinates":[[[8.5234,45.7679],[8.521,45.7601],[8.5228,45.7521],[8.5229,45.746],[8.5146,45.7366],[8.5152,45.7334],[8.5057,45.7294],[8.4955,45.7266],[8.4945,45.7288],[8.4949,45.7302],[8.4979,45.7321],[8.5031,45.7405],[8.5057,45.7536],[8.5003,45.7632],[8.5025,45.7651],[8.504,45.7651],[8.5166,45.7627],[8.5158,45.7653],[8.5234,45.7679]]]}},{"type":"Feature","properties":{"i":"003115","n":"Pella"},"geometry":{"type":"Polygon","coordinates":[[[8.4083,45.8075],[8.3956,45.8069],[8.3963,45.8044],[8.3955,45.7967],[8.3933,45.7914],[8.3832,45.7846],[8.3794,45.7835],[8.3748,45.7842],[8.377,45.7971],[8.3732,45.8021],[8.3752,45.8058],[8.3799,45.8093],[8.3821,45.8126],[8.3778,45.8213],[8.3754,45.8285],[8.3774,45.8385],[8.3928,45.8395],[8.3884,45.8313],[8.3951,45.8147],[8.4064,45.8097],[8.4083,45.8075]]]}},{"type":"Feature","properties":{"i":"003116","n":"Pettenasco"},"geometry":{"type":"Polygon","coordinates":[[[8.4208,45.8298],[8.4239,45.8184],[8.4182,45.8164],[8.4083,45.8075],[8.4064,45.8097],[8.3952,45.8146],[8.3884,45.8313],[8.3993,45.8543],[8.4055,45.8475],[8.4075,45.8378],[8.4099,45.8305],[8.4208,45.8298]]]}},{"type":"Feature","properties":{"i":"003119","n":"Pisano"},"geometry":{"type":"Polygon","coordinates":[[[8.5193,45.7873],[8.518,45.7856],[8.5149,45.7842],[8.5077,45.7832],[8.5082,45.7841],[8.5017,45.7861],[8.5028,45.7917],[8.5013,45.7952],[8.4896,45.8031],[8.4926,45.8053],[8.4992,45.8047],[8.5056,45.8],[8.511,45.7981],[8.5141,45.7982],[8.5173,45.7972],[8.5209,45.794],[8.5212,45.7924],[8.5193,45.7873]]]}},{"type":"Feature","properties":{"i":"003120","n":"Pogno"},"geometry":{"type":"Polygon","coordinates":[[[8.4096,45.7646],[8.4068,45.7616],[8.3953,45.7555],[8.3949,45.7539],[8.3963,45.7502],[8.3874,45.7517],[8.3849,45.751],[8.3925,45.748],[8.3885,45.7429],[8.3754,45.7374],[8.3732,45.7373],[8.3688,45.7389],[8.3717,45.7445],[8.3569,45.754],[8.353,45.7583],[8.3541,45.7646],[8.3572,45.7676],[8.3526,45.7714],[8.3499,45.7724],[8.3559,45.775],[8.3583,45.7733],[8.3721,45.7726],[8.3799,45.7712],[8.3816,45.7686],[8.3856,45.7675],[8.4037,45.7666],[8.4096,45.7646]]]}},{"type":"Feature","properties":{"i":"003121","n":"Pombia"},"geometry":{"type":"Polygon","coordinates":[[[8.6735,45.6569],[8.682,45.65],[8.688,45.6417],[8.6882,45.6371],[8.6854,45.6345],[8.6803,45.6335],[8.677,45.6341],[8.6735,45.6368],[8.6722,45.6402],[8.6709,45.6415],[8.6671,45.6428],[8.6617,45.6426],[8.6604,45.6419],[8.6589,45.6377],[8.6616,45.6345],[8.6579,45.6323],[8.6556,45.6322],[8.6522,45.6323],[8.6388,45.6374],[8.6296,45.639],[8.615,45.6379],[8.608,45.6409],[8.6068,45.6424],[8.6105,45.6475],[8.6106,45.6492],[8.6138,45.6561],[8.6197,45.6587],[8.6249,45.6599],[8.6351,45.6603],[8.644,45.6583],[8.6508,45.6525],[8.6653,45.653],[8.6735,45.6569]]]}},{"type":"Feature","properties":{"i":"003122","n":"Prato Sesia"},"geometry":{"type":"Polygon","coordinates":[[[8.386,45.6858],[8.3854,45.6772],[8.3828,45.6676],[8.3842,45.6563],[8.3899,45.6543],[8.3956,45.6535],[8.398,45.652],[8.388,45.6488],[8.3854,45.6432],[8.3814,45.6405],[8.3775,45.6387],[8.3551,45.6511],[8.3474,45.6546],[8.3419,45.6601],[8.3411,45.6618],[8.3569,45.6723],[8.369,45.6882],[8.3737,45.6919],[8.386,45.6858]]]}},{"type":"Feature","properties":{"i":"003129","n":"Recetto"},"geometry":{"type":"Polygon","coordinates":[[[8.4486,45.4665],[8.4494,45.4632],[8.4453,45.4538],[8.4347,45.4493],[8.4373,45.4446],[8.4327,45.4432],[8.4267,45.4438],[8.4225,45.4479],[8.4218,45.4497],[8.4159,45.4496],[8.4083,45.4476],[8.4082,45.4518],[8.4024,45.4595],[8.4024,45.4699],[8.4131,45.4717],[8.4428,45.4724],[8.4486,45.4665]]]}},{"type":"Feature","properties":{"i":"003130","n":"Romagnano Sesia"},"geometry":{"type":"Polygon","coordinates":[[[8.4311,45.631],[8.4269,45.6252],[8.4176,45.6159],[8.4061,45.6071],[8.4024,45.6012],[8.4018,45.5966],[8.3993,45.5937],[8.3983,45.5928],[8.3931,45.5925],[8.3914,45.6139],[8.3903,45.6182],[8.389,45.6201],[8.3714,45.6358],[8.3672,45.6357],[8.3548,45.6378],[8.3529,45.6426],[8.347,45.6451],[8.3551,45.6511],[8.3775,45.6387],[8.3854,45.6432],[8.388,45.6488],[8.398,45.652],[8.4027,45.649],[8.4117,45.6476],[8.4182,45.6486],[8.4213,45.6499],[8.4214,45.6516],[8.4267,45.6528],[8.4269,45.6478],[8.4318,45.6421],[8.4311,45.631]]]}},{"type":"Feature","properties":{"i":"003131","n":"Romentino"},"geometry":{"type":"Polygon","coordinates":[[[8.7882,45.4642],[8.7824,45.4641],[8.7893,45.462],[8.7929,45.4598],[8.7886,45.4551],[8.7826,45.4539],[8.7662,45.4533],[8.7466,45.4608],[8.7378,45.4591],[8.7309,45.454],[8.7275,45.4505],[8.7291,45.4471],[8.7034,45.4428],[8.6991,45.4536],[8.7005,45.4575],[8.7056,45.4642],[8.713,45.4715],[8.7296,45.4744],[8.736,45.4719],[8.7408,45.4765],[8.7469,45.4775],[8.7705,45.4768],[8.7769,45.4809],[8.789,45.4841],[8.7906,45.4802],[8.7912,45.4702],[8.7901,45.4662],[8.7882,45.4642]]]}},{"type":"Feature","properties":{"i":"003133","n":"San Maurizio d'Opaglio"},"geometry":{"type":"Polygon","coordinates":[[[8.4201,45.7689],[8.4096,45.7646],[8.4037,45.7666],[8.3856,45.7675],[8.3816,45.7686],[8.3799,45.7712],[8.3721,45.7726],[8.3583,45.7733],[8.3559,45.775],[8.3606,45.7768],[8.3679,45.7839],[8.3809,45.7838],[8.384,45.785],[8.3933,45.7914],[8.412,45.7883],[8.4201,45.7689]]]}},{"type":"Feature","properties":{"i":"003134","n":"San Nazzaro Sesia"},"geometry":{"type":"Polygon","coordinates":[[[8.4373,45.4446],[8.4462,45.4385],[8.4401,45.4274],[8.4353,45.4247],[8.4348,45.4236],[8.4363,45.4186],[8.4315,45.4167],[8.4295,45.4185],[8.4288,45.4108],[8.4248,45.4092],[8.418,45.4082],[8.4107,45.4047],[8.41,45.3994],[8.4084,45.3972],[8.4006,45.3962],[8.4061,45.4191],[8.4062,45.434],[8.4046,45.4386],[8.405,45.4424],[8.4083,45.4476],[8.4159,45.4496],[8.4218,45.4497],[8.4225,45.4479],[8.4267,45.4438],[8.4327,45.4432],[8.4373,45.4446]]]}},{"type":"Feature","properties":{"i":"003135","n":"San Pietro Mosezzo"},"geometry":{"type":"Polygon","coordinates":[[[8.5619,45.5089],[8.5702,45.5043],[8.5784,45.4975],[8.5776,45.4903],[8.5724,45.48],[8.5689,45.4774],[8.5692,45.4674],[8.572,45.4603],[8.5751,45.4576],[8.5744,45.4484],[8.5729,45.4467],[8.5645,45.4417],[8.5633,45.4434],[8.5448,45.4458],[8.5366,45.4491],[8.5334,45.4481],[8.5293,45.444],[8.5334,45.4263],[8.5351,45.4221],[8.5198,45.4209],[8.5192,45.4232],[8.5164,45.4261],[8.514,45.4368],[8.5076,45.4431],[8.5057,45.4513],[8.506,45.4536],[8.5072,45.4535],[8.5073,45.4554],[8.4971,45.4558],[8.4968,45.4594],[8.5042,45.4608],[8.504,45.4654],[8.5019,45.4702],[8.5086,45.4752],[8.5161,45.4824],[8.5284,45.4904],[8.5348,45.4895],[8.5332,45.497],[8.5355,45.5018],[8.5357,45.5084],[8.5514,45.5107],[8.5577,45.5088],[8.5619,45.5089]]]}},{"type":"Feature","properties":{"i":"003138","n":"Sillavengo"},"geometry":{"type":"Polygon","coordinates":[[[8.4667,45.5221],[8.4616,45.5169],[8.4589,45.5127],[8.4491,45.5042],[8.4393,45.5006],[8.4387,45.5026],[8.4372,45.5042],[8.4307,45.506],[8.4206,45.5073],[8.4074,45.5061],[8.4025,45.5073],[8.403,45.5163],[8.4116,45.5172],[8.4262,45.5206],[8.4353,45.528],[8.4418,45.5316],[8.4487,45.5332],[8.4488,45.5353],[8.457,45.531],[8.4667,45.5221]]]}},{"type":"Feature","properties":{"i":"003139","n":"Sizzano"},"geometry":{"type":"Polygon","coordinates":[[[8.4738,45.5807],[8.4734,45.5773],[8.4312,45.5593],[8.4206,45.5651],[8.4184,45.5652],[8.4168,45.5641],[8.4128,45.5656],[8.4119,45.5671],[8.4115,45.5709],[8.4139,45.5748],[8.4232,45.5808],[8.4287,45.5861],[8.4348,45.5883],[8.4522,45.5912],[8.4649,45.5956],[8.4738,45.5807]]]}},{"type":"Feature","properties":{"i":"003140","n":"Soriso"},"geometry":{"type":"Polygon","coordinates":[[[8.3963,45.7502],[8.3986,45.7506],[8.4054,45.7493],[8.4107,45.7455],[8.4175,45.7383],[8.4211,45.7361],[8.4209,45.7341],[8.4196,45.7311],[8.4136,45.7273],[8.4115,45.7273],[8.4072,45.7296],[8.3969,45.7288],[8.3873,45.727],[8.3859,45.7251],[8.3859,45.7202],[8.3837,45.7205],[8.3796,45.7266],[8.3779,45.7386],[8.3881,45.7427],[8.3925,45.748],[8.3849,45.751],[8.3874,45.7517],[8.3963,45.7502]]]}},{"type":"Feature","properties":{"i":"003141","n":"Sozzago"},"geometry":{"type":"Polygon","coordinates":[[[8.745,45.4105],[8.749,45.4007],[8.7528,45.3868],[8.7517,45.3847],[8.7318,45.3803],[8.7307,45.3755],[8.7263,45.3759],[8.7239,45.3779],[8.7191,45.3781],[8.7176,45.3801],[8.7133,45.3828],[8.709,45.383],[8.7011,45.3874],[8.6981,45.393],[8.6964,45.3941],[8.6949,45.4008],[8.7017,45.4055],[8.7103,45.4087],[8.7126,45.4126],[8.7205,45.4128],[8.7389,45.4104],[8.745,45.4105]]]}},{"type":"Feature","properties":{"i":"003143","n":"Suno"},"geometry":{"type":"Polygon","coordinates":[[[8.5593,45.6483],[8.5648,45.6472],[8.5791,45.6394],[8.5829,45.6386],[8.5845,45.6342],[8.5866,45.6208],[8.5847,45.6139],[8.5764,45.6115],[8.5744,45.6116],[8.5687,45.614],[8.5571,45.6174],[8.5496,45.6163],[8.5397,45.6135],[8.5402,45.612],[8.5342,45.6077],[8.5189,45.601],[8.5189,45.6031],[8.5142,45.6066],[8.5097,45.6086],[8.506,45.6121],[8.5078,45.6167],[8.5084,45.6229],[8.5059,45.6302],[8.5069,45.6294],[8.5192,45.6297],[8.5212,45.6312],[8.5239,45.6418],[8.5228,45.6476],[8.5383,45.6475],[8.5466,45.6482],[8.5504,45.6497],[8.5593,45.6483]]]}},{"type":"Feature","properties":{"i":"003144","n":"Terdobbiate"},"geometry":{"type":"Polygon","coordinates":[[[8.7191,45.3781],[8.7204,45.3747],[8.7087,45.3727],[8.7092,45.3715],[8.7073,45.3619],[8.7009,45.3605],[8.6965,45.3612],[8.6964,45.3554],[8.6953,45.3553],[8.6945,45.3577],[8.6905,45.36],[8.6816,45.363],[8.6785,45.3633],[8.6736,45.3815],[8.6843,45.3847],[8.6826,45.3898],[8.6866,45.3925],[8.692,45.3928],[8.6968,45.3941],[8.6983,45.3928],[8.7011,45.3874],[8.709,45.383],[8.7133,45.3828],[8.7176,45.3801],[8.7191,45.3781]]]}},{"type":"Feature","properties":{"i":"003146","n":"Tornaco"},"geometry":{"type":"Polygon","coordinates":[[[8.7607,45.3557],[8.7583,45.3546],[8.7604,45.3519],[8.7556,45.3445],[8.7453,45.3395],[8.7429,45.3369],[8.7421,45.3321],[8.7248,45.3357],[8.7203,45.3393],[8.7107,45.3422],[8.7016,45.3439],[8.7009,45.3491],[8.6993,45.3488],[8.6954,45.3524],[8.6964,45.3554],[8.6965,45.3612],[8.7009,45.3605],[8.7073,45.3619],[8.7092,45.3715],[8.7087,45.3727],[8.7204,45.3747],[8.7211,45.3704],[8.733,45.3649],[8.7464,45.3552],[8.7475,45.3563],[8.7561,45.3572],[8.7607,45.3557]]]}},{"type":"Feature","properties":{"i":"003149","n":"Trecate"},"geometry":{"type":"MultiPolygon","coordinates":[[[[8.7929,45.4598],[8.8,45.4558],[8.8052,45.4497],[8.8078,45.4477],[8.81,45.4374],[8.808,45.4358],[8.8077,45.4344],[8.8081,45.4333],[8.81,45.4326],[8.8084,45.4315],[8.7971,45.4291],[8.7789,45.427],[8.7747,45.4272],[8.7605,45.4233],[8.7546,45.4192],[8.7524,45.416],[8.7523,45.4107],[8.7389,45.4104],[8.7205,45.4128],[8.7126,45.4126],[8.7103,45.4087],[8.7017,45.4055],[8.6949,45.4008],[8.6956,45.3991],[8.6888,45.398],[8.6847,45.4016],[8.6809,45.4076],[8.6766,45.4095],[8.6738,45.4087],[8.6689,45.4156],[8.6719,45.4227],[8.6868,45.4255],[8.692,45.4273],[8.6932,45.4346],[8.6975,45.4418],[8.7291,45.4471],[8.7275,45.4505],[8.7378,45.4591],[8.7466,45.4608],[8.7662,45.4533],[8.7826,45.4539],[8.7886,45.4551],[8.7929,45.4598]]],[[[8.7893,45.462],[8.7824,45.4641],[8.7882,45.4642],[8.7884,45.4625],[8.7893,45.462]]]]}},{"type":"Feature","properties":{"i":"003153","n":"Vaprio d'Agogna"},"geometry":{"type":"Polygon","coordinates":[[[8.5847,45.6139],[8.5886,45.6038],[8.5857,45.6015],[8.5809,45.6003],[8.5804,45.599],[8.5782,45.5975],[8.5535,45.5891],[8.5391,45.5914],[8.5369,45.5902],[8.5349,45.5901],[8.5348,45.5923],[8.5356,45.5939],[8.5363,45.5937],[8.5337,45.5991],[8.5201,45.5974],[8.5189,45.601],[8.5342,45.6077],[8.5402,45.612],[8.5397,45.6135],[8.5496,45.6163],[8.5571,45.6174],[8.5687,45.614],[8.5744,45.6116],[8.5764,45.6115],[8.5847,45.6139]]]}},{"type":"Feature","properties":{"i":"003154","n":"Varallo Pombia"},"geometry":{"type":"Polygon","coordinates":[[[8.6404,45.6847],[8.6408,45.6768],[8.642,45.6759],[8.6526,45.6746],[8.6637,45.6745],[8.6703,45.6757],[8.6744,45.6775],[8.6782,45.6775],[8.6812,45.6764],[8.6827,45.6708],[8.6804,45.668],[8.6711,45.6655],[8.6698,45.6614],[8.6735,45.6569],[8.6653,45.653],[8.6508,45.6525],[8.644,45.6583],[8.6351,45.6603],[8.6261,45.6601],[8.6197,45.6587],[8.6138,45.6561],[8.6106,45.6492],[8.6105,45.6475],[8.6067,45.6538],[8.6078,45.6663],[8.6072,45.6701],[8.6113,45.6739],[8.6149,45.6745],[8.6228,45.6852],[8.6327,45.6914],[8.6385,45.6899],[8.637,45.6865],[8.6404,45.6847]],[[8.6093,45.6616],[8.6078,45.6634],[8.6086,45.6614],[8.6093,45.6616]]]}},{"type":"Feature","properties":{"i":"003158","n":"Vespolate"},"geometry":{"type":"Polygon","coordinates":[[[8.6785,45.3633],[8.6874,45.3613],[8.6945,45.3577],[8.6948,45.3554],[8.6964,45.3554],[8.6954,45.3524],[8.6993,45.3488],[8.7009,45.3491],[8.7016,45.3439],[8.6982,45.3387],[8.6937,45.3371],[8.6824,45.336],[8.6804,45.3287],[8.6763,45.325],[8.6633,45.3267],[8.6606,45.3258],[8.6557,45.3257],[8.6545,45.327],[8.6342,45.3369],[8.6317,45.3384],[8.6313,45.3415],[8.6323,45.3464],[8.6288,45.3498],[8.6252,45.3518],[8.6191,45.3532],[8.6187,45.3524],[8.6141,45.3529],[8.6135,45.3545],[8.6154,45.3545],[8.6138,45.3591],[8.6094,45.363],[8.6115,45.3666],[8.6142,45.3669],[8.6164,45.3651],[8.6202,45.3648],[8.6214,45.3696],[8.621,45.3723],[8.6222,45.3721],[8.6256,45.3675],[8.6267,45.3639],[8.6264,45.3598],[8.6299,45.3552],[8.6366,45.353],[8.6455,45.3516],[8.6462,45.3547],[8.6454,45.356],[8.6546,45.3582],[8.6635,45.3579],[8.6725,45.3599],[8.6785,45.3633]]]}},{"type":"Feature","properties":{"i":"003159","n":"Vicolungo"},"geometry":{"type":"Polygon","coordinates":[[[8.4699,45.489],[8.4806,45.4805],[8.4855,45.4721],[8.4957,45.4709],[8.4962,45.4691],[8.5019,45.4702],[8.504,45.4654],[8.5042,45.4608],[8.4968,45.4594],[8.4971,45.4558],[8.4947,45.4559],[8.4905,45.4567],[8.4851,45.4643],[8.4807,45.4672],[8.4753,45.4666],[8.4745,45.4641],[8.4731,45.464],[8.4548,45.4662],[8.4528,45.4673],[8.4498,45.4676],[8.4486,45.4665],[8.4428,45.4724],[8.4234,45.4724],[8.4117,45.4714],[8.4112,45.4724],[8.4129,45.4778],[8.4119,45.48],[8.414,45.4819],[8.422,45.4858],[8.4251,45.4843],[8.4411,45.4879],[8.4432,45.4929],[8.443,45.4955],[8.4447,45.4934],[8.4535,45.4901],[8.4687,45.49],[8.4699,45.489]]]}},{"type":"Feature","properties":{"i":"003164","n":"Vinzaglio"},"geometry":{"type":"Polygon","coordinates":[[[8.5264,45.3422],[8.5283,45.3406],[8.533,45.3322],[8.5377,45.3204],[8.5379,45.3172],[8.534,45.3185],[8.5292,45.3167],[8.5249,45.3135],[8.5198,45.3118],[8.5147,45.3117],[8.5128,45.3165],[8.5069,45.3194],[8.4998,45.3158],[8.4978,45.3133],[8.4929,45.3121],[8.4903,45.3133],[8.4831,45.3207],[8.4761,45.322],[8.4749,45.3198],[8.4629,45.3272],[8.4631,45.332],[8.4655,45.3343],[8.4673,45.3391],[8.4717,45.3423],[8.4753,45.3412],[8.4923,45.3449],[8.4995,45.3478],[8.5042,45.3441],[8.5092,45.343],[8.5264,45.3422]]]}},{"type":"Feature","properties":{"i":"003166","n":"Gattico-Veruno"},"geometry":{"type":"Polygon","coordinates":[[[8.5466,45.7271],[8.5489,45.7251],[8.544,45.7187],[8.5441,45.7118],[8.5501,45.7097],[8.5612,45.7086],[8.5649,45.707],[8.5748,45.696],[8.5758,45.692],[8.5747,45.6905],[8.5713,45.6909],[8.5639,45.6845],[8.5507,45.6847],[8.5448,45.683],[8.5419,45.6803],[8.5329,45.6803],[8.5251,45.6786],[8.5165,45.678],[8.5144,45.6802],[8.5115,45.6882],[8.5066,45.6969],[8.4983,45.7006],[8.4904,45.7006],[8.4845,45.7021],[8.4829,45.7079],[8.4831,45.7143],[8.4902,45.722],[8.4917,45.7253],[8.4951,45.727],[8.4966,45.7264],[8.5152,45.7334],[8.5214,45.73],[8.5466,45.7271]]]}}]}
