{"type":"FeatureCollection","fonte":"Confini comunali ISTAT via openpolis/geojson-italy — CC BY 4.0","features":[{"type":"Feature","properties":{"i":"091001","n":"Aritzo"},"geometry":{"type":"Polygon","coordinates":[[[9.2784,39.9457],[9.2865,39.9341],[9.2887,39.9269],[9.2864,39.9233],[9.279,39.9206],[9.2804,39.9174],[9.2778,39.9149],[9.2718,39.9144],[9.2598,39.9156],[9.2591,39.9173],[9.2564,39.9188],[9.2452,39.9178],[9.2352,39.913],[9.2314,39.9101],[9.2307,39.9083],[9.2239,39.9079],[9.213,39.9147],[9.2116,39.918],[9.1972,39.9324],[9.1874,39.9346],[9.1686,39.9334],[9.1572,39.9263],[9.1569,39.9185],[9.152,39.9088],[9.1448,39.9031],[9.1403,39.8963],[9.1288,39.8885],[9.1216,39.8886],[9.1192,39.8916],[9.1182,39.8945],[9.1189,39.8992],[9.1219,39.9062],[9.1194,39.9223],[9.1234,39.9293],[9.1196,39.9463],[9.1231,39.9534],[9.1265,39.9545],[9.1331,39.9524],[9.1457,39.9529],[9.1656,39.956],[9.1822,39.9566],[9.1867,39.9578],[9.1886,39.9602],[9.1892,39.9663],[9.1866,39.974],[9.1864,39.9777],[9.1978,39.9788],[9.2102,39.983],[9.2156,39.9839],[9.2334,39.9758],[9.2388,39.9767],[9.2489,39.9712],[9.2595,39.97],[9.2784,39.9457]]]}},{"type":"Feature","properties":{"i":"091003","n":"Atzara"},"geometry":{"type":"Polygon","coordinates":[[[9.1322,39.9718],[9.109,39.9657],[9.1042,39.9654],[9.1027,39.9678],[9.1014,39.9681],[9.0982,39.9636],[9.0866,39.9648],[9.0711,39.9647],[9.0586,39.9633],[9.0466,39.9588],[9.0351,39.9606],[9.027,39.9529],[9.0209,39.9534],[9.0123,39.9505],[9.0101,39.9466],[9.0059,39.945],[9.002,39.9455],[8.9966,39.9485],[8.9961,39.953],[8.9944,39.9566],[9.0053,39.97],[9.0111,39.9758],[9.0162,39.9795],[9.0201,39.9804],[9.0419,39.9914],[9.0505,39.9973],[9.0624,40.0023],[9.0722,40.0047],[9.0844,40.0054],[9.0905,40.0037],[9.0997,39.9936],[9.1101,39.9881],[9.1101,39.9795],[9.1138,39.9764],[9.1196,39.9747],[9.1287,39.9745],[9.1322,39.9718]]]}},{"type":"Feature","properties":{"i":"091004","n":"Austis"},"geometry":{"type":"Polygon","coordinates":[[[9.0473,40.1415],[9.0516,40.1321],[9.0604,40.1207],[9.074,40.1081],[9.0885,40.0964],[9.1028,40.0863],[9.1137,40.0642],[9.1168,40.0614],[9.1131,40.0539],[9.1023,40.0539],[9.0846,40.0525],[9.0832,40.0481],[9.0834,40.0428],[9.0785,40.0393],[9.0726,40.04],[9.0656,40.0429],[9.0605,40.0433],[9.0502,40.0428],[9.0312,40.038],[9.0266,40.0377],[9.028,40.041],[9.0378,40.0528],[9.044,40.0584],[9.0363,40.0643],[9.0353,40.0958],[9.028,40.1027],[9.0244,40.1094],[9.0171,40.1199],[9.0154,40.1256],[9.0205,40.1282],[9.0239,40.1264],[9.0283,40.1279],[9.0278,40.1302],[9.0361,40.1383],[9.043,40.1433],[9.0473,40.1415]]]}},{"type":"Feature","properties":{"i":"091007","n":"Belvì"},"geometry":{"type":"Polygon","coordinates":[[[9.1866,39.9861],[9.1922,39.9823],[9.1989,39.9815],[9.2011,39.9804],[9.1971,39.9787],[9.1864,39.9777],[9.1866,39.974],[9.1892,39.9663],[9.1886,39.9602],[9.1874,39.9581],[9.1822,39.9566],[9.1656,39.956],[9.1457,39.9529],[9.1331,39.9524],[9.1268,39.9538],[9.1245,39.957],[9.1163,39.959],[9.1057,39.963],[9.1042,39.9654],[9.1174,39.9675],[9.1322,39.9718],[9.1306,39.9758],[9.1429,39.9783],[9.1503,39.9787],[9.153,39.9871],[9.1575,39.9904],[9.162,39.9899],[9.1653,39.9857],[9.1698,39.9843],[9.1781,39.9861],[9.1866,39.9861]]]}},{"type":"Feature","properties":{"i":"091008","n":"Birori"},"geometry":{"type":"Polygon","coordinates":[[[8.8638,40.24],[8.8629,40.2376],[8.8568,40.2317],[8.8541,40.2331],[8.8465,40.2348],[8.8376,40.2358],[8.8303,40.2359],[8.8197,40.2339],[8.8136,40.2336],[8.8067,40.236],[8.8027,40.2384],[8.7982,40.2355],[8.7958,40.2422],[8.8031,40.2526],[8.8002,40.2673],[8.7962,40.2755],[8.7897,40.2803],[8.7905,40.2827],[8.7966,40.2816],[8.8008,40.2843],[8.8074,40.2829],[8.8101,40.279],[8.8145,40.2748],[8.8181,40.2739],[8.8229,40.271],[8.8265,40.2676],[8.8333,40.2565],[8.8423,40.2543],[8.8487,40.2509],[8.8633,40.2421],[8.8638,40.24]]]}},{"type":"Feature","properties":{"i":"091009","n":"Bitti"},"geometry":{"type":"Polygon","coordinates":[[[9.465,40.6558],[9.4874,40.645],[9.4906,40.6452],[9.4921,40.6485],[9.4988,40.6513],[9.5058,40.6532],[9.5128,40.6488],[9.5218,40.6404],[9.5289,40.6324],[9.5288,40.6275],[9.5244,40.6245],[9.5208,40.6249],[9.5174,40.6226],[9.5159,40.6168],[9.5207,40.6103],[9.5207,40.6065],[9.5179,40.6031],[9.5162,40.6026],[9.5106,40.6043],[9.5054,40.6037],[9.5046,40.6028],[9.5042,40.5978],[9.4989,40.5977],[9.4931,40.5956],[9.4674,40.5836],[9.4471,40.5792],[9.435,40.5787],[9.4115,40.572],[9.4085,40.5669],[9.408,40.5635],[9.4032,40.553],[9.4124,40.5402],[9.4183,40.5358],[9.4199,40.5361],[9.4215,40.5347],[9.422,40.5325],[9.4215,40.5297],[9.4197,40.5283],[9.4149,40.5204],[9.4189,40.5169],[9.4239,40.4992],[9.4277,40.4897],[9.4247,40.484],[9.4196,40.4694],[9.4187,40.4627],[9.4195,40.4591],[9.4212,40.4571],[9.4111,40.4476],[9.4026,40.4506],[9.3989,40.4504],[9.387,40.4438],[9.3814,40.4426],[9.3471,40.4519],[9.3379,40.4517],[9.3339,40.4508],[9.3119,40.4531],[9.2919,40.4655],[9.2883,40.4695],[9.2845,40.4766],[9.2827,40.4784],[9.2845,40.4817],[9.2813,40.4924],[9.2781,40.4964],[9.2768,40.5045],[9.2812,40.5197],[9.2841,40.5238],[9.2975,40.5372],[9.3039,40.5402],[9.313,40.5468],[9.3194,40.5487],[9.3222,40.5484],[9.3281,40.5494],[9.335,40.5521],[9.3502,40.5643],[9.3633,40.5688],[9.368,40.5694],[9.3722,40.5714],[9.3742,40.5798],[9.3753,40.5816],[9.3772,40.5835],[9.3865,40.5872],[9.3935,40.5921],[9.394,40.5946],[9.3893,40.6021],[9.3862,40.6057],[9.3791,40.6108],[9.3787,40.6153],[9.3823,40.6164],[9.3882,40.616],[9.395,40.6183],[9.3951,40.62],[9.3974,40.6237],[9.4057,40.6276],[9.4115,40.6332],[9.4166,40.6396],[9.4175,40.6541],[9.4184,40.6566],[9.4201,40.6583],[9.4361,40.6582],[9.4472,40.6539],[9.4643,40.6536],[9.465,40.6558]]]}},{"type":"Feature","properties":{"i":"091010","n":"Bolotana"},"geometry":{"type":"Polygon","coordinates":[[[9.028,40.2966],[9.0312,40.2943],[9.0298,40.2909],[9.0275,40.2719],[9.0293,40.2688],[9.0288,40.2631],[9.0242,40.2564],[9.0145,40.2518],[9.0093,40.2464],[9.0086,40.2443],[9.0094,40.2367],[8.9767,40.2458],[8.9647,40.2483],[8.9572,40.2513],[8.9559,40.2573],[8.9556,40.2662],[8.9569,40.2702],[8.9534,40.2796],[8.95,40.2866],[8.9392,40.3008],[8.9296,40.3192],[8.9253,40.324],[8.9211,40.3315],[8.9156,40.3329],[8.9061,40.3391],[8.8938,40.3457],[8.8852,40.3451],[8.8675,40.3414],[8.8558,40.3513],[8.8407,40.3617],[8.8552,40.3769],[8.8639,40.3898],[8.8743,40.3919],[8.8847,40.3979],[8.8943,40.4051],[8.898,40.4058],[8.9005,40.4012],[8.8992,40.3978],[8.8973,40.3959],[8.8971,40.3944],[8.9008,40.3885],[8.9118,40.3814],[8.932,40.373],[8.9484,40.3685],[8.9667,40.3478],[8.9759,40.3427],[8.9813,40.3376],[8.9819,40.3328],[8.9869,40.3272],[8.9914,40.3232],[9.0055,40.3157],[9.0229,40.2999],[9.0263,40.297],[9.028,40.2966]]]}},{"type":"Feature","properties":{"i":"091011","n":"Borore"},"geometry":{"type":"Polygon","coordinates":[[[8.8568,40.2317],[8.8603,40.2182],[8.8587,40.2105],[8.8449,40.2089],[8.8368,40.2064],[8.8299,40.2029],[8.8185,40.1986],[8.7993,40.1932],[8.7874,40.1928],[8.782,40.1898],[8.7764,40.1936],[8.7653,40.1967],[8.7585,40.1906],[8.7412,40.1806],[8.7453,40.1934],[8.7429,40.201],[8.7304,40.2048],[8.722,40.2046],[8.7181,40.2054],[8.7091,40.2143],[8.6988,40.2133],[8.6899,40.2104],[8.6851,40.2075],[8.682,40.2031],[8.6734,40.204],[8.6727,40.2044],[8.6731,40.2098],[8.6687,40.2228],[8.6688,40.2249],[8.6713,40.2253],[8.6944,40.222],[8.6976,40.2225],[8.7163,40.2319],[8.7206,40.2327],[8.7214,40.2317],[8.7197,40.226],[8.7118,40.2154],[8.7228,40.2145],[8.7297,40.2149],[8.7343,40.2162],[8.7408,40.2138],[8.743,40.2069],[8.7483,40.2053],[8.7583,40.2046],[8.763,40.2051],[8.7674,40.2069],[8.7687,40.2089],[8.7618,40.2136],[8.7636,40.2164],[8.7674,40.2183],[8.7784,40.2297],[8.7888,40.2333],[8.7958,40.2341],[8.8024,40.2384],[8.8067,40.236],[8.8136,40.2336],[8.8197,40.2339],[8.8303,40.2359],[8.8376,40.2358],[8.8465,40.2348],[8.8541,40.2331],[8.8568,40.2317]]]}},{"type":"Feature","properties":{"i":"091012","n":"Bortigali"},"geometry":{"type":"Polygon","coordinates":[[[8.8407,40.3617],[8.8558,40.3513],[8.86,40.3472],[8.8541,40.3467],[8.8472,40.3421],[8.8458,40.3366],[8.8467,40.3231],[8.8496,40.3129],[8.8526,40.3097],[8.8629,40.304],[8.8647,40.3011],[8.8702,40.2867],[8.8693,40.2713],[8.8714,40.2687],[8.8758,40.2656],[8.8907,40.2611],[8.8882,40.2576],[8.885,40.2561],[8.8786,40.2553],[8.8732,40.2514],[8.8648,40.2426],[8.8638,40.24],[8.8633,40.2421],[8.8487,40.2509],[8.8423,40.2543],[8.8333,40.2565],[8.8265,40.2676],[8.8229,40.271],[8.8181,40.2739],[8.8145,40.2748],[8.8101,40.279],[8.8074,40.2829],[8.8008,40.2843],[8.7966,40.2816],[8.7905,40.2827],[8.7853,40.2856],[8.7772,40.2943],[8.7779,40.2977],[8.7611,40.3006],[8.7607,40.3111],[8.7663,40.314],[8.7699,40.3142],[8.774,40.3131],[8.779,40.3095],[8.7802,40.3059],[8.7786,40.3008],[8.7807,40.3006],[8.7862,40.3061],[8.7921,40.3162],[8.7926,40.3367],[8.7862,40.3514],[8.7872,40.3538],[8.7906,40.3568],[8.7975,40.3583],[8.8001,40.3579],[8.8033,40.356],[8.811,40.3583],[8.8174,40.3615],[8.8213,40.3623],[8.8382,40.3623],[8.8407,40.3617]]]}},{"type":"Feature","properties":{"i":"091016","n":"Desulo"},"geometry":{"type":"Polygon","coordinates":[[[9.2936,40.0312],[9.2973,40.0219],[9.3009,40.0178],[9.3039,40.0154],[9.319,40.0082],[9.3192,39.9991],[9.3212,39.9956],[9.3229,39.9954],[9.3139,39.9898],[9.3002,39.985],[9.2919,39.9835],[9.2896,39.9736],[9.2902,39.9707],[9.2883,39.9648],[9.2784,39.9457],[9.2595,39.97],[9.2489,39.9712],[9.2388,39.9767],[9.2334,39.9758],[9.2156,39.9839],[9.2011,39.9804],[9.1989,39.9815],[9.1922,39.9823],[9.1866,39.9861],[9.1905,39.9962],[9.2141,40.0178],[9.2186,40.0244],[9.2204,40.0334],[9.2225,40.0395],[9.2187,40.0434],[9.2148,40.0457],[9.2123,40.0497],[9.2222,40.0622],[9.2215,40.0701],[9.2237,40.0735],[9.2308,40.0762],[9.2341,40.0759],[9.2403,40.0713],[9.2417,40.0679],[9.2445,40.0535],[9.248,40.0513],[9.2517,40.0507],[9.2634,40.0515],[9.2687,40.0458],[9.27,40.0424],[9.2749,40.0383],[9.2889,40.0323],[9.2936,40.0312]]]}},{"type":"Feature","properties":{"i":"091017","n":"Dorgali"},"geometry":{"type":"Polygon","coordinates":[[[9.4984,40.3921],[9.5015,40.3924],[9.522,40.3896],[9.5251,40.3862],[9.5252,40.3841],[9.5285,40.3798],[9.5551,40.3741],[9.5614,40.374],[9.5656,40.3713],[9.5766,40.3553],[9.645,40.343],[9.645,40.3395],[9.6534,40.3329],[9.6583,40.3352],[9.6632,40.3353],[9.674,40.333],[9.6776,40.331],[9.6632,40.314],[9.6544,40.3013],[9.646,40.2934],[9.6416,40.2875],[9.6364,40.2828],[9.6314,40.2747],[9.6273,40.2633],[9.6234,40.2489],[9.6234,40.2401],[9.6274,40.2247],[9.61,40.2206],[9.5952,40.214],[9.5888,40.209],[9.5765,40.1951],[9.5765,40.1913],[9.5536,40.1991],[9.5457,40.2038],[9.5259,40.2187],[9.5199,40.2133],[9.5186,40.1958],[9.5167,40.1916],[9.5156,40.1899],[9.5101,40.1863],[9.4932,40.2007],[9.4839,40.2099],[9.4892,40.2356],[9.5029,40.2712],[9.5103,40.2773],[9.5176,40.2816],[9.5275,40.2909],[9.5283,40.2936],[9.5246,40.3077],[9.5178,40.3132],[9.5122,40.3223],[9.505,40.3277],[9.5005,40.3353],[9.4982,40.3499],[9.4985,40.3585],[9.4989,40.3605],[9.5027,40.3657],[9.5026,40.368],[9.4797,40.3694],[9.4507,40.3762],[9.4283,40.3746],[9.4171,40.375],[9.4129,40.377],[9.4117,40.3822],[9.4167,40.3879],[9.4276,40.3979],[9.4308,40.4019],[9.4364,40.4032],[9.4665,40.4022],[9.4716,40.3977],[9.4862,40.3895],[9.4889,40.3887],[9.4924,40.3882],[9.4955,40.3888],[9.497,40.3897],[9.4984,40.3921]]]}},{"type":"Feature","properties":{"i":"091018","n":"Dualchi"},"geometry":{"type":"Polygon","coordinates":[[[8.9243,40.2436],[8.9221,40.243],[8.913,40.2289],[8.9113,40.2275],[8.9056,40.208],[8.8699,40.2085],[8.8639,40.2089],[8.8587,40.2105],[8.8603,40.2182],[8.8568,40.2317],[8.8629,40.2376],[8.8648,40.2426],[8.8732,40.2514],[8.8786,40.2553],[8.885,40.2561],[8.8882,40.2576],[8.8907,40.2611],[8.9198,40.2502],[8.9239,40.247],[8.9248,40.2447],[8.9243,40.2436]]]}},{"type":"Feature","properties":{"i":"091024","n":"Fonni"},"geometry":{"type":"Polygon","coordinates":[[[9.3028,40.1677],[9.3136,40.1483],[9.3267,40.1328],[9.3335,40.1161],[9.3459,40.1003],[9.3586,40.0762],[9.3616,40.0741],[9.3576,40.0733],[9.3528,40.0741],[9.3369,40.0724],[9.3341,40.0694],[9.3332,40.0669],[9.326,40.0586],[9.3231,40.052],[9.3212,40.0417],[9.3189,40.0393],[9.3046,40.0379],[9.2983,40.0365],[9.2936,40.0312],[9.2889,40.0323],[9.2749,40.0383],[9.27,40.0424],[9.2687,40.0458],[9.2634,40.0515],[9.2517,40.0507],[9.248,40.0513],[9.2445,40.0535],[9.2417,40.0679],[9.2403,40.0713],[9.2302,40.0783],[9.2166,40.0945],[9.2124,40.1032],[9.2152,40.1045],[9.2189,40.11],[9.2188,40.1172],[9.2171,40.1253],[9.2173,40.1284],[9.2203,40.1349],[9.2304,40.1339],[9.2362,40.1354],[9.2413,40.1354],[9.249,40.1463],[9.2561,40.1489],[9.2582,40.1489],[9.2597,40.1513],[9.2587,40.1523],[9.2646,40.1509],[9.2667,40.1513],[9.2704,40.1535],[9.2801,40.1623],[9.2979,40.1678],[9.3028,40.1677]]]}},{"type":"Feature","properties":{"i":"091025","n":"Gadoni"},"geometry":{"type":"Polygon","coordinates":[[[9.213,39.9147],[9.2102,39.9105],[9.1995,39.9022],[9.192,39.894],[9.1895,39.8901],[9.1907,39.8835],[9.1944,39.875],[9.1945,39.8683],[9.1904,39.8675],[9.1873,39.8657],[9.1849,39.8575],[9.1851,39.8505],[9.1857,39.8493],[9.1952,39.8466],[9.1976,39.8446],[9.1996,39.8396],[9.1998,39.8331],[9.1991,39.829],[9.2002,39.8263],[9.193,39.826],[9.1784,39.8277],[9.1656,39.8326],[9.1697,39.8403],[9.1722,39.8504],[9.1651,39.8544],[9.1598,39.8562],[9.1541,39.8615],[9.1518,39.8651],[9.1423,39.8735],[9.1288,39.8885],[9.1403,39.8963],[9.1448,39.9031],[9.152,39.9088],[9.1569,39.9185],[9.1572,39.9263],[9.1686,39.9334],[9.1874,39.9346],[9.1972,39.9324],[9.2116,39.918],[9.213,39.9147]]]}},{"type":"Feature","properties":{"i":"091027","n":"Galtellì"},"geometry":{"type":"Polygon","coordinates":[[[9.6207,40.4007],[9.624,40.3982],[9.6268,40.398],[9.6305,40.4002],[9.6338,40.4007],[9.6402,40.3992],[9.6451,40.3995],[9.6528,40.3958],[9.6525,40.3876],[9.6548,40.3862],[9.6606,40.3885],[9.6534,40.3834],[9.6496,40.3754],[9.6519,40.3671],[9.645,40.343],[9.5766,40.3553],[9.5656,40.3713],[9.5614,40.374],[9.5551,40.3741],[9.5285,40.3798],[9.5252,40.3841],[9.5251,40.3862],[9.522,40.3896],[9.5015,40.3924],[9.4984,40.3921],[9.5205,40.4067],[9.5279,40.4202],[9.5277,40.424],[9.5301,40.4299],[9.5505,40.4174],[9.5768,40.398],[9.5885,40.3963],[9.6009,40.3916],[9.6037,40.3898],[9.6056,40.3897],[9.6099,40.391],[9.616,40.3952],[9.6207,40.4007]]]}},{"type":"Feature","properties":{"i":"091028","n":"Gavoi"},"geometry":{"type":"Polygon","coordinates":[[[9.2801,40.1623],[9.2704,40.1535],[9.2655,40.1509],[9.2587,40.1523],[9.2507,40.1555],[9.2419,40.1577],[9.2248,40.1568],[9.2107,40.1529],[9.2085,40.148],[9.2113,40.1437],[9.2136,40.1374],[9.2203,40.1349],[9.2173,40.1284],[9.2171,40.1253],[9.2188,40.1172],[9.2189,40.11],[9.2152,40.1045],[9.2128,40.1032],[9.1933,40.1221],[9.1824,40.1251],[9.1635,40.1285],[9.1551,40.1312],[9.1606,40.137],[9.1726,40.1471],[9.1782,40.1547],[9.1823,40.1627],[9.1915,40.172],[9.2017,40.1766],[9.2078,40.1779],[9.2194,40.1818],[9.2318,40.1818],[9.2408,40.1882],[9.2454,40.1833],[9.2506,40.1803],[9.2527,40.1798],[9.2634,40.1807],[9.2692,40.1791],[9.2735,40.1767],[9.2789,40.1696],[9.28,40.1669],[9.2801,40.1623]]]}},{"type":"Feature","properties":{"i":"091033","n":"Irgoli"},"geometry":{"type":"Polygon","coordinates":[[[9.7215,40.4905],[9.7023,40.4717],[9.6815,40.4596],[9.6769,40.4553],[9.6747,40.4527],[9.6673,40.4365],[9.6465,40.4208],[9.6412,40.4085],[9.6402,40.3992],[9.6338,40.4007],[9.6305,40.4002],[9.6268,40.398],[9.624,40.3982],[9.6207,40.4007],[9.6215,40.404],[9.6202,40.4144],[9.6098,40.4294],[9.6056,40.4381],[9.6016,40.443],[9.5985,40.4591],[9.5899,40.4713],[9.5826,40.4748],[9.5934,40.4904],[9.6034,40.4996],[9.6092,40.5062],[9.6192,40.5119],[9.6386,40.5112],[9.6538,40.5071],[9.66,40.5017],[9.6669,40.4987],[9.6865,40.5021],[9.6924,40.5016],[9.7041,40.497],[9.7189,40.4956],[9.7215,40.4905]]]}},{"type":"Feature","properties":{"i":"091038","n":"Lei"},"geometry":{"type":"Polygon","coordinates":[[[8.9566,40.269],[8.9409,40.275],[8.9254,40.2946],[8.9114,40.3005],[8.8948,40.3139],[8.8919,40.319],[8.8906,40.3249],[8.8887,40.3289],[8.8862,40.3312],[8.8675,40.3414],[8.8852,40.3451],[8.8938,40.3457],[8.9061,40.3391],[8.9156,40.3329],[8.9211,40.3315],[8.9253,40.324],[8.9296,40.3192],[8.9392,40.3008],[8.95,40.2866],[8.9566,40.2713],[8.9566,40.269]]]}},{"type":"Feature","properties":{"i":"091040","n":"Loculi"},"geometry":{"type":"Polygon","coordinates":[[[9.6207,40.4007],[9.616,40.3952],[9.6099,40.391],[9.6056,40.3897],[9.6037,40.3898],[9.6009,40.3916],[9.5885,40.3963],[9.5768,40.398],[9.5505,40.4174],[9.5301,40.4299],[9.5506,40.4459],[9.5826,40.4748],[9.5899,40.4713],[9.5985,40.4591],[9.6016,40.443],[9.6056,40.4381],[9.6098,40.4294],[9.6202,40.4144],[9.6215,40.404],[9.6207,40.4007]]]}},{"type":"Feature","properties":{"i":"091041","n":"Lodè"},"geometry":{"type":"Polygon","coordinates":[[[9.6386,40.5997],[9.6301,40.5841],[9.6352,40.5728],[9.6368,40.571],[9.6323,40.5589],[9.6171,40.5479],[9.6114,40.5422],[9.6093,40.5398],[9.6077,40.5336],[9.5976,40.5275],[9.5871,40.5235],[9.5779,40.5162],[9.567,40.5188],[9.5496,40.5254],[9.5405,40.5312],[9.5316,40.5328],[9.5245,40.5355],[9.524,40.5386],[9.5199,40.5439],[9.5167,40.5427],[9.5101,40.5418],[9.505,40.5439],[9.5028,40.5456],[9.5044,40.5469],[9.5038,40.55],[9.5015,40.5521],[9.4999,40.5553],[9.5007,40.556],[9.5037,40.5546],[9.5046,40.5549],[9.5048,40.5585],[9.4996,40.5626],[9.4975,40.563],[9.4972,40.5667],[9.5037,40.5784],[9.5013,40.5805],[9.4983,40.587],[9.501,40.5976],[9.5042,40.5978],[9.5046,40.6028],[9.5054,40.6037],[9.5106,40.6043],[9.5162,40.6026],[9.5179,40.6031],[9.5207,40.6065],[9.5207,40.6103],[9.5159,40.6168],[9.5174,40.6226],[9.5208,40.6249],[9.5244,40.6245],[9.5288,40.6275],[9.5289,40.6324],[9.5218,40.6404],[9.5128,40.6488],[9.5279,40.6602],[9.5397,40.6647],[9.551,40.6711],[9.5576,40.6451],[9.5686,40.6332],[9.5715,40.6309],[9.578,40.6312],[9.582,40.6326],[9.5917,40.6303],[9.6044,40.625],[9.6085,40.624],[9.6112,40.6222],[9.6133,40.6178],[9.6149,40.6117],[9.6221,40.6052],[9.627,40.6034],[9.6367,40.6016],[9.6386,40.5997]]]}},{"type":"Feature","properties":{"i":"091104","n":"Lodine"},"geometry":{"type":"Polygon","coordinates":[[[9.2587,40.1523],[9.2597,40.1513],[9.2582,40.1489],[9.2561,40.1489],[9.249,40.1463],[9.2413,40.1354],[9.2362,40.1354],[9.2304,40.1339],[9.2203,40.1349],[9.2136,40.1374],[9.2113,40.1437],[9.2085,40.148],[9.2107,40.1529],[9.2248,40.1568],[9.2327,40.1576],[9.2419,40.1577],[9.2507,40.1555],[9.2587,40.1523]]]}},{"type":"Feature","properties":{"i":"091043","n":"Lula"},"geometry":{"type":"Polygon","coordinates":[[[9.5796,40.5172],[9.5882,40.5125],[9.6034,40.4996],[9.5918,40.4886],[9.5826,40.4748],[9.5506,40.4459],[9.5301,40.4299],[9.5277,40.424],[9.5279,40.4202],[9.5205,40.4067],[9.4998,40.3936],[9.4962,40.3892],[9.4917,40.3883],[9.4862,40.3895],[9.4716,40.3977],[9.4665,40.4022],[9.4364,40.4032],[9.43,40.4116],[9.43,40.4159],[9.4315,40.4205],[9.4205,40.422],[9.4172,40.4244],[9.4125,40.4298],[9.4136,40.434],[9.4137,40.4401],[9.4126,40.4453],[9.4111,40.4476],[9.4218,40.4576],[9.4364,40.4579],[9.4595,40.4648],[9.4621,40.4743],[9.4615,40.4832],[9.4644,40.494],[9.4671,40.4997],[9.4744,40.5061],[9.4755,40.5118],[9.4694,40.5299],[9.4706,40.5366],[9.4858,40.5321],[9.4869,40.5376],[9.4911,40.535],[9.4935,40.5392],[9.4912,40.5459],[9.4953,40.5484],[9.5033,40.551],[9.5044,40.5469],[9.5028,40.5456],[9.5063,40.5433],[9.5101,40.5418],[9.5167,40.5427],[9.5199,40.5439],[9.524,40.5386],[9.5245,40.5355],[9.5316,40.5328],[9.5405,40.5312],[9.5496,40.5254],[9.567,40.5188],[9.5775,40.5161],[9.5796,40.5172]]]}},{"type":"Feature","properties":{"i":"091044","n":"Macomer"},"geometry":{"type":"Polygon","coordinates":[[[8.8639,40.3898],[8.8552,40.3769],[8.8407,40.3617],[8.8382,40.3623],[8.8213,40.3623],[8.8174,40.3615],[8.811,40.3583],[8.8033,40.356],[8.8001,40.3579],[8.7975,40.3583],[8.794,40.3576],[8.7906,40.3568],[8.7872,40.3538],[8.7862,40.3514],[8.7868,40.3492],[8.7926,40.3367],[8.7921,40.3162],[8.7862,40.3061],[8.7818,40.3013],[8.7786,40.3008],[8.7802,40.3059],[8.779,40.3095],[8.774,40.3131],[8.7699,40.3142],[8.7663,40.314],[8.7607,40.3111],[8.7611,40.3006],[8.7779,40.2977],[8.7772,40.2943],[8.7853,40.2856],[8.7905,40.2827],[8.7897,40.2803],[8.7962,40.2755],[8.8002,40.2673],[8.8031,40.2526],[8.7958,40.2422],[8.7982,40.2355],[8.7958,40.2341],[8.7888,40.2333],[8.7784,40.2297],[8.7674,40.2183],[8.7636,40.2164],[8.7618,40.2136],[8.7687,40.2089],[8.7674,40.2069],[8.763,40.2051],[8.7583,40.2046],[8.7483,40.2053],[8.743,40.2069],[8.7408,40.2138],[8.7343,40.2162],[8.7297,40.2149],[8.7228,40.2145],[8.7118,40.2154],[8.7197,40.226],[8.7214,40.2317],[8.7206,40.2327],[8.7163,40.2319],[8.6976,40.2225],[8.6944,40.222],[8.6713,40.2253],[8.6688,40.2249],[8.6675,40.2307],[8.6684,40.2376],[8.6677,40.2497],[8.6918,40.2525],[8.7158,40.2698],[8.723,40.2794],[8.7297,40.297],[8.7317,40.3039],[8.7288,40.3082],[8.7111,40.3267],[8.7064,40.3307],[8.7036,40.3311],[8.7072,40.3329],[8.7087,40.3387],[8.7106,40.3415],[8.7166,40.344],[8.7278,40.3433],[8.7302,40.3467],[8.7369,40.3531],[8.7445,40.3547],[8.7476,40.3548],[8.7495,40.3534],[8.7506,40.351],[8.7551,40.3493],[8.7607,40.3522],[8.7632,40.3527],[8.7738,40.3512],[8.7782,40.3488],[8.7822,40.3498],[8.7837,40.3548],[8.7875,40.3576],[8.8126,40.3647],[8.8136,40.3658],[8.8162,40.3767],[8.8171,40.3928],[8.8159,40.4023],[8.8193,40.4085],[8.8274,40.4127],[8.8333,40.4117],[8.846,40.407],[8.8537,40.4077],[8.8567,40.4026],[8.8552,40.3931],[8.8569,40.3916],[8.8639,40.3898]]]}},{"type":"Feature","properties":{"i":"091046","n":"Mamoiada"},"geometry":{"type":"Polygon","coordinates":[[[9.2932,40.2539],[9.2969,40.2509],[9.3,40.2384],[9.3064,40.2346],[9.3093,40.2292],[9.3141,40.2125],[9.3153,40.2009],[9.3145,40.1942],[9.3133,40.1894],[9.31,40.1836],[9.304,40.1806],[9.3021,40.1774],[9.3015,40.1724],[9.3028,40.1677],[9.2979,40.1678],[9.2801,40.1623],[9.28,40.1669],[9.2789,40.1696],[9.2735,40.1767],[9.2658,40.1802],[9.2634,40.1807],[9.2522,40.1799],[9.2458,40.183],[9.2408,40.1882],[9.2386,40.1924],[9.2288,40.205],[9.2319,40.2121],[9.241,40.2285],[9.2448,40.2311],[9.2542,40.2346],[9.258,40.2383],[9.2635,40.2463],[9.2772,40.2588],[9.2932,40.2539]]]}},{"type":"Feature","properties":{"i":"091047","n":"Meana Sardo"},"geometry":{"type":"Polygon","coordinates":[[[9.1042,39.9654],[9.1057,39.963],[9.1163,39.959],[9.1245,39.957],[9.1265,39.9545],[9.1231,39.9534],[9.1196,39.9463],[9.1234,39.9293],[9.1194,39.9223],[9.1219,39.9062],[9.1189,39.8992],[9.1182,39.8945],[9.1192,39.8916],[9.1216,39.8886],[9.1092,39.8821],[9.1072,39.8786],[9.1073,39.8759],[9.1096,39.8713],[9.1066,39.8691],[9.1054,39.8687],[9.1005,39.872],[9.0946,39.8797],[9.0882,39.8846],[9.0791,39.8897],[9.0462,39.9044],[9.0395,39.9116],[9.0377,39.9124],[9.0287,39.9146],[9.0191,39.9148],[9.0093,39.9166],[8.997,39.9177],[8.9881,39.9148],[8.9863,39.9167],[8.9855,39.9193],[8.9904,39.9304],[8.9925,39.9389],[8.9902,39.9409],[8.9889,39.944],[8.9954,39.9481],[8.9966,39.9485],[9.002,39.9455],[9.0059,39.945],[9.0101,39.9466],[9.0123,39.9505],[9.0209,39.9534],[9.027,39.9529],[9.0351,39.9606],[9.0466,39.9588],[9.0586,39.9633],[9.0711,39.9647],[9.0866,39.9648],[9.0982,39.9636],[9.1004,39.9673],[9.1019,39.9682],[9.1042,39.9654]]]}},{"type":"Feature","properties":{"i":"091050","n":"Noragugume"},"geometry":{"type":"Polygon","coordinates":[[[9.0094,40.2367],[9.0043,40.2316],[8.995,40.2174],[8.9916,40.2143],[8.9821,40.2183],[8.9572,40.2121],[8.9444,40.2125],[8.929,40.211],[8.915,40.2086],[8.9056,40.208],[8.9113,40.2275],[8.913,40.2289],[8.9221,40.243],[8.9243,40.2436],[8.9281,40.2412],[8.9324,40.2428],[8.9416,40.2439],[8.9464,40.2459],[8.9514,40.254],[8.9647,40.2483],[8.9767,40.2458],[9.0094,40.2367]]]}},{"type":"Feature","properties":{"i":"091051","n":"Nuoro"},"geometry":{"type":"Polygon","coordinates":[[[9.2254,40.4106],[9.2285,40.4108],[9.2376,40.4079],[9.2427,40.4029],[9.2457,40.3932],[9.2481,40.3896],[9.257,40.3821],[9.259,40.382],[9.2655,40.3848],[9.2784,40.3933],[9.2956,40.3976],[9.2991,40.3978],[9.3063,40.3966],[9.311,40.3899],[9.3157,40.3888],[9.3213,40.3892],[9.3267,40.3878],[9.3378,40.3839],[9.3428,40.3791],[9.3473,40.3768],[9.3539,40.3771],[9.3634,40.3692],[9.3621,40.3661],[9.3609,40.3655],[9.363,40.3643],[9.3708,40.3641],[9.375,40.3678],[9.3979,40.3664],[9.3993,40.3703],[9.4024,40.3729],[9.4067,40.3735],[9.4109,40.3719],[9.4171,40.375],[9.4257,40.3745],[9.4252,40.3629],[9.4239,40.3546],[9.418,40.3452],[9.3968,40.3204],[9.3895,40.3096],[9.3664,40.2946],[9.3599,40.2949],[9.357,40.2927],[9.3544,40.2877],[9.3443,40.2812],[9.3317,40.2782],[9.3222,40.2743],[9.2983,40.26],[9.2932,40.2539],[9.2916,40.2542],[9.2834,40.2573],[9.2772,40.2588],[9.2785,40.2629],[9.2778,40.2676],[9.2559,40.2855],[9.2488,40.2928],[9.2445,40.3022],[9.2439,40.3078],[9.239,40.3133],[9.2317,40.3143],[9.2285,40.3159],[9.2264,40.3195],[9.2162,40.3309],[9.2127,40.3365],[9.2105,40.3403],[9.2097,40.3471],[9.1957,40.3616],[9.1863,40.3676],[9.1832,40.3713],[9.1855,40.3845],[9.1871,40.3886],[9.1942,40.3934],[9.2068,40.4048],[9.2192,40.4101],[9.2227,40.4111],[9.2254,40.4106]]]}},{"type":"Feature","properties":{"i":"091055","n":"Oliena"},"geometry":{"type":"Polygon","coordinates":[[[9.4839,40.2099],[9.4443,40.2206],[9.4216,40.2326],[9.3965,40.2362],[9.391,40.2336],[9.3826,40.2382],[9.3795,40.241],[9.3787,40.2434],[9.379,40.2501],[9.3775,40.2555],[9.3653,40.2614],[9.351,40.2653],[9.3439,40.2691],[9.3406,40.2742],[9.3408,40.2806],[9.3443,40.2812],[9.3544,40.2877],[9.357,40.2927],[9.3599,40.2949],[9.3664,40.2946],[9.3906,40.3107],[9.3968,40.3204],[9.418,40.3452],[9.4239,40.3546],[9.4252,40.3629],[9.4257,40.3745],[9.451,40.3762],[9.4797,40.3694],[9.5026,40.368],[9.5027,40.3657],[9.4989,40.3605],[9.4985,40.3585],[9.4982,40.3499],[9.5005,40.3353],[9.505,40.3277],[9.5122,40.3223],[9.5178,40.3132],[9.5244,40.308],[9.5262,40.3035],[9.5283,40.2936],[9.5275,40.2909],[9.5176,40.2816],[9.5103,40.2773],[9.5029,40.2712],[9.4892,40.2356],[9.4839,40.2099]]]}},{"type":"Feature","properties":{"i":"091056","n":"Ollolai"},"geometry":{"type":"Polygon","coordinates":[[[9.2408,40.1882],[9.2318,40.1818],[9.2194,40.1818],[9.2078,40.1779],[9.2017,40.1766],[9.1915,40.172],[9.1823,40.1627],[9.1782,40.1547],[9.1726,40.1471],[9.1606,40.137],[9.1551,40.1312],[9.1345,40.131],[9.1274,40.1323],[9.1268,40.1389],[9.1272,40.1413],[9.1337,40.1414],[9.1386,40.1439],[9.1444,40.1515],[9.1562,40.1699],[9.162,40.1751],[9.1662,40.1773],[9.1675,40.1861],[9.1619,40.1943],[9.1616,40.1971],[9.1831,40.1942],[9.2003,40.1984],[9.209,40.1976],[9.2184,40.1997],[9.2288,40.205],[9.2386,40.1924],[9.2408,40.1882]]]}},{"type":"Feature","properties":{"i":"091057","n":"Olzai"},"geometry":{"type":"Polygon","coordinates":[[[9.1616,40.1971],[9.1619,40.1943],[9.1675,40.1861],[9.1662,40.1773],[9.162,40.1751],[9.1562,40.1699],[9.1444,40.1515],[9.1389,40.1443],[9.1337,40.1414],[9.1272,40.1413],[9.1268,40.1486],[9.1286,40.1494],[9.1289,40.1518],[9.1167,40.1536],[9.107,40.1532],[9.101,40.1478],[9.0962,40.1469],[9.0887,40.1513],[9.0861,40.1584],[9.0799,40.1611],[9.078,40.1612],[9.0772,40.1608],[9.0765,40.1539],[9.0691,40.1544],[9.063,40.1521],[9.058,40.1494],[9.0473,40.1415],[9.043,40.1433],[9.0361,40.1383],[9.0278,40.1302],[9.0283,40.1279],[9.0239,40.1264],[9.0205,40.1282],[9.0168,40.1263],[9.0024,40.1344],[9.0114,40.1382],[9.0177,40.1442],[9.0186,40.1463],[9.019,40.1551],[9.0166,40.1645],[9.0105,40.1713],[9.0016,40.1776],[8.9987,40.177],[8.9982,40.1809],[8.9995,40.1834],[9.014,40.1909],[9.0173,40.1938],[9.0245,40.1894],[9.0304,40.1825],[9.0313,40.1805],[9.0354,40.1795],[9.0466,40.181],[9.0532,40.1855],[9.0534,40.1871],[9.0575,40.19],[9.0642,40.1884],[9.071,40.1895],[9.0886,40.2003],[9.0963,40.2029],[9.1189,40.2045],[9.1459,40.2092],[9.1547,40.2077],[9.1595,40.2031],[9.1616,40.1971]]]}},{"type":"Feature","properties":{"i":"091058","n":"Onanì"},"geometry":{"type":"Polygon","coordinates":[[[9.5033,40.551],[9.4953,40.5484],[9.4912,40.5459],[9.4935,40.5392],[9.4911,40.535],[9.4869,40.5376],[9.4858,40.5321],[9.4706,40.5366],[9.4694,40.5299],[9.4755,40.5118],[9.4744,40.5061],[9.4671,40.4997],[9.4644,40.494],[9.4615,40.4832],[9.4621,40.4743],[9.4595,40.4648],[9.4364,40.4579],[9.4222,40.4578],[9.4212,40.4571],[9.4195,40.4591],[9.4187,40.4627],[9.4196,40.4694],[9.4247,40.484],[9.4277,40.4897],[9.4239,40.4992],[9.4189,40.5169],[9.4149,40.5204],[9.4197,40.5283],[9.4215,40.5297],[9.422,40.5325],[9.4215,40.5347],[9.4199,40.5361],[9.4183,40.5358],[9.4124,40.5402],[9.4032,40.553],[9.408,40.5635],[9.4085,40.5669],[9.4115,40.572],[9.435,40.5787],[9.4471,40.5792],[9.4674,40.5836],[9.4931,40.5956],[9.4989,40.5977],[9.501,40.5976],[9.4983,40.587],[9.5013,40.5805],[9.5037,40.5784],[9.4972,40.5667],[9.4975,40.563],[9.4996,40.5626],[9.5048,40.5585],[9.5046,40.5549],[9.5037,40.5546],[9.5007,40.556],[9.4999,40.5553],[9.5015,40.5521],[9.5033,40.551]]]}},{"type":"Feature","properties":{"i":"091059","n":"Onifai"},"geometry":{"type":"Polygon","coordinates":[[[9.6606,40.3885],[9.6548,40.3862],[9.6525,40.3876],[9.6528,40.3958],[9.6451,40.3995],[9.6402,40.3992],[9.6412,40.4085],[9.6465,40.4208],[9.6673,40.4365],[9.6747,40.4527],[9.6804,40.4588],[9.7023,40.4717],[9.7215,40.4905],[9.7387,40.4842],[9.7533,40.4776],[9.7371,40.4607],[9.7206,40.4482],[9.715,40.4294],[9.7129,40.4246],[9.6941,40.4117],[9.687,40.4046],[9.68,40.394],[9.6606,40.3885]]]}},{"type":"Feature","properties":{"i":"091060","n":"Oniferi"},"geometry":{"type":"Polygon","coordinates":[[[9.1122,40.2717],[9.1171,40.2745],[9.129,40.279],[9.1351,40.2853],[9.1411,40.2957],[9.1453,40.3063],[9.1547,40.3194],[9.1583,40.3259],[9.1584,40.327],[9.1516,40.336],[9.1489,40.345],[9.1477,40.3648],[9.148,40.3655],[9.1614,40.3685],[9.1665,40.3511],[9.1696,40.3452],[9.1864,40.3298],[9.1909,40.3128],[9.191,40.3098],[9.1886,40.3013],[9.1875,40.2914],[9.1835,40.2718],[9.1765,40.2646],[9.1693,40.2634],[9.1491,40.2651],[9.1353,40.2691],[9.1152,40.2689],[9.112,40.2702],[9.1122,40.2717]]]}},{"type":"Feature","properties":{"i":"091061","n":"Orani"},"geometry":{"type":"Polygon","coordinates":[[[9.1832,40.3713],[9.1863,40.3676],[9.1957,40.3616],[9.2097,40.3471],[9.2105,40.3403],[9.2127,40.3365],[9.2162,40.3309],[9.2264,40.3195],[9.2285,40.3159],[9.2317,40.3143],[9.239,40.3133],[9.2439,40.3078],[9.2445,40.3022],[9.2488,40.2928],[9.2559,40.2855],[9.2778,40.2676],[9.2785,40.2629],[9.2772,40.2588],[9.2635,40.2463],[9.258,40.2383],[9.2542,40.2346],[9.2448,40.2311],[9.241,40.2285],[9.2322,40.2121],[9.2243,40.2182],[9.2029,40.2279],[9.1941,40.2328],[9.1884,40.2374],[9.1711,40.2348],[9.1632,40.2368],[9.1487,40.2371],[9.1175,40.2344],[9.1052,40.2359],[9.0878,40.2405],[9.0852,40.2428],[9.0836,40.25],[9.0809,40.254],[9.078,40.2562],[9.0667,40.255],[9.0555,40.2643],[9.0367,40.2688],[9.0291,40.2698],[9.0276,40.2714],[9.0298,40.2909],[9.0312,40.2939],[9.028,40.2966],[9.0347,40.3042],[9.0517,40.3055],[9.0649,40.3041],[9.0703,40.299],[9.0862,40.2758],[9.0907,40.2726],[9.1023,40.2723],[9.1086,40.2744],[9.1117,40.2736],[9.112,40.2702],[9.1152,40.2689],[9.1353,40.2691],[9.1491,40.2651],[9.1693,40.2634],[9.1765,40.2646],[9.1835,40.2718],[9.1875,40.2914],[9.1886,40.3013],[9.191,40.3098],[9.1909,40.3128],[9.1864,40.3298],[9.1696,40.3452],[9.1665,40.3511],[9.1614,40.3685],[9.1698,40.3724],[9.1832,40.3713]]]}},{"type":"Feature","properties":{"i":"091062","n":"Orgosolo"},"geometry":{"type":"Polygon","coordinates":[[[9.4839,40.2099],[9.4932,40.2007],[9.5101,40.1863],[9.4972,40.1852],[9.4917,40.1813],[9.4809,40.1693],[9.4778,40.1644],[9.4765,40.1493],[9.4756,40.1482],[9.4648,40.1449],[9.4582,40.1447],[9.4545,40.142],[9.4443,40.1266],[9.4413,40.1191],[9.4402,40.1116],[9.4368,40.1091],[9.4329,40.1043],[9.43,40.1026],[9.4082,40.0946],[9.3915,40.0925],[9.3847,40.0875],[9.3858,40.0858],[9.3856,40.083],[9.3801,40.0777],[9.371,40.0736],[9.3616,40.0741],[9.3586,40.0762],[9.3459,40.1003],[9.3335,40.1161],[9.3267,40.1328],[9.3136,40.1483],[9.3028,40.1674],[9.3015,40.1724],[9.3021,40.1774],[9.304,40.1806],[9.31,40.1836],[9.3141,40.1922],[9.3153,40.2009],[9.3147,40.2076],[9.3126,40.2193],[9.3083,40.2318],[9.3064,40.2346],[9.3,40.2384],[9.2969,40.2509],[9.2932,40.2539],[9.2983,40.26],[9.3222,40.2743],[9.3317,40.2782],[9.3408,40.2806],[9.3406,40.2742],[9.3422,40.2708],[9.3447,40.2686],[9.351,40.2653],[9.3653,40.2614],[9.3775,40.2555],[9.379,40.2501],[9.3787,40.2434],[9.3795,40.241],[9.3826,40.2382],[9.391,40.2336],[9.3965,40.2362],[9.4216,40.2326],[9.4443,40.2206],[9.4839,40.2099]]]}},{"type":"Feature","properties":{"i":"091063","n":"Orosei"},"geometry":{"type":"Polygon","coordinates":[[[9.809,40.4736],[9.7926,40.4431],[9.7821,40.437],[9.774,40.4268],[9.7724,40.4193],[9.7729,40.411],[9.7699,40.4029],[9.7644,40.3909],[9.7556,40.382],[9.753,40.381],[9.7427,40.3814],[9.7303,40.3753],[9.7186,40.3672],[9.6943,40.3477],[9.6823,40.337],[9.6776,40.331],[9.674,40.333],[9.6632,40.3353],[9.6583,40.3352],[9.6534,40.3329],[9.645,40.3395],[9.645,40.343],[9.6473,40.3527],[9.6493,40.3568],[9.6519,40.3671],[9.6496,40.3754],[9.653,40.383],[9.6606,40.3885],[9.68,40.394],[9.687,40.4046],[9.6941,40.4117],[9.7129,40.4246],[9.715,40.4294],[9.7206,40.4482],[9.7371,40.4607],[9.7533,40.4776],[9.7745,40.4731],[9.7804,40.4725],[9.7874,40.4722],[9.809,40.4736]]]}},{"type":"Feature","properties":{"i":"091064","n":"Orotelli"},"geometry":{"type":"Polygon","coordinates":[[[9.1122,40.2717],[9.1117,40.2736],[9.1086,40.2744],[9.1023,40.2723],[9.0907,40.2726],[9.0868,40.2753],[9.0703,40.299],[9.0649,40.3041],[9.0517,40.3055],[9.0347,40.3042],[9.0388,40.3091],[9.0423,40.3266],[9.0615,40.3368],[9.077,40.3386],[9.1035,40.349],[9.1154,40.3565],[9.1277,40.3598],[9.1436,40.3627],[9.148,40.3655],[9.1489,40.345],[9.1516,40.336],[9.1584,40.327],[9.1583,40.3259],[9.1547,40.3194],[9.1453,40.3063],[9.1411,40.2957],[9.1351,40.2853],[9.129,40.279],[9.1171,40.2745],[9.1122,40.2717]]]}},{"type":"Feature","properties":{"i":"091066","n":"Ortueri"},"geometry":{"type":"Polygon","coordinates":[[[9.0266,40.0377],[9.0247,40.0354],[9.0245,40.0332],[9.0279,40.027],[9.0316,40.0229],[9.0286,40.0161],[9.0247,40.0148],[9.023,40.0099],[9.0198,40.0047],[9.0174,40.0027],[9.006,39.9969],[9.0041,39.9933],[9.006,39.9921],[8.9957,39.9879],[8.9891,39.9875],[8.9745,39.9896],[8.9664,39.9898],[8.9562,39.9932],[8.9533,39.9964],[8.9533,39.9992],[8.952,40.0034],[8.9456,40.0132],[8.9476,40.0239],[8.962,40.0361],[8.9656,40.0418],[8.972,40.0474],[8.9885,40.0573],[8.9925,40.0578],[9.0003,40.0567],[9.0053,40.055],[9.0135,40.0457],[9.0266,40.0377]]]}},{"type":"Feature","properties":{"i":"091067","n":"Orune"},"geometry":{"type":"Polygon","coordinates":[[[9.4111,40.4476],[9.4126,40.4453],[9.4137,40.4401],[9.4136,40.434],[9.4125,40.4298],[9.4172,40.4244],[9.4205,40.422],[9.4315,40.4205],[9.43,40.4159],[9.43,40.4116],[9.4364,40.4032],[9.4308,40.4019],[9.4276,40.3979],[9.4117,40.3826],[9.4129,40.377],[9.4171,40.3747],[9.4117,40.372],[9.4067,40.3735],[9.4024,40.3729],[9.3993,40.3703],[9.3979,40.3664],[9.375,40.3678],[9.3708,40.3641],[9.3626,40.3644],[9.3609,40.3655],[9.3621,40.3661],[9.3634,40.3692],[9.3539,40.3771],[9.3473,40.3768],[9.3428,40.3791],[9.3378,40.3839],[9.3267,40.3878],[9.3213,40.3892],[9.3157,40.3888],[9.311,40.3899],[9.3067,40.3963],[9.3021,40.3975],[9.2959,40.3977],[9.2794,40.3936],[9.2767,40.3926],[9.2655,40.3848],[9.259,40.382],[9.2564,40.3822],[9.2481,40.3896],[9.2457,40.3932],[9.2427,40.4029],[9.2404,40.4054],[9.236,40.4086],[9.2285,40.4108],[9.2254,40.4106],[9.2252,40.417],[9.2272,40.4281],[9.2327,40.4335],[9.2381,40.4452],[9.2481,40.4561],[9.2489,40.4588],[9.2476,40.4619],[9.2512,40.4664],[9.2716,40.4694],[9.2775,40.4719],[9.2771,40.4742],[9.2778,40.4751],[9.2823,40.4765],[9.2845,40.4766],[9.2857,40.4733],[9.2919,40.4655],[9.3119,40.4531],[9.3339,40.4508],[9.3379,40.4517],[9.3471,40.4519],[9.3814,40.4426],[9.387,40.4438],[9.3989,40.4504],[9.4026,40.4506],[9.4111,40.4476]]]}},{"type":"Feature","properties":{"i":"091068","n":"Osidda"},"geometry":{"type":"Polygon","coordinates":[[[9.2864,40.5259],[9.2812,40.5197],[9.2788,40.5108],[9.264,40.5116],[9.2526,40.5089],[9.2466,40.5047],[9.2429,40.5039],[9.2229,40.5026],[9.2088,40.5061],[9.2037,40.5056],[9.1938,40.5061],[9.1821,40.5087],[9.1826,40.5115],[9.1896,40.5173],[9.1909,40.5215],[9.1913,40.5235],[9.1876,40.5327],[9.1883,40.5362],[9.1894,40.5369],[9.2009,40.5363],[9.2067,40.5386],[9.2158,40.54],[9.241,40.5382],[9.254,40.5344],[9.2674,40.5328],[9.2864,40.5259]]]}},{"type":"Feature","properties":{"i":"091070","n":"Ottana"},"geometry":{"type":"Polygon","coordinates":[[[9.0852,40.2428],[9.0845,40.2412],[9.0849,40.2382],[9.0825,40.2344],[9.0602,40.216],[9.0561,40.2117],[9.0529,40.2046],[9.0575,40.19],[9.0534,40.1871],[9.0532,40.1855],[9.0466,40.181],[9.0354,40.1795],[9.0315,40.1803],[9.0245,40.1894],[9.0173,40.1938],[9.0125,40.1988],[9.0045,40.2033],[8.997,40.2053],[8.9902,40.2094],[8.9916,40.2143],[8.995,40.2174],[9.0043,40.2316],[9.0094,40.2367],[9.0086,40.2443],[9.009,40.246],[9.0145,40.2518],[9.0242,40.2564],[9.0288,40.2631],[9.0291,40.2698],[9.0367,40.2688],[9.0555,40.2643],[9.0667,40.255],[9.078,40.2562],[9.0809,40.254],[9.0836,40.25],[9.0852,40.2428]]]}},{"type":"Feature","properties":{"i":"091071","n":"Ovodda"},"geometry":{"type":"Polygon","coordinates":[[[9.1551,40.1312],[9.1635,40.1285],[9.1824,40.1251],[9.1933,40.1221],[9.2089,40.1071],[9.2124,40.1032],[9.2166,40.0945],[9.2322,40.0764],[9.2237,40.0735],[9.2226,40.0724],[9.2215,40.0701],[9.2222,40.0622],[9.1838,40.0664],[9.1652,40.0722],[9.16,40.0752],[9.1376,40.0944],[9.1337,40.1058],[9.1366,40.1285],[9.1364,40.1311],[9.1551,40.1312]]]}},{"type":"Feature","properties":{"i":"091073","n":"Posada"},"geometry":{"type":"Polygon","coordinates":[[[9.7492,40.658],[9.7479,40.6541],[9.7454,40.6517],[9.7436,40.6479],[9.742,40.6345],[9.7441,40.624],[9.7473,40.6195],[9.7492,40.6189],[9.7526,40.6159],[9.7528,40.6149],[9.7511,40.6132],[9.7235,40.6098],[9.702,40.6096],[9.697,40.6105],[9.6889,40.6147],[9.6987,40.6201],[9.6977,40.6276],[9.6948,40.6372],[9.6903,40.6442],[9.6835,40.6582],[9.6748,40.6649],[9.6754,40.6675],[9.6849,40.6719],[9.689,40.6748],[9.6911,40.6769],[9.6918,40.6791],[9.7002,40.6798],[9.7067,40.6764],[9.7324,40.6721],[9.7365,40.6692],[9.7399,40.6619],[9.7492,40.658]]]}},{"type":"Feature","properties":{"i":"091077","n":"Sarule"},"geometry":{"type":"Polygon","coordinates":[[[9.2319,40.2121],[9.2288,40.205],[9.2184,40.1997],[9.209,40.1976],[9.2003,40.1984],[9.1831,40.1942],[9.1616,40.1971],[9.1595,40.2031],[9.1547,40.2077],[9.1435,40.2092],[9.1324,40.2064],[9.1189,40.2045],[9.0963,40.2029],[9.0886,40.2003],[9.071,40.1895],[9.0642,40.1884],[9.0575,40.19],[9.0529,40.2046],[9.0561,40.2117],[9.0602,40.216],[9.0825,40.2344],[9.0849,40.2382],[9.0845,40.2412],[9.0852,40.2428],[9.0878,40.2405],[9.1043,40.2361],[9.1175,40.2344],[9.1487,40.2371],[9.1632,40.2368],[9.1711,40.2348],[9.1884,40.2374],[9.1941,40.2328],[9.2029,40.2279],[9.2243,40.2182],[9.2319,40.2121]]]}},{"type":"Feature","properties":{"i":"091083","n":"Silanus"},"geometry":{"type":"Polygon","coordinates":[[[8.8675,40.3414],[8.8862,40.3312],[8.8887,40.3289],[8.8906,40.3249],[8.8919,40.319],[8.8948,40.3139],[8.9114,40.3005],[8.9254,40.2946],[8.9409,40.275],[8.9566,40.269],[8.9556,40.2662],[8.9559,40.2576],[8.9572,40.2513],[8.9514,40.254],[8.9464,40.2459],[8.9416,40.2439],[8.9324,40.2428],[8.9281,40.2412],[8.9243,40.2436],[8.9248,40.2447],[8.9239,40.247],[8.9198,40.2502],[8.8907,40.2611],[8.8758,40.2656],[8.8704,40.2696],[8.8693,40.2713],[8.8702,40.2867],[8.8633,40.3037],[8.8526,40.3097],[8.8492,40.3135],[8.8467,40.3231],[8.8458,40.3366],[8.8472,40.3421],[8.8545,40.3468],[8.86,40.3472],[8.8675,40.3414]]]}},{"type":"Feature","properties":{"i":"091084","n":"Sindia"},"geometry":{"type":"Polygon","coordinates":[[[8.6985,40.3308],[8.7064,40.3307],[8.7111,40.3267],[8.7288,40.3082],[8.7317,40.3039],[8.7297,40.297],[8.723,40.2794],[8.7158,40.2698],[8.6918,40.2525],[8.6728,40.25],[8.6646,40.2502],[8.6505,40.2556],[8.6457,40.2582],[8.6266,40.2642],[8.628,40.2658],[8.6255,40.2689],[8.6164,40.2732],[8.6196,40.2769],[8.623,40.2833],[8.6175,40.2854],[8.614,40.2911],[8.6151,40.2969],[8.6178,40.3029],[8.6114,40.3086],[8.6152,40.3174],[8.6202,40.319],[8.6209,40.3174],[8.6259,40.3141],[8.6362,40.311],[8.6404,40.3049],[8.6395,40.303],[8.6397,40.2996],[8.6427,40.297],[8.6439,40.297],[8.6502,40.2999],[8.6587,40.3104],[8.6682,40.312],[8.6739,40.3115],[8.6763,40.3124],[8.6846,40.3211],[8.6878,40.3258],[8.688,40.3274],[8.6903,40.3297],[8.6943,40.3313],[8.6985,40.3308]]]}},{"type":"Feature","properties":{"i":"091085","n":"Siniscola"},"geometry":{"type":"MultiPolygon","coordinates":[[[[9.8215,40.5401],[9.8205,40.539],[9.8163,40.5381],[9.819,40.5399],[9.8207,40.5405],[9.8215,40.5401]]],[[[9.809,40.4736],[9.7874,40.4722],[9.7804,40.4725],[9.7745,40.4731],[9.7533,40.4776],[9.7387,40.4842],[9.7215,40.4905],[9.7189,40.4956],[9.7041,40.497],[9.6934,40.5014],[9.6891,40.5021],[9.6669,40.4987],[9.66,40.5017],[9.6538,40.5071],[9.6386,40.5112],[9.6192,40.5119],[9.6092,40.5062],[9.6034,40.4996],[9.5882,40.5125],[9.5796,40.5172],[9.5871,40.5235],[9.5976,40.5275],[9.6077,40.5336],[9.6093,40.5398],[9.6114,40.5422],[9.6171,40.5479],[9.6323,40.5589],[9.6368,40.571],[9.6352,40.5728],[9.6301,40.5841],[9.6386,40.5997],[9.6579,40.603],[9.6875,40.613],[9.6889,40.6148],[9.6982,40.6101],[9.7141,40.6093],[9.7494,40.6129],[9.7511,40.6132],[9.7528,40.6149],[9.7507,40.6046],[9.7518,40.6009],[9.7546,40.5964],[9.7628,40.5877],[9.7689,40.5834],[9.7718,40.582],[9.7752,40.5824],[9.7816,40.5805],[9.7908,40.5698],[9.7944,40.5548],[9.7918,40.5523],[9.7919,40.5506],[9.7942,40.5463],[9.7988,40.5424],[9.8076,40.538],[9.8136,40.5373],[9.8233,40.5328],[9.8268,40.5305],[9.8284,40.5284],[9.8254,40.5098],[9.8168,40.4878],[9.8122,40.4809],[9.809,40.4736]]]]}},{"type":"Feature","properties":{"i":"091086","n":"Sorgono"},"geometry":{"type":"Polygon","coordinates":[[[9.1131,40.0539],[9.1171,40.052],[9.1294,40.0502],[9.1326,40.0487],[9.1317,40.0433],[9.136,40.0281],[9.1343,40.025],[9.1292,40.0192],[9.1276,40.0109],[9.1279,39.9952],[9.1319,39.9828],[9.1306,39.9758],[9.1322,39.9718],[9.1287,39.9745],[9.1196,39.9747],[9.1138,39.9764],[9.1101,39.9795],[9.1101,39.9881],[9.0997,39.9936],[9.0911,40.0033],[9.0844,40.0054],[9.0722,40.0047],[9.0624,40.0023],[9.0505,39.9973],[9.0419,39.9914],[9.0201,39.9804],[9.0179,39.9803],[9.012,39.9901],[9.0042,39.9928],[9.006,39.9969],[9.0174,40.0027],[9.0198,40.0047],[9.023,40.0099],[9.0247,40.0148],[9.0283,40.0158],[9.0298,40.0181],[9.0315,40.0232],[9.0279,40.027],[9.0245,40.0332],[9.0247,40.0354],[9.0266,40.0377],[9.0312,40.038],[9.0502,40.0428],[9.0605,40.0433],[9.0656,40.0429],[9.0726,40.04],[9.0785,40.0393],[9.0834,40.0428],[9.0832,40.0481],[9.0846,40.0525],[9.1023,40.0539],[9.1131,40.0539]]]}},{"type":"Feature","properties":{"i":"091090","n":"Teti"},"geometry":{"type":"Polygon","coordinates":[[[9.1272,40.1413],[9.1268,40.1389],[9.1276,40.132],[9.1364,40.1311],[9.1366,40.1285],[9.1337,40.1058],[9.1374,40.095],[9.1288,40.093],[9.1242,40.0748],[9.1168,40.0614],[9.1137,40.0642],[9.1021,40.0872],[9.0885,40.0964],[9.074,40.1081],[9.0604,40.1207],[9.0516,40.1321],[9.0473,40.1415],[9.058,40.1494],[9.063,40.1521],[9.0691,40.1544],[9.0765,40.1539],[9.0772,40.1608],[9.079,40.1612],[9.0861,40.1584],[9.0887,40.1513],[9.0962,40.1469],[9.101,40.1478],[9.107,40.1532],[9.1167,40.1536],[9.1289,40.1518],[9.1286,40.1494],[9.1268,40.1486],[9.1272,40.1413]]]}},{"type":"Feature","properties":{"i":"091091","n":"Tiana"},"geometry":{"type":"Polygon","coordinates":[[[9.2222,40.0622],[9.217,40.0551],[9.1902,40.0601],[9.1825,40.0598],[9.178,40.0591],[9.155,40.0516],[9.1399,40.0483],[9.1326,40.0487],[9.1294,40.0502],[9.1171,40.052],[9.1131,40.0539],[9.1242,40.0748],[9.1288,40.093],[9.1374,40.095],[9.16,40.0752],[9.1652,40.0722],[9.1838,40.0664],[9.2222,40.0622]]]}},{"type":"Feature","properties":{"i":"091093","n":"Tonara"},"geometry":{"type":"Polygon","coordinates":[[[9.217,40.0551],[9.2123,40.0494],[9.2148,40.0457],[9.2187,40.0434],[9.2225,40.0395],[9.2204,40.0334],[9.2186,40.0244],[9.2141,40.0178],[9.1905,39.9962],[9.1866,39.9861],[9.1781,39.9861],[9.1698,39.9843],[9.1653,39.9857],[9.162,39.9899],[9.1575,39.9904],[9.153,39.9871],[9.1503,39.9787],[9.1429,39.9783],[9.1306,39.9758],[9.1319,39.9828],[9.1279,39.9952],[9.1276,40.0109],[9.1292,40.0192],[9.1343,40.025],[9.136,40.0281],[9.1317,40.0433],[9.1326,40.0487],[9.1399,40.0483],[9.155,40.0516],[9.178,40.0591],[9.1825,40.0598],[9.1902,40.0601],[9.217,40.0551]]]}},{"type":"Feature","properties":{"i":"091094","n":"Torpè"},"geometry":{"type":"Polygon","coordinates":[[[9.6748,40.6649],[9.6835,40.6582],[9.6903,40.6442],[9.6948,40.6372],[9.6985,40.6243],[9.6987,40.6201],[9.6889,40.6148],[9.6875,40.613],[9.6722,40.6075],[9.6579,40.603],[9.6386,40.5997],[9.6367,40.6016],[9.627,40.6034],[9.6221,40.6052],[9.6149,40.6117],[9.6133,40.6178],[9.6112,40.6222],[9.6085,40.624],[9.6044,40.625],[9.5917,40.6303],[9.582,40.6326],[9.578,40.6312],[9.5715,40.6309],[9.5686,40.6332],[9.5576,40.6451],[9.551,40.6711],[9.5634,40.6801],[9.5727,40.6955],[9.5831,40.7061],[9.6032,40.6969],[9.6237,40.6991],[9.6531,40.6911],[9.6748,40.6649]]]}},{"type":"Feature","properties":{"i":"091002","n":"Arzana"},"geometry":{"type":"MultiPolygon","coordinates":[[[[9.6514,39.5492],[9.6037,39.571],[9.5939,39.5738],[9.593,39.5748],[9.5906,39.6033],[9.6287,39.6103],[9.6554,39.6112],[9.6573,39.5942],[9.6576,39.5802],[9.6561,39.5706],[9.6538,39.5655],[9.6514,39.5492]]],[[[9.6174,39.9271],[9.6193,39.9182],[9.6161,39.9162],[9.5977,39.912],[9.5956,39.9104],[9.5647,39.9056],[9.5572,39.9035],[9.5504,39.9054],[9.5324,39.9082],[9.5209,39.9043],[9.5108,39.8989],[9.5083,39.8934],[9.5064,39.8943],[9.4986,39.8915],[9.4926,39.8883],[9.4902,39.8861],[9.4861,39.8871],[9.4739,39.8993],[9.4527,39.9091],[9.4407,39.9143],[9.4349,39.9143],[9.4179,39.9215],[9.4121,39.9215],[9.3908,39.9304],[9.3864,39.9288],[9.3875,39.9262],[9.3833,39.9231],[9.381,39.9231],[9.3801,39.9176],[9.3767,39.9155],[9.3687,39.9055],[9.3666,39.9048],[9.3543,39.9039],[9.3499,39.9072],[9.3492,39.9108],[9.3449,39.9116],[9.3247,39.9096],[9.3167,39.9108],[9.3137,39.9134],[9.2944,39.9148],[9.2856,39.9145],[9.2833,39.9155],[9.282,39.9173],[9.2804,39.9174],[9.279,39.9206],[9.2864,39.9233],[9.2887,39.9269],[9.2865,39.9341],[9.2784,39.9457],[9.2883,39.9648],[9.2902,39.9707],[9.2896,39.9736],[9.2919,39.9835],[9.3002,39.985],[9.3139,39.9898],[9.3229,39.9954],[9.3758,39.9777],[9.3839,39.9695],[9.3922,39.9575],[9.3995,39.9483],[9.4029,39.9454],[9.4374,39.9343],[9.4755,39.9312],[9.4861,39.9278],[9.5033,39.9307],[9.5126,39.9317],[9.5168,39.9311],[9.5272,39.9341],[9.5445,39.9414],[9.5557,39.9441],[9.5569,39.9434],[9.5659,39.9439],[9.5751,39.9456],[9.5887,39.9414],[9.6032,39.9333],[9.6174,39.9271]]]]}},{"type":"Feature","properties":{"i":"091005","n":"Bari Sardo"},"geometry":{"type":"Polygon","coordinates":[[[9.6845,39.8662],[9.6932,39.8585],[9.6967,39.8534],[9.6961,39.8505],[9.69,39.8468],[9.6845,39.8407],[9.6763,39.8162],[9.6733,39.8047],[9.6719,39.7946],[9.6619,39.798],[9.6441,39.8018],[9.6352,39.8018],[9.6298,39.805],[9.6224,39.8169],[9.6309,39.8255],[9.6281,39.8366],[9.6191,39.8498],[9.6217,39.8553],[9.6239,39.8567],[9.624,39.8623],[9.6263,39.8648],[9.6327,39.8689],[9.638,39.8678],[9.6485,39.8712],[9.6503,39.8752],[9.6608,39.8688],[9.6845,39.8662]]]}},{"type":"Feature","properties":{"i":"091006","n":"Baunei"},"geometry":{"type":"Polygon","coordinates":[[[9.688,39.9855],[9.6849,39.9863],[9.6574,39.9879],[9.6569,39.9891],[9.6574,39.9911],[9.6622,39.996],[9.6665,39.9976],[9.669,40.0038],[9.67,40.0097],[9.667,40.0121],[9.6499,40.0385],[9.6453,40.0435],[9.6376,40.0461],[9.6317,40.0449],[9.6261,40.039],[9.6211,40.0407],[9.6138,40.0362],[9.6097,40.0321],[9.5908,40.033],[9.5889,40.0363],[9.5818,40.0419],[9.5744,40.0465],[9.5612,40.0521],[9.5483,40.0468],[9.5477,40.0539],[9.552,40.0996],[9.5593,40.1088],[9.5615,40.1134],[9.5634,40.1228],[9.5644,40.1415],[9.5609,40.1537],[9.5669,40.1692],[9.5757,40.1812],[9.5767,40.1859],[9.5765,40.1951],[9.5888,40.209],[9.5952,40.214],[9.61,40.2206],[9.6206,40.2235],[9.6286,40.2246],[9.6261,40.2072],[9.6307,40.1872],[9.6347,40.1791],[9.638,40.1769],[9.6464,40.1683],[9.651,40.1592],[9.6538,40.1489],[9.6566,40.1423],[9.6629,40.1373],[9.678,40.1225],[9.684,40.1159],[9.6861,40.1107],[9.6889,40.1085],[9.7044,40.1011],[9.7282,40.0911],[9.733,40.0871],[9.7356,40.0788],[9.7354,40.076],[9.734,40.0739],[9.7322,40.0732],[9.7269,40.0652],[9.7215,40.052],[9.7061,40.0343],[9.7028,40.0239],[9.7013,40.0144],[9.7016,40.01],[9.6992,40.0022],[9.6942,39.993],[9.688,39.9855]]]}},{"type":"Feature","properties":{"i":"091103","n":"Cardedu"},"geometry":{"type":"Polygon","coordinates":[[[9.6298,39.805],[9.6352,39.8018],[9.6441,39.8018],[9.6619,39.798],[9.6719,39.7946],[9.6697,39.7826],[9.669,39.7718],[9.6698,39.7662],[9.6736,39.7534],[9.6539,39.7534],[9.6484,39.7501],[9.6461,39.743],[9.6441,39.7255],[9.6465,39.7211],[9.633,39.7208],[9.6302,39.7229],[9.627,39.7309],[9.622,39.7385],[9.6224,39.7585],[9.6215,39.7606],[9.612,39.77],[9.6102,39.7739],[9.6118,39.7768],[9.6127,39.7827],[9.6092,39.7862],[9.6087,39.7917],[9.6113,39.7948],[9.6048,39.8001],[9.6005,39.8013],[9.5987,39.8078],[9.6127,39.805],[9.6298,39.805]]]}},{"type":"Feature","properties":{"i":"091019","n":"Elini"},"geometry":{"type":"MultiPolygon","coordinates":[[[[9.5522,39.9045],[9.5485,39.9046],[9.5403,39.9028],[9.5393,39.9014],[9.5399,39.8999],[9.5333,39.8943],[9.5237,39.8941],[9.5117,39.8918],[9.5083,39.8934],[9.5108,39.8989],[9.5209,39.9043],[9.5324,39.9082],[9.5504,39.9054],[9.5522,39.9045]]],[[[9.6492,39.8838],[9.6381,39.8853],[9.6357,39.8884],[9.6247,39.8938],[9.6071,39.8993],[9.5995,39.9043],[9.5956,39.9104],[9.5977,39.912],[9.6161,39.9162],[9.6193,39.9182],[9.6204,39.9177],[9.6302,39.9119],[9.6497,39.8855],[9.6492,39.8838]]]]}},{"type":"Feature","properties":{"i":"091026","n":"Gairo"},"geometry":{"type":"MultiPolygon","coordinates":[[[[9.6736,39.7534],[9.6746,39.7504],[9.6756,39.7261],[9.671,39.7265],[9.6465,39.7211],[9.6441,39.7255],[9.6461,39.743],[9.6484,39.7501],[9.6539,39.7534],[9.6736,39.7534]]],[[[9.4902,39.8861],[9.4939,39.8821],[9.4997,39.8798],[9.509,39.8722],[9.5288,39.854],[9.5426,39.8474],[9.5473,39.8413],[9.5499,39.8348],[9.5608,39.823],[9.5746,39.8157],[9.5859,39.8107],[9.5987,39.8078],[9.6005,39.8013],[9.5946,39.8032],[9.5907,39.8067],[9.5849,39.8093],[9.572,39.8129],[9.5669,39.8121],[9.5613,39.8152],[9.5439,39.8093],[9.5391,39.8116],[9.5307,39.8176],[9.5191,39.8283],[9.5071,39.8332],[9.4948,39.8414],[9.4764,39.8478],[9.4722,39.8559],[9.4596,39.8444],[9.4502,39.8374],[9.443,39.8344],[9.4293,39.8642],[9.4304,39.8702],[9.4324,39.8723],[9.42,39.8829],[9.417,39.8837],[9.4166,39.8859],[9.4121,39.8929],[9.4036,39.9005],[9.3831,39.9168],[9.3801,39.9176],[9.381,39.9231],[9.3833,39.9231],[9.3875,39.9262],[9.3864,39.9288],[9.3908,39.9304],[9.4126,39.9213],[9.4179,39.9215],[9.4349,39.9143],[9.4407,39.9143],[9.4736,39.8995],[9.4861,39.8871],[9.4902,39.8861]]]]}},{"type":"Feature","properties":{"i":"091031","n":"Girasole"},"geometry":{"type":"Polygon","coordinates":[[[9.6798,39.9598],[9.6768,39.9509],[9.6737,39.9504],[9.6711,39.9511],[9.667,39.9497],[9.6641,39.9449],[9.663,39.9413],[9.6634,39.9395],[9.6472,39.9394],[9.6275,39.9416],[9.6194,39.9414],[9.6192,39.9451],[9.6166,39.9532],[9.613,39.9695],[9.6347,39.9644],[9.6715,39.9643],[9.6786,39.9622],[9.6798,39.9598]]]}},{"type":"Feature","properties":{"i":"091032","n":"Ilbono"},"geometry":{"type":"Polygon","coordinates":[[[9.5956,39.9104],[9.5995,39.9043],[9.6071,39.8993],[9.6247,39.8938],[9.6357,39.8884],[9.6381,39.8853],[9.6492,39.8838],[9.6503,39.8752],[9.6485,39.8712],[9.638,39.8678],[9.6327,39.8689],[9.6263,39.8648],[9.624,39.8623],[9.6239,39.8567],[9.6179,39.8571],[9.6003,39.8628],[9.5924,39.8682],[9.589,39.8741],[9.578,39.8817],[9.5623,39.8816],[9.5591,39.8809],[9.5377,39.8872],[9.5156,39.8895],[9.5117,39.8918],[9.5237,39.8941],[9.5333,39.8943],[9.5399,39.8999],[9.5396,39.9023],[9.5415,39.9031],[9.5513,39.9048],[9.5572,39.9035],[9.5647,39.9056],[9.5956,39.9104]]]}},{"type":"Feature","properties":{"i":"091035","n":"Jerzu"},"geometry":{"type":"MultiPolygon","coordinates":[[[[9.5901,39.6031],[9.593,39.5748],[9.5939,39.5738],[9.5896,39.5732],[9.574,39.5737],[9.5645,39.573],[9.5544,39.5736],[9.5507,39.5752],[9.5456,39.5796],[9.5464,39.5829],[9.5317,39.5886],[9.5238,39.5894],[9.5239,39.5995],[9.5261,39.6027],[9.5613,39.6149],[9.5748,39.6066],[9.5759,39.6038],[9.5776,39.6024],[9.5901,39.6031]]],[[[9.6005,39.8013],[9.6048,39.8001],[9.6113,39.7948],[9.6087,39.7917],[9.6092,39.7862],[9.6127,39.7827],[9.6115,39.7759],[9.6102,39.7739],[9.6074,39.7718],[9.6028,39.7546],[9.5886,39.7532],[9.5854,39.7568],[9.5812,39.7554],[9.5746,39.7505],[9.5743,39.7496],[9.5769,39.7389],[9.5734,39.7421],[9.5697,39.7419],[9.5415,39.7342],[9.5373,39.7303],[9.5305,39.7261],[9.5095,39.7151],[9.4989,39.72],[9.4823,39.7317],[9.462,39.7336],[9.4603,39.735],[9.463,39.747],[9.4673,39.7502],[9.4764,39.7546],[9.4834,39.7644],[9.4841,39.7707],[9.4815,39.7811],[9.4874,39.7868],[9.5015,39.7873],[9.5033,39.7882],[9.5075,39.791],[9.5135,39.8009],[9.5323,39.8063],[9.5391,39.8116],[9.5439,39.8093],[9.5454,39.8058],[9.5469,39.798],[9.5507,39.7967],[9.5487,39.7978],[9.5488,39.799],[9.5553,39.8023],[9.5568,39.8037],[9.5584,39.8078],[9.562,39.8115],[9.572,39.8129],[9.5849,39.8093],[9.5907,39.8067],[9.5946,39.8032],[9.6005,39.8013]]]]}},{"type":"Feature","properties":{"i":"091037","n":"Lanusei"},"geometry":{"type":"MultiPolygon","coordinates":[[[[9.6521,39.6341],[9.6522,39.6273],[9.6537,39.6158],[9.6554,39.6112],[9.6287,39.6103],[9.5901,39.6031],[9.591,39.6089],[9.5908,39.6175],[9.5954,39.6201],[9.6076,39.6209],[9.6227,39.6253],[9.6241,39.6272],[9.6237,39.6349],[9.6244,39.6364],[9.6321,39.6377],[9.6521,39.6341]]],[[[9.5117,39.8918],[9.5156,39.8895],[9.5377,39.8872],[9.5591,39.8809],[9.5623,39.8816],[9.578,39.8817],[9.5848,39.8771],[9.5719,39.8594],[9.5659,39.8552],[9.566,39.8534],[9.5729,39.848],[9.5767,39.8476],[9.5809,39.8438],[9.5844,39.8392],[9.5854,39.8326],[9.5871,39.8301],[9.5986,39.8337],[9.6049,39.8339],[9.6088,39.8303],[9.6299,39.824],[9.6254,39.8205],[9.6224,39.8169],[9.6298,39.805],[9.6127,39.805],[9.5909,39.8092],[9.5746,39.8157],[9.5608,39.823],[9.5499,39.8348],[9.5473,39.8413],[9.5426,39.8474],[9.5288,39.854],[9.509,39.8722],[9.4997,39.8798],[9.4939,39.8821],[9.4902,39.8861],[9.4926,39.8883],[9.4986,39.8915],[9.5064,39.8943],[9.5117,39.8918]]]]}},{"type":"Feature","properties":{"i":"091039","n":"Loceri"},"geometry":{"type":"MultiPolygon","coordinates":[[[[9.5931,39.6192],[9.5907,39.6257],[9.6062,39.6263],[9.6162,39.6287],[9.624,39.6345],[9.6241,39.6272],[9.6227,39.6253],[9.6076,39.6209],[9.5983,39.6205],[9.5931,39.6192]]],[[[9.6476,39.6444],[9.6521,39.6341],[9.6321,39.6377],[9.6244,39.6364],[9.6265,39.6419],[9.6252,39.6466],[9.6439,39.643],[9.6476,39.6444]]],[[[9.6239,39.8567],[9.6217,39.8553],[9.6191,39.8498],[9.6281,39.8366],[9.6309,39.8255],[9.6299,39.824],[9.6088,39.8303],[9.6049,39.8339],[9.5986,39.8337],[9.5871,39.8301],[9.5854,39.8326],[9.5844,39.8392],[9.5809,39.8438],[9.5767,39.8476],[9.5729,39.848],[9.566,39.8534],[9.5659,39.8547],[9.5719,39.8594],[9.5848,39.8771],[9.589,39.8741],[9.5924,39.8682],[9.6003,39.8628],[9.6179,39.8571],[9.6239,39.8567]]]]}},{"type":"Feature","properties":{"i":"091042","n":"Lotzorai"},"geometry":{"type":"MultiPolygon","coordinates":[[[[9.7029,39.9752],[9.7056,39.9747],[9.7064,39.9736],[9.7029,39.9732],[9.7023,39.9747],[9.7029,39.9752]]],[[[9.7075,39.9758],[9.7067,39.9757],[9.7067,39.9765],[9.7075,39.9758]]],[[[9.7079,39.9762],[9.7079,39.9769],[9.7086,39.9765],[9.7079,39.9762]]],[[[9.6574,39.9879],[9.6849,39.9863],[9.688,39.9855],[9.6871,39.984],[9.6876,39.9791],[9.6851,39.9604],[9.686,39.9512],[9.6871,39.9481],[9.6851,39.9473],[9.6832,39.948],[9.6807,39.9525],[9.6798,39.9598],[9.6782,39.9623],[9.6708,39.9644],[9.6405,39.964],[9.6334,39.9645],[9.613,39.9695],[9.6107,39.9738],[9.6141,39.9752],[9.6304,39.9943],[9.6574,39.9879]]]]}},{"type":"Feature","properties":{"i":"091069","n":"Osini"},"geometry":{"type":"MultiPolygon","coordinates":[[[[9.5907,39.6257],[9.5931,39.6192],[9.5908,39.6175],[9.591,39.6089],[9.5901,39.6031],[9.5776,39.6024],[9.5759,39.6038],[9.5748,39.6066],[9.5613,39.6149],[9.5534,39.6318],[9.5565,39.629],[9.5579,39.629],[9.5857,39.6357],[9.5873,39.6337],[9.5889,39.6278],[9.5907,39.6257]]],[[[9.622,39.7385],[9.6106,39.7335],[9.6015,39.7361],[9.5909,39.7409],[9.5881,39.7412],[9.5769,39.7389],[9.5743,39.7496],[9.5812,39.7554],[9.5854,39.7568],[9.5886,39.7532],[9.6028,39.7546],[9.6068,39.7703],[9.6074,39.7718],[9.6102,39.7739],[9.612,39.77],[9.6215,39.7606],[9.6224,39.7585],[9.622,39.7385]]],[[[9.5439,39.8093],[9.5613,39.8152],[9.5669,39.8121],[9.562,39.8115],[9.5584,39.8078],[9.5568,39.8037],[9.5553,39.8023],[9.5488,39.799],[9.5487,39.7978],[9.5507,39.7967],[9.5469,39.798],[9.5454,39.8058],[9.5439,39.8093]]],[[[9.5307,39.8176],[9.5264,39.8155],[9.5206,39.8143],[9.5039,39.8201],[9.479,39.8188],[9.4612,39.8155],[9.4421,39.8109],[9.4388,39.8116],[9.428,39.8211],[9.4283,39.8252],[9.4306,39.8283],[9.4368,39.8328],[9.4449,39.8347],[9.449,39.8366],[9.4596,39.8444],[9.4722,39.8559],[9.4764,39.8478],[9.4948,39.8414],[9.5071,39.8332],[9.5191,39.8283],[9.5307,39.8176]]]]}},{"type":"Feature","properties":{"i":"091072","n":"Perdasdefogu"},"geometry":{"type":"Polygon","coordinates":[[[9.5083,39.6281],[9.5057,39.6248],[9.5049,39.6217],[9.5032,39.6206],[9.49,39.6164],[9.4863,39.6169],[9.4729,39.6331],[9.4705,39.6348],[9.4576,39.6414],[9.4409,39.6413],[9.4301,39.6255],[9.4257,39.6244],[9.4167,39.6172],[9.4186,39.6228],[9.4182,39.628],[9.4123,39.6329],[9.4055,39.6403],[9.3981,39.6534],[9.397,39.6603],[9.3974,39.6679],[9.4017,39.6738],[9.4025,39.6776],[9.4023,39.6854],[9.4018,39.6862],[9.4028,39.6952],[9.3987,39.7044],[9.4089,39.7114],[9.4163,39.7137],[9.4358,39.7069],[9.4498,39.7119],[9.4654,39.7131],[9.475,39.7107],[9.485,39.7054],[9.4923,39.7003],[9.502,39.6801],[9.5086,39.6627],[9.5105,39.6548],[9.5114,39.6342],[9.5083,39.6281]]]}},{"type":"Feature","properties":{"i":"091088","n":"Talana"},"geometry":{"type":"Polygon","coordinates":[[[9.5483,40.0468],[9.5479,40.044],[9.5449,40.0391],[9.5503,40.0374],[9.5579,40.0358],[9.5669,40.0354],[9.5887,40.0357],[9.5908,40.033],[9.59,40.0238],[9.5927,40.0141],[9.5959,40.0113],[9.6009,40.0098],[9.606,40.0061],[9.608,40.0041],[9.6115,39.9946],[9.6253,39.9879],[9.6141,39.9752],[9.6107,39.9738],[9.6095,39.9759],[9.5954,39.9782],[9.5594,39.9884],[9.5263,39.9958],[9.5037,40.0],[9.4991,40.0007],[9.4889,40.0008],[9.475,40.0043],[9.4566,40.0028],[9.4439,40.0002],[9.4385,40.0007],[9.4145,40.0079],[9.4157,40.0323],[9.4138,40.0499],[9.4149,40.054],[9.4178,40.0586],[9.4161,40.0649],[9.4142,40.0694],[9.4128,40.0705],[9.4121,40.0732],[9.4126,40.0811],[9.4153,40.0862],[9.4071,40.0945],[9.43,40.1026],[9.4329,40.1043],[9.4368,40.1091],[9.4379,40.1005],[9.4522,40.0865],[9.4766,40.0651],[9.4793,40.0666],[9.4869,40.0674],[9.4948,40.0662],[9.5054,40.0623],[9.5138,40.0574],[9.5153,40.0552],[9.5264,40.0464],[9.5483,40.0468]]]}},{"type":"Feature","properties":{"i":"091089","n":"Tertenia"},"geometry":{"type":"MultiPolygon","coordinates":[[[[9.6717,39.7041],[9.6709,39.7051],[9.6717,39.7049],[9.6717,39.7041]]],[[[9.5769,39.7389],[9.5881,39.7412],[9.5909,39.7409],[9.6015,39.7361],[9.6106,39.7335],[9.622,39.7385],[9.627,39.7309],[9.6302,39.7229],[9.633,39.7208],[9.6439,39.7208],[9.6505,39.7216],[9.6593,39.7244],[9.671,39.7265],[9.6756,39.7261],[9.6745,39.7225],[9.6751,39.7187],[9.6764,39.7161],[9.6765,39.7109],[9.6672,39.7011],[9.662,39.6998],[9.6595,39.6965],[9.6594,39.6922],[9.663,39.6843],[9.6598,39.6731],[9.657,39.6671],[9.6524,39.6651],[9.6498,39.6612],[9.6472,39.6517],[9.6479,39.6497],[9.6476,39.6444],[9.6439,39.643],[9.6252,39.6466],[9.6265,39.6419],[9.6237,39.6349],[9.6205,39.6315],[9.6162,39.6287],[9.6062,39.6263],[9.5907,39.6257],[9.5889,39.6278],[9.5873,39.6337],[9.5857,39.6357],[9.5628,39.6298],[9.5565,39.629],[9.5534,39.6318],[9.5495,39.6337],[9.5338,39.6402],[9.5262,39.6464],[9.5294,39.6499],[9.5405,39.6516],[9.5445,39.6533],[9.5432,39.6549],[9.5412,39.655],[9.5391,39.6575],[9.5382,39.669],[9.5382,39.6833],[9.536,39.691],[9.5352,39.7007],[9.5378,39.7158],[9.5277,39.7248],[9.5373,39.7303],[9.5415,39.7342],[9.56,39.7397],[9.5692,39.7419],[9.5734,39.7421],[9.5769,39.7389]]]]}},{"type":"Feature","properties":{"i":"091095","n":"Tortolì"},"geometry":{"type":"Polygon","coordinates":[[[9.6871,39.9481],[9.691,39.9427],[9.6997,39.9359],[9.7057,39.9367],[9.7076,39.9389],[9.706,39.9416],[9.7114,39.9393],[9.7156,39.9323],[9.7155,39.9275],[9.713,39.9219],[9.7094,39.9235],[9.6952,39.9202],[9.6901,39.9161],[9.684,39.9071],[9.6821,39.9005],[9.6811,39.8908],[9.6823,39.8809],[9.6824,39.871],[9.6845,39.8662],[9.6608,39.8688],[9.6503,39.8752],[9.6492,39.8838],[9.6497,39.8855],[9.6302,39.9119],[9.6193,39.9182],[9.6174,39.9271],[9.6266,39.9358],[9.6194,39.9414],[9.6275,39.9416],[9.6472,39.9394],[9.6634,39.9395],[9.663,39.9413],[9.6641,39.9449],[9.667,39.9497],[9.6711,39.9511],[9.6737,39.9504],[9.6768,39.9509],[9.6798,39.9598],[9.68,39.955],[9.6832,39.948],[9.6851,39.9473],[9.6871,39.9481]]]}},{"type":"Feature","properties":{"i":"091097","n":"Triei"},"geometry":{"type":"MultiPolygon","coordinates":[[[[9.6574,39.9879],[9.6304,39.9943],[9.6253,39.9879],[9.6115,39.9946],[9.608,40.0041],[9.606,40.0061],[9.6009,40.0098],[9.5959,40.0113],[9.5927,40.0141],[9.59,40.0238],[9.5908,40.033],[9.6097,40.0321],[9.6138,40.0362],[9.6211,40.0407],[9.6256,40.0388],[9.6317,40.0449],[9.6361,40.046],[9.6386,40.0459],[9.6459,40.0432],[9.6499,40.0385],[9.667,40.0121],[9.67,40.0097],[9.669,40.0038],[9.6665,39.9976],[9.6622,39.996],[9.6574,39.9911],[9.6569,39.9891],[9.6574,39.9879]]],[[[9.5887,40.0357],[9.5579,40.0358],[9.5449,40.0391],[9.5479,40.044],[9.5483,40.0468],[9.5612,40.0521],[9.5744,40.0465],[9.5864,40.0384],[9.5889,40.0363],[9.5887,40.0357]]]]}},{"type":"Feature","properties":{"i":"091098","n":"Ulassai"},"geometry":{"type":"Polygon","coordinates":[[[9.5307,39.8176],[9.5391,39.8116],[9.5323,39.8063],[9.5135,39.8009],[9.5075,39.791],[9.5015,39.7873],[9.4874,39.7868],[9.4831,39.7831],[9.4814,39.7808],[9.4841,39.7707],[9.4834,39.7644],[9.4764,39.7546],[9.4673,39.7502],[9.463,39.747],[9.4602,39.7354],[9.462,39.7336],[9.4823,39.7317],[9.4989,39.72],[9.5095,39.7151],[9.5215,39.7209],[9.5277,39.7248],[9.5378,39.7158],[9.5352,39.7007],[9.536,39.691],[9.5382,39.6833],[9.5382,39.669],[9.5391,39.6575],[9.5412,39.655],[9.5432,39.6549],[9.5445,39.6533],[9.5405,39.6516],[9.5294,39.6499],[9.5262,39.6464],[9.5338,39.6402],[9.5534,39.6318],[9.5613,39.6149],[9.5281,39.6031],[9.52,39.6029],[9.514,39.6054],[9.5102,39.6097],[9.5072,39.621],[9.5083,39.6281],[9.5114,39.6342],[9.5105,39.6548],[9.5086,39.6627],[9.502,39.6801],[9.4923,39.7003],[9.485,39.7054],[9.475,39.7107],[9.4654,39.7131],[9.4498,39.7119],[9.4358,39.7069],[9.4163,39.7137],[9.4089,39.7114],[9.3987,39.7044],[9.3969,39.7054],[9.3934,39.7107],[9.3862,39.7148],[9.3856,39.7165],[9.3856,39.7237],[9.3884,39.7272],[9.3968,39.7343],[9.3985,39.7334],[9.4001,39.7343],[9.4019,39.7412],[9.3986,39.7455],[9.4014,39.7486],[9.4079,39.7509],[9.4089,39.7504],[9.4095,39.7545],[9.4057,39.7572],[9.4081,39.7579],[9.4149,39.7575],[9.4229,39.7606],[9.4256,39.7623],[9.4268,39.7664],[9.4229,39.774],[9.4214,39.7822],[9.4235,39.8037],[9.4228,39.8176],[9.4236,39.8208],[9.4278,39.8213],[9.4388,39.8116],[9.4421,39.8109],[9.4612,39.8155],[9.479,39.8188],[9.5039,39.8201],[9.5206,39.8143],[9.5264,39.8155],[9.5307,39.8176]]]}},{"type":"Feature","properties":{"i":"091099","n":"Urzulei"},"geometry":{"type":"Polygon","coordinates":[[[9.5483,40.0468],[9.5264,40.0464],[9.5153,40.0552],[9.5138,40.0574],[9.5054,40.0623],[9.4948,40.0662],[9.4869,40.0674],[9.4793,40.0666],[9.4766,40.0651],[9.4522,40.0865],[9.4379,40.1005],[9.4373,40.1029],[9.4368,40.1091],[9.4402,40.1116],[9.4413,40.1191],[9.4443,40.1266],[9.4545,40.142],[9.4582,40.1447],[9.4648,40.1449],[9.4756,40.1482],[9.4765,40.1493],[9.4778,40.1644],[9.4809,40.1693],[9.4917,40.1813],[9.4972,40.1852],[9.5101,40.1863],[9.5156,40.1899],[9.5186,40.1958],[9.5199,40.2133],[9.5259,40.2187],[9.5457,40.2038],[9.5536,40.1991],[9.5765,40.1913],[9.5767,40.1859],[9.5757,40.1812],[9.5669,40.1692],[9.5609,40.1537],[9.5644,40.1415],[9.5634,40.1228],[9.5615,40.1134],[9.5593,40.1088],[9.552,40.0996],[9.5477,40.0539],[9.5483,40.0468]]]}},{"type":"Feature","properties":{"i":"091100","n":"Ussassai"},"geometry":{"type":"Polygon","coordinates":[[[9.443,39.8344],[9.4368,39.8328],[9.4306,39.8283],[9.4283,39.8252],[9.428,39.8211],[9.4236,39.8208],[9.4231,39.8202],[9.4235,39.8037],[9.4214,39.7822],[9.4229,39.774],[9.4268,39.7659],[9.4255,39.7621],[9.4229,39.7606],[9.4149,39.7575],[9.4081,39.7579],[9.4057,39.7572],[9.4065,39.76],[9.4048,39.7641],[9.3992,39.7683],[9.3945,39.7768],[9.3847,39.7784],[9.3744,39.7917],[9.3625,39.8027],[9.3617,39.8135],[9.3729,39.8179],[9.3773,39.8221],[9.3785,39.8309],[9.3756,39.832],[9.3706,39.8322],[9.3695,39.8351],[9.3698,39.8404],[9.3822,39.8434],[9.3986,39.843],[9.4044,39.8478],[9.4057,39.8498],[9.4059,39.8586],[9.4086,39.8691],[9.417,39.8837],[9.42,39.8829],[9.4324,39.8723],[9.4304,39.8702],[9.4293,39.8642],[9.443,39.8344]]]}},{"type":"Feature","properties":{"i":"091101","n":"Villagrande Strisaili"},"geometry":{"type":"Polygon","coordinates":[[[9.4071,40.0945],[9.4153,40.0862],[9.4126,40.0811],[9.4121,40.0732],[9.4128,40.0705],[9.4142,40.0694],[9.4161,40.0649],[9.4178,40.0586],[9.4149,40.054],[9.4138,40.0499],[9.4157,40.0323],[9.4145,40.0079],[9.4385,40.0007],[9.4439,40.0002],[9.4566,40.0028],[9.475,40.0043],[9.4889,40.0008],[9.4991,40.0007],[9.5037,40.0],[9.5544,39.9895],[9.5954,39.9782],[9.6095,39.9759],[9.613,39.9695],[9.6166,39.9532],[9.6192,39.9451],[9.6194,39.9414],[9.6266,39.9358],[9.6174,39.9271],[9.6032,39.9333],[9.5887,39.9414],[9.5751,39.9456],[9.5659,39.9439],[9.5569,39.9434],[9.5557,39.9441],[9.5445,39.9414],[9.5272,39.9341],[9.5168,39.9311],[9.5126,39.9317],[9.5033,39.9307],[9.4861,39.9278],[9.4755,39.9312],[9.4374,39.9343],[9.4029,39.9454],[9.3995,39.9483],[9.3922,39.9575],[9.3839,39.9695],[9.3758,39.9777],[9.3282,39.9939],[9.3212,39.9956],[9.3191,39.9996],[9.319,40.0082],[9.3039,40.0154],[9.2976,40.0214],[9.2936,40.0312],[9.2941,40.032],[9.2983,40.0365],[9.3046,40.0379],[9.3189,40.0393],[9.3212,40.0417],[9.3231,40.052],[9.326,40.0586],[9.3332,40.0669],[9.3341,40.0694],[9.3369,40.0724],[9.3528,40.0741],[9.3576,40.0733],[9.3616,40.0741],[9.371,40.0736],[9.3801,40.0777],[9.3828,40.0799],[9.3857,40.0833],[9.3858,40.0858],[9.3847,40.0875],[9.3915,40.0925],[9.4071,40.0945]]]}}]}
