{"type":"FeatureCollection","fonte":"Confini comunali ISTAT via openpolis/geojson-italy — CC BY 4.0","features":[{"type":"Feature","properties":{"i":"095001","n":"Abbasanta"},"geometry":{"type":"Polygon","coordinates":[[[8.8314,40.1285],[8.8289,40.1277],[8.8263,40.1234],[8.8145,40.1144],[8.802,40.1089],[8.7925,40.1063],[8.7888,40.1039],[8.7714,40.1117],[8.7665,40.1152],[8.7663,40.117],[8.7363,40.1306],[8.7366,40.1356],[8.7357,40.1379],[8.7329,40.1414],[8.73,40.1427],[8.7229,40.1505],[8.7176,40.159],[8.7183,40.1641],[8.725,40.1699],[8.7385,40.1794],[8.7567,40.1722],[8.7624,40.1675],[8.7758,40.1618],[8.7852,40.1561],[8.7896,40.1494],[8.8065,40.143],[8.8314,40.1285]]]}},{"type":"Feature","properties":{"i":"095002","n":"Aidomaggiore"},"geometry":{"type":"Polygon","coordinates":[[[8.8934,40.2082],[8.8924,40.2058],[8.8861,40.199],[8.8792,40.1943],[8.8723,40.1871],[8.873,40.184],[8.878,40.1754],[8.8879,40.1631],[8.8956,40.1554],[8.899,40.1506],[8.8995,40.1475],[8.8965,40.1428],[8.8859,40.1461],[8.8807,40.1457],[8.8741,40.1494],[8.8642,40.1445],[8.8574,40.1439],[8.8581,40.148],[8.8557,40.1529],[8.8514,40.1566],[8.841,40.1593],[8.8317,40.1592],[8.8221,40.1557],[8.8121,40.1624],[8.7994,40.1773],[8.7934,40.1811],[8.7876,40.1828],[8.7824,40.1867],[8.782,40.1898],[8.7874,40.1928],[8.7993,40.1932],[8.8185,40.1986],[8.8299,40.2029],[8.8368,40.2064],[8.8449,40.2089],[8.8575,40.2107],[8.8648,40.2088],[8.8934,40.2082]]]}},{"type":"Feature","properties":{"i":"095003","n":"Albagiara"},"geometry":{"type":"Polygon","coordinates":[[[8.8864,39.7924],[8.8866,39.7875],[8.8711,39.776],[8.8676,39.7753],[8.8611,39.7755],[8.8533,39.779],[8.8591,39.7904],[8.8703,39.8051],[8.8722,39.8105],[8.8753,39.8226],[8.8762,39.832],[8.8732,39.8349],[8.8722,39.8392],[8.8727,39.8419],[8.8845,39.8322],[8.8867,39.8281],[8.8871,39.8209],[8.8854,39.8134],[8.8806,39.807],[8.881,39.8002],[8.8826,39.7957],[8.8864,39.7924]]]}},{"type":"Feature","properties":{"i":"095004","n":"Ales"},"geometry":{"type":"Polygon","coordinates":[[[8.8093,39.7846],[8.8153,39.7816],[8.8191,39.7821],[8.827,39.7848],[8.8351,39.7901],[8.8379,39.79],[8.8409,39.7889],[8.8442,39.7841],[8.8533,39.779],[8.8499,39.7766],[8.8482,39.7742],[8.845,39.7617],[8.84,39.7592],[8.8244,39.7583],[8.809,39.7497],[8.8034,39.748],[8.7779,39.7699],[8.7726,39.7758],[8.7417,39.7982],[8.7463,39.8068],[8.7546,39.8006],[8.7669,39.7886],[8.7765,39.7854],[8.7815,39.7873],[8.7872,39.7881],[8.793,39.787],[8.7997,39.7841],[8.8038,39.7802],[8.8085,39.7833],[8.8093,39.7846]]]}},{"type":"Feature","properties":{"i":"095005","n":"Allai"},"geometry":{"type":"Polygon","coordinates":[[[8.8891,39.9371],[8.8817,39.9342],[8.8783,39.9302],[8.8404,39.9174],[8.8356,39.9243],[8.8256,39.9313],[8.82,39.9392],[8.8283,39.9469],[8.8271,39.9528],[8.8274,39.9568],[8.8291,39.9597],[8.8426,39.9719],[8.8449,39.9779],[8.8519,39.9794],[8.8642,39.9782],[8.8807,39.9738],[8.8855,39.9708],[8.8911,39.9648],[8.8829,39.9606],[8.8782,39.956],[8.8811,39.9532],[8.8844,39.9523],[8.8866,39.9468],[8.8877,39.9398],[8.8891,39.9371]]]}},{"type":"Feature","properties":{"i":"095006","n":"Arborea"},"geometry":{"type":"Polygon","coordinates":[[[8.6355,39.82],[8.6456,39.8],[8.6413,39.7788],[8.623,39.7778],[8.62,39.7711],[8.6203,39.7686],[8.6217,39.7665],[8.6195,39.7616],[8.6115,39.758],[8.611,39.7669],[8.5942,39.7667],[8.5918,39.763],[8.5905,39.758],[8.5943,39.7523],[8.597,39.7511],[8.6057,39.7405],[8.5901,39.7339],[8.5856,39.731],[8.5857,39.7089],[8.5932,39.7088],[8.5941,39.7074],[8.5935,39.7065],[8.5715,39.7071],[8.5643,39.7107],[8.5313,39.7105],[8.5149,39.7259],[8.5147,39.7328],[8.5099,39.7326],[8.5211,39.746],[8.5119,39.7531],[8.5216,39.7612],[8.5324,39.7718],[8.5386,39.7816],[8.545,39.7942],[8.5529,39.8294],[8.5547,39.8302],[8.5611,39.8307],[8.5713,39.8272],[8.5877,39.8262],[8.5992,39.8292],[8.6151,39.829],[8.6355,39.82]]]}},{"type":"Feature","properties":{"i":"095007","n":"Ardauli"},"geometry":{"type":"Polygon","coordinates":[[[8.9327,40.0954],[8.9356,40.0946],[8.9436,40.0948],[8.9477,40.0957],[8.9512,40.0976],[8.9545,40.0976],[8.9583,40.0963],[8.9616,40.0935],[8.9654,40.0881],[8.9585,40.0826],[8.9104,40.0649],[8.9064,40.0611],[8.8968,40.0647],[8.8774,40.0676],[8.8752,40.0685],[8.871,40.072],[8.8824,40.08],[8.885,40.0987],[8.8856,40.1],[8.888,40.1016],[8.8915,40.102],[8.903,40.0972],[8.9279,40.0967],[8.9327,40.0954]]]}},{"type":"Feature","properties":{"i":"095008","n":"Assolo"},"geometry":{"type":"Polygon","coordinates":[[[8.9085,39.8309],[8.9086,39.8288],[8.9154,39.8239],[8.9231,39.8205],[8.9269,39.8177],[8.934,39.8049],[8.9408,39.8013],[8.9457,39.8009],[8.9389,39.7926],[8.9382,39.7903],[8.9362,39.7912],[8.9036,39.7957],[8.8895,39.7946],[8.8864,39.7924],[8.8826,39.7957],[8.881,39.8002],[8.8806,39.807],[8.8854,39.8134],[8.8871,39.8209],[8.8867,39.8281],[8.8845,39.8322],[8.8855,39.835],[8.9028,39.8336],[8.9085,39.8309]]]}},{"type":"Feature","properties":{"i":"095009","n":"Asuni"},"geometry":{"type":"Polygon","coordinates":[[[8.9652,39.8957],[8.9668,39.892],[8.9746,39.8871],[8.9803,39.8738],[8.9737,39.8592],[8.9648,39.8569],[8.9628,39.8574],[8.9588,39.8516],[8.9585,39.8477],[8.9556,39.8447],[8.9538,39.8438],[8.9482,39.8471],[8.9435,39.8475],[8.9313,39.8504],[8.9244,39.856],[8.9174,39.8586],[8.9211,39.8608],[8.9221,39.8624],[8.9242,39.8724],[8.921,39.8816],[8.9217,39.885],[8.924,39.8889],[8.9261,39.8897],[8.9309,39.896],[8.9309,39.8971],[8.9328,39.8976],[8.9418,39.8951],[8.9514,39.8907],[8.9575,39.8898],[8.96,39.8915],[8.9587,39.8933],[8.9606,39.8949],[8.9638,39.8962],[8.9652,39.8957]]]}},{"type":"Feature","properties":{"i":"095010","n":"Baradili"},"geometry":{"type":"Polygon","coordinates":[[[8.9017,39.733],[8.9129,39.7237],[8.9115,39.7206],[8.9028,39.7129],[8.8936,39.7092],[8.8936,39.7123],[8.8803,39.7307],[8.8748,39.7346],[8.8856,39.7415],[8.8891,39.7416],[8.8974,39.7349],[8.9017,39.733]]]}},{"type":"Feature","properties":{"i":"095011","n":"Baratili San Pietro"},"geometry":{"type":"Polygon","coordinates":[[[8.5759,39.9965],[8.5757,39.9921],[8.5787,39.9807],[8.5863,39.9685],[8.5887,39.9669],[8.579,39.961],[8.5765,39.9653],[8.568,39.9739],[8.5591,39.9817],[8.5519,39.9863],[8.5491,39.9924],[8.555,39.9992],[8.565,39.9954],[8.5759,39.9965]]]}},{"type":"Feature","properties":{"i":"095012","n":"Baressa"},"geometry":{"type":"Polygon","coordinates":[[[8.8687,39.6874],[8.8598,39.6947],[8.8551,39.7015],[8.8518,39.7102],[8.8489,39.7141],[8.8519,39.7224],[8.8654,39.736],[8.8748,39.7346],[8.8803,39.7307],[8.8936,39.7123],[8.8938,39.711],[8.893,39.7078],[8.888,39.7061],[8.8798,39.7006],[8.8785,39.6942],[8.8766,39.6923],[8.8687,39.6874]]]}},{"type":"Feature","properties":{"i":"095013","n":"Bauladu"},"geometry":{"type":"Polygon","coordinates":[[[8.6848,40.0541],[8.6842,40.0531],[8.6859,40.0513],[8.7007,40.0418],[8.7076,40.0357],[8.7084,40.028],[8.7117,40.0212],[8.71,40.0191],[8.7108,40.0139],[8.7122,40.0107],[8.7085,40.003],[8.7053,40.0015],[8.6864,39.9974],[8.6822,39.9973],[8.673,39.994],[8.6681,40.0037],[8.6495,40.0273],[8.6481,40.0272],[8.6509,40.0319],[8.6732,40.0541],[8.6754,40.0585],[8.6829,40.0542],[8.6848,40.0541]]]}},{"type":"Feature","properties":{"i":"095014","n":"Bidonì"},"geometry":{"type":"Polygon","coordinates":[[[8.9593,40.1459],[8.9571,40.1407],[8.9561,40.1317],[8.9559,40.1298],[8.9576,40.1238],[8.9474,40.1163],[8.9421,40.1113],[8.9354,40.1099],[8.928,40.1141],[8.9228,40.1191],[8.917,40.1278],[8.9109,40.1343],[8.9334,40.1487],[8.9432,40.1492],[8.9491,40.1487],[8.9527,40.1481],[8.9564,40.1448],[8.9593,40.1459]]]}},{"type":"Feature","properties":{"i":"095015","n":"Bonarcado"},"geometry":{"type":"Polygon","coordinates":[[[8.6914,40.1043],[8.6898,40.1024],[8.691,40.1013],[8.6998,40.098],[8.6981,40.0912],[8.6902,40.0897],[8.6867,40.0804],[8.6895,40.0721],[8.6874,40.0591],[8.6866,40.0557],[8.6848,40.0541],[8.6829,40.0542],[8.6754,40.0585],[8.6777,40.0616],[8.6751,40.0653],[8.6715,40.0634],[8.6661,40.0634],[8.6555,40.068],[8.6539,40.0712],[8.6506,40.0733],[8.6443,40.0803],[8.6474,40.0848],[8.644,40.0925],[8.6385,40.0991],[8.6343,40.1113],[8.6194,40.1181],[8.6262,40.1256],[8.632,40.1349],[8.6354,40.1348],[8.6467,40.1306],[8.657,40.1243],[8.6671,40.1198],[8.6816,40.1069],[8.6914,40.1043]]]}},{"type":"Feature","properties":{"i":"095016","n":"Boroneddu"},"geometry":{"type":"Polygon","coordinates":[[[8.8818,40.1201],[8.8801,40.1203],[8.8774,40.1172],[8.876,40.1134],[8.8743,40.0966],[8.8764,40.0903],[8.8732,40.0905],[8.8628,40.0941],[8.8589,40.0983],[8.859,40.1096],[8.8572,40.1106],[8.8569,40.1119],[8.8571,40.1147],[8.8598,40.1192],[8.8632,40.1223],[8.8759,40.1226],[8.8754,40.1204],[8.8805,40.1211],[8.8818,40.1201]]]}},{"type":"Feature","properties":{"i":"095079","n":"Bosa"},"geometry":{"type":"MultiPolygon","coordinates":[[[[8.3768,40.3608],[8.3782,40.3603],[8.3772,40.3599],[8.3768,40.3608]]],[[[8.5487,40.3868],[8.5504,40.384],[8.5622,40.3814],[8.5651,40.3707],[8.5758,40.3576],[8.5741,40.3504],[8.5724,40.3479],[8.569,40.3464],[8.5639,40.3468],[8.5607,40.3481],[8.5537,40.342],[8.5406,40.3284],[8.5382,40.322],[8.5424,40.32],[8.5424,40.3143],[8.5402,40.3114],[8.5423,40.2989],[8.5406,40.2963],[8.536,40.2928],[8.5182,40.281],[8.5239,40.2798],[8.5235,40.2724],[8.5241,40.2716],[8.5141,40.2652],[8.5104,40.2619],[8.5048,40.2627],[8.4924,40.2717],[8.4832,40.2717],[8.4838,40.2744],[8.4825,40.2851],[8.479,40.2874],[8.4755,40.2878],[8.4714,40.2909],[8.4669,40.2978],[8.4651,40.306],[8.4657,40.3105],[8.4637,40.3154],[8.4594,40.3183],[8.4539,40.32],[8.443,40.3186],[8.4385,40.3217],[8.4351,40.3261],[8.4338,40.3284],[8.4339,40.3305],[8.4328,40.3331],[8.4269,40.3349],[8.406,40.3366],[8.3951,40.3399],[8.3919,40.3396],[8.3907,40.3377],[8.3895,40.3374],[8.3842,40.3381],[8.3826,40.339],[8.3847,40.3438],[8.3839,40.3503],[8.3817,40.3518],[8.3793,40.36],[8.3802,40.3622],[8.385,40.3634],[8.3894,40.3711],[8.3905,40.3782],[8.393,40.3863],[8.3975,40.3962],[8.3998,40.4036],[8.3998,40.4076],[8.4112,40.3979],[8.4225,40.3937],[8.4264,40.3942],[8.4348,40.3978],[8.4396,40.3973],[8.4395,40.3965],[8.4407,40.3959],[8.4442,40.3957],[8.4536,40.4001],[8.458,40.4066],[8.4628,40.4079],[8.4815,40.3893],[8.4814,40.3797],[8.4804,40.3761],[8.4823,40.3652],[8.4879,40.3584],[8.491,40.348],[8.4931,40.3449],[8.495,40.344],[8.5024,40.3427],[8.5171,40.3482],[8.5162,40.3586],[8.5135,40.3664],[8.5068,40.3775],[8.522,40.3826],[8.53,40.3841],[8.5366,40.3841],[8.5487,40.3868]]]]}},{"type":"Feature","properties":{"i":"095017","n":"Busachi"},"geometry":{"type":"Polygon","coordinates":[[[8.9456,40.0132],[8.952,40.0034],[8.9533,39.9992],[8.9533,39.9964],[8.9383,39.9926],[8.9255,39.9864],[8.9184,39.9805],[8.9098,39.9774],[8.8965,39.9746],[8.8953,39.9735],[8.8946,39.9707],[8.8947,39.9666],[8.8914,39.9645],[8.8855,39.9708],[8.8807,39.9738],[8.862,39.9786],[8.8519,39.9794],[8.8477,39.9785],[8.8453,39.9792],[8.8431,39.9822],[8.841,39.992],[8.8415,39.9953],[8.8466,39.9994],[8.8423,40.003],[8.8388,40.0048],[8.8378,40.0105],[8.84,40.0186],[8.8385,40.0244],[8.8206,40.0326],[8.8213,40.0353],[8.8235,40.0385],[8.8503,40.0405],[8.8511,40.0393],[8.8571,40.0367],[8.86,40.0363],[8.8637,40.0402],[8.8655,40.0456],[8.8741,40.0479],[8.8777,40.0481],[8.8833,40.0472],[8.8942,40.0427],[8.9084,40.041],[8.9254,40.031],[8.9293,40.0121],[8.9339,40.0093],[8.9365,40.0081],[8.9399,40.0079],[8.9431,40.0123],[8.9456,40.0132]]]}},{"type":"Feature","properties":{"i":"095018","n":"Cabras"},"geometry":{"type":"MultiPolygon","coordinates":[[[[8.2759,39.8823],[8.2762,39.8813],[8.2751,39.8815],[8.2759,39.8823]]],[[[8.54,39.8845],[8.5395,39.8884],[8.5377,39.8914],[8.5408,39.8921],[8.5433,39.8918],[8.5509,39.8854],[8.54,39.8845]]],[[[8.3118,39.9967],[8.3135,39.9964],[8.3121,39.9902],[8.3024,39.9841],[8.2998,39.985],[8.3003,39.9921],[8.3057,39.9941],[8.3106,39.9949],[8.3118,39.9967]]],[[[8.5061,39.9662],[8.5146,39.9648],[8.5214,39.9585],[8.5315,39.9537],[8.5418,39.9524],[8.5468,39.9503],[8.5488,39.9481],[8.5578,39.9495],[8.5663,39.9558],[8.5723,39.951],[8.5636,39.948],[8.5561,39.9433],[8.5574,39.9414],[8.5593,39.9405],[8.5669,39.9303],[8.5629,39.9275],[8.5652,39.9191],[8.5586,39.9152],[8.5507,39.9152],[8.5485,39.9124],[8.5502,39.9093],[8.5406,39.9049],[8.5319,39.908],[8.5259,39.9121],[8.499,39.9116],[8.4939,39.9109],[8.4941,39.9086],[8.4919,39.9096],[8.4886,39.9066],[8.4823,39.9042],[8.4667,39.9038],[8.4663,39.9019],[8.4676,39.9011],[8.4691,39.9015],[8.4442,39.8825],[8.4419,39.88],[8.4414,39.8729],[8.4393,39.864],[8.4368,39.8584],[8.4348,39.8584],[8.4321,39.8609],[8.4323,39.8652],[8.4383,39.8676],[8.4386,39.8753],[8.4361,39.8816],[8.4321,39.887],[8.4232,39.8943],[8.4118,39.9],[8.402,39.8986],[8.3988,39.9037],[8.3979,39.9082],[8.3993,39.917],[8.4013,39.9411],[8.4014,39.957],[8.3995,39.9656],[8.3976,39.9703],[8.3957,39.9722],[8.3934,39.9729],[8.3939,39.9799],[8.4096,39.9978],[8.4399,39.9733],[8.4701,39.9563],[8.5061,39.9662]]]]}},{"type":"Feature","properties":{"i":"095019","n":"Cuglieri"},"geometry":{"type":"MultiPolygon","coordinates":[[[[8.4555,40.2103],[8.4565,40.2093],[8.4545,40.21],[8.4555,40.2103]]],[[[8.6152,40.1748],[8.6153,40.1674],[8.6167,40.1605],[8.6151,40.1553],[8.5999,40.1433],[8.5922,40.1406],[8.5842,40.14],[8.5818,40.141],[8.575,40.1415],[8.564,40.141],[8.5572,40.1389],[8.5511,40.1329],[8.5499,40.1271],[8.5621,40.1252],[8.5453,40.1201],[8.5424,40.1182],[8.549,40.1096],[8.5548,40.1045],[8.5558,40.1025],[8.5542,40.1004],[8.5489,40.0974],[8.5452,40.0965],[8.5373,40.0968],[8.5348,40.0958],[8.5319,40.0868],[8.5225,40.0775],[8.521,40.0741],[8.52,40.0669],[8.5185,40.0636],[8.5156,40.0629],[8.5061,40.0642],[8.4989,40.0667],[8.4833,40.0744],[8.4893,40.0802],[8.4928,40.0866],[8.4878,40.094],[8.4891,40.1007],[8.4883,40.1055],[8.4849,40.1178],[8.4715,40.131],[8.4583,40.1541],[8.4614,40.1723],[8.4601,40.1747],[8.457,40.1759],[8.4707,40.1794],[8.474,40.1791],[8.478,40.1834],[8.4779,40.1861],[8.4839,40.1926],[8.4921,40.1982],[8.4941,40.1951],[8.5195,40.2036],[8.525,40.2018],[8.5349,40.2039],[8.5589,40.2067],[8.5632,40.2082],[8.5631,40.2095],[8.5654,40.2137],[8.5732,40.2106],[8.5776,40.2059],[8.5905,40.1952],[8.5962,40.1878],[8.5965,40.1824],[8.6152,40.1748]]]]}},{"type":"Feature","properties":{"i":"095077","n":"Curcuris"},"geometry":{"type":"Polygon","coordinates":[[[8.8517,39.7441],[8.8403,39.7393],[8.8333,39.7387],[8.8221,39.7396],[8.8116,39.737],[8.804,39.7446],[8.8034,39.748],[8.809,39.7497],[8.8244,39.7583],[8.84,39.7592],[8.845,39.7617],[8.8479,39.7562],[8.8517,39.7441]]]}},{"type":"Feature","properties":{"i":"095080","n":"Flussio"},"geometry":{"type":"Polygon","coordinates":[[[8.5654,40.2588],[8.5652,40.2564],[8.567,40.2501],[8.5725,40.2467],[8.5645,40.2428],[8.5582,40.2331],[8.5509,40.235],[8.5466,40.2351],[8.538,40.233],[8.5435,40.2428],[8.5462,40.2413],[8.5522,40.2434],[8.5524,40.2475],[8.5453,40.255],[8.5324,40.2611],[8.5308,40.2662],[8.5271,40.2699],[8.5386,40.273],[8.5438,40.268],[8.5485,40.2648],[8.559,40.2599],[8.5654,40.2588]]]}},{"type":"Feature","properties":{"i":"095020","n":"Fordongianus"},"geometry":{"type":"Polygon","coordinates":[[[8.8235,40.0385],[8.8213,40.0353],[8.8206,40.0326],[8.8211,40.0319],[8.8385,40.0244],[8.84,40.0186],[8.8378,40.0105],[8.8388,40.0048],[8.8423,40.003],[8.8466,39.9994],[8.8415,39.9953],[8.841,39.992],[8.8431,39.9822],[8.8453,39.9792],[8.8477,39.9785],[8.8449,39.9779],[8.8426,39.9719],[8.8291,39.9597],[8.8274,39.9568],[8.8271,39.9528],[8.8283,39.9469],[8.82,39.9392],[8.8137,39.9418],[8.7953,39.9616],[8.7908,39.9636],[8.7901,39.9654],[8.7911,39.9669],[8.7918,39.9712],[8.7914,39.9768],[8.7885,39.985],[8.7828,39.9957],[8.7792,39.9988],[8.7816,40.0065],[8.7862,40.0107],[8.7872,40.0198],[8.793,40.0209],[8.8127,40.0396],[8.8235,40.0385]]]}},{"type":"Feature","properties":{"i":"095021","n":"Ghilarza"},"geometry":{"type":"MultiPolygon","coordinates":[[[[8.8574,40.1439],[8.8642,40.1445],[8.8664,40.1434],[8.8674,40.1413],[8.8653,40.1388],[8.8624,40.1322],[8.8618,40.1292],[8.8632,40.1223],[8.8598,40.1192],[8.8571,40.1147],[8.8572,40.1106],[8.859,40.1096],[8.8589,40.0983],[8.8628,40.0941],[8.8732,40.0905],[8.879,40.0899],[8.88,40.078],[8.871,40.072],[8.8613,40.0613],[8.8567,40.0545],[8.8502,40.047],[8.8491,40.0442],[8.8503,40.0405],[8.8235,40.0385],[8.8127,40.0396],[8.8141,40.0493],[8.8124,40.0573],[8.8064,40.0682],[8.8006,40.0746],[8.8,40.0871],[8.7947,40.0962],[8.7913,40.0983],[8.7882,40.1017],[8.7888,40.1039],[8.7925,40.1063],[8.802,40.1089],[8.8145,40.1144],[8.8263,40.1234],[8.8286,40.1274],[8.8314,40.1285],[8.834,40.1315],[8.8374,40.1325],[8.841,40.1313],[8.8484,40.1351],[8.8491,40.1379],[8.8485,40.1395],[8.8469,40.1406],[8.8469,40.1447],[8.8487,40.1455],[8.8574,40.1439]]],[[[8.8965,40.1428],[8.9109,40.1343],[8.9052,40.1282],[8.904,40.1256],[8.9031,40.1184],[8.8818,40.1201],[8.8805,40.1211],[8.8754,40.1204],[8.8759,40.1226],[8.8772,40.1221],[8.8888,40.1296],[8.8902,40.1341],[8.8898,40.1419],[8.8883,40.1449],[8.8859,40.1461],[8.8965,40.1428]]]]}},{"type":"Feature","properties":{"i":"095022","n":"Gonnoscodina"},"geometry":{"type":"Polygon","coordinates":[[[8.8687,39.6874],[8.865,39.6826],[8.8603,39.6839],[8.8529,39.6874],[8.8124,39.6977],[8.8127,39.7089],[8.8273,39.7105],[8.8372,39.713],[8.8489,39.7141],[8.8518,39.7102],[8.8551,39.7015],[8.8598,39.6947],[8.8687,39.6874]]]}},{"type":"Feature","properties":{"i":"095023","n":"Gonnosnò"},"geometry":{"type":"Polygon","coordinates":[[[8.893,39.773],[8.8852,39.7473],[8.8848,39.7447],[8.8856,39.7415],[8.8748,39.7346],[8.8654,39.736],[8.8629,39.7403],[8.8555,39.7433],[8.8517,39.7441],[8.8479,39.7562],[8.845,39.7617],[8.8482,39.7742],[8.8508,39.7774],[8.8533,39.779],[8.8611,39.7755],[8.8676,39.7753],[8.8711,39.776],[8.8866,39.7875],[8.893,39.773]]]}},{"type":"Feature","properties":{"i":"095024","n":"Gonnostramatza"},"geometry":{"type":"Polygon","coordinates":[[[8.865,39.6826],[8.8641,39.6738],[8.8615,39.668],[8.8584,39.6679],[8.8572,39.6687],[8.8506,39.6659],[8.8497,39.6649],[8.8429,39.6641],[8.8355,39.6659],[8.8022,39.6566],[8.7841,39.6539],[8.7897,39.6673],[8.7956,39.6669],[8.8004,39.6735],[8.8049,39.6825],[8.8055,39.6878],[8.8124,39.6977],[8.8529,39.6874],[8.8603,39.6839],[8.865,39.6826]]]}},{"type":"Feature","properties":{"i":"095082","n":"Laconi"},"geometry":{"type":"Polygon","coordinates":[[[9.1216,39.8886],[9.1288,39.8885],[9.1423,39.8735],[9.1518,39.8651],[9.1541,39.8615],[9.1598,39.8562],[9.1651,39.8544],[9.1722,39.8504],[9.1697,39.8403],[9.1656,39.8326],[9.1638,39.8326],[9.1616,39.8341],[9.1478,39.8446],[9.1451,39.8451],[9.1382,39.844],[9.1275,39.8395],[9.1167,39.8481],[9.1135,39.8497],[9.1117,39.8492],[9.1063,39.847],[9.1058,39.8448],[9.1065,39.8416],[9.1004,39.8311],[9.0956,39.8287],[9.0832,39.8262],[9.0759,39.8169],[9.0616,39.8105],[9.0553,39.8039],[9.0543,39.801],[9.0418,39.803],[9.0394,39.8058],[9.031,39.8096],[9.0293,39.8112],[9.0313,39.8153],[9.0136,39.8262],[9.0097,39.8278],[9.0077,39.8277],[8.9866,39.8257],[8.9876,39.829],[8.9869,39.8311],[8.9702,39.8373],[8.9655,39.8392],[8.964,39.8407],[8.9538,39.8438],[8.9585,39.8477],[8.9588,39.8516],[8.9628,39.8574],[8.9648,39.8569],[8.9736,39.8592],[8.9803,39.8738],[8.9746,39.8871],[8.9668,39.892],[8.9652,39.8957],[8.9679,39.8961],[8.9736,39.9002],[8.9738,39.9022],[8.9756,39.9054],[8.9881,39.9148],[8.9922,39.9164],[8.997,39.9177],[9.0093,39.9166],[9.0191,39.9148],[9.0287,39.9146],[9.0377,39.9124],[9.0395,39.9116],[9.0462,39.9044],[9.0791,39.8897],[9.0882,39.8846],[9.0946,39.8797],[9.1005,39.872],[9.1054,39.8687],[9.1096,39.8713],[9.1073,39.8759],[9.1072,39.8786],[9.1092,39.8821],[9.1216,39.8886]]]}},{"type":"Feature","properties":{"i":"095083","n":"Magomadas"},"geometry":{"type":"Polygon","coordinates":[[[8.5241,40.2716],[8.5271,40.2699],[8.5308,40.2662],[8.5324,40.2611],[8.5453,40.255],[8.5524,40.2475],[8.5522,40.2434],[8.5462,40.2413],[8.5323,40.2466],[8.5286,40.2502],[8.5257,40.2566],[8.5214,40.2578],[8.51,40.257],[8.4932,40.2531],[8.4786,40.2539],[8.4768,40.2548],[8.4791,40.2679],[8.4805,40.2701],[8.4832,40.2717],[8.4924,40.2717],[8.5048,40.2627],[8.5104,40.2619],[8.5141,40.2652],[8.5241,40.2716]]]}},{"type":"Feature","properties":{"i":"095025","n":"Marrubiu"},"geometry":{"type":"Polygon","coordinates":[[[8.7417,39.7982],[8.7412,39.7954],[8.7423,39.7905],[8.7395,39.7817],[8.7345,39.7792],[8.72,39.7759],[8.713,39.7744],[8.7045,39.7741],[8.6981,39.7721],[8.6939,39.768],[8.6902,39.7608],[8.6909,39.7507],[8.689,39.7453],[8.6863,39.7427],[8.6809,39.7413],[8.6709,39.7366],[8.667,39.7369],[8.6636,39.7337],[8.6598,39.7323],[8.6434,39.731],[8.6353,39.7351],[8.6194,39.7458],[8.6106,39.7478],[8.6076,39.7498],[8.6023,39.7563],[8.6026,39.757],[8.6107,39.7572],[8.6192,39.7613],[8.6217,39.7659],[8.6203,39.7686],[8.62,39.7711],[8.623,39.7778],[8.6413,39.7788],[8.6456,39.8],[8.6355,39.82],[8.646,39.8209],[8.6734,39.8187],[8.6862,39.8151],[8.7053,39.8046],[8.7205,39.801],[8.7417,39.7982]]]}},{"type":"Feature","properties":{"i":"095026","n":"Masullas"},"geometry":{"type":"Polygon","coordinates":[[[8.7465,39.7293],[8.7454,39.7248],[8.754,39.7169],[8.7637,39.7115],[8.7693,39.71],[8.7745,39.7095],[8.7812,39.7104],[8.7848,39.7114],[8.787,39.7143],[8.8056,39.7148],[8.8127,39.7089],[8.8124,39.6977],[8.8055,39.6878],[8.7733,39.6938],[8.7439,39.6962],[8.7393,39.6959],[8.7263,39.6927],[8.7344,39.7025],[8.7316,39.7105],[8.7264,39.7152],[8.7261,39.7282],[8.7319,39.7302],[8.742,39.7314],[8.7439,39.7314],[8.7465,39.7293]]]}},{"type":"Feature","properties":{"i":"095027","n":"Milis"},"geometry":{"type":"Polygon","coordinates":[[[8.6539,40.0712],[8.6555,40.068],[8.6661,40.0634],[8.6715,40.0634],[8.6751,40.0653],[8.6777,40.0616],[8.6732,40.0541],[8.6509,40.0319],[8.6478,40.0268],[8.6433,40.0246],[8.6317,40.0212],[8.6324,40.0271],[8.6312,40.0304],[8.6289,40.0316],[8.6174,40.0307],[8.6149,40.033],[8.6131,40.0363],[8.606,40.0409],[8.6093,40.0487],[8.6143,40.056],[8.6338,40.0663],[8.651,40.0715],[8.6539,40.0712]]]}},{"type":"Feature","properties":{"i":"095084","n":"Modolo"},"geometry":{"type":"Polygon","coordinates":[[[8.5386,40.273],[8.5271,40.2699],[8.5235,40.2724],[8.5239,40.2798],[8.5182,40.281],[8.536,40.2928],[8.5375,40.2891],[8.5388,40.2805],[8.5386,40.273]]]}},{"type":"Feature","properties":{"i":"095028","n":"Mogorella"},"geometry":{"type":"Polygon","coordinates":[[[8.8797,39.8796],[8.8781,39.8769],[8.8787,39.8704],[8.8823,39.8636],[8.8816,39.8596],[8.8796,39.8564],[8.8759,39.8451],[8.8748,39.8423],[8.8731,39.8415],[8.8551,39.8461],[8.8518,39.8482],[8.848,39.8543],[8.8345,39.8587],[8.8398,39.8764],[8.8388,39.8808],[8.8392,39.884],[8.843,39.8995],[8.8462,39.8994],[8.849,39.9008],[8.8518,39.9001],[8.8711,39.8844],[8.8755,39.8833],[8.8797,39.8796]]]}},{"type":"Feature","properties":{"i":"095029","n":"Mogoro"},"geometry":{"type":"Polygon","coordinates":[[[8.8055,39.6878],[8.8049,39.6825],[8.8004,39.6735],[8.7956,39.6669],[8.7897,39.6673],[8.782,39.6493],[8.776,39.6427],[8.7709,39.6392],[8.7641,39.6358],[8.7499,39.6329],[8.7431,39.6271],[8.7298,39.6389],[8.7273,39.6394],[8.7171,39.6376],[8.7046,39.6387],[8.6965,39.6454],[8.6854,39.652],[8.6904,39.6626],[8.6932,39.6645],[8.6941,39.6681],[8.7026,39.6739],[8.7072,39.6749],[8.715,39.6799],[8.7263,39.6927],[8.7393,39.6959],[8.7439,39.6962],[8.7733,39.6938],[8.8055,39.6878]]]}},{"type":"Feature","properties":{"i":"095085","n":"Montresta"},"geometry":{"type":"Polygon","coordinates":[[[8.525,40.4068],[8.5256,40.4018],[8.5286,40.4008],[8.5381,40.4024],[8.5505,40.3962],[8.554,40.3904],[8.5524,40.3884],[8.5444,40.3853],[8.5366,40.3841],[8.53,40.3841],[8.522,40.3826],[8.5071,40.3777],[8.5135,40.3664],[8.5162,40.3586],[8.5171,40.3482],[8.5024,40.3427],[8.4955,40.3437],[8.4931,40.3449],[8.491,40.348],[8.4879,40.3584],[8.4823,40.3652],[8.4804,40.3761],[8.4814,40.3797],[8.4815,40.3893],[8.4628,40.4079],[8.4731,40.4086],[8.4746,40.4079],[8.4791,40.4087],[8.4858,40.4129],[8.4876,40.4159],[8.4876,40.4195],[8.4887,40.4214],[8.4944,40.4256],[8.5002,40.4262],[8.5144,40.4215],[8.5192,40.4164],[8.525,40.4068]]]}},{"type":"Feature","properties":{"i":"095030","n":"Morgongiori"},"geometry":{"type":"Polygon","coordinates":[[[8.8034,39.748],[8.804,39.7446],[8.7973,39.7415],[8.7869,39.7326],[8.7795,39.7292],[8.7711,39.7304],[8.7465,39.7293],[8.7439,39.7314],[8.7319,39.7302],[8.7261,39.7282],[8.7169,39.7283],[8.7002,39.7378],[8.6895,39.746],[8.6909,39.7507],[8.6902,39.7608],[8.6939,39.768],[8.6981,39.7721],[8.702,39.7734],[8.713,39.7744],[8.72,39.7759],[8.7345,39.7792],[8.7395,39.7817],[8.7423,39.7905],[8.7412,39.7954],[8.7417,39.7982],[8.7726,39.7758],[8.7779,39.7699],[8.8034,39.748]]]}},{"type":"Feature","properties":{"i":"095031","n":"Narbolia"},"geometry":{"type":"Polygon","coordinates":[[[8.4833,40.0744],[8.4989,40.0667],[8.5061,40.0642],[8.5156,40.0629],[8.5185,40.0636],[8.5198,40.061],[8.5193,40.059],[8.5219,40.0543],[8.5271,40.0578],[8.5408,40.0635],[8.5676,40.0728],[8.5753,40.073],[8.5906,40.0613],[8.597,40.0472],[8.6028,40.0383],[8.603,40.037],[8.5979,40.037],[8.5937,40.0355],[8.59,40.0331],[8.5884,40.0297],[8.5859,40.0278],[8.5722,40.027],[8.5604,40.0238],[8.554,40.0246],[8.5488,40.0274],[8.542,40.0272],[8.5367,40.0252],[8.5293,40.0251],[8.513,40.0267],[8.506,40.0334],[8.4957,40.0396],[8.4754,40.0538],[8.4695,40.0618],[8.4833,40.0744]]]}},{"type":"Feature","properties":{"i":"095032","n":"Neoneli"},"geometry":{"type":"Polygon","coordinates":[[[9.0266,40.0377],[9.0135,40.0457],[9.0053,40.055],[9.0003,40.0567],[8.9899,40.0577],[8.972,40.0474],[8.9656,40.0418],[8.962,40.0361],[8.9476,40.0239],[8.9437,40.0262],[8.9369,40.0319],[8.9347,40.0364],[8.9327,40.0445],[8.9281,40.0501],[8.9239,40.0506],[8.9121,40.0566],[8.9092,40.0598],[8.9064,40.0611],[8.9104,40.0649],[8.9585,40.0826],[8.9654,40.0881],[8.9791,40.0872],[9.0012,40.0905],[9.028,40.1027],[9.0354,40.0955],[9.0365,40.0637],[9.044,40.0584],[9.0378,40.0528],[9.028,40.041],[9.0266,40.0377]]]}},{"type":"Feature","properties":{"i":"095033","n":"Norbello"},"geometry":{"type":"Polygon","coordinates":[[[8.782,40.1898],[8.7824,40.1867],[8.7876,40.1828],[8.7934,40.1811],[8.7994,40.1773],[8.8121,40.1624],[8.8221,40.1557],[8.8317,40.1592],[8.841,40.1593],[8.8496,40.1573],[8.8557,40.1529],[8.8575,40.1503],[8.8581,40.148],[8.8574,40.1439],[8.8487,40.1455],[8.8469,40.1447],[8.8469,40.1406],[8.8485,40.1395],[8.8491,40.1379],[8.8484,40.1351],[8.841,40.1313],[8.8374,40.1325],[8.8348,40.1319],[8.8314,40.1285],[8.8065,40.143],[8.7896,40.1494],[8.7852,40.1561],[8.7758,40.1618],[8.7624,40.1675],[8.7567,40.1722],[8.7385,40.1794],[8.7458,40.1827],[8.7585,40.1906],[8.7653,40.1967],[8.7764,40.1936],[8.782,40.1898]]]}},{"type":"Feature","properties":{"i":"095034","n":"Nughedu Santa Vittoria"},"geometry":{"type":"Polygon","coordinates":[[[9.0024,40.1344],[9.0168,40.1263],[9.0154,40.1256],[9.0171,40.1199],[9.0244,40.1094],[9.028,40.1027],[9.0017,40.0906],[8.9791,40.0872],[8.9654,40.0881],[8.9616,40.0935],[8.9583,40.0963],[8.9545,40.0976],[8.9512,40.0976],[8.9477,40.0957],[8.9436,40.0948],[8.9356,40.0946],[8.9327,40.0954],[8.9366,40.0967],[8.9462,40.1107],[8.9474,40.1163],[8.9576,40.1238],[8.9785,40.1364],[8.9867,40.1391],[8.9916,40.1399],[9.0017,40.1362],[9.0024,40.1344]]]}},{"type":"Feature","properties":{"i":"095035","n":"Nurachi"},"geometry":{"type":"Polygon","coordinates":[[[8.568,39.9739],[8.5765,39.9653],[8.579,39.961],[8.5723,39.951],[8.5663,39.9558],[8.5578,39.9495],[8.5488,39.9481],[8.5468,39.9503],[8.5418,39.9524],[8.5315,39.9537],[8.5214,39.9585],[8.5146,39.9648],[8.5061,39.9662],[8.5071,39.9698],[8.5068,39.974],[8.5093,39.979],[8.511,39.9804],[8.523,39.9842],[8.5356,39.984],[8.5511,39.9794],[8.5629,39.9743],[8.568,39.9739]]]}},{"type":"Feature","properties":{"i":"095036","n":"Nureci"},"geometry":{"type":"Polygon","coordinates":[[[8.9866,39.8257],[8.9854,39.8207],[8.9746,39.8026],[8.9682,39.7971],[8.9549,39.7834],[8.9531,39.7786],[8.9508,39.7791],[8.9402,39.7853],[8.9383,39.7898],[8.9389,39.7926],[8.9457,39.8009],[8.9495,39.8034],[8.955,39.8164],[8.9623,39.8378],[8.964,39.8407],[8.9655,39.8392],[8.9702,39.8373],[8.9869,39.8311],[8.9876,39.829],[8.9866,39.8257]]]}},{"type":"Feature","properties":{"i":"095037","n":"Ollastra"},"geometry":{"type":"Polygon","coordinates":[[[8.7901,39.9654],[8.7908,39.9636],[8.7953,39.9616],[8.7979,39.9583],[8.7929,39.9565],[8.7775,39.9452],[8.7569,39.9463],[8.7472,39.9382],[8.7454,39.9359],[8.7344,39.9368],[8.7286,39.9388],[8.7178,39.9449],[8.7143,39.9483],[8.712,39.9526],[8.7119,39.9537],[8.7145,39.9526],[8.7182,39.9534],[8.7194,39.9563],[8.7194,39.9585],[8.7258,39.964],[8.7326,39.9654],[8.7409,39.9684],[8.7436,39.9676],[8.7495,39.968],[8.7719,39.987],[8.78,39.9887],[8.783,39.9888],[8.7866,39.9798],[8.7891,39.9672],[8.7901,39.9654]]]}},{"type":"Feature","properties":{"i":"095038","n":"Oristano"},"geometry":{"type":"Polygon","coordinates":[[[8.6119,39.9663],[8.6126,39.9591],[8.619,39.9362],[8.6261,39.9294],[8.6333,39.9271],[8.6402,39.9282],[8.6534,39.9265],[8.6678,39.9113],[8.722,39.8899],[8.7158,39.8808],[8.7266,39.8781],[8.7284,39.8709],[8.7297,39.8592],[8.7191,39.8606],[8.7099,39.8657],[8.6858,39.8763],[8.6825,39.8798],[8.6756,39.8834],[8.6609,39.8867],[8.6491,39.8876],[8.6441,39.8872],[8.6389,39.8853],[8.6352,39.8888],[8.6294,39.8913],[8.622,39.8931],[8.6129,39.8929],[8.6006,39.8893],[8.5928,39.8822],[8.5745,39.8707],[8.5699,39.8693],[8.5636,39.8724],[8.5494,39.8813],[8.5475,39.882],[8.5445,39.8818],[8.5404,39.8835],[8.54,39.8845],[8.5509,39.8854],[8.5433,39.8918],[8.5377,39.8914],[8.5297,39.8989],[8.524,39.9024],[8.518,39.9049],[8.5132,39.9066],[8.5057,39.9079],[8.4911,39.9054],[8.4897,39.9021],[8.4892,39.9024],[8.491,39.9059],[8.4941,39.9086],[8.4939,39.9109],[8.499,39.9116],[8.5259,39.9121],[8.5319,39.908],[8.5406,39.9049],[8.5502,39.9093],[8.5485,39.9124],[8.5507,39.9152],[8.5586,39.9152],[8.5652,39.9191],[8.5629,39.9275],[8.5669,39.9303],[8.5593,39.9405],[8.5569,39.9419],[8.5564,39.944],[8.5636,39.948],[8.5723,39.951],[8.579,39.961],[8.5887,39.9669],[8.5955,39.9688],[8.6067,39.969],[8.6119,39.9663]]]}},{"type":"Feature","properties":{"i":"095039","n":"Palmas Arborea"},"geometry":{"type":"Polygon","coordinates":[[[8.7297,39.8592],[8.7288,39.8565],[8.729,39.854],[8.7344,39.8489],[8.7381,39.8363],[8.741,39.8341],[8.7547,39.827],[8.7553,39.8213],[8.7463,39.8068],[8.7403,39.8104],[8.736,39.8159],[8.7284,39.8193],[8.7143,39.8276],[8.6992,39.8327],[8.6645,39.8464],[8.6341,39.8644],[8.6249,39.8721],[8.6287,39.8796],[8.6303,39.8817],[8.6348,39.8847],[8.6362,39.8878],[8.6389,39.8853],[8.6458,39.8875],[8.6609,39.8867],[8.6762,39.8832],[8.6831,39.8794],[8.6858,39.8763],[8.7099,39.8657],[8.7191,39.8606],[8.7297,39.8592]]]}},{"type":"Feature","properties":{"i":"095040","n":"Pau"},"geometry":{"type":"Polygon","coordinates":[[[8.8093,39.7846],[8.8085,39.7833],[8.8038,39.7802],[8.7997,39.7841],[8.793,39.787],[8.7872,39.7881],[8.7815,39.7873],[8.7765,39.7854],[8.7669,39.7886],[8.7546,39.8006],[8.7463,39.8068],[8.7553,39.8213],[8.767,39.8158],[8.7788,39.8155],[8.7885,39.8129],[8.799,39.8075],[8.8068,39.7983],[8.812,39.7959],[8.8132,39.7935],[8.8093,39.7846]]]}},{"type":"Feature","properties":{"i":"095041","n":"Paulilatino"},"geometry":{"type":"Polygon","coordinates":[[[8.7363,40.1306],[8.7663,40.117],[8.7665,40.1152],[8.7714,40.1117],[8.7888,40.1039],[8.7882,40.1017],[8.7913,40.0983],[8.7947,40.0962],[8.8,40.0871],[8.8006,40.0746],[8.8064,40.0682],[8.8124,40.0573],[8.8141,40.0493],[8.8127,40.0396],[8.793,40.0209],[8.7872,40.0198],[8.7667,40.019],[8.7594,40.0169],[8.7523,40.0173],[8.7473,40.0162],[8.7427,40.0135],[8.7371,40.0119],[8.7326,40.0121],[8.7117,40.0212],[8.7084,40.028],[8.7076,40.0357],[8.7007,40.0418],[8.6842,40.0531],[8.6866,40.0557],[8.6895,40.0721],[8.6867,40.0804],[8.6902,40.0897],[8.6981,40.0912],[8.6998,40.098],[8.691,40.1013],[8.6898,40.1024],[8.7003,40.1159],[8.7085,40.1308],[8.7106,40.1316],[8.7208,40.132],[8.7253,40.1297],[8.7306,40.1286],[8.7348,40.1293],[8.7363,40.1306]]]}},{"type":"Feature","properties":{"i":"095042","n":"Pompu"},"geometry":{"type":"Polygon","coordinates":[[[8.8056,39.7148],[8.787,39.7143],[8.7879,39.716],[8.7871,39.7177],[8.7795,39.7292],[8.7869,39.7326],[8.7973,39.7415],[8.804,39.7446],[8.8116,39.737],[8.806,39.7264],[8.8056,39.7148]]]}},{"type":"Feature","properties":{"i":"095043","n":"Riola Sardo"},"geometry":{"type":"Polygon","coordinates":[[[8.513,40.0267],[8.5293,40.0251],[8.5356,40.0173],[8.5538,40.0019],[8.555,39.9992],[8.5491,39.9924],[8.551,39.9873],[8.5591,39.9817],[8.568,39.9739],[8.5629,39.9743],[8.5511,39.9794],[8.5356,39.984],[8.523,39.9842],[8.511,39.9804],[8.5093,39.979],[8.5068,39.974],[8.5071,39.9698],[8.5061,39.9662],[8.4701,39.9563],[8.4399,39.9733],[8.4096,39.9978],[8.4105,39.999],[8.41,40.0046],[8.4108,40.0106],[8.4198,40.0027],[8.4282,39.9969],[8.4425,39.9902],[8.453,39.9871],[8.475,40.0056],[8.4869,40.0172],[8.4883,40.0207],[8.513,40.0267]]]}},{"type":"Feature","properties":{"i":"095044","n":"Ruinas"},"geometry":{"type":"Polygon","coordinates":[[[8.9309,39.8971],[8.9309,39.896],[8.9261,39.8897],[8.924,39.8889],[8.9212,39.8827],[8.9101,39.8852],[8.9042,39.8829],[8.8874,39.8787],[8.8797,39.8796],[8.8755,39.8833],[8.8711,39.8844],[8.8518,39.9001],[8.849,39.9008],[8.8455,39.8997],[8.8432,39.9014],[8.842,39.9149],[8.8404,39.9174],[8.8783,39.9302],[8.8817,39.9342],[8.8891,39.9371],[8.8937,39.9345],[8.9146,39.9185],[8.9215,39.911],[8.9286,39.898],[8.9309,39.8971]]]}},{"type":"Feature","properties":{"i":"095086","n":"Sagama"},"geometry":{"type":"Polygon","coordinates":[[[8.6164,40.2732],[8.6243,40.2697],[8.6272,40.2672],[8.6277,40.2651],[8.6242,40.2615],[8.6044,40.2557],[8.5947,40.25],[8.5835,40.2455],[8.5785,40.2449],[8.5756,40.2455],[8.567,40.2501],[8.5652,40.2564],[8.5661,40.2613],[8.5681,40.2648],[8.5736,40.2703],[8.5788,40.2735],[8.5848,40.2751],[8.602,40.2755],[8.6139,40.2746],[8.6164,40.2732]]]}},{"type":"Feature","properties":{"i":"095045","n":"Samugheo"},"geometry":{"type":"Polygon","coordinates":[[[9.006,39.9921],[9.0085,39.9918],[9.012,39.9901],[9.0179,39.9803],[9.0105,39.9753],[8.9944,39.9566],[8.9961,39.953],[8.9966,39.9485],[8.9902,39.9454],[8.9889,39.944],[8.9902,39.9409],[8.9925,39.9389],[8.9904,39.9304],[8.9855,39.9193],[8.9863,39.9167],[8.9881,39.9148],[8.9756,39.9054],[8.9738,39.9022],[8.9736,39.9002],[8.9679,39.8961],[8.9638,39.8962],[8.9612,39.8954],[8.9587,39.8933],[8.96,39.8915],[8.9575,39.8898],[8.9514,39.8907],[8.9418,39.8951],[8.9328,39.8976],[8.9309,39.8971],[8.9286,39.898],[8.9215,39.911],[8.9146,39.9185],[8.8937,39.9345],[8.8891,39.9371],[8.8877,39.9398],[8.8866,39.9468],[8.8844,39.9523],[8.8811,39.9532],[8.8782,39.956],[8.8829,39.9606],[8.8945,39.9662],[8.8947,39.9713],[8.8953,39.9735],[8.8965,39.9746],[8.9098,39.9774],[8.9184,39.9805],[8.9255,39.9864],[8.942,39.9938],[8.9533,39.9964],[8.9562,39.9932],[8.9664,39.9898],[8.9745,39.9896],[8.9891,39.9875],[8.9957,39.9879],[9.006,39.9921]]]}},{"type":"Feature","properties":{"i":"095046","n":"San Nicolò d'Arcidano"},"geometry":{"type":"Polygon","coordinates":[[[8.6512,39.6965],[8.6571,39.6927],[8.6704,39.6781],[8.6797,39.6741],[8.6875,39.6641],[8.6904,39.6626],[8.6854,39.652],[8.6965,39.6454],[8.684,39.64],[8.6713,39.6312],[8.6603,39.642],[8.6544,39.6435],[8.644,39.6496],[8.6306,39.6533],[8.6278,39.6551],[8.6259,39.6592],[8.6259,39.6624],[8.6238,39.6667],[8.6156,39.6777],[8.608,39.6899],[8.6147,39.6903],[8.6512,39.6965]]]}},{"type":"Feature","properties":{"i":"095050","n":"San Vero Milis"},"geometry":{"type":"MultiPolygon","coordinates":[[[[8.6317,40.0212],[8.6304,40.015],[8.6229,39.9953],[8.6007,39.9933],[8.5863,39.999],[8.5795,39.999],[8.5764,39.9979],[8.5759,39.9965],[8.565,39.9954],[8.5601,39.9968],[8.555,39.9992],[8.5538,40.0019],[8.5356,40.0173],[8.5293,40.0251],[8.5367,40.0252],[8.542,40.0272],[8.5488,40.0274],[8.554,40.0246],[8.5604,40.0238],[8.5722,40.027],[8.5859,40.0278],[8.5884,40.0297],[8.59,40.0331],[8.5956,40.0365],[8.6028,40.0368],[8.6028,40.0383],[8.6014,40.0397],[8.606,40.0409],[8.6131,40.0363],[8.6149,40.033],[8.6174,40.0307],[8.6289,40.0316],[8.6312,40.0304],[8.6324,40.0271],[8.6317,40.0212]]],[[[8.4038,40.0533],[8.4029,40.0536],[8.4031,40.0544],[8.4042,40.0539],[8.4038,40.0533]]],[[[8.513,40.0267],[8.4883,40.0207],[8.4869,40.0172],[8.475,40.0056],[8.453,39.9871],[8.4425,39.9902],[8.4282,39.9969],[8.4198,40.0027],[8.4108,40.0106],[8.4133,40.0121],[8.4138,40.0179],[8.4067,40.029],[8.4046,40.031],[8.3999,40.033],[8.3972,40.0327],[8.3951,40.0316],[8.3946,40.0305],[8.3917,40.0296],[8.3809,40.0296],[8.3784,40.0301],[8.377,40.0348],[8.3799,40.0392],[8.384,40.0421],[8.3891,40.0438],[8.3924,40.0426],[8.3966,40.044],[8.3991,40.0463],[8.3983,40.0504],[8.3991,40.0513],[8.4026,40.0518],[8.4034,40.0511],[8.407,40.0435],[8.4085,40.0425],[8.4124,40.0412],[8.4147,40.0413],[8.4263,40.0446],[8.4348,40.0516],[8.4379,40.0523],[8.4402,40.0513],[8.4414,40.0485],[8.4436,40.0477],[8.4537,40.0508],[8.4604,40.055],[8.4694,40.0623],[8.4754,40.0538],[8.4957,40.0396],[8.506,40.0334],[8.513,40.0267]]]]}},{"type":"Feature","properties":{"i":"095047","n":"Santa Giusta"},"geometry":{"type":"Polygon","coordinates":[[[8.6362,39.8878],[8.6348,39.8847],[8.6303,39.8817],[8.6287,39.8796],[8.6249,39.8721],[8.6287,39.8685],[8.6341,39.8644],[8.6645,39.8464],[8.6992,39.8327],[8.7143,39.8276],[8.7284,39.8193],[8.736,39.8159],[8.7403,39.8104],[8.7463,39.8068],[8.7417,39.7982],[8.7205,39.801],[8.7053,39.8046],[8.6862,39.8151],[8.6734,39.8187],[8.646,39.8209],[8.6355,39.82],[8.6151,39.829],[8.5992,39.8292],[8.5877,39.8262],[8.5713,39.8272],[8.5611,39.8307],[8.5547,39.8302],[8.5529,39.8294],[8.5548,39.8388],[8.5555,39.8486],[8.5551,39.8528],[8.5527,39.8609],[8.5458,39.8603],[8.5561,39.8623],[8.5655,39.8601],[8.5695,39.8637],[8.564,39.8649],[8.552,39.864],[8.5442,39.866],[8.5401,39.8688],[8.5398,39.8698],[8.5445,39.8749],[8.5404,39.8835],[8.5445,39.8818],[8.5475,39.882],[8.5494,39.8813],[8.5636,39.8724],[8.5699,39.8693],[8.5745,39.8707],[8.5928,39.8822],[8.6006,39.8893],[8.6105,39.8924],[8.6159,39.8934],[8.6229,39.8929],[8.6294,39.8913],[8.6362,39.8878]]]}},{"type":"Feature","properties":{"i":"095049","n":"Santu Lussurgiu"},"geometry":{"type":"Polygon","coordinates":[[[8.7412,40.1806],[8.7326,40.1754],[8.7183,40.1641],[8.7176,40.159],[8.7229,40.1505],[8.73,40.1427],[8.7329,40.1414],[8.7357,40.1379],[8.7366,40.1356],[8.7363,40.1306],[8.7348,40.1293],[8.7306,40.1286],[8.7253,40.1297],[8.7208,40.132],[8.7106,40.1316],[8.7085,40.1308],[8.7003,40.1159],[8.6914,40.1043],[8.6816,40.1069],[8.6671,40.1198],[8.657,40.1243],[8.6467,40.1306],[8.6354,40.1348],[8.632,40.1349],[8.6262,40.1256],[8.6194,40.1181],[8.6174,40.1206],[8.6143,40.1205],[8.6115,40.1197],[8.6092,40.1162],[8.6076,40.1159],[8.5875,40.1175],[8.5683,40.1217],[8.5621,40.1252],[8.5498,40.1273],[8.5511,40.1329],[8.5572,40.1389],[8.564,40.141],[8.575,40.1415],[8.5818,40.141],[8.5842,40.14],[8.5922,40.1406],[8.5999,40.1433],[8.6149,40.1551],[8.6167,40.1605],[8.6153,40.1674],[8.6152,40.1748],[8.6185,40.1777],[8.622,40.1874],[8.6353,40.1898],[8.6554,40.1959],[8.6698,40.2042],[8.6721,40.2045],[8.682,40.2031],[8.6853,40.2077],[8.6899,40.2104],[8.6969,40.2128],[8.7096,40.2142],[8.7136,40.2092],[8.7181,40.2054],[8.722,40.2046],[8.7304,40.2048],[8.7431,40.2008],[8.7453,40.1934],[8.7412,40.1806]]]}},{"type":"Feature","properties":{"i":"095051","n":"Scano di Montiferro"},"geometry":{"type":"Polygon","coordinates":[[[8.6677,40.2497],[8.6684,40.2376],[8.6676,40.2287],[8.6692,40.2206],[8.6731,40.2098],[8.6727,40.2044],[8.6691,40.204],[8.6554,40.1959],[8.6353,40.1898],[8.622,40.1874],[8.6185,40.1777],[8.6152,40.1748],[8.5965,40.1824],[8.5962,40.1878],[8.5905,40.1952],[8.5776,40.2059],[8.5732,40.2106],[8.5631,40.2151],[8.5684,40.2192],[8.5691,40.2264],[8.5582,40.2331],[8.5604,40.2357],[8.5615,40.239],[8.5659,40.2437],[8.5725,40.2467],[8.5785,40.2449],[8.5856,40.2459],[8.5947,40.25],[8.6044,40.2557],[8.6239,40.2614],[8.6266,40.2642],[8.6414,40.2597],[8.6587,40.2524],[8.6677,40.2497]]]}},{"type":"Feature","properties":{"i":"095052","n":"Sedilo"},"geometry":{"type":"Polygon","coordinates":[[[8.9916,40.2143],[8.9905,40.2091],[8.997,40.2053],[9.0045,40.2033],[9.0106,40.2],[9.0173,40.1938],[9.014,40.1909],[8.9995,40.1834],[8.9981,40.1798],[8.9991,40.1768],[8.9955,40.1765],[8.977,40.1579],[8.9677,40.1542],[8.9689,40.1481],[8.9638,40.1442],[8.9593,40.1459],[8.9564,40.1448],[8.9527,40.1481],[8.9512,40.1485],[8.9432,40.1492],[8.9334,40.1487],[8.9109,40.1343],[8.8965,40.1428],[8.8995,40.1475],[8.899,40.1506],[8.8956,40.1554],[8.8879,40.1631],[8.878,40.1754],[8.8726,40.1854],[8.8726,40.188],[8.8792,40.1943],[8.8861,40.199],[8.8924,40.2058],[8.8934,40.2082],[8.9102,40.2081],[8.929,40.211],[8.9444,40.2125],[8.9572,40.2121],[8.9821,40.2183],[8.9916,40.2143]]]}},{"type":"Feature","properties":{"i":"095053","n":"Seneghe"},"geometry":{"type":"Polygon","coordinates":[[[8.6194,40.1181],[8.6343,40.1113],[8.6385,40.0991],[8.644,40.0925],[8.6474,40.0848],[8.6443,40.0803],[8.6506,40.0733],[8.6539,40.0712],[8.651,40.0715],[8.6338,40.0663],[8.6143,40.056],[8.6093,40.0487],[8.606,40.0409],[8.6014,40.0397],[8.597,40.0472],[8.5906,40.0613],[8.5753,40.073],[8.5676,40.0728],[8.5408,40.0635],[8.5271,40.0578],[8.5217,40.0546],[8.5193,40.059],[8.5198,40.061],[8.5185,40.0636],[8.52,40.0669],[8.521,40.0741],[8.5225,40.0775],[8.5319,40.0868],[8.5346,40.0955],[8.5373,40.0968],[8.5452,40.0965],[8.5489,40.0974],[8.5542,40.1004],[8.5558,40.1025],[8.5548,40.1045],[8.549,40.1096],[8.5424,40.1178],[8.5426,40.1186],[8.5453,40.1201],[8.5621,40.1252],[8.5683,40.1217],[8.5941,40.1167],[8.6088,40.1161],[8.6115,40.1197],[8.6153,40.1206],[8.6174,40.1206],[8.6194,40.1181]]]}},{"type":"Feature","properties":{"i":"095054","n":"Senis"},"geometry":{"type":"Polygon","coordinates":[[[8.9538,39.8438],[8.964,39.8407],[8.9623,39.8378],[8.9509,39.8062],[8.9495,39.8034],[8.9457,39.8009],[8.9408,39.8013],[8.934,39.8049],[8.9292,39.8144],[8.9263,39.8183],[8.92,39.8222],[8.9154,39.8239],[8.9086,39.8288],[8.9082,39.8301],[8.9091,39.8319],[8.9174,39.8358],[8.921,39.8398],[8.9187,39.8436],[8.9148,39.8532],[8.9174,39.8586],[8.9244,39.856],[8.9313,39.8504],[8.9435,39.8475],[8.9482,39.8471],[8.9538,39.8438]]]}},{"type":"Feature","properties":{"i":"095055","n":"Sennariolo"},"geometry":{"type":"Polygon","coordinates":[[[8.5582,40.2331],[8.5691,40.2264],[8.5684,40.2192],[8.5631,40.2151],[8.5654,40.2137],[8.5631,40.2095],[8.5632,40.2082],[8.5589,40.2067],[8.5349,40.2039],[8.525,40.2018],[8.5195,40.2036],[8.4945,40.1952],[8.4923,40.1972],[8.4921,40.1982],[8.495,40.2005],[8.4955,40.2033],[8.4999,40.2096],[8.5017,40.2106],[8.5027,40.2103],[8.5086,40.214],[8.5197,40.2277],[8.5227,40.2298],[8.5328,40.2334],[8.538,40.233],[8.5466,40.2351],[8.5509,40.235],[8.5582,40.2331]]]}},{"type":"Feature","properties":{"i":"095056","n":"Siamaggiore"},"geometry":{"type":"Polygon","coordinates":[[[8.654,39.9784],[8.6509,39.9717],[8.6477,39.9682],[8.6443,39.959],[8.6468,39.9577],[8.6505,39.9526],[8.651,39.9467],[8.6502,39.9431],[8.6467,39.9401],[8.6402,39.9282],[8.6333,39.9271],[8.6261,39.9294],[8.619,39.9362],[8.6126,39.9591],[8.6119,39.9663],[8.6144,39.9672],[8.6225,39.9679],[8.6254,39.971],[8.6278,39.9758],[8.6333,39.9735],[8.6374,39.9727],[8.6439,39.9751],[8.6492,39.9783],[8.654,39.9784]]]}},{"type":"Feature","properties":{"i":"095057","n":"Siamanna"},"geometry":{"type":"Polygon","coordinates":[[[8.8404,39.9174],[8.8366,39.9127],[8.814,39.8973],[8.8104,39.8958],[8.8025,39.8958],[8.7742,39.8988],[8.7575,39.8963],[8.7462,39.8928],[8.7222,39.8897],[8.7154,39.8988],[8.716,39.9024],[8.7173,39.9043],[8.7311,39.9138],[8.7373,39.9172],[8.7391,39.9175],[8.7421,39.9198],[8.7426,39.9204],[8.7415,39.9243],[8.7456,39.9248],[8.7524,39.9235],[8.763,39.9249],[8.7714,39.9181],[8.775,39.9164],[8.7773,39.9171],[8.7862,39.9242],[8.7928,39.9237],[8.7967,39.9215],[8.8019,39.921],[8.8235,39.9338],[8.8256,39.9313],[8.8356,39.9243],[8.8404,39.9174]]]}},{"type":"Feature","properties":{"i":"095076","n":"Siapiccia"},"geometry":{"type":"Polygon","coordinates":[[[8.82,39.9392],[8.8235,39.9338],[8.8022,39.9212],[8.7967,39.9215],[8.7928,39.9237],[8.7862,39.9242],[8.7773,39.9171],[8.775,39.9164],[8.7714,39.9181],[8.763,39.9249],[8.7524,39.9235],[8.7456,39.9248],[8.7415,39.9243],[8.7376,39.9267],[8.7365,39.9291],[8.7569,39.9463],[8.7775,39.9452],[8.7929,39.9565],[8.7979,39.9583],[8.8137,39.9418],[8.82,39.9392]]]}},{"type":"Feature","properties":{"i":"095058","n":"Simala"},"geometry":{"type":"Polygon","coordinates":[[[8.8654,39.736],[8.8519,39.7224],[8.8489,39.7141],[8.8372,39.713],[8.8273,39.7105],[8.8127,39.7089],[8.8056,39.7148],[8.806,39.7264],[8.8116,39.737],[8.8221,39.7396],[8.8333,39.7387],[8.8403,39.7393],[8.8517,39.7441],[8.8555,39.7433],[8.8629,39.7403],[8.8654,39.736]]]}},{"type":"Feature","properties":{"i":"095059","n":"Simaxis"},"geometry":{"type":"Polygon","coordinates":[[[8.7454,39.9359],[8.7365,39.9291],[8.7376,39.9267],[8.7415,39.9243],[8.7426,39.9204],[8.7421,39.9198],[8.7391,39.9175],[8.7373,39.9172],[8.7311,39.9138],[8.718,39.9048],[8.716,39.9024],[8.7153,39.8999],[8.7159,39.8977],[8.722,39.8899],[8.6678,39.9113],[8.6534,39.9265],[8.6407,39.9282],[8.6606,39.9311],[8.6709,39.9338],[8.6748,39.9326],[8.6801,39.9339],[8.6893,39.9443],[8.6881,39.9463],[8.6892,39.9486],[8.6951,39.9506],[8.6997,39.9504],[8.7007,39.9488],[8.7025,39.948],[8.7066,39.9493],[8.7119,39.9537],[8.713,39.9503],[8.7173,39.9453],[8.7286,39.9388],[8.7344,39.9368],[8.7454,39.9359]]]}},{"type":"Feature","properties":{"i":"095060","n":"Sini"},"geometry":{"type":"Polygon","coordinates":[[[8.9243,39.7584],[8.9139,39.7486],[8.9085,39.7387],[8.9052,39.7348],[8.902,39.7331],[8.8974,39.7349],[8.8891,39.7416],[8.8856,39.7415],[8.8852,39.7421],[8.8852,39.7473],[8.893,39.773],[8.896,39.7739],[8.904,39.7721],[8.9128,39.7674],[8.9207,39.7591],[8.9243,39.7584]]]}},{"type":"Feature","properties":{"i":"095061","n":"Siris"},"geometry":{"type":"Polygon","coordinates":[[[8.7795,39.7292],[8.7879,39.716],[8.7848,39.7114],[8.7759,39.7095],[8.7701,39.7099],[8.7637,39.7115],[8.754,39.7169],[8.7454,39.7248],[8.7465,39.7293],[8.7711,39.7304],[8.7795,39.7292]]]}},{"type":"Feature","properties":{"i":"095078","n":"Soddì"},"geometry":{"type":"Polygon","coordinates":[[[8.8859,40.1461],[8.8883,40.1449],[8.8898,40.1419],[8.8902,40.1341],[8.8888,40.1296],[8.8772,40.1221],[8.8632,40.1223],[8.8618,40.1292],[8.8624,40.1322],[8.8653,40.1388],[8.8674,40.1413],[8.8664,40.1434],[8.8642,40.1445],[8.8741,40.1494],[8.8807,40.1457],[8.8859,40.1461]]]}},{"type":"Feature","properties":{"i":"095062","n":"Solarussa"},"geometry":{"type":"Polygon","coordinates":[[[8.7354,40.0117],[8.7182,39.9904],[8.7116,39.9852],[8.706,39.9794],[8.7026,39.9737],[8.6915,39.9604],[8.6874,39.9587],[8.6858,39.957],[8.6834,39.9528],[8.6852,39.9513],[8.6915,39.9489],[8.6892,39.9486],[8.6881,39.9463],[8.6893,39.9443],[8.6804,39.9341],[8.6748,39.9326],[8.6709,39.9338],[8.6606,39.9311],[8.6402,39.9282],[8.6467,39.9401],[8.6502,39.9431],[8.6509,39.9447],[8.6505,39.9526],[8.6468,39.9577],[8.6443,39.959],[8.6477,39.9682],[8.6509,39.9717],[8.654,39.9784],[8.6568,39.9816],[8.6602,39.9839],[8.6649,39.9842],[8.6674,39.9857],[8.673,39.9906],[8.673,39.994],[8.6743,39.9948],[8.6822,39.9973],[8.6864,39.9974],[8.7023,40.0007],[8.7085,40.003],[8.7122,40.0107],[8.7108,40.0139],[8.71,40.0191],[8.7117,40.0212],[8.7292,40.0132],[8.7354,40.0117]]]}},{"type":"Feature","properties":{"i":"095063","n":"Sorradile"},"geometry":{"type":"MultiPolygon","coordinates":[[[[8.9474,40.1163],[8.9462,40.1107],[8.9366,40.0967],[8.9327,40.0954],[8.9279,40.0967],[8.903,40.0972],[8.8915,40.102],[8.8925,40.1046],[8.901,40.1129],[8.9029,40.1173],[8.904,40.1256],[8.9052,40.1282],[8.9109,40.1343],[8.917,40.1278],[8.9228,40.1191],[8.928,40.1141],[8.9354,40.1099],[8.9421,40.1113],[8.9474,40.1163]]],[[[9.0024,40.1344],[9.0017,40.1362],[8.9977,40.1382],[8.9909,40.1399],[8.9792,40.1367],[8.9576,40.1238],[8.9559,40.1298],[8.9571,40.1407],[8.9593,40.1459],[8.963,40.1441],[8.9665,40.1457],[8.9689,40.1481],[8.9677,40.1542],[8.977,40.1579],[8.9955,40.1765],[8.9991,40.1768],[9.001,40.1777],[9.0105,40.1713],[9.0166,40.1645],[9.019,40.1551],[9.0186,40.1463],[9.0177,40.1442],[9.0114,40.1382],[9.0024,40.1344]]]]}},{"type":"Feature","properties":{"i":"095087","n":"Suni"},"geometry":{"type":"Polygon","coordinates":[[[8.6202,40.319],[8.6152,40.3174],[8.6114,40.3086],[8.6178,40.3029],[8.6151,40.2969],[8.614,40.2911],[8.6175,40.2854],[8.623,40.2833],[8.6196,40.2769],[8.6164,40.2732],[8.6139,40.2746],[8.6076,40.2752],[8.5848,40.2751],[8.5855,40.2772],[8.5825,40.2801],[8.575,40.2786],[8.5594,40.2729],[8.5386,40.273],[8.5388,40.2805],[8.5375,40.2891],[8.536,40.2928],[8.5406,40.2963],[8.5423,40.2989],[8.5402,40.3114],[8.5424,40.3143],[8.5424,40.32],[8.5382,40.322],[8.5399,40.3269],[8.5423,40.3305],[8.5607,40.3481],[8.5639,40.3468],[8.5679,40.3463],[8.5726,40.3481],[8.574,40.3499],[8.5758,40.3576],[8.5781,40.3579],[8.5865,40.354],[8.5903,40.3438],[8.5918,40.3378],[8.5918,40.3342],[8.6111,40.3272],[8.6193,40.3227],[8.6202,40.319]]]}},{"type":"Feature","properties":{"i":"095064","n":"Tadasuni"},"geometry":{"type":"Polygon","coordinates":[[[8.8818,40.1201],[8.9031,40.1184],[8.901,40.1129],[8.8925,40.1046],[8.8915,40.102],[8.888,40.1016],[8.8852,40.0994],[8.8826,40.0805],[8.88,40.078],[8.879,40.0899],[8.8764,40.0903],[8.8743,40.0966],[8.8765,40.1152],[8.8801,40.1203],[8.8818,40.1201]]]}},{"type":"Feature","properties":{"i":"095065","n":"Terralba"},"geometry":{"type":"Polygon","coordinates":[[[8.6115,39.758],[8.6107,39.7572],[8.6026,39.757],[8.6023,39.7563],[8.6076,39.7498],[8.6106,39.7478],[8.6194,39.7458],[8.6353,39.7351],[8.6434,39.731],[8.6598,39.7323],[8.6636,39.7337],[8.667,39.7369],[8.6709,39.7366],[8.6697,39.7331],[8.6667,39.7298],[8.659,39.7238],[8.6591,39.7178],[8.6599,39.7152],[8.6512,39.6965],[8.6147,39.6903],[8.606,39.6898],[8.5902,39.6916],[8.5791,39.6875],[8.5667,39.6872],[8.5602,39.692],[8.5544,39.6948],[8.5493,39.6961],[8.546,39.6942],[8.539,39.6933],[8.5213,39.6929],[8.5195,39.6938],[8.5188,39.6973],[8.5126,39.7043],[8.5065,39.7064],[8.5014,39.7107],[8.5026,39.7143],[8.5076,39.7219],[8.508,39.7253],[8.5057,39.7265],[8.506,39.7303],[8.5099,39.7326],[8.5147,39.7328],[8.5149,39.7259],[8.5313,39.7105],[8.5643,39.7107],[8.5715,39.7071],[8.5935,39.7065],[8.5941,39.7074],[8.5932,39.7088],[8.5857,39.7089],[8.5856,39.731],[8.5901,39.7339],[8.6057,39.7405],[8.597,39.7511],[8.5943,39.7523],[8.5905,39.758],[8.5918,39.763],[8.5942,39.7667],[8.611,39.7669],[8.6115,39.758]]]}},{"type":"Feature","properties":{"i":"095088","n":"Tinnura"},"geometry":{"type":"Polygon","coordinates":[[[8.5848,40.2751],[8.5788,40.2735],[8.5736,40.2703],[8.5681,40.2648],[8.5654,40.2588],[8.559,40.2599],[8.5485,40.2648],[8.5438,40.268],[8.539,40.2728],[8.5594,40.2729],[8.575,40.2786],[8.5825,40.2801],[8.5855,40.2772],[8.5848,40.2751]]]}},{"type":"Feature","properties":{"i":"095066","n":"Tramatza"},"geometry":{"type":"Polygon","coordinates":[[[8.673,39.994],[8.673,39.9906],[8.6649,39.9842],[8.6602,39.9839],[8.6568,39.9816],[8.654,39.9784],[8.6492,39.9783],[8.6439,39.9751],[8.6374,39.9727],[8.6333,39.9735],[8.6278,39.9758],[8.6267,39.9776],[8.6237,39.9877],[8.6226,39.9944],[8.6304,40.015],[8.6317,40.0212],[8.6433,40.0246],[8.6495,40.0273],[8.6681,40.0037],[8.673,39.994]]]}},{"type":"Feature","properties":{"i":"095067","n":"Tresnuraghes"},"geometry":{"type":"Polygon","coordinates":[[[8.5435,40.2428],[8.538,40.233],[8.5336,40.2336],[8.5227,40.2298],[8.5197,40.2277],[8.5086,40.214],[8.5027,40.2103],[8.5017,40.2106],[8.5003,40.2099],[8.4955,40.2033],[8.495,40.2005],[8.4839,40.1926],[8.4779,40.1861],[8.478,40.1834],[8.474,40.1791],[8.4707,40.1794],[8.457,40.1759],[8.4562,40.177],[8.4649,40.1921],[8.4674,40.2],[8.4631,40.2075],[8.4621,40.214],[8.4659,40.224],[8.4662,40.227],[8.4653,40.2278],[8.4676,40.234],[8.4741,40.2466],[8.4735,40.2484],[8.4763,40.2545],[8.4932,40.2531],[8.51,40.257],[8.5214,40.2578],[8.5257,40.2566],[8.5286,40.2502],[8.5323,40.2466],[8.5435,40.2428]]]}},{"type":"Feature","properties":{"i":"095068","n":"Ulà Tirso"},"geometry":{"type":"Polygon","coordinates":[[[8.9064,40.0611],[8.9092,40.0598],[8.9121,40.0566],[8.9239,40.0506],[8.9281,40.0501],[8.9327,40.0445],[8.9347,40.0364],[8.9369,40.0319],[8.9437,40.0262],[8.9476,40.0239],[8.9456,40.0132],[8.9431,40.0123],[8.9404,40.0082],[8.9365,40.0081],[8.9293,40.0121],[8.9254,40.031],[8.9084,40.041],[8.8942,40.0427],[8.8833,40.0472],[8.8777,40.0481],[8.8741,40.0479],[8.8655,40.0456],[8.8637,40.0402],[8.86,40.0363],[8.8571,40.0367],[8.8511,40.0393],[8.8498,40.0415],[8.8491,40.0442],[8.8502,40.047],[8.8567,40.0545],[8.8613,40.0613],[8.871,40.072],[8.8752,40.0685],[8.8774,40.0676],[8.8968,40.0647],[8.9064,40.0611]]]}},{"type":"Feature","properties":{"i":"095069","n":"Uras"},"geometry":{"type":"Polygon","coordinates":[[[8.7261,39.7282],[8.7264,39.7152],[8.7316,39.7105],[8.7344,39.7025],[8.7286,39.6948],[8.715,39.6799],[8.7072,39.6749],[8.7026,39.6739],[8.6941,39.6681],[8.6932,39.6645],[8.691,39.6628],[8.6875,39.6641],[8.6797,39.6741],[8.6689,39.6794],[8.6606,39.6894],[8.6545,39.695],[8.6512,39.6965],[8.6599,39.7152],[8.6591,39.7178],[8.659,39.7238],[8.6667,39.7298],[8.6697,39.7331],[8.6709,39.7366],[8.6809,39.7413],[8.6863,39.7427],[8.6895,39.746],[8.7002,39.7378],[8.7169,39.7283],[8.7261,39.7282]]]}},{"type":"Feature","properties":{"i":"095070","n":"Usellus"},"geometry":{"type":"Polygon","coordinates":[[[8.8727,39.8419],[8.8722,39.8392],[8.8732,39.8349],[8.8762,39.832],[8.8753,39.8226],[8.8722,39.8105],[8.8703,39.8051],[8.8591,39.7904],[8.8533,39.779],[8.8442,39.7841],[8.8409,39.7889],[8.8353,39.8061],[8.8277,39.8144],[8.8216,39.8193],[8.7976,39.8254],[8.7842,39.8344],[8.7849,39.8405],[8.7869,39.8436],[8.7911,39.8457],[8.8053,39.8471],[8.8121,39.8528],[8.8345,39.8587],[8.848,39.8543],[8.8518,39.8482],[8.8551,39.8461],[8.8727,39.8419]]]}},{"type":"Feature","properties":{"i":"095048","n":"Villa Sant'Antonio"},"geometry":{"type":"Polygon","coordinates":[[[8.9212,39.8827],[8.9216,39.8787],[8.9242,39.8724],[8.9221,39.8624],[8.9211,39.8608],[8.9174,39.8586],[8.9147,39.8536],[8.9187,39.8436],[8.921,39.8401],[8.9174,39.8358],[8.9134,39.8343],[8.9085,39.8309],[8.9028,39.8336],[8.894,39.8348],[8.8855,39.835],[8.8845,39.8322],[8.8731,39.8415],[8.8748,39.8423],[8.8759,39.8451],[8.8796,39.8564],[8.8816,39.8596],[8.8823,39.8636],[8.8787,39.8704],[8.8781,39.8769],[8.8797,39.8796],[8.8874,39.8787],[8.9042,39.8829],[8.9101,39.8852],[8.9212,39.8827]]]}},{"type":"Feature","properties":{"i":"095073","n":"Villa Verde"},"geometry":{"type":"Polygon","coordinates":[[[8.7842,39.8344],[8.7976,39.8254],[8.8216,39.8193],[8.8277,39.8144],[8.8353,39.8061],[8.8366,39.8038],[8.8409,39.7889],[8.8351,39.7901],[8.827,39.7848],[8.8225,39.783],[8.8156,39.7816],[8.8134,39.7822],[8.8093,39.7846],[8.8131,39.7941],[8.8113,39.7966],[8.8068,39.7983],[8.799,39.8075],[8.7885,39.8129],[8.7788,39.8155],[8.767,39.8158],[8.7553,39.8213],[8.7547,39.827],[8.7591,39.8335],[8.7732,39.8351],[8.7842,39.8344]]]}},{"type":"Feature","properties":{"i":"095071","n":"Villanova Truschedu"},"geometry":{"type":"Polygon","coordinates":[[[8.7872,40.0198],[8.7862,40.0107],[8.7816,40.0065],[8.7792,39.9988],[8.7828,39.9957],[8.7885,39.985],[8.7914,39.9768],[8.7918,39.9712],[8.7911,39.9669],[8.7901,39.9654],[8.7891,39.9672],[8.7866,39.9798],[8.7824,39.989],[8.7719,39.987],[8.7495,39.968],[8.7436,39.9676],[8.7409,39.9684],[8.7375,39.9744],[8.7374,39.9758],[8.7411,39.981],[8.743,39.9877],[8.7419,39.9922],[8.7359,40.0014],[8.7379,40.0081],[8.7422,40.0105],[8.7469,40.0109],[8.7591,40.015],[8.7594,40.0169],[8.7625,40.018],[8.7667,40.019],[8.7872,40.0198]]]}},{"type":"Feature","properties":{"i":"095072","n":"Villaurbana"},"geometry":{"type":"Polygon","coordinates":[[[8.8466,39.9001],[8.8462,39.8994],[8.843,39.8995],[8.8392,39.884],[8.8388,39.8808],[8.8398,39.8764],[8.8345,39.8587],[8.8121,39.8528],[8.8053,39.8471],[8.7911,39.8457],[8.7869,39.8436],[8.7849,39.8405],[8.7842,39.8344],[8.7732,39.8351],[8.7591,39.8335],[8.7547,39.827],[8.741,39.8341],[8.7381,39.8363],[8.7344,39.8489],[8.729,39.854],[8.7288,39.8565],[8.7297,39.8592],[8.7284,39.8709],[8.7266,39.8781],[8.7158,39.8808],[8.7222,39.8897],[8.7462,39.8928],[8.7596,39.8966],[8.7742,39.8988],[8.8025,39.8958],[8.8107,39.8959],[8.814,39.8973],[8.8366,39.9127],[8.8404,39.9174],[8.8423,39.9134],[8.8427,39.9019],[8.8452,39.8998],[8.8466,39.9001]]]}},{"type":"Feature","properties":{"i":"095074","n":"Zeddiani"},"geometry":{"type":"Polygon","coordinates":[[[8.6229,39.9953],[8.6237,39.9877],[8.6267,39.9776],[8.6278,39.9758],[8.6254,39.971],[8.6225,39.9679],[8.6144,39.9672],[8.6119,39.9663],[8.6067,39.969],[8.5955,39.9688],[8.5883,39.9669],[8.5863,39.9685],[8.5787,39.9807],[8.5754,39.994],[8.5764,39.9979],[8.5795,39.999],[8.5869,39.9989],[8.6007,39.9933],[8.6229,39.9953]]]}},{"type":"Feature","properties":{"i":"095075","n":"Zerfaliu"},"geometry":{"type":"Polygon","coordinates":[[[8.7594,40.0169],[8.7591,40.015],[8.7469,40.0109],[8.7422,40.0105],[8.7379,40.0081],[8.7369,40.0057],[8.7359,40.0014],[8.7419,39.9922],[8.743,39.9877],[8.7411,39.981],[8.7374,39.9758],[8.7375,39.9744],[8.7409,39.9684],[8.7326,39.9654],[8.7258,39.964],[8.7194,39.9585],[8.7194,39.9563],[8.7182,39.9534],[8.7145,39.9526],[8.7119,39.9537],[8.7066,39.9493],[8.7025,39.948],[8.7007,39.9488],[8.6997,39.9504],[8.6951,39.9506],[8.6915,39.9489],[8.6852,39.9513],[8.6834,39.9528],[8.6858,39.957],[8.6874,39.9587],[8.6915,39.9604],[8.698,39.9679],[8.706,39.9794],[8.7116,39.9852],[8.7182,39.9904],[8.7354,40.0117],[8.7427,40.0134],[8.748,40.0164],[8.7523,40.0173],[8.7594,40.0169]]]}}]}
