{"type":"FeatureCollection","fonte":"Confini comunali ISTAT via openpolis/geojson-italy — CC BY 4.0","features":[{"type":"Feature","properties":{"i":"082001","n":"Alia"},"geometry":{"type":"Polygon","coordinates":[[[13.7935,37.7763],[13.7917,37.773],[13.7879,37.7737],[13.7753,37.7715],[13.7625,37.7673],[13.7616,37.7657],[13.7785,37.7592],[13.7778,37.7542],[13.7735,37.7498],[13.754,37.7241],[13.743,37.7121],[13.7322,37.7216],[13.7273,37.7209],[13.7244,37.7231],[13.7247,37.7315],[13.7233,37.7347],[13.72,37.7373],[13.7185,37.74],[13.7167,37.7457],[13.7173,37.7495],[13.7104,37.7568],[13.6993,37.7666],[13.697,37.768],[13.6846,37.7683],[13.6662,37.7727],[13.6659,37.7734],[13.6691,37.7785],[13.6731,37.7809],[13.6736,37.7844],[13.6725,37.7875],[13.6871,37.7851],[13.7057,37.7871],[13.7103,37.7891],[13.7192,37.7949],[13.7197,37.7971],[13.7237,37.804],[13.7299,37.8096],[13.7403,37.8018],[13.7425,37.7935],[13.7478,37.7895],[13.7533,37.783],[13.7528,37.7804],[13.7562,37.7756],[13.767,37.7752],[13.7782,37.7761],[13.7841,37.7786],[13.7884,37.7788],[13.7929,37.7772],[13.7935,37.7763]]]}},{"type":"Feature","properties":{"i":"082002","n":"Alimena"},"geometry":{"type":"Polygon","coordinates":[[[14.1646,37.735],[14.1677,37.7336],[14.17,37.7296],[14.1687,37.7225],[14.1704,37.7142],[14.1752,37.709],[14.1667,37.7035],[14.1606,37.7012],[14.1587,37.6989],[14.1539,37.6999],[14.1416,37.6983],[14.1254,37.6979],[14.1227,37.6962],[14.122,37.6922],[14.1244,37.6874],[14.1392,37.676],[14.1428,37.6693],[14.1458,37.6673],[14.149,37.6677],[14.1516,37.6667],[14.1516,37.6628],[14.1455,37.6575],[14.1453,37.6565],[14.1447,37.6526],[14.1467,37.6433],[14.1451,37.6397],[14.1394,37.634],[14.154,37.6278],[14.1464,37.6202],[14.135,37.6167],[14.1319,37.6116],[14.1241,37.6117],[14.1225,37.6207],[14.1224,37.6272],[14.1203,37.6291],[14.1147,37.631],[14.1094,37.6266],[14.1055,37.626],[14.1014,37.627],[14.0929,37.6346],[14.09,37.6353],[14.0868,37.6349],[14.0781,37.6442],[14.0808,37.6495],[14.0886,37.6472],[14.1011,37.6515],[14.1075,37.6557],[14.0986,37.6608],[14.091,37.6594],[14.0755,37.661],[14.0691,37.6625],[14.0629,37.6645],[14.0562,37.6718],[14.0626,37.6749],[14.0748,37.6768],[14.081,37.6759],[14.0861,37.6776],[14.0878,37.6798],[14.0899,37.6806],[14.1062,37.6844],[14.1079,37.6897],[14.1011,37.6963],[14.0971,37.7053],[14.0965,37.7093],[14.1038,37.7224],[14.1125,37.7296],[14.1202,37.727],[14.1195,37.7236],[14.12,37.7226],[14.1253,37.7213],[14.1295,37.7225],[14.1302,37.7236],[14.1315,37.7226],[14.1337,37.7224],[14.1473,37.7336],[14.1503,37.7349],[14.1556,37.7367],[14.1646,37.735]]]}},{"type":"Feature","properties":{"i":"082003","n":"Aliminusa"},"geometry":{"type":"Polygon","coordinates":[[[13.8149,37.8592],[13.8124,37.8561],[13.8076,37.8463],[13.8023,37.8422],[13.7983,37.8361],[13.7912,37.8351],[13.7885,37.8359],[13.7836,37.8407],[13.777,37.8506],[13.7691,37.8565],[13.7664,37.8601],[13.7559,37.8686],[13.7534,37.8681],[13.7521,37.8708],[13.7506,37.8798],[13.7507,37.8902],[13.7514,37.8931],[13.7619,37.8886],[13.7603,37.8855],[13.7605,37.8807],[13.762,37.8789],[13.7867,37.8698],[13.7977,37.8622],[13.8149,37.8592]]]}},{"type":"Feature","properties":{"i":"082004","n":"Altavilla Milicia"},"geometry":{"type":"Polygon","coordinates":[[[13.6078,38.0206],[13.6025,38.0171],[13.602,38.0077],[13.5967,38.003],[13.5839,37.9964],[13.5811,37.9961],[13.5769,37.9896],[13.5696,37.9857],[13.5628,37.989],[13.5538,37.9998],[13.5521,38.0051],[13.5513,38.0148],[13.5533,38.0253],[13.5524,38.0273],[13.5452,38.0218],[13.5447,38.0173],[13.5393,38.0153],[13.5323,38.0186],[13.5288,38.0248],[13.5382,38.0305],[13.5426,38.0348],[13.5437,38.0423],[13.5473,38.0494],[13.5511,38.0519],[13.5652,38.0399],[13.6038,38.0238],[13.6078,38.0206]]]}},{"type":"Feature","properties":{"i":"082005","n":"Altofonte"},"geometry":{"type":"Polygon","coordinates":[[[13.3179,38.0568],[13.3146,38.0544],[13.315,38.0531],[13.3173,38.0515],[13.3228,38.0505],[13.3273,38.0531],[13.349,38.0619],[13.3517,38.0583],[13.3579,38.0308],[13.3574,38.0253],[13.3536,38.0212],[13.3466,37.9988],[13.3376,37.9919],[13.3343,37.9937],[13.3271,38.0002],[13.3153,38.0061],[13.3172,38.0088],[13.3182,38.0183],[13.3121,38.0267],[13.3043,38.0278],[13.3019,38.0275],[13.3013,38.0241],[13.2996,38.0217],[13.2931,38.0194],[13.2777,38.0247],[13.2733,38.0289],[13.2705,38.0383],[13.2699,38.0448],[13.2707,38.0511],[13.2844,38.052],[13.2954,38.0573],[13.3001,38.0622],[13.3003,38.0657],[13.3143,38.0602],[13.3179,38.0568]]]}},{"type":"Feature","properties":{"i":"082006","n":"Bagheria"},"geometry":{"type":"Polygon","coordinates":[[[13.5328,38.1112],[13.5325,38.1062],[13.5294,38.0962],[13.5175,38.0858],[13.518,38.0698],[13.5171,38.0657],[13.505,38.0519],[13.4996,38.0438],[13.497,38.041],[13.4851,38.036],[13.4798,38.0364],[13.4735,38.0354],[13.4686,38.0364],[13.4651,38.0418],[13.4656,38.0481],[13.4707,38.0614],[13.4759,38.0681],[13.4771,38.0719],[13.4778,38.0746],[13.4757,38.0792],[13.4757,38.0839],[13.4765,38.0859],[13.4759,38.088],[13.4803,38.0955],[13.4809,38.1],[13.5044,38.1077],[13.5058,38.1116],[13.5064,38.118],[13.5074,38.1194],[13.5095,38.1194],[13.513,38.1173],[13.5295,38.111],[13.5328,38.1112]]]}},{"type":"Feature","properties":{"i":"082007","n":"Balestrate"},"geometry":{"type":"Polygon","coordinates":[[[12.9835,38.0358],[12.9771,38.0403],[12.9971,38.0478],[13.0052,38.0537],[13.0267,38.0619],[13.0282,38.0596],[13.0318,38.062],[13.035,38.0659],[13.0374,38.063],[13.0373,38.0607],[13.0331,38.0579],[13.0253,38.0498],[13.018,38.0401],[13.006,38.0335],[13.0024,38.0342],[13.0003,38.0366],[12.992,38.038],[12.9835,38.0358]]]}},{"type":"Feature","properties":{"i":"082008","n":"Baucina"},"geometry":{"type":"Polygon","coordinates":[[[13.567,37.9561],[13.5728,37.944],[13.5688,37.9425],[13.5622,37.9377],[13.555,37.9292],[13.5541,37.9263],[13.554,37.9196],[13.5456,37.9136],[13.5397,37.9107],[13.5389,37.9092],[13.5389,37.9044],[13.5257,37.9018],[13.5236,37.9023],[13.5182,37.9114],[13.5172,37.9169],[13.5145,37.9198],[13.5077,37.9246],[13.5001,37.9312],[13.5027,37.9379],[13.5055,37.938],[13.5111,37.9421],[13.5103,37.9486],[13.5151,37.9485],[13.5243,37.9499],[13.5238,37.9564],[13.522,37.9616],[13.5478,37.959],[13.5527,37.9591],[13.5562,37.9594],[13.5581,37.9606],[13.5592,37.9633],[13.567,37.9561]]]}},{"type":"Feature","properties":{"i":"082009","n":"Belmonte Mezzagno"},"geometry":{"type":"Polygon","coordinates":[[[13.4255,38.0617],[13.4276,38.0575],[13.4273,38.0529],[13.4141,38.0451],[13.4183,38.0374],[13.419,38.0334],[13.4143,38.0282],[13.406,38.0257],[13.3946,38.0187],[13.3894,38.0111],[13.39,38.009],[13.3865,38.0025],[13.3818,38.0041],[13.3625,38.0219],[13.3574,38.0253],[13.3579,38.0308],[13.3539,38.0506],[13.3517,38.0583],[13.349,38.0619],[13.3545,38.0616],[13.3632,38.0629],[13.3684,38.0688],[13.3734,38.0696],[13.3937,38.0666],[13.4023,38.0605],[13.4092,38.0589],[13.4199,38.0597],[13.4255,38.0617]]]}},{"type":"Feature","properties":{"i":"082010","n":"Bisacquino"},"geometry":{"type":"MultiPolygon","coordinates":[[[[13.1455,37.6259],[13.1462,37.6314],[13.1438,37.6359],[13.1432,37.6391],[13.1444,37.6431],[13.149,37.6422],[13.1657,37.6459],[13.1685,37.6458],[13.1812,37.6369],[13.1826,37.634],[13.1695,37.6306],[13.1567,37.6255],[13.1455,37.6259]]],[[[13.2267,37.7581],[13.2329,37.7573],[13.2344,37.7554],[13.2345,37.7488],[13.2369,37.7465],[13.2462,37.7454],[13.253,37.7478],[13.2602,37.7456],[13.2631,37.7438],[13.262,37.7417],[13.2618,37.7368],[13.2651,37.7303],[13.2714,37.7239],[13.2738,37.723],[13.2822,37.717],[13.2945,37.7103],[13.2949,37.6988],[13.3004,37.6936],[13.3036,37.6924],[13.3067,37.6936],[13.3107,37.6906],[13.3122,37.6858],[13.312,37.6834],[13.3046,37.6811],[13.2995,37.685],[13.295,37.6867],[13.2721,37.6915],[13.2654,37.6905],[13.2535,37.686],[13.2476,37.6865],[13.2327,37.6895],[13.2293,37.6915],[13.2241,37.698],[13.2222,37.7031],[13.2225,37.7068],[13.2296,37.718],[13.2277,37.7218],[13.2223,37.7255],[13.2141,37.7268],[13.2085,37.7267],[13.2048,37.7252],[13.2017,37.7226],[13.1948,37.7239],[13.1899,37.7354],[13.1839,37.741],[13.1833,37.7435],[13.1876,37.7484],[13.1924,37.7514],[13.1999,37.7522],[13.2087,37.751],[13.2109,37.7516],[13.2131,37.7536],[13.2132,37.7587],[13.2174,37.7596],[13.2267,37.7581]]],[[[13.1865,37.7808],[13.1843,37.7735],[13.1808,37.7695],[13.1756,37.7689],[13.1673,37.7727],[13.154,37.7736],[13.1406,37.7789],[13.1333,37.7847],[13.1243,37.7936],[13.1234,37.7983],[13.1247,37.8021],[13.1284,37.8014],[13.1425,37.8034],[13.1484,37.8077],[13.1511,37.8084],[13.1558,37.8047],[13.172,37.8054],[13.1788,37.8012],[13.1805,37.799],[13.1827,37.7921],[13.1811,37.7846],[13.1865,37.7808]]]]}},{"type":"Feature","properties":{"i":"082011","n":"Bolognetta"},"geometry":{"type":"Polygon","coordinates":[[[13.5056,38.0034],[13.5063,38.0025],[13.5054,37.9982],[13.503,37.9955],[13.4972,37.993],[13.4949,37.991],[13.4924,37.9868],[13.4904,37.9801],[13.4961,37.9793],[13.5048,37.9794],[13.5117,37.9754],[13.5184,37.9671],[13.523,37.9598],[13.5243,37.9499],[13.5151,37.9485],[13.5103,37.9486],[13.5079,37.9505],[13.5039,37.9505],[13.499,37.9519],[13.4934,37.9554],[13.4913,37.9618],[13.4858,37.9677],[13.4736,37.9613],[13.4583,37.9488],[13.4558,37.9479],[13.4523,37.9482],[13.4411,37.9504],[13.4433,37.953],[13.4443,37.9582],[13.4411,37.9637],[13.4358,37.9688],[13.437,37.977],[13.4416,37.9737],[13.4462,37.9727],[13.454,37.9751],[13.4498,37.9857],[13.4523,37.9889],[13.4683,37.9906],[13.4692,37.9956],[13.4729,37.9984],[13.4773,38.0],[13.4871,38.0135],[13.4879,38.0116],[13.49,38.0098],[13.501,38.002],[13.5056,38.0034]]]}},{"type":"Feature","properties":{"i":"082012","n":"Bompietro"},"geometry":{"type":"MultiPolygon","coordinates":[[[[14.1806,37.6901],[14.1801,37.6812],[14.1757,37.6767],[14.1611,37.669],[14.158,37.6664],[14.159,37.6615],[14.1611,37.6603],[14.1631,37.6577],[14.1636,37.6531],[14.1634,37.6441],[14.164,37.6422],[14.1606,37.6358],[14.154,37.6278],[14.1394,37.634],[14.1451,37.6397],[14.1467,37.6433],[14.1447,37.6526],[14.1453,37.6565],[14.1455,37.6575],[14.1516,37.6628],[14.1516,37.6666],[14.149,37.6677],[14.1458,37.6673],[14.1428,37.6693],[14.1392,37.676],[14.1244,37.6874],[14.122,37.6922],[14.1227,37.6962],[14.1254,37.6979],[14.1416,37.6983],[14.1539,37.6999],[14.1587,37.6989],[14.1618,37.694],[14.1738,37.6939],[14.1778,37.6923],[14.1806,37.6901]]],[[[14.1302,37.7236],[14.1295,37.7225],[14.1253,37.7213],[14.1214,37.722],[14.1195,37.7236],[14.1202,37.727],[14.1125,37.7296],[14.1038,37.7224],[14.0965,37.7088],[14.0971,37.7053],[14.1011,37.6963],[14.1079,37.6897],[14.1062,37.6844],[14.0878,37.6798],[14.0878,37.681],[14.0849,37.6841],[14.0778,37.6879],[14.0776,37.6904],[14.0796,37.6945],[14.0843,37.695],[14.0907,37.6976],[14.0913,37.6986],[14.0912,37.7043],[14.0892,37.7076],[14.0798,37.7129],[14.0694,37.712],[14.0671,37.7135],[14.0659,37.7196],[14.0657,37.7263],[14.0647,37.729],[14.065,37.7327],[14.0663,37.737],[14.0688,37.7392],[14.0739,37.7405],[14.0787,37.7399],[14.0853,37.7433],[14.0885,37.7459],[14.0921,37.7552],[14.0956,37.7598],[14.0984,37.7615],[14.1258,37.745],[14.1306,37.7359],[14.1302,37.7236]]]]}},{"type":"Feature","properties":{"i":"082013","n":"Borgetto"},"geometry":{"type":"Polygon","coordinates":[[[13.1974,38.0493],[13.1995,38.0419],[13.1988,38.0378],[13.1979,38.0374],[13.1939,38.0384],[13.1941,38.0408],[13.1924,38.0425],[13.1858,38.045],[13.1763,38.0406],[13.1749,38.0392],[13.1735,38.0354],[13.1761,38.0349],[13.1775,38.0337],[13.1793,38.0298],[13.174,38.0174],[13.1726,38.0164],[13.1668,38.0145],[13.1581,38.0147],[13.1563,38.0188],[13.1539,38.0195],[13.1414,38.0204],[13.1385,38.0193],[13.1375,38.0149],[13.1378,38.0119],[13.1349,38.0084],[13.1322,38.0105],[13.1276,38.0179],[13.1204,38.0214],[13.1209,38.025],[13.1243,38.0287],[13.1377,38.0369],[13.1323,38.046],[13.128,38.0507],[13.1275,38.0528],[13.1304,38.0562],[13.1428,38.0627],[13.1505,38.0678],[13.1479,38.0748],[13.1493,38.0738],[13.1522,38.0741],[13.155,38.0756],[13.1578,38.0754],[13.1665,38.0742],[13.1708,38.0726],[13.1725,38.0707],[13.1733,38.0613],[13.1863,38.052],[13.1931,38.0496],[13.1974,38.0493]]]}},{"type":"Feature","properties":{"i":"082014","n":"Caccamo"},"geometry":{"type":"Polygon","coordinates":[[[13.734,37.945],[13.7323,37.942],[13.7312,37.9357],[13.7236,37.9194],[13.7253,37.9095],[13.7272,37.9052],[13.7309,37.9012],[13.7446,37.8957],[13.7474,37.8966],[13.7514,37.8931],[13.7507,37.8902],[13.7506,37.8798],[13.7521,37.8708],[13.7534,37.8681],[13.7531,37.8654],[13.7552,37.853],[13.7506,37.8496],[13.7428,37.8525],[13.7221,37.8558],[13.7151,37.8505],[13.7129,37.8453],[13.7113,37.8446],[13.7099,37.8428],[13.7075,37.8383],[13.7104,37.8265],[13.7099,37.8182],[13.7148,37.811],[13.7176,37.8088],[13.7197,37.7971],[13.7192,37.7949],[13.7162,37.7926],[13.7049,37.7869],[13.6871,37.7851],[13.6725,37.7875],[13.6758,37.7937],[13.6762,37.7973],[13.6756,37.814],[13.6738,37.8183],[13.6681,37.8185],[13.6628,37.8216],[13.6655,37.8254],[13.675,37.8343],[13.6742,37.8375],[13.6687,37.8391],[13.6669,37.8385],[13.667,37.8364],[13.6703,37.8367],[13.6706,37.8355],[13.6696,37.8339],[13.6607,37.8306],[13.6584,37.8314],[13.6509,37.8317],[13.6453,37.8298],[13.6424,37.8305],[13.6357,37.8341],[13.6294,37.8346],[13.6261,37.8329],[13.6262,37.8355],[13.6229,37.8351],[13.6181,37.8373],[13.606,37.848],[13.5918,37.8491],[13.5916,37.8501],[13.5938,37.8552],[13.6001,37.8668],[13.6084,37.871],[13.6132,37.8832],[13.6082,37.9025],[13.5896,37.9033],[13.5865,37.9043],[13.5854,37.9229],[13.5867,37.9276],[13.5866,37.9314],[13.5855,37.9335],[13.5781,37.9385],[13.5728,37.944],[13.567,37.9561],[13.5755,37.9619],[13.5892,37.9696],[13.5949,37.9661],[13.6043,37.9567],[13.6074,37.9561],[13.6125,37.9575],[13.6199,37.961],[13.6253,37.9663],[13.6306,37.9698],[13.6403,37.9731],[13.6452,37.9734],[13.6487,37.9723],[13.6548,37.9689],[13.6612,37.9576],[13.673,37.9492],[13.677,37.9453],[13.6821,37.9426],[13.6863,37.9427],[13.7142,37.9511],[13.7206,37.9492],[13.7258,37.9463],[13.734,37.945]],[[13.6708,37.8272],[13.6739,37.8266],[13.6758,37.8237],[13.6769,37.8234],[13.6802,37.8252],[13.6775,37.8307],[13.6702,37.8275],[13.6708,37.8272]]]}},{"type":"Feature","properties":{"i":"082015","n":"Caltavuturo"},"geometry":{"type":"Polygon","coordinates":[[[13.9531,37.8328],[13.9598,37.8315],[13.9623,37.8301],[13.9699,37.819],[13.9722,37.8117],[13.9672,37.7971],[13.9697,37.7941],[13.9724,37.7885],[13.973,37.7866],[13.9714,37.782],[13.9692,37.7797],[13.9658,37.7782],[13.9554,37.7767],[13.9521,37.7754],[13.9471,37.7689],[13.9502,37.7678],[13.9524,37.7595],[13.9418,37.7497],[13.9384,37.7446],[13.9363,37.7432],[13.9313,37.7428],[13.9281,37.7342],[13.9296,37.7275],[13.9277,37.7251],[13.9202,37.7225],[13.9126,37.7218],[13.9119,37.7231],[13.9015,37.7274],[13.8929,37.7259],[13.8846,37.7211],[13.8758,37.7024],[13.8746,37.706],[13.8746,37.713],[13.8707,37.7282],[13.8723,37.732],[13.8761,37.7379],[13.8777,37.7431],[13.8778,37.7537],[13.8844,37.7609],[13.8867,37.768],[13.8867,37.7696],[13.8843,37.7711],[13.882,37.778],[13.885,37.7844],[13.886,37.7891],[13.8857,37.7992],[13.8832,37.8026],[13.8759,37.8065],[13.8711,37.811],[13.8707,37.8137],[13.8723,37.8198],[13.8701,37.8258],[13.8673,37.8288],[13.8626,37.8485],[13.8637,37.8578],[13.8658,37.8582],[13.8691,37.8629],[13.8695,37.8646],[13.8822,37.862],[13.8902,37.8633],[13.9108,37.8501],[13.9233,37.8385],[13.9308,37.8357],[13.9531,37.8328]]]}},{"type":"Feature","properties":{"i":"082016","n":"Campofelice di Fitalia"},"geometry":{"type":"Polygon","coordinates":[[[13.542,37.8388],[13.5431,37.826],[13.542,37.8241],[13.5451,37.8207],[13.5524,37.8166],[13.5489,37.8101],[13.5461,37.8083],[13.5416,37.8026],[13.5417,37.793],[13.5384,37.7914],[13.5345,37.7905],[13.5282,37.7911],[13.5243,37.7946],[13.5182,37.7973],[13.5113,37.7919],[13.4904,37.7867],[13.4902,37.7877],[13.4881,37.7886],[13.4855,37.7878],[13.4731,37.7897],[13.4629,37.7958],[13.4555,37.7986],[13.4516,37.7992],[13.4516,37.8033],[13.4526,37.8064],[13.458,37.8176],[13.4621,37.8234],[13.4612,37.8253],[13.4626,37.8289],[13.4683,37.8259],[13.4723,37.8246],[13.483,37.8364],[13.4949,37.8414],[13.4999,37.8407],[13.5059,37.8319],[13.5056,37.8314],[13.5262,37.826],[13.5366,37.8309],[13.5359,37.8366],[13.5408,37.8398],[13.542,37.8388]]]}},{"type":"Feature","properties":{"i":"082017","n":"Campofelice di Roccella"},"geometry":{"type":"Polygon","coordinates":[[[13.9187,37.9916],[13.9146,37.9913],[13.9045,37.9871],[13.8912,37.9844],[13.8854,37.9853],[13.8829,37.9848],[13.87,37.9791],[13.8575,37.9773],[13.843,37.9674],[13.835,37.9681],[13.8271,37.9702],[13.8269,37.9733],[13.8241,37.9786],[13.823,37.9828],[13.8333,37.9825],[13.8528,37.988],[13.8914,38.0024],[13.9133,38.0117],[13.9137,38.0068],[13.9157,38.0003],[13.9173,37.9987],[13.9191,37.9935],[13.9187,37.9916]]]}},{"type":"Feature","properties":{"i":"082018","n":"Campofiorito"},"geometry":{"type":"Polygon","coordinates":[[[13.2738,37.723],[13.2696,37.7254],[13.2651,37.7303],[13.262,37.736],[13.262,37.7417],[13.2631,37.7438],[13.2602,37.7456],[13.253,37.7478],[13.2462,37.7454],[13.2369,37.7465],[13.2345,37.7488],[13.2344,37.7554],[13.2329,37.7573],[13.2267,37.7581],[13.2369,37.7612],[13.2395,37.7645],[13.2372,37.7673],[13.2397,37.7709],[13.2494,37.7762],[13.2538,37.7815],[13.2628,37.7848],[13.2719,37.7856],[13.2754,37.785],[13.2894,37.7782],[13.2935,37.7707],[13.2931,37.7669],[13.2945,37.7544],[13.2889,37.7485],[13.2806,37.7415],[13.2744,37.7422],[13.2744,37.7381],[13.2829,37.7317],[13.2789,37.7266],[13.2738,37.723]]]}},{"type":"Feature","properties":{"i":"082019","n":"Camporeale"},"geometry":{"type":"Polygon","coordinates":[[[13.0306,37.9069],[13.0374,37.9132],[13.0469,37.9174],[13.0594,37.9212],[13.0722,37.9236],[13.0792,37.9262],[13.0776,37.9278],[13.0777,37.9308],[13.0787,37.9316],[13.0899,37.9275],[13.0949,37.9229],[13.1016,37.9196],[13.1018,37.9115],[13.0993,37.9045],[13.0993,37.9017],[13.1128,37.9021],[13.1136,37.9034],[13.1122,37.9041],[13.113,37.905],[13.1182,37.9064],[13.1243,37.9063],[13.1336,37.9034],[13.1364,37.8986],[13.1364,37.8962],[13.1325,37.8923],[13.1269,37.8884],[13.1269,37.8877],[13.1289,37.8831],[13.1354,37.8798],[13.1359,37.8775],[13.124,37.8748],[13.1202,37.8695],[13.1135,37.8637],[13.0875,37.8776],[13.0816,37.8792],[13.0793,37.878],[13.0593,37.8584],[13.0566,37.8575],[13.0507,37.8575],[13.0488,37.8597],[13.0452,37.87],[13.0507,37.8728],[13.0531,37.8772],[13.0543,37.8873],[13.056,37.8918],[13.0577,37.9041],[13.0352,37.9027],[13.031,37.9043],[13.0302,37.9053],[13.0306,37.9069]]]}},{"type":"Feature","properties":{"i":"082020","n":"Capaci"},"geometry":{"type":"Polygon","coordinates":[[[13.2543,38.1772],[13.2499,38.1747],[13.247,38.1713],[13.2454,38.1626],[13.246,38.1562],[13.2489,38.1542],[13.2532,38.149],[13.2536,38.1466],[13.2507,38.1463],[13.2377,38.1518],[13.2323,38.1567],[13.2312,38.1602],[13.2275,38.1644],[13.2273,38.1692],[13.2238,38.1792],[13.2375,38.1863],[13.2402,38.1819],[13.2444,38.1795],[13.2499,38.1798],[13.2543,38.1772]]]}},{"type":"Feature","properties":{"i":"082021","n":"Carini"},"geometry":{"type":"Polygon","coordinates":[[[13.2238,38.1792],[13.2273,38.1692],[13.2275,38.1644],[13.2313,38.1596],[13.2278,38.1564],[13.2146,38.1511],[13.2062,38.1453],[13.2059,38.1436],[13.2111,38.1355],[13.2191,38.1262],[13.2217,38.1205],[13.2224,38.1163],[13.2212,38.1114],[13.2165,38.1102],[13.2107,38.1053],[13.2107,38.1003],[13.2068,38.1007],[13.1943,38.0992],[13.1893,38.0968],[13.1869,38.0965],[13.1765,38.1008],[13.171,38.1022],[13.168,38.099],[13.1593,38.0987],[13.1536,38.0957],[13.1485,38.0877],[13.1484,38.0817],[13.1409,38.078],[13.1349,38.0765],[13.1062,38.0825],[13.1072,38.084],[13.1086,38.0898],[13.1029,38.097],[13.0991,38.1063],[13.0976,38.1129],[13.0878,38.1228],[13.0809,38.1259],[13.0802,38.128],[13.0809,38.13],[13.084,38.1317],[13.0991,38.1282],[13.102,38.1297],[13.1056,38.1342],[13.1106,38.131],[13.114,38.1298],[13.1206,38.1248],[13.1285,38.116],[13.1471,38.1137],[13.1501,38.1184],[13.1467,38.1304],[13.1466,38.1426],[13.1443,38.1503],[13.1418,38.1537],[13.1396,38.1549],[13.1364,38.162],[13.1371,38.1713],[13.1422,38.1842],[13.15,38.1864],[13.1541,38.1867],[13.1602,38.1857],[13.1621,38.1838],[13.1612,38.1824],[13.161,38.1791],[13.1618,38.1727],[13.1628,38.1713],[13.1761,38.169],[13.1893,38.1691],[13.1945,38.17],[13.2064,38.1738],[13.2132,38.1746],[13.2238,38.1792]]]}},{"type":"Feature","properties":{"i":"082022","n":"Castelbuono"},"geometry":{"type":"Polygon","coordinates":[[[14.1534,37.9667],[14.1547,37.9662],[14.1548,37.9639],[14.1493,37.9566],[14.1426,37.9505],[14.1397,37.9464],[14.1398,37.9454],[14.1412,37.9452],[14.1467,37.9366],[14.1468,37.9273],[14.145,37.9214],[14.1389,37.9195],[14.1317,37.9125],[14.1297,37.908],[14.1265,37.9041],[14.1234,37.9044],[14.0894,37.8961],[14.0861,37.8911],[14.0856,37.8873],[14.0864,37.8846],[14.0931,37.8804],[14.0863,37.8755],[14.082,37.8759],[14.0754,37.8806],[14.0743,37.8851],[14.0755,37.8863],[14.0757,37.889],[14.072,37.8933],[14.06,37.899],[14.0549,37.9023],[14.0505,37.9063],[14.0473,37.9113],[14.0439,37.9226],[14.0424,37.9247],[14.047,37.9282],[14.053,37.9314],[14.0596,37.9368],[14.0507,37.9469],[14.0507,37.9489],[14.0605,37.9566],[14.0663,37.9588],[14.0688,37.9577],[14.0748,37.9587],[14.0782,37.9658],[14.0772,37.974],[14.0778,37.976],[14.0791,37.9785],[14.0845,37.9849],[14.0896,37.9867],[14.0941,37.9872],[14.0973,37.9792],[14.0974,37.9744],[14.095,37.9703],[14.0898,37.9678],[14.0897,37.9662],[14.1065,37.9586],[14.1075,37.9567],[14.1145,37.9568],[14.1235,37.9616],[14.1358,37.9664],[14.1418,37.9672],[14.1449,37.9662],[14.1534,37.9667]]]}},{"type":"Feature","properties":{"i":"082023","n":"Casteldaccia"},"geometry":{"type":"Polygon","coordinates":[[[13.5511,38.0519],[13.5473,38.0494],[13.5437,38.0423],[13.5426,38.0348],[13.5382,38.0305],[13.529,38.0251],[13.5305,38.0212],[13.5323,38.0186],[13.5393,38.0153],[13.5447,38.0173],[13.5452,38.0218],[13.5524,38.0273],[13.5533,38.0253],[13.5513,38.0148],[13.5521,38.0051],[13.5538,37.9998],[13.5628,37.989],[13.5696,37.9857],[13.5769,37.9896],[13.5811,37.9961],[13.5839,37.9964],[13.5856,37.9824],[13.5953,37.9707],[13.5994,37.964],[13.5996,37.9609],[13.5949,37.9661],[13.5892,37.9696],[13.5755,37.9619],[13.567,37.9561],[13.5592,37.9633],[13.5601,37.9669],[13.5495,37.9806],[13.5448,37.9919],[13.5402,37.9989],[13.5301,37.9964],[13.5266,37.9963],[13.5184,38.0004],[13.5139,38.0068],[13.5142,38.008],[13.5132,38.0086],[13.5069,38.0051],[13.5056,38.0034],[13.5014,38.0019],[13.4877,38.0119],[13.4871,38.0135],[13.4899,38.0209],[13.493,38.0193],[13.4979,38.0198],[13.5022,38.0221],[13.5036,38.024],[13.5036,38.0301],[13.5084,38.0398],[13.515,38.0453],[13.5195,38.0478],[13.5283,38.0559],[13.5295,38.0587],[13.533,38.0621],[13.538,38.0647],[13.5409,38.0579],[13.5511,38.0519]]]}},{"type":"Feature","properties":{"i":"082024","n":"Castellana Sicula"},"geometry":{"type":"Polygon","coordinates":[[[13.9033,37.6305],[13.9032,37.634],[13.8992,37.6476],[13.9018,37.6513],[13.9045,37.6575],[13.9012,37.6585],[13.8952,37.6584],[13.8934,37.6592],[13.8885,37.6636],[13.8868,37.6698],[13.8844,37.6705],[13.8863,37.6787],[13.8961,37.6892],[13.9003,37.692],[13.9088,37.6895],[13.9073,37.6808],[13.9086,37.68],[13.9281,37.6796],[13.9288,37.6826],[13.9342,37.685],[13.942,37.6818],[13.9466,37.6817],[13.957,37.6845],[13.9594,37.6858],[13.9626,37.6919],[13.9612,37.6983],[13.9631,37.7051],[13.9656,37.7104],[13.9741,37.7138],[13.9791,37.714],[13.9888,37.7165],[13.9989,37.7226],[14.0167,37.7303],[14.0208,37.7346],[14.024,37.735],[14.0278,37.7332],[14.0292,37.7349],[14.0319,37.7431],[14.0275,37.758],[14.0222,37.7627],[14.0124,37.7674],[14.0072,37.7687],[14.0043,37.7693],[13.9997,37.7672],[13.9986,37.764],[14.0018,37.762],[13.9988,37.7571],[13.9952,37.7564],[13.9897,37.7445],[13.979,37.7435],[13.9633,37.7473],[13.9736,37.7556],[13.984,37.7592],[13.9883,37.7591],[13.9904,37.7609],[13.9923,37.7683],[13.991,37.7705],[13.9929,37.7766],[14.0065,37.7762],[14.0113,37.7772],[14.0197,37.7836],[14.0223,37.7881],[14.0221,37.7889],[14.0197,37.7927],[14.0175,37.7941],[14.016,37.7964],[14.0164,37.8006],[14.0198,37.8082],[14.0222,37.8105],[14.027,37.8102],[14.0298,37.8115],[14.0334,37.8172],[14.0398,37.8323],[14.0438,37.8339],[14.0446,37.8395],[14.0511,37.8396],[14.0543,37.8385],[14.0538,37.8364],[14.0504,37.8311],[14.0509,37.8233],[14.0593,37.8062],[14.0625,37.8059],[14.0662,37.8018],[14.0659,37.7977],[14.064,37.7863],[14.0557,37.7762],[14.0484,37.769],[14.0447,37.7565],[14.0415,37.738],[14.0329,37.7309],[14.0279,37.7237],[14.027,37.7209],[14.0159,37.7196],[14.0131,37.7182],[14.0086,37.7144],[14.0035,37.7055],[14.0044,37.6997],[14.0074,37.698],[14.0079,37.6962],[14.0028,37.6915],[13.976,37.6932],[13.9722,37.6673],[13.9707,37.6624],[13.9627,37.6567],[13.9613,37.6565],[13.9569,37.6567],[13.9406,37.6628],[13.9359,37.6631],[13.9327,37.6621],[13.9285,37.656],[13.9296,37.65],[13.9264,37.6437],[13.921,37.6445],[13.9162,37.6462],[13.9093,37.6465],[13.9075,37.6464],[13.903,37.6435],[13.9062,37.6301],[13.9033,37.6305]]]}},{"type":"Feature","properties":{"i":"082025","n":"Castronovo di Sicilia"},"geometry":{"type":"Polygon","coordinates":[[[13.743,37.7121],[13.7437,37.7021],[13.7446,37.6989],[13.7437,37.6962],[13.7422,37.6927],[13.7325,37.6829],[13.7302,37.6852],[13.7234,37.6846],[13.7105,37.6871],[13.6955,37.6949],[13.6914,37.6947],[13.6788,37.6922],[13.6721,37.6888],[13.6742,37.6843],[13.6742,37.6821],[13.6721,37.6749],[13.6693,37.6698],[13.6592,37.6626],[13.6512,37.6584],[13.6226,37.6562],[13.6015,37.6559],[13.5876,37.6505],[13.5865,37.647],[13.579,37.6403],[13.5768,37.6388],[13.5691,37.6359],[13.5637,37.6355],[13.549,37.639],[13.5411,37.6384],[13.5365,37.6371],[13.525,37.6386],[13.5164,37.6424],[13.5113,37.6466],[13.5105,37.6481],[13.5115,37.6534],[13.5079,37.6588],[13.469,37.6496],[13.4637,37.6466],[13.4603,37.6571],[13.4571,37.6604],[13.4536,37.6605],[13.4636,37.669],[13.4643,37.6718],[13.4614,37.6767],[13.4677,37.683],[13.4758,37.6868],[13.4961,37.6939],[13.4962,37.6991],[13.4908,37.7057],[13.4899,37.7112],[13.4805,37.7177],[13.4962,37.7422],[13.5015,37.7421],[13.509,37.7393],[13.5268,37.7294],[13.5304,37.7301],[13.5404,37.7461],[13.5416,37.7469],[13.5503,37.744],[13.5633,37.7304],[13.5684,37.7292],[13.5714,37.7309],[13.5793,37.7329],[13.582,37.7304],[13.5855,37.7248],[13.5883,37.715],[13.5914,37.7082],[13.5934,37.7067],[13.597,37.7063],[13.6137,37.7107],[13.6183,37.7246],[13.6229,37.7311],[13.633,37.7265],[13.634,37.7266],[13.636,37.7305],[13.6359,37.7342],[13.6367,37.7357],[13.6632,37.7439],[13.6667,37.7523],[13.6641,37.7567],[13.6639,37.7594],[13.6656,37.7634],[13.6685,37.7668],[13.6656,37.7689],[13.6662,37.7727],[13.6846,37.7683],[13.697,37.768],[13.6993,37.7666],[13.7104,37.7568],[13.7173,37.7495],[13.7167,37.7457],[13.7185,37.74],[13.72,37.7373],[13.7233,37.7347],[13.7247,37.7315],[13.7244,37.7231],[13.7273,37.7209],[13.7322,37.7216],[13.743,37.7121]]]}},{"type":"Feature","properties":{"i":"082026","n":"Cefalà Diana"},"geometry":{"type":"Polygon","coordinates":[[[13.4846,37.8962],[13.4781,37.894],[13.4731,37.8935],[13.4676,37.8965],[13.4654,37.9006],[13.4614,37.9049],[13.4591,37.9056],[13.4536,37.9047],[13.4457,37.9066],[13.4466,37.9186],[13.4479,37.9241],[13.4528,37.9283],[13.4621,37.9287],[13.4689,37.9298],[13.4718,37.931],[13.4743,37.9285],[13.4798,37.9133],[13.4805,37.9063],[13.4846,37.8962]]]}},{"type":"Feature","properties":{"i":"082027","n":"Cefalù"},"geometry":{"type":"Polygon","coordinates":[[[14.1035,38.0156],[14.0765,38.0021],[14.0695,37.9962],[14.0676,37.9901],[14.0636,37.9872],[14.0589,37.987],[14.0577,37.9861],[14.0569,37.9822],[14.0775,37.9688],[14.0782,37.9658],[14.0748,37.9587],[14.0688,37.9577],[14.0663,37.9588],[14.0605,37.9566],[14.0508,37.9491],[14.0507,37.9469],[14.0378,37.9477],[14.0259,37.9513],[14.0222,37.9532],[14.0167,37.9514],[14.0121,37.9618],[14.0122,37.966],[14.0152,37.9746],[14.0157,37.9884],[14.0149,37.9921],[14.0128,37.9948],[13.9888,38.0041],[13.9783,38.0114],[13.9657,38.0087],[13.9524,38.002],[13.9485,38.0029],[13.9423,38.0055],[13.9378,38.0086],[13.9394,38.0134],[13.9372,38.0185],[13.9336,38.0214],[13.9456,38.0286],[13.9542,38.0296],[13.9574,38.0288],[13.9635,38.0298],[13.9669,38.0315],[13.9672,38.0327],[13.9716,38.0338],[13.9772,38.0317],[13.9784,38.0299],[13.9818,38.0293],[13.9884,38.0301],[13.9956,38.0325],[14.0061,38.0324],[14.0176,38.0367],[14.0195,38.038],[14.0195,38.04],[14.0228,38.0413],[14.0323,38.0401],[14.0322,38.0382],[14.0391,38.0325],[14.0505,38.0268],[14.0624,38.0191],[14.0687,38.0184],[14.0831,38.0192],[14.0949,38.0177],[14.1035,38.0156]]]}},{"type":"Feature","properties":{"i":"082028","n":"Cerda"},"geometry":{"type":"Polygon","coordinates":[[[13.8633,37.8888],[13.8678,37.8799],[13.8683,37.8775],[13.8673,37.8727],[13.8658,37.8708],[13.8596,37.8704],[13.8511,37.8676],[13.8436,37.8708],[13.8334,37.8685],[13.8219,37.8676],[13.8178,37.8666],[13.8139,37.8638],[13.8149,37.8592],[13.7977,37.8622],[13.7867,37.8698],[13.762,37.8789],[13.7604,37.8813],[13.7603,37.8855],[13.7617,37.8894],[13.7705,37.8897],[13.779,37.8871],[13.7828,37.8873],[13.7856,37.8929],[13.7855,37.8957],[13.7887,37.9006],[13.7975,37.9035],[13.818,37.914],[13.8184,37.9206],[13.8247,37.9295],[13.8328,37.9366],[13.8368,37.9389],[13.839,37.9391],[13.843,37.9424],[13.849,37.937],[13.8568,37.92],[13.8576,37.9167],[13.8572,37.9113],[13.8603,37.8934],[13.8633,37.8888]]]}},{"type":"Feature","properties":{"i":"082029","n":"Chiusa Sclafani"},"geometry":{"type":"Polygon","coordinates":[[[13.3367,37.7156],[13.3409,37.7143],[13.3485,37.7152],[13.3573,37.7121],[13.3582,37.7081],[13.3553,37.7012],[13.3587,37.6959],[13.3634,37.6916],[13.3634,37.6899],[13.3434,37.6815],[13.3321,37.6798],[13.3291,37.6781],[13.3253,37.6682],[13.3257,37.6642],[13.3278,37.6624],[13.3253,37.6595],[13.3221,37.6527],[13.3216,37.6498],[13.3157,37.6449],[13.3089,37.6419],[13.2997,37.6396],[13.292,37.6406],[13.2919,37.6417],[13.2899,37.6426],[13.2771,37.647],[13.2737,37.6449],[13.2689,37.6417],[13.2655,37.6372],[13.2563,37.6215],[13.2523,37.6118],[13.2499,37.6122],[13.2485,37.6143],[13.2463,37.621],[13.2445,37.6211],[13.2438,37.6241],[13.2387,37.6291],[13.2361,37.6338],[13.2325,37.6461],[13.2341,37.6524],[13.2411,37.6647],[13.2574,37.6753],[13.2588,37.6771],[13.2587,37.6803],[13.2552,37.6862],[13.2558,37.687],[13.2654,37.6905],[13.2721,37.6915],[13.295,37.6867],[13.2995,37.685],[13.3046,37.6811],[13.3103,37.6823],[13.312,37.6834],[13.3122,37.6858],[13.3107,37.6906],[13.3067,37.6936],[13.3036,37.6924],[13.3004,37.6936],[13.2949,37.6988],[13.2945,37.7103],[13.3,37.7094],[13.321,37.7128],[13.3255,37.717],[13.3309,37.7179],[13.3334,37.7174],[13.3367,37.7156]]]}},{"type":"Feature","properties":{"i":"082030","n":"Ciminna"},"geometry":{"type":"Polygon","coordinates":[[[13.5896,37.9033],[13.6082,37.9025],[13.6132,37.8832],[13.6084,37.871],[13.6001,37.8668],[13.5938,37.8552],[13.5916,37.8501],[13.5919,37.8487],[13.5903,37.847],[13.5867,37.8489],[13.571,37.8441],[13.5586,37.8446],[13.551,37.8441],[13.542,37.8388],[13.5408,37.8398],[13.5359,37.8366],[13.5329,37.8405],[13.5288,37.844],[13.5238,37.8467],[13.511,37.8591],[13.5094,37.863],[13.5105,37.8638],[13.4955,37.8808],[13.5012,37.8893],[13.5067,37.8933],[13.5105,37.8929],[13.5323,37.8948],[13.5353,37.8958],[13.5389,37.9044],[13.5394,37.9103],[13.554,37.9196],[13.5541,37.9244],[13.5582,37.9173],[13.5592,37.9133],[13.5594,37.9078],[13.5704,37.9068],[13.5855,37.9035],[13.5896,37.9033]]]}},{"type":"Feature","properties":{"i":"082031","n":"Cinisi"},"geometry":{"type":"Polygon","coordinates":[[[13.1422,38.1842],[13.1371,38.1713],[13.1364,38.162],[13.1396,38.1549],[13.1418,38.1537],[13.1443,38.1503],[13.1466,38.1426],[13.1467,38.1304],[13.1501,38.1184],[13.1479,38.1142],[13.1462,38.1137],[13.1285,38.116],[13.1206,38.1248],[13.114,38.1298],[13.1106,38.131],[13.1056,38.1342],[13.0909,38.1468],[13.086,38.1523],[13.0863,38.1541],[13.0825,38.1572],[13.0846,38.1602],[13.0851,38.164],[13.0788,38.1738],[13.0855,38.1775],[13.0951,38.1848],[13.1084,38.1916],[13.122,38.1915],[13.1349,38.1865],[13.1359,38.1849],[13.138,38.1838],[13.1422,38.1842]]]}},{"type":"Feature","properties":{"i":"082032","n":"Collesano"},"geometry":{"type":"Polygon","coordinates":[[[13.9371,37.9798],[13.937,37.977],[13.9449,37.9621],[13.9515,37.9534],[13.9537,37.946],[13.952,37.9432],[13.9524,37.9424],[13.9588,37.9401],[13.9703,37.9392],[13.9755,37.9368],[13.9731,37.9341],[13.97,37.9276],[13.9703,37.9252],[13.9676,37.9159],[13.9626,37.9086],[13.9624,37.9071],[13.9649,37.8988],[13.9711,37.8886],[13.9641,37.8844],[13.9542,37.8763],[13.949,37.8752],[13.9404,37.876],[13.9329,37.8784],[13.9321,37.8827],[13.9189,37.8844],[13.8992,37.8826],[13.8869,37.8838],[13.8844,37.8862],[13.8749,37.8889],[13.8679,37.8879],[13.8633,37.8888],[13.8603,37.8934],[13.8572,37.9113],[13.8576,37.9167],[13.8566,37.9206],[13.849,37.937],[13.8358,37.9498],[13.8324,37.9552],[13.8265,37.9684],[13.8265,37.9703],[13.835,37.9681],[13.843,37.9674],[13.8575,37.9773],[13.87,37.9791],[13.8829,37.9848],[13.8854,37.9853],[13.8912,37.9844],[13.9045,37.9871],[13.9161,37.9916],[13.9239,37.9913],[13.9301,37.9857],[13.9332,37.9808],[13.9346,37.9798],[13.9371,37.9798]]]}},{"type":"Feature","properties":{"i":"082033","n":"Contessa Entellina"},"geometry":{"type":"Polygon","coordinates":[[[13.1865,37.7808],[13.1931,37.7818],[13.2195,37.7831],[13.2263,37.78],[13.2321,37.7725],[13.2355,37.7629],[13.2369,37.7612],[13.2267,37.7581],[13.2174,37.7596],[13.2132,37.7587],[13.2131,37.7536],[13.2109,37.7516],[13.2087,37.751],[13.2034,37.7521],[13.1943,37.7519],[13.1876,37.7484],[13.1838,37.7448],[13.1833,37.7435],[13.1839,37.741],[13.1899,37.7354],[13.1948,37.7239],[13.2017,37.7226],[13.2048,37.7252],[13.2085,37.7267],[13.2188,37.7262],[13.2223,37.7255],[13.2249,37.724],[13.2277,37.7218],[13.2296,37.718],[13.2225,37.7068],[13.2097,37.7073],[13.2038,37.7068],[13.1994,37.6976],[13.1952,37.6929],[13.1927,37.6918],[13.1714,37.6917],[13.1618,37.6895],[13.1596,37.6874],[13.1483,37.6873],[13.144,37.689],[13.1262,37.7007],[13.1236,37.7015],[13.1108,37.6987],[13.1002,37.694],[13.0828,37.6937],[13.0796,37.6924],[13.0794,37.6902],[13.0639,37.7019],[13.0542,37.7069],[13.0467,37.712],[13.0412,37.721],[13.0352,37.7278],[13.034,37.7337],[13.0266,37.7395],[13.0206,37.7417],[13.0121,37.7426],[13.0143,37.7485],[13.0203,37.7512],[13.0279,37.7541],[13.0302,37.7526],[13.0394,37.7533],[13.0425,37.7545],[13.0467,37.757],[13.0488,37.7597],[13.0501,37.7638],[13.0524,37.765],[13.0547,37.7645],[13.058,37.7579],[13.0623,37.757],[13.0754,37.7629],[13.0814,37.7672],[13.0987,37.77],[13.1001,37.771],[13.0975,37.7752],[13.0941,37.7775],[13.0982,37.7785],[13.0989,37.7829],[13.0978,37.784],[13.0995,37.7869],[13.1148,37.7932],[13.1243,37.7936],[13.1333,37.7847],[13.1406,37.7789],[13.147,37.7761],[13.154,37.7736],[13.1673,37.7727],[13.1756,37.7689],[13.1808,37.7695],[13.1843,37.7735],[13.1865,37.7808]]]}},{"type":"Feature","properties":{"i":"082034","n":"Corleone"},"geometry":{"type":"MultiPolygon","coordinates":[[[[13.3946,37.8554],[13.3934,37.8515],[13.3868,37.8408],[13.3767,37.8274],[13.3823,37.8223],[13.3924,37.8153],[13.4039,37.8129],[13.4234,37.8205],[13.4281,37.8185],[13.4299,37.8187],[13.4341,37.8223],[13.4481,37.8397],[13.4531,37.836],[13.4559,37.8282],[13.4612,37.8253],[13.4621,37.8234],[13.458,37.8176],[13.4526,37.8064],[13.4516,37.8033],[13.4516,37.7992],[13.4499,37.8009],[13.4459,37.799],[13.4445,37.7858],[13.4468,37.7707],[13.4414,37.7594],[13.4373,37.7579],[13.4329,37.7639],[13.4262,37.7834],[13.4293,37.7828],[13.4297,37.7834],[13.4286,37.7882],[13.4245,37.7894],[13.417,37.7883],[13.4071,37.7913],[13.3988,37.7966],[13.391,37.8114],[13.387,37.8069],[13.3866,37.8005],[13.3921,37.7924],[13.39,37.7837],[13.3913,37.7777],[13.3936,37.7763],[13.3976,37.7754],[13.4022,37.7761],[13.4045,37.7757],[13.4098,37.7719],[13.4115,37.7693],[13.412,37.7661],[13.412,37.7565],[13.4105,37.753],[13.3902,37.7442],[13.3759,37.7412],[13.3625,37.7437],[13.3488,37.7378],[13.344,37.7366],[13.3408,37.7367],[13.3385,37.7277],[13.3401,37.7237],[13.3367,37.7156],[13.3334,37.7174],[13.3309,37.7179],[13.3255,37.717],[13.321,37.7128],[13.3108,37.7108],[13.3,37.7094],[13.2945,37.7103],[13.2822,37.717],[13.2738,37.723],[13.2789,37.7266],[13.2829,37.7317],[13.2744,37.7381],[13.2744,37.7422],[13.2806,37.7415],[13.2889,37.7485],[13.2945,37.7544],[13.2931,37.7669],[13.2935,37.7707],[13.2894,37.7782],[13.2743,37.7853],[13.2628,37.7848],[13.2538,37.7815],[13.2494,37.7762],[13.2397,37.7709],[13.2372,37.7673],[13.2395,37.7645],[13.2369,37.7612],[13.2355,37.7629],[13.2321,37.7725],[13.2263,37.78],[13.2195,37.7831],[13.1931,37.7818],[13.1963,37.7885],[13.1991,37.7975],[13.2033,37.8017],[13.2033,37.8042],[13.1981,37.811],[13.1938,37.8129],[13.1864,37.8139],[13.1805,37.8133],[13.1785,37.8155],[13.1798,37.8189],[13.1859,37.8258],[13.1893,37.8267],[13.1946,37.825],[13.208,37.8328],[13.1969,37.8384],[13.1963,37.8413],[13.1969,37.8445],[13.1983,37.846],[13.2137,37.8423],[13.217,37.8444],[13.2365,37.8612],[13.2522,37.8626],[13.261,37.8682],[13.2648,37.8718],[13.2762,37.8736],[13.2856,37.8769],[13.2929,37.8773],[13.3002,37.8744],[13.3056,37.8744],[13.3096,37.8758],[13.3118,37.8794],[13.3152,37.8793],[13.3179,37.8757],[13.3185,37.8724],[13.3169,37.8635],[13.3115,37.8589],[13.3081,37.8533],[13.3065,37.8497],[13.3067,37.8469],[13.3123,37.846],[13.3231,37.8476],[13.3262,37.8471],[13.3484,37.8386],[13.3502,37.8384],[13.3541,37.8408],[13.3552,37.8419],[13.3576,37.8495],[13.3632,37.8557],[13.3684,37.8593],[13.3946,37.8554]]],[[[13.3775,37.8844],[13.3793,37.8822],[13.3788,37.8813],[13.3767,37.8816],[13.376,37.8843],[13.3775,37.8844]]]]}},{"type":"Feature","properties":{"i":"082035","n":"Ficarazzi"},"geometry":{"type":"Polygon","coordinates":[[[13.4765,38.0859],[13.4712,38.0864],[13.4538,38.0803],[13.4513,38.0816],[13.4522,38.086],[13.4509,38.0953],[13.4722,38.0979],[13.4809,38.1],[13.4803,38.0955],[13.4759,38.088],[13.4765,38.0859]]]}},{"type":"Feature","properties":{"i":"082036","n":"Gangi"},"geometry":{"type":"Polygon","coordinates":[[[14.263,37.8192],[14.2667,37.8165],[14.2688,37.8111],[14.2684,37.8068],[14.2722,37.8006],[14.2655,37.7999],[14.2627,37.7969],[14.2618,37.792],[14.2681,37.7915],[14.2702,37.7899],[14.269,37.7769],[14.2697,37.7753],[14.2748,37.7721],[14.2823,37.769],[14.2873,37.7654],[14.2899,37.7605],[14.2906,37.7507],[14.295,37.7463],[14.2943,37.7448],[14.2818,37.7267],[14.2793,37.7241],[14.2728,37.7213],[14.2701,37.7128],[14.2693,37.7074],[14.2671,37.7041],[14.2616,37.6989],[14.2547,37.6956],[14.249,37.6945],[14.2411,37.6957],[14.2389,37.6908],[14.2347,37.6905],[14.2251,37.6857],[14.2186,37.6808],[14.2165,37.6777],[14.2024,37.6788],[14.1937,37.6748],[14.1919,37.675],[14.1892,37.6739],[14.1843,37.6699],[14.183,37.6705],[14.1784,37.6736],[14.1757,37.6767],[14.1801,37.6812],[14.1806,37.6901],[14.1832,37.6924],[14.1896,37.702],[14.191,37.7119],[14.1948,37.7262],[14.1932,37.7332],[14.1927,37.734],[14.1806,37.7389],[14.1715,37.7398],[14.1646,37.735],[14.1556,37.7367],[14.1564,37.742],[14.1534,37.749],[14.1613,37.7576],[14.169,37.7605],[14.1757,37.7608],[14.1782,37.7671],[14.1791,37.7707],[14.1773,37.7733],[14.178,37.7902],[14.1748,37.7918],[14.1716,37.7976],[14.1715,37.8027],[14.1867,37.8174],[14.1948,37.8186],[14.2048,37.8179],[14.2124,37.8195],[14.2173,37.8237],[14.2172,37.8251],[14.2203,37.8271],[14.227,37.8261],[14.2318,37.8238],[14.2326,37.8201],[14.2306,37.818],[14.231,37.8174],[14.2367,37.8162],[14.2525,37.8153],[14.2618,37.8179],[14.263,37.8192]]]}},{"type":"Feature","properties":{"i":"082037","n":"Geraci Siculo"},"geometry":{"type":"Polygon","coordinates":[[[14.2733,37.847],[14.2799,37.8401],[14.2671,37.8327],[14.2637,37.8282],[14.2625,37.8216],[14.263,37.8192],[14.2618,37.8179],[14.2525,37.8153],[14.2367,37.8162],[14.231,37.8174],[14.2306,37.818],[14.2326,37.8201],[14.2321,37.8236],[14.227,37.8261],[14.2203,37.8271],[14.2172,37.8251],[14.2173,37.8237],[14.2124,37.8195],[14.2048,37.8179],[14.1948,37.8186],[14.1862,37.817],[14.1715,37.8027],[14.1716,37.7976],[14.1748,37.7918],[14.178,37.7902],[14.1773,37.7733],[14.1791,37.7707],[14.1761,37.7615],[14.1687,37.7728],[14.1637,37.778],[14.1553,37.7785],[14.1498,37.7809],[14.1486,37.7833],[14.1479,37.7856],[14.1483,37.7892],[14.1526,37.7961],[14.1556,37.8047],[14.1553,37.8128],[14.1532,37.8183],[14.1444,37.8233],[14.1378,37.8294],[14.1321,37.8311],[14.1243,37.8348],[14.1154,37.8412],[14.1102,37.8591],[14.1108,37.8601],[14.1078,37.8605],[14.1,37.8598],[14.098,37.8616],[14.0968,37.8676],[14.0976,37.8714],[14.0975,37.8786],[14.0864,37.8846],[14.0856,37.8873],[14.0861,37.8911],[14.0902,37.8966],[14.1234,37.9044],[14.1265,37.9041],[14.1297,37.908],[14.1317,37.9125],[14.1389,37.9195],[14.145,37.9214],[14.1458,37.9179],[14.1485,37.9129],[14.153,37.908],[14.1602,37.9043],[14.1686,37.8941],[14.181,37.8842],[14.1965,37.8751],[14.2016,37.8734],[14.2076,37.876],[14.2203,37.8779],[14.2311,37.8759],[14.234,37.8716],[14.2344,37.8693],[14.2312,37.8589],[14.2385,37.8536],[14.2417,37.8521],[14.2511,37.8523],[14.2667,37.8475],[14.2733,37.847]]]}},{"type":"Feature","properties":{"i":"082038","n":"Giardinello"},"geometry":{"type":"Polygon","coordinates":[[[13.168,38.099],[13.1635,38.0949],[13.1606,38.091],[13.1612,38.0849],[13.165,38.08],[13.1676,38.0788],[13.1734,38.0795],[13.176,38.0777],[13.1768,38.0755],[13.179,38.0738],[13.1817,38.0734],[13.1962,38.0744],[13.1987,38.0758],[13.2013,38.0725],[13.2005,38.072],[13.2017,38.0713],[13.209,38.0704],[13.214,38.0728],[13.2181,38.0773],[13.2195,38.0812],[13.2195,38.0865],[13.2224,38.0854],[13.2271,38.0804],[13.2232,38.073],[13.2134,38.062],[13.2002,38.0544],[13.197,38.0491],[13.1931,38.0496],[13.1863,38.052],[13.1733,38.0613],[13.1725,38.0707],[13.1708,38.0726],[13.1665,38.0742],[13.1578,38.0754],[13.155,38.0756],[13.1522,38.0741],[13.1493,38.0738],[13.1479,38.0748],[13.1349,38.0765],[13.1409,38.078],[13.1484,38.0817],[13.1485,38.0877],[13.1536,38.0957],[13.1593,38.0987],[13.168,38.099]]]}},{"type":"Feature","properties":{"i":"082039","n":"Giuliana"},"geometry":{"type":"Polygon","coordinates":[[[13.2225,37.7068],[13.2222,37.7031],[13.2233,37.6994],[13.2293,37.6915],[13.2327,37.6895],[13.2476,37.6865],[13.2552,37.6862],[13.2591,37.6789],[13.2574,37.6753],[13.2411,37.6647],[13.2341,37.6524],[13.2325,37.6461],[13.2361,37.6338],[13.2387,37.6291],[13.2438,37.6241],[13.2445,37.6211],[13.2333,37.6278],[13.226,37.6305],[13.2164,37.6371],[13.212,37.6414],[13.2091,37.6465],[13.2109,37.6503],[13.215,37.6702],[13.2139,37.674],[13.2113,37.6754],[13.2045,37.6769],[13.193,37.6833],[13.1878,37.6916],[13.1927,37.6918],[13.1952,37.6929],[13.1994,37.6976],[13.2038,37.7068],[13.2097,37.7073],[13.2225,37.7068]]]}},{"type":"Feature","properties":{"i":"082040","n":"Godrano"},"geometry":{"type":"Polygon","coordinates":[[[13.4481,37.8397],[13.4341,37.8223],[13.4299,37.8187],[13.4281,37.8185],[13.4234,37.8205],[13.4039,37.8129],[13.3924,37.8153],[13.3823,37.8223],[13.3767,37.8274],[13.3868,37.8408],[13.3934,37.8515],[13.3946,37.8554],[13.3966,37.8555],[13.3983,37.857],[13.3965,37.8696],[13.3935,37.8757],[13.3933,37.8821],[13.4033,37.8966],[13.4137,37.9086],[13.4198,37.906],[13.4285,37.9054],[13.4277,37.9079],[13.4334,37.9098],[13.4358,37.907],[13.432,37.9052],[13.4337,37.9038],[13.4376,37.9034],[13.4401,37.9014],[13.4409,37.8956],[13.4402,37.8942],[13.4378,37.8921],[13.4292,37.889],[13.4315,37.8827],[13.434,37.8788],[13.4369,37.876],[13.4379,37.8716],[13.4324,37.8649],[13.4457,37.8417],[13.4481,37.8397]]]}},{"type":"Feature","properties":{"i":"082041","n":"Gratteri"},"geometry":{"type":"Polygon","coordinates":[[[14.0167,37.9514],[14.0097,37.9534],[14.0013,37.9527],[13.9898,37.9485],[13.9783,37.9365],[13.9764,37.9365],[13.9703,37.9392],[13.9588,37.9401],[13.9544,37.9416],[13.9521,37.9429],[13.9537,37.946],[13.9515,37.9534],[13.9449,37.9621],[13.937,37.977],[13.9371,37.9798],[13.9411,37.9858],[13.9552,37.9842],[13.962,37.9869],[13.9584,37.9901],[13.9528,37.9971],[13.9524,38.002],[13.9657,38.0087],[13.9783,38.0114],[13.9888,38.0041],[14.007,37.9975],[14.0128,37.9948],[14.0145,37.993],[14.0157,37.9889],[14.0152,37.9746],[14.0122,37.966],[14.012,37.9631],[14.0122,37.9612],[14.0167,37.9514]]]}},{"type":"Feature","properties":{"i":"082042","n":"Isnello"},"geometry":{"type":"Polygon","coordinates":[[[14.0167,37.9514],[14.0222,37.9532],[14.0259,37.9513],[14.0378,37.9477],[14.0507,37.9469],[14.0596,37.9368],[14.053,37.9314],[14.047,37.9282],[14.0424,37.9247],[14.0439,37.9226],[14.0473,37.9113],[14.0441,37.9054],[14.0421,37.9032],[14.0271,37.8957],[14.0214,37.8897],[14.0212,37.8837],[14.0183,37.8772],[14.0143,37.8735],[14.016,37.8705],[14.019,37.8693],[14.0054,37.8682],[14.0025,37.8704],[13.9997,37.8742],[13.9956,37.8764],[13.9878,37.8773],[13.9794,37.8762],[13.9739,37.8801],[13.9711,37.8886],[13.9649,37.8988],[13.9624,37.9071],[13.9626,37.9086],[13.9676,37.9159],[13.9703,37.9252],[13.97,37.9276],[13.9731,37.9341],[13.9755,37.9368],[13.979,37.9368],[13.9898,37.9485],[14.0013,37.9527],[14.0097,37.9534],[14.0167,37.9514]]]}},{"type":"Feature","properties":{"i":"082043","n":"Isola delle Femmine"},"geometry":{"type":"MultiPolygon","coordinates":[[[[13.2586,38.2012],[13.2572,38.1942],[13.2587,38.19],[13.2573,38.1822],[13.2543,38.1772],[13.2499,38.1798],[13.2444,38.1795],[13.2402,38.1819],[13.2375,38.1863],[13.244,38.1932],[13.2418,38.2003],[13.2467,38.2],[13.248,38.199],[13.2522,38.1989],[13.255,38.1994],[13.2586,38.2012]]],[[[13.2365,38.2124],[13.2376,38.2112],[13.2375,38.2076],[13.235,38.2083],[13.2338,38.2103],[13.2339,38.2121],[13.2365,38.2124]]]]}},{"type":"Feature","properties":{"i":"082044","n":"Lascari"},"geometry":{"type":"Polygon","coordinates":[[[13.9524,38.002],[13.9528,37.9971],[13.9584,37.9901],[13.962,37.9869],[13.9552,37.9842],[13.9411,37.9858],[13.9371,37.9798],[13.9346,37.9798],[13.9275,37.9885],[13.9239,37.9913],[13.9187,37.9916],[13.9191,37.9935],[13.9173,37.9987],[13.9157,38.0003],[13.9137,38.0068],[13.9133,38.0117],[13.9336,38.0214],[13.9372,38.0185],[13.9394,38.0134],[13.9378,38.0086],[13.9423,38.0055],[13.9524,38.002]]]}},{"type":"Feature","properties":{"i":"082045","n":"Lercara Friddi"},"geometry":{"type":"Polygon","coordinates":[[[13.6656,37.7689],[13.6685,37.7668],[13.6656,37.7634],[13.6639,37.7594],[13.6641,37.7567],[13.6667,37.7523],[13.6632,37.7439],[13.6367,37.7357],[13.6359,37.7342],[13.636,37.7305],[13.634,37.7266],[13.633,37.7265],[13.6229,37.7311],[13.6183,37.7246],[13.6137,37.7107],[13.597,37.7063],[13.5934,37.7067],[13.5914,37.7082],[13.5883,37.715],[13.5855,37.7248],[13.582,37.7304],[13.5793,37.7329],[13.5714,37.7309],[13.5684,37.7292],[13.5633,37.7304],[13.5503,37.744],[13.5445,37.7454],[13.541,37.7473],[13.5561,37.7552],[13.5641,37.7506],[13.5794,37.7338],[13.5809,37.7342],[13.581,37.7365],[13.5797,37.7408],[13.5797,37.748],[13.582,37.7535],[13.5877,37.7552],[13.5931,37.7528],[13.5999,37.7525],[13.6097,37.7573],[13.6124,37.7598],[13.6153,37.7677],[13.6204,37.776],[13.6251,37.7798],[13.6368,37.7823],[13.6359,37.7801],[13.6363,37.7759],[13.6413,37.7706],[13.6548,37.7649],[13.6623,37.7663],[13.6656,37.7677],[13.6656,37.7689]]]}},{"type":"Feature","properties":{"i":"082046","n":"Marineo"},"geometry":{"type":"Polygon","coordinates":[[[13.4433,37.953],[13.4411,37.9504],[13.4523,37.9482],[13.4523,37.9467],[13.4539,37.9455],[13.4712,37.9368],[13.4718,37.931],[13.4689,37.9298],[13.4528,37.9283],[13.4512,37.9276],[13.4479,37.9241],[13.4474,37.9226],[13.4457,37.9066],[13.4358,37.907],[13.4334,37.9098],[13.4277,37.9079],[13.4285,37.9054],[13.4213,37.9057],[13.4164,37.9071],[13.4137,37.9086],[13.4147,37.9096],[13.4151,37.9119],[13.413,37.9158],[13.413,37.9189],[13.4213,37.9264],[13.4235,37.9311],[13.4227,37.9322],[13.4142,37.9326],[13.4116,37.9344],[13.4017,37.9382],[13.3974,37.9415],[13.3991,37.9522],[13.4034,37.9603],[13.3989,37.965],[13.384,37.9569],[13.3719,37.9596],[13.3704,37.9624],[13.373,37.9663],[13.3738,37.9698],[13.3662,37.9748],[13.3622,37.9751],[13.3602,37.9785],[13.3611,37.9817],[13.3617,37.9835],[13.367,37.987],[13.3723,37.9881],[13.3793,37.9876],[13.3851,37.9859],[13.3877,37.9811],[13.3917,37.9792],[13.3966,37.9774],[13.4128,37.9748],[13.4302,37.9599],[13.441,37.9562],[13.4433,37.953]]]}},{"type":"Feature","properties":{"i":"082047","n":"Mezzojuso"},"geometry":{"type":"Polygon","coordinates":[[[13.4846,37.8962],[13.4893,37.8978],[13.4959,37.8975],[13.5015,37.8966],[13.5067,37.8933],[13.5012,37.8893],[13.4955,37.8808],[13.5105,37.8638],[13.5094,37.863],[13.511,37.8591],[13.5238,37.8467],[13.5288,37.844],[13.534,37.8391],[13.5359,37.8366],[13.5366,37.8309],[13.5262,37.826],[13.5056,37.8314],[13.5059,37.8319],[13.4999,37.8407],[13.4949,37.8414],[13.483,37.8364],[13.4723,37.8246],[13.4683,37.8259],[13.4632,37.8292],[13.4619,37.8281],[13.4612,37.8253],[13.4559,37.8282],[13.4531,37.836],[13.4457,37.8417],[13.4324,37.8649],[13.4379,37.8716],[13.4369,37.876],[13.434,37.8788],[13.4315,37.8827],[13.4292,37.889],[13.4378,37.8921],[13.4409,37.8956],[13.4399,37.9016],[13.4376,37.9034],[13.4337,37.9038],[13.432,37.9055],[13.4358,37.907],[13.4457,37.9066],[13.4536,37.9047],[13.4601,37.9054],[13.4654,37.9006],[13.4676,37.8965],[13.4731,37.8935],[13.4781,37.894],[13.4846,37.8962]]]}},{"type":"Feature","properties":{"i":"082048","n":"Misilmeri"},"geometry":{"type":"Polygon","coordinates":[[[13.4765,38.0859],[13.4757,38.0839],[13.4757,38.0792],[13.4778,38.0746],[13.4771,38.0719],[13.4759,38.0681],[13.4728,38.0647],[13.4691,38.0578],[13.4656,38.0481],[13.4651,38.0418],[13.4686,38.0364],[13.4735,38.0354],[13.4798,38.0364],[13.4873,38.0304],[13.4901,38.027],[13.4899,38.0209],[13.4871,38.0135],[13.4844,38.0092],[13.4773,38.0],[13.4729,37.9984],[13.4692,37.9956],[13.4683,37.9906],[13.4523,37.9889],[13.4498,37.9857],[13.454,37.9751],[13.4462,37.9727],[13.4416,37.9737],[13.437,37.977],[13.4358,37.9688],[13.4411,37.9637],[13.4443,37.9582],[13.4433,37.953],[13.441,37.9562],[13.4302,37.9599],[13.4128,37.9748],[13.3966,37.9774],[13.3877,37.9811],[13.3851,37.9859],[13.3793,37.9876],[13.374,37.9878],[13.3832,37.9996],[13.387,38.003],[13.3903,38.0098],[13.3894,38.0111],[13.3946,38.0187],[13.406,38.0257],[13.4143,38.0282],[13.419,38.0334],[13.4183,38.0374],[13.4141,38.0451],[13.4273,38.0529],[13.4276,38.0575],[13.4255,38.0617],[13.4343,38.0672],[13.4395,38.0648],[13.4411,38.0657],[13.4551,38.0753],[13.4538,38.0803],[13.4712,38.0864],[13.4765,38.0859]]]}},{"type":"Feature","properties":{"i":"082049","n":"Monreale"},"geometry":{"type":"Polygon","coordinates":[[[13.3179,38.0568],[13.3143,38.0602],[13.3003,38.0657],[13.3001,38.0622],[13.2954,38.0573],[13.2844,38.052],[13.2707,38.0511],[13.2699,38.0448],[13.2705,38.0383],[13.2733,38.0289],[13.2777,38.0247],[13.282,38.0234],[13.2765,38.02],[13.2762,38.0174],[13.2725,38.0114],[13.2651,38.0031],[13.257,37.9806],[13.2552,37.9705],[13.2584,37.9685],[13.2793,37.9619],[13.28,37.9596],[13.2782,37.9423],[13.2817,37.9386],[13.2854,37.9306],[13.3025,37.9245],[13.3053,37.9228],[13.3157,37.9221],[13.3219,37.9233],[13.3335,37.9144],[13.3374,37.9102],[13.3465,37.9104],[13.3496,37.9135],[13.3574,37.9128],[13.3576,37.9118],[13.3615,37.9105],[13.3681,37.9115],[13.3692,37.9141],[13.3695,37.9203],[13.3708,37.9227],[13.3736,37.925],[13.3844,37.9296],[13.3852,37.9315],[13.3915,37.9287],[13.3967,37.928],[13.4053,37.9302],[13.4116,37.9344],[13.4142,37.9326],[13.4227,37.9322],[13.4235,37.9311],[13.4213,37.9264],[13.413,37.9189],[13.413,37.9158],[13.4149,37.9132],[13.4147,37.9096],[13.4033,37.8966],[13.3933,37.8821],[13.3935,37.8757],[13.3965,37.8696],[13.3983,37.8583],[13.3973,37.8558],[13.3946,37.8554],[13.3684,37.8593],[13.3632,37.8557],[13.3576,37.8495],[13.3552,37.8419],[13.3502,37.8384],[13.3262,37.8471],[13.3231,37.8476],[13.3123,37.846],[13.3067,37.8469],[13.3065,37.8497],[13.3081,37.8533],[13.3115,37.8589],[13.3169,37.8635],[13.3185,37.8717],[13.3179,37.8757],[13.3152,37.8793],[13.3131,37.8797],[13.311,37.8789],[13.3105,37.8766],[13.3096,37.8758],[13.3056,37.8744],[13.3002,37.8744],[13.2929,37.8773],[13.2856,37.8769],[13.2762,37.8736],[13.2648,37.8718],[13.261,37.8682],[13.2522,37.8626],[13.2365,37.8612],[13.217,37.8444],[13.2137,37.8423],[13.2005,37.8452],[13.188,37.8502],[13.1832,37.8504],[13.172,37.8531],[13.1625,37.8598],[13.1539,37.8628],[13.1412,37.861],[13.1259,37.861],[13.1246,37.8601],[13.1248,37.8537],[13.1216,37.8467],[13.1238,37.8381],[13.1295,37.8293],[13.1413,37.8271],[13.1426,37.8288],[13.1467,37.8306],[13.1554,37.8303],[13.1562,37.8284],[13.1559,37.8248],[13.1527,37.8214],[13.1478,37.8128],[13.1473,37.8083],[13.1484,37.8077],[13.1455,37.8053],[13.1425,37.8034],[13.1284,37.8014],[13.1247,37.8021],[13.1234,37.7983],[13.1243,37.7936],[13.1148,37.7932],[13.0995,37.7869],[13.0978,37.784],[13.0989,37.7829],[13.0982,37.7785],[13.0941,37.7775],[13.0906,37.781],[13.0858,37.7825],[13.0841,37.7815],[13.0816,37.7823],[13.0781,37.7845],[13.075,37.7886],[13.0754,37.7921],[13.081,37.8031],[13.0879,37.8048],[13.0939,37.8081],[13.0983,37.8135],[13.0967,37.8161],[13.0915,37.8174],[13.0901,37.8161],[13.0849,37.8149],[13.0796,37.8186],[13.066,37.8151],[13.0586,37.8105],[13.0557,37.8107],[13.0513,37.8146],[13.0346,37.8157],[13.0215,37.8193],[13.0,37.821],[12.9815,37.8235],[12.9707,37.8238],[12.9684,37.8301],[12.9635,37.8359],[12.9493,37.8379],[12.9453,37.8396],[12.9445,37.844],[12.9429,37.8449],[12.9473,37.8538],[12.9521,37.856],[12.9553,37.859],[12.9586,37.8648],[12.9573,37.8675],[12.9558,37.8688],[12.9523,37.8686],[12.9507,37.8713],[12.9504,37.8773],[12.948,37.8816],[12.9365,37.8825],[12.9311,37.8853],[12.9366,37.8922],[12.9344,37.8977],[12.9386,37.9042],[12.9411,37.9059],[12.9414,37.9044],[12.946,37.9012],[12.9554,37.8974],[12.9592,37.9006],[12.9664,37.9006],[12.9675,37.8991],[12.9756,37.8988],[12.9857,37.9007],[12.9928,37.8974],[12.9976,37.9009],[12.9947,37.9076],[12.9951,37.9117],[12.9994,37.9086],[13.0004,37.9059],[13.0162,37.9011],[13.0306,37.9069],[13.0302,37.9053],[13.031,37.9043],[13.0352,37.9027],[13.0574,37.9043],[13.0575,37.9],[13.056,37.8918],[13.0543,37.8873],[13.0531,37.8772],[13.0507,37.8728],[13.0452,37.87],[13.0488,37.8597],[13.0507,37.8575],[13.0566,37.8575],[13.0593,37.8584],[13.0793,37.878],[13.0816,37.8792],[13.0875,37.8776],[13.1135,37.8637],[13.1202,37.8695],[13.124,37.8748],[13.1359,37.8775],[13.1354,37.8798],[13.1289,37.8831],[13.1269,37.8877],[13.1269,37.8884],[13.1325,37.8923],[13.1364,37.8962],[13.1364,37.8986],[13.1336,37.9034],[13.1243,37.9063],[13.1182,37.9064],[13.113,37.905],[13.1122,37.9041],[13.1136,37.9034],[13.1128,37.9021],[13.0993,37.9017],[13.0993,37.9045],[13.1018,37.9115],[13.1016,37.9196],[13.0949,37.9229],[13.0899,37.9275],[13.0782,37.9316],[13.0776,37.9278],[13.0792,37.9262],[13.0722,37.9236],[13.0594,37.9212],[13.0469,37.9174],[13.0446,37.9185],[13.0405,37.923],[13.0448,37.9332],[13.0458,37.9385],[13.0459,37.9412],[13.0421,37.9478],[13.0445,37.9552],[13.0536,37.9586],[13.0553,37.9564],[13.0627,37.9508],[13.0729,37.9469],[13.0829,37.9579],[13.0845,37.9618],[13.0789,37.9663],[13.0754,37.971],[13.0734,37.9773],[13.0753,37.9862],[13.0773,37.9898],[13.0815,37.9965],[13.0908,38.0064],[13.1093,38.0158],[13.1155,38.017],[13.1178,38.0183],[13.1204,38.0214],[13.1276,38.0179],[13.1322,38.0105],[13.1349,38.0084],[13.1378,38.0119],[13.1375,38.0149],[13.1385,38.0193],[13.1414,38.0204],[13.1539,38.0195],[13.1563,38.0188],[13.1581,38.0147],[13.1668,38.0145],[13.1737,38.0169],[13.179,38.0283],[13.1791,38.0308],[13.1775,38.0337],[13.1761,38.0349],[13.1735,38.0354],[13.1743,38.0382],[13.1763,38.0406],[13.1841,38.0445],[13.1866,38.0449],[13.1934,38.0419],[13.1941,38.0408],[13.1939,38.0384],[13.1979,38.0374],[13.1988,38.0378],[13.1995,38.0419],[13.1974,38.0493],[13.2002,38.0544],[13.2134,38.062],[13.2232,38.073],[13.2271,38.0804],[13.2224,38.0854],[13.2195,38.0865],[13.2179,38.0887],[13.2095,38.0887],[13.2022,38.0871],[13.1986,38.0853],[13.1968,38.0857],[13.1916,38.0883],[13.1916,38.0951],[13.1893,38.0968],[13.1943,38.0992],[13.2068,38.1007],[13.2137,38.1001],[13.234,38.1021],[13.2424,38.1005],[13.2629,38.1045],[13.2702,38.1043],[13.2791,38.1055],[13.2836,38.1072],[13.302,38.0996],[13.305,38.0959],[13.3025,38.0859],[13.3021,38.0776],[13.3032,38.0752],[13.3085,38.0745],[13.3147,38.0759],[13.3253,38.0657],[13.3205,38.0588],[13.3179,38.0568]],[[13.1451,37.9304],[13.1479,37.9286],[13.1518,37.9279],[13.1587,37.929],[13.1632,37.9307],[13.165,37.9305],[13.1752,37.9216],[13.1838,37.9184],[13.1871,37.919],[13.1879,37.9183],[13.1897,37.9162],[13.1902,37.9118],[13.1881,37.9087],[13.1878,37.9068],[13.1887,37.9033],[13.1903,37.9018],[13.1921,37.9025],[13.1915,37.9042],[13.1938,37.9065],[13.1991,37.9058],[13.2008,37.9153],[13.2035,37.9221],[13.2069,37.9269],[13.2068,37.9355],[13.1988,37.9446],[13.1961,37.9467],[13.2023,37.9683],[13.2245,37.9713],[13.2274,37.9754],[13.2242,37.9818],[13.2125,37.989],[13.2157,37.9908],[13.2202,37.9901],[13.2326,37.9937],[13.2372,37.9968],[13.2395,37.9998],[13.2205,38.0106],[13.1975,38.0017],[13.1903,37.9909],[13.1839,37.9856],[13.1595,37.9741],[13.1586,37.9753],[13.1553,37.9764],[13.1489,37.9769],[13.1462,37.9761],[13.1454,37.975],[13.1468,37.9731],[13.1469,37.9715],[13.144,37.9685],[13.1289,37.9633],[13.1233,37.9627],[13.1216,37.9636],[13.1176,37.9634],[13.1168,37.9619],[13.1186,37.9591],[13.1233,37.9544],[13.1285,37.9512],[13.13,37.9469],[13.1287,37.94],[13.1315,37.9323],[13.1342,37.9282],[13.1362,37.9264],[13.1384,37.9268],[13.1419,37.9281],[13.1451,37.9304]],[[13.3775,37.8844],[13.376,37.8843],[13.3767,37.8816],[13.3788,37.8813],[13.3793,37.8822],[13.3775,37.8844]]]}},{"type":"Feature","properties":{"i":"082050","n":"Montelepre"},"geometry":{"type":"Polygon","coordinates":[[[13.1893,38.0968],[13.1916,38.0951],[13.1916,38.0883],[13.1968,38.0857],[13.1986,38.0853],[13.2022,38.0871],[13.2095,38.0887],[13.2179,38.0887],[13.219,38.088],[13.2198,38.0833],[13.2181,38.0773],[13.214,38.0728],[13.209,38.0704],[13.2017,38.0713],[13.2005,38.072],[13.2013,38.0725],[13.1987,38.0758],[13.1962,38.0744],[13.1817,38.0734],[13.178,38.0742],[13.176,38.0777],[13.1734,38.0795],[13.1676,38.0788],[13.165,38.08],[13.1612,38.0849],[13.1606,38.091],[13.1635,38.0949],[13.171,38.1022],[13.1765,38.1008],[13.1853,38.0969],[13.1893,38.0968]]]}},{"type":"Feature","properties":{"i":"082051","n":"Montemaggiore Belsito"},"geometry":{"type":"Polygon","coordinates":[[[13.7983,37.8361],[13.7991,37.833],[13.804,37.8284],[13.8049,37.8241],[13.8047,37.8215],[13.8018,37.8143],[13.7956,37.8108],[13.7785,37.807],[13.7668,37.8072],[13.7555,37.8045],[13.7449,37.7993],[13.7411,37.8001],[13.7403,37.8018],[13.7371,37.8046],[13.7299,37.8096],[13.7343,37.8321],[13.7322,37.8378],[13.7186,37.8437],[13.7129,37.8453],[13.7151,37.8505],[13.7221,37.8558],[13.7428,37.8525],[13.7506,37.8496],[13.7552,37.853],[13.7531,37.8654],[13.7534,37.8681],[13.7559,37.8686],[13.7664,37.8601],[13.7691,37.8565],[13.777,37.8506],[13.7836,37.8407],[13.7885,37.8359],[13.7912,37.8351],[13.7983,37.8361]]]}},{"type":"Feature","properties":{"i":"082052","n":"Palazzo Adriano"},"geometry":{"type":"Polygon","coordinates":[[[13.4262,37.7834],[13.4329,37.7639],[13.4373,37.7579],[13.4385,37.7525],[13.4355,37.7475],[13.4275,37.7468],[13.4156,37.7395],[13.4032,37.7274],[13.3758,37.721],[13.3698,37.7148],[13.373,37.7121],[13.3816,37.7093],[13.383,37.7077],[13.3859,37.6999],[13.3877,37.6977],[13.3939,37.6937],[13.419,37.6883],[13.4287,37.6875],[13.442,37.6883],[13.4506,37.6848],[13.4516,37.6825],[13.4519,37.6788],[13.4589,37.674],[13.4643,37.6718],[13.4636,37.669],[13.4536,37.6605],[13.4469,37.6589],[13.4447,37.6563],[13.4263,37.6432],[13.4215,37.6472],[13.4177,37.6531],[13.4091,37.6587],[13.4047,37.6598],[13.3958,37.6595],[13.3835,37.6528],[13.3834,37.6514],[13.3855,37.65],[13.3881,37.6339],[13.3932,37.6279],[13.3957,37.6263],[13.4009,37.6178],[13.4005,37.6168],[13.3983,37.6161],[13.3919,37.6167],[13.3866,37.6119],[13.3813,37.6006],[13.3827,37.5903],[13.3877,37.579],[13.3922,37.5728],[13.4026,37.5712],[13.404,37.5706],[13.4038,37.5695],[13.4005,37.5585],[13.3956,37.5554],[13.3673,37.5463],[13.3588,37.542],[13.3564,37.5393],[13.3547,37.5425],[13.3528,37.5438],[13.3445,37.5465],[13.3397,37.554],[13.338,37.5595],[13.3427,37.5739],[13.3406,37.577],[13.3207,37.5881],[13.3315,37.5993],[13.3339,37.6087],[13.3331,37.612],[13.3279,37.6209],[13.3247,37.6241],[13.3204,37.6246],[13.3199,37.6257],[13.3386,37.6395],[13.3477,37.6446],[13.3507,37.6487],[13.3484,37.6563],[13.3471,37.6573],[13.3269,37.663],[13.3253,37.6658],[13.3258,37.6702],[13.3291,37.6781],[13.3321,37.6798],[13.3434,37.6815],[13.3587,37.6874],[13.3634,37.6899],[13.3636,37.6911],[13.3587,37.6959],[13.3553,37.7012],[13.3582,37.7081],[13.3573,37.7121],[13.3485,37.7152],[13.3409,37.7143],[13.3367,37.7156],[13.3401,37.7237],[13.3385,37.7277],[13.3408,37.7367],[13.344,37.7366],[13.3488,37.7378],[13.3625,37.7437],[13.3759,37.7412],[13.3902,37.7442],[13.4105,37.753],[13.412,37.7565],[13.4117,37.7686],[13.4091,37.7728],[13.4067,37.7745],[13.4189,37.7785],[13.4262,37.7834]]]}},{"type":"Feature","properties":{"i":"082053","n":"Palermo"},"geometry":{"type":"Polygon","coordinates":[[[13.4509,38.0953],[13.4515,38.0887],[13.4468,38.0907],[13.4351,38.0861],[13.43,38.0783],[13.4341,38.0765],[13.4343,38.0672],[13.422,38.0603],[13.4118,38.0588],[13.4058,38.0595],[13.4023,38.0605],[13.3937,38.0666],[13.3734,38.0696],[13.3684,38.0688],[13.3632,38.0629],[13.3545,38.0616],[13.349,38.0619],[13.3273,38.0531],[13.3228,38.0505],[13.3173,38.0515],[13.315,38.0531],[13.3146,38.0544],[13.32,38.0583],[13.3253,38.0657],[13.3147,38.0759],[13.3085,38.0745],[13.3032,38.0752],[13.3021,38.0776],[13.3025,38.0859],[13.305,38.0959],[13.302,38.0996],[13.2836,38.1072],[13.2791,38.1055],[13.2702,38.1043],[13.2629,38.1045],[13.2424,38.1005],[13.252,38.1206],[13.25,38.1277],[13.2499,38.136],[13.2547,38.1395],[13.2643,38.15],[13.2651,38.1522],[13.2602,38.1615],[13.2592,38.1693],[13.2644,38.1704],[13.2687,38.1743],[13.2752,38.187],[13.2742,38.1923],[13.2723,38.196],[13.2695,38.199],[13.2587,38.1996],[13.2586,38.2012],[13.2605,38.1998],[13.2659,38.2001],[13.2723,38.1988],[13.2856,38.2097],[13.3012,38.2203],[13.3148,38.2246],[13.318,38.2243],[13.3277,38.2117],[13.327,38.2073],[13.3256,38.2056],[13.3263,38.2033],[13.3289,38.1998],[13.3324,38.1973],[13.3466,38.1912],[13.3559,38.1914],[13.3598,38.1895],[13.3657,38.1823],[13.3674,38.1759],[13.367,38.1696],[13.3718,38.1626],[13.3762,38.1522],[13.3697,38.1442],[13.3749,38.1285],[13.3696,38.1331],[13.3689,38.1355],[13.3627,38.134],[13.3627,38.1298],[13.3779,38.1157],[13.3793,38.1142],[13.3788,38.1126],[13.3843,38.1087],[13.4053,38.0999],[13.4143,38.0983],[13.4204,38.0984],[13.4317,38.097],[13.4352,38.0954],[13.4427,38.0948],[13.4509,38.0953]]]}},{"type":"Feature","properties":{"i":"082054","n":"Partinico"},"geometry":{"type":"Polygon","coordinates":[[[13.1062,38.0825],[13.1349,38.0765],[13.1479,38.0748],[13.1505,38.0678],[13.1428,38.0627],[13.1304,38.0562],[13.1275,38.0528],[13.128,38.0507],[13.1323,38.046],[13.1376,38.0367],[13.1341,38.0352],[13.1243,38.0287],[13.1209,38.025],[13.1204,38.0214],[13.1178,38.0183],[13.1153,38.0169],[13.1093,38.0158],[13.0908,38.0064],[13.0815,37.9965],[13.0753,37.9862],[13.0734,37.9773],[13.0754,37.971],[13.0789,37.9663],[13.0847,37.9612],[13.0829,37.9579],[13.0729,37.9469],[13.0627,37.9508],[13.0553,37.9564],[13.0536,37.9586],[13.0464,37.9613],[13.0388,37.9699],[13.0354,37.9704],[13.0272,37.9664],[13.0253,37.9701],[13.0268,37.9775],[13.0188,37.9832],[13.0038,37.9919],[13.0023,37.9978],[13.0047,38.0029],[13.0014,38.0098],[12.9974,38.0132],[12.9873,38.0169],[12.985,38.0196],[12.9828,38.0272],[12.9835,38.0358],[12.992,38.038],[13.0003,38.0366],[13.0024,38.0342],[13.006,38.0335],[13.018,38.0401],[13.0253,38.0498],[13.0331,38.0579],[13.0433,38.0653],[13.0448,38.0676],[13.0485,38.0687],[13.0554,38.0658],[13.0615,38.0648],[13.0716,38.0749],[13.0741,38.0749],[13.0825,38.0791],[13.0853,38.0823],[13.0894,38.083],[13.092,38.0814],[13.1015,38.0807],[13.1062,38.0825]]]}},{"type":"Feature","properties":{"i":"082055","n":"Petralia Soprana"},"geometry":{"type":"Polygon","coordinates":[[[14.1761,37.7615],[14.1734,37.7603],[14.169,37.7605],[14.1613,37.7576],[14.1534,37.749],[14.1564,37.742],[14.1556,37.7367],[14.1473,37.7336],[14.1331,37.7223],[14.1302,37.7236],[14.1306,37.7359],[14.1262,37.7444],[14.1213,37.7479],[14.0984,37.7615],[14.0956,37.7598],[14.0921,37.7552],[14.0896,37.7501],[14.0882,37.7567],[14.0819,37.7761],[14.0811,37.7775],[14.0772,37.7799],[14.0828,37.7857],[14.0894,37.7888],[14.0975,37.7953],[14.104,37.8035],[14.1069,37.8091],[14.1075,37.8134],[14.1049,37.8194],[14.1058,37.8236],[14.1083,37.8238],[14.1099,37.8263],[14.1096,37.8377],[14.1027,37.8394],[14.1031,37.8415],[14.106,37.8452],[14.1056,37.8524],[14.1051,37.855],[14.1,37.8598],[14.1078,37.8605],[14.1108,37.8601],[14.1102,37.8591],[14.1154,37.8412],[14.1243,37.8348],[14.1321,37.8311],[14.1378,37.8294],[14.1444,37.8233],[14.1532,37.8183],[14.1553,37.8128],[14.1556,37.8047],[14.1526,37.7961],[14.1483,37.7892],[14.1479,37.7856],[14.1486,37.7833],[14.1498,37.7809],[14.1553,37.7785],[14.1637,37.778],[14.1687,37.7728],[14.1761,37.7615]]]}},{"type":"Feature","properties":{"i":"082056","n":"Petralia Sottana"},"geometry":{"type":"Polygon","coordinates":[[[14.0931,37.8804],[14.0975,37.8786],[14.0976,37.8714],[14.0968,37.8676],[14.098,37.8616],[14.1051,37.855],[14.106,37.8452],[14.1031,37.8415],[14.1027,37.8394],[14.1096,37.8377],[14.1099,37.8263],[14.1083,37.8238],[14.1058,37.8236],[14.1049,37.8194],[14.1075,37.8134],[14.1069,37.8091],[14.104,37.8035],[14.0975,37.7953],[14.0894,37.7888],[14.0828,37.7857],[14.0718,37.7745],[14.0621,37.7599],[14.0581,37.7557],[14.0542,37.7405],[14.0485,37.7314],[14.0457,37.7274],[14.0359,37.7204],[14.0293,37.7044],[14.0366,37.7012],[14.0415,37.6978],[14.043,37.6927],[14.0415,37.6894],[14.0277,37.6907],[14.0106,37.6893],[14.0077,37.6847],[14.0069,37.6731],[14.0076,37.6704],[14.0126,37.6633],[14.018,37.6574],[14.0214,37.6562],[14.0335,37.6555],[14.0491,37.6679],[14.0562,37.6718],[14.0629,37.6645],[14.0755,37.661],[14.091,37.6594],[14.0986,37.6608],[14.1075,37.6553],[14.1011,37.6515],[14.0886,37.6472],[14.0808,37.6495],[14.0781,37.6442],[14.071,37.6452],[14.0663,37.6471],[14.0568,37.648],[14.0434,37.6446],[14.0383,37.6401],[14.036,37.6368],[14.0254,37.6316],[14.0202,37.6201],[14.0217,37.6145],[14.0275,37.6048],[14.0276,37.6023],[14.0131,37.5965],[14.01,37.5987],[13.9919,37.5956],[13.9789,37.5897],[13.961,37.5857],[13.9572,37.5856],[13.9498,37.5896],[13.9395,37.5932],[13.9233,37.5965],[13.9258,37.602],[13.9304,37.6069],[13.9246,37.609],[13.9152,37.6104],[13.904,37.6153],[13.8993,37.6181],[13.8984,37.6224],[13.9031,37.6265],[13.904,37.6265],[13.9047,37.629],[13.9033,37.6305],[13.9062,37.6301],[13.903,37.6435],[13.9075,37.6464],[13.9093,37.6465],[13.9162,37.6462],[13.921,37.6445],[13.9264,37.6437],[13.9296,37.65],[13.9285,37.656],[13.932,37.6617],[13.9359,37.6631],[13.9406,37.6628],[13.9569,37.6567],[13.9613,37.6565],[13.9627,37.6567],[13.9707,37.6624],[13.9722,37.6673],[13.976,37.6932],[14.0028,37.6915],[14.0079,37.6962],[14.0074,37.698],[14.0044,37.6997],[14.0035,37.7055],[14.0086,37.7144],[14.0131,37.7182],[14.0159,37.7196],[14.027,37.7209],[14.0279,37.7237],[14.0329,37.7309],[14.0415,37.738],[14.0447,37.7565],[14.0484,37.769],[14.0557,37.7762],[14.064,37.7863],[14.0662,37.8018],[14.0625,37.8059],[14.0593,37.8062],[14.0509,37.8233],[14.0504,37.8311],[14.0538,37.8364],[14.0543,37.8385],[14.0511,37.8396],[14.0397,37.8399],[14.0365,37.8441],[14.0238,37.8672],[14.016,37.8705],[14.0144,37.873],[14.0183,37.8772],[14.0212,37.8837],[14.0211,37.8892],[14.0271,37.8957],[14.0421,37.9032],[14.0441,37.9054],[14.0473,37.9113],[14.0505,37.9063],[14.0549,37.9023],[14.06,37.899],[14.072,37.8933],[14.0757,37.889],[14.0755,37.8863],[14.0743,37.8851],[14.0754,37.8806],[14.081,37.8765],[14.0856,37.8752],[14.0931,37.8804]]]}},{"type":"Feature","properties":{"i":"082057","n":"Piana degli Albanesi"},"geometry":{"type":"Polygon","coordinates":[[[13.3153,38.0061],[13.313,38.0059],[13.3116,38.005],[13.3112,38.0029],[13.3017,37.9951],[13.3029,37.9844],[13.305,37.976],[13.3032,37.9739],[13.3038,37.9732],[13.3108,37.973],[13.3221,37.9736],[13.3284,37.9713],[13.3321,37.968],[13.3338,37.965],[13.3394,37.9602],[13.3583,37.9552],[13.3611,37.9517],[13.3602,37.9497],[13.3569,37.9467],[13.3574,37.9443],[13.3709,37.9378],[13.3821,37.9345],[13.3854,37.9323],[13.3844,37.9296],[13.3736,37.925],[13.3705,37.9224],[13.3695,37.9203],[13.3685,37.9117],[13.3615,37.9105],[13.3576,37.9118],[13.3574,37.9128],[13.3496,37.9135],[13.3465,37.9104],[13.3374,37.9102],[13.3335,37.9144],[13.3219,37.9233],[13.3157,37.9221],[13.3053,37.9228],[13.3025,37.9245],[13.2854,37.9306],[13.2817,37.9386],[13.2782,37.9423],[13.28,37.9596],[13.2793,37.9619],[13.2584,37.9685],[13.2552,37.9705],[13.257,37.9806],[13.2651,38.0031],[13.2725,38.0114],[13.2762,38.0174],[13.2761,38.0195],[13.2795,38.0222],[13.282,38.0234],[13.294,38.0195],[13.2996,38.0217],[13.3013,38.0241],[13.3019,38.0275],[13.3043,38.0278],[13.3121,38.0267],[13.3182,38.0183],[13.3172,38.0088],[13.3153,38.0061]]]}},{"type":"Feature","properties":{"i":"082058","n":"Polizzi Generosa"},"geometry":{"type":"Polygon","coordinates":[[[14.019,37.8693],[14.0238,37.8672],[14.0365,37.8441],[14.0397,37.8399],[14.0446,37.8395],[14.0438,37.8339],[14.0398,37.8323],[14.0334,37.8172],[14.0298,37.8115],[14.027,37.8102],[14.0222,37.8105],[14.0198,37.8082],[14.0181,37.8051],[14.0164,37.8006],[14.016,37.7964],[14.0175,37.7941],[14.0197,37.7927],[14.0223,37.7881],[14.0197,37.7836],[14.0113,37.7772],[14.0065,37.7762],[13.9929,37.7766],[13.991,37.7705],[13.9923,37.7683],[13.9904,37.7609],[13.9883,37.7591],[13.984,37.7592],[13.9736,37.7556],[13.9633,37.7473],[13.979,37.7435],[13.9897,37.7445],[13.9952,37.7564],[13.9988,37.7571],[14.0018,37.762],[13.9986,37.764],[13.9997,37.7672],[14.0043,37.7693],[14.0124,37.7674],[14.0222,37.7627],[14.0275,37.758],[14.0319,37.7431],[14.0292,37.7349],[14.0278,37.7332],[14.024,37.735],[14.0208,37.7346],[14.0167,37.7303],[13.9989,37.7226],[13.9888,37.7165],[13.9791,37.714],[13.9741,37.7138],[13.9656,37.7104],[13.9631,37.7051],[13.9612,37.6983],[13.9626,37.6919],[13.959,37.6853],[13.9466,37.6817],[13.942,37.6818],[13.9342,37.685],[13.9288,37.6826],[13.9281,37.6796],[13.9086,37.68],[13.9073,37.6808],[13.9088,37.6895],[13.9003,37.692],[13.8961,37.6892],[13.8863,37.6787],[13.8844,37.6705],[13.8819,37.6717],[13.8822,37.6738],[13.879,37.6806],[13.8732,37.6829],[13.8684,37.6862],[13.8846,37.7211],[13.8946,37.7266],[13.8998,37.7274],[13.9026,37.727],[13.911,37.7235],[13.9126,37.7218],[13.9202,37.7225],[13.9277,37.7251],[13.9296,37.7275],[13.9281,37.7342],[13.9313,37.7428],[13.9363,37.7432],[13.9384,37.7446],[13.9418,37.7497],[13.9524,37.7595],[13.9502,37.7678],[13.9471,37.7689],[13.9521,37.7754],[13.9554,37.7767],[13.9658,37.7782],[13.97,37.7802],[13.9719,37.783],[13.973,37.7866],[13.9724,37.7885],[13.9697,37.7941],[13.9672,37.7971],[13.9722,37.8117],[13.9699,37.819],[13.9635,37.8291],[13.9598,37.8315],[13.9531,37.8328],[13.9527,37.8354],[13.9573,37.8431],[13.9582,37.8463],[13.9592,37.8632],[13.9617,37.8725],[13.9694,37.8787],[13.9738,37.8804],[13.9794,37.8762],[13.9878,37.8773],[13.9956,37.8764],[13.9997,37.8742],[14.0025,37.8704],[14.0054,37.8682],[14.019,37.8693]]]}},{"type":"Feature","properties":{"i":"082059","n":"Pollina"},"geometry":{"type":"Polygon","coordinates":[[[14.1807,38.0203],[14.1791,38.0177],[14.1774,38.0058],[14.1767,37.9955],[14.1783,37.9876],[14.1634,37.9755],[14.1557,37.9718],[14.1534,37.9667],[14.1449,37.9662],[14.1418,37.9672],[14.1358,37.9664],[14.1235,37.9616],[14.1145,37.9568],[14.1075,37.9567],[14.1065,37.9586],[14.0897,37.9662],[14.0898,37.9678],[14.095,37.9703],[14.0974,37.9744],[14.0973,37.9792],[14.0939,37.9874],[14.0896,37.9867],[14.0836,37.9843],[14.0778,37.976],[14.0772,37.974],[14.0775,37.9688],[14.0569,37.9822],[14.0577,37.9861],[14.0589,37.987],[14.0636,37.9872],[14.0676,37.9901],[14.0695,37.9962],[14.0765,38.0021],[14.1035,38.0156],[14.1078,38.0146],[14.1272,38.0172],[14.1413,38.0227],[14.1456,38.0256],[14.1461,38.0267],[14.1511,38.0263],[14.1546,38.024],[14.1653,38.0202],[14.1723,38.0187],[14.1758,38.0201],[14.1807,38.0203]]]}},{"type":"Feature","properties":{"i":"082060","n":"Prizzi"},"geometry":{"type":"MultiPolygon","coordinates":[[[[13.4516,37.7992],[13.4555,37.7986],[13.4629,37.7958],[13.4731,37.7897],[13.4855,37.7878],[13.4893,37.7883],[13.4917,37.7844],[13.4888,37.7785],[13.4884,37.7749],[13.4959,37.7713],[13.5122,37.7577],[13.5211,37.748],[13.5339,37.7582],[13.5356,37.7569],[13.5377,37.7516],[13.5416,37.7469],[13.5384,37.7438],[13.5377,37.7414],[13.5304,37.7301],[13.5268,37.7294],[13.509,37.7393],[13.5015,37.7421],[13.4962,37.7422],[13.4805,37.7177],[13.4899,37.7112],[13.4908,37.7057],[13.4962,37.6991],[13.4961,37.6939],[13.4758,37.6868],[13.4677,37.683],[13.4614,37.6767],[13.4643,37.6718],[13.4589,37.674],[13.4519,37.6788],[13.4516,37.6825],[13.4506,37.6848],[13.442,37.6883],[13.4287,37.6875],[13.419,37.6883],[13.3939,37.6937],[13.3877,37.6977],[13.3859,37.6999],[13.383,37.7077],[13.3816,37.7093],[13.373,37.7121],[13.3698,37.7148],[13.3758,37.721],[13.4032,37.7274],[13.4156,37.7395],[13.4275,37.7468],[13.4355,37.7475],[13.4385,37.7525],[13.4373,37.7579],[13.4414,37.7594],[13.4468,37.7707],[13.4445,37.7858],[13.4459,37.799],[13.4499,37.8009],[13.4516,37.7992]]],[[[13.4262,37.7834],[13.4189,37.7785],[13.4067,37.7745],[13.4031,37.7761],[13.3976,37.7754],[13.3919,37.7772],[13.39,37.7837],[13.3921,37.7924],[13.3866,37.8005],[13.387,37.8069],[13.391,37.8114],[13.3988,37.7966],[13.4071,37.7913],[13.417,37.7883],[13.4245,37.7894],[13.428,37.7886],[13.4296,37.7857],[13.4297,37.7834],[13.4293,37.7828],[13.4262,37.7834]]]]}},{"type":"Feature","properties":{"i":"082061","n":"Roccamena"},"geometry":{"type":"Polygon","coordinates":[[[13.1983,37.846],[13.1969,37.8445],[13.1963,37.8413],[13.1969,37.8384],[13.208,37.8328],[13.1946,37.825],[13.1893,37.8267],[13.1859,37.8258],[13.1798,37.8189],[13.1785,37.8155],[13.1805,37.8133],[13.1864,37.8139],[13.1938,37.8129],[13.1981,37.811],[13.2033,37.8042],[13.2033,37.8017],[13.1991,37.7975],[13.1963,37.7885],[13.1931,37.7818],[13.1865,37.7808],[13.1811,37.7846],[13.1827,37.7921],[13.1805,37.799],[13.1788,37.8012],[13.172,37.8054],[13.1558,37.8047],[13.1511,37.8084],[13.1484,37.8077],[13.1473,37.8083],[13.1478,37.8128],[13.1527,37.8214],[13.1559,37.8248],[13.1562,37.8284],[13.1554,37.8303],[13.1467,37.8306],[13.1426,37.8288],[13.1413,37.8271],[13.1295,37.8293],[13.1238,37.8381],[13.1216,37.8467],[13.125,37.854],[13.1251,37.8608],[13.1412,37.861],[13.1539,37.8628],[13.1625,37.8598],[13.172,37.8531],[13.1832,37.8504],[13.188,37.8502],[13.1975,37.8469],[13.1983,37.846]]]}},{"type":"Feature","properties":{"i":"082062","n":"Roccapalumba"},"geometry":{"type":"MultiPolygon","coordinates":[[[[13.6708,37.8272],[13.6702,37.8275],[13.6775,37.8307],[13.6802,37.8252],[13.6769,37.8234],[13.6758,37.8237],[13.6739,37.8266],[13.6708,37.8272]]],[[[13.6725,37.7875],[13.6736,37.7844],[13.6731,37.7809],[13.6691,37.7785],[13.6659,37.7734],[13.6656,37.7677],[13.6598,37.7654],[13.6561,37.7649],[13.6413,37.7706],[13.6363,37.7759],[13.6359,37.7801],[13.6368,37.7823],[13.6251,37.7798],[13.6146,37.7838],[13.6106,37.7881],[13.611,37.7908],[13.6199,37.7949],[13.6264,37.7922],[13.6275,37.7971],[13.6266,37.8016],[13.619,37.8155],[13.6141,37.8214],[13.6125,37.8247],[13.6237,37.8321],[13.6294,37.8346],[13.6357,37.8341],[13.6424,37.8305],[13.6453,37.8298],[13.6509,37.8317],[13.6584,37.8314],[13.6607,37.8306],[13.6696,37.8339],[13.6706,37.8355],[13.6703,37.8367],[13.667,37.8364],[13.6669,37.8385],[13.6687,37.8391],[13.6742,37.8375],[13.675,37.8343],[13.6655,37.8254],[13.6628,37.8216],[13.6681,37.8185],[13.6738,37.8183],[13.6756,37.814],[13.6762,37.7973],[13.6758,37.7937],[13.6725,37.7875]]]]}},{"type":"Feature","properties":{"i":"082063","n":"San Cipirello"},"geometry":{"type":"Polygon","coordinates":[[[13.2023,37.9683],[13.1961,37.9467],[13.1988,37.9446],[13.2068,37.9355],[13.2069,37.9269],[13.2035,37.9221],[13.2008,37.9153],[13.1991,37.9058],[13.1938,37.9065],[13.1915,37.9042],[13.1921,37.9025],[13.1903,37.9018],[13.1887,37.9033],[13.1878,37.9068],[13.1881,37.9087],[13.1902,37.9118],[13.1897,37.9162],[13.1879,37.9183],[13.1871,37.919],[13.1838,37.9184],[13.1752,37.9216],[13.165,37.9305],[13.1632,37.9307],[13.1587,37.929],[13.1518,37.9279],[13.1479,37.9286],[13.1451,37.9304],[13.156,37.9395],[13.1611,37.9488],[13.1633,37.9558],[13.1614,37.9573],[13.1601,37.9597],[13.1696,37.9662],[13.1737,37.9703],[13.1767,37.9698],[13.1788,37.9675],[13.1864,37.9654],[13.2023,37.9683]]]}},{"type":"Feature","properties":{"i":"082064","n":"San Giuseppe Jato"},"geometry":{"type":"Polygon","coordinates":[[[13.2023,37.9683],[13.1864,37.9654],[13.1788,37.9675],[13.1767,37.9698],[13.1737,37.9703],[13.1696,37.9662],[13.1601,37.9597],[13.1614,37.9573],[13.1633,37.9558],[13.1611,37.9488],[13.156,37.9395],[13.1424,37.9284],[13.1362,37.9264],[13.1315,37.9323],[13.1287,37.94],[13.13,37.9469],[13.1285,37.9512],[13.1219,37.9556],[13.1167,37.9622],[13.1176,37.9634],[13.1201,37.9637],[13.1233,37.9627],[13.1289,37.9633],[13.144,37.9685],[13.1469,37.9715],[13.1468,37.9731],[13.1454,37.975],[13.1462,37.9761],[13.1489,37.9769],[13.1553,37.9764],[13.1586,37.9753],[13.1595,37.9741],[13.1839,37.9856],[13.1903,37.9909],[13.1975,38.0017],[13.2205,38.0106],[13.2395,37.9998],[13.2372,37.9968],[13.2326,37.9937],[13.2202,37.9901],[13.2157,37.9908],[13.2125,37.989],[13.2242,37.9818],[13.2274,37.9754],[13.2245,37.9713],[13.2023,37.9683]]]}},{"type":"Feature","properties":{"i":"082065","n":"San Mauro Castelverde"},"geometry":{"type":"Polygon","coordinates":[[[14.2367,37.9482],[14.2424,37.9442],[14.25,37.9362],[14.2534,37.9347],[14.2538,37.9293],[14.252,37.92],[14.2529,37.917],[14.2594,37.9159],[14.2802,37.9184],[14.2919,37.9186],[14.2923,37.9177],[14.2852,37.91],[14.2747,37.9035],[14.2756,37.8972],[14.2747,37.8894],[14.2687,37.8765],[14.2716,37.8706],[14.274,37.8625],[14.2733,37.847],[14.2667,37.8475],[14.2511,37.8523],[14.2417,37.8521],[14.2385,37.8536],[14.2312,37.8589],[14.2344,37.8693],[14.234,37.8716],[14.2311,37.8759],[14.2203,37.8779],[14.2076,37.876],[14.2016,37.8734],[14.1965,37.8751],[14.181,37.8842],[14.1686,37.8941],[14.1602,37.9043],[14.153,37.908],[14.1485,37.9129],[14.1458,37.9179],[14.145,37.9214],[14.1468,37.9273],[14.1467,37.9366],[14.1412,37.9452],[14.1398,37.9454],[14.1397,37.9464],[14.1426,37.9505],[14.1493,37.9566],[14.1548,37.9639],[14.1547,37.9662],[14.1534,37.9667],[14.1557,37.9718],[14.1634,37.9755],[14.1783,37.9876],[14.1767,37.9955],[14.1774,38.0058],[14.1791,38.0177],[14.1807,38.0203],[14.1835,38.0194],[14.1861,38.0124],[14.193,38.0028],[14.2046,37.9904],[14.2131,37.9722],[14.2217,37.9672],[14.2287,37.9583],[14.2299,37.9562],[14.2264,37.9508],[14.2303,37.9486],[14.2367,37.9482]]]}},{"type":"Feature","properties":{"i":"082066","n":"Santa Cristina Gela"},"geometry":{"type":"Polygon","coordinates":[[[13.3865,38.0025],[13.3832,37.9996],[13.374,37.9878],[13.367,37.987],[13.3617,37.9835],[13.3602,37.9785],[13.3622,37.9751],[13.3662,37.9748],[13.3738,37.9698],[13.373,37.9663],[13.3704,37.9624],[13.3719,37.9596],[13.384,37.9569],[13.3989,37.965],[13.4034,37.9603],[13.3991,37.9522],[13.3974,37.9415],[13.403,37.9375],[13.4116,37.9344],[13.4053,37.9302],[13.3967,37.928],[13.3915,37.9287],[13.3852,37.9315],[13.3854,37.9323],[13.3821,37.9345],[13.3709,37.9378],[13.3598,37.9428],[13.3574,37.9443],[13.3567,37.946],[13.3611,37.9517],[13.3583,37.9552],[13.3394,37.9602],[13.3338,37.965],[13.3321,37.968],[13.3284,37.9713],[13.3221,37.9736],[13.3108,37.973],[13.3038,37.9732],[13.3032,37.9739],[13.305,37.976],[13.3029,37.9844],[13.3017,37.9951],[13.3112,38.0029],[13.3116,38.005],[13.313,38.0059],[13.3153,38.0061],[13.3175,38.0053],[13.3271,38.0002],[13.3343,37.9937],[13.3376,37.9919],[13.3392,37.9925],[13.3466,37.9988],[13.3536,38.0212],[13.3574,38.0253],[13.3625,38.0219],[13.3818,38.0041],[13.3865,38.0025]]]}},{"type":"Feature","properties":{"i":"082067","n":"Santa Flavia"},"geometry":{"type":"MultiPolygon","coordinates":[[[[13.538,38.0647],[13.533,38.0621],[13.5295,38.0587],[13.5283,38.0559],[13.5195,38.0478],[13.515,38.0453],[13.5084,38.0398],[13.5036,38.0301],[13.5036,38.024],[13.5022,38.0221],[13.4979,38.0198],[13.493,38.0193],[13.4899,38.0209],[13.4901,38.027],[13.4877,38.0301],[13.4798,38.0364],[13.4859,38.0361],[13.497,38.041],[13.505,38.0519],[13.5171,38.0657],[13.518,38.0698],[13.5175,38.0858],[13.5294,38.0962],[13.5325,38.1062],[13.5327,38.1115],[13.5375,38.1127],[13.5385,38.1121],[13.539,38.109],[13.5352,38.107],[13.5338,38.1021],[13.5352,38.0988],[13.5392,38.0976],[13.5398,38.0964],[13.541,38.0898],[13.538,38.0841],[13.5422,38.0778],[13.5402,38.0726],[13.5363,38.0696],[13.5365,38.0671],[13.538,38.0647]]],[[[13.5378,38.1134],[13.5372,38.1134],[13.5381,38.1138],[13.5378,38.1134]]]]}},{"type":"Feature","properties":{"i":"082068","n":"Sciara"},"geometry":{"type":"Polygon","coordinates":[[[13.8095,37.9101],[13.7975,37.9035],[13.7887,37.9006],[13.7855,37.8957],[13.7856,37.8929],[13.7828,37.8873],[13.779,37.8871],[13.7705,37.8897],[13.7672,37.8899],[13.7617,37.8894],[13.7619,37.8886],[13.7514,37.8931],[13.7474,37.8966],[13.7446,37.8957],[13.7309,37.9012],[13.7285,37.9035],[13.7258,37.908],[13.7236,37.9194],[13.7312,37.9357],[13.7323,37.942],[13.734,37.945],[13.7391,37.9478],[13.7496,37.9611],[13.7538,37.9584],[13.7547,37.9501],[13.7578,37.9496],[13.7632,37.9506],[13.7668,37.9439],[13.7665,37.9373],[13.7681,37.9352],[13.78,37.9378],[13.7807,37.9394],[13.7797,37.9451],[13.7809,37.9463],[13.7816,37.9457],[13.7837,37.942],[13.7839,37.9383],[13.7817,37.9308],[13.7753,37.9217],[13.7775,37.9153],[13.7975,37.9144],[13.8095,37.9101]]]}},{"type":"Feature","properties":{"i":"082069","n":"Sclafani Bagni"},"geometry":{"type":"MultiPolygon","coordinates":[[[[13.8081,37.7451],[13.8019,37.7426],[13.7903,37.7309],[13.7802,37.7247],[13.7763,37.7211],[13.7745,37.7131],[13.7774,37.7047],[13.777,37.7022],[13.7756,37.7011],[13.7663,37.6995],[13.7437,37.7066],[13.743,37.7121],[13.754,37.7241],[13.7735,37.7498],[13.7778,37.7542],[13.7785,37.7592],[13.7616,37.7657],[13.7625,37.7673],[13.7753,37.7715],[13.7879,37.7737],[13.7917,37.773],[13.7902,37.7697],[13.7921,37.7575],[13.8011,37.7557],[13.8085,37.7487],[13.8081,37.7451]]],[[[13.7299,37.8096],[13.7237,37.804],[13.7197,37.7971],[13.7176,37.8088],[13.7148,37.811],[13.7099,37.8182],[13.7104,37.8265],[13.7075,37.8383],[13.7113,37.8446],[13.7129,37.8453],[13.7186,37.8437],[13.7312,37.8386],[13.733,37.8365],[13.7343,37.8321],[13.7299,37.8096]]],[[[13.8658,37.8708],[13.8695,37.8646],[13.8691,37.8629],[13.8658,37.8582],[13.8637,37.8578],[13.8626,37.8485],[13.8673,37.8288],[13.8701,37.8258],[13.8723,37.8198],[13.8707,37.8137],[13.8711,37.811],[13.8759,37.8065],[13.8832,37.8026],[13.8857,37.7992],[13.886,37.7891],[13.885,37.7844],[13.882,37.778],[13.8843,37.7711],[13.8867,37.7696],[13.8851,37.762],[13.8829,37.7588],[13.8792,37.7558],[13.8778,37.7537],[13.8777,37.7431],[13.8761,37.7379],[13.8723,37.732],[13.8707,37.7282],[13.8746,37.713],[13.8746,37.706],[13.8758,37.7024],[13.8684,37.6862],[13.8581,37.6897],[13.8351,37.6952],[13.8289,37.6979],[13.82,37.7033],[13.816,37.7082],[13.8192,37.7149],[13.8174,37.7185],[13.8202,37.7234],[13.8227,37.7258],[13.8255,37.7258],[13.8305,37.7303],[13.8345,37.7378],[13.8457,37.7447],[13.8489,37.7476],[13.8546,37.7601],[13.859,37.7669],[13.8589,37.771],[13.854,37.7771],[13.8366,37.7911],[13.833,37.7897],[13.8298,37.7829],[13.8258,37.7809],[13.82,37.7865],[13.8174,37.788],[13.8146,37.787],[13.8078,37.7799],[13.7957,37.7767],[13.7935,37.7763],[13.7929,37.7772],[13.7884,37.7788],[13.7841,37.7786],[13.7782,37.7761],[13.767,37.7752],[13.7562,37.7756],[13.7528,37.7804],[13.7533,37.783],[13.7478,37.7895],[13.7425,37.7935],[13.7411,37.8001],[13.7463,37.7996],[13.7555,37.8045],[13.7668,37.8072],[13.7785,37.807],[13.7956,37.8108],[13.8018,37.8143],[13.8047,37.8215],[13.8049,37.8241],[13.804,37.8284],[13.7991,37.833],[13.7983,37.8361],[13.8023,37.8422],[13.8076,37.8463],[13.8124,37.8561],[13.8149,37.8592],[13.8139,37.8638],[13.8178,37.8666],[13.8219,37.8676],[13.8334,37.8685],[13.8436,37.8708],[13.8511,37.8676],[13.8596,37.8704],[13.8658,37.8708]]]]}},{"type":"Feature","properties":{"i":"082070","n":"Termini Imerese"},"geometry":{"type":"Polygon","coordinates":[[[13.6642,37.9943],[13.6714,37.9945],[13.6931,37.9914],[13.7065,37.9918],[13.7086,37.9912],[13.7215,37.987],[13.7235,37.9855],[13.7229,37.9851],[13.7214,37.9868],[13.7089,37.9906],[13.7036,37.9899],[13.7045,37.9859],[13.7063,37.9835],[13.7067,37.9803],[13.7084,37.9788],[13.7112,37.9775],[13.7242,37.9752],[13.7355,37.9748],[13.7437,37.9702],[13.7554,37.9707],[13.7974,37.9751],[13.8154,37.9798],[13.823,37.9828],[13.8241,37.9786],[13.8272,37.9722],[13.8271,37.9702],[13.8265,37.9703],[13.8261,37.9693],[13.8324,37.9552],[13.8358,37.9498],[13.843,37.9424],[13.839,37.9391],[13.8368,37.9389],[13.8328,37.9366],[13.8247,37.9295],[13.8184,37.9206],[13.818,37.914],[13.8095,37.9101],[13.7975,37.9144],[13.7775,37.9153],[13.7753,37.9217],[13.7817,37.9308],[13.7839,37.9383],[13.7837,37.942],[13.7816,37.9457],[13.7809,37.9463],[13.7797,37.9451],[13.7807,37.9394],[13.78,37.9378],[13.7681,37.9352],[13.7665,37.9373],[13.7668,37.9439],[13.7632,37.9506],[13.7578,37.9496],[13.7547,37.9501],[13.7538,37.9584],[13.7496,37.9611],[13.7391,37.9478],[13.7347,37.9451],[13.7258,37.9463],[13.7206,37.9492],[13.7142,37.9511],[13.6863,37.9427],[13.6821,37.9426],[13.677,37.9453],[13.673,37.9492],[13.6612,37.9576],[13.6548,37.9689],[13.6487,37.9723],[13.6452,37.9734],[13.6403,37.9731],[13.6344,37.9712],[13.6309,37.9744],[13.6217,37.9799],[13.6213,37.9829],[13.6241,37.9913],[13.6292,37.9987],[13.6317,37.999],[13.6356,37.997],[13.6493,37.9865],[13.6548,37.9857],[13.658,37.987],[13.6614,37.9931],[13.6642,37.9943]]]}},{"type":"Feature","properties":{"i":"082071","n":"Terrasini"},"geometry":{"type":"Polygon","coordinates":[[[13.0825,38.1572],[13.0863,38.1541],[13.086,38.1523],[13.0909,38.1468],[13.1056,38.1342],[13.102,38.1297],[13.0991,38.1282],[13.084,38.1317],[13.0809,38.13],[13.0802,38.128],[13.0811,38.1256],[13.0878,38.1228],[13.0976,38.1129],[13.0991,38.1063],[13.1029,38.097],[13.1086,38.0898],[13.1072,38.084],[13.1062,38.0825],[13.1015,38.0807],[13.092,38.0814],[13.0894,38.083],[13.0853,38.0823],[13.0734,38.0855],[13.0782,38.0883],[13.0773,38.0934],[13.0745,38.0986],[13.072,38.1073],[13.0722,38.1111],[13.0683,38.1197],[13.0657,38.1234],[13.059,38.1293],[13.053,38.1371],[13.0549,38.139],[13.0659,38.1433],[13.0722,38.1417],[13.0713,38.1476],[13.0703,38.1484],[13.0722,38.1512],[13.0825,38.1572]]]}},{"type":"Feature","properties":{"i":"082072","n":"Torretta"},"geometry":{"type":"Polygon","coordinates":[[[13.2424,38.1005],[13.234,38.1021],[13.2249,38.1008],[13.2107,38.1003],[13.2107,38.1053],[13.2165,38.1102],[13.2212,38.1114],[13.2224,38.1163],[13.2217,38.1205],[13.2191,38.1262],[13.2111,38.1355],[13.2059,38.1436],[13.2062,38.1453],[13.2156,38.1517],[13.2278,38.1564],[13.2313,38.1596],[13.2312,38.1602],[13.2323,38.1567],[13.2377,38.1518],[13.2507,38.1463],[13.2536,38.1466],[13.2526,38.1497],[13.2489,38.1542],[13.246,38.1562],[13.2454,38.1626],[13.247,38.1713],[13.2499,38.1747],[13.2543,38.1772],[13.2573,38.1822],[13.2587,38.19],[13.2572,38.1942],[13.2587,38.1996],[13.2684,38.1995],[13.2726,38.1955],[13.2742,38.1923],[13.2752,38.187],[13.2687,38.1743],[13.2644,38.1704],[13.2592,38.1693],[13.2602,38.1615],[13.2651,38.1522],[13.2643,38.15],[13.2547,38.1395],[13.2499,38.136],[13.25,38.1277],[13.252,38.1206],[13.2424,38.1005]]]}},{"type":"Feature","properties":{"i":"082073","n":"Trabia"},"geometry":{"type":"Polygon","coordinates":[[[13.6642,37.9943],[13.6614,37.9931],[13.658,37.987],[13.6548,37.9857],[13.6493,37.9865],[13.6356,37.997],[13.6317,37.999],[13.6292,37.9987],[13.6246,37.9927],[13.6212,37.9822],[13.6217,37.9799],[13.6309,37.9744],[13.6344,37.9712],[13.6306,37.9698],[13.6253,37.9663],[13.6199,37.961],[13.6125,37.9575],[13.6067,37.956],[13.6043,37.9567],[13.5996,37.9609],[13.5994,37.964],[13.5953,37.9707],[13.5856,37.9824],[13.5839,37.9964],[13.5967,38.003],[13.602,38.0077],[13.6025,38.0171],[13.6078,38.0206],[13.6179,38.0127],[13.6221,38.0105],[13.6351,38.0082],[13.6511,37.9985],[13.6642,37.9943]]]}},{"type":"Feature","properties":{"i":"082074","n":"Trappeto"},"geometry":{"type":"Polygon","coordinates":[[[13.0853,38.0823],[13.0825,38.0791],[13.0741,38.0749],[13.0716,38.0749],[13.0615,38.0648],[13.0554,38.0658],[13.0477,38.0687],[13.0441,38.0671],[13.0433,38.0653],[13.0373,38.0607],[13.0374,38.063],[13.035,38.0659],[13.0318,38.062],[13.0282,38.0596],[13.0267,38.0619],[13.0294,38.0632],[13.0387,38.0718],[13.0526,38.0725],[13.0734,38.0855],[13.0853,38.0823]]]}},{"type":"Feature","properties":{"i":"082075","n":"Ustica"},"geometry":{"type":"MultiPolygon","coordinates":[[[[13.1807,38.7207],[13.1865,38.7168],[13.1973,38.714],[13.2004,38.7111],[13.2007,38.7098],[13.1905,38.7006],[13.1824,38.6955],[13.1739,38.6918],[13.1693,38.6909],[13.1604,38.6916],[13.1536,38.6937],[13.1527,38.699],[13.1551,38.701],[13.1632,38.7134],[13.1724,38.7183],[13.1807,38.7207]]]]}},{"type":"Feature","properties":{"i":"082076","n":"Valledolmo"},"geometry":{"type":"Polygon","coordinates":[[[13.8181,37.7204],[13.8185,37.7269],[13.816,37.733],[13.81,37.7398],[13.808,37.7433],[13.8085,37.7487],[13.8011,37.7557],[13.7921,37.7575],[13.7904,37.771],[13.7935,37.7763],[13.8078,37.7799],[13.8146,37.787],[13.8174,37.788],[13.82,37.7865],[13.8253,37.7809],[13.8274,37.7812],[13.8298,37.7829],[13.833,37.7897],[13.8366,37.7911],[13.8485,37.782],[13.8553,37.7757],[13.8589,37.771],[13.8589,37.7664],[13.8546,37.7601],[13.8489,37.7476],[13.8457,37.7447],[13.8345,37.7378],[13.8305,37.7303],[13.8255,37.7258],[13.8227,37.7258],[13.8181,37.7204]]]}},{"type":"Feature","properties":{"i":"082077","n":"Ventimiglia di Sicilia"},"geometry":{"type":"MultiPolygon","coordinates":[[[[13.5896,37.9033],[13.5855,37.9035],[13.5704,37.9068],[13.5594,37.9078],[13.5592,37.9133],[13.5582,37.9173],[13.5541,37.9244],[13.5541,37.9263],[13.555,37.9292],[13.5622,37.9377],[13.5688,37.9425],[13.5728,37.944],[13.5781,37.9385],[13.5861,37.9325],[13.5867,37.9276],[13.5854,37.9229],[13.5862,37.9063],[13.5872,37.9037],[13.5896,37.9033]]],[[[13.5592,37.9633],[13.5581,37.9606],[13.5562,37.9594],[13.5527,37.9591],[13.5478,37.959],[13.522,37.9616],[13.5117,37.9754],[13.5048,37.9794],[13.4961,37.9793],[13.4904,37.9801],[13.4924,37.9868],[13.4949,37.991],[13.4972,37.993],[13.503,37.9955],[13.5054,37.9982],[13.5063,38.0025],[13.5056,38.0034],[13.5069,38.0051],[13.5136,38.0085],[13.5142,38.008],[13.5139,38.0068],[13.5184,38.0004],[13.5266,37.9963],[13.5356,37.9975],[13.5396,37.9993],[13.5407,37.9985],[13.5448,37.9919],[13.5495,37.9806],[13.5601,37.9669],[13.5592,37.9633]]]]}},{"type":"Feature","properties":{"i":"082078","n":"Vicari"},"geometry":{"type":"Polygon","coordinates":[[[13.6261,37.8329],[13.6237,37.8321],[13.6125,37.8247],[13.6141,37.8214],[13.619,37.8155],[13.6266,37.8016],[13.6275,37.7971],[13.6267,37.793],[13.6264,37.7922],[13.625,37.7925],[13.6218,37.7946],[13.6199,37.7949],[13.6113,37.791],[13.6105,37.7898],[13.6106,37.7881],[13.6146,37.7838],[13.6251,37.7798],[13.6204,37.776],[13.6153,37.7677],[13.6124,37.7598],[13.6097,37.7573],[13.5999,37.7525],[13.5931,37.7528],[13.5877,37.7552],[13.582,37.7535],[13.5795,37.7459],[13.5809,37.7342],[13.5787,37.7341],[13.5641,37.7506],[13.5561,37.7552],[13.541,37.7473],[13.5377,37.7516],[13.5356,37.7569],[13.5339,37.7582],[13.5211,37.748],[13.5122,37.7577],[13.4959,37.7713],[13.4884,37.7749],[13.4888,37.7785],[13.4917,37.7844],[13.4904,37.7867],[13.5113,37.7919],[13.5182,37.7973],[13.5243,37.7946],[13.5282,37.7911],[13.5355,37.7906],[13.5417,37.793],[13.5416,37.8026],[13.5461,37.8083],[13.5489,37.8101],[13.5524,37.8166],[13.5451,37.8207],[13.542,37.8241],[13.5431,37.826],[13.542,37.8388],[13.551,37.8441],[13.5586,37.8446],[13.571,37.8441],[13.5867,37.8489],[13.5903,37.847],[13.5918,37.8491],[13.606,37.848],[13.6181,37.8373],[13.6229,37.8351],[13.6262,37.8355],[13.6261,37.8329]]]}},{"type":"Feature","properties":{"i":"082079","n":"Villabate"},"geometry":{"type":"Polygon","coordinates":[[[13.4538,38.0803],[13.4551,38.0753],[13.4395,38.0648],[13.4343,38.0672],[13.4341,38.0765],[13.43,38.0781],[13.4351,38.0861],[13.4468,38.0907],[13.4515,38.0887],[13.4522,38.086],[13.4513,38.0816],[13.4538,38.0803]]]}},{"type":"Feature","properties":{"i":"082080","n":"Villafrati"},"geometry":{"type":"Polygon","coordinates":[[[13.5103,37.9486],[13.5111,37.9421],[13.5055,37.938],[13.5027,37.9379],[13.5001,37.9312],[13.5077,37.9246],[13.5145,37.9198],[13.5172,37.9169],[13.5182,37.9114],[13.5236,37.9023],[13.5257,37.9018],[13.5389,37.9044],[13.5353,37.8958],[13.5323,37.8948],[13.5105,37.8929],[13.5067,37.8933],[13.5015,37.8966],[13.4959,37.8975],[13.4893,37.8978],[13.4846,37.8962],[13.4805,37.9063],[13.4798,37.9133],[13.4743,37.9285],[13.4718,37.931],[13.4712,37.9368],[13.4539,37.9455],[13.4519,37.9478],[13.4583,37.9488],[13.4736,37.9613],[13.4858,37.9677],[13.4913,37.9618],[13.4934,37.9554],[13.499,37.9519],[13.5039,37.9505],[13.5079,37.9505],[13.5103,37.9486]]]}},{"type":"Feature","properties":{"i":"082081","n":"Scillato"},"geometry":{"type":"Polygon","coordinates":[[[13.9738,37.8804],[13.9694,37.8787],[13.9617,37.8725],[13.9592,37.8632],[13.9582,37.8463],[13.9573,37.8431],[13.9527,37.8354],[13.9531,37.8328],[13.9308,37.8357],[13.9233,37.8385],[13.9108,37.8501],[13.8902,37.8633],[13.8822,37.862],[13.8695,37.8646],[13.8658,37.8708],[13.8676,37.8734],[13.8683,37.8775],[13.8678,37.8799],[13.8633,37.8888],[13.8679,37.8879],[13.8749,37.8889],[13.8844,37.8862],[13.8869,37.8838],[13.8992,37.8826],[13.9189,37.8844],[13.9321,37.8827],[13.9329,37.8784],[13.9404,37.876],[13.949,37.8752],[13.9542,37.8763],[13.9641,37.8844],[13.9711,37.8886],[13.9738,37.8804]]]}},{"type":"Feature","properties":{"i":"082082","n":"Blufi"},"geometry":{"type":"MultiPolygon","coordinates":[[[[14.1806,37.6901],[14.1778,37.6923],[14.1738,37.6939],[14.1618,37.694],[14.1587,37.6989],[14.1606,37.7012],[14.1667,37.7035],[14.1752,37.709],[14.1704,37.7142],[14.1687,37.7225],[14.17,37.7296],[14.1677,37.7336],[14.1646,37.735],[14.1715,37.7398],[14.1806,37.7389],[14.1927,37.734],[14.1948,37.7262],[14.191,37.7119],[14.1896,37.702],[14.1832,37.6924],[14.1806,37.6901]]],[[[14.0896,37.7501],[14.0885,37.7459],[14.08,37.7404],[14.0782,37.7397],[14.0739,37.7405],[14.0703,37.7399],[14.0666,37.7375],[14.065,37.7327],[14.0647,37.729],[14.0657,37.7263],[14.066,37.7212],[14.05,37.7225],[14.0455,37.7241],[14.0435,37.7259],[14.0457,37.7274],[14.0542,37.7405],[14.0581,37.7557],[14.0621,37.7599],[14.0718,37.7745],[14.0772,37.7799],[14.0811,37.7775],[14.0819,37.7761],[14.0882,37.7567],[14.0896,37.7501]]]]}}]}
