{"type":"FeatureCollection","fonte":"Confini comunali ISTAT via openpolis/geojson-italy — CC BY 4.0","features":[{"type":"Feature","properties":{"i":"033001","n":"Agazzano"},"geometry":{"type":"Polygon","coordinates":[[[9.5485,44.9791],[9.5422,44.9635],[9.5341,44.9503],[9.5273,44.9421],[9.5182,44.9334],[9.5073,44.928],[9.5026,44.9281],[9.4964,44.9327],[9.4872,44.9461],[9.477,44.9494],[9.4719,44.9521],[9.4626,44.9589],[9.4549,44.9609],[9.4582,44.9726],[9.4589,44.978],[9.4841,44.9952],[9.4995,45.0008],[9.4999,45.0028],[9.5053,45.0088],[9.5102,45.0118],[9.5109,45.0119],[9.5106,45.0022],[9.5126,44.9966],[9.5183,44.9948],[9.5259,44.9887],[9.5281,44.9857],[9.5302,44.98],[9.5485,44.9791]]]}},{"type":"Feature","properties":{"i":"033002","n":"Alseno"},"geometry":{"type":"Polygon","coordinates":[[[9.9874,44.9359],[9.9991,44.9292],[9.9926,44.9143],[9.9939,44.9077],[9.9978,44.9047],[10.0042,44.9018],[10.0075,44.8974],[10.0098,44.891],[10.0123,44.8879],[10.0107,44.8833],[10.0109,44.8756],[10.0088,44.8739],[10.0026,44.8724],[9.9992,44.8707],[9.9851,44.8585],[9.9849,44.8512],[9.9867,44.8456],[9.9787,44.844],[9.9689,44.839],[9.9607,44.8378],[9.9577,44.8399],[9.9542,44.8404],[9.9485,44.8377],[9.9489,44.8399],[9.9447,44.8496],[9.9413,44.8538],[9.9368,44.8553],[9.9191,44.8577],[9.9229,44.8629],[9.9244,44.8671],[9.9239,44.8689],[9.9152,44.8808],[9.8944,44.8904],[9.8926,44.8906],[9.8898,44.8988],[9.8902,44.9007],[9.8951,44.8993],[9.9057,44.9013],[9.915,44.9005],[9.9195,44.8994],[9.9183,44.8966],[9.926,44.8942],[9.9326,44.8931],[9.9412,44.9035],[9.9462,44.9083],[9.9468,44.908],[9.9554,44.9145],[9.9648,44.9377],[9.9679,44.9409],[9.9701,44.9411],[9.974,44.9436],[9.9756,44.9502],[9.98,44.9485],[9.9859,44.9505],[9.9849,44.9454],[9.9816,44.9418],[9.9794,44.9371],[9.9874,44.9359]]]}},{"type":"Feature","properties":{"i":"033003","n":"Besenzone"},"geometry":{"type":"Polygon","coordinates":[[[9.9973,45.0011],[10.031,44.9838],[10.028,44.9806],[10.0044,44.9684],[9.9962,44.957],[9.9874,44.9359],[9.9794,44.9371],[9.9816,44.9418],[9.9849,44.9454],[9.9859,44.9505],[9.98,44.9485],[9.9756,44.9502],[9.9727,44.9587],[9.9634,44.961],[9.9388,44.9622],[9.9374,44.9592],[9.9304,44.9613],[9.9289,44.9626],[9.9331,44.9671],[9.9409,44.9798],[9.9419,44.9798],[9.9485,44.9882],[9.9448,44.9894],[9.9456,44.9909],[9.9523,44.9907],[9.9736,44.9871],[9.992,44.9929],[9.9973,45.0011]]]}},{"type":"Feature","properties":{"i":"033004","n":"Bettola"},"geometry":{"type":"Polygon","coordinates":[[[9.6119,44.8353],[9.618,44.8266],[9.6191,44.8225],[9.6245,44.8204],[9.628,44.82],[9.648,44.8211],[9.659,44.8236],[9.663,44.8267],[9.6657,44.8311],[9.6687,44.8325],[9.6817,44.8307],[9.6844,44.8294],[9.6836,44.8263],[9.6806,44.8219],[9.6807,44.8039],[9.679,44.7996],[9.6599,44.7829],[9.6529,44.7726],[9.6513,44.7671],[9.6508,44.7606],[9.6514,44.7571],[9.6605,44.7476],[9.6621,44.7442],[9.6677,44.7389],[9.6703,44.735],[9.6702,44.7329],[9.6611,44.7228],[9.6558,44.7195],[9.6467,44.717],[9.6394,44.7189],[9.6277,44.7265],[9.6209,44.7256],[9.6133,44.7222],[9.6049,44.7238],[9.5953,44.7275],[9.5915,44.7252],[9.5914,44.7238],[9.585,44.7231],[9.5739,44.7284],[9.5705,44.7315],[9.5731,44.7337],[9.5755,44.733],[9.5775,44.7353],[9.5806,44.7433],[9.5743,44.7448],[9.5731,44.7423],[9.5704,44.7411],[9.5679,44.7413],[9.5659,44.7448],[9.5656,44.7535],[9.5516,44.7567],[9.5516,44.758],[9.5435,44.7585],[9.5406,44.7577],[9.5366,44.7516],[9.5314,44.7474],[9.5249,44.7435],[9.5191,44.7422],[9.5099,44.7429],[9.5031,44.7451],[9.5019,44.7463],[9.5012,44.7488],[9.503,44.7507],[9.5036,44.7541],[9.5036,44.7671],[9.4983,44.7716],[9.4967,44.7764],[9.496,44.7804],[9.4977,44.791],[9.5138,44.7906],[9.5161,44.7945],[9.5158,44.7957],[9.519,44.7981],[9.5286,44.7978],[9.5307,44.7985],[9.5352,44.8023],[9.537,44.8062],[9.5397,44.8091],[9.5448,44.8085],[9.555,44.8034],[9.5592,44.8039],[9.5646,44.8136],[9.5635,44.8179],[9.5604,44.8225],[9.5588,44.8269],[9.568,44.8388],[9.5939,44.8314],[9.603,44.8321],[9.6119,44.8353]]]}},{"type":"Feature","properties":{"i":"033005","n":"Bobbio"},"geometry":{"type":"MultiPolygon","coordinates":[[[[9.481,44.8301],[9.4801,44.8303],[9.4802,44.8313],[9.4821,44.8309],[9.481,44.8301]]],[[[9.4756,44.8184],[9.4737,44.819],[9.4685,44.8184],[9.469,44.8141],[9.4619,44.8069],[9.4512,44.8017],[9.4475,44.8021],[9.4461,44.8032],[9.4449,44.8101],[9.446,44.8118],[9.4455,44.8137],[9.4438,44.8136],[9.4377,44.8115],[9.4348,44.8069],[9.4226,44.7984],[9.4146,44.7963],[9.4152,44.7951],[9.4269,44.7875],[9.4394,44.7857],[9.4454,44.7784],[9.441,44.7699],[9.4189,44.7648],[9.411,44.7659],[9.4068,44.7629],[9.4031,44.7541],[9.4001,44.7359],[9.4098,44.7299],[9.4074,44.7266],[9.4041,44.7246],[9.4004,44.7266],[9.3983,44.7304],[9.3917,44.7351],[9.3877,44.7365],[9.3646,44.7402],[9.3445,44.7418],[9.3385,44.7404],[9.3349,44.7386],[9.3326,44.735],[9.327,44.7379],[9.3212,44.7434],[9.3088,44.7475],[9.2981,44.7522],[9.2882,44.7574],[9.2855,44.7601],[9.2847,44.7671],[9.287,44.7725],[9.3072,44.78],[9.3179,44.7862],[9.3215,44.8],[9.3253,44.799],[9.3299,44.8],[9.3545,44.8123],[9.3577,44.8146],[9.3631,44.8224],[9.3656,44.824],[9.3706,44.8262],[9.3758,44.8267],[9.3817,44.8295],[9.3859,44.8348],[9.3875,44.8399],[9.3981,44.8455],[9.4113,44.8451],[9.4155,44.8468],[9.421,44.8521],[9.4374,44.8554],[9.4472,44.8555],[9.4489,44.8573],[9.4554,44.8519],[9.4719,44.8461],[9.4755,44.8446],[9.4769,44.8432],[9.4787,44.8359],[9.4779,44.8272],[9.4756,44.8184]]]]}},{"type":"Feature","properties":{"i":"033006","n":"Borgonovo Val Tidone"},"geometry":{"type":"Polygon","coordinates":[[[9.5288,45.0388],[9.5316,45.038],[9.5294,45.0314],[9.5347,45.0294],[9.5319,45.0248],[9.5053,45.0088],[9.4999,45.0028],[9.4995,45.0008],[9.4841,44.9952],[9.4624,44.9808],[9.4537,44.973],[9.4362,44.9598],[9.4352,44.9562],[9.4329,44.9541],[9.4289,44.9548],[9.4239,44.9535],[9.419,44.9554],[9.4077,44.9634],[9.4021,44.9678],[9.4006,44.97],[9.4005,44.9706],[9.4047,44.9722],[9.4087,44.9724],[9.4182,44.975],[9.4224,44.9785],[9.4256,44.9826],[9.4245,44.9999],[9.4255,45.0047],[9.4144,45.0066],[9.4151,45.0165],[9.4187,45.0312],[9.4281,45.0338],[9.4433,45.0407],[9.4491,45.0403],[9.4536,45.0388],[9.4611,45.0393],[9.4639,45.0345],[9.4703,45.0331],[9.4878,45.0353],[9.4907,45.0366],[9.4974,45.0424],[9.5003,45.0463],[9.5036,45.047],[9.5164,45.0436],[9.5288,45.0388]]]}},{"type":"Feature","properties":{"i":"033007","n":"Cadeo"},"geometry":{"type":"Polygon","coordinates":[[[9.8952,44.9842],[9.8885,44.974],[9.8843,44.969],[9.8759,44.9606],[9.8724,44.9587],[9.8688,44.9542],[9.8683,44.9534],[9.869,44.9528],[9.8741,44.9498],[9.8668,44.9365],[9.8608,44.9336],[9.8584,44.9335],[9.8535,44.9354],[9.8464,44.935],[9.8427,44.9381],[9.8423,44.9394],[9.8448,44.9473],[9.8469,44.949],[9.8463,44.95],[9.8415,44.9508],[9.825,44.9481],[9.821,44.9452],[9.8094,44.9448],[9.809,44.9468],[9.8129,44.9503],[9.8215,44.9539],[9.8228,44.9563],[9.8169,44.9594],[9.809,44.9618],[9.8117,44.9738],[9.8108,44.9851],[9.8178,44.9905],[9.8268,45.0003],[9.8337,45.0099],[9.8393,45.0078],[9.8481,45.0158],[9.8538,45.0145],[9.8595,45.0096],[9.867,45.0071],[9.8694,45.0],[9.8737,44.9973],[9.8807,44.9965],[9.8841,44.998],[9.8849,44.9993],[9.8991,44.9958],[9.8999,44.9937],[9.8952,44.9842]]]}},{"type":"Feature","properties":{"i":"033008","n":"Calendasco"},"geometry":{"type":"Polygon","coordinates":[[[9.6769,45.0776],[9.6753,45.0763],[9.6655,45.0723],[9.6551,45.0706],[9.6448,45.0666],[9.6336,45.056],[9.6064,45.0618],[9.5849,45.0651],[9.577,45.0692],[9.5717,45.0738],[9.5702,45.0884],[9.5715,45.0987],[9.5556,45.1103],[9.5372,45.1261],[9.5487,45.1327],[9.553,45.1306],[9.5566,45.1275],[9.5624,45.1203],[9.5686,45.1073],[9.5771,45.1052],[9.586,45.105],[9.5874,45.0996],[9.6004,45.1035],[9.6091,45.1084],[9.6131,45.1132],[9.6151,45.1262],[9.6184,45.133],[9.6224,45.134],[9.6278,45.1327],[9.6337,45.1291],[9.6374,45.1255],[9.6396,45.1219],[9.6409,45.1166],[9.6379,45.1131],[9.6377,45.1027],[9.6318,45.0914],[9.6318,45.0868],[9.6363,45.0831],[9.6423,45.0807],[9.6535,45.0814],[9.668,45.0798],[9.6769,45.0776]]]}},{"type":"Feature","properties":{"i":"033010","n":"Caorso"},"geometry":{"type":"Polygon","coordinates":[[[9.8843,45.0749],[9.8881,45.0661],[9.9069,45.0587],[9.9105,45.0584],[9.9095,45.0543],[9.9049,45.0488],[9.9025,45.0475],[9.8961,45.0392],[9.8965,45.0331],[9.8931,45.0298],[9.8902,45.0283],[9.8812,45.0309],[9.8764,45.0287],[9.8735,45.0223],[9.868,45.0207],[9.866,45.0202],[9.8623,45.0223],[9.8618,45.0244],[9.8567,45.0265],[9.8413,45.0197],[9.7975,45.0353],[9.8021,45.0483],[9.8079,45.0508],[9.8094,45.0503],[9.8105,45.0473],[9.8117,45.0467],[9.8202,45.0479],[9.823,45.0495],[9.8238,45.0526],[9.8271,45.0536],[9.8332,45.0604],[9.8352,45.069],[9.8341,45.0743],[9.8314,45.0811],[9.8322,45.0894],[9.8343,45.0933],[9.8384,45.0956],[9.8464,45.0968],[9.8566,45.0951],[9.8615,45.0936],[9.8692,45.0873],[9.8762,45.077],[9.8807,45.0748],[9.8843,45.0749]]]}},{"type":"Feature","properties":{"i":"033011","n":"Carpaneto Piacentino"},"geometry":{"type":"Polygon","coordinates":[[[9.8478,44.9348],[9.846,44.9323],[9.8453,44.928],[9.8466,44.9252],[9.8494,44.9226],[9.8504,44.9143],[9.8449,44.9089],[9.8403,44.9092],[9.8348,44.9061],[9.8348,44.9042],[9.8368,44.9007],[9.8368,44.8978],[9.8357,44.8953],[9.8214,44.8783],[9.8159,44.8681],[9.7959,44.8439],[9.7864,44.8391],[9.7819,44.8403],[9.7808,44.8445],[9.7781,44.8462],[9.7658,44.8458],[9.7613,44.8417],[9.7566,44.8337],[9.7556,44.8307],[9.7498,44.8322],[9.7517,44.8375],[9.7562,44.8439],[9.7585,44.8463],[9.7644,44.8489],[9.7689,44.8538],[9.7706,44.8576],[9.7676,44.8662],[9.7634,44.8653],[9.7539,44.8701],[9.75,44.8713],[9.7445,44.8711],[9.7381,44.8682],[9.7345,44.8713],[9.7321,44.8748],[9.74,44.8812],[9.7508,44.8874],[9.7578,44.8941],[9.7651,44.9144],[9.7642,44.9263],[9.7716,44.9293],[9.7794,44.9338],[9.7855,44.9394],[9.7901,44.9417],[9.7936,44.9432],[9.7983,44.9425],[9.8015,44.943],[9.8023,44.9451],[9.8019,44.9478],[9.808,44.9551],[9.809,44.9618],[9.8169,44.9594],[9.8228,44.9563],[9.8215,44.9539],[9.8129,44.9503],[9.809,44.9468],[9.8094,44.9448],[9.821,44.9452],[9.825,44.9481],[9.8415,44.9508],[9.8463,44.95],[9.8469,44.949],[9.8448,44.9473],[9.8424,44.9385],[9.8464,44.935],[9.8478,44.9348]]]}},{"type":"Feature","properties":{"i":"033012","n":"Castell'Arquato"},"geometry":{"type":"Polygon","coordinates":[[[9.8902,44.9007],[9.8898,44.8988],[9.8926,44.8906],[9.8944,44.8904],[9.9152,44.8808],[9.9239,44.8689],[9.9244,44.8671],[9.9229,44.8629],[9.9191,44.8577],[9.9169,44.8568],[9.9151,44.8575],[9.9107,44.852],[9.9117,44.8476],[9.9202,44.8409],[9.9148,44.837],[9.9082,44.835],[9.9034,44.835],[9.8999,44.8367],[9.89,44.8361],[9.8727,44.8327],[9.8662,44.8308],[9.8629,44.8283],[9.848,44.821],[9.8413,44.826],[9.8382,44.8352],[9.8307,44.8474],[9.8285,44.8564],[9.8159,44.8681],[9.8214,44.8783],[9.8318,44.8899],[9.8359,44.8958],[9.8368,44.9007],[9.8348,44.9042],[9.8347,44.906],[9.8403,44.9092],[9.8449,44.9089],[9.8465,44.9049],[9.8488,44.9033],[9.8521,44.9031],[9.8561,44.9093],[9.8594,44.9094],[9.8652,44.9059],[9.8703,44.9043],[9.8902,44.9007]]]}},{"type":"Feature","properties":{"i":"033013","n":"Castel San Giovanni"},"geometry":{"type":"Polygon","coordinates":[[[9.4584,45.0391],[9.4536,45.0388],[9.4491,45.0403],[9.4433,45.0407],[9.4281,45.0338],[9.4187,45.0312],[9.4169,45.0255],[9.4159,45.0188],[9.4048,45.0213],[9.4037,45.0222],[9.4041,45.0238],[9.4023,45.026],[9.3756,45.0199],[9.3694,45.0237],[9.3735,45.037],[9.3756,45.0404],[9.3708,45.0482],[9.3924,45.0662],[9.4064,45.0732],[9.4126,45.0789],[9.4108,45.0828],[9.4127,45.0837],[9.4219,45.084],[9.4263,45.0831],[9.4275,45.0818],[9.4356,45.0818],[9.437,45.0835],[9.4391,45.0899],[9.439,45.0934],[9.4677,45.0949],[9.4753,45.0966],[9.4802,45.0988],[9.4829,45.096],[9.485,45.0912],[9.4844,45.0875],[9.4805,45.0872],[9.4798,45.0856],[9.4797,45.0788],[9.4809,45.0721],[9.4837,45.0664],[9.4826,45.063],[9.4748,45.0623],[9.4696,45.0588],[9.4603,45.0476],[9.4584,45.0432],[9.4584,45.0391]]]}},{"type":"Feature","properties":{"i":"033014","n":"Castelvetro Piacentino"},"geometry":{"type":"Polygon","coordinates":[[[10.0178,45.1041],[10.0243,45.1008],[10.0285,45.0962],[10.0298,45.0924],[10.0295,45.0872],[10.0284,45.0852],[10.0242,45.0822],[10.0213,45.0772],[10.0229,45.0732],[10.0297,45.0668],[10.0342,45.065],[10.0407,45.0638],[10.0397,45.0623],[10.0238,45.0588],[10.0188,45.0626],[10.0077,45.0641],[9.9941,45.053],[9.9881,45.0563],[9.9742,45.0562],[9.9689,45.0554],[9.9616,45.0565],[9.9547,45.0594],[9.9509,45.0642],[9.9533,45.0704],[9.9576,45.0744],[9.962,45.0831],[9.9619,45.0899],[9.9682,45.1036],[9.9719,45.1055],[9.9764,45.1108],[9.974,45.1217],[9.9726,45.1235],[9.9664,45.1275],[9.9712,45.1323],[9.9762,45.1338],[9.9837,45.1337],[9.9911,45.131],[10.0001,45.1227],[10.0109,45.1096],[10.0178,45.1041]]]}},{"type":"Feature","properties":{"i":"033015","n":"Cerignale"},"geometry":{"type":"Polygon","coordinates":[[[9.3862,44.6712],[9.3878,44.6605],[9.3903,44.6579],[9.3947,44.6579],[9.3983,44.6554],[9.4059,44.6369],[9.4059,44.6345],[9.403,44.6308],[9.4027,44.6167],[9.3912,44.6194],[9.3749,44.617],[9.3707,44.6172],[9.3729,44.6216],[9.3762,44.6333],[9.3764,44.6374],[9.3749,44.6408],[9.3477,44.6574],[9.3326,44.6633],[9.3203,44.6648],[9.3148,44.6638],[9.3058,44.6656],[9.3069,44.6677],[9.2983,44.6799],[9.2985,44.681],[9.3056,44.6883],[9.3107,44.6881],[9.3246,44.69],[9.3308,44.6889],[9.3393,44.6889],[9.3499,44.6902],[9.3602,44.693],[9.3669,44.688],[9.3724,44.6791],[9.378,44.6747],[9.3862,44.6712]]]}},{"type":"Feature","properties":{"i":"033016","n":"Coli"},"geometry":{"type":"Polygon","coordinates":[[[9.5158,44.7957],[9.5161,44.7945],[9.5138,44.7906],[9.4977,44.791],[9.4961,44.7797],[9.4983,44.7716],[9.5036,44.7671],[9.503,44.7507],[9.5015,44.7494],[9.495,44.7484],[9.4889,44.745],[9.4822,44.743],[9.4768,44.745],[9.4702,44.7452],[9.4669,44.7431],[9.4624,44.7385],[9.4634,44.7289],[9.4659,44.7268],[9.4698,44.7255],[9.467,44.7187],[9.467,44.7106],[9.4699,44.706],[9.4715,44.7011],[9.469,44.6998],[9.4662,44.6999],[9.4554,44.6966],[9.4473,44.6928],[9.4476,44.694],[9.4458,44.6963],[9.4366,44.7008],[9.4249,44.7081],[9.4138,44.7121],[9.4009,44.7143],[9.4017,44.7213],[9.4041,44.7246],[9.4074,44.7266],[9.4098,44.7299],[9.4001,44.7359],[9.4031,44.7541],[9.4068,44.7629],[9.411,44.7659],[9.4189,44.7648],[9.441,44.7699],[9.4454,44.7784],[9.4394,44.7857],[9.4269,44.7875],[9.4152,44.7951],[9.4146,44.7963],[9.4226,44.7984],[9.4348,44.8069],[9.4377,44.8115],[9.4423,44.8133],[9.4455,44.8137],[9.446,44.8114],[9.4449,44.8101],[9.4461,44.8032],[9.4475,44.8021],[9.4512,44.8017],[9.4619,44.8069],[9.469,44.8141],[9.4685,44.8184],[9.4737,44.819],[9.481,44.8179],[9.5004,44.8219],[9.5046,44.8193],[9.5087,44.8124],[9.5102,44.806],[9.5158,44.7957]]]}},{"type":"Feature","properties":{"i":"033017","n":"Corte Brugnatella"},"geometry":{"type":"MultiPolygon","coordinates":[[[[9.2992,44.6925],[9.2989,44.6937],[9.3042,44.6966],[9.3047,44.6953],[9.3041,44.6937],[9.2992,44.6925]]],[[[9.2897,44.7012],[9.2909,44.7052],[9.2928,44.7059],[9.2997,44.7045],[9.3017,44.7031],[9.2897,44.7012]]],[[[9.4041,44.7246],[9.4017,44.7213],[9.4009,44.7143],[9.4138,44.7121],[9.4249,44.7081],[9.4366,44.7008],[9.4458,44.6963],[9.4476,44.694],[9.4473,44.6928],[9.444,44.69],[9.4396,44.6886],[9.4247,44.6869],[9.4171,44.6834],[9.4058,44.6828],[9.4006,44.6842],[9.3932,44.6823],[9.3898,44.6796],[9.3862,44.6712],[9.378,44.6747],[9.3724,44.6791],[9.3669,44.688],[9.3602,44.693],[9.356,44.6915],[9.3449,44.6894],[9.3348,44.6887],[9.3261,44.6895],[9.3246,44.69],[9.3262,44.6938],[9.3221,44.6946],[9.3154,44.6974],[9.3101,44.7016],[9.3086,44.7043],[9.3085,44.7056],[9.313,44.7141],[9.3172,44.7195],[9.3259,44.7231],[9.3296,44.7281],[9.3349,44.7386],[9.3385,44.7404],[9.3445,44.7418],[9.3646,44.7402],[9.3877,44.7365],[9.3917,44.7351],[9.3972,44.7315],[9.4,44.727],[9.4041,44.7246]]]]}},{"type":"Feature","properties":{"i":"033018","n":"Cortemaggiore"},"geometry":{"type":"Polygon","coordinates":[[[9.9846,45.0174],[9.9888,45.0171],[9.9954,45.012],[9.9915,45.0093],[9.9909,45.0041],[9.9973,45.0011],[9.992,44.9929],[9.9736,44.9871],[9.9523,44.9907],[9.9456,44.9909],[9.9448,44.9894],[9.9485,44.9882],[9.9419,44.9798],[9.9409,44.9798],[9.9331,44.9671],[9.9254,44.9588],[9.9186,44.9609],[9.9184,44.9682],[9.9173,44.9724],[9.9149,44.9764],[9.9135,44.9773],[9.9119,44.9749],[9.9101,44.969],[9.9071,44.9683],[9.9034,44.9714],[9.9103,44.9798],[9.8952,44.9842],[9.8999,44.9937],[9.8991,44.9958],[9.8849,44.9993],[9.8841,44.998],[9.8807,44.9965],[9.8737,44.9973],[9.8694,45.0],[9.867,45.0071],[9.8595,45.0096],[9.8538,45.0145],[9.8481,45.0158],[9.8393,45.0078],[9.8337,45.0099],[9.8413,45.0197],[9.8434,45.0209],[9.8567,45.0265],[9.8618,45.0244],[9.8623,45.0223],[9.866,45.0202],[9.868,45.0207],[9.8735,45.0223],[9.8764,45.0287],[9.8812,45.0309],[9.888,45.0286],[9.8827,45.0186],[9.8869,45.0145],[9.9076,45.0097],[9.9203,45.027],[9.9343,45.0227],[9.9289,45.0119],[9.9399,45.0082],[9.9514,45.0061],[9.964,45.0072],[9.9754,45.01],[9.9846,45.0174]]]}},{"type":"Feature","properties":{"i":"033019","n":"Farini"},"geometry":{"type":"Polygon","coordinates":[[[9.6523,44.7182],[9.6542,44.7156],[9.6545,44.7112],[9.6618,44.7063],[9.6657,44.7048],[9.6699,44.7003],[9.6744,44.6923],[9.6752,44.6876],[9.6719,44.6838],[9.6691,44.6822],[9.6618,44.6804],[9.6551,44.6742],[9.6536,44.6717],[9.6402,44.665],[9.6282,44.6626],[9.6241,44.6585],[9.6241,44.657],[9.6275,44.6537],[9.6285,44.6516],[9.6318,44.6406],[9.6185,44.6367],[9.6059,44.6318],[9.6022,44.6295],[9.5954,44.633],[9.5929,44.6356],[9.5902,44.6422],[9.5856,44.6463],[9.5791,44.6488],[9.5797,44.6553],[9.5747,44.6668],[9.5651,44.6814],[9.5658,44.688],[9.5654,44.6956],[9.5535,44.6952],[9.5341,44.6973],[9.5288,44.6964],[9.5108,44.69],[9.5102,44.6861],[9.5107,44.6809],[9.5078,44.6776],[9.4992,44.6774],[9.492,44.6782],[9.469,44.6998],[9.4715,44.7011],[9.4716,44.7021],[9.467,44.7106],[9.467,44.7187],[9.4698,44.7255],[9.4659,44.7268],[9.4634,44.7289],[9.4624,44.7385],[9.4669,44.7431],[9.4702,44.7452],[9.4768,44.745],[9.4822,44.743],[9.4889,44.745],[9.495,44.7484],[9.501,44.7494],[9.5017,44.7468],[9.5031,44.7451],[9.5082,44.7432],[9.5191,44.7422],[9.5249,44.7435],[9.5314,44.7474],[9.5366,44.7516],[9.5406,44.7577],[9.5435,44.7585],[9.5516,44.758],[9.5516,44.7567],[9.5656,44.7535],[9.5659,44.7448],[9.5679,44.7413],[9.5704,44.7411],[9.5731,44.7423],[9.5743,44.7448],[9.5806,44.7433],[9.5775,44.7353],[9.5755,44.733],[9.5731,44.7337],[9.5705,44.7315],[9.5739,44.7284],[9.585,44.7231],[9.5914,44.7238],[9.5915,44.7252],[9.5953,44.7275],[9.6049,44.7238],[9.6133,44.7222],[9.6209,44.7256],[9.6271,44.7265],[9.6394,44.7189],[9.6437,44.7173],[9.6467,44.717],[9.6523,44.7182]]]}},{"type":"Feature","properties":{"i":"033020","n":"Ferriere"},"geometry":{"type":"Polygon","coordinates":[[[9.6022,44.6295],[9.5841,44.6221],[9.5811,44.6184],[9.5809,44.6147],[9.5762,44.6099],[9.5684,44.6075],[9.5633,44.6075],[9.5587,44.6045],[9.5526,44.5979],[9.5534,44.5905],[9.5524,44.5895],[9.5491,44.5878],[9.5391,44.5888],[9.5323,44.5855],[9.5248,44.5754],[9.5112,44.5621],[9.4933,44.5559],[9.4908,44.5589],[9.4861,44.5613],[9.4696,44.5659],[9.4634,44.5658],[9.4534,44.5621],[9.4514,44.5713],[9.4503,44.5718],[9.4469,44.5718],[9.4434,44.5682],[9.4407,44.5667],[9.4341,44.5702],[9.4303,44.5741],[9.4252,44.5756],[9.4231,44.5746],[9.4209,44.5776],[9.4189,44.5854],[9.4213,44.5926],[9.4186,44.5956],[9.4056,44.6008],[9.4025,44.6055],[9.395,44.6108],[9.3951,44.6124],[9.3986,44.6154],[9.4027,44.6167],[9.403,44.6308],[9.4059,44.6345],[9.4059,44.6369],[9.3983,44.6554],[9.3947,44.6579],[9.3903,44.6579],[9.3878,44.6605],[9.3863,44.6721],[9.3902,44.6804],[9.3932,44.6823],[9.4006,44.6842],[9.4058,44.6828],[9.4171,44.6834],[9.4247,44.6869],[9.4396,44.6886],[9.444,44.69],[9.4473,44.6928],[9.4544,44.6962],[9.4662,44.6999],[9.469,44.6998],[9.492,44.6782],[9.4992,44.6774],[9.5078,44.6776],[9.5107,44.6809],[9.5102,44.6861],[9.5108,44.69],[9.5288,44.6964],[9.5341,44.6973],[9.5535,44.6952],[9.5625,44.6952],[9.5645,44.6958],[9.5654,44.6956],[9.5659,44.6931],[9.5651,44.6814],[9.5747,44.6668],[9.5797,44.6553],[9.5791,44.6488],[9.5856,44.6463],[9.5902,44.6422],[9.5929,44.6356],[9.5954,44.633],[9.6022,44.6295]]]}},{"type":"Feature","properties":{"i":"033021","n":"Fiorenzuola d'Arda"},"geometry":{"type":"Polygon","coordinates":[[[9.9289,44.9626],[9.9304,44.9613],[9.9374,44.9592],[9.9388,44.9622],[9.9654,44.9607],[9.9727,44.9587],[9.9756,44.9502],[9.974,44.9436],[9.9701,44.9411],[9.9679,44.9409],[9.9648,44.9377],[9.9554,44.9145],[9.9468,44.908],[9.9462,44.9083],[9.9412,44.9035],[9.9326,44.8931],[9.926,44.8942],[9.9183,44.8966],[9.9195,44.8994],[9.915,44.9005],[9.9057,44.9013],[9.8951,44.8993],[9.8863,44.9017],[9.8703,44.9043],[9.8652,44.9059],[9.8594,44.9094],[9.8561,44.9093],[9.8521,44.9031],[9.8488,44.9033],[9.8465,44.9049],[9.8449,44.9089],[9.8507,44.9148],[9.8494,44.9226],[9.8454,44.9273],[9.846,44.9323],[9.8478,44.9348],[9.8535,44.9354],[9.8603,44.9334],[9.8668,44.9365],[9.8741,44.9498],[9.8683,44.9534],[9.8724,44.9587],[9.8759,44.9606],[9.8843,44.969],[9.8885,44.974],[9.8945,44.9837],[9.8952,44.9842],[9.9103,44.9798],[9.9034,44.9714],[9.9071,44.9683],[9.9101,44.969],[9.9131,44.977],[9.9149,44.9764],[9.9173,44.9724],[9.9184,44.9682],[9.9186,44.9609],[9.9254,44.9588],[9.9289,44.9626]]]}},{"type":"Feature","properties":{"i":"033022","n":"Gazzola"},"geometry":{"type":"Polygon","coordinates":[[[9.5914,44.9882],[9.5942,44.9661],[9.5942,44.939],[9.597,44.9305],[9.5862,44.9201],[9.5844,44.9207],[9.5577,44.9132],[9.5526,44.9133],[9.5445,44.9115],[9.5399,44.91],[9.5316,44.9013],[9.5251,44.9013],[9.5218,44.8998],[9.5171,44.8951],[9.5162,44.8851],[9.515,44.8832],[9.5091,44.8829],[9.5023,44.8875],[9.502,44.8884],[9.5064,44.8933],[9.5059,44.8961],[9.5011,44.9018],[9.496,44.9044],[9.499,44.9089],[9.5059,44.9134],[9.5095,44.9177],[9.5115,44.9241],[9.5093,44.9289],[9.5191,44.9342],[9.5273,44.9421],[9.5341,44.9503],[9.5422,44.9635],[9.5485,44.9791],[9.5597,44.9793],[9.5592,44.9803],[9.5749,44.9871],[9.5914,44.9882]]]}},{"type":"Feature","properties":{"i":"033023","n":"Gossolengo"},"geometry":{"type":"Polygon","coordinates":[[[9.5997,45.0303],[9.6062,45.0289],[9.6206,45.0288],[9.6201,45.0255],[9.615,45.0113],[9.6197,45.009],[9.6326,45.0062],[9.6367,45.0002],[9.6574,44.9977],[9.6673,44.9996],[9.6698,45.0045],[9.6733,45.004],[9.6713,44.9966],[9.665,44.9922],[9.6653,44.9878],[9.6681,44.9834],[9.6641,44.9658],[9.6623,44.9647],[9.6584,44.9655],[9.6518,44.9643],[9.6493,44.9625],[9.6476,44.9589],[9.6467,44.959],[9.6319,44.9648],[9.6351,44.9696],[9.6312,44.9709],[9.6275,44.9702],[9.6238,44.9675],[9.6197,44.9614],[9.6078,44.956],[9.5942,44.957],[9.5942,44.9661],[9.5919,44.9812],[9.5906,44.9987],[9.5947,45.0106],[9.5975,45.0259],[9.5997,45.0303]]]}},{"type":"Feature","properties":{"i":"033024","n":"Gragnano Trebbiense"},"geometry":{"type":"Polygon","coordinates":[[[9.5997,45.0303],[9.5975,45.0259],[9.5947,45.0106],[9.5906,44.9987],[9.5914,44.9882],[9.5749,44.9871],[9.5592,44.9803],[9.5597,44.9793],[9.5554,44.9787],[9.5302,44.98],[9.5281,44.9857],[9.5259,44.9887],[9.5183,44.9948],[9.5126,44.9966],[9.5106,45.0022],[9.5109,45.0119],[9.5319,45.0248],[9.5347,45.0294],[9.5426,45.029],[9.5485,45.0269],[9.5528,45.0275],[9.5499,45.0349],[9.5498,45.0379],[9.5515,45.0404],[9.5663,45.0427],[9.5697,45.0415],[9.5756,45.0368],[9.5779,45.0322],[9.5857,45.034],[9.6051,45.0432],[9.6155,45.0423],[9.5997,45.0303]]]}},{"type":"Feature","properties":{"i":"033025","n":"Gropparello"},"geometry":{"type":"Polygon","coordinates":[[[9.7556,44.8307],[9.7543,44.8274],[9.7478,44.8208],[9.743,44.8134],[9.7405,44.8076],[9.7393,44.8007],[9.7348,44.797],[9.707,44.7881],[9.7008,44.7848],[9.6974,44.7769],[9.6943,44.7754],[9.6898,44.7715],[9.6873,44.7641],[9.6761,44.7537],[9.6741,44.7482],[9.6663,44.74],[9.6621,44.7442],[9.6605,44.7476],[9.6514,44.7571],[9.6508,44.7606],[9.6513,44.7671],[9.6529,44.7726],[9.6599,44.7829],[9.6793,44.8002],[9.6807,44.8039],[9.6806,44.8219],[9.6844,44.8281],[9.6837,44.8319],[9.6864,44.8375],[9.6884,44.8407],[9.7079,44.8571],[9.714,44.8658],[9.7321,44.8748],[9.7345,44.8713],[9.7381,44.8682],[9.7445,44.8711],[9.75,44.8713],[9.7539,44.8701],[9.7634,44.8653],[9.7676,44.8662],[9.7706,44.8576],[9.7689,44.8538],[9.7644,44.8489],[9.7585,44.8463],[9.7562,44.8439],[9.7501,44.8343],[9.7498,44.8322],[9.7504,44.8319],[9.7556,44.8307]]]}},{"type":"Feature","properties":{"i":"033026","n":"Lugagnano Val d'Arda"},"geometry":{"type":"Polygon","coordinates":[[[9.848,44.821],[9.8394,44.8119],[9.8368,44.8103],[9.8269,44.8082],[9.8228,44.8103],[9.8134,44.8083],[9.8056,44.8004],[9.8016,44.7986],[9.8002,44.8034],[9.7864,44.7985],[9.783,44.7881],[9.7775,44.78],[9.772,44.7749],[9.7606,44.77],[9.7308,44.7654],[9.7269,44.7666],[9.7217,44.7708],[9.7198,44.7839],[9.7155,44.7852],[9.7113,44.782],[9.7179,44.7741],[9.7184,44.7689],[9.7112,44.7691],[9.6974,44.7769],[9.7004,44.7842],[9.702,44.7857],[9.707,44.7881],[9.7348,44.797],[9.7393,44.8007],[9.7405,44.8076],[9.743,44.8134],[9.7478,44.8208],[9.7543,44.8274],[9.7566,44.8337],[9.7613,44.8417],[9.7641,44.8446],[9.7666,44.8459],[9.7781,44.8462],[9.7808,44.8445],[9.7819,44.8403],[9.7827,44.8399],[9.7864,44.8391],[9.7897,44.8404],[9.7959,44.8439],[9.8159,44.8681],[9.8285,44.8564],[9.8307,44.8474],[9.8382,44.8352],[9.8413,44.826],[9.848,44.821]]]}},{"type":"Feature","properties":{"i":"033027","n":"Monticelli d'Ongina"},"geometry":{"type":"Polygon","coordinates":[[[9.9664,45.1275],[9.9726,45.1235],[9.974,45.1217],[9.9764,45.1108],[9.9719,45.1055],[9.9682,45.1036],[9.9619,45.0899],[9.962,45.0831],[9.9576,45.0744],[9.9533,45.0704],[9.9509,45.0642],[9.9547,45.0594],[9.9616,45.0565],[9.9689,45.0554],[9.987,45.0564],[9.9902,45.0554],[9.9689,45.0412],[9.9634,45.042],[9.9541,45.0414],[9.9534,45.0412],[9.9543,45.0383],[9.9453,45.0377],[9.942,45.0388],[9.9392,45.0435],[9.9395,45.0472],[9.9385,45.053],[9.932,45.0628],[9.9279,45.063],[9.9285,45.0601],[9.9265,45.0579],[9.9147,45.059],[9.9069,45.0587],[9.8881,45.0661],[9.8843,45.0749],[9.8897,45.0763],[9.8968,45.0805],[9.9009,45.0875],[9.9008,45.0947],[9.8942,45.1018],[9.8778,45.1135],[9.8758,45.1171],[9.8754,45.1217],[9.88,45.1264],[9.8911,45.1309],[9.9081,45.1357],[9.9113,45.1383],[9.9137,45.1391],[9.9186,45.1381],[9.9226,45.1359],[9.9263,45.132],[9.9271,45.126],[9.9216,45.114],[9.9149,45.11],[9.9135,45.1046],[9.9152,45.1004],[9.9185,45.0996],[9.9256,45.1006],[9.9358,45.1044],[9.96,45.1214],[9.9664,45.1275]]]}},{"type":"Feature","properties":{"i":"033028","n":"Morfasso"},"geometry":{"type":"Polygon","coordinates":[[[9.7796,44.7832],[9.7815,44.7829],[9.7921,44.7852],[9.7939,44.7849],[9.7978,44.7808],[9.7993,44.7745],[9.7955,44.7671],[9.7723,44.7507],[9.7593,44.7347],[9.768,44.7101],[9.7656,44.7097],[9.7622,44.7054],[9.7641,44.7022],[9.7655,44.6932],[9.7652,44.6813],[9.7599,44.6798],[9.74,44.6796],[9.7194,44.6771],[9.7114,44.6759],[9.7074,44.6746],[9.706,44.6731],[9.7028,44.6717],[9.697,44.6717],[9.6867,44.6751],[9.6795,44.6841],[9.6752,44.6876],[9.6744,44.6923],[9.668,44.7025],[9.6646,44.7055],[9.6618,44.7063],[9.6545,44.7112],[9.6542,44.7156],[9.6523,44.7182],[9.6569,44.72],[9.6611,44.7228],[9.6702,44.7329],[9.6702,44.7354],[9.6663,44.74],[9.6741,44.7482],[9.6761,44.7537],[9.6873,44.7641],[9.6898,44.7715],[9.6943,44.7754],[9.6974,44.7769],[9.7112,44.7691],[9.7184,44.7689],[9.7179,44.7741],[9.7113,44.782],[9.7155,44.7852],[9.7198,44.7839],[9.7217,44.7708],[9.7269,44.7666],[9.7308,44.7654],[9.7619,44.7704],[9.772,44.7749],[9.7775,44.78],[9.7796,44.7832]]]}},{"type":"Feature","properties":{"i":"033030","n":"Ottone"},"geometry":{"type":"Polygon","coordinates":[[[9.3058,44.6656],[9.3148,44.6638],[9.3203,44.6648],[9.3326,44.6633],[9.3477,44.6574],[9.3749,44.6408],[9.3764,44.6374],[9.3762,44.6333],[9.3729,44.6216],[9.3707,44.6172],[9.3749,44.617],[9.3912,44.6194],[9.4027,44.6167],[9.3986,44.6154],[9.3949,44.6117],[9.3958,44.61],[9.397,44.6099],[9.4025,44.6055],[9.4056,44.6008],[9.4031,44.5915],[9.3994,44.5882],[9.3976,44.5876],[9.3938,44.5878],[9.3894,44.5902],[9.3847,44.5843],[9.3838,44.5804],[9.3811,44.5767],[9.374,44.5798],[9.3694,44.5831],[9.3642,44.5847],[9.3554,44.5844],[9.3496,44.5821],[9.3467,44.5795],[9.3363,44.582],[9.3278,44.589],[9.3079,44.6005],[9.3049,44.6051],[9.3004,44.6078],[9.2974,44.6067],[9.2938,44.6084],[9.2881,44.6079],[9.2873,44.6074],[9.2854,44.5998],[9.2842,44.5979],[9.2802,44.5962],[9.2725,44.5959],[9.258,44.5995],[9.2468,44.5992],[9.2456,44.5997],[9.2452,44.6004],[9.2461,44.6019],[9.2531,44.607],[9.2565,44.6106],[9.2528,44.6152],[9.2455,44.6196],[9.2247,44.618],[9.2089,44.6153],[9.203,44.6135],[9.2004,44.6153],[9.2006,44.6262],[9.1986,44.6386],[9.1996,44.644],[9.198,44.6498],[9.203,44.6533],[9.2064,44.6602],[9.204,44.67],[9.2019,44.6716],[9.2079,44.6715],[9.2174,44.6741],[9.2287,44.6732],[9.2349,44.6709],[9.2427,44.6589],[9.2559,44.655],[9.2649,44.6546],[9.2697,44.6572],[9.2713,44.6599],[9.2738,44.6607],[9.2781,44.6609],[9.2832,44.6598],[9.2885,44.6547],[9.2895,44.648],[9.2918,44.6453],[9.3008,44.6438],[9.3048,44.6443],[9.3072,44.6478],[9.3089,44.6543],[9.3081,44.6585],[9.3063,44.6599],[9.3058,44.6656]]]}},{"type":"Feature","properties":{"i":"033032","n":"Piacenza"},"geometry":{"type":"Polygon","coordinates":[[[9.8238,45.0526],[9.8225,45.0491],[9.817,45.047],[9.8108,45.047],[9.8088,45.0507],[9.8021,45.0483],[9.7975,45.0353],[9.7958,45.0342],[9.7938,45.0311],[9.7911,45.0239],[9.7605,44.9999],[9.7585,44.9978],[9.7587,44.9953],[9.76,44.9924],[9.7592,44.9923],[9.7318,44.9957],[9.7267,45.005],[9.7127,45.0012],[9.7069,44.9984],[9.7003,44.9967],[9.6884,45.0045],[9.6858,45.0055],[9.6711,45.007],[9.6673,44.9996],[9.6574,44.9977],[9.6367,45.0002],[9.6326,45.0062],[9.6197,45.009],[9.615,45.0113],[9.6201,45.0255],[9.6206,45.0288],[9.6062,45.0289],[9.5997,45.0303],[9.6132,45.0409],[9.6292,45.0492],[9.6348,45.0574],[9.6436,45.066],[9.6551,45.0706],[9.6655,45.0723],[9.6753,45.0763],[9.6769,45.0776],[9.6837,45.0703],[9.7137,45.0584],[9.7202,45.0588],[9.7277,45.0621],[9.7301,45.0636],[9.7333,45.0691],[9.7378,45.0732],[9.742,45.0748],[9.7477,45.0757],[9.7517,45.0817],[9.7531,45.0866],[9.7451,45.1058],[9.7448,45.1097],[9.7454,45.1119],[9.7499,45.1134],[9.7575,45.1125],[9.7667,45.1073],[9.779,45.0896],[9.7882,45.0845],[9.8091,45.0802],[9.8133,45.0781],[9.8156,45.0756],[9.8168,45.0707],[9.8158,45.0598],[9.8166,45.0545],[9.8238,45.0526]]]}},{"type":"Feature","properties":{"i":"033033","n":"Pianello Val Tidone"},"geometry":{"type":"Polygon","coordinates":[[[9.4134,44.8951],[9.4123,44.8924],[9.4084,44.8876],[9.3997,44.8816],[9.3969,44.8819],[9.3894,44.8873],[9.3801,44.8995],[9.3564,44.9143],[9.357,44.9174],[9.3675,44.9227],[9.3698,44.9231],[9.3806,44.9402],[9.4054,44.9501],[9.4144,44.9492],[9.4178,44.9478],[9.427,44.9505],[9.4321,44.9533],[9.4352,44.9562],[9.4362,44.9598],[9.4537,44.973],[9.4583,44.9775],[9.4582,44.9726],[9.4549,44.9609],[9.4581,44.9601],[9.4535,44.9479],[9.4528,44.9374],[9.4574,44.9352],[9.4579,44.9329],[9.4559,44.9306],[9.4346,44.9159],[9.4279,44.9075],[9.4243,44.9063],[9.421,44.9071],[9.4186,44.9092],[9.4153,44.91],[9.4132,44.9094],[9.4115,44.9057],[9.4134,44.9011],[9.4134,44.8951]]]}},{"type":"Feature","properties":{"i":"033034","n":"Piozzano"},"geometry":{"type":"Polygon","coordinates":[[[9.5093,44.9289],[9.5115,44.9241],[9.5095,44.9177],[9.5059,44.9134],[9.499,44.9089],[9.496,44.9044],[9.5011,44.9018],[9.5055,44.8971],[9.5064,44.8933],[9.5027,44.8892],[9.498,44.8888],[9.4793,44.8798],[9.4648,44.8774],[9.4591,44.8754],[9.4534,44.8689],[9.4552,44.8643],[9.4539,44.8585],[9.4489,44.8573],[9.4461,44.8615],[9.4445,44.8661],[9.4382,44.8671],[9.4314,44.8667],[9.4314,44.8688],[9.4347,44.8754],[9.4315,44.8813],[9.421,44.8871],[9.4134,44.8951],[9.4134,44.9011],[9.4115,44.9057],[9.4132,44.9094],[9.4153,44.91],[9.4186,44.9092],[9.421,44.9071],[9.4243,44.9063],[9.4279,44.9075],[9.4346,44.9159],[9.4575,44.9322],[9.4578,44.9348],[9.4528,44.9374],[9.4535,44.9479],[9.4581,44.9601],[9.4626,44.9589],[9.4719,44.9521],[9.477,44.9494],[9.4872,44.9461],[9.4964,44.9327],[9.5026,44.9281],[9.5073,44.928],[9.5093,44.9289]]]}},{"type":"Feature","properties":{"i":"033035","n":"Podenzano"},"geometry":{"type":"Polygon","coordinates":[[[9.76,44.9924],[9.7604,44.9882],[9.7538,44.978],[9.7544,44.9745],[9.7524,44.9711],[9.7457,44.9665],[9.7403,44.9648],[9.7377,44.9651],[9.7334,44.9642],[9.7273,44.9542],[9.7203,44.9391],[9.7154,44.9343],[9.7083,44.9363],[9.7,44.9283],[9.6968,44.9282],[9.6904,44.9296],[9.6885,44.931],[9.6887,44.9326],[9.6805,44.9403],[9.6703,44.9473],[9.6652,44.9481],[9.6595,44.9465],[9.6585,44.9447],[9.6546,44.9485],[9.6511,44.9573],[9.6476,44.9589],[9.6493,44.9625],[9.6518,44.9643],[9.6584,44.9655],[9.6623,44.9647],[9.6641,44.9658],[9.6681,44.9834],[9.6653,44.9878],[9.665,44.9922],[9.6713,44.9966],[9.6733,45.004],[9.6698,45.0045],[9.6711,45.007],[9.6858,45.0055],[9.6884,45.0045],[9.7003,44.9967],[9.7069,44.9984],[9.7127,45.0012],[9.7267,45.005],[9.7318,44.9957],[9.76,44.9924]]]}},{"type":"Feature","properties":{"i":"033036","n":"Ponte dell'Olio"},"geometry":{"type":"Polygon","coordinates":[[[9.7191,44.8685],[9.714,44.8658],[9.7079,44.8571],[9.6884,44.8407],[9.6837,44.8319],[9.6837,44.8302],[9.6687,44.8325],[9.6657,44.8311],[9.663,44.8267],[9.659,44.8236],[9.648,44.8211],[9.628,44.82],[9.6245,44.8204],[9.6191,44.8225],[9.618,44.8266],[9.6111,44.8368],[9.6104,44.8398],[9.6112,44.8428],[9.6153,44.8462],[9.6247,44.8566],[9.6286,44.8624],[9.6377,44.87],[9.6456,44.8743],[9.6561,44.8831],[9.6671,44.8941],[9.6765,44.9004],[9.6861,44.9052],[9.69,44.9084],[9.697,44.9003],[9.702,44.8989],[9.7022,44.8964],[9.6972,44.8908],[9.6997,44.8867],[9.7103,44.8795],[9.7133,44.8766],[9.7191,44.8685]]]}},{"type":"Feature","properties":{"i":"033037","n":"Pontenure"},"geometry":{"type":"Polygon","coordinates":[[[9.809,44.9618],[9.808,44.9551],[9.8019,44.9478],[9.8023,44.9451],[9.8015,44.943],[9.7958,44.9428],[9.7912,44.9465],[9.7904,44.9498],[9.7762,44.9601],[9.7768,44.9665],[9.7764,44.9735],[9.7538,44.978],[9.7604,44.9882],[9.7585,44.9978],[9.7706,45.0084],[9.7825,45.0166],[9.7911,45.0239],[9.7938,45.0311],[9.7958,45.0342],[9.7975,45.0353],[9.8413,45.0197],[9.8268,45.0003],[9.8178,44.9905],[9.8108,44.9851],[9.8117,44.9738],[9.809,44.9618]]]}},{"type":"Feature","properties":{"i":"033038","n":"Rivergaro"},"geometry":{"type":"Polygon","coordinates":[[[9.6476,44.9589],[9.6511,44.9573],[9.6546,44.9485],[9.6585,44.9447],[9.6568,44.9251],[9.6547,44.9224],[9.6507,44.9198],[9.6497,44.9198],[9.6475,44.9238],[9.6432,44.9229],[9.6379,44.9117],[9.6382,44.9069],[9.6368,44.9001],[9.6354,44.8978],[9.6329,44.898],[9.6318,44.9003],[9.622,44.9007],[9.6185,44.8981],[9.6075,44.8869],[9.6056,44.8834],[9.6079,44.8764],[9.6047,44.868],[9.5878,44.8591],[9.5789,44.8557],[9.5784,44.8561],[9.5754,44.859],[9.5681,44.872],[9.5622,44.8744],[9.5593,44.8786],[9.5663,44.8861],[9.5721,44.8877],[9.577,44.8882],[9.5903,44.9138],[9.5873,44.9165],[9.5859,44.9195],[9.597,44.9305],[9.5942,44.939],[9.5942,44.957],[9.6078,44.956],[9.6197,44.9614],[9.6238,44.9675],[9.6275,44.9702],[9.6312,44.9709],[9.6351,44.9696],[9.6319,44.9648],[9.6435,44.9599],[9.6476,44.9589]]]}},{"type":"Feature","properties":{"i":"033039","n":"Rottofreno"},"geometry":{"type":"Polygon","coordinates":[[[9.6336,45.056],[9.6325,45.0532],[9.6292,45.0492],[9.6155,45.0423],[9.6051,45.0432],[9.5832,45.0333],[9.5779,45.0322],[9.5756,45.0368],[9.5697,45.0415],[9.5663,45.0427],[9.5551,45.0411],[9.5505,45.0396],[9.5499,45.0349],[9.5528,45.0275],[9.5485,45.0269],[9.5426,45.029],[9.5335,45.0296],[9.5299,45.0309],[9.5293,45.0327],[9.5313,45.0359],[9.5316,45.038],[9.5288,45.0388],[9.5303,45.0409],[9.5314,45.0462],[9.5301,45.0555],[9.5272,45.0624],[9.5271,45.0723],[9.532,45.0784],[9.539,45.081],[9.5474,45.0866],[9.5499,45.089],[9.5513,45.0921],[9.5506,45.0952],[9.5374,45.1149],[9.5358,45.122],[9.5372,45.1261],[9.5556,45.1103],[9.5715,45.0987],[9.5702,45.0884],[9.5708,45.0795],[9.5717,45.0738],[9.5755,45.0702],[9.5874,45.0642],[9.6064,45.0618],[9.6336,45.056]]]}},{"type":"Feature","properties":{"i":"033040","n":"San Giorgio Piacentino"},"geometry":{"type":"Polygon","coordinates":[[[9.7958,44.9428],[9.7936,44.9432],[9.7855,44.9394],[9.7794,44.9338],[9.7716,44.9293],[9.7642,44.9263],[9.7651,44.9144],[9.7578,44.8941],[9.7508,44.8874],[9.74,44.8812],[9.7321,44.8748],[9.7191,44.8685],[9.7133,44.8766],[9.7103,44.8795],[9.6997,44.8867],[9.6974,44.8903],[9.6977,44.8919],[9.7022,44.8964],[9.702,44.8989],[9.697,44.9003],[9.69,44.9084],[9.6941,44.9153],[9.701,44.9228],[9.7149,44.9336],[9.7203,44.9391],[9.7273,44.9542],[9.7326,44.9634],[9.7353,44.9648],[9.7403,44.9648],[9.7457,44.9665],[9.7518,44.9705],[9.7544,44.9745],[9.7538,44.978],[9.7764,44.9735],[9.7768,44.9665],[9.7762,44.9601],[9.7904,44.9498],[9.7912,44.9465],[9.7958,44.9428]]]}},{"type":"Feature","properties":{"i":"033041","n":"San Pietro in Cerro"},"geometry":{"type":"Polygon","coordinates":[[[9.9689,45.0412],[9.9664,45.039],[9.9808,45.0346],[9.9815,45.0207],[9.9846,45.0174],[9.9754,45.01],[9.9699,45.0082],[9.9514,45.0061],[9.9399,45.0082],[9.9289,45.0119],[9.9343,45.0227],[9.9203,45.027],[9.9076,45.0097],[9.8869,45.0145],[9.8827,45.0186],[9.888,45.0286],[9.8902,45.0283],[9.8931,45.0298],[9.8965,45.0331],[9.8961,45.0392],[9.9025,45.0475],[9.9049,45.0488],[9.9095,45.0543],[9.9105,45.0584],[9.9147,45.059],[9.9265,45.0579],[9.9285,45.0601],[9.9279,45.063],[9.932,45.0628],[9.9385,45.053],[9.9395,45.0472],[9.9392,45.0435],[9.942,45.0388],[9.944,45.0378],[9.9543,45.0383],[9.9534,45.0412],[9.9541,45.0414],[9.9634,45.042],[9.9689,45.0412]]]}},{"type":"Feature","properties":{"i":"033042","n":"Sarmato"},"geometry":{"type":"Polygon","coordinates":[[[9.532,45.0784],[9.5271,45.0723],[9.5268,45.0699],[9.5272,45.0624],[9.5301,45.0555],[9.5314,45.0462],[9.5303,45.0409],[9.5288,45.0388],[9.5164,45.0436],[9.5036,45.047],[9.5003,45.0463],[9.4974,45.0424],[9.4907,45.0366],[9.4878,45.0353],[9.4703,45.0331],[9.4639,45.0345],[9.4611,45.0393],[9.4584,45.0391],[9.4584,45.0432],[9.4603,45.0476],[9.4696,45.0588],[9.4748,45.0623],[9.4826,45.063],[9.4837,45.0664],[9.4809,45.0721],[9.4797,45.0788],[9.4798,45.0856],[9.4805,45.0872],[9.4844,45.0875],[9.485,45.0912],[9.4829,45.096],[9.4802,45.0988],[9.4937,45.1034],[9.4993,45.1039],[9.5034,45.1028],[9.5089,45.0992],[9.5182,45.0906],[9.5216,45.0864],[9.523,45.0827],[9.5246,45.0808],[9.5281,45.0787],[9.532,45.0784]]]}},{"type":"Feature","properties":{"i":"033043","n":"Travo"},"geometry":{"type":"Polygon","coordinates":[[[9.5789,44.8557],[9.5798,44.8504],[9.5698,44.8423],[9.568,44.8388],[9.5588,44.8269],[9.5604,44.8225],[9.5635,44.8179],[9.5646,44.8136],[9.5592,44.8039],[9.555,44.8034],[9.5448,44.8085],[9.5397,44.8091],[9.537,44.8062],[9.5352,44.8023],[9.5298,44.7979],[9.519,44.7981],[9.5158,44.7957],[9.5102,44.806],[9.5087,44.8124],[9.5046,44.8193],[9.5004,44.8219],[9.481,44.8179],[9.4756,44.8184],[9.4779,44.8272],[9.4787,44.8359],[9.4769,44.8432],[9.4755,44.8446],[9.4719,44.8461],[9.4554,44.8519],[9.4489,44.8573],[9.4539,44.8585],[9.4552,44.8643],[9.4534,44.8689],[9.4591,44.8754],[9.4648,44.8774],[9.4793,44.8798],[9.498,44.8888],[9.5027,44.8892],[9.502,44.8884],[9.5023,44.8875],[9.5091,44.8829],[9.515,44.8832],[9.5162,44.8851],[9.5171,44.8951],[9.5218,44.8998],[9.5251,44.9013],[9.5316,44.9013],[9.5325,44.9019],[9.5399,44.91],[9.5526,44.9133],[9.5577,44.9132],[9.5844,44.9207],[9.5862,44.9201],[9.5858,44.9191],[9.5873,44.9165],[9.5903,44.9138],[9.577,44.8882],[9.5721,44.8877],[9.5663,44.8861],[9.5593,44.8786],[9.5622,44.8744],[9.5681,44.872],[9.5754,44.859],[9.5789,44.8557]],[[9.481,44.8301],[9.4821,44.8309],[9.4802,44.8313],[9.4801,44.8303],[9.481,44.8301]]]}},{"type":"Feature","properties":{"i":"033044","n":"Vernasca"},"geometry":{"type":"Polygon","coordinates":[[[9.9485,44.8377],[9.9434,44.8375],[9.9354,44.8344],[9.9244,44.825],[9.9167,44.8206],[9.9052,44.8105],[9.9003,44.8078],[9.8918,44.8044],[9.8821,44.8028],[9.8781,44.7954],[9.8744,44.7854],[9.8768,44.7757],[9.8802,44.7685],[9.8685,44.763],[9.865,44.7621],[9.8581,44.7639],[9.8561,44.7661],[9.8493,44.7656],[9.8448,44.7623],[9.8365,44.7582],[9.8293,44.7603],[9.8195,44.7612],[9.8141,44.7572],[9.815,44.7539],[9.8201,44.7509],[9.8183,44.7433],[9.8163,44.7392],[9.8063,44.7339],[9.7982,44.731],[9.7901,44.7206],[9.7852,44.7165],[9.7773,44.7119],[9.768,44.7101],[9.7593,44.7347],[9.7723,44.7507],[9.7955,44.7671],[9.7993,44.7745],[9.7978,44.7808],[9.7939,44.7849],[9.7921,44.7852],[9.7815,44.7829],[9.7796,44.7832],[9.783,44.7881],[9.7864,44.7985],[9.8002,44.8034],[9.8016,44.7986],[9.8056,44.8004],[9.8134,44.8083],[9.8228,44.8103],[9.8269,44.8082],[9.8368,44.8103],[9.8394,44.8119],[9.848,44.821],[9.8629,44.8283],[9.8662,44.8308],[9.8727,44.8327],[9.89,44.8361],[9.8999,44.8367],[9.9034,44.835],[9.9082,44.835],[9.9148,44.837],[9.9202,44.8409],[9.9117,44.8476],[9.9107,44.852],[9.9151,44.8575],[9.9169,44.8568],[9.9213,44.8578],[9.9404,44.8543],[9.9442,44.8507],[9.9489,44.8399],[9.9485,44.8377]]]}},{"type":"Feature","properties":{"i":"033045","n":"Vigolzone"},"geometry":{"type":"Polygon","coordinates":[[[9.7154,44.9343],[9.701,44.9228],[9.6941,44.9153],[9.6881,44.9066],[9.6765,44.9004],[9.6671,44.8941],[9.6561,44.8831],[9.6456,44.8743],[9.6377,44.87],[9.6286,44.8624],[9.6247,44.8566],[9.6153,44.8462],[9.6112,44.8428],[9.6104,44.8398],[9.6119,44.8353],[9.603,44.8321],[9.5939,44.8314],[9.568,44.8388],[9.5698,44.8423],[9.5798,44.8504],[9.5789,44.8557],[9.5878,44.8591],[9.6047,44.868],[9.6079,44.8764],[9.6057,44.8839],[9.6075,44.8869],[9.6185,44.8981],[9.622,44.9007],[9.6318,44.9003],[9.6329,44.898],[9.635,44.8976],[9.6359,44.8983],[9.6382,44.9069],[9.6379,44.9117],[9.6432,44.9229],[9.6475,44.9238],[9.6497,44.9198],[9.6507,44.9198],[9.6547,44.9224],[9.6568,44.9251],[9.6585,44.9447],[9.6595,44.9465],[9.6652,44.9481],[9.6709,44.9471],[9.6805,44.9403],[9.6864,44.935],[9.6887,44.9326],[9.6885,44.931],[9.6904,44.9296],[9.6949,44.9285],[9.7,44.9283],[9.7083,44.9363],[9.7154,44.9343]]]}},{"type":"Feature","properties":{"i":"033046","n":"Villanova sull'Arda"},"geometry":{"type":"Polygon","coordinates":[[[10.0407,45.0638],[10.0442,45.0625],[10.0529,45.0506],[10.0502,45.0413],[10.059,45.0417],[10.0823,45.0466],[10.0835,45.044],[10.0576,45.0377],[10.0455,45.0292],[10.0421,45.0165],[10.0343,45.0013],[10.0337,44.9942],[10.0358,44.9905],[10.031,44.9838],[9.9909,45.0041],[9.9915,45.0093],[9.9954,45.012],[9.9888,45.0171],[9.984,45.0177],[9.9815,45.0207],[9.9808,45.0346],[9.9664,45.039],[9.9902,45.0554],[9.9946,45.0531],[10.0077,45.0641],[10.0188,45.0626],[10.0238,45.0588],[10.0388,45.0619],[10.0407,45.0638]]]}},{"type":"Feature","properties":{"i":"033047","n":"Zerba"},"geometry":{"type":"Polygon","coordinates":[[[9.2985,44.681],[9.2983,44.6799],[9.3069,44.6677],[9.3058,44.6656],[9.3063,44.6599],[9.3081,44.6585],[9.3089,44.6551],[9.3072,44.6478],[9.3038,44.6438],[9.2918,44.6453],[9.2895,44.648],[9.2885,44.6547],[9.2832,44.6598],[9.2781,44.6609],[9.2738,44.6607],[9.2713,44.6599],[9.2697,44.6572],[9.2649,44.6546],[9.2559,44.655],[9.2427,44.6589],[9.2349,44.6709],[9.2287,44.6732],[9.2174,44.6741],[9.2079,44.6715],[9.2019,44.6716],[9.1998,44.6767],[9.1991,44.6831],[9.2003,44.6864],[9.2168,44.6835],[9.2238,44.6834],[9.2371,44.6851],[9.2421,44.6875],[9.2347,44.6983],[9.2323,44.7033],[9.233,44.7076],[9.2359,44.7128],[9.2351,44.7164],[9.24,44.7115],[9.2543,44.6921],[9.2556,44.6857],[9.2576,44.6812],[9.2595,44.6799],[9.2632,44.6808],[9.266,44.684],[9.2786,44.6856],[9.2858,44.6845],[9.2876,44.6802],[9.2985,44.681]]]}},{"type":"Feature","properties":{"i":"033048","n":"Ziano Piacentino"},"geometry":{"type":"Polygon","coordinates":[[[9.4159,45.0188],[9.4144,45.0116],[9.4144,45.0066],[9.4255,45.0047],[9.4245,44.9999],[9.4256,44.9826],[9.4224,44.9785],[9.4182,44.975],[9.4087,44.9724],[9.4047,44.9722],[9.4005,44.9706],[9.3871,44.9716],[9.3855,44.9724],[9.3824,44.9717],[9.3789,44.9691],[9.3794,44.9635],[9.3821,44.9551],[9.38,44.9553],[9.3747,44.9577],[9.3712,44.9602],[9.3546,44.9634],[9.3531,44.9671],[9.3495,44.9701],[9.3426,44.9683],[9.3375,44.9654],[9.3356,44.9676],[9.3352,44.9729],[9.3363,44.9773],[9.3374,44.9794],[9.3392,44.9806],[9.344,44.9929],[9.3475,44.9974],[9.3532,45.001],[9.3614,45.0001],[9.3659,45.003],[9.3712,45.0148],[9.3756,45.0199],[9.4023,45.026],[9.4041,45.0238],[9.4037,45.0222],[9.4048,45.0213],[9.4159,45.0188]]]}},{"type":"Feature","properties":{"i":"033049","n":"Alta Val Tidone"},"geometry":{"type":"Polygon","coordinates":[[[9.4005,44.9706],[9.4021,44.9678],[9.419,44.9554],[9.4239,44.9535],[9.4289,44.9548],[9.4329,44.9541],[9.4261,44.9501],[9.4196,44.948],[9.4054,44.9501],[9.3806,44.9402],[9.3698,44.9231],[9.3675,44.9227],[9.357,44.9174],[9.3564,44.9143],[9.3801,44.8995],[9.3894,44.8873],[9.3969,44.8819],[9.3997,44.8816],[9.4084,44.8876],[9.4123,44.8924],[9.4134,44.8951],[9.4144,44.8946],[9.421,44.8871],[9.4315,44.8813],[9.4347,44.8754],[9.431,44.8671],[9.4318,44.8664],[9.4382,44.8671],[9.4445,44.8661],[9.4461,44.8615],[9.4489,44.8573],[9.4472,44.8555],[9.4374,44.8554],[9.421,44.8521],[9.4155,44.8468],[9.4113,44.8451],[9.4022,44.8458],[9.3972,44.8452],[9.3875,44.8399],[9.3859,44.8348],[9.3817,44.8295],[9.3758,44.8267],[9.3678,44.8254],[9.3631,44.8224],[9.3592,44.8239],[9.3503,44.837],[9.3478,44.8441],[9.3424,44.8673],[9.3265,44.8729],[9.325,44.8771],[9.3224,44.8797],[9.3131,44.8765],[9.3087,44.8759],[9.2901,44.8822],[9.2928,44.8903],[9.2823,44.8958],[9.2774,44.8956],[9.2841,44.9035],[9.2904,44.9143],[9.293,44.9205],[9.2907,44.9254],[9.2859,44.9294],[9.285,44.9318],[9.2868,44.9341],[9.3054,44.9345],[9.3145,44.9368],[9.3215,44.944],[9.3246,44.956],[9.3276,44.9591],[9.335,44.9631],[9.3426,44.9683],[9.3495,44.9701],[9.3531,44.9671],[9.3546,44.9634],[9.3712,44.9602],[9.3747,44.9577],[9.38,44.9553],[9.3821,44.9551],[9.3794,44.9635],[9.3789,44.9691],[9.3824,44.9717],[9.3855,44.9724],[9.3871,44.9716],[9.4005,44.9706]]]}}]}
