{"type":"FeatureCollection","fonte":"Confini comunali ISTAT via openpolis/geojson-italy — CC BY 4.0","features":[{"type":"Feature","properties":{"i":"028001","n":"Abano Terme"},"geometry":{"type":"Polygon","coordinates":[[[11.8054,45.3774],[11.8098,45.3754],[11.8095,45.3734],[11.82,45.3657],[11.8364,45.3571],[11.8174,45.3309],[11.8142,45.3341],[11.8138,45.3367],[11.8105,45.3404],[11.7924,45.3468],[11.7754,45.3443],[11.778,45.3393],[11.7721,45.3371],[11.7632,45.3399],[11.7609,45.3464],[11.7624,45.3463],[11.7615,45.3507],[11.7575,45.352],[11.7571,45.3556],[11.7582,45.3626],[11.7611,45.3677],[11.7645,45.3715],[11.7675,45.378],[11.7675,45.3799],[11.7775,45.3827],[11.7912,45.3825],[11.8054,45.3774]]]}},{"type":"Feature","properties":{"i":"028002","n":"Agna"},"geometry":{"type":"Polygon","coordinates":[[[12.0219,45.1935],[11.9778,45.1871],[11.9735,45.1801],[11.9753,45.1688],[11.9766,45.1626],[11.983,45.1628],[11.9834,45.1556],[11.9694,45.1494],[11.9663,45.1504],[11.9532,45.1478],[11.9465,45.1534],[11.9369,45.1549],[11.9281,45.1534],[11.9262,45.1613],[11.9315,45.1705],[11.9304,45.1721],[11.9373,45.1763],[11.9488,45.1769],[11.9521,45.1782],[11.953,45.1876],[11.9521,45.1916],[11.9572,45.1945],[11.965,45.2029],[11.9698,45.1983],[11.9734,45.1966],[11.9778,45.1974],[11.9888,45.2018],[12.0037,45.2028],[12.0103,45.2014],[12.0116,45.2007],[12.0116,45.1991],[12.0174,45.1949],[12.0219,45.1935]]]}},{"type":"Feature","properties":{"i":"028003","n":"Albignasego"},"geometry":{"type":"Polygon","coordinates":[[[11.9199,45.34],[11.9267,45.333],[11.8945,45.327],[11.8762,45.3277],[11.866,45.3295],[11.8505,45.3335],[11.8388,45.338],[11.8358,45.3378],[11.8345,45.336],[11.8314,45.3346],[11.8224,45.3377],[11.8321,45.3504],[11.8487,45.3754],[11.8526,45.3791],[11.8612,45.3838],[11.8639,45.3792],[11.8635,45.3768],[11.8618,45.3734],[11.8616,45.3684],[11.8633,45.3625],[11.8848,45.3511],[11.8899,45.3515],[11.8913,45.353],[11.8959,45.3527],[11.8964,45.3516],[11.8951,45.3455],[11.9093,45.3418],[11.9199,45.34]]]}},{"type":"Feature","properties":{"i":"028004","n":"Anguillara Veneta"},"geometry":{"type":"Polygon","coordinates":[[[11.8705,45.1609],[11.8799,45.1601],[11.8943,45.1553],[11.9119,45.1518],[11.9369,45.1549],[11.9467,45.1533],[11.9532,45.1478],[11.9619,45.1493],[11.9688,45.134],[11.9583,45.1337],[11.9485,45.1354],[11.9455,45.1364],[11.9359,45.1426],[11.9265,45.1433],[11.9227,45.1426],[11.9197,45.1402],[11.9117,45.1367],[11.8972,45.1333],[11.8913,45.1344],[11.8801,45.135],[11.8653,45.1334],[11.8572,45.1317],[11.8519,45.1294],[11.8418,45.1283],[11.8423,45.1333],[11.8398,45.136],[11.8374,45.1402],[11.8405,45.1409],[11.844,45.1404],[11.8451,45.1443],[11.8417,45.1533],[11.837,45.1578],[11.8342,45.1624],[11.835,45.166],[11.8388,45.169],[11.8402,45.1682],[11.8426,45.1663],[11.8451,45.1628],[11.8468,45.1584],[11.8486,45.1564],[11.8573,45.1552],[11.8705,45.1609]]]}},{"type":"Feature","properties":{"i":"028005","n":"Arquà Petrarca"},"geometry":{"type":"Polygon","coordinates":[[[11.7527,45.279],[11.7542,45.2786],[11.7455,45.2661],[11.7373,45.2579],[11.7313,45.2557],[11.7207,45.25],[11.7142,45.2473],[11.7078,45.2471],[11.7059,45.2507],[11.7062,45.254],[11.6983,45.2595],[11.6959,45.2598],[11.696,45.2648],[11.6985,45.2734],[11.7065,45.281],[11.7062,45.2825],[11.7048,45.283],[11.7219,45.287],[11.7343,45.2847],[11.742,45.2816],[11.7527,45.279]]]}},{"type":"Feature","properties":{"i":"028006","n":"Arre"},"geometry":{"type":"Polygon","coordinates":[[[11.9397,45.2344],[11.9403,45.2335],[11.9408,45.2257],[11.9592,45.2173],[11.9593,45.2161],[11.958,45.2152],[11.9529,45.2154],[11.9524,45.2116],[11.9613,45.2062],[11.965,45.2029],[11.9572,45.1945],[11.9521,45.1916],[11.9369,45.1948],[11.9298,45.1976],[11.9214,45.2052],[11.9152,45.2077],[11.9114,45.2109],[11.9096,45.2204],[11.9096,45.2243],[11.917,45.23],[11.9228,45.2329],[11.9301,45.2347],[11.9301,45.2314],[11.9314,45.2292],[11.9361,45.2329],[11.9397,45.2344]]]}},{"type":"Feature","properties":{"i":"028007","n":"Arzergrande"},"geometry":{"type":"Polygon","coordinates":[[[12.0726,45.2801],[12.0771,45.28],[12.0847,45.2779],[12.0882,45.2728],[12.0903,45.2615],[12.09,45.2576],[12.0865,45.2508],[12.0794,45.2507],[12.0742,45.2485],[12.0734,45.2493],[12.0659,45.2478],[12.056,45.2496],[12.0533,45.2557],[12.0448,45.2553],[12.0385,45.2527],[12.0312,45.2546],[12.0322,45.2672],[12.0376,45.2773],[12.0474,45.2812],[12.0534,45.282],[12.059,45.2816],[12.0684,45.2791],[12.0726,45.2801]]]}},{"type":"Feature","properties":{"i":"028008","n":"Bagnoli di Sopra"},"geometry":{"type":"Polygon","coordinates":[[[11.9521,45.1916],[11.953,45.1876],[11.9521,45.1782],[11.9488,45.1769],[11.9373,45.1763],[11.9304,45.1721],[11.9315,45.1705],[11.9262,45.1613],[11.9281,45.1534],[11.9119,45.1518],[11.8943,45.1553],[11.8799,45.1601],[11.8634,45.1612],[11.8606,45.1704],[11.8506,45.1757],[11.8494,45.1872],[11.8589,45.1988],[11.8603,45.2032],[11.8579,45.2071],[11.8585,45.2075],[11.8655,45.2077],[11.8942,45.202],[11.9039,45.2029],[11.9114,45.2109],[11.9152,45.2077],[11.9214,45.2052],[11.9298,45.1976],[11.9369,45.1948],[11.9521,45.1916]]]}},{"type":"Feature","properties":{"i":"028009","n":"Baone"},"geometry":{"type":"Polygon","coordinates":[[[11.7207,45.25],[11.7244,45.2488],[11.7245,45.246],[11.7197,45.2438],[11.7098,45.2304],[11.7098,45.2297],[11.7112,45.23],[11.7117,45.2257],[11.7089,45.2228],[11.703,45.2195],[11.6955,45.2186],[11.6943,45.2194],[11.6877,45.2306],[11.6723,45.234],[11.6675,45.2408],[11.6504,45.2457],[11.6431,45.245],[11.6391,45.2501],[11.6345,45.2602],[11.6348,45.2674],[11.6635,45.2664],[11.6747,45.2749],[11.6772,45.2784],[11.6805,45.281],[11.6883,45.2838],[11.7008,45.2855],[11.7043,45.2842],[11.7066,45.2814],[11.6985,45.2734],[11.696,45.2648],[11.6959,45.2598],[11.6983,45.2595],[11.7062,45.254],[11.7059,45.2507],[11.7069,45.2479],[11.7081,45.247],[11.7124,45.2468],[11.7207,45.25]]]}},{"type":"Feature","properties":{"i":"028010","n":"Barbona"},"geometry":{"type":"Polygon","coordinates":[[[11.7156,45.1015],[11.7088,45.1021],[11.6945,45.0986],[11.6849,45.1021],[11.67,45.1057],[11.663,45.1039],[11.6551,45.1056],[11.6525,45.1071],[11.6386,45.1091],[11.6415,45.1117],[11.6513,45.1162],[11.6676,45.1176],[11.6669,45.1189],[11.6678,45.1226],[11.6728,45.1265],[11.6768,45.1215],[11.702,45.1153],[11.7147,45.1099],[11.7162,45.1058],[11.7156,45.1015]]]}},{"type":"Feature","properties":{"i":"028011","n":"Battaglia Terme"},"geometry":{"type":"Polygon","coordinates":[[[11.7925,45.2999],[11.7886,45.2951],[11.7884,45.2871],[11.7846,45.2849],[11.7774,45.2759],[11.7749,45.2713],[11.77,45.2747],[11.77,45.2792],[11.7663,45.2863],[11.7733,45.2914],[11.7577,45.2989],[11.7607,45.3023],[11.7635,45.3016],[11.768,45.3028],[11.7734,45.3095],[11.7886,45.3112],[11.7935,45.3092],[11.7937,45.308],[11.7908,45.305],[11.7906,45.3005],[11.7925,45.2999]]]}},{"type":"Feature","properties":{"i":"028012","n":"Boara Pisani"},"geometry":{"type":"Polygon","coordinates":[[[11.8374,45.1402],[11.8398,45.136],[11.8423,45.1333],[11.8418,45.1283],[11.8363,45.1256],[11.8334,45.1223],[11.8234,45.1214],[11.8167,45.1233],[11.8131,45.1231],[11.8068,45.1206],[11.7957,45.1112],[11.7867,45.1078],[11.7757,45.0992],[11.7711,45.1015],[11.7653,45.1006],[11.7608,45.114],[11.7673,45.1201],[11.7777,45.1315],[11.7888,45.1379],[11.8008,45.1489],[11.8197,45.1482],[11.8212,45.1411],[11.826,45.1377],[11.8374,45.1402]]]}},{"type":"Feature","properties":{"i":"028013","n":"Borgoricco"},"geometry":{"type":"Polygon","coordinates":[[[12.0073,45.5305],[12.0019,45.5175],[11.9974,45.5181],[11.9952,45.5119],[11.9888,45.513],[11.9845,45.5158],[11.9812,45.519],[11.9751,45.5224],[11.9621,45.523],[11.9591,45.5154],[11.9537,45.5165],[11.9448,45.5244],[11.9348,45.5274],[11.9317,45.5275],[11.9295,45.5233],[11.9284,45.5234],[11.9239,45.5251],[11.9213,45.5274],[11.93,45.5472],[11.9457,45.544],[11.9506,45.5443],[11.9627,45.5578],[11.9802,45.5546],[11.9819,45.5521],[11.9892,45.5469],[11.9962,45.5503],[12.0079,45.5467],[12.0037,45.5348],[12.0057,45.5313],[12.0073,45.5305]]]}},{"type":"Feature","properties":{"i":"028014","n":"Bovolenta"},"geometry":{"type":"Polygon","coordinates":[[[11.9632,45.2889],[11.9626,45.2876],[11.9702,45.2818],[11.9739,45.2774],[11.9763,45.2723],[11.9806,45.2663],[11.9869,45.2653],[11.994,45.263],[11.9967,45.2603],[11.9946,45.2556],[12.0099,45.2519],[12.0104,45.2507],[12.0046,45.248],[11.9843,45.2476],[11.9792,45.249],[11.9694,45.2408],[11.9694,45.2439],[11.9601,45.2511],[11.9495,45.2533],[11.9461,45.2533],[11.9402,45.2507],[11.9321,45.2518],[11.9281,45.2536],[11.9314,45.2571],[11.9305,45.2584],[11.9066,45.2642],[11.9119,45.2757],[11.9181,45.2744],[11.923,45.2743],[11.9303,45.2812],[11.9298,45.2894],[11.9272,45.2957],[11.9285,45.299],[11.9507,45.2927],[11.9525,45.291],[11.9556,45.29],[11.9632,45.2889]]]}},{"type":"Feature","properties":{"i":"028015","n":"Brugine"},"geometry":{"type":"Polygon","coordinates":[[[12.0037,45.3087],[12.0043,45.3051],[12.0176,45.2909],[12.0104,45.2749],[12.0126,45.2663],[12.0117,45.262],[12.0097,45.2611],[12.0094,45.2567],[11.9967,45.2603],[11.9926,45.2637],[11.9806,45.2663],[11.9763,45.2723],[11.9739,45.2774],[11.9702,45.2818],[11.9626,45.2876],[11.9648,45.2927],[11.9629,45.2975],[11.9666,45.3055],[11.9682,45.3076],[11.9722,45.3087],[11.977,45.3125],[11.9764,45.3136],[11.9802,45.3221],[11.9812,45.3238],[11.9831,45.3246],[11.9863,45.3299],[11.9878,45.3244],[12.0021,45.3125],[12.0037,45.3087]]]}},{"type":"Feature","properties":{"i":"028016","n":"Cadoneghe"},"geometry":{"type":"Polygon","coordinates":[[[11.9332,45.4708],[11.931,45.465],[11.9347,45.4597],[11.9529,45.4532],[11.9499,45.446],[11.9421,45.4485],[11.9353,45.4428],[11.9329,45.4393],[11.9328,45.4371],[11.9293,45.4366],[11.9102,45.4399],[11.9094,45.4443],[11.9104,45.4466],[11.9095,45.4476],[11.9026,45.4478],[11.8979,45.4455],[11.8952,45.4464],[11.8967,45.4559],[11.8934,45.4654],[11.9003,45.4847],[11.9129,45.4729],[11.9255,45.4722],[11.9332,45.4708]]]}},{"type":"Feature","properties":{"i":"028017","n":"Campodarsego"},"geometry":{"type":"Polygon","coordinates":[[[11.9767,45.5219],[11.9742,45.5159],[11.9706,45.5164],[11.968,45.5154],[11.9618,45.4984],[11.9571,45.4959],[11.9531,45.4965],[11.952,45.4935],[11.9454,45.4948],[11.942,45.4931],[11.9332,45.4708],[11.9255,45.4722],[11.9129,45.4729],[11.9003,45.4847],[11.8982,45.4902],[11.8799,45.5021],[11.8803,45.5068],[11.8826,45.5121],[11.8911,45.5104],[11.8966,45.525],[11.9109,45.5223],[11.9146,45.5202],[11.9234,45.5187],[11.9295,45.5206],[11.9304,45.5216],[11.9295,45.5241],[11.9317,45.5275],[11.9348,45.5274],[11.9448,45.5244],[11.9537,45.5165],[11.9591,45.5154],[11.9621,45.523],[11.9712,45.5231],[11.9767,45.5219]]]}},{"type":"Feature","properties":{"i":"028018","n":"Campodoro"},"geometry":{"type":"Polygon","coordinates":[[[11.7732,45.4811],[11.7701,45.4794],[11.7553,45.4798],[11.7524,45.4775],[11.7513,45.4754],[11.7457,45.4784],[11.7431,45.4826],[11.7419,45.4881],[11.736,45.4957],[11.7349,45.5013],[11.7353,45.5055],[11.734,45.5122],[11.7299,45.5154],[11.7279,45.5205],[11.7293,45.5215],[11.7343,45.5186],[11.7413,45.5177],[11.7562,45.5193],[11.7635,45.5213],[11.763,45.5171],[11.7699,45.5118],[11.7691,45.4838],[11.7708,45.482],[11.7732,45.4811]]]}},{"type":"Feature","properties":{"i":"028019","n":"Camposampiero"},"geometry":{"type":"Polygon","coordinates":[[[11.9837,45.5933],[11.9877,45.5919],[11.9875,45.5907],[11.9905,45.585],[11.9937,45.5833],[11.9934,45.5758],[11.9919,45.5706],[11.9863,45.5706],[11.9802,45.5546],[11.9627,45.5578],[11.9506,45.5443],[11.9457,45.544],[11.93,45.5472],[11.9244,45.5496],[11.926,45.5543],[11.9246,45.5569],[11.9161,45.5608],[11.9061,45.5714],[11.9067,45.5755],[11.9111,45.5804],[11.9166,45.5798],[11.9177,45.5825],[11.9176,45.5883],[11.916,45.5929],[11.9073,45.5989],[11.9047,45.6042],[11.9089,45.6048],[11.9094,45.6018],[11.9246,45.5972],[11.9288,45.5939],[11.9323,45.5858],[11.934,45.5786],[11.9371,45.5768],[11.9421,45.5746],[11.9644,45.5706],[11.9659,45.5704],[11.9661,45.5717],[11.9652,45.5761],[11.9635,45.5795],[11.9635,45.5836],[11.9806,45.586],[11.9831,45.5895],[11.9837,45.5933]]]}},{"type":"Feature","properties":{"i":"028020","n":"Campo San Martino"},"geometry":{"type":"Polygon","coordinates":[[[11.8703,45.5617],[11.8701,45.5573],[11.8655,45.5586],[11.8621,45.5584],[11.8585,45.5574],[11.8566,45.5559],[11.8572,45.5524],[11.8585,45.5508],[11.8552,45.5428],[11.8484,45.5431],[11.828,45.5467],[11.8221,45.5467],[11.8133,45.5439],[11.8086,45.5395],[11.8063,45.5332],[11.8055,45.5326],[11.7958,45.5341],[11.7941,45.5351],[11.793,45.5376],[11.7937,45.5386],[11.7956,45.539],[11.7993,45.5515],[11.796,45.5545],[11.8208,45.5643],[11.8306,45.5694],[11.8355,45.5786],[11.8398,45.5795],[11.8435,45.5781],[11.8477,45.5729],[11.8471,45.566],[11.8504,45.5644],[11.8703,45.5617]]]}},{"type":"Feature","properties":{"i":"028021","n":"Candiana"},"geometry":{"type":"Polygon","coordinates":[[[11.9954,45.2479],[11.9938,45.2448],[11.9943,45.2395],[11.998,45.2384],[12.0046,45.2391],[12.0113,45.2412],[12.0141,45.2367],[12.0123,45.2342],[12.0192,45.2106],[12.0183,45.209],[12.015,45.2073],[12.0083,45.2063],[12.0037,45.2028],[11.9888,45.2018],[11.9778,45.1974],[11.9734,45.1966],[11.9698,45.1983],[11.9613,45.2062],[11.9524,45.2116],[11.9529,45.2154],[11.958,45.2152],[11.9593,45.2161],[11.9592,45.2173],[11.9408,45.2257],[11.9403,45.2335],[11.9393,45.2353],[11.942,45.2387],[11.9496,45.2385],[11.9584,45.2324],[11.9696,45.2295],[11.9721,45.2305],[11.9723,45.2313],[11.9713,45.2354],[11.9693,45.2359],[11.9694,45.2408],[11.9792,45.249],[11.9843,45.2476],[11.9954,45.2479]]]}},{"type":"Feature","properties":{"i":"028023","n":"Carmignano di Brenta"},"geometry":{"type":"Polygon","coordinates":[[[11.7021,45.6611],[11.7077,45.6569],[11.7093,45.6546],[11.7104,45.6502],[11.713,45.6481],[11.7185,45.6358],[11.7222,45.6313],[11.726,45.6294],[11.7289,45.6231],[11.7247,45.6196],[11.715,45.6147],[11.702,45.6109],[11.6993,45.6092],[11.6897,45.6083],[11.6874,45.6092],[11.6873,45.6122],[11.6895,45.6124],[11.6854,45.6208],[11.6797,45.627],[11.6763,45.6377],[11.6767,45.6401],[11.6855,45.6479],[11.6858,45.6572],[11.6892,45.6591],[11.6919,45.6573],[11.7021,45.6611]]]}},{"type":"Feature","properties":{"i":"028026","n":"Cartura"},"geometry":{"type":"Polygon","coordinates":[[[11.9026,45.2804],[11.923,45.2743],[11.9181,45.2744],[11.9119,45.2757],[11.9066,45.2642],[11.888,45.2681],[11.8865,45.2658],[11.8941,45.2634],[11.8935,45.2617],[11.8903,45.2593],[11.8764,45.2541],[11.8574,45.2542],[11.8565,45.2518],[11.853,45.2505],[11.8519,45.2504],[11.8512,45.2532],[11.8467,45.2591],[11.8445,45.2635],[11.849,45.2644],[11.8491,45.2654],[11.833,45.2708],[11.8295,45.2727],[11.8342,45.2806],[11.8472,45.2806],[11.8653,45.2879],[11.8703,45.288],[11.87,45.2909],[11.8769,45.2889],[11.8801,45.2852],[11.8989,45.2801],[11.9026,45.2804]]]}},{"type":"Feature","properties":{"i":"028027","n":"Casale di Scodosia"},"geometry":{"type":"Polygon","coordinates":[[[11.5006,45.2042],[11.5036,45.1952],[11.505,45.1852],[11.5107,45.1758],[11.5161,45.1702],[11.5215,45.1667],[11.5241,45.1635],[11.5232,45.1577],[11.5184,45.1521],[11.4713,45.1681],[11.4566,45.1762],[11.4549,45.1795],[11.4543,45.1869],[11.456,45.198],[11.4594,45.2094],[11.4592,45.2103],[11.4567,45.2114],[11.4595,45.2137],[11.4692,45.2138],[11.485,45.2078],[11.4917,45.2043],[11.4917,45.2035],[11.4944,45.2017],[11.5006,45.2042]]]}},{"type":"Feature","properties":{"i":"028028","n":"Casalserugo"},"geometry":{"type":"Polygon","coordinates":[[[11.9409,45.3232],[11.9328,45.3057],[11.9272,45.2957],[11.9298,45.2894],[11.9303,45.2812],[11.923,45.2743],[11.9026,45.2804],[11.9049,45.2856],[11.9038,45.2859],[11.8988,45.2917],[11.8975,45.2979],[11.8982,45.3051],[11.8962,45.3215],[11.8953,45.3259],[11.8945,45.327],[11.9267,45.333],[11.9303,45.3295],[11.9296,45.3243],[11.9305,45.3227],[11.9338,45.3221],[11.9409,45.3232]]]}},{"type":"Feature","properties":{"i":"028029","n":"Castelbaldo"},"geometry":{"type":"Polygon","coordinates":[[[11.4889,45.1427],[11.4925,45.1417],[11.4874,45.1313],[11.4834,45.1273],[11.4746,45.1143],[11.4731,45.1132],[11.4706,45.1143],[11.468,45.1088],[11.4456,45.1186],[11.4276,45.1247],[11.4169,45.1293],[11.4236,45.1386],[11.4302,45.1526],[11.4325,45.1523],[11.4566,45.1435],[11.476,45.1407],[11.4889,45.1427]]]}},{"type":"Feature","properties":{"i":"028030","n":"Cervarese Santa Croce"},"geometry":{"type":"Polygon","coordinates":[[[11.717,45.3997],[11.7201,45.3953],[11.7203,45.3937],[11.7161,45.3928],[11.7151,45.3877],[11.7214,45.3795],[11.7152,45.3739],[11.7109,45.3722],[11.7058,45.3711],[11.6983,45.3715],[11.6871,45.3774],[11.6853,45.3903],[11.6868,45.3982],[11.6824,45.4037],[11.6792,45.4058],[11.6663,45.4062],[11.654,45.4099],[11.6532,45.4104],[11.6523,45.4166],[11.6645,45.4227],[11.6722,45.4239],[11.6762,45.4231],[11.6795,45.4266],[11.6803,45.4286],[11.6832,45.4294],[11.6862,45.4287],[11.6921,45.4268],[11.707,45.42],[11.7135,45.4146],[11.7138,45.4036],[11.717,45.3997]]]}},{"type":"Feature","properties":{"i":"028031","n":"Cinto Euganeo"},"geometry":{"type":"Polygon","coordinates":[[[11.6934,45.3102],[11.7083,45.2964],[11.7068,45.2884],[11.7043,45.2842],[11.7008,45.2855],[11.6883,45.2838],[11.6805,45.281],[11.6772,45.2784],[11.6747,45.2749],[11.6635,45.2664],[11.6348,45.2674],[11.6362,45.2728],[11.6326,45.2822],[11.633,45.2844],[11.6335,45.2856],[11.6394,45.2866],[11.6404,45.2891],[11.6405,45.2922],[11.6368,45.302],[11.6423,45.2999],[11.6467,45.3007],[11.6593,45.305],[11.6722,45.3121],[11.6869,45.3131],[11.6893,45.3128],[11.6934,45.3102]]]}},{"type":"Feature","properties":{"i":"028032","n":"Cittadella"},"geometry":{"type":"Polygon","coordinates":[[[11.8139,45.6532],[11.803,45.6331],[11.8035,45.6319],[11.8076,45.6291],[11.8089,45.6192],[11.8199,45.6142],[11.8208,45.6117],[11.8006,45.6073],[11.7954,45.6066],[11.7897,45.6069],[11.7851,45.6076],[11.7878,45.61],[11.7922,45.6114],[11.7929,45.6145],[11.7853,45.6255],[11.7726,45.629],[11.7719,45.6306],[11.7737,45.6346],[11.77,45.6418],[11.7668,45.6445],[11.7593,45.6434],[11.7526,45.6467],[11.75,45.6582],[11.7344,45.6577],[11.7277,45.6566],[11.7278,45.6551],[11.7251,45.6507],[11.713,45.6481],[11.7104,45.6502],[11.7093,45.6546],[11.7065,45.6581],[11.6971,45.6634],[11.7104,45.6683],[11.7109,45.6703],[11.707,45.6786],[11.7067,45.6801],[11.7081,45.6806],[11.7167,45.6813],[11.7577,45.6779],[11.7993,45.6834],[11.802,45.6765],[11.8083,45.6552],[11.8139,45.6532]]]}},{"type":"Feature","properties":{"i":"028033","n":"Codevigo"},"geometry":{"type":"Polygon","coordinates":[[[12.19,45.2971],[12.1897,45.2882],[12.1911,45.285],[12.1998,45.2808],[12.2062,45.2731],[12.2014,45.2591],[12.1928,45.2433],[12.1934,45.2398],[12.1955,45.2374],[12.1933,45.2338],[12.1684,45.2263],[12.1581,45.2259],[12.1568,45.2253],[12.1548,45.2218],[12.154,45.2156],[12.1466,45.2176],[12.1446,45.2123],[12.1413,45.2112],[12.1337,45.2238],[12.1345,45.2314],[12.1363,45.235],[12.1164,45.2406],[12.1123,45.2389],[12.1107,45.2374],[12.0879,45.2372],[12.0861,45.2359],[12.0779,45.2356],[12.0771,45.2376],[12.0778,45.2392],[12.0819,45.2403],[12.0771,45.2447],[12.0737,45.2457],[12.0742,45.2485],[12.0794,45.2507],[12.0865,45.2508],[12.0873,45.2514],[12.09,45.2576],[12.0897,45.2671],[12.0882,45.2728],[12.0847,45.2779],[12.0771,45.28],[12.0726,45.2801],[12.0758,45.2844],[12.0713,45.2881],[12.0665,45.2901],[12.0661,45.2919],[12.0673,45.2932],[12.073,45.2959],[12.1037,45.2955],[12.1101,45.2964],[12.1125,45.3033],[12.114,45.305],[12.1237,45.3016],[12.137,45.2995],[12.1484,45.3016],[12.1854,45.3022],[12.187,45.3013],[12.19,45.2971]]]}},{"type":"Feature","properties":{"i":"028034","n":"Conselve"},"geometry":{"type":"Polygon","coordinates":[[[11.881,45.2564],[11.8831,45.2552],[11.8834,45.2522],[11.8865,45.2467],[11.8971,45.2392],[11.9034,45.2369],[11.9076,45.2364],[11.9195,45.239],[11.9217,45.2413],[11.9284,45.2387],[11.9292,45.2372],[11.9301,45.2347],[11.9228,45.2329],[11.9181,45.2307],[11.9096,45.2243],[11.9096,45.2204],[11.9114,45.2109],[11.9039,45.2029],[11.8942,45.202],[11.8655,45.2077],[11.8579,45.2071],[11.8542,45.2133],[11.8546,45.2169],[11.8519,45.2235],[11.8441,45.2268],[11.8488,45.2376],[11.848,45.2391],[11.8464,45.2397],[11.8384,45.2414],[11.8377,45.2442],[11.8395,45.2463],[11.8477,45.2483],[11.8565,45.2518],[11.8574,45.2542],[11.8764,45.2541],[11.881,45.2564]]]}},{"type":"Feature","properties":{"i":"028035","n":"Correzzola"},"geometry":{"type":"Polygon","coordinates":[[[12.154,45.2156],[12.1538,45.2082],[12.1547,45.2076],[12.1647,45.2049],[12.1714,45.2007],[12.1711,45.1988],[12.1788,45.1966],[12.1837,45.1973],[12.185,45.1964],[12.1839,45.1951],[12.1524,45.1942],[12.1458,45.1967],[12.1357,45.2039],[12.123,45.2104],[12.0219,45.1935],[12.0174,45.1949],[12.0116,45.1991],[12.0116,45.2007],[12.0103,45.2014],[12.0037,45.2028],[12.0083,45.2063],[12.016,45.2078],[12.0183,45.209],[12.0192,45.2106],[12.0132,45.2323],[12.0179,45.2359],[12.0232,45.2382],[12.0304,45.2397],[12.0327,45.2392],[12.0342,45.236],[12.0372,45.2352],[12.0436,45.2362],[12.0495,45.2403],[12.0531,45.2402],[12.0572,45.2389],[12.0719,45.2365],[12.0814,45.2356],[12.0861,45.2359],[12.0879,45.2372],[12.1107,45.2374],[12.1123,45.2389],[12.1164,45.2406],[12.1363,45.235],[12.1345,45.2314],[12.1337,45.2238],[12.1413,45.2112],[12.1446,45.2123],[12.1466,45.2176],[12.154,45.2156]]]}},{"type":"Feature","properties":{"i":"028036","n":"Curtarolo"},"geometry":{"type":"Polygon","coordinates":[[[11.8552,45.5428],[11.864,45.541],[11.8615,45.532],[11.8706,45.526],[11.8752,45.515],[11.8697,45.5148],[11.8538,45.5082],[11.8513,45.5049],[11.8512,45.5016],[11.852,45.4993],[11.8488,45.4954],[11.8449,45.4951],[11.8435,45.4964],[11.8456,45.5049],[11.8435,45.5033],[11.8322,45.5063],[11.8302,45.5078],[11.8316,45.51],[11.8431,45.5166],[11.844,45.5184],[11.8409,45.5198],[11.8312,45.5183],[11.8222,45.5185],[11.8178,45.5193],[11.8172,45.5207],[11.8182,45.5213],[11.8256,45.5243],[11.826,45.5274],[11.8217,45.5334],[11.819,45.5337],[11.8149,45.5315],[11.8116,45.5318],[11.809,45.5342],[11.8079,45.5383],[11.8133,45.5439],[11.8221,45.5467],[11.828,45.5467],[11.8484,45.5431],[11.8552,45.5428]]]}},{"type":"Feature","properties":{"i":"028037","n":"Este"},"geometry":{"type":"Polygon","coordinates":[[[11.698,45.2192],[11.6967,45.2178],[11.6986,45.2153],[11.7185,45.2107],[11.722,45.2074],[11.7224,45.2017],[11.7139,45.1969],[11.711,45.1977],[11.7051,45.2016],[11.6978,45.203],[11.6901,45.2006],[11.6871,45.1982],[11.6849,45.1992],[11.6767,45.1984],[11.6695,45.1894],[11.6597,45.1794],[11.6492,45.1786],[11.6499,45.1811],[11.6482,45.1854],[11.6478,45.194],[11.6487,45.2034],[11.6457,45.2086],[11.6378,45.2089],[11.624,45.2207],[11.614,45.2339],[11.6103,45.2424],[11.6119,45.2473],[11.6195,45.2459],[11.6255,45.2554],[11.6216,45.2564],[11.6341,45.2616],[11.6391,45.2501],[11.6431,45.245],[11.6504,45.2457],[11.6675,45.2408],[11.6723,45.234],[11.6877,45.2306],[11.6943,45.2194],[11.6955,45.2186],[11.698,45.2192]]]}},{"type":"Feature","properties":{"i":"028038","n":"Fontaniva"},"geometry":{"type":"Polygon","coordinates":[[[11.7851,45.6076],[11.7802,45.6041],[11.7756,45.5978],[11.7732,45.5965],[11.7709,45.5969],[11.7664,45.5993],[11.7635,45.6027],[11.7538,45.6069],[11.7461,45.6183],[11.7318,45.6216],[11.7289,45.6231],[11.726,45.6294],[11.7222,45.6313],[11.7185,45.6358],[11.713,45.6481],[11.7251,45.6507],[11.7278,45.6551],[11.7277,45.6566],[11.7344,45.6577],[11.75,45.6582],[11.7526,45.6467],[11.7593,45.6434],[11.7668,45.6445],[11.77,45.6418],[11.7737,45.6346],[11.7719,45.6306],[11.7726,45.629],[11.7853,45.6255],[11.792,45.616],[11.7929,45.6141],[11.7922,45.6114],[11.7878,45.61],[11.7851,45.6076]]]}},{"type":"Feature","properties":{"i":"028039","n":"Galliera Veneta"},"geometry":{"type":"Polygon","coordinates":[[[11.8395,45.657],[11.8139,45.6532],[11.8083,45.6552],[11.802,45.6765],[11.7993,45.6834],[11.8217,45.6872],[11.8229,45.6864],[11.8261,45.6806],[11.8322,45.6756],[11.8419,45.6704],[11.8464,45.6647],[11.8485,45.6582],[11.8395,45.657]]]}},{"type":"Feature","properties":{"i":"028040","n":"Galzignano Terme"},"geometry":{"type":"Polygon","coordinates":[[[11.7547,45.3186],[11.7561,45.3133],[11.7582,45.313],[11.7608,45.3097],[11.7614,45.3046],[11.7607,45.3023],[11.7577,45.2989],[11.7733,45.2914],[11.7663,45.2863],[11.7527,45.279],[11.742,45.2816],[11.7343,45.2847],[11.7219,45.287],[11.7048,45.283],[11.7043,45.2842],[11.7068,45.2884],[11.7083,45.2964],[11.6934,45.3102],[11.6978,45.3171],[11.7005,45.3187],[11.704,45.3174],[11.7124,45.3162],[11.7158,45.3168],[11.7215,45.3202],[11.7265,45.3219],[11.7371,45.3186],[11.7398,45.3169],[11.7449,45.316],[11.7547,45.3186]]]}},{"type":"Feature","properties":{"i":"028041","n":"Gazzo"},"geometry":{"type":"Polygon","coordinates":[[[11.7027,45.5953],[11.7211,45.5907],[11.7213,45.5841],[11.719,45.5831],[11.7186,45.5751],[11.7238,45.5631],[11.7271,45.5604],[11.7229,45.5603],[11.7203,45.5591],[11.7232,45.5554],[11.7241,45.5526],[11.7229,45.5444],[11.7034,45.5429],[11.6945,45.5507],[11.6858,45.552],[11.6819,45.5516],[11.6784,45.5496],[11.6796,45.5448],[11.679,45.5418],[11.6755,45.5392],[11.6682,45.5381],[11.6644,45.5395],[11.6577,45.5402],[11.6585,45.5455],[11.6557,45.55],[11.6531,45.5506],[11.6655,45.5583],[11.6699,45.5651],[11.6681,45.5688],[11.6659,45.5708],[11.6665,45.5764],[11.67,45.5825],[11.6745,45.5825],[11.6725,45.589],[11.6853,45.589],[11.6896,45.5897],[11.6923,45.591],[11.6933,45.5952],[11.6993,45.5961],[11.7027,45.5953]]]}},{"type":"Feature","properties":{"i":"028042","n":"Grantorto"},"geometry":{"type":"Polygon","coordinates":[[[11.7664,45.5993],[11.7631,45.591],[11.7476,45.5918],[11.7403,45.581],[11.7314,45.5799],[11.7259,45.5828],[11.7213,45.5841],[11.7211,45.5907],[11.7027,45.5953],[11.6993,45.6092],[11.702,45.6109],[11.715,45.6147],[11.7247,45.6196],[11.7289,45.6231],[11.7318,45.6216],[11.7461,45.6183],[11.7538,45.6069],[11.7635,45.6027],[11.7664,45.5993]]]}},{"type":"Feature","properties":{"i":"028043","n":"Granze"},"geometry":{"type":"Polygon","coordinates":[[[11.7448,45.1605],[11.7477,45.1526],[11.7493,45.1505],[11.7476,45.1457],[11.7288,45.138],[11.7192,45.1388],[11.7052,45.1426],[11.6889,45.14],[11.6974,45.152],[11.7,45.1537],[11.6985,45.1616],[11.6951,45.1661],[11.7181,45.171],[11.7222,45.165],[11.724,45.1645],[11.7247,45.168],[11.7339,45.1684],[11.7451,45.1634],[11.7448,45.1605]]]}},{"type":"Feature","properties":{"i":"028044","n":"Legnaro"},"geometry":{"type":"Polygon","coordinates":[[[11.9865,45.3497],[11.9798,45.3369],[11.9799,45.3351],[11.9863,45.3299],[11.9831,45.3246],[11.9812,45.3238],[11.9802,45.3221],[11.9764,45.3136],[11.977,45.3125],[11.9566,45.3178],[11.9537,45.3198],[11.9478,45.3264],[11.9522,45.3363],[11.9533,45.3428],[11.9472,45.3437],[11.9458,45.3541],[11.9434,45.3566],[11.9441,45.3609],[11.9487,45.3693],[11.9586,45.372],[11.9643,45.3711],[11.9691,45.373],[11.9725,45.3724],[11.9712,45.3594],[11.9786,45.3556],[11.9825,45.3566],[11.9868,45.3519],[11.9865,45.3497]]]}},{"type":"Feature","properties":{"i":"028045","n":"Limena"},"geometry":{"type":"Polygon","coordinates":[[[11.852,45.4993],[11.8523,45.491],[11.8511,45.4883],[11.8457,45.4882],[11.8461,45.4817],[11.8502,45.4739],[11.8569,45.4713],[11.8612,45.4711],[11.8622,45.4704],[11.8628,45.462],[11.8616,45.4573],[11.8593,45.4555],[11.8558,45.4573],[11.8531,45.4558],[11.8518,45.4528],[11.8498,45.4509],[11.8468,45.4493],[11.8412,45.4509],[11.8369,45.4556],[11.8325,45.4552],[11.8301,45.4485],[11.8087,45.4781],[11.8088,45.4812],[11.8104,45.4832],[11.8168,45.4877],[11.8232,45.4885],[11.8263,45.4904],[11.8175,45.4969],[11.817,45.498],[11.824,45.4993],[11.8265,45.4982],[11.8324,45.499],[11.8364,45.4999],[11.8391,45.5045],[11.8435,45.5033],[11.8456,45.5049],[11.8436,45.4972],[11.8438,45.4957],[11.8463,45.4949],[11.8488,45.4954],[11.852,45.4993]]]}},{"type":"Feature","properties":{"i":"028046","n":"Loreggia"},"geometry":{"type":"Polygon","coordinates":[[[11.9276,45.619],[11.9327,45.6155],[11.9423,45.6131],[11.952,45.6124],[11.9652,45.6079],[11.9661,45.6037],[11.9809,45.5936],[11.9837,45.5933],[11.9831,45.5895],[11.9806,45.586],[11.9635,45.5836],[11.9633,45.5805],[11.9652,45.5761],[11.9659,45.5704],[11.9421,45.5746],[11.9371,45.5768],[11.934,45.5786],[11.9323,45.5858],[11.9288,45.5939],[11.9246,45.5972],[11.9094,45.6018],[11.9089,45.6048],[11.9047,45.6042],[11.8981,45.6131],[11.9017,45.6176],[11.9005,45.6231],[11.8979,45.6269],[11.9011,45.628],[11.9079,45.6254],[11.9116,45.6204],[11.9133,45.6192],[11.9171,45.6185],[11.918,45.6215],[11.9227,45.6212],[11.9276,45.619]]]}},{"type":"Feature","properties":{"i":"028047","n":"Lozzo Atestino"},"geometry":{"type":"Polygon","coordinates":[[[11.6145,45.3173],[11.6241,45.312],[11.632,45.3145],[11.6352,45.3085],[11.6379,45.2986],[11.6405,45.2922],[11.6404,45.2891],[11.6394,45.2866],[11.6335,45.2856],[11.6327,45.2831],[11.6362,45.2728],[11.6341,45.2616],[11.6216,45.2564],[11.5825,45.2726],[11.5803,45.2873],[11.5805,45.3012],[11.5828,45.3058],[11.5883,45.313],[11.5961,45.3162],[11.6041,45.3183],[11.6104,45.3146],[11.6145,45.3173]]]}},{"type":"Feature","properties":{"i":"028048","n":"Maserà di Padova"},"geometry":{"type":"Polygon","coordinates":[[[11.8945,45.327],[11.8953,45.3259],[11.8962,45.3215],[11.8982,45.3051],[11.8975,45.2979],[11.8988,45.2917],[11.9038,45.2859],[11.9049,45.2856],[11.9026,45.2804],[11.8989,45.2801],[11.8801,45.2852],[11.8769,45.2889],[11.87,45.2909],[11.8648,45.3103],[11.8576,45.313],[11.8386,45.318],[11.8375,45.322],[11.8347,45.3255],[11.8304,45.3279],[11.8183,45.3323],[11.8224,45.3377],[11.8314,45.3346],[11.8345,45.336],[11.8358,45.3378],[11.8388,45.338],[11.8505,45.3335],[11.866,45.3295],[11.8762,45.3277],[11.8945,45.327]]]}},{"type":"Feature","properties":{"i":"028049","n":"Masi"},"geometry":{"type":"Polygon","coordinates":[[[11.5252,45.1473],[11.5242,45.1422],[11.5256,45.1251],[11.5243,45.1205],[11.5175,45.1184],[11.5154,45.1148],[11.507,45.1084],[11.4961,45.1037],[11.493,45.1031],[11.468,45.1088],[11.4706,45.1143],[11.4731,45.1132],[11.4746,45.1143],[11.4834,45.1273],[11.4874,45.1313],[11.4925,45.1417],[11.4889,45.1427],[11.5005,45.1452],[11.5139,45.1469],[11.5252,45.1473]]]}},{"type":"Feature","properties":{"i":"028050","n":"Massanzago"},"geometry":{"type":"Polygon","coordinates":[[[12.0334,45.5627],[12.0314,45.5413],[12.0314,45.5363],[12.0331,45.5345],[12.0315,45.5351],[12.0263,45.5202],[12.0248,45.521],[12.023,45.5247],[12.0184,45.5287],[12.0106,45.5317],[12.008,45.532],[12.0073,45.5305],[12.0057,45.5313],[12.0037,45.5348],[12.0079,45.5467],[11.9962,45.5503],[11.9892,45.5469],[11.9819,45.5521],[11.9802,45.5546],[11.9863,45.5706],[12.0113,45.5696],[12.0276,45.5635],[12.0334,45.5627]]]}},{"type":"Feature","properties":{"i":"028052","n":"Megliadino San Vitale"},"geometry":{"type":"Polygon","coordinates":[[[11.5627,45.1645],[11.5538,45.1558],[11.5525,45.1536],[11.5503,45.1517],[11.5474,45.1509],[11.5405,45.1513],[11.5232,45.1577],[11.5241,45.1635],[11.5215,45.1667],[11.5161,45.1702],[11.5107,45.1758],[11.505,45.1852],[11.5036,45.1952],[11.5079,45.196],[11.5088,45.2021],[11.5115,45.2045],[11.5215,45.2017],[11.5255,45.2014],[11.5331,45.2018],[11.5437,45.2046],[11.5426,45.1988],[11.5391,45.1965],[11.5434,45.1867],[11.5458,45.1778],[11.546,45.1737],[11.5627,45.1645]]]}},{"type":"Feature","properties":{"i":"028053","n":"Merlara"},"geometry":{"type":"Polygon","coordinates":[[[11.4566,45.1762],[11.4713,45.1681],[11.4844,45.1632],[11.5184,45.1521],[11.5188,45.1529],[11.5252,45.1473],[11.5139,45.1469],[11.5005,45.1452],[11.476,45.1407],[11.4553,45.1438],[11.4314,45.1526],[11.4299,45.1525],[11.4288,45.1505],[11.4267,45.1511],[11.423,45.1528],[11.4182,45.1564],[11.4217,45.1664],[11.4175,45.1684],[11.4092,45.1749],[11.408,45.1776],[11.4082,45.1821],[11.4075,45.184],[11.4191,45.1841],[11.4275,45.1796],[11.4566,45.1762]]]}},{"type":"Feature","properties":{"i":"028054","n":"Mestrino"},"geometry":{"type":"Polygon","coordinates":[[[11.7766,45.449],[11.7795,45.447],[11.7841,45.4404],[11.7768,45.4379],[11.7755,45.4325],[11.7772,45.4273],[11.7763,45.424],[11.7756,45.4237],[11.7718,45.4239],[11.7607,45.4301],[11.7515,45.433],[11.744,45.4281],[11.7271,45.4322],[11.7258,45.4328],[11.725,45.4348],[11.7262,45.4357],[11.7391,45.4381],[11.7431,45.4396],[11.7408,45.4428],[11.7426,45.4483],[11.7398,45.4513],[11.7311,45.4553],[11.7145,45.4571],[11.7095,45.4588],[11.7086,45.46],[11.71,45.4627],[11.7061,45.4733],[11.718,45.4743],[11.7386,45.4712],[11.7444,45.4712],[11.7456,45.4721],[11.7446,45.4735],[11.7442,45.4766],[11.7457,45.4784],[11.7513,45.4754],[11.7524,45.4775],[11.7553,45.4798],[11.7701,45.4794],[11.7734,45.4813],[11.778,45.4778],[11.7799,45.474],[11.7795,45.4719],[11.7756,45.4736],[11.7728,45.4731],[11.7692,45.4712],[11.7685,45.4688],[11.7577,45.4559],[11.7582,45.4544],[11.7676,45.4465],[11.7766,45.449]]]}},{"type":"Feature","properties":{"i":"028055","n":"Monselice"},"geometry":{"type":"Polygon","coordinates":[[[11.7749,45.2713],[11.7776,45.2691],[11.7765,45.2643],[11.7729,45.2602],[11.7751,45.254],[11.7877,45.2406],[11.7902,45.2407],[11.8014,45.2374],[11.8029,45.2329],[11.8024,45.2319],[11.8028,45.2283],[11.8053,45.2244],[11.8128,45.2174],[11.8142,45.2172],[11.8165,45.2006],[11.8125,45.1955],[11.8111,45.1964],[11.8129,45.2017],[11.8089,45.2053],[11.7991,45.2072],[11.792,45.2075],[11.7829,45.2099],[11.7819,45.2119],[11.7793,45.2124],[11.7751,45.2104],[11.772,45.1972],[11.7731,45.1949],[11.7787,45.1905],[11.7761,45.1888],[11.7707,45.1878],[11.7641,45.1899],[11.7565,45.1907],[11.7488,45.1883],[11.7389,45.188],[11.7355,45.1889],[11.7295,45.1923],[11.7224,45.2017],[11.722,45.2074],[11.7185,45.2107],[11.6997,45.2149],[11.6975,45.2162],[11.6967,45.2178],[11.698,45.2192],[11.703,45.2195],[11.7089,45.2228],[11.7117,45.2257],[11.7112,45.23],[11.7098,45.2297],[11.7098,45.2304],[11.7197,45.2438],[11.7245,45.246],[11.7244,45.2488],[11.7207,45.25],[11.7313,45.2557],[11.7373,45.2579],[11.7455,45.2661],[11.7542,45.2786],[11.7527,45.279],[11.7663,45.2863],[11.77,45.2792],[11.77,45.2747],[11.7749,45.2713]]]}},{"type":"Feature","properties":{"i":"028056","n":"Montagnana"},"geometry":{"type":"Polygon","coordinates":[[[11.5614,45.2618],[11.5614,45.2604],[11.5579,45.2592],[11.531,45.2536],[11.512,45.2453],[11.5056,45.2414],[11.5056,45.2359],[11.5039,45.2315],[11.5009,45.23],[11.4986,45.2251],[11.4987,45.2198],[11.5012,45.2167],[11.504,45.2103],[11.5006,45.2042],[11.4944,45.2017],[11.4917,45.2035],[11.4917,45.2043],[11.485,45.2078],[11.4692,45.2138],[11.4604,45.2138],[11.4567,45.2114],[11.4541,45.2129],[11.4201,45.2214],[11.41,45.2219],[11.4014,45.2209],[11.3997,45.2257],[11.4022,45.2351],[11.4062,45.2381],[11.4065,45.2391],[11.4055,45.2455],[11.4011,45.2516],[11.3909,45.2526],[11.3907,45.2536],[11.3926,45.2594],[11.3972,45.2606],[11.4028,45.2649],[11.4237,45.2542],[11.4262,45.2536],[11.4387,45.2588],[11.4507,45.2613],[11.4556,45.2607],[11.4662,45.2621],[11.4803,45.2585],[11.4846,45.2619],[11.487,45.266],[11.5284,45.2585],[11.5614,45.2618]]]}},{"type":"Feature","properties":{"i":"028057","n":"Montegrotto Terme"},"geometry":{"type":"Polygon","coordinates":[[[11.8174,45.3309],[11.7974,45.3078],[11.7925,45.2999],[11.7906,45.3005],[11.7908,45.305],[11.7937,45.308],[11.7935,45.3092],[11.7886,45.3112],[11.7734,45.3095],[11.768,45.3028],[11.7635,45.3016],[11.7611,45.3021],[11.7608,45.3097],[11.7582,45.313],[11.7561,45.3133],[11.7547,45.3167],[11.7547,45.3186],[11.7579,45.3207],[11.7588,45.3227],[11.7595,45.3257],[11.7592,45.3267],[11.7577,45.3269],[11.7578,45.3293],[11.7632,45.3399],[11.7721,45.3371],[11.778,45.3393],[11.7754,45.3443],[11.7924,45.3468],[11.8105,45.3404],[11.8138,45.3367],[11.8142,45.3341],[11.8174,45.3309]]]}},{"type":"Feature","properties":{"i":"028058","n":"Noventa Padovana"},"geometry":{"type":"Polygon","coordinates":[[[11.9541,45.4229],[11.9553,45.4174],[11.9566,45.4151],[11.9581,45.4143],[11.9637,45.4153],[11.9707,45.4205],[11.9798,45.4189],[11.9884,45.4154],[11.9947,45.4151],[12.0028,45.4084],[11.9841,45.4084],[11.9794,45.4076],[11.976,45.4034],[11.9727,45.4052],[11.9673,45.4055],[11.9389,45.4037],[11.935,45.4069],[11.9341,45.4156],[11.9351,45.417],[11.9453,45.4231],[11.9541,45.4229]]]}},{"type":"Feature","properties":{"i":"028059","n":"Ospedaletto Euganeo"},"geometry":{"type":"Polygon","coordinates":[[[11.6177,45.2585],[11.6216,45.2564],[11.6255,45.2554],[11.6195,45.2459],[11.6119,45.2473],[11.6103,45.2424],[11.614,45.2339],[11.624,45.2207],[11.6362,45.2099],[11.631,45.2081],[11.6248,45.2077],[11.6172,45.2108],[11.6122,45.1991],[11.6115,45.1942],[11.594,45.1957],[11.5926,45.1974],[11.5953,45.2099],[11.6002,45.2168],[11.594,45.2179],[11.5763,45.2175],[11.5735,45.2219],[11.5735,45.2314],[11.5757,45.2402],[11.5757,45.2434],[11.5666,45.2451],[11.5643,45.2604],[11.5659,45.2615],[11.5685,45.2617],[11.5749,45.2607],[11.5784,45.2587],[11.59,45.2564],[11.6064,45.2555],[11.6129,45.2564],[11.6177,45.2585]]]}},{"type":"Feature","properties":{"i":"028060","n":"Padova"},"geometry":{"type":"Polygon","coordinates":[[[11.8961,45.4511],[11.8952,45.4464],[11.8979,45.4455],[11.9026,45.4478],[11.9095,45.4476],[11.9104,45.4466],[11.9094,45.4443],[11.9102,45.4399],[11.9255,45.4368],[11.9337,45.4373],[11.9375,45.4367],[11.9422,45.4343],[11.9531,45.4259],[11.9541,45.4229],[11.9453,45.4231],[11.9384,45.4193],[11.9341,45.4156],[11.935,45.4069],[11.9389,45.4037],[11.9673,45.4055],[11.9727,45.4052],[11.976,45.4034],[11.9729,45.3985],[11.9623,45.3977],[11.9591,45.3906],[11.9562,45.3807],[11.9598,45.3747],[11.9586,45.372],[11.9487,45.3693],[11.9433,45.371],[11.9444,45.373],[11.9419,45.3738],[11.9347,45.3736],[11.9321,45.3728],[11.9209,45.3819],[11.9181,45.3829],[11.9119,45.3832],[11.9065,45.3771],[11.9139,45.3727],[11.9137,45.3658],[11.9078,45.3671],[11.9068,45.3686],[11.895,45.3686],[11.894,45.3653],[11.8969,45.3624],[11.908,45.3566],[11.9197,45.3432],[11.9199,45.34],[11.9093,45.3418],[11.8951,45.3455],[11.8964,45.3516],[11.8959,45.3527],[11.8913,45.353],[11.8899,45.3515],[11.8848,45.3511],[11.8633,45.3625],[11.8616,45.3684],[11.8618,45.3734],[11.8635,45.3768],[11.8639,45.3792],[11.8612,45.3838],[11.855,45.3807],[11.8494,45.3762],[11.8364,45.3571],[11.82,45.3657],[11.8095,45.3734],[11.8098,45.3754],[11.8054,45.3774],[11.8102,45.3849],[11.8191,45.393],[11.8213,45.4029],[11.8242,45.4044],[11.8255,45.4102],[11.8264,45.4264],[11.8283,45.4333],[11.8292,45.4465],[11.8325,45.4552],[11.8369,45.4556],[11.8412,45.4509],[11.8468,45.4493],[11.8498,45.4509],[11.8518,45.4528],[11.8531,45.4558],[11.8558,45.4573],[11.8593,45.4555],[11.8599,45.454],[11.8618,45.4532],[11.8685,45.4544],[11.8771,45.4542],[11.8813,45.4531],[11.8841,45.4504],[11.8928,45.4502],[11.8961,45.4511]]]}},{"type":"Feature","properties":{"i":"028061","n":"Pernumia"},"geometry":{"type":"Polygon","coordinates":[[[11.8295,45.2727],[11.833,45.2708],[11.8483,45.2661],[11.849,45.2644],[11.8373,45.263],[11.8252,45.2649],[11.8193,45.2647],[11.8149,45.2586],[11.815,45.2546],[11.8133,45.2515],[11.809,45.2465],[11.7911,45.2418],[11.7902,45.2407],[11.7877,45.2406],[11.7754,45.2537],[11.7729,45.2596],[11.7742,45.2624],[11.7765,45.2643],[11.7776,45.2691],[11.7749,45.2713],[11.7774,45.2759],[11.7846,45.2849],[11.7884,45.2871],[11.7903,45.2831],[11.7974,45.278],[11.8198,45.2724],[11.8295,45.2727]]]}},{"type":"Feature","properties":{"i":"028062","n":"Piacenza d'Adige"},"geometry":{"type":"Polygon","coordinates":[[[11.5947,45.17],[11.5907,45.1621],[11.5747,45.1457],[11.5747,45.1318],[11.57,45.1331],[11.5668,45.1272],[11.5673,45.125],[11.5726,45.1241],[11.5696,45.1227],[11.5612,45.1205],[11.5243,45.1205],[11.5256,45.1251],[11.5242,45.1422],[11.5252,45.1473],[11.5188,45.1529],[11.5232,45.1577],[11.5405,45.1513],[11.5474,45.1509],[11.5503,45.1517],[11.5595,45.1619],[11.5707,45.1704],[11.5717,45.1748],[11.5712,45.1777],[11.5736,45.1725],[11.5815,45.1684],[11.5899,45.1689],[11.5947,45.17]]]}},{"type":"Feature","properties":{"i":"028063","n":"Piazzola sul Brenta"},"geometry":{"type":"Polygon","coordinates":[[[11.7631,45.591],[11.76,45.5881],[11.7586,45.5856],[11.7587,45.5748],[11.7602,45.5728],[11.7718,45.5669],[11.7767,45.5653],[11.79,45.5688],[11.7926,45.5685],[11.794,45.5672],[11.7969,45.5605],[11.796,45.5545],[11.7993,45.5515],[11.7956,45.539],[11.7931,45.5379],[11.7941,45.5351],[11.7971,45.5337],[11.8055,45.5326],[11.8063,45.5332],[11.8079,45.5383],[11.809,45.5342],[11.8116,45.5318],[11.8149,45.5315],[11.819,45.5337],[11.8217,45.5334],[11.826,45.5274],[11.8256,45.5243],[11.8182,45.5213],[11.8172,45.5207],[11.8178,45.5193],[11.8222,45.5185],[11.8312,45.5183],[11.8409,45.5198],[11.844,45.5184],[11.8431,45.5166],[11.8303,45.5087],[11.8302,45.5078],[11.8322,45.5063],[11.8391,45.5045],[11.8364,45.4999],[11.8288,45.4984],[11.8265,45.4982],[11.824,45.4993],[11.817,45.498],[11.8175,45.4969],[11.8159,45.495],[11.8123,45.4947],[11.8033,45.4993],[11.7935,45.5013],[11.7782,45.5233],[11.759,45.5204],[11.7584,45.5229],[11.7514,45.5327],[11.7412,45.545],[11.731,45.5593],[11.7288,45.5607],[11.7271,45.5604],[11.7238,45.5631],[11.7187,45.5748],[11.7191,45.5836],[11.7213,45.5841],[11.7259,45.5828],[11.7314,45.5799],[11.7403,45.581],[11.7476,45.5918],[11.7631,45.591]]]}},{"type":"Feature","properties":{"i":"028064","n":"Piombino Dese"},"geometry":{"type":"Polygon","coordinates":[[[12.0603,45.6383],[12.0665,45.6375],[12.0742,45.6417],[12.0775,45.6307],[12.0777,45.6274],[12.0788,45.6254],[12.0808,45.6237],[12.0868,45.6235],[12.083,45.6184],[12.0813,45.6191],[12.0773,45.6188],[12.0661,45.6135],[12.0594,45.6135],[12.0462,45.6206],[12.045,45.622],[12.0325,45.6245],[12.0279,45.6242],[12.0227,45.62],[12.0242,45.6094],[12.0216,45.5852],[12.0144,45.5852],[12.0141,45.5865],[12.0109,45.5896],[12.0035,45.591],[11.9918,45.5908],[11.9809,45.5936],[11.9656,45.6044],[11.9651,45.6069],[11.966,45.6127],[11.9865,45.6232],[12.0053,45.6224],[12.0058,45.6245],[12.0041,45.6275],[12.0041,45.6335],[12.0063,45.6408],[12.0159,45.6461],[12.0344,45.6468],[12.0499,45.6453],[12.0603,45.6383]]]}},{"type":"Feature","properties":{"i":"028065","n":"Piove di Sacco"},"geometry":{"type":"Polygon","coordinates":[[[12.1027,45.3223],[12.0977,45.3205],[12.1027,45.3174],[12.1103,45.3079],[12.114,45.305],[12.1125,45.3033],[12.1101,45.2964],[12.1037,45.2955],[12.073,45.2959],[12.0673,45.2932],[12.0661,45.2919],[12.0665,45.2901],[12.0713,45.2881],[12.0758,45.2844],[12.0726,45.2801],[12.0684,45.2791],[12.059,45.2816],[12.0534,45.282],[12.0474,45.2812],[12.0376,45.2773],[12.0322,45.2672],[12.0312,45.2546],[12.0205,45.2541],[12.014,45.2547],[12.0094,45.2567],[12.0097,45.2611],[12.0117,45.262],[12.0126,45.2663],[12.0104,45.2749],[12.0176,45.2909],[12.0043,45.3051],[12.0037,45.3087],[12.0047,45.3103],[12.0082,45.3111],[12.0172,45.3115],[12.0194,45.3143],[12.0128,45.3217],[12.0077,45.3255],[12.013,45.3317],[12.0153,45.3324],[12.0181,45.3268],[12.0214,45.3222],[12.0348,45.3142],[12.0482,45.3129],[12.0554,45.3196],[12.0626,45.3217],[12.0684,45.3215],[12.0716,45.3263],[12.0791,45.3321],[12.0864,45.3319],[12.0929,45.3298],[12.1027,45.3223]]]}},{"type":"Feature","properties":{"i":"028066","n":"Polverara"},"geometry":{"type":"Polygon","coordinates":[[[11.9472,45.3437],[11.9533,45.3428],[11.9522,45.3363],[11.9478,45.3264],[11.9537,45.3198],[11.9566,45.3178],[11.977,45.3125],[11.9722,45.3087],[11.9682,45.3076],[11.9666,45.3055],[11.9629,45.2975],[11.9634,45.2952],[11.9647,45.2936],[11.9645,45.2911],[11.9632,45.2889],[11.9556,45.29],[11.9525,45.291],[11.9507,45.2927],[11.9285,45.299],[11.9328,45.3057],[11.9409,45.3232],[11.9452,45.3283],[11.9434,45.3307],[11.9388,45.329],[11.9369,45.3372],[11.9397,45.3424],[11.9436,45.3437],[11.9472,45.3437]]]}},{"type":"Feature","properties":{"i":"028067","n":"Ponso"},"geometry":{"type":"Polygon","coordinates":[[[11.594,45.1957],[11.5933,45.1954],[11.5942,45.193],[11.5981,45.1853],[11.5999,45.1844],[11.6062,45.1754],[11.5947,45.17],[11.5899,45.1689],[11.5815,45.1684],[11.5736,45.1725],[11.5712,45.1777],[11.5593,45.1821],[11.5672,45.1911],[11.577,45.2005],[11.5763,45.2175],[11.594,45.2179],[11.6002,45.2168],[11.5953,45.2099],[11.5926,45.1974],[11.594,45.1957]]]}},{"type":"Feature","properties":{"i":"028068","n":"Pontelongo"},"geometry":{"type":"Polygon","coordinates":[[[12.0094,45.2567],[12.014,45.2547],[12.0205,45.2541],[12.0312,45.2546],[12.0385,45.2527],[12.0448,45.2553],[12.0533,45.2557],[12.056,45.2496],[12.0659,45.2478],[12.0734,45.2493],[12.0742,45.2485],[12.0737,45.2457],[12.0771,45.2447],[12.0819,45.2403],[12.0778,45.2392],[12.0771,45.2376],[12.0779,45.2356],[12.0572,45.2389],[12.0531,45.2402],[12.0495,45.2403],[12.0436,45.2362],[12.0372,45.2352],[12.0342,45.236],[12.0321,45.2396],[12.0294,45.2396],[12.0232,45.2382],[12.0179,45.2359],[12.0132,45.2323],[12.0123,45.2342],[12.0141,45.2367],[12.0113,45.2412],[12.0046,45.2391],[11.998,45.2384],[11.9943,45.2395],[11.9937,45.243],[11.9938,45.2448],[11.9954,45.2479],[12.0046,45.248],[12.0104,45.2507],[12.0099,45.2519],[11.9946,45.2556],[11.9967,45.2603],[12.0094,45.2567]]]}},{"type":"Feature","properties":{"i":"028069","n":"Ponte San Nicolò"},"geometry":{"type":"Polygon","coordinates":[[[11.9487,45.3693],[11.9435,45.3589],[11.9437,45.356],[11.9458,45.3541],[11.9475,45.3447],[11.9472,45.3437],[11.9436,45.3437],[11.9397,45.3424],[11.9367,45.336],[11.9388,45.329],[11.9434,45.3307],[11.9452,45.3283],[11.9409,45.3232],[11.9346,45.3222],[11.9302,45.323],[11.9296,45.3243],[11.9303,45.3295],[11.9199,45.34],[11.9197,45.3432],[11.9121,45.3523],[11.908,45.3566],[11.8969,45.3624],[11.894,45.3653],[11.895,45.3686],[11.9068,45.3686],[11.9078,45.3671],[11.9137,45.3658],[11.9139,45.3727],[11.9065,45.3771],[11.9119,45.3832],[11.9181,45.3829],[11.9209,45.3819],[11.9321,45.3728],[11.9347,45.3736],[11.9419,45.3738],[11.9444,45.373],[11.9433,45.371],[11.9487,45.3693]]]}},{"type":"Feature","properties":{"i":"028070","n":"Pozzonovo"},"geometry":{"type":"Polygon","coordinates":[[[11.8125,45.1955],[11.8167,45.1935],[11.8286,45.1805],[11.8297,45.1772],[11.8358,45.1699],[11.8388,45.169],[11.835,45.166],[11.8342,45.1624],[11.837,45.1578],[11.8417,45.1533],[11.8451,45.1443],[11.844,45.1404],[11.8405,45.1409],[11.826,45.1377],[11.8212,45.1411],[11.8197,45.1482],[11.804,45.1489],[11.8055,45.1528],[11.799,45.159],[11.7783,45.1621],[11.7794,45.1678],[11.7822,45.1686],[11.7827,45.1898],[11.7787,45.1905],[11.7723,45.1962],[11.7751,45.2104],[11.7797,45.2123],[11.7819,45.2119],[11.7829,45.2099],[11.792,45.2075],[11.7991,45.2072],[11.8089,45.2053],[11.8129,45.2017],[11.8111,45.1964],[11.8125,45.1955]]]}},{"type":"Feature","properties":{"i":"028071","n":"Rovolon"},"geometry":{"type":"Polygon","coordinates":[[[11.6983,45.3715],[11.6934,45.3702],[11.6864,45.3724],[11.6807,45.3783],[11.6779,45.3702],[11.678,45.3686],[11.6723,45.3622],[11.6683,45.3601],[11.659,45.3604],[11.649,45.3539],[11.6377,45.3494],[11.6345,45.3493],[11.6253,45.3501],[11.6263,45.3502],[11.6274,45.3564],[11.6245,45.3601],[11.6231,45.3612],[11.6209,45.3614],[11.6156,45.3666],[11.6113,45.3749],[11.6159,45.3883],[11.6351,45.4015],[11.6453,45.4073],[11.6532,45.4104],[11.6663,45.4062],[11.6792,45.4058],[11.6824,45.4037],[11.6868,45.3982],[11.6853,45.3903],[11.6871,45.3774],[11.6983,45.3715]]]}},{"type":"Feature","properties":{"i":"028072","n":"Rubano"},"geometry":{"type":"Polygon","coordinates":[[[11.8292,45.4465],[11.8283,45.4333],[11.8264,45.4264],[11.8259,45.4156],[11.8142,45.4186],[11.8045,45.4185],[11.7951,45.4158],[11.7886,45.4174],[11.7898,45.42],[11.7875,45.4226],[11.7799,45.4242],[11.7763,45.4225],[11.7756,45.4237],[11.7763,45.424],[11.7772,45.4273],[11.7755,45.4325],[11.7768,45.4379],[11.7841,45.4404],[11.7795,45.447],[11.7766,45.449],[11.7864,45.4561],[11.7898,45.4572],[11.8006,45.456],[11.8069,45.454],[11.8111,45.4512],[11.8142,45.4471],[11.8229,45.4452],[11.8292,45.4465]]]}},{"type":"Feature","properties":{"i":"028073","n":"Saccolongo"},"geometry":{"type":"Polygon","coordinates":[[[11.7756,45.4237],[11.7763,45.4225],[11.7695,45.4174],[11.7649,45.4106],[11.7638,45.4027],[11.7656,45.398],[11.7696,45.397],[11.7708,45.3954],[11.7659,45.3911],[11.7601,45.3887],[11.743,45.3885],[11.7399,45.3873],[11.726,45.3953],[11.7201,45.3953],[11.717,45.3997],[11.7331,45.4202],[11.7396,45.4225],[11.7447,45.4282],[11.7515,45.433],[11.7607,45.4301],[11.7718,45.4239],[11.7756,45.4237]]]}},{"type":"Feature","properties":{"i":"028075","n":"San Giorgio delle Pertiche"},"geometry":{"type":"Polygon","coordinates":[[[11.9244,45.5496],[11.93,45.5472],[11.9213,45.5274],[11.9246,45.5247],[11.9295,45.5233],[11.9304,45.5216],[11.9295,45.5206],[11.9234,45.5187],[11.9214,45.5189],[11.9146,45.5202],[11.9109,45.5223],[11.8966,45.525],[11.8911,45.5104],[11.8826,45.5121],[11.8752,45.515],[11.8706,45.526],[11.8615,45.532],[11.864,45.541],[11.8552,45.5428],[11.8585,45.5508],[11.8572,45.5524],[11.8566,45.5559],[11.8585,45.5574],[11.8621,45.5584],[11.8655,45.5586],[11.8701,45.5573],[11.871,45.555],[11.8766,45.5538],[11.8897,45.549],[11.8981,45.5537],[11.9,45.5539],[11.9244,45.5496]]]}},{"type":"Feature","properties":{"i":"028076","n":"San Giorgio in Bosco"},"geometry":{"type":"Polygon","coordinates":[[[11.8417,45.6178],[11.8419,45.6088],[11.8407,45.604],[11.8485,45.597],[11.8495,45.5955],[11.8497,45.5914],[11.8478,45.591],[11.8435,45.5927],[11.8431,45.5942],[11.8414,45.5956],[11.8375,45.5965],[11.8356,45.596],[11.8344,45.5931],[11.8338,45.5841],[11.8344,45.5797],[11.8355,45.5786],[11.8346,45.5768],[11.8306,45.5694],[11.8208,45.5643],[11.796,45.5545],[11.7968,45.5565],[11.7967,45.5614],[11.7937,45.5677],[11.7926,45.5685],[11.7896,45.5688],[11.7767,45.5653],[11.7718,45.5669],[11.7602,45.5728],[11.7587,45.5748],[11.7586,45.5856],[11.76,45.5881],[11.7631,45.591],[11.7664,45.5993],[11.7709,45.5969],[11.7732,45.5965],[11.7756,45.5978],[11.7802,45.6041],[11.7851,45.6076],[11.7954,45.6066],[11.8208,45.6117],[11.8269,45.6087],[11.8301,45.6106],[11.8307,45.6139],[11.8289,45.615],[11.8296,45.6179],[11.8321,45.6209],[11.8417,45.6178]]]}},{"type":"Feature","properties":{"i":"028077","n":"San Martino di Lupari"},"geometry":{"type":"Polygon","coordinates":[[[11.8393,45.683],[11.8419,45.6833],[11.8676,45.6695],[11.8681,45.6666],[11.8744,45.6658],[11.8836,45.6606],[11.8936,45.6332],[11.8894,45.6318],[11.8917,45.6226],[11.8981,45.6131],[11.8902,45.61],[11.8883,45.6043],[11.8857,45.6031],[11.8839,45.6038],[11.8816,45.6077],[11.8759,45.6126],[11.8662,45.6153],[11.8594,45.6155],[11.8508,45.6195],[11.8493,45.6203],[11.8471,45.6266],[11.8386,45.6287],[11.8421,45.638],[11.8395,45.657],[11.8485,45.6582],[11.8484,45.659],[11.8464,45.6647],[11.8419,45.6704],[11.8322,45.6756],[11.8261,45.6806],[11.8229,45.6864],[11.841,45.6771],[11.8393,45.683]]]}},{"type":"Feature","properties":{"i":"028078","n":"San Pietro in Gu"},"geometry":{"type":"Polygon","coordinates":[[[11.6993,45.6092],[11.7027,45.5953],[11.6993,45.5961],[11.6933,45.5952],[11.6923,45.591],[11.6896,45.5897],[11.6853,45.589],[11.6725,45.589],[11.674,45.5923],[11.6715,45.5941],[11.6665,45.595],[11.6591,45.5945],[11.6591,45.5931],[11.6576,45.5923],[11.646,45.5942],[11.6427,45.5986],[11.6461,45.6068],[11.6457,45.61],[11.6438,45.6113],[11.6468,45.6192],[11.6491,45.6228],[11.6455,45.6274],[11.6466,45.6342],[11.6516,45.6386],[11.6562,45.6404],[11.6767,45.6401],[11.6763,45.6377],[11.6797,45.627],[11.6854,45.6208],[11.6895,45.6124],[11.6873,45.6122],[11.6874,45.6092],[11.6897,45.6083],[11.6993,45.6092]]]}},{"type":"Feature","properties":{"i":"028079","n":"San Pietro Viminario"},"geometry":{"type":"Polygon","coordinates":[[[11.8445,45.2635],[11.8467,45.2591],[11.8512,45.2532],[11.8519,45.2504],[11.8477,45.2483],[11.8395,45.2463],[11.8377,45.2442],[11.8384,45.2414],[11.8464,45.2397],[11.848,45.2391],[11.8488,45.2376],[11.8446,45.2276],[11.8229,45.2265],[11.8168,45.223],[11.8163,45.2191],[11.8142,45.2172],[11.8128,45.2174],[11.8053,45.2244],[11.8028,45.2283],[11.8024,45.2319],[11.8029,45.2329],[11.8014,45.2374],[11.7902,45.2407],[11.7911,45.2418],[11.809,45.2465],[11.8133,45.2515],[11.815,45.2546],[11.8149,45.2586],[11.8193,45.2647],[11.8252,45.2649],[11.8373,45.263],[11.8445,45.2635]]]}},{"type":"Feature","properties":{"i":"028080","n":"Santa Giustina in Colle"},"geometry":{"type":"Polygon","coordinates":[[[11.9047,45.6042],[11.9073,45.5989],[11.916,45.5929],[11.9176,45.5883],[11.9177,45.5825],[11.9166,45.5798],[11.9111,45.5804],[11.9067,45.5755],[11.9061,45.5714],[11.9161,45.5608],[11.9246,45.5569],[11.926,45.5543],[11.9244,45.5496],[11.9,45.5539],[11.8981,45.5537],[11.8897,45.549],[11.8766,45.5538],[11.871,45.555],[11.8701,45.5573],[11.8709,45.5642],[11.8756,45.5668],[11.8803,45.5729],[11.8817,45.5764],[11.8756,45.5997],[11.8789,45.6061],[11.8816,45.6077],[11.8834,45.6044],[11.8857,45.6031],[11.8883,45.6043],[11.8902,45.61],[11.8981,45.6131],[11.9047,45.6042]]]}},{"type":"Feature","properties":{"i":"028082","n":"Sant'Angelo di Piove di Sacco"},"geometry":{"type":"Polygon","coordinates":[[[12.0265,45.3673],[12.0248,45.3635],[12.0309,45.3606],[12.0347,45.3573],[12.0304,45.3558],[12.0224,45.3482],[12.0134,45.3431],[12.0166,45.3388],[12.0162,45.3346],[12.0153,45.3324],[12.013,45.3317],[12.0104,45.3295],[12.0077,45.3255],[12.0128,45.3217],[12.0194,45.3143],[12.0172,45.3115],[12.0082,45.3111],[12.0047,45.3103],[12.0037,45.3087],[12.0021,45.3125],[11.9878,45.3244],[11.9863,45.3299],[11.9799,45.3351],[11.9798,45.3377],[11.9865,45.3497],[11.9883,45.349],[11.9937,45.3504],[11.9979,45.3548],[11.9994,45.3598],[12.0052,45.3655],[12.0084,45.3674],[12.0116,45.3675],[12.0121,45.3704],[12.0265,45.3673]]]}},{"type":"Feature","properties":{"i":"028083","n":"Sant'Elena"},"geometry":{"type":"Polygon","coordinates":[[[11.7224,45.2017],[11.7285,45.1937],[11.7278,45.1915],[11.7239,45.1887],[11.7205,45.1831],[11.7201,45.1746],[11.7181,45.171],[11.6951,45.1661],[11.6959,45.1686],[11.6946,45.1722],[11.6886,45.182],[11.6876,45.1902],[11.6911,45.1955],[11.6871,45.1982],[11.6901,45.2006],[11.6978,45.203],[11.7051,45.2016],[11.711,45.1977],[11.7139,45.1969],[11.7224,45.2017]]]}},{"type":"Feature","properties":{"i":"028084","n":"Sant'Urbano"},"geometry":{"type":"Polygon","coordinates":[[[11.6889,45.14],[11.6819,45.1304],[11.679,45.1285],[11.6728,45.1265],[11.6678,45.1226],[11.6669,45.1189],[11.6676,45.1176],[11.6513,45.1162],[11.6415,45.1117],[11.6392,45.1102],[11.6385,45.1087],[11.6106,45.1099],[11.6098,45.1117],[11.6,45.1176],[11.5953,45.1184],[11.5908,45.1177],[11.5814,45.1205],[11.5785,45.1235],[11.5686,45.1245],[11.5673,45.125],[11.5668,45.1262],[11.5674,45.1291],[11.57,45.1331],[11.5747,45.1318],[11.5747,45.1401],[11.5998,45.1414],[11.6042,45.147],[11.6111,45.1482],[11.6144,45.1453],[11.621,45.1428],[11.6313,45.1425],[11.6323,45.1442],[11.6321,45.1492],[11.636,45.1606],[11.6439,45.1591],[11.6554,45.1651],[11.6581,45.1628],[11.66,45.1596],[11.6645,45.1562],[11.6768,45.1494],[11.6732,45.1399],[11.6822,45.139],[11.6889,45.14]]]}},{"type":"Feature","properties":{"i":"028085","n":"Saonara"},"geometry":{"type":"Polygon","coordinates":[[[12.0121,45.3704],[12.0116,45.3675],[12.0084,45.3674],[12.0052,45.3655],[11.9994,45.3598],[11.9979,45.3548],[11.9937,45.3504],[11.9883,45.349],[11.9865,45.3497],[11.9868,45.3519],[11.9825,45.3566],[11.9786,45.3556],[11.9712,45.3594],[11.9725,45.3724],[11.9691,45.373],[11.9643,45.3711],[11.9586,45.372],[11.9598,45.3747],[11.9562,45.3807],[11.9591,45.3906],[11.9626,45.3981],[11.9669,45.3976],[11.9729,45.3985],[11.9751,45.4015],[11.9753,45.3981],[11.9816,45.3961],[11.9877,45.3959],[11.9915,45.3939],[11.9948,45.3852],[11.9928,45.3809],[11.9973,45.3776],[12.0008,45.3768],[12.0121,45.3704]]]}},{"type":"Feature","properties":{"i":"028086","n":"Selvazzano Dentro"},"geometry":{"type":"Polygon","coordinates":[[[11.8259,45.4156],[11.8242,45.4044],[11.8213,45.4029],[11.8191,45.393],[11.8102,45.3849],[11.8054,45.3774],[11.7912,45.3825],[11.7767,45.3826],[11.7603,45.3777],[11.7576,45.3791],[11.7464,45.3807],[11.7428,45.38],[11.7395,45.3866],[11.743,45.3885],[11.7601,45.3887],[11.7659,45.3911],[11.7708,45.3954],[11.7696,45.397],[11.7656,45.398],[11.7638,45.4027],[11.7649,45.4106],[11.7695,45.4174],[11.7763,45.4225],[11.7799,45.4242],[11.7878,45.4224],[11.7898,45.42],[11.7886,45.4174],[11.7951,45.4158],[11.8045,45.4185],[11.8142,45.4186],[11.8259,45.4156]]]}},{"type":"Feature","properties":{"i":"028087","n":"Solesino"},"geometry":{"type":"Polygon","coordinates":[[[11.7787,45.1905],[11.7827,45.1898],[11.782,45.1682],[11.7799,45.1681],[11.7774,45.1732],[11.7761,45.18],[11.773,45.1818],[11.7651,45.1765],[11.7562,45.1755],[11.7521,45.1721],[11.7479,45.1662],[11.7524,45.1628],[11.7495,45.1612],[11.7448,45.1605],[11.7451,45.1634],[11.7339,45.1684],[11.7247,45.168],[11.724,45.1645],[11.7222,45.165],[11.7183,45.1702],[11.7181,45.171],[11.7201,45.1746],[11.7205,45.1831],[11.7239,45.1887],[11.7278,45.1915],[11.7285,45.1937],[11.73,45.1919],[11.7355,45.1889],[11.7418,45.1877],[11.7488,45.1883],[11.7573,45.1907],[11.7651,45.1897],[11.7707,45.1878],[11.7753,45.1884],[11.7787,45.1905]]]}},{"type":"Feature","properties":{"i":"028088","n":"Stanghella"},"geometry":{"type":"Polygon","coordinates":[[[11.7799,45.1681],[11.7783,45.1621],[11.799,45.159],[11.8055,45.1528],[11.804,45.1489],[11.8008,45.1489],[11.7888,45.1379],[11.7777,45.1315],[11.7632,45.1159],[11.7603,45.1221],[11.7624,45.1224],[11.7611,45.1291],[11.7459,45.1328],[11.7266,45.1315],[11.7154,45.1363],[11.7144,45.1404],[11.7192,45.1388],[11.7288,45.138],[11.7476,45.1457],[11.7493,45.1505],[11.7477,45.1526],[11.7448,45.1605],[11.7495,45.1612],[11.7524,45.1628],[11.7479,45.1662],[11.7521,45.1721],[11.7562,45.1755],[11.7651,45.1765],[11.773,45.1818],[11.7761,45.18],[11.7774,45.1732],[11.7799,45.1681]]]}},{"type":"Feature","properties":{"i":"028089","n":"Teolo"},"geometry":{"type":"Polygon","coordinates":[[[11.7399,45.3873],[11.7395,45.3866],[11.7428,45.38],[11.7464,45.3807],[11.7576,45.3791],[11.7603,45.3777],[11.7675,45.3799],[11.7675,45.378],[11.7645,45.3715],[11.7611,45.3677],[11.7582,45.3626],[11.7573,45.3523],[11.7615,45.3507],[11.7624,45.3463],[11.7324,45.3462],[11.726,45.3485],[11.7221,45.3539],[11.7238,45.3566],[11.7266,45.3582],[11.7292,45.3614],[11.7304,45.3658],[11.73,45.3702],[11.7186,45.3684],[11.7083,45.3633],[11.6998,45.353],[11.6982,45.3446],[11.7011,45.3357],[11.7019,45.3298],[11.7005,45.3187],[11.6967,45.3163],[11.6894,45.3163],[11.672,45.3243],[11.6669,45.3286],[11.6669,45.3301],[11.6682,45.3315],[11.6688,45.3336],[11.6552,45.3482],[11.656,45.3528],[11.6513,45.3554],[11.659,45.3604],[11.6683,45.3601],[11.6723,45.3622],[11.678,45.3686],[11.6779,45.3702],[11.6807,45.3783],[11.6864,45.3724],[11.6934,45.3702],[11.6983,45.3715],[11.7058,45.3711],[11.7152,45.3739],[11.7214,45.3795],[11.7151,45.3877],[11.7161,45.3928],[11.7203,45.3937],[11.7201,45.3953],[11.726,45.3953],[11.7399,45.3873]]]}},{"type":"Feature","properties":{"i":"028090","n":"Terrassa Padovana"},"geometry":{"type":"Polygon","coordinates":[[[11.9066,45.2642],[11.9305,45.2584],[11.9314,45.2571],[11.9281,45.2536],[11.9321,45.2518],[11.9402,45.2507],[11.9461,45.2533],[11.9495,45.2533],[11.9601,45.2511],[11.9694,45.2439],[11.9693,45.2359],[11.9713,45.2354],[11.9723,45.2326],[11.9721,45.2305],[11.9696,45.2295],[11.9584,45.2324],[11.9521,45.2372],[11.9473,45.239],[11.942,45.2387],[11.9394,45.2359],[11.9397,45.2344],[11.9361,45.2329],[11.9314,45.2292],[11.9304,45.2306],[11.9301,45.2347],[11.9284,45.2387],[11.9228,45.2411],[11.9217,45.2413],[11.9195,45.239],[11.9076,45.2364],[11.902,45.2373],[11.8971,45.2392],[11.8865,45.2467],[11.8834,45.2522],[11.8831,45.2552],[11.881,45.2564],[11.8868,45.2576],[11.8935,45.2617],[11.8937,45.2637],[11.8901,45.2642],[11.8865,45.2658],[11.888,45.2681],[11.9066,45.2642]]]}},{"type":"Feature","properties":{"i":"028091","n":"Tombolo"},"geometry":{"type":"Polygon","coordinates":[[[11.8386,45.6287],[11.8383,45.6269],[11.8417,45.6178],[11.8321,45.6209],[11.8296,45.6179],[11.8289,45.615],[11.8307,45.6139],[11.8301,45.6106],[11.8263,45.6088],[11.8208,45.6117],[11.8199,45.6142],[11.8089,45.6192],[11.8076,45.6291],[11.8035,45.6319],[11.803,45.6331],[11.8139,45.6532],[11.8395,45.657],[11.8421,45.638],[11.8386,45.6287]]]}},{"type":"Feature","properties":{"i":"028092","n":"Torreglia"},"geometry":{"type":"Polygon","coordinates":[[[11.7609,45.3464],[11.7632,45.3399],[11.7578,45.3293],[11.7577,45.3269],[11.7592,45.3267],[11.7595,45.3257],[11.7588,45.3227],[11.7579,45.3207],[11.7554,45.3188],[11.7449,45.316],[11.7398,45.3169],[11.7371,45.3186],[11.7265,45.3219],[11.7215,45.3202],[11.7158,45.3168],[11.7124,45.3162],[11.704,45.3174],[11.7005,45.3187],[11.702,45.3309],[11.6982,45.3446],[11.6989,45.3507],[11.6998,45.353],[11.7083,45.3633],[11.7186,45.3684],[11.73,45.3702],[11.7304,45.3658],[11.7292,45.3614],[11.7266,45.3582],[11.7238,45.3566],[11.7221,45.3539],[11.726,45.3485],[11.7324,45.3462],[11.7609,45.3464]]]}},{"type":"Feature","properties":{"i":"028093","n":"Trebaseleghe"},"geometry":{"type":"Polygon","coordinates":[[[12.083,45.6184],[12.0869,45.6171],[12.0873,45.609],[12.086,45.6057],[12.0873,45.5997],[12.0925,45.5983],[12.0922,45.5944],[12.089,45.5883],[12.0836,45.582],[12.0724,45.5814],[12.0722,45.5777],[12.0614,45.5774],[12.0564,45.5724],[12.0383,45.5712],[12.034,45.5657],[12.0334,45.5627],[12.0276,45.5635],[12.0113,45.5696],[11.9919,45.5706],[11.9934,45.5758],[11.9937,45.5833],[11.9905,45.585],[11.9875,45.5907],[11.9877,45.5919],[11.9918,45.5908],[12.0035,45.591],[12.0109,45.5896],[12.0141,45.5865],[12.0144,45.5852],[12.0216,45.5852],[12.0242,45.6094],[12.0227,45.62],[12.0279,45.6242],[12.0325,45.6245],[12.045,45.622],[12.0462,45.6206],[12.0594,45.6135],[12.0661,45.6135],[12.0773,45.6188],[12.0813,45.6191],[12.083,45.6184]]]}},{"type":"Feature","properties":{"i":"028094","n":"Tribano"},"geometry":{"type":"Polygon","coordinates":[[[11.8446,45.2276],[11.8441,45.2268],[11.8461,45.2255],[11.8519,45.2235],[11.8546,45.2169],[11.8543,45.2128],[11.8603,45.2032],[11.8585,45.1983],[11.8494,45.1872],[11.8506,45.1757],[11.8606,45.1704],[11.8634,45.1612],[11.8705,45.1609],[11.8573,45.1552],[11.8486,45.1564],[11.8468,45.1584],[11.8451,45.1628],[11.8426,45.1663],[11.8395,45.1687],[11.8358,45.1699],[11.8297,45.1772],[11.8286,45.1805],[11.8204,45.1895],[11.8167,45.1935],[11.8125,45.1955],[11.8165,45.2006],[11.8166,45.203],[11.8153,45.2064],[11.8141,45.2147],[11.8142,45.2172],[11.8163,45.2191],[11.8168,45.223],[11.8229,45.2265],[11.8446,45.2276]]]}},{"type":"Feature","properties":{"i":"028095","n":"Urbana"},"geometry":{"type":"Polygon","coordinates":[[[11.4567,45.2114],[11.4594,45.2099],[11.456,45.198],[11.4543,45.1869],[11.4549,45.1795],[11.4566,45.1762],[11.4275,45.1796],[11.4191,45.1841],[11.4075,45.184],[11.4047,45.1886],[11.4063,45.1888],[11.4036,45.2158],[11.4014,45.2209],[11.41,45.2219],[11.4201,45.2214],[11.4541,45.2129],[11.4567,45.2114]]]}},{"type":"Feature","properties":{"i":"028096","n":"Veggiano"},"geometry":{"type":"Polygon","coordinates":[[[11.7447,45.4282],[11.7396,45.4225],[11.7331,45.4202],[11.717,45.3997],[11.7138,45.4036],[11.7135,45.4146],[11.707,45.42],[11.6921,45.4268],[11.6832,45.4294],[11.6836,45.431],[11.6858,45.4338],[11.69,45.4365],[11.6934,45.4436],[11.693,45.4484],[11.6986,45.4559],[11.702,45.4594],[11.7086,45.46],[11.7095,45.4588],[11.7145,45.4571],[11.7311,45.4553],[11.7398,45.4513],[11.7426,45.4483],[11.7408,45.4428],[11.7431,45.4396],[11.7391,45.4381],[11.7279,45.4363],[11.725,45.4348],[11.7258,45.4328],[11.7271,45.4322],[11.7447,45.4282]]]}},{"type":"Feature","properties":{"i":"028097","n":"Vescovana"},"geometry":{"type":"Polygon","coordinates":[[[11.7632,45.1159],[11.7608,45.114],[11.7653,45.1006],[11.7711,45.1015],[11.7757,45.0992],[11.7582,45.0954],[11.7374,45.0977],[11.7294,45.0978],[11.7196,45.0992],[11.7156,45.1015],[11.7162,45.1058],[11.7147,45.1099],[11.702,45.1153],[11.6768,45.1215],[11.6728,45.1265],[11.679,45.1285],[11.6819,45.1304],[11.6889,45.14],[11.7052,45.1426],[11.7144,45.1404],[11.7154,45.1363],[11.7266,45.1315],[11.7459,45.1328],[11.7611,45.1291],[11.7624,45.1224],[11.7603,45.1221],[11.7632,45.1159]]]}},{"type":"Feature","properties":{"i":"028099","n":"Vigodarzere"},"geometry":{"type":"Polygon","coordinates":[[[11.8826,45.5121],[11.8803,45.5068],[11.8799,45.5021],[11.8982,45.4902],[11.9003,45.4847],[11.8934,45.4654],[11.8965,45.4573],[11.8964,45.451],[11.8928,45.4502],[11.8841,45.4504],[11.8813,45.4531],[11.8788,45.4541],[11.8685,45.4544],[11.863,45.4531],[11.8599,45.454],[11.8593,45.4555],[11.8616,45.4573],[11.8628,45.462],[11.8622,45.4704],[11.8612,45.4711],[11.8569,45.4713],[11.8502,45.4739],[11.8458,45.4829],[11.8457,45.4882],[11.8511,45.4883],[11.8523,45.491],[11.8513,45.5049],[11.8538,45.5082],[11.8697,45.5148],[11.8752,45.515],[11.8826,45.5121]]]}},{"type":"Feature","properties":{"i":"028100","n":"Vigonza"},"geometry":{"type":"Polygon","coordinates":[[[11.9815,45.4749],[11.9787,45.4692],[11.9773,45.4642],[11.9783,45.4565],[11.9799,45.4539],[11.9829,45.4524],[11.9982,45.4505],[12.0031,45.4477],[12.0083,45.447],[12.0149,45.4486],[12.0178,45.4516],[12.0196,45.4512],[12.0263,45.4485],[12.027,45.4471],[12.0259,45.444],[12.0237,45.4409],[12.0194,45.4296],[12.0135,45.4242],[12.0054,45.4251],[11.9981,45.4241],[11.996,45.4226],[11.9947,45.4151],[11.9884,45.4154],[11.9798,45.4189],[11.9707,45.4205],[11.9637,45.4153],[11.9599,45.4142],[11.9569,45.4148],[11.9543,45.4196],[11.954,45.4236],[11.9521,45.427],[11.9422,45.4343],[11.9375,45.4367],[11.9328,45.4371],[11.9325,45.4379],[11.9363,45.4438],[11.9421,45.4485],[11.9499,45.446],[11.9527,45.4517],[11.9529,45.4532],[11.9506,45.4544],[11.9347,45.4597],[11.931,45.465],[11.9404,45.4903],[11.942,45.4931],[11.9454,45.4948],[11.9592,45.4913],[11.968,45.4776],[11.9815,45.4749]]]}},{"type":"Feature","properties":{"i":"028101","n":"Villa del Conte"},"geometry":{"type":"Polygon","coordinates":[[[11.8816,45.6077],[11.8789,45.6061],[11.8756,45.5997],[11.8815,45.5756],[11.8756,45.5668],[11.8709,45.5642],[11.8703,45.5617],[11.8504,45.5644],[11.8471,45.566],[11.8477,45.5729],[11.8435,45.5781],[11.8398,45.5795],[11.8346,45.579],[11.8338,45.5841],[11.8344,45.5931],[11.8356,45.596],[11.8375,45.5965],[11.8414,45.5956],[11.8431,45.5942],[11.8429,45.5931],[11.8478,45.591],[11.8494,45.5911],[11.8499,45.5921],[11.8495,45.5955],[11.8485,45.597],[11.8407,45.604],[11.8419,45.6088],[11.8417,45.6178],[11.8383,45.6269],[11.8386,45.6287],[11.8471,45.6266],[11.8493,45.6203],[11.8508,45.6195],[11.8594,45.6155],[11.8662,45.6153],[11.8759,45.6126],[11.8816,45.6077]]]}},{"type":"Feature","properties":{"i":"028102","n":"Villa Estense"},"geometry":{"type":"Polygon","coordinates":[[[11.6871,45.1982],[11.6911,45.1955],[11.6876,45.1902],[11.6886,45.182],[11.6946,45.1722],[11.6959,45.1686],[11.6951,45.1661],[11.6985,45.1616],[11.7,45.1537],[11.6974,45.152],[11.6889,45.14],[11.6822,45.139],[11.6732,45.1399],[11.6768,45.1494],[11.6645,45.1562],[11.66,45.1596],[11.6581,45.1628],[11.6554,45.1651],[11.6439,45.1591],[11.642,45.1743],[11.6463,45.1794],[11.6492,45.1786],[11.6597,45.1794],[11.6695,45.1894],[11.6767,45.1984],[11.6849,45.1992],[11.6871,45.1982]]]}},{"type":"Feature","properties":{"i":"028103","n":"Villafranca Padovana"},"geometry":{"type":"Polygon","coordinates":[[[11.8175,45.4969],[11.8263,45.4904],[11.8232,45.4885],[11.8168,45.4877],[11.8125,45.4847],[11.8088,45.4812],[11.8087,45.4781],[11.8301,45.4485],[11.8292,45.4465],[11.8229,45.4452],[11.8142,45.4471],[11.8111,45.4512],[11.8069,45.454],[11.8006,45.456],[11.7898,45.4572],[11.7864,45.4561],[11.7766,45.449],[11.7676,45.4465],[11.7582,45.4544],[11.7577,45.4559],[11.7685,45.4688],[11.7692,45.4712],[11.7728,45.4731],[11.7756,45.4736],[11.7795,45.4719],[11.7799,45.474],[11.778,45.4778],[11.7734,45.4813],[11.7708,45.482],[11.7691,45.4838],[11.7699,45.5118],[11.763,45.5171],[11.7635,45.5213],[11.7782,45.5233],[11.7935,45.5013],[11.8033,45.4993],[11.8123,45.4947],[11.8159,45.495],[11.8175,45.4969]]]}},{"type":"Feature","properties":{"i":"028104","n":"Villanova di Camposampiero"},"geometry":{"type":"Polygon","coordinates":[[[11.9952,45.5119],[12.004,45.5103],[11.9901,45.4735],[11.968,45.4776],[11.9592,45.4913],[11.952,45.4935],[11.9531,45.4965],[11.9571,45.4959],[11.9618,45.4984],[11.968,45.5154],[11.9706,45.5164],[11.9742,45.5159],[11.9767,45.5219],[11.9888,45.513],[11.9952,45.5119]]]}},{"type":"Feature","properties":{"i":"028105","n":"Vo'"},"geometry":{"type":"Polygon","coordinates":[[[11.6978,45.3171],[11.6934,45.3102],[11.6893,45.3128],[11.6869,45.3131],[11.6722,45.3121],[11.6593,45.305],[11.6431,45.2998],[11.6368,45.302],[11.6352,45.3085],[11.632,45.3145],[11.6241,45.312],[11.6145,45.3173],[11.6123,45.3254],[11.6163,45.3257],[11.618,45.327],[11.6196,45.3298],[11.6199,45.3326],[11.6169,45.3365],[11.6204,45.3434],[11.6232,45.3441],[11.6248,45.3454],[11.6253,45.3501],[11.6377,45.3494],[11.6513,45.3554],[11.656,45.3528],[11.6552,45.3482],[11.6688,45.3336],[11.6666,45.3293],[11.672,45.3243],[11.6894,45.3163],[11.6963,45.3162],[11.6978,45.3171]]]}},{"type":"Feature","properties":{"i":"028106","n":"Due Carrare"},"geometry":{"type":"Polygon","coordinates":[[[11.87,45.2909],[11.8703,45.288],[11.8653,45.2879],[11.8472,45.2806],[11.8342,45.2806],[11.8295,45.2727],[11.8245,45.2725],[11.8198,45.2724],[11.7974,45.278],[11.7903,45.2831],[11.7883,45.289],[11.789,45.2959],[11.7925,45.2999],[11.7974,45.3078],[11.8183,45.3323],[11.8304,45.3279],[11.8347,45.3255],[11.8375,45.322],[11.8386,45.318],[11.8576,45.313],[11.8648,45.3103],[11.87,45.2909]]]}},{"type":"Feature","properties":{"i":"028107","n":"Borgo Veneto"},"geometry":{"type":"Polygon","coordinates":[[[11.5763,45.2175],[11.577,45.2005],[11.5672,45.1911],[11.5593,45.1821],[11.5712,45.1777],[11.5717,45.1748],[11.5707,45.1704],[11.5627,45.1645],[11.546,45.1737],[11.5458,45.1778],[11.5434,45.1867],[11.5391,45.1965],[11.5426,45.1988],[11.5437,45.2046],[11.5331,45.2018],[11.5255,45.2014],[11.5215,45.2017],[11.5115,45.2045],[11.5088,45.2021],[11.5079,45.196],[11.5036,45.1952],[11.5006,45.2042],[11.504,45.2103],[11.5012,45.2167],[11.4987,45.2198],[11.4986,45.2251],[11.5009,45.23],[11.5039,45.2315],[11.5056,45.2359],[11.5056,45.2414],[11.512,45.2453],[11.531,45.2536],[11.5579,45.2592],[11.5614,45.2604],[11.5614,45.2618],[11.5651,45.2625],[11.5659,45.2615],[11.5643,45.2604],[11.5666,45.2451],[11.5757,45.2434],[11.5757,45.2402],[11.5735,45.2314],[11.5735,45.2219],[11.5763,45.2175]]]}}]}
