{"type":"FeatureCollection","fonte":"Confini comunali ISTAT via openpolis/geojson-italy — CC BY 4.0","features":[{"type":"Feature","properties":{"i":"068001","n":"Abbateggio"},"geometry":{"type":"Polygon","coordinates":[[[14.0303,42.2387],[14.0313,42.2298],[14.0274,42.2291],[14.0255,42.2272],[14.0225,42.1999],[14.0268,42.1897],[14.0303,42.1862],[14.0422,42.1796],[14.0623,42.1791],[14.0815,42.1723],[14.0837,42.1704],[14.0803,42.1721],[14.0777,42.1709],[14.0706,42.1704],[14.0376,42.1738],[14.0241,42.1788],[14.0138,42.1845],[14.0109,42.1898],[14.0044,42.1966],[14.0042,42.2018],[14.0026,42.2044],[13.9946,42.2136],[13.9948,42.2223],[14.0025,42.2248],[14.001,42.2296],[14.0036,42.2327],[14.0124,42.2369],[14.0236,42.2395],[14.0303,42.2387]]]}},{"type":"Feature","properties":{"i":"068002","n":"Alanno"},"geometry":{"type":"Polygon","coordinates":[[[14.0351,42.2963],[14.0341,42.2942],[14.0308,42.2911],[14.025,42.2891],[14.0214,42.2851],[14.0204,42.2832],[14.0211,42.2807],[14.0233,42.2776],[14.0221,42.2754],[14.0097,42.2687],[13.9858,42.2702],[13.9748,42.27],[13.9607,42.2645],[13.9523,42.2627],[13.9474,42.2632],[13.9434,42.2683],[13.9454,42.2734],[13.9442,42.2835],[13.9424,42.2884],[13.9422,42.2927],[13.9457,42.2971],[13.9623,42.3072],[13.9644,42.3105],[13.9765,42.3138],[13.9926,42.3166],[13.9925,42.3184],[13.9915,42.3193],[14.0029,42.3237],[14.0023,42.3214],[14.0248,42.3054],[14.029,42.3006],[14.0351,42.2963]]]}},{"type":"Feature","properties":{"i":"068003","n":"Bolognano"},"geometry":{"type":"Polygon","coordinates":[[[13.9578,42.2496],[13.9627,42.2459],[13.9695,42.2438],[13.9724,42.2417],[13.9694,42.2361],[13.962,42.2265],[13.9625,42.2157],[13.9629,42.2141],[13.9654,42.2125],[13.9636,42.2088],[13.963,42.2005],[13.9591,42.1956],[13.9572,42.19],[13.9612,42.1832],[13.9445,42.1727],[13.9389,42.1704],[13.9298,42.1685],[13.9321,42.173],[13.9365,42.1854],[13.9427,42.1921],[13.9396,42.1983],[13.9354,42.1998],[13.9348,42.2011],[13.9358,42.2056],[13.9389,42.2078],[13.9414,42.2123],[13.9435,42.2172],[13.9438,42.2212],[13.9433,42.2249],[13.9408,42.2277],[13.939,42.227],[13.9338,42.2273],[13.9319,42.2283],[13.9315,42.2302],[13.9359,42.2378],[13.9401,42.2404],[13.9461,42.2526],[13.948,42.2531],[13.9578,42.2496]]]}},{"type":"Feature","properties":{"i":"068004","n":"Brittoli"},"geometry":{"type":"Polygon","coordinates":[[[13.8692,42.3245],[13.8762,42.3238],[13.8749,42.3169],[13.8858,42.3078],[13.8829,42.2958],[13.854,42.2883],[13.8494,42.284],[13.8443,42.2811],[13.8427,42.2844],[13.8383,42.2889],[13.8285,42.2936],[13.8259,42.2998],[13.8245,42.3162],[13.8378,42.3168],[13.8477,42.32],[13.8563,42.3244],[13.8692,42.3245]]]}},{"type":"Feature","properties":{"i":"068005","n":"Bussi sul Tirino"},"geometry":{"type":"Polygon","coordinates":[[[13.8591,42.2236],[13.8593,42.2204],[13.8609,42.2189],[13.8659,42.2169],[13.8722,42.2087],[13.876,42.2032],[13.8771,42.1984],[13.8648,42.1976],[13.8462,42.1924],[13.8331,42.192],[13.8199,42.1958],[13.8164,42.198],[13.8139,42.1981],[13.8108,42.1967],[13.8035,42.2023],[13.8032,42.2087],[13.8043,42.2157],[13.8072,42.2183],[13.8075,42.2261],[13.8045,42.2335],[13.7992,42.2372],[13.8041,42.2378],[13.8103,42.248],[13.813,42.25],[13.8207,42.2532],[13.8256,42.2508],[13.8278,42.2469],[13.8319,42.246],[13.833,42.2465],[13.8383,42.2552],[13.8424,42.2565],[13.8438,42.2508],[13.8427,42.2376],[13.8431,42.2314],[13.8456,42.2221],[13.8502,42.2202],[13.8551,42.2241],[13.8591,42.2236]]]}},{"type":"Feature","properties":{"i":"068006","n":"Cappelle sul Tavo"},"geometry":{"type":"Polygon","coordinates":[[[14.1233,42.4648],[14.1153,42.4611],[14.1076,42.4586],[14.0943,42.4566],[14.0881,42.4625],[14.0853,42.4637],[14.0952,42.4744],[14.0946,42.4785],[14.0953,42.4816],[14.0976,42.4854],[14.1006,42.4846],[14.1,42.4829],[14.1057,42.4819],[14.1118,42.4786],[14.1233,42.4648]]]}},{"type":"Feature","properties":{"i":"068007","n":"Caramanico Terme"},"geometry":{"type":"Polygon","coordinates":[[[14.0044,42.1966],[14.0109,42.1898],[14.0138,42.1845],[14.0241,42.1788],[14.0376,42.1738],[14.0706,42.1704],[14.0777,42.1709],[14.0803,42.1721],[14.0837,42.1704],[14.0852,42.1675],[14.0905,42.1634],[14.0933,42.1624],[14.0964,42.1638],[14.1007,42.163],[14.1168,42.1545],[14.1186,42.1519],[14.1139,42.1489],[14.1099,42.1428],[14.1096,42.1379],[14.1157,42.1189],[14.1149,42.1072],[14.1115,42.1027],[14.1062,42.0987],[14.1025,42.0998],[14.0902,42.0987],[14.0838,42.1052],[14.0767,42.1186],[14.0716,42.1265],[14.069,42.1288],[14.0588,42.1332],[14.0505,42.1344],[14.0288,42.135],[14.0158,42.1341],[14.0109,42.1328],[14.0127,42.1233],[14.0126,42.1217],[14.0114,42.1205],[13.9921,42.1098],[13.9743,42.106],[13.9669,42.1146],[13.962,42.1247],[13.9592,42.1259],[13.962,42.137],[13.9635,42.1388],[13.9749,42.1652],[13.9736,42.1708],[13.9665,42.1801],[13.9612,42.1832],[13.9572,42.19],[13.9591,42.1956],[13.963,42.2005],[13.9636,42.2088],[13.9654,42.2125],[13.9838,42.2078],[13.9864,42.2047],[13.9966,42.1977],[14.0044,42.1966]]]}},{"type":"Feature","properties":{"i":"068008","n":"Carpineto della Nora"},"geometry":{"type":"Polygon","coordinates":[[[13.8294,42.3652],[13.8357,42.3639],[13.8378,42.36],[13.8418,42.3577],[13.8586,42.3544],[13.8698,42.3544],[13.8739,42.3535],[13.8726,42.3462],[13.8821,42.3395],[13.8729,42.3329],[13.8688,42.3317],[13.8692,42.3245],[13.8563,42.3244],[13.8477,42.32],[13.8378,42.3168],[13.8245,42.3162],[13.8054,42.3382],[13.8072,42.3463],[13.7991,42.3658],[13.8128,42.3683],[13.8208,42.3617],[13.8294,42.3652]]]}},{"type":"Feature","properties":{"i":"068009","n":"Castiglione a Casauria"},"geometry":{"type":"Polygon","coordinates":[[[13.9359,42.2378],[13.9324,42.2318],[13.9287,42.2325],[13.9145,42.2287],[13.905,42.2236],[13.9043,42.2215],[13.8976,42.2131],[13.891,42.2066],[13.8836,42.201],[13.8771,42.1984],[13.876,42.2032],[13.8687,42.2133],[13.8659,42.2169],[13.8609,42.2189],[13.8593,42.2204],[13.8589,42.2223],[13.8591,42.2236],[13.8696,42.2277],[13.8878,42.2368],[13.8973,42.2408],[13.9042,42.2408],[13.9046,42.2423],[13.9028,42.2551],[13.9043,42.2589],[13.9112,42.2633],[13.9253,42.2644],[13.9262,42.261],[13.9225,42.2531],[13.9179,42.2486],[13.9172,42.2442],[13.9259,42.2375],[13.9359,42.2378]]]}},{"type":"Feature","properties":{"i":"068010","n":"Catignano"},"geometry":{"type":"Polygon","coordinates":[[[13.9974,42.3671],[14.0068,42.3621],[14.0064,42.3586],[14.0021,42.3563],[13.9978,42.355],[13.9746,42.3396],[13.966,42.3311],[13.9649,42.3281],[13.949,42.3241],[13.9479,42.3294],[13.9421,42.3332],[13.9361,42.34],[13.9348,42.3444],[13.935,42.3461],[13.9377,42.3508],[13.9489,42.3588],[13.9485,42.3635],[13.9498,42.3681],[13.9907,42.3697],[13.9974,42.3671]]]}},{"type":"Feature","properties":{"i":"068011","n":"Cepagatti"},"geometry":{"type":"Polygon","coordinates":[[[14.1579,42.3968],[14.1576,42.3942],[14.1564,42.3931],[14.1361,42.3888],[14.1329,42.3863],[14.1297,42.3809],[14.1277,42.3685],[14.1191,42.364],[14.1172,42.3614],[14.1199,42.3583],[14.1255,42.3577],[14.1274,42.3525],[14.127,42.3487],[14.1216,42.3458],[14.1175,42.3397],[14.1199,42.3362],[14.1197,42.3349],[14.1139,42.3322],[14.1113,42.3317],[14.0936,42.3348],[14.0812,42.331],[14.0797,42.3322],[14.0798,42.3343],[14.0907,42.3426],[14.0933,42.3462],[14.0939,42.3488],[14.0803,42.3485],[14.0754,42.3498],[14.0726,42.3521],[14.0624,42.3502],[14.0601,42.3504],[14.0553,42.3559],[14.0569,42.372],[14.0626,42.3788],[14.0653,42.3805],[14.0702,42.381],[14.0827,42.3748],[14.0871,42.3745],[14.0972,42.3761],[14.1111,42.382],[14.1199,42.395],[14.1205,42.401],[14.1154,42.4055],[14.1175,42.4086],[14.124,42.4053],[14.1386,42.4056],[14.1444,42.408],[14.1493,42.4135],[14.155,42.4167],[14.1596,42.4171],[14.1591,42.4146],[14.156,42.4124],[14.1553,42.4081],[14.1579,42.3968]]]}},{"type":"Feature","properties":{"i":"068012","n":"Città Sant'Angelo"},"geometry":{"type":"Polygon","coordinates":[[[14.1463,42.5306],[14.1499,42.5246],[14.1203,42.5038],[14.1111,42.4961],[14.1082,42.4879],[14.1049,42.485],[14.1006,42.4846],[14.0941,42.4861],[14.0895,42.4831],[14.0613,42.4789],[14.0555,42.4808],[14.0518,42.4831],[14.0529,42.4798],[14.0519,42.4788],[14.0488,42.4783],[14.0428,42.4819],[14.0406,42.4876],[14.0353,42.4906],[14.034,42.4906],[14.0334,42.4885],[14.0343,42.4863],[14.0293,42.4844],[14.0207,42.4828],[14.0142,42.4841],[14.0128,42.4889],[14.0077,42.493],[14.0074,42.4972],[14.0047,42.5009],[13.9933,42.5086],[13.9904,42.5184],[13.9904,42.5201],[13.9918,42.5211],[13.9908,42.5316],[13.9913,42.5342],[13.996,42.5401],[13.9991,42.5407],[14.0315,42.5346],[14.0433,42.5347],[14.0573,42.5307],[14.0601,42.5321],[14.0616,42.5343],[14.0667,42.5445],[14.0739,42.5419],[14.0848,42.5435],[14.0884,42.5426],[14.0903,42.5408],[14.0914,42.5383],[14.0987,42.533],[14.1204,42.53],[14.1295,42.5271],[14.1408,42.5302],[14.1463,42.5306]]]}},{"type":"Feature","properties":{"i":"068013","n":"Civitaquana"},"geometry":{"type":"Polygon","coordinates":[[[13.9586,42.3685],[13.9498,42.3681],[13.9485,42.3635],[13.9489,42.3588],[13.9377,42.3508],[13.935,42.3461],[13.9348,42.3444],[13.9361,42.34],[13.9421,42.3332],[13.9479,42.3294],[13.949,42.3241],[13.9438,42.3244],[13.9382,42.3208],[13.9223,42.3143],[13.9024,42.3164],[13.8979,42.3126],[13.8976,42.3103],[13.8858,42.3078],[13.8749,42.3169],[13.8762,42.3238],[13.8872,42.3295],[13.9037,42.3343],[13.9157,42.3485],[13.9153,42.3548],[13.9161,42.3582],[13.919,42.3583],[13.9218,42.361],[13.9318,42.3769],[13.9345,42.3784],[13.9415,42.3794],[13.9589,42.3784],[13.9607,42.3776],[13.9605,42.3763],[13.955,42.373],[13.9586,42.3685]]]}},{"type":"Feature","properties":{"i":"068014","n":"Civitella Casanova"},"geometry":{"type":"Polygon","coordinates":[[[13.9236,42.4039],[13.9237,42.4021],[13.9087,42.3838],[13.9113,42.3806],[13.9228,42.378],[13.9318,42.3769],[13.9218,42.361],[13.919,42.3583],[13.9102,42.3591],[13.8954,42.3563],[13.8768,42.3549],[13.8744,42.3544],[13.8739,42.3535],[13.8698,42.3544],[13.8586,42.3544],[13.8418,42.3577],[13.8378,42.36],[13.8357,42.3639],[13.835,42.3736],[13.8296,42.3733],[13.8294,42.3652],[13.8208,42.3617],[13.8128,42.3683],[13.8248,42.3802],[13.8403,42.3823],[13.8482,42.3761],[13.8521,42.371],[13.8522,42.3667],[13.8563,42.3623],[13.8642,42.3646],[13.8636,42.3659],[13.8672,42.3711],[13.8751,42.3741],[13.8793,42.3741],[13.8806,42.3754],[13.8773,42.3838],[13.8739,42.3876],[13.8689,42.3906],[13.8602,42.3935],[13.8547,42.3988],[13.8615,42.4028],[13.8641,42.4023],[13.8749,42.403],[13.9032,42.4105],[13.9089,42.4128],[13.9171,42.4111],[13.9208,42.4074],[13.9202,42.4062],[13.9236,42.4039]]]}},{"type":"Feature","properties":{"i":"068015","n":"Collecorvino"},"geometry":{"type":"Polygon","coordinates":[[[14.0976,42.4854],[14.0953,42.4816],[14.0946,42.4785],[14.0952,42.4744],[14.0828,42.4601],[14.0654,42.4547],[14.0638,42.4482],[14.061,42.4438],[14.0405,42.4337],[14.0343,42.4318],[14.0247,42.4398],[14.0133,42.4459],[14.0068,42.448],[13.9972,42.4564],[13.9924,42.4619],[13.9929,42.4634],[13.9991,42.4677],[14.0033,42.4718],[14.0,42.4835],[14.0008,42.4888],[14.0077,42.493],[14.0128,42.4889],[14.0142,42.4841],[14.0207,42.4828],[14.0293,42.4844],[14.0343,42.4863],[14.0334,42.4885],[14.034,42.4906],[14.0353,42.4906],[14.0406,42.4876],[14.0428,42.4819],[14.0493,42.4782],[14.0519,42.4788],[14.0531,42.4803],[14.0518,42.4831],[14.0555,42.4808],[14.0613,42.4789],[14.0895,42.4831],[14.0941,42.4861],[14.0976,42.4854]]]}},{"type":"Feature","properties":{"i":"068016","n":"Corvara"},"geometry":{"type":"Polygon","coordinates":[[[13.8979,42.2651],[13.8676,42.2631],[13.8564,42.2632],[13.8424,42.2565],[13.8423,42.2614],[13.8406,42.2683],[13.8443,42.2811],[13.8494,42.284],[13.8533,42.2879],[13.8829,42.2958],[13.8824,42.2906],[13.8953,42.2892],[13.9032,42.2873],[13.8973,42.2807],[13.896,42.2769],[13.895,42.2717],[13.8979,42.2651]]]}},{"type":"Feature","properties":{"i":"068017","n":"Cugnoli"},"geometry":{"type":"Polygon","coordinates":[[[13.9915,42.3193],[13.9925,42.3184],[13.9926,42.3166],[13.9765,42.3138],[13.9644,42.3105],[13.9623,42.3072],[13.9457,42.2971],[13.9422,42.2927],[13.9424,42.2884],[13.9397,42.2896],[13.9102,42.2931],[13.9085,42.2939],[13.9079,42.2979],[13.9051,42.3026],[13.8975,42.3109],[13.8988,42.3139],[13.9024,42.3164],[13.9223,42.3143],[13.9382,42.3208],[13.9438,42.3244],[13.949,42.3241],[13.9649,42.3281],[13.9655,42.3252],[13.9736,42.3228],[13.9915,42.3193]]]}},{"type":"Feature","properties":{"i":"068018","n":"Elice"},"geometry":{"type":"Polygon","coordinates":[[[13.996,42.5401],[13.9913,42.5342],[13.9908,42.5316],[13.9918,42.5211],[13.9904,42.5201],[13.9906,42.5177],[13.9933,42.5086],[14.0047,42.5009],[14.0074,42.4972],[14.0077,42.493],[14.0008,42.4888],[13.9863,42.4912],[13.9804,42.4927],[13.9776,42.4956],[13.9784,42.4997],[13.9774,42.5025],[13.9602,42.506],[13.9579,42.5054],[13.9589,42.5101],[13.9542,42.5186],[13.9519,42.5293],[13.9557,42.5343],[13.9666,42.5324],[13.9733,42.5328],[13.99,42.5419],[13.996,42.5401]]]}},{"type":"Feature","properties":{"i":"068019","n":"Farindola"},"geometry":{"type":"Polygon","coordinates":[[[13.8633,42.4357],[13.8618,42.4339],[13.8597,42.4332],[13.8575,42.4336],[13.8566,42.4345],[13.8521,42.4346],[13.8344,42.4294],[13.824,42.4183],[13.8209,42.4145],[13.8225,42.408],[13.8239,42.4078],[13.8231,42.3995],[13.8203,42.3965],[13.8149,42.3873],[13.8145,42.3849],[13.8154,42.3794],[13.8149,42.3771],[13.8093,42.3725],[13.8095,42.3755],[13.8086,42.3787],[13.7971,42.3849],[13.7868,42.3939],[13.7798,42.4038],[13.7798,42.4091],[13.7764,42.4139],[13.7708,42.418],[13.7653,42.4201],[13.7674,42.4249],[13.7676,42.4279],[13.7697,42.4334],[13.7726,42.4385],[13.79,42.4517],[13.7926,42.4553],[13.7976,42.456],[13.8071,42.4653],[13.8159,42.4715],[13.8377,42.4731],[13.845,42.4715],[13.8483,42.4678],[13.8491,42.4637],[13.8643,42.4568],[13.8716,42.4511],[13.8621,42.4468],[13.862,42.4437],[13.8645,42.4399],[13.8633,42.4357]]]}},{"type":"Feature","properties":{"i":"068020","n":"Lettomanoppello"},"geometry":{"type":"Polygon","coordinates":[[[14.0414,42.259],[14.0476,42.2526],[14.0486,42.2468],[14.0514,42.2391],[14.0567,42.2317],[14.0951,42.1967],[14.1008,42.1892],[14.0961,42.1859],[14.0865,42.196],[14.073,42.2008],[14.0598,42.2086],[14.0519,42.2093],[14.0423,42.2146],[14.0409,42.216],[14.0379,42.2252],[14.0313,42.2298],[14.0299,42.2397],[14.0249,42.2434],[14.0211,42.244],[14.0181,42.2457],[14.0118,42.2534],[14.0227,42.2543],[14.0333,42.2589],[14.0414,42.259]]]}},{"type":"Feature","properties":{"i":"068021","n":"Loreto Aprutino"},"geometry":{"type":"Polygon","coordinates":[[[13.9924,42.4619],[13.9972,42.4564],[14.0068,42.448],[14.0133,42.4459],[14.0247,42.4398],[14.0343,42.4318],[14.0322,42.4279],[14.029,42.4256],[14.0246,42.4207],[14.0219,42.4138],[14.0093,42.4077],[14.0045,42.4023],[14.0064,42.3927],[14.0026,42.3853],[13.9974,42.3671],[13.9907,42.3697],[13.9586,42.3685],[13.955,42.373],[13.9605,42.3763],[13.9607,42.3776],[13.9589,42.3784],[13.9415,42.3794],[13.9345,42.3784],[13.9318,42.3769],[13.9228,42.378],[13.9113,42.3806],[13.9087,42.3838],[13.9237,42.4021],[13.9236,42.4039],[13.9455,42.408],[13.9393,42.4106],[13.9362,42.4137],[13.9325,42.4216],[13.9327,42.4235],[13.9361,42.4284],[13.9436,42.4338],[13.9685,42.4484],[13.9776,42.4589],[13.9806,42.4602],[13.9859,42.4613],[13.99,42.4607],[13.9924,42.4619]]]}},{"type":"Feature","properties":{"i":"068022","n":"Manoppello"},"geometry":{"type":"Polygon","coordinates":[[[14.0846,42.3167],[14.0856,42.3125],[14.0952,42.3032],[14.1103,42.2967],[14.1122,42.2935],[14.1113,42.2914],[14.104,42.2861],[14.0852,42.2784],[14.0853,42.2712],[14.0829,42.2585],[14.081,42.2563],[14.0794,42.2559],[14.0771,42.2522],[14.0737,42.2393],[14.0738,42.23],[14.0769,42.2132],[14.0613,42.2269],[14.0567,42.2317],[14.0514,42.2391],[14.0486,42.2468],[14.0476,42.2526],[14.0414,42.259],[14.045,42.2675],[14.0441,42.2738],[14.0294,42.2774],[14.0233,42.2776],[14.0211,42.2807],[14.0204,42.2832],[14.025,42.2891],[14.0308,42.2911],[14.0341,42.2942],[14.0364,42.3],[14.0418,42.3085],[14.0472,42.3125],[14.0608,42.3186],[14.0668,42.3234],[14.0757,42.3251],[14.0762,42.3206],[14.0788,42.3173],[14.0846,42.3167]]]}},{"type":"Feature","properties":{"i":"068023","n":"Montebello di Bertona"},"geometry":{"type":"Polygon","coordinates":[[[13.9032,42.4105],[13.8749,42.403],[13.8641,42.4023],[13.8615,42.4028],[13.8547,42.3988],[13.8499,42.3998],[13.8375,42.3958],[13.8304,42.4002],[13.8239,42.4078],[13.8225,42.408],[13.8209,42.4145],[13.8344,42.4294],[13.8521,42.4346],[13.8566,42.4345],[13.8575,42.4336],[13.8597,42.4332],[13.8613,42.4336],[13.8633,42.4357],[13.8666,42.4374],[13.8754,42.4373],[13.8946,42.4364],[13.8963,42.4356],[13.8997,42.4313],[13.8961,42.4187],[13.8966,42.4159],[13.8995,42.4155],[13.9042,42.4122],[13.9032,42.4105]]]}},{"type":"Feature","properties":{"i":"068024","n":"Montesilvano"},"geometry":{"type":"Polygon","coordinates":[[[14.1862,42.494],[14.1699,42.4905],[14.1557,42.4853],[14.1539,42.4815],[14.1534,42.4783],[14.155,42.4748],[14.1555,42.4707],[14.1548,42.4685],[14.1485,42.4689],[14.1269,42.4647],[14.1233,42.4648],[14.1114,42.479],[14.1045,42.4823],[14.1,42.4829],[14.1006,42.4846],[14.1049,42.485],[14.1082,42.4879],[14.1111,42.4961],[14.1203,42.5038],[14.1484,42.5238],[14.1537,42.5259],[14.1862,42.494]]]}},{"type":"Feature","properties":{"i":"068025","n":"Moscufo"},"geometry":{"type":"Polygon","coordinates":[[[14.0943,42.4566],[14.0921,42.4531],[14.0916,42.4503],[14.0955,42.4478],[14.0992,42.4442],[14.0877,42.4369],[14.0946,42.4297],[14.0996,42.4292],[14.0973,42.4285],[14.0971,42.4251],[14.0941,42.4192],[14.0789,42.4165],[14.0711,42.4128],[14.0647,42.411],[14.0523,42.4098],[14.0418,42.4103],[14.0331,42.4132],[14.034,42.4165],[14.0293,42.4207],[14.0259,42.4222],[14.0322,42.4279],[14.0343,42.4318],[14.0405,42.4337],[14.061,42.4438],[14.0638,42.4482],[14.0654,42.4547],[14.0821,42.4596],[14.0853,42.4637],[14.0881,42.4625],[14.0943,42.4566]]]}},{"type":"Feature","properties":{"i":"068026","n":"Nocciano"},"geometry":{"type":"Polygon","coordinates":[[[14.025,42.358],[14.0233,42.3562],[14.0235,42.3547],[14.0312,42.3479],[14.0219,42.341],[14.0191,42.3407],[14.0143,42.3348],[14.0118,42.3288],[14.0049,42.3244],[13.9915,42.3193],[13.9736,42.3228],[13.9655,42.3252],[13.9649,42.3281],[13.966,42.3311],[13.9746,42.3396],[13.9978,42.355],[14.0021,42.3563],[14.0064,42.3586],[14.0068,42.3621],[14.025,42.358]]]}},{"type":"Feature","properties":{"i":"068027","n":"Penne"},"geometry":{"type":"Polygon","coordinates":[[[13.9579,42.5054],[13.9602,42.506],[13.9778,42.502],[13.9784,42.4997],[13.9768,42.494],[13.9706,42.4911],[13.9673,42.4885],[13.9665,42.4862],[13.9716,42.4792],[13.9746,42.467],[13.9794,42.4624],[13.9795,42.4598],[13.9776,42.4589],[13.9685,42.4484],[13.9436,42.4338],[13.9366,42.4289],[13.9342,42.426],[13.9325,42.4216],[13.9362,42.4137],[13.9393,42.4106],[13.9431,42.4095],[13.9451,42.4078],[13.9236,42.4039],[13.9202,42.4062],[13.9208,42.4074],[13.9171,42.4111],[13.9089,42.4128],[13.9032,42.4105],[13.9042,42.4122],[13.8995,42.4155],[13.8966,42.4159],[13.8961,42.4187],[13.8997,42.4313],[13.8963,42.4356],[13.894,42.4364],[13.8666,42.4374],[13.8633,42.4357],[13.8645,42.4399],[13.862,42.4437],[13.8621,42.4468],[13.8716,42.4511],[13.8643,42.4568],[13.8491,42.4637],[13.8483,42.4678],[13.845,42.4715],[13.8377,42.4731],[13.8159,42.4715],[13.8071,42.4653],[13.7976,42.456],[13.7926,42.4553],[13.792,42.4589],[13.7912,42.4595],[13.7913,42.4611],[13.7929,42.4634],[13.8059,42.4741],[13.8071,42.4835],[13.8106,42.4929],[13.8148,42.4918],[13.8193,42.4918],[13.8331,42.4938],[13.8378,42.4979],[13.8422,42.4962],[13.8446,42.4942],[13.8598,42.4879],[13.8841,42.4894],[13.8819,42.4942],[13.8811,42.504],[13.8846,42.5092],[13.893,42.5121],[13.8959,42.5118],[13.9108,42.5064],[13.9133,42.5063],[13.9189,42.5083],[13.9221,42.5137],[13.9271,42.5146],[13.9448,42.5076],[13.9502,42.506],[13.9579,42.5054]]]}},{"type":"Feature","properties":{"i":"068028","n":"Pescara"},"geometry":{"type":"Polygon","coordinates":[[[14.2543,42.4449],[14.2509,42.4431],[14.2441,42.4368],[14.2458,42.4274],[14.2434,42.4265],[14.2413,42.4268],[14.2318,42.4197],[14.2287,42.4155],[14.2213,42.4195],[14.2235,42.4243],[14.2239,42.4274],[14.223,42.4277],[14.2151,42.4277],[14.2085,42.4254],[14.1988,42.4289],[14.1962,42.4335],[14.1922,42.4338],[14.1843,42.4274],[14.1715,42.4366],[14.1821,42.4447],[14.1873,42.4473],[14.192,42.4584],[14.1828,42.462],[14.1601,42.4659],[14.1554,42.4679],[14.1548,42.4685],[14.1555,42.4707],[14.155,42.4748],[14.1534,42.4783],[14.1539,42.4815],[14.1557,42.4853],[14.1699,42.4905],[14.1862,42.494],[14.2082,42.4773],[14.2191,42.4705],[14.2242,42.4685],[14.2293,42.4689],[14.2282,42.4681],[14.2289,42.4664],[14.238,42.4572],[14.2543,42.4449]]]}},{"type":"Feature","properties":{"i":"068029","n":"Pescosansonesco"},"geometry":{"type":"Polygon","coordinates":[[[13.8591,42.2236],[13.8551,42.2241],[13.8502,42.2202],[13.8456,42.2221],[13.8431,42.2314],[13.8427,42.2376],[13.8438,42.2508],[13.8424,42.2565],[13.8564,42.2632],[13.8863,42.2642],[13.8979,42.2651],[13.9024,42.2662],[13.9084,42.2652],[13.9112,42.2633],[13.9043,42.2589],[13.9028,42.2551],[13.9046,42.2423],[13.9042,42.2408],[13.8973,42.2408],[13.8878,42.2368],[13.8696,42.2277],[13.8591,42.2236]]]}},{"type":"Feature","properties":{"i":"068030","n":"Pianella"},"geometry":{"type":"Polygon","coordinates":[[[14.1175,42.4086],[14.1154,42.4055],[14.1205,42.401],[14.1199,42.395],[14.1111,42.382],[14.0972,42.3761],[14.0916,42.3748],[14.0827,42.3748],[14.0702,42.381],[14.066,42.3807],[14.0626,42.3788],[14.0569,42.372],[14.0537,42.3731],[14.0519,42.3718],[14.0472,42.3648],[14.0435,42.3617],[14.025,42.358],[14.0068,42.3621],[13.9974,42.3671],[14.0026,42.3853],[14.0064,42.3927],[14.0045,42.4023],[14.0093,42.4077],[14.0219,42.4138],[14.0246,42.4207],[14.0259,42.4222],[14.0293,42.4207],[14.0324,42.4181],[14.034,42.4165],[14.0331,42.4132],[14.0367,42.4117],[14.0418,42.4103],[14.0603,42.4101],[14.0711,42.4128],[14.0789,42.4165],[14.0941,42.4192],[14.0971,42.4251],[14.0973,42.4285],[14.1012,42.4293],[14.1099,42.4265],[14.1134,42.4225],[14.1152,42.4182],[14.1147,42.4151],[14.1131,42.4131],[14.1124,42.4102],[14.1136,42.4092],[14.1175,42.4086]]]}},{"type":"Feature","properties":{"i":"068031","n":"Picciano"},"geometry":{"type":"Polygon","coordinates":[[[14.0008,42.4888],[14.0,42.4835],[14.0033,42.4718],[13.9991,42.4677],[13.9929,42.4634],[13.9924,42.4619],[13.9904,42.4608],[13.9872,42.4606],[13.9859,42.4613],[13.9795,42.4598],[13.9794,42.4624],[13.9746,42.467],[13.9716,42.4792],[13.9666,42.4858],[13.9673,42.4885],[13.9706,42.4911],[13.9768,42.494],[13.9776,42.4956],[13.9804,42.4927],[14.0008,42.4888]]]}},{"type":"Feature","properties":{"i":"068032","n":"Pietranico"},"geometry":{"type":"Polygon","coordinates":[[[13.9424,42.2884],[13.9442,42.2835],[13.9454,42.2734],[13.9434,42.2683],[13.9276,42.2646],[13.9112,42.2633],[13.9084,42.2652],[13.9024,42.2662],[13.8979,42.2651],[13.8954,42.2697],[13.8951,42.2721],[13.8973,42.2807],[13.9032,42.2873],[13.8953,42.2892],[13.8824,42.2906],[13.8822,42.2919],[13.8858,42.3078],[13.8976,42.3103],[13.9051,42.3026],[13.9079,42.2979],[13.9085,42.2939],[13.9102,42.2931],[13.9397,42.2896],[13.9424,42.2884]]]}},{"type":"Feature","properties":{"i":"068033","n":"Popoli"},"geometry":{"type":"Polygon","coordinates":[[[13.8989,42.1656],[13.8886,42.1624],[13.8742,42.161],[13.8714,42.1617],[13.8591,42.1594],[13.8552,42.1559],[13.8544,42.1493],[13.8527,42.146],[13.8455,42.1427],[13.8415,42.1437],[13.8349,42.1484],[13.8353,42.1448],[13.8312,42.1435],[13.8016,42.1492],[13.7892,42.1539],[13.7994,42.1682],[13.7978,42.1753],[13.7983,42.1857],[13.8005,42.1893],[13.8067,42.1923],[13.8092,42.192],[13.8108,42.1967],[13.8139,42.1981],[13.8164,42.198],[13.8199,42.1958],[13.8331,42.192],[13.8462,42.1924],[13.8648,42.1976],[13.8679,42.1916],[13.8786,42.1824],[13.8867,42.1804],[13.8934,42.1738],[13.8989,42.1656]]]}},{"type":"Feature","properties":{"i":"068034","n":"Roccamorice"},"geometry":{"type":"Polygon","coordinates":[[[14.0961,42.1859],[14.0958,42.1825],[14.0975,42.1801],[14.1042,42.1784],[14.1066,42.177],[14.1165,42.17],[14.1292,42.1588],[14.1186,42.1519],[14.1161,42.1551],[14.1025,42.1623],[14.0964,42.1638],[14.0933,42.1624],[14.0894,42.1639],[14.0852,42.1675],[14.0833,42.1712],[14.0692,42.1772],[14.0623,42.1791],[14.0456,42.1798],[14.0429,42.1793],[14.0303,42.1862],[14.0268,42.1897],[14.0225,42.1999],[14.0233,42.2112],[14.0258,42.2277],[14.0274,42.2291],[14.0323,42.2294],[14.0379,42.2252],[14.0409,42.216],[14.0423,42.2146],[14.0519,42.2093],[14.0598,42.2086],[14.073,42.2008],[14.0865,42.196],[14.0961,42.1859]]]}},{"type":"Feature","properties":{"i":"068035","n":"Rosciano"},"geometry":{"type":"Polygon","coordinates":[[[14.0822,42.3309],[14.0757,42.3251],[14.0668,42.3234],[14.0608,42.3186],[14.0472,42.3125],[14.0418,42.3085],[14.0364,42.3],[14.0351,42.2963],[14.029,42.3006],[14.0248,42.3054],[14.0023,42.3214],[14.0029,42.3237],[14.0118,42.3288],[14.0143,42.3348],[14.0191,42.3407],[14.0219,42.341],[14.0312,42.3479],[14.0235,42.3547],[14.0235,42.3566],[14.025,42.358],[14.0435,42.3617],[14.0472,42.3648],[14.0499,42.3696],[14.0537,42.3731],[14.0569,42.372],[14.0553,42.356],[14.0595,42.3506],[14.0624,42.3502],[14.0726,42.3521],[14.0754,42.3498],[14.0803,42.3485],[14.0939,42.3488],[14.0933,42.3462],[14.0907,42.3426],[14.0798,42.3343],[14.0797,42.3322],[14.0822,42.3309]]]}},{"type":"Feature","properties":{"i":"068036","n":"Salle"},"geometry":{"type":"Polygon","coordinates":[[[13.9592,42.1259],[13.944,42.1276],[13.933,42.1313],[13.9247,42.1365],[13.9115,42.1431],[13.9048,42.1484],[13.9058,42.1519],[13.9079,42.1542],[13.9077,42.1562],[13.9052,42.16],[13.9088,42.1615],[13.9142,42.1598],[13.9298,42.1685],[13.9389,42.1704],[13.9445,42.1727],[13.9612,42.1832],[13.9629,42.1825],[13.9665,42.1801],[13.9736,42.1708],[13.9749,42.1652],[13.9635,42.1388],[13.962,42.137],[13.9592,42.1259]]]}},{"type":"Feature","properties":{"i":"068037","n":"Sant'Eufemia a Maiella"},"geometry":{"type":"Polygon","coordinates":[[[14.0902,42.0987],[14.0886,42.0936],[14.0848,42.0918],[14.0832,42.0901],[14.0852,42.0867],[14.0817,42.0872],[14.0648,42.084],[14.0523,42.0831],[14.0447,42.0838],[14.0305,42.0829],[14.0091,42.0731],[14.0061,42.0731],[14.0001,42.0775],[13.9932,42.0904],[13.9862,42.0956],[13.9809,42.0983],[13.9766,42.1025],[13.9743,42.106],[13.9921,42.1098],[14.0114,42.1205],[14.0126,42.1217],[14.0127,42.1233],[14.0109,42.1328],[14.0158,42.1341],[14.0288,42.135],[14.0505,42.1344],[14.0588,42.1332],[14.0702,42.128],[14.0793,42.1143],[14.0838,42.1052],[14.0902,42.0987]]]}},{"type":"Feature","properties":{"i":"068038","n":"San Valentino in Abruzzo Citeriore"},"geometry":{"type":"Polygon","coordinates":[[[14.001,42.2296],[14.0027,42.2252],[13.9948,42.2223],[13.9946,42.2136],[13.9998,42.2081],[14.0042,42.2018],[14.0044,42.1966],[13.9966,42.1977],[13.9864,42.2047],[13.9838,42.2078],[13.9642,42.2131],[13.9629,42.2141],[13.9625,42.2157],[13.962,42.2265],[13.9694,42.2361],[13.9724,42.2417],[13.9695,42.2438],[13.9627,42.2459],[13.9578,42.2496],[13.9614,42.2574],[13.9638,42.2587],[13.9866,42.2585],[13.9962,42.2545],[13.9979,42.2493],[13.996,42.247],[13.9952,42.2414],[13.9985,42.2314],[14.001,42.2296]]]}},{"type":"Feature","properties":{"i":"068039","n":"Scafa"},"geometry":{"type":"Polygon","coordinates":[[[14.0097,42.2687],[14.0058,42.2617],[14.0048,42.2561],[14.0118,42.2534],[14.0181,42.2457],[14.0211,42.244],[14.0249,42.2434],[14.0293,42.2403],[14.0303,42.2387],[14.0236,42.2395],[14.0124,42.2369],[14.0036,42.2327],[14.001,42.2296],[13.9985,42.2314],[13.9952,42.2414],[13.996,42.247],[13.9979,42.2493],[13.9962,42.2545],[13.9866,42.2585],[13.9638,42.2587],[13.9614,42.2574],[13.9578,42.2496],[13.948,42.2531],[13.9474,42.2632],[13.9523,42.2627],[13.9597,42.2642],[13.9748,42.27],[13.9858,42.2702],[14.0097,42.2687]]]}},{"type":"Feature","properties":{"i":"068040","n":"Serramonacesca"},"geometry":{"type":"Polygon","coordinates":[[[14.1137,42.2744],[14.1147,42.2631],[14.1094,42.2607],[14.1057,42.2574],[14.1086,42.2445],[14.1114,42.2407],[14.1331,42.2243],[14.1281,42.2256],[14.1216,42.2245],[14.1173,42.222],[14.1159,42.2198],[14.1148,42.2145],[14.1116,42.2115],[14.1061,42.2091],[14.1039,42.2095],[14.0945,42.206],[14.0936,42.2009],[14.1059,42.1909],[14.1063,42.1883],[14.1008,42.1892],[14.0951,42.1967],[14.0769,42.2132],[14.0738,42.23],[14.0737,42.2393],[14.0771,42.2522],[14.0794,42.2559],[14.081,42.2563],[14.0829,42.2585],[14.0853,42.2712],[14.0852,42.2784],[14.0925,42.2783],[14.1063,42.2757],[14.1077,42.2745],[14.1137,42.2744]]]}},{"type":"Feature","properties":{"i":"068041","n":"Spoltore"},"geometry":{"type":"Polygon","coordinates":[[[14.1715,42.4366],[14.1645,42.4321],[14.1661,42.4299],[14.1685,42.4296],[14.1687,42.426],[14.1569,42.4168],[14.155,42.4167],[14.1493,42.4135],[14.1444,42.408],[14.1386,42.4056],[14.1255,42.4052],[14.1175,42.4086],[14.1127,42.4096],[14.113,42.4126],[14.1147,42.4151],[14.115,42.4199],[14.1099,42.4265],[14.1032,42.4289],[14.0946,42.4297],[14.0877,42.4369],[14.0992,42.4442],[14.0955,42.4478],[14.0916,42.4503],[14.0921,42.4531],[14.0943,42.4566],[14.1076,42.4586],[14.1153,42.4611],[14.1233,42.4648],[14.1269,42.4647],[14.1511,42.4691],[14.1548,42.4685],[14.1601,42.4659],[14.1828,42.462],[14.192,42.4584],[14.1873,42.4473],[14.1821,42.4447],[14.1715,42.4366]]]}},{"type":"Feature","properties":{"i":"068042","n":"Tocco da Casauria"},"geometry":{"type":"Polygon","coordinates":[[[13.9298,42.1685],[13.9142,42.1598],[13.9088,42.1615],[13.9052,42.16],[13.8989,42.1656],[13.8934,42.1738],[13.8867,42.1804],[13.8786,42.1824],[13.8679,42.1916],[13.8648,42.1976],[13.8771,42.1984],[13.8836,42.201],[13.891,42.2066],[13.8976,42.2131],[13.9043,42.2215],[13.905,42.2236],[13.9112,42.2274],[13.9242,42.2316],[13.9287,42.2325],[13.9324,42.2318],[13.9315,42.2302],[13.9322,42.2281],[13.9353,42.227],[13.939,42.227],[13.9405,42.2278],[13.9433,42.2249],[13.9435,42.2172],[13.9389,42.2078],[13.9358,42.2056],[13.9348,42.2011],[13.9354,42.1998],[13.9396,42.1983],[13.9427,42.1921],[13.9365,42.1854],[13.9321,42.173],[13.9298,42.1685]]]}},{"type":"Feature","properties":{"i":"068043","n":"Torre de' Passeri"},"geometry":{"type":"Polygon","coordinates":[[[13.9474,42.2632],[13.948,42.2531],[13.9461,42.2526],[13.9401,42.2404],[13.9359,42.2378],[13.9265,42.2373],[13.9175,42.2436],[13.9179,42.2486],[13.9225,42.2531],[13.9262,42.261],[13.9253,42.2644],[13.9434,42.2683],[13.9474,42.2632]]]}},{"type":"Feature","properties":{"i":"068044","n":"Turrivalignani"},"geometry":{"type":"Polygon","coordinates":[[[14.0414,42.259],[14.0333,42.2589],[14.0267,42.2556],[14.0191,42.2537],[14.0118,42.2534],[14.0052,42.2558],[14.0047,42.2565],[14.0058,42.2617],[14.0097,42.2687],[14.0221,42.2754],[14.0233,42.2776],[14.0253,42.278],[14.0441,42.2738],[14.045,42.2675],[14.0414,42.259]]]}},{"type":"Feature","properties":{"i":"068045","n":"Vicoli"},"geometry":{"type":"Polygon","coordinates":[[[13.9161,42.3582],[13.9153,42.3548],[13.9157,42.3485],[13.9034,42.334],[13.8872,42.3295],[13.8762,42.3238],[13.8692,42.3245],[13.8688,42.3317],[13.8729,42.3329],[13.8821,42.3395],[13.8726,42.3462],[13.8744,42.3544],[13.8954,42.3563],[13.9102,42.3591],[13.9161,42.3582]]]}},{"type":"Feature","properties":{"i":"068046","n":"Villa Celiera"},"geometry":{"type":"MultiPolygon","coordinates":[[[[13.8357,42.3639],[13.8294,42.3652],[13.8296,42.3733],[13.835,42.3736],[13.8357,42.3639]]],[[[13.8547,42.3988],[13.8602,42.3935],[13.8689,42.3906],[13.8739,42.3876],[13.8773,42.3838],[13.8806,42.3754],[13.8793,42.3741],[13.8751,42.3741],[13.8672,42.3711],[13.8636,42.3659],[13.8642,42.3646],[13.8563,42.3623],[13.8522,42.3667],[13.8521,42.371],[13.8482,42.3761],[13.8403,42.3823],[13.8248,42.3802],[13.8128,42.3683],[13.8093,42.3725],[13.8149,42.3771],[13.8154,42.3794],[13.8146,42.3866],[13.8169,42.3914],[13.8231,42.3995],[13.8239,42.4078],[13.8304,42.4002],[13.8375,42.3958],[13.8499,42.3998],[13.8547,42.3988]]]]}}]}
