{"type":"FeatureCollection","fonte":"Confini comunali ISTAT via openpolis/geojson-italy — CC BY 4.0","features":[{"type":"Feature","properties":{"i":"054001","n":"Assisi"},"geometry":{"type":"Polygon","coordinates":[[[12.6958,43.1537],[12.6929,43.147],[12.6896,43.145],[12.6901,43.1415],[12.6913,43.139],[12.7045,43.1271],[12.7077,43.1248],[12.7119,43.1254],[12.7126,43.1267],[12.7122,43.13],[12.7082,43.1304],[12.7067,43.1293],[12.7038,43.1337],[12.7045,43.1367],[12.7083,43.1429],[12.7201,43.1366],[12.7236,43.1331],[12.7269,43.1247],[12.7238,43.1161],[12.7197,43.1125],[12.7187,43.1062],[12.7191,43.103],[12.7137,43.0941],[12.7141,43.0897],[12.7169,43.0841],[12.7245,43.0832],[12.7263,43.0823],[12.7264,43.0816],[12.7202,43.075],[12.712,43.0712],[12.7119,43.0635],[12.7143,43.0584],[12.7119,43.0569],[12.6983,43.0525],[12.6902,43.0514],[12.6839,43.0481],[12.6829,43.047],[12.684,43.0438],[12.6805,43.0361],[12.675,43.0288],[12.6073,43.0119],[12.5957,43.0109],[12.5872,43.0117],[12.5612,43.0197],[12.5524,43.0214],[12.5543,43.0248],[12.5513,43.0298],[12.543,43.0327],[12.548,43.0384],[12.5437,43.0422],[12.5437,43.0459],[12.5565,43.0516],[12.5652,43.0592],[12.5711,43.0718],[12.5623,43.0798],[12.5546,43.0834],[12.5323,43.0849],[12.5105,43.0909],[12.5276,43.1244],[12.5338,43.135],[12.5418,43.143],[12.5535,43.1433],[12.5604,43.1423],[12.5862,43.1312],[12.5965,43.1283],[12.63,43.1388],[12.6347,43.1421],[12.6342,43.144],[12.6347,43.1466],[12.637,43.1514],[12.6625,43.1545],[12.6709,43.1579],[12.6793,43.1582],[12.6859,43.1555],[12.6958,43.1537]]]}},{"type":"Feature","properties":{"i":"054002","n":"Bastia Umbra"},"geometry":{"type":"Polygon","coordinates":[[[12.5105,43.0909],[12.5323,43.0849],[12.5546,43.0834],[12.5623,43.0798],[12.5711,43.0718],[12.5652,43.0592],[12.5565,43.0516],[12.5437,43.0459],[12.5437,43.0422],[12.548,43.0384],[12.5437,43.0328],[12.5413,43.0318],[12.5307,43.0341],[12.5217,43.0383],[12.499,43.0512],[12.4913,43.0532],[12.4967,43.0602],[12.4982,43.0678],[12.4974,43.0691],[12.4981,43.0703],[12.4978,43.0724],[12.491,43.0814],[12.4932,43.0893],[12.5002,43.0882],[12.5105,43.0909]]]}},{"type":"Feature","properties":{"i":"054003","n":"Bettona"},"geometry":{"type":"Polygon","coordinates":[[[12.543,43.0327],[12.5513,43.0298],[12.5543,43.0248],[12.5524,43.0214],[12.5488,43.02],[12.5503,43.017],[12.5476,43.0108],[12.5447,43.0083],[12.5405,43.0086],[12.5318,43.0071],[12.5249,43.0032],[12.5114,42.9925],[12.4974,42.9874],[12.4942,42.9778],[12.4995,42.972],[12.4932,42.9645],[12.4901,42.9635],[12.478,42.946],[12.473,42.9458],[12.4686,42.9479],[12.4649,42.954],[12.4659,42.9611],[12.468,42.9664],[12.4771,42.9745],[12.471,42.9776],[12.4675,42.9785],[12.461,42.984],[12.4556,42.9987],[12.4577,43.0029],[12.4644,43.0052],[12.468,43.0114],[12.4684,43.0158],[12.4669,43.0317],[12.4656,43.0347],[12.4651,43.0413],[12.4706,43.0416],[12.4866,43.0452],[12.4876,43.0483],[12.4913,43.0532],[12.499,43.0512],[12.5217,43.0383],[12.5307,43.0341],[12.5413,43.0318],[12.543,43.0327]]]}},{"type":"Feature","properties":{"i":"054004","n":"Bevagna"},"geometry":{"type":"Polygon","coordinates":[[[12.6064,42.9808],[12.6101,42.9712],[12.6097,42.9698],[12.6126,42.9605],[12.6147,42.9575],[12.6233,42.9516],[12.6306,42.9432],[12.6338,42.9389],[12.6347,42.932],[12.6396,42.928],[12.6256,42.9176],[12.6143,42.9064],[12.6109,42.9051],[12.6016,42.9081],[12.5841,42.8997],[12.5771,42.9033],[12.5704,42.9103],[12.5731,42.9136],[12.5737,42.916],[12.5727,42.9237],[12.5701,42.9327],[12.555,42.9296],[12.5234,42.9135],[12.5221,42.9137],[12.5249,42.9197],[12.5335,42.9306],[12.5227,42.9423],[12.5178,42.9465],[12.5227,42.947],[12.5243,42.9481],[12.5293,42.9578],[12.5333,42.9627],[12.5348,42.9731],[12.5373,42.9757],[12.5588,42.991],[12.5689,42.9799],[12.5705,42.9766],[12.5859,42.9785],[12.5878,42.9795],[12.6002,42.9813],[12.6064,42.9808]]]}},{"type":"Feature","properties":{"i":"054005","n":"Campello sul Clitunno"},"geometry":{"type":"Polygon","coordinates":[[[12.8259,42.8782],[12.8301,42.8754],[12.8412,42.8725],[12.8528,42.8681],[12.8594,42.8671],[12.87,42.874],[12.8818,42.8663],[12.8862,42.8623],[12.8894,42.8579],[12.8852,42.8515],[12.8725,42.8432],[12.8699,42.8432],[12.8593,42.8463],[12.8537,42.8487],[12.8495,42.8472],[12.851,42.8435],[12.8541,42.8406],[12.8584,42.8332],[12.8628,42.8212],[12.8601,42.8206],[12.8548,42.8156],[12.8493,42.8118],[12.8416,42.809],[12.8388,42.8088],[12.822,42.8231],[12.8189,42.8283],[12.8175,42.8323],[12.8169,42.8374],[12.8109,42.838],[12.808,42.8306],[12.7994,42.8187],[12.7949,42.8161],[12.774,42.8125],[12.7698,42.8132],[12.7579,42.8179],[12.7571,42.8225],[12.7601,42.827],[12.7596,42.8299],[12.7551,42.8334],[12.748,42.834],[12.7476,42.8357],[12.7537,42.8425],[12.7581,42.845],[12.7765,42.8506],[12.785,42.85],[12.791,42.8516],[12.7934,42.8537],[12.8001,42.8639],[12.7998,42.8662],[12.7932,42.8732],[12.793,42.875],[12.7965,42.8785],[12.8054,42.8834],[12.8259,42.8782]]]}},{"type":"Feature","properties":{"i":"054006","n":"Cannara"},"geometry":{"type":"Polygon","coordinates":[[[12.5923,43.0108],[12.5916,43.0102],[12.5987,43.0017],[12.6064,42.9808],[12.6002,42.9813],[12.5878,42.9795],[12.5859,42.9785],[12.5705,42.9766],[12.5689,42.9799],[12.5585,42.9909],[12.5373,42.9757],[12.5348,42.9731],[12.5333,42.9627],[12.5293,42.9578],[12.5243,42.9481],[12.5227,42.947],[12.5185,42.9464],[12.5167,42.9471],[12.5074,42.9562],[12.5063,42.9601],[12.5067,42.9672],[12.506,42.9692],[12.5024,42.9716],[12.4995,42.972],[12.4942,42.9778],[12.4974,42.9874],[12.5114,42.9925],[12.5249,43.0032],[12.5318,43.0071],[12.5359,43.0081],[12.5451,43.0085],[12.5479,43.0114],[12.5503,43.017],[12.5488,43.02],[12.5524,43.0214],[12.5612,43.0197],[12.5768,43.0144],[12.5923,43.0108]]]}},{"type":"Feature","properties":{"i":"054007","n":"Cascia"},"geometry":{"type":"Polygon","coordinates":[[[13.1585,42.6543],[13.1546,42.651],[13.1466,42.647],[13.1399,42.6505],[13.1311,42.6581],[13.1262,42.6586],[13.1182,42.6577],[13.1162,42.6565],[13.1168,42.6534],[13.1134,42.6472],[13.109,42.6419],[13.0988,42.6367],[13.0879,42.6346],[13.0786,42.6312],[13.0713,42.6266],[13.062,42.6231],[13.0573,42.623],[13.0379,42.6274],[13.0326,42.633],[13.0307,42.6374],[13.0275,42.639],[13.0234,42.6388],[13.0192,42.6349],[13.009,42.6373],[13.0025,42.6404],[13.0019,42.6423],[13.0042,42.6428],[13.0046,42.6448],[13.0036,42.6505],[12.999,42.6564],[12.9925,42.6625],[12.9792,42.6684],[12.9711,42.6743],[12.9636,42.6756],[12.9572,42.6781],[12.956,42.68],[12.9543,42.6906],[12.9498,42.6957],[12.9461,42.7015],[12.9459,42.7029],[12.9479,42.7061],[12.9534,42.72],[12.9593,42.7418],[12.9584,42.7477],[12.9547,42.748],[12.9491,42.7532],[12.9483,42.7597],[12.9555,42.7627],[12.9648,42.763],[12.9633,42.7711],[12.9635,42.7771],[12.965,42.7823],[12.9666,42.7847],[12.9883,42.7831],[12.9982,42.7767],[13.0057,42.7749],[13.0119,42.7665],[13.0334,42.749],[13.042,42.7527],[13.0443,42.7599],[13.0429,42.7647],[13.044,42.7719],[13.0484,42.7725],[13.0688,42.7624],[13.0709,42.7613],[13.0769,42.755],[13.0789,42.7512],[13.0785,42.7453],[13.0771,42.7436],[13.0742,42.7427],[13.0739,42.7369],[13.0751,42.731],[13.0807,42.7262],[13.0911,42.7222],[13.1007,42.7195],[13.1037,42.7203],[13.1133,42.7179],[13.1196,42.7054],[13.1264,42.6972],[13.1341,42.6902],[13.1414,42.6805],[13.1481,42.6733],[13.1517,42.671],[13.1604,42.6625],[13.1619,42.6599],[13.1576,42.656],[13.1585,42.6543]]]}},{"type":"Feature","properties":{"i":"054008","n":"Castel Ritaldi"},"geometry":{"type":"Polygon","coordinates":[[[12.6219,42.8467],[12.6335,42.8417],[12.6495,42.8446],[12.6577,42.8445],[12.6589,42.8441],[12.6606,42.8414],[12.6825,42.8344],[12.6928,42.8374],[12.6946,42.8389],[12.6952,42.8408],[12.7089,42.8435],[12.7163,42.8385],[12.7169,42.837],[12.7157,42.836],[12.7126,42.8295],[12.7011,42.8206],[12.6932,42.8173],[12.6774,42.8077],[12.6749,42.8074],[12.6489,42.811],[12.6468,42.8136],[12.646,42.8162],[12.647,42.8171],[12.6457,42.8187],[12.6388,42.8184],[12.6249,42.8132],[12.6212,42.8145],[12.6156,42.8209],[12.6179,42.8246],[12.6202,42.834],[12.619,42.8362],[12.6184,42.8395],[12.6219,42.8467]]]}},{"type":"Feature","properties":{"i":"054009","n":"Castiglione del Lago"},"geometry":{"type":"Polygon","coordinates":[[[12.0812,43.1452],[12.0883,43.1429],[12.1483,43.1171],[12.1056,43.086],[12.1032,43.0836],[12.0951,43.0699],[12.0965,43.0563],[12.0926,43.0492],[12.0836,43.0501],[12.0621,43.0505],[12.036,43.0398],[12.0231,43.0237],[12.0185,43.0206],[12.0129,43.0204],[12.0108,43.023],[12.009,43.0237],[11.9981,43.0231],[11.9758,43.015],[11.9682,43.0155],[11.972,43.022],[11.9724,43.0353],[11.9757,43.0418],[11.9799,43.0446],[11.9822,43.0489],[11.9824,43.0509],[11.9806,43.0568],[11.9725,43.064],[11.9645,43.0671],[11.9566,43.0687],[11.9504,43.0644],[11.9511,43.0606],[11.9482,43.0557],[11.9408,43.053],[11.9361,43.0559],[11.9325,43.0669],[11.9254,43.0746],[11.9238,43.0752],[11.9231,43.08],[11.9281,43.0867],[11.9301,43.0881],[11.9312,43.0909],[11.9309,43.0924],[11.9219,43.1105],[11.919,43.1201],[11.9133,43.1277],[11.9204,43.1317],[11.9218,43.1348],[11.9223,43.1414],[11.924,43.1478],[11.9287,43.1526],[11.9403,43.1591],[11.9612,43.1669],[11.9702,43.1692],[11.9789,43.1761],[11.9878,43.1808],[12.0064,43.1805],[12.0186,43.1841],[12.0198,43.1852],[12.0239,43.1809],[12.0812,43.1452]]]}},{"type":"Feature","properties":{"i":"054010","n":"Cerreto di Spoleto"},"geometry":{"type":"Polygon","coordinates":[[[12.9755,42.8724],[12.9762,42.8698],[12.9689,42.8677],[12.9627,42.8648],[12.9609,42.8629],[12.9596,42.858],[12.9604,42.8464],[12.962,42.8464],[12.9693,42.8518],[12.9689,42.85],[12.967,42.8451],[12.9638,42.8427],[12.9565,42.834],[12.9511,42.826],[12.9493,42.8171],[12.9536,42.8014],[12.9577,42.7912],[12.9602,42.7904],[12.9652,42.7906],[12.9678,42.787],[12.965,42.7823],[12.9635,42.7771],[12.9633,42.7711],[12.9648,42.763],[12.9555,42.7627],[12.9483,42.7597],[12.9491,42.7532],[12.9547,42.748],[12.948,42.748],[12.9386,42.7454],[12.9372,42.7468],[12.9326,42.7604],[12.9267,42.7676],[12.9232,42.7748],[12.9206,42.7765],[12.9102,42.7686],[12.9043,42.7582],[12.8928,42.7639],[12.886,42.766],[12.8841,42.7766],[12.8856,42.7785],[12.8901,42.7781],[12.8889,42.7875],[12.8921,42.8043],[12.8907,42.8097],[12.883,42.8153],[12.8691,42.8178],[12.8628,42.8212],[12.8584,42.8332],[12.8541,42.8406],[12.851,42.8435],[12.8495,42.8472],[12.8537,42.8487],[12.8593,42.8463],[12.8699,42.8432],[12.8725,42.8432],[12.8852,42.8515],[12.8865,42.8505],[12.8877,42.8509],[12.89,42.8564],[12.8979,42.8593],[12.9079,42.8606],[12.9143,42.8584],[12.9205,42.8584],[12.9377,42.8695],[12.9425,42.8746],[12.9509,42.8719],[12.9755,42.8724]]]}},{"type":"Feature","properties":{"i":"054011","n":"Citerna"},"geometry":{"type":"Polygon","coordinates":[[[12.1532,43.5287],[12.153,43.5245],[12.1613,43.5087],[12.1651,43.5057],[12.1648,43.5034],[12.1564,43.4943],[12.1448,43.4879],[12.1437,43.4836],[12.1443,43.4798],[12.1412,43.4819],[12.1289,43.4861],[12.1083,43.4957],[12.1011,43.498],[12.0959,43.4987],[12.0925,43.5011],[12.0912,43.503],[12.0909,43.5112],[12.0915,43.5129],[12.0953,43.5218],[12.1027,43.5299],[12.1071,43.5298],[12.1431,43.5341],[12.1472,43.5308],[12.1532,43.5287]]]}},{"type":"Feature","properties":{"i":"054012","n":"Città della Pieve"},"geometry":{"type":"Polygon","coordinates":[[[12.061,43.0038],[12.0631,43.0007],[12.0597,42.9918],[12.0566,42.9807],[12.0534,42.9762],[12.0554,42.9683],[12.0584,42.962],[12.0594,42.9556],[12.0519,42.9467],[12.0498,42.9359],[12.0451,42.9337],[12.0383,42.9322],[12.0321,42.9283],[12.0276,42.9241],[12.022,42.9151],[12.0154,42.9089],[12.01,42.9104],[12.0047,42.9073],[12.0075,42.9026],[12.0139,42.8979],[12.0098,42.8924],[12.0191,42.8861],[12.0301,42.8813],[12.0149,42.88],[11.9881,42.871],[11.9743,42.8686],[11.9584,42.8635],[11.9506,42.8638],[11.9429,42.8623],[11.9386,42.8623],[11.9356,42.8637],[11.9334,42.8677],[11.9337,42.8697],[11.9446,42.8716],[11.9518,42.87],[11.959,42.8706],[11.9586,42.8743],[11.9663,42.8834],[11.9747,42.8898],[11.9832,42.8911],[11.9854,42.8926],[11.989,42.8964],[11.9984,42.9093],[11.9667,42.9121],[11.9581,42.9162],[11.9521,42.9032],[11.9521,42.901],[11.9367,42.9035],[11.9335,42.9054],[11.9329,42.9076],[11.9372,42.9213],[11.9391,42.9325],[11.9521,42.9497],[11.9529,42.9547],[11.9485,42.9626],[11.9485,42.9673],[11.9495,42.9699],[11.9506,42.9706],[11.9495,42.9765],[11.9543,42.9787],[11.962,43.0012],[11.9682,43.0155],[11.9758,43.015],[11.9981,43.0231],[12.0097,43.0236],[12.0129,43.0204],[12.0185,43.0206],[12.0231,43.0237],[12.0284,43.0222],[12.0445,43.0076],[12.061,43.0038]]]}},{"type":"Feature","properties":{"i":"054013","n":"Città di Castello"},"geometry":{"type":"MultiPolygon","coordinates":[[[[12.4306,43.6064],[12.4313,43.6035],[12.4342,43.6],[12.4334,43.5927],[12.4312,43.5914],[12.4246,43.5925],[12.4146,43.5991],[12.4078,43.6021],[12.4132,43.6039],[12.4176,43.6086],[12.4235,43.6101],[12.4306,43.6064]]],[[[12.3713,43.6112],[12.3675,43.6087],[12.3627,43.6027],[12.3617,43.5999],[12.3618,43.5952],[12.3708,43.5865],[12.3669,43.5772],[12.3463,43.5561],[12.3408,43.5527],[12.3198,43.5532],[12.315,43.5489],[12.3128,43.5434],[12.3171,43.5399],[12.325,43.5318],[12.3267,43.5292],[12.3309,43.5255],[12.3332,43.5236],[12.3366,43.5229],[12.3458,43.5211],[12.3497,43.5218],[12.3588,43.5291],[12.3649,43.5326],[12.37,43.5316],[12.3801,43.5257],[12.3864,43.5204],[12.3834,43.5163],[12.3851,43.5123],[12.3881,43.5098],[12.3948,43.5088],[12.4002,43.5098],[12.4136,43.5048],[12.4154,43.502],[12.4178,43.4932],[12.4174,43.4873],[12.4158,43.4856],[12.4135,43.4847],[12.4078,43.4896],[12.405,43.4936],[12.3964,43.4938],[12.3862,43.4902],[12.3714,43.4874],[12.3661,43.4846],[12.3518,43.4834],[12.3475,43.4837],[12.3421,43.4815],[12.3357,43.4769],[12.3331,43.4707],[12.3326,43.4673],[12.3401,43.4637],[12.344,43.4626],[12.3595,43.4625],[12.3657,43.4645],[12.3698,43.4669],[12.3771,43.4647],[12.3797,43.4601],[12.3753,43.4563],[12.3703,43.4542],[12.352,43.4425],[12.3506,43.4395],[12.3524,43.4339],[12.347,43.4251],[12.3381,43.4174],[12.3351,43.4156],[12.3283,43.4163],[12.3234,43.4181],[12.3201,43.4176],[12.3232,43.4066],[12.3358,43.4016],[12.3353,43.3981],[12.3384,43.3944],[12.3233,43.3793],[12.3186,43.3792],[12.3134,43.3813],[12.3091,43.3811],[12.3037,43.37],[12.2905,43.3504],[12.2749,43.3522],[12.2711,43.355],[12.258,43.355],[12.2371,43.3611],[12.2274,43.358],[12.2222,43.3506],[12.2193,43.3449],[12.2186,43.3411],[12.2081,43.3351],[12.1908,43.323],[12.1927,43.3145],[12.1938,43.3131],[12.1832,43.3008],[12.168,43.3023],[12.1748,43.2844],[12.177,43.2818],[12.174,43.2814],[12.1663,43.2825],[12.1454,43.2883],[12.1325,43.2931],[12.1269,43.304],[12.1268,43.3082],[12.1313,43.3121],[12.1343,43.3162],[12.1368,43.3272],[12.1354,43.3407],[12.134,43.3446],[12.1286,43.3534],[12.1212,43.3619],[12.1188,43.3644],[12.1096,43.3698],[12.1011,43.3726],[12.0964,43.3687],[12.089,43.3662],[12.081,43.3655],[12.0774,43.3656],[12.0737,43.3686],[12.073,43.3704],[12.0728,43.3813],[12.0733,43.3894],[12.0778,43.3983],[12.0773,43.4021],[12.0738,43.4038],[12.0736,43.408],[12.0742,43.4097],[12.0945,43.4114],[12.1256,43.4053],[12.1293,43.4026],[12.1363,43.4013],[12.1438,43.4024],[12.1522,43.409],[12.1646,43.4104],[12.1699,43.4098],[12.1721,43.4086],[12.1802,43.3996],[12.1857,43.397],[12.1898,43.3967],[12.1984,43.393],[12.1959,43.3896],[12.1967,43.387],[12.2051,43.3811],[12.2054,43.3866],[12.2045,43.3901],[12.2061,43.4022],[12.2081,43.4105],[12.2082,43.4211],[12.2023,43.4424],[12.1985,43.4474],[12.1891,43.4563],[12.1781,43.4624],[12.171,43.4571],[12.1577,43.4516],[12.1407,43.4515],[12.1365,43.4529],[12.136,43.4544],[12.1388,43.4588],[12.1484,43.4681],[12.1526,43.4698],[12.1501,43.4765],[12.1443,43.4798],[12.1437,43.4836],[12.1448,43.4879],[12.1564,43.4943],[12.1648,43.5034],[12.1651,43.5057],[12.1613,43.5087],[12.153,43.5245],[12.1534,43.529],[12.1556,43.5276],[12.1596,43.5228],[12.1749,43.5019],[12.1888,43.5037],[12.1937,43.5026],[12.2001,43.5058],[12.2007,43.5068],[12.1983,43.5075],[12.1993,43.5099],[12.2051,43.5127],[12.2092,43.512],[12.2159,43.5085],[12.2214,43.5084],[12.2292,43.5119],[12.231,43.5135],[12.2248,43.5197],[12.221,43.5221],[12.2242,43.5275],[12.2294,43.553],[12.2303,43.5543],[12.2329,43.556],[12.2356,43.5563],[12.2446,43.5488],[12.2441,43.5462],[12.2489,43.5417],[12.262,43.5392],[12.2715,43.5413],[12.2786,43.5442],[12.2864,43.5501],[12.2888,43.553],[12.3082,43.5671],[12.3083,43.5775],[12.3101,43.5805],[12.311,43.5841],[12.3088,43.5904],[12.3075,43.5918],[12.3109,43.5971],[12.3111,43.5992],[12.3267,43.6033],[12.3322,43.6071],[12.3344,43.6099],[12.3451,43.6079],[12.3513,43.6081],[12.3522,43.6094],[12.3507,43.6122],[12.3547,43.6173],[12.3571,43.6172],[12.3713,43.6112]]]]}},{"type":"Feature","properties":{"i":"054014","n":"Collazzone"},"geometry":{"type":"MultiPolygon","coordinates":[[[[12.3835,42.8833],[12.377,42.8827],[12.3702,42.8842],[12.3684,42.8851],[12.3676,42.8874],[12.3691,42.8887],[12.3735,42.8901],[12.3794,42.8902],[12.382,42.8881],[12.3835,42.8833]]],[[[12.4648,42.9548],[12.4686,42.9479],[12.473,42.9458],[12.478,42.946],[12.4771,42.9311],[12.4743,42.9182],[12.4715,42.9175],[12.4574,42.9181],[12.4527,42.9187],[12.45,42.9203],[12.4488,42.9141],[12.4552,42.9076],[12.4614,42.8966],[12.4614,42.8899],[12.4429,42.8679],[12.4405,42.8629],[12.4385,42.8615],[12.4329,42.8598],[12.4308,42.8601],[12.416,42.8695],[12.4175,42.875],[12.4242,42.877],[12.4265,42.8811],[12.4244,42.8828],[12.4193,42.8852],[12.397,42.8828],[12.3916,42.8845],[12.3925,42.8873],[12.3879,42.8927],[12.3781,42.8949],[12.3749,42.8967],[12.3817,42.9001],[12.3849,42.9035],[12.3758,42.9103],[12.37,42.9217],[12.3708,42.9291],[12.3789,42.9318],[12.3849,42.9325],[12.3861,42.9316],[12.3935,42.9305],[12.3966,42.9342],[12.4082,42.9315],[12.4139,42.9321],[12.4207,42.9409],[12.4199,42.9469],[12.4176,42.9514],[12.4169,42.9515],[12.4176,42.9552],[12.4185,42.9569],[12.4256,42.9616],[12.438,42.9618],[12.441,42.9604],[12.4525,42.958],[12.4616,42.957],[12.4648,42.9548]]]]}},{"type":"Feature","properties":{"i":"054015","n":"Corciano"},"geometry":{"type":"Polygon","coordinates":[[[12.2982,43.195],[12.3003,43.1934],[12.3017,43.1867],[12.2994,43.1803],[12.2976,43.1797],[12.2975,43.177],[12.3013,43.1717],[12.3077,43.1672],[12.3121,43.1697],[12.3119,43.1724],[12.3128,43.173],[12.318,43.1721],[12.3251,43.1672],[12.3396,43.1538],[12.3363,43.1433],[12.3316,43.1377],[12.3189,43.1333],[12.312,43.1268],[12.3104,43.1234],[12.3147,43.1093],[12.3185,43.1052],[12.3189,43.0997],[12.3143,43.088],[12.3164,43.0842],[12.3218,43.0775],[12.3184,43.0751],[12.3166,43.0715],[12.3148,43.0702],[12.2865,43.0581],[12.2819,43.0592],[12.2819,43.0604],[12.2843,43.0687],[12.2893,43.0725],[12.2893,43.0757],[12.2653,43.0745],[12.263,43.0775],[12.2629,43.0795],[12.2638,43.0858],[12.2674,43.0953],[12.2537,43.1056],[12.2487,43.1067],[12.248,43.1081],[12.2478,43.1147],[12.2494,43.1197],[12.2484,43.1233],[12.2433,43.1252],[12.2463,43.1284],[12.2544,43.1335],[12.2686,43.1415],[12.2752,43.1435],[12.2775,43.1451],[12.275,43.1504],[12.2627,43.1608],[12.2572,43.1729],[12.2664,43.1836],[12.2684,43.1869],[12.2698,43.1951],[12.2706,43.1963],[12.2741,43.1959],[12.2874,43.19],[12.2902,43.1902],[12.2982,43.195]]]}},{"type":"Feature","properties":{"i":"054016","n":"Costacciaro"},"geometry":{"type":"Polygon","coordinates":[[[12.7468,43.3905],[12.75,43.3866],[12.7496,43.3809],[12.7583,43.3725],[12.7593,43.3672],[12.7586,43.3656],[12.7593,43.3644],[12.756,43.3622],[12.7489,43.3609],[12.7167,43.3494],[12.7006,43.3334],[12.692,43.3327],[12.6765,43.3369],[12.6744,43.3419],[12.665,43.3476],[12.6576,43.3485],[12.6498,43.3522],[12.6515,43.3572],[12.6551,43.3594],[12.6556,43.3604],[12.6538,43.3641],[12.648,43.3699],[12.6523,43.3748],[12.6561,43.3756],[12.6551,43.3797],[12.6607,43.3832],[12.6643,43.3841],[12.6688,43.3839],[12.6766,43.3936],[12.6857,43.3991],[12.6889,43.3936],[12.6921,43.3921],[12.7086,43.3945],[12.7239,43.3942],[12.7351,43.3935],[12.737,43.3926],[12.7382,43.3908],[12.743,43.3891],[12.7468,43.3905]]]}},{"type":"Feature","properties":{"i":"054017","n":"Deruta"},"geometry":{"type":"Polygon","coordinates":[[[12.4065,43.0164],[12.4271,43.0093],[12.4368,43.0041],[12.4377,43.0],[12.4408,42.9958],[12.4455,42.9954],[12.4536,42.997],[12.4564,42.996],[12.461,42.984],[12.4675,42.9785],[12.471,42.9776],[12.4771,42.9745],[12.468,42.9664],[12.4659,42.9611],[12.4648,42.9548],[12.4616,42.957],[12.4525,42.958],[12.441,42.9604],[12.438,42.9618],[12.4278,42.962],[12.4246,42.9611],[12.4185,42.9569],[12.4168,42.9528],[12.4169,42.9515],[12.4176,42.9514],[12.4199,42.9469],[12.4207,42.9409],[12.4139,42.9321],[12.412,42.9316],[12.4082,42.9315],[12.3966,42.9342],[12.3971,42.9372],[12.3941,42.939],[12.3917,42.9394],[12.3889,42.9441],[12.3892,42.9488],[12.3953,42.9545],[12.3982,42.9605],[12.3982,42.967],[12.3972,42.9707],[12.3938,42.9709],[12.3886,42.9757],[12.3885,42.9769],[12.3896,42.9779],[12.3928,42.9781],[12.3916,42.9823],[12.377,42.9899],[12.3622,42.9945],[12.3636,42.997],[12.3669,43.0092],[12.3689,43.0215],[12.3707,43.0238],[12.388,43.0202],[12.3941,43.0167],[12.3986,43.0152],[12.4065,43.0164]]]}},{"type":"Feature","properties":{"i":"054018","n":"Foligno"},"geometry":{"type":"Polygon","coordinates":[[[12.8901,43.0595],[12.8918,43.0491],[12.8931,43.0463],[12.894,43.0452],[12.8997,43.0427],[12.9066,43.0355],[12.9036,43.0247],[12.9003,43.0232],[12.8976,43.0247],[12.8924,43.0181],[12.888,43.0107],[12.8888,43.008],[12.8937,43.0016],[12.9038,42.9894],[12.9082,42.9853],[12.9059,42.9799],[12.8986,42.9736],[12.8958,42.9646],[12.9135,42.9556],[12.9175,42.9544],[12.9211,42.955],[12.9272,42.9541],[12.9294,42.9527],[12.9366,42.9449],[12.9416,42.942],[12.9481,42.9415],[12.95,42.938],[12.9505,42.9348],[12.9493,42.93],[12.9383,42.9233],[12.9285,42.9224],[12.9173,42.9297],[12.9134,42.9311],[12.9053,42.928],[12.8793,42.9232],[12.8752,42.9282],[12.8628,42.9333],[12.8516,42.9353],[12.8405,42.9339],[12.8193,42.9232],[12.8114,42.9232],[12.8088,42.9267],[12.8069,42.9333],[12.8058,42.9338],[12.7962,42.9313],[12.7923,42.9259],[12.7926,42.9235],[12.7913,42.9212],[12.7859,42.9184],[12.7815,42.9174],[12.7782,42.9203],[12.7658,42.9224],[12.7389,42.9125],[12.7225,42.9074],[12.7076,42.905],[12.7034,42.9053],[12.6881,42.9118],[12.6874,42.9101],[12.68,42.9116],[12.6667,42.9152],[12.6482,42.9218],[12.6347,42.932],[12.6338,42.9389],[12.6306,42.9432],[12.6233,42.9516],[12.6147,42.9575],[12.6118,42.9624],[12.6116,42.9642],[12.6244,42.9664],[12.6427,42.9644],[12.6506,42.9658],[12.6794,42.975],[12.683,42.975],[12.6848,42.9738],[12.6892,42.9763],[12.6915,42.9793],[12.6932,42.983],[12.7091,42.9942],[12.7177,43.0058],[12.7254,43.0137],[12.7286,43.022],[12.7234,43.0339],[12.7254,43.0338],[12.7308,43.0361],[12.7375,43.0375],[12.7539,43.0402],[12.756,43.0388],[12.7595,43.0343],[12.7602,43.0308],[12.7654,43.0279],[12.7816,43.0251],[12.7851,43.0256],[12.7957,43.029],[12.7953,43.0339],[12.7969,43.0457],[12.8002,43.0488],[12.804,43.0507],[12.8065,43.0537],[12.8008,43.0601],[12.7965,43.0629],[12.7953,43.0681],[12.7972,43.0721],[12.8035,43.0638],[12.8086,43.0616],[12.8173,43.0597],[12.8384,43.0615],[12.8469,43.0641],[12.8565,43.065],[12.8901,43.0595]]]}},{"type":"Feature","properties":{"i":"054019","n":"Fossato di Vico"},"geometry":{"type":"Polygon","coordinates":[[[12.7892,43.2829],[12.7709,43.2738],[12.7559,43.2691],[12.7504,43.2682],[12.7493,43.2684],[12.7486,43.2715],[12.7447,43.2775],[12.7328,43.2802],[12.7186,43.2864],[12.7156,43.2859],[12.709,43.283],[12.7055,43.2828],[12.7033,43.2873],[12.7051,43.2921],[12.7074,43.2928],[12.7097,43.2925],[12.7229,43.2963],[12.7252,43.309],[12.7262,43.3126],[12.7271,43.3135],[12.7343,43.3172],[12.7587,43.3254],[12.7704,43.3315],[12.7825,43.3412],[12.7911,43.3373],[12.794,43.3342],[12.7992,43.3198],[12.8024,43.3065],[12.801,43.2948],[12.7996,43.2908],[12.7926,43.2877],[12.7892,43.2845],[12.7892,43.2829]]]}},{"type":"Feature","properties":{"i":"054020","n":"Fratta Todina"},"geometry":{"type":"Polygon","coordinates":[[[12.3727,42.8898],[12.3691,42.8887],[12.3675,42.8867],[12.3692,42.8845],[12.377,42.8827],[12.3741,42.8799],[12.377,42.8731],[12.3752,42.8683],[12.376,42.8614],[12.397,42.8536],[12.3948,42.8538],[12.3845,42.8464],[12.3794,42.846],[12.3745,42.8486],[12.3726,42.8508],[12.3579,42.8549],[12.3351,42.8588],[12.3298,42.8588],[12.326,42.8564],[12.3231,42.8596],[12.3227,42.8629],[12.3273,42.8695],[12.3295,42.8779],[12.3314,42.8787],[12.3342,42.8867],[12.3374,42.8901],[12.3585,42.8964],[12.3696,42.8946],[12.3711,42.8933],[12.3727,42.8898]]]}},{"type":"Feature","properties":{"i":"054021","n":"Giano dell'Umbria"},"geometry":{"type":"Polygon","coordinates":[[[12.6219,42.8467],[12.6184,42.8395],[12.619,42.8362],[12.6202,42.834],[12.6179,42.8246],[12.6156,42.8209],[12.6212,42.8145],[12.6195,42.8123],[12.6053,42.8038],[12.6011,42.8042],[12.5838,42.8116],[12.5814,42.8093],[12.581,42.8066],[12.5798,42.8047],[12.5754,42.8028],[12.569,42.8022],[12.5663,42.8007],[12.5646,42.8049],[12.5523,42.8163],[12.5507,42.8191],[12.5488,42.8263],[12.5475,42.8277],[12.5424,42.8268],[12.5409,42.8239],[12.5355,42.8283],[12.5306,42.8355],[12.5269,42.8394],[12.5254,42.8473],[12.5354,42.8594],[12.5413,42.8628],[12.5453,42.8631],[12.55,42.8649],[12.5537,42.8691],[12.5542,42.8722],[12.559,42.8762],[12.562,42.8761],[12.5635,42.8742],[12.5668,42.8726],[12.5727,42.8721],[12.5785,42.8775],[12.586,42.8699],[12.5916,42.8661],[12.6075,42.8606],[12.6108,42.8561],[12.6227,42.8504],[12.6235,42.8495],[12.6219,42.8467]]]}},{"type":"Feature","properties":{"i":"054022","n":"Gualdo Cattaneo"},"geometry":{"type":"Polygon","coordinates":[[[12.5856,42.8999],[12.5852,42.8915],[12.5787,42.8832],[12.5785,42.8775],[12.5727,42.8721],[12.5668,42.8726],[12.5635,42.8742],[12.562,42.8761],[12.559,42.8762],[12.5542,42.8722],[12.5537,42.8691],[12.55,42.8649],[12.5453,42.8631],[12.5413,42.8628],[12.5354,42.8594],[12.5255,42.8476],[12.5269,42.8394],[12.5282,42.8378],[12.527,42.8362],[12.5135,42.8451],[12.496,42.8436],[12.4892,42.8385],[12.488,42.8355],[12.4825,42.8307],[12.4804,42.8294],[12.4724,42.8275],[12.4739,42.8322],[12.4771,42.8367],[12.477,42.8379],[12.4742,42.8427],[12.4695,42.848],[12.464,42.8492],[12.4615,42.857],[12.4531,42.8577],[12.436,42.8575],[12.4368,42.8614],[12.4385,42.8615],[12.4405,42.8629],[12.4429,42.8679],[12.4614,42.8899],[12.4614,42.8966],[12.4552,42.9076],[12.4488,42.9141],[12.45,42.9203],[12.4527,42.9187],[12.4574,42.9181],[12.4715,42.9175],[12.4743,42.9182],[12.4771,42.9311],[12.478,42.946],[12.4901,42.9635],[12.4932,42.9645],[12.4995,42.972],[12.5024,42.9716],[12.506,42.9692],[12.5067,42.9672],[12.5063,42.9601],[12.5074,42.9562],[12.5134,42.9496],[12.5227,42.9423],[12.5335,42.9306],[12.5249,42.9197],[12.5228,42.9162],[12.5224,42.9134],[12.555,42.9296],[12.5701,42.9327],[12.5727,42.9237],[12.5737,42.916],[12.5731,42.9136],[12.5704,42.9103],[12.5771,42.9033],[12.5832,42.9001],[12.5856,42.8999]]]}},{"type":"Feature","properties":{"i":"054023","n":"Gualdo Tadino"},"geometry":{"type":"Polygon","coordinates":[[[12.7892,43.2829],[12.8037,43.2713],[12.8235,43.2668],[12.8287,43.2606],[12.8292,43.2569],[12.8267,43.2533],[12.8257,43.2485],[12.8283,43.2392],[12.8316,43.2321],[12.8344,43.2294],[12.8372,43.2245],[12.8385,43.2199],[12.8332,43.2142],[12.8326,43.2108],[12.8331,43.2074],[12.8312,43.2038],[12.8284,43.2015],[12.8121,43.1926],[12.7946,43.1783],[12.7833,43.1745],[12.7756,43.174],[12.758,43.179],[12.7453,43.1777],[12.7378,43.1751],[12.7356,43.1697],[12.7331,43.1661],[12.7259,43.1642],[12.7152,43.1635],[12.713,43.1624],[12.7099,43.1641],[12.7074,43.1675],[12.7061,43.1792],[12.7137,43.1855],[12.7136,43.1868],[12.7123,43.1897],[12.7085,43.1909],[12.7074,43.191],[12.7059,43.1893],[12.701,43.1898],[12.6989,43.1907],[12.7001,43.1937],[12.7084,43.1984],[12.7094,43.1998],[12.7089,43.2034],[12.7077,43.2038],[12.7037,43.2088],[12.7045,43.2111],[12.7021,43.2155],[12.697,43.2196],[12.6897,43.2203],[12.6812,43.2262],[12.6767,43.2317],[12.6717,43.2307],[12.6634,43.2358],[12.6603,43.239],[12.6571,43.2402],[12.6615,43.2436],[12.6694,43.2532],[12.6685,43.259],[12.6718,43.2601],[12.6868,43.2621],[12.6954,43.2662],[12.7043,43.2719],[12.7081,43.2765],[12.7094,43.2832],[12.7173,43.2864],[12.7328,43.2802],[12.7447,43.2775],[12.7486,43.2715],[12.7493,43.2684],[12.7504,43.2682],[12.7559,43.2691],[12.7709,43.2738],[12.7892,43.2829]]]}},{"type":"Feature","properties":{"i":"054024","n":"Gubbio"},"geometry":{"type":"Polygon","coordinates":[[[12.5429,43.4797],[12.5489,43.475],[12.5646,43.4595],[12.5755,43.4514],[12.5842,43.4459],[12.5936,43.443],[12.6048,43.438],[12.6223,43.4244],[12.6228,43.4209],[12.6194,43.4166],[12.6221,43.4133],[12.6338,43.4053],[12.6381,43.4011],[12.6463,43.3907],[12.6522,43.3817],[12.6558,43.3779],[12.6561,43.3756],[12.6523,43.3748],[12.648,43.3699],[12.6538,43.3641],[12.6556,43.3604],[12.6551,43.3594],[12.6515,43.3572],[12.6498,43.3522],[12.6576,43.3485],[12.665,43.3476],[12.6744,43.3419],[12.6765,43.3369],[12.692,43.3327],[12.7006,43.3334],[12.7005,43.3297],[12.704,43.3276],[12.7065,43.3224],[12.7045,43.3193],[12.7051,43.3145],[12.7071,43.312],[12.7073,43.3074],[12.704,43.3003],[12.7074,43.2928],[12.7045,43.2914],[12.7033,43.2873],[12.7055,43.2828],[12.7094,43.2832],[12.7081,43.2765],[12.7043,43.2719],[12.6954,43.2662],[12.6868,43.2621],[12.6718,43.2601],[12.6685,43.259],[12.6694,43.2532],[12.6615,43.2436],[12.6559,43.239],[12.6534,43.235],[12.6537,43.2341],[12.6504,43.2295],[12.6382,43.2188],[12.6337,43.2117],[12.6282,43.2081],[12.6122,43.2008],[12.6089,43.201],[12.6033,43.2037],[12.5918,43.2032],[12.5913,43.2024],[12.5928,43.202],[12.5918,43.1989],[12.5881,43.1943],[12.5829,43.194],[12.5798,43.1947],[12.5692,43.2004],[12.5643,43.2018],[12.5625,43.2019],[12.5583,43.2003],[12.5567,43.2032],[12.5522,43.2027],[12.543,43.1994],[12.5377,43.1963],[12.5339,43.1956],[12.5305,43.1988],[12.5266,43.2053],[12.5311,43.2127],[12.529,43.2145],[12.4893,43.2123],[12.4783,43.2169],[12.4641,43.2246],[12.4595,43.2293],[12.4597,43.2311],[12.4683,43.2366],[12.4767,43.2455],[12.4823,43.2574],[12.4822,43.2591],[12.48,43.2611],[12.4764,43.2633],[12.4511,43.2662],[12.4432,43.2687],[12.4432,43.2752],[12.4363,43.281],[12.4333,43.2851],[12.4114,43.2854],[12.4103,43.2885],[12.4104,43.2924],[12.4121,43.2964],[12.4145,43.2978],[12.4133,43.3016],[12.3959,43.3],[12.3861,43.2948],[12.3816,43.2948],[12.3746,43.2968],[12.3739,43.2976],[12.3748,43.3046],[12.3762,43.3083],[12.3801,43.3094],[12.3831,43.3156],[12.3816,43.318],[12.3883,43.3245],[12.3898,43.3301],[12.3875,43.335],[12.3873,43.337],[12.3912,43.3396],[12.3966,43.3417],[12.3992,43.3475],[12.4022,43.3513],[12.4069,43.3657],[12.4113,43.369],[12.4218,43.3738],[12.4274,43.3802],[12.4352,43.3934],[12.4444,43.4193],[12.4447,43.4222],[12.4466,43.4256],[12.4538,43.4343],[12.4939,43.4578],[12.4974,43.4642],[12.4972,43.4734],[12.4904,43.4875],[12.4902,43.4897],[12.4914,43.4914],[12.494,43.4936],[12.5003,43.496],[12.5051,43.4957],[12.5159,43.4989],[12.5222,43.5019],[12.5227,43.4984],[12.5242,43.4962],[12.5429,43.4797]]]}},{"type":"Feature","properties":{"i":"054025","n":"Lisciano Niccone"},"geometry":{"type":"Polygon","coordinates":[[[12.1964,43.2267],[12.1951,43.2244],[12.1945,43.2181],[12.1904,43.2159],[12.1726,43.2133],[12.1463,43.2125],[12.1426,43.2165],[12.1366,43.2296],[12.1313,43.2314],[12.1268,43.2317],[12.1218,43.2297],[12.117,43.2267],[12.1094,43.2311],[12.0948,43.2372],[12.0943,43.2384],[12.1009,43.241],[12.112,43.2508],[12.1211,43.255],[12.1391,43.2529],[12.1483,43.2546],[12.1662,43.2685],[12.1747,43.2731],[12.1772,43.2738],[12.1822,43.2737],[12.2071,43.2816],[12.2074,43.2777],[12.2061,43.274],[12.1985,43.2621],[12.1957,43.2411],[12.1934,43.2303],[12.1964,43.2267]]]}},{"type":"Feature","properties":{"i":"054026","n":"Magione"},"geometry":{"type":"Polygon","coordinates":[[[12.3002,43.1995],[12.2982,43.195],[12.2902,43.1902],[12.2874,43.19],[12.2741,43.1959],[12.2706,43.1963],[12.2698,43.1951],[12.2684,43.1869],[12.2664,43.1836],[12.2572,43.1729],[12.2627,43.1608],[12.275,43.1504],[12.2775,43.1451],[12.2752,43.1435],[12.2686,43.1415],[12.2544,43.1335],[12.2463,43.1284],[12.2433,43.1252],[12.2484,43.1233],[12.2494,43.1197],[12.2478,43.1147],[12.248,43.1081],[12.2487,43.1067],[12.2537,43.1056],[12.2674,43.0953],[12.2638,43.0858],[12.2629,43.0795],[12.263,43.0775],[12.2653,43.0745],[12.2664,43.0743],[12.2634,43.0702],[12.2652,43.0667],[12.2646,43.0634],[12.2589,43.0546],[12.2454,43.052],[12.2353,43.0533],[12.2299,43.0561],[12.2162,43.0693],[12.2133,43.0713],[12.2095,43.0724],[12.2012,43.073],[12.1866,43.0684],[12.1803,43.0744],[12.176,43.0754],[12.1696,43.0678],[12.1564,43.0688],[12.1514,43.0671],[12.1436,43.0688],[12.1419,43.0706],[12.1382,43.0779],[12.1485,43.1169],[12.0817,43.1453],[12.1831,43.1646],[12.2013,43.1671],[12.2039,43.1738],[12.2096,43.1752],[12.2116,43.1734],[12.2136,43.1677],[12.2173,43.161],[12.223,43.1624],[12.2271,43.1645],[12.2317,43.1702],[12.2471,43.1784],[12.2532,43.1801],[12.2562,43.1847],[12.2567,43.1901],[12.2554,43.1952],[12.2549,43.2082],[12.2555,43.2112],[12.2552,43.2127],[12.2518,43.2156],[12.2535,43.2178],[12.263,43.2217],[12.2749,43.2251],[12.2793,43.2255],[12.2752,43.2193],[12.2765,43.2146],[12.2813,43.2121],[12.2845,43.2118],[12.297,43.2004],[12.3002,43.1995]]]}},{"type":"Feature","properties":{"i":"054027","n":"Marsciano"},"geometry":{"type":"Polygon","coordinates":[[[12.3622,42.9945],[12.377,42.9899],[12.3916,42.9823],[12.3928,42.9781],[12.3896,42.9779],[12.3885,42.9769],[12.3886,42.9757],[12.3938,42.9709],[12.3972,42.9707],[12.3982,42.967],[12.3982,42.9605],[12.3953,42.9545],[12.3892,42.9488],[12.3886,42.9451],[12.3917,42.9394],[12.3941,42.939],[12.3971,42.9372],[12.3964,42.9335],[12.3935,42.9305],[12.3861,42.9316],[12.3849,42.9325],[12.3789,42.9318],[12.3717,42.9296],[12.3705,42.9284],[12.3698,42.9222],[12.3758,42.9103],[12.3849,42.9035],[12.3817,42.9001],[12.3749,42.8967],[12.3781,42.8949],[12.3879,42.8927],[12.3925,42.8873],[12.3916,42.8845],[12.3835,42.8833],[12.382,42.8881],[12.3794,42.8902],[12.3727,42.8898],[12.3711,42.8933],[12.3696,42.8946],[12.3585,42.8964],[12.3374,42.8901],[12.3342,42.8867],[12.3314,42.8787],[12.3295,42.8779],[12.3279,42.8811],[12.3279,42.8863],[12.3306,42.8896],[12.3246,42.8912],[12.32,42.8912],[12.3142,42.8873],[12.3076,42.8877],[12.3049,42.8902],[12.3044,42.8942],[12.3073,42.8976],[12.3142,42.9017],[12.3181,42.9063],[12.3209,42.9135],[12.3195,42.9154],[12.2968,42.9148],[12.2924,42.9154],[12.2879,42.9204],[12.2819,42.9209],[12.2764,42.9196],[12.2718,42.9232],[12.267,42.9249],[12.2626,42.921],[12.2608,42.9177],[12.2585,42.9169],[12.2537,42.9185],[12.2509,42.9219],[12.2332,42.9214],[12.2287,42.9259],[12.2289,42.9272],[12.2257,42.9286],[12.2126,42.924],[12.2049,42.9279],[12.2062,42.9309],[12.2044,42.9374],[12.2141,42.955],[12.2231,42.9658],[12.2398,42.9706],[12.2544,42.971],[12.2606,42.9724],[12.2652,42.9745],[12.2591,42.9798],[12.2426,42.9896],[12.2426,42.9908],[12.2467,42.9982],[12.2452,43.0071],[12.2436,43.0079],[12.2368,43.008],[12.2388,43.0156],[12.2393,43.0324],[12.2414,43.0374],[12.2458,43.0374],[12.2567,43.0334],[12.2686,43.0342],[12.2668,43.0265],[12.2703,43.0254],[12.2792,43.0316],[12.2887,43.0398],[12.2951,43.0432],[12.2988,43.0442],[12.3055,43.0346],[12.3104,43.0299],[12.3136,43.0291],[12.3181,43.0351],[12.3244,43.0354],[12.3321,43.0285],[12.3331,43.0244],[12.3301,43.0186],[12.3322,43.0131],[12.3428,43.008],[12.344,43.0053],[12.3427,42.9965],[12.3493,42.9943],[12.3557,42.9939],[12.3622,42.9945]]]}},{"type":"Feature","properties":{"i":"054028","n":"Massa Martana"},"geometry":{"type":"Polygon","coordinates":[[[12.5282,42.8378],[12.5306,42.8355],[12.5355,42.8283],[12.5409,42.8239],[12.5424,42.8268],[12.5475,42.8277],[12.5488,42.8263],[12.5507,42.8191],[12.5523,42.8163],[12.5646,42.8049],[12.5663,42.8007],[12.5693,42.7991],[12.5654,42.7945],[12.5635,42.7936],[12.5599,42.7819],[12.5604,42.7787],[12.5673,42.7678],[12.5786,42.769],[12.5865,42.7678],[12.5873,42.7578],[12.5838,42.7454],[12.577,42.7399],[12.5766,42.7389],[12.5805,42.7193],[12.5737,42.7139],[12.5635,42.7156],[12.544,42.7157],[12.537,42.7115],[12.5321,42.7112],[12.5154,42.7188],[12.5139,42.7212],[12.5137,42.7239],[12.5156,42.7248],[12.5152,42.7291],[12.5142,42.7303],[12.511,42.7327],[12.5058,42.7309],[12.5023,42.7318],[12.5086,42.7466],[12.5075,42.7483],[12.4903,42.7596],[12.4826,42.7656],[12.4895,42.7757],[12.4931,42.7855],[12.4931,42.7932],[12.4929,42.7941],[12.4897,42.7963],[12.4904,42.7983],[12.4915,42.8002],[12.4998,42.8058],[12.5012,42.8135],[12.4979,42.8153],[12.4941,42.8192],[12.4999,42.8321],[12.4964,42.8351],[12.488,42.8355],[12.4892,42.8385],[12.496,42.8436],[12.512,42.8452],[12.5135,42.8451],[12.5255,42.8368],[12.527,42.8362],[12.5282,42.8378]]]}},{"type":"Feature","properties":{"i":"054029","n":"Monte Castello di Vibio"},"geometry":{"type":"Polygon","coordinates":[[[12.397,42.8536],[12.4034,42.8428],[12.3993,42.8378],[12.3922,42.8332],[12.3829,42.8312],[12.3752,42.8328],[12.3674,42.8304],[12.3528,42.8164],[12.3483,42.8008],[12.3365,42.7895],[12.3345,42.7888],[12.3227,42.7912],[12.3154,42.7945],[12.3087,42.7931],[12.3039,42.7908],[12.3018,42.7909],[12.2999,42.7959],[12.3066,42.8087],[12.3093,42.8219],[12.3116,42.8283],[12.3145,42.8344],[12.3221,42.8387],[12.3273,42.8504],[12.326,42.8564],[12.3292,42.8586],[12.3356,42.8588],[12.3579,42.8549],[12.3726,42.8508],[12.3745,42.8486],[12.3794,42.846],[12.3845,42.8464],[12.3948,42.8538],[12.397,42.8536]]]}},{"type":"Feature","properties":{"i":"054030","n":"Montefalco"},"geometry":{"type":"Polygon","coordinates":[[[12.6396,42.928],[12.6482,42.9218],[12.6534,42.9195],[12.68,42.9116],[12.6874,42.9101],[12.6881,42.9118],[12.6969,42.908],[12.7015,42.9029],[12.7031,42.8935],[12.7014,42.8726],[12.7004,42.8664],[12.6971,42.8573],[12.6917,42.8477],[12.6922,42.8419],[12.6952,42.8402],[12.6928,42.8374],[12.6825,42.8344],[12.6606,42.8414],[12.6589,42.8441],[12.6577,42.8445],[12.6495,42.8446],[12.6335,42.8417],[12.6219,42.8467],[12.6235,42.8495],[12.6227,42.8504],[12.6108,42.8561],[12.6075,42.8606],[12.5916,42.8661],[12.586,42.8699],[12.5785,42.8775],[12.5787,42.8832],[12.5852,42.8915],[12.5859,42.9002],[12.5939,42.9049],[12.6016,42.9081],[12.6109,42.9051],[12.6143,42.9064],[12.6256,42.9176],[12.6396,42.928]]]}},{"type":"Feature","properties":{"i":"054031","n":"Monteleone di Spoleto"},"geometry":{"type":"Polygon","coordinates":[[[12.956,42.68],[12.9587,42.677],[12.9711,42.6743],[12.9792,42.6684],[12.9925,42.6625],[12.999,42.6564],[13.0036,42.6505],[13.0046,42.6448],[13.0042,42.6428],[13.0019,42.6423],[13.0025,42.6404],[13.009,42.6373],[13.0192,42.6349],[13.0142,42.6297],[13.0132,42.6266],[13.015,42.6216],[13.0143,42.62],[13.0112,42.6171],[13.0043,42.6152],[12.9858,42.6156],[12.9627,42.6188],[12.9521,42.6189],[12.9375,42.6154],[12.9344,42.61],[12.9338,42.6073],[12.9315,42.6036],[12.9301,42.6029],[12.9226,42.604],[12.9187,42.6055],[12.9158,42.6095],[12.9038,42.6123],[12.8963,42.6164],[12.8904,42.6172],[12.8868,42.6197],[12.8843,42.6249],[12.8844,42.6261],[12.8854,42.6283],[12.8888,42.6302],[12.8923,42.6355],[12.8895,42.6409],[12.8898,42.6557],[12.8919,42.6639],[12.9105,42.6724],[12.921,42.6726],[12.9225,42.6737],[12.9234,42.6808],[12.9264,42.6817],[12.9356,42.6804],[12.949,42.6771],[12.956,42.68]]]}},{"type":"Feature","properties":{"i":"054032","n":"Monte Santa Maria Tiberina"},"geometry":{"type":"Polygon","coordinates":[[[12.0738,43.4038],[12.0702,43.4049],[12.0558,43.3991],[12.0521,43.3983],[12.0424,43.3999],[12.0337,43.4002],[12.0306,43.4035],[12.0277,43.4087],[12.0252,43.4156],[12.0321,43.4237],[12.0355,43.4249],[12.0436,43.426],[12.0501,43.4301],[12.0528,43.4325],[12.0536,43.4349],[12.0569,43.4383],[12.0605,43.4384],[12.0758,43.434],[12.0814,43.434],[12.0875,43.4381],[12.0966,43.4456],[12.1,43.4514],[12.0995,43.4544],[12.1038,43.4601],[12.1244,43.4673],[12.135,43.4692],[12.1382,43.4684],[12.1413,43.469],[12.1432,43.4703],[12.1448,43.4796],[12.1501,43.4765],[12.1526,43.4698],[12.1484,43.4681],[12.1388,43.4588],[12.136,43.4544],[12.1365,43.4529],[12.1407,43.4515],[12.1577,43.4516],[12.171,43.4571],[12.1781,43.4624],[12.1891,43.4563],[12.1985,43.4474],[12.202,43.443],[12.2082,43.4211],[12.2081,43.4105],[12.2061,43.4022],[12.2045,43.3901],[12.2054,43.3866],[12.2049,43.381],[12.1967,43.387],[12.1959,43.3896],[12.1984,43.393],[12.1898,43.3967],[12.1857,43.397],[12.1802,43.3996],[12.1721,43.4086],[12.1699,43.4098],[12.1646,43.4104],[12.1522,43.409],[12.1438,43.4024],[12.1363,43.4013],[12.1293,43.4026],[12.1256,43.4053],[12.0986,43.4107],[12.0918,43.4113],[12.0742,43.4097],[12.0738,43.4038]]]}},{"type":"Feature","properties":{"i":"054033","n":"Montone"},"geometry":{"type":"Polygon","coordinates":[[[12.3726,43.362],[12.3567,43.3308],[12.3527,43.3307],[12.3335,43.3224],[12.326,43.3228],[12.323,43.324],[12.3129,43.3188],[12.3026,43.3158],[12.2996,43.3193],[12.3003,43.3222],[12.3025,43.3231],[12.3077,43.3308],[12.3123,43.3405],[12.3097,43.3452],[12.3073,43.3434],[12.303,43.3428],[12.2948,43.3432],[12.2936,43.3439],[12.2931,43.3472],[12.2905,43.3504],[12.3037,43.37],[12.3091,43.3811],[12.3134,43.3813],[12.3186,43.3792],[12.3233,43.3793],[12.3371,43.3928],[12.3399,43.3965],[12.3451,43.4009],[12.347,43.3993],[12.3493,43.3954],[12.3518,43.3932],[12.3532,43.3932],[12.356,43.3959],[12.3575,43.404],[12.3596,43.4056],[12.3646,43.4044],[12.3694,43.4063],[12.3721,43.4114],[12.3701,43.4132],[12.3716,43.4171],[12.377,43.4179],[12.3869,43.414],[12.3947,43.4081],[12.3988,43.4146],[12.3994,43.4294],[12.401,43.4319],[12.4015,43.4321],[12.4065,43.4275],[12.4058,43.4257],[12.4098,43.4248],[12.4123,43.4248],[12.4217,43.4282],[12.424,43.4234],[12.4189,43.413],[12.4129,43.4066],[12.4007,43.3986],[12.3977,43.3927],[12.398,43.3909],[12.3911,43.3832],[12.3865,43.3801],[12.3841,43.3806],[12.3748,43.3775],[12.3694,43.3705],[12.3692,43.3664],[12.3726,43.362]]]}},{"type":"Feature","properties":{"i":"054034","n":"Nocera Umbra"},"geometry":{"type":"Polygon","coordinates":[[[12.8623,43.2113],[12.8637,43.2093],[12.8682,43.1951],[12.8681,43.1888],[12.864,43.178],[12.8626,43.1674],[12.8519,43.1539],[12.8415,43.1497],[12.8337,43.1477],[12.8331,43.139],[12.8405,43.1254],[12.843,43.1223],[12.8513,43.1226],[12.8585,43.1252],[12.8755,43.1234],[12.8808,43.1215],[12.8822,43.1202],[12.8834,43.117],[12.885,43.0996],[12.8911,43.0936],[12.8945,43.0927],[12.8973,43.0935],[12.8946,43.0766],[12.8901,43.0595],[12.8565,43.065],[12.8469,43.0641],[12.8384,43.0615],[12.8173,43.0597],[12.8086,43.0616],[12.8035,43.0638],[12.7948,43.0749],[12.7928,43.0801],[12.7888,43.082],[12.7788,43.0827],[12.7673,43.0807],[12.764,43.0791],[12.7615,43.0742],[12.7578,43.0821],[12.7532,43.0864],[12.7463,43.0901],[12.7428,43.0937],[12.7214,43.1007],[12.7187,43.1035],[12.7197,43.1125],[12.7238,43.1161],[12.7269,43.1247],[12.7236,43.1331],[12.722,43.135],[12.7093,43.1427],[12.7076,43.1426],[12.7045,43.1367],[12.704,43.1329],[12.7067,43.1293],[12.7082,43.1304],[12.7122,43.13],[12.7127,43.1275],[12.7119,43.1254],[12.7077,43.1248],[12.6913,43.139],[12.6901,43.1415],[12.6896,43.145],[12.6929,43.147],[12.6958,43.1537],[12.703,43.1599],[12.7063,43.1616],[12.713,43.1624],[12.7152,43.1635],[12.7259,43.1642],[12.7331,43.1661],[12.7356,43.1697],[12.7364,43.1725],[12.7383,43.1755],[12.7453,43.1777],[12.758,43.179],[12.7756,43.174],[12.7801,43.1738],[12.7946,43.1783],[12.8121,43.1926],[12.83,43.2027],[12.8331,43.2074],[12.8326,43.2108],[12.8332,43.2142],[12.8366,43.2175],[12.8506,43.2099],[12.8623,43.2113]]]}},{"type":"Feature","properties":{"i":"054035","n":"Norcia"},"geometry":{"type":"Polygon","coordinates":[[[13.2353,42.8677],[13.2426,42.8597],[13.2481,42.8489],[13.2496,42.8393],[13.2553,42.8226],[13.2573,42.8192],[13.2627,42.8159],[13.264,42.8082],[13.2591,42.7988],[13.251,42.7892],[13.2454,42.7712],[13.2456,42.7678],[13.2405,42.7622],[13.2385,42.761],[13.2369,42.7655],[13.2368,42.7693],[13.2298,42.7723],[13.2216,42.7727],[13.2165,42.7715],[13.2125,42.7667],[13.2088,42.7639],[13.1998,42.7633],[13.1951,42.7619],[13.1934,42.7596],[13.1933,42.7588],[13.1961,42.7572],[13.1988,42.7543],[13.1995,42.7507],[13.1989,42.748],[13.1893,42.7388],[13.1877,42.7356],[13.1876,42.7337],[13.1892,42.7336],[13.1885,42.7291],[13.1889,42.7182],[13.1907,42.7128],[13.1905,42.7099],[13.1771,42.6943],[13.1733,42.6873],[13.1759,42.6831],[13.1795,42.6834],[13.1783,42.6768],[13.1741,42.6683],[13.1741,42.6661],[13.1585,42.6543],[13.1576,42.656],[13.1619,42.6599],[13.1604,42.6625],[13.1517,42.671],[13.1481,42.6733],[13.1414,42.6805],[13.1341,42.6902],[13.1264,42.6972],[13.1196,42.7054],[13.1133,42.7179],[13.1037,42.7203],[13.1007,42.7195],[13.0911,42.7222],[13.0807,42.7262],[13.0751,42.731],[13.0739,42.7369],[13.0742,42.7427],[13.0771,42.7436],[13.0785,42.7453],[13.0789,42.7512],[13.0769,42.755],[13.0709,42.7613],[13.0484,42.7725],[13.044,42.7719],[13.0429,42.7647],[13.0443,42.7599],[13.042,42.7527],[13.0334,42.749],[13.0119,42.7665],[13.0057,42.7749],[12.9982,42.7767],[12.9883,42.7831],[12.9666,42.7847],[12.9678,42.787],[12.9652,42.7906],[12.9579,42.7909],[12.9536,42.8014],[12.9493,42.8171],[12.9511,42.826],[12.9565,42.834],[12.9638,42.8427],[12.967,42.8451],[12.9693,42.8518],[12.9726,42.8538],[12.9815,42.849],[12.9829,42.8467],[12.985,42.8386],[12.9828,42.835],[12.9845,42.8285],[12.9984,42.8258],[13.0128,42.8205],[13.017,42.823],[13.0194,42.8225],[13.0311,42.817],[13.0439,42.8143],[13.0533,42.8156],[13.0543,42.8186],[13.0571,42.8191],[13.0729,42.8168],[13.0864,42.8161],[13.0897,42.8177],[13.0808,42.8271],[13.0737,42.8376],[13.0725,42.843],[13.0724,42.8511],[13.0774,42.8583],[13.0982,42.8774],[13.1127,42.8885],[13.1166,42.8809],[13.1217,42.8739],[13.1404,42.8551],[13.1543,42.8354],[13.1633,42.8324],[13.1815,42.8371],[13.1881,42.8347],[13.2034,42.8406],[13.2058,42.8402],[13.2108,42.8415],[13.2189,42.846],[13.2322,42.8562],[13.2353,42.8677]]]}},{"type":"Feature","properties":{"i":"054036","n":"Paciano"},"geometry":{"type":"Polygon","coordinates":[[[12.0743,43.0503],[12.0794,43.0353],[12.0871,43.0218],[12.0842,43.0187],[12.0715,43.0131],[12.07,43.0099],[12.0699,43.0068],[12.061,43.0038],[12.0445,43.0076],[12.0284,43.0222],[12.0231,43.0237],[12.036,43.0398],[12.0621,43.0505],[12.0743,43.0503]]]}},{"type":"Feature","properties":{"i":"054037","n":"Panicale"},"geometry":{"type":"Polygon","coordinates":[[[12.1866,43.0684],[12.1861,43.0675],[12.1888,43.064],[12.2009,43.0545],[12.2021,43.0494],[12.202,43.0439],[12.1962,43.0462],[12.1887,43.0466],[12.1811,43.044],[12.1782,43.0404],[12.1745,43.0333],[12.1759,43.0279],[12.1789,43.0249],[12.1813,43.0174],[12.1786,43.0137],[12.1789,43.0115],[12.1807,43.0085],[12.1621,43.0052],[12.1586,43.0033],[12.16,43.0015],[12.16,42.9992],[12.1538,42.9899],[12.1433,42.9845],[12.1329,42.9965],[12.1271,42.9995],[12.116,42.9931],[12.1024,42.9875],[12.0993,42.9882],[12.0809,42.9978],[12.0699,43.0068],[12.07,43.0099],[12.0715,43.0131],[12.0842,43.0187],[12.0871,43.0218],[12.0794,43.0353],[12.0743,43.0503],[12.0926,43.0492],[12.0965,43.0563],[12.0951,43.0699],[12.1032,43.0836],[12.1056,43.086],[12.1483,43.1171],[12.1382,43.0779],[12.1423,43.07],[12.1469,43.0677],[12.1514,43.0671],[12.1564,43.0688],[12.1696,43.0678],[12.176,43.0754],[12.1803,43.0744],[12.1866,43.0684]]]}},{"type":"Feature","properties":{"i":"054038","n":"Passignano sul Trasimeno"},"geometry":{"type":"Polygon","coordinates":[[[12.2518,43.2156],[12.2552,43.2127],[12.2557,43.2103],[12.2549,43.2082],[12.2554,43.1952],[12.2567,43.1901],[12.2562,43.1847],[12.2532,43.1801],[12.2471,43.1784],[12.2317,43.1702],[12.2271,43.1645],[12.223,43.1624],[12.2173,43.161],[12.2136,43.1677],[12.2116,43.1734],[12.2096,43.1752],[12.2039,43.1738],[12.2013,43.1671],[12.1831,43.1646],[12.0812,43.1452],[12.1054,43.1916],[12.1124,43.2028],[12.1153,43.2114],[12.1146,43.2144],[12.112,43.219],[12.1124,43.2212],[12.1166,43.2266],[12.125,43.2311],[12.1286,43.232],[12.1366,43.2296],[12.1426,43.2165],[12.1463,43.2125],[12.1726,43.2133],[12.1904,43.2159],[12.1943,43.2176],[12.1951,43.2244],[12.197,43.2272],[12.1995,43.2276],[12.2184,43.2236],[12.2277,43.2191],[12.2322,43.2195],[12.2329,43.2199],[12.2315,43.2224],[12.2349,43.2253],[12.2483,43.2305],[12.2505,43.2287],[12.2514,43.224],[12.2502,43.2162],[12.2518,43.2156]]]}},{"type":"Feature","properties":{"i":"054039","n":"Perugia"},"geometry":{"type":"Polygon","coordinates":[[[12.5583,43.2003],[12.5579,43.1865],[12.5619,43.1757],[12.5543,43.1706],[12.5521,43.1633],[12.5538,43.1582],[12.5637,43.149],[12.5637,43.1413],[12.5535,43.1433],[12.5418,43.143],[12.5338,43.135],[12.5276,43.1244],[12.5105,43.0909],[12.5002,43.0882],[12.4932,43.0893],[12.491,43.0814],[12.4978,43.0724],[12.4981,43.0703],[12.4974,43.0691],[12.4731,43.0706],[12.467,43.0718],[12.4622,43.0742],[12.4556,43.0823],[12.453,43.0871],[12.4485,43.0887],[12.4473,43.0831],[12.4356,43.074],[12.4246,43.0617],[12.4231,43.0545],[12.4276,43.0525],[12.4321,43.0455],[12.4312,43.0432],[12.4257,43.0376],[12.4197,43.0373],[12.4152,43.0362],[12.4139,43.0353],[12.4158,43.0272],[12.4066,43.0188],[12.4065,43.0164],[12.3986,43.0152],[12.3941,43.0167],[12.388,43.0202],[12.3707,43.0238],[12.3689,43.0215],[12.3669,43.0092],[12.363,42.9955],[12.3622,42.9945],[12.3557,42.9939],[12.3483,42.9945],[12.3427,42.9965],[12.344,43.0053],[12.3428,43.008],[12.3322,43.0131],[12.3301,43.0186],[12.3331,43.0244],[12.3317,43.0291],[12.3244,43.0354],[12.3181,43.0351],[12.3136,43.0291],[12.3104,43.0299],[12.3055,43.0346],[12.2988,43.0442],[12.2951,43.0432],[12.2887,43.0398],[12.2792,43.0316],[12.2703,43.0254],[12.2668,43.0265],[12.2686,43.0342],[12.2567,43.0334],[12.2458,43.0374],[12.2414,43.0374],[12.2392,43.0315],[12.2388,43.0156],[12.2376,43.0109],[12.2368,43.008],[12.2335,43.0056],[12.2252,43.0037],[12.2218,43.0058],[12.219,43.0063],[12.2078,43.0065],[12.2059,43.0048],[12.195,43.0032],[12.1932,43.0046],[12.191,43.0105],[12.1891,43.0108],[12.1807,43.0085],[12.1789,43.0115],[12.1789,43.0147],[12.1813,43.0174],[12.1789,43.0249],[12.1759,43.0279],[12.1745,43.0333],[12.1789,43.0415],[12.1815,43.0445],[12.1874,43.0465],[12.1962,43.0462],[12.202,43.0439],[12.2023,43.0447],[12.202,43.0501],[12.2009,43.0545],[12.1874,43.0655],[12.1861,43.0675],[12.1873,43.0692],[12.2012,43.073],[12.2095,43.0724],[12.2133,43.0713],[12.2204,43.0656],[12.2299,43.0561],[12.2353,43.0533],[12.2454,43.052],[12.2589,43.0546],[12.2646,43.0634],[12.2652,43.0667],[12.2634,43.0702],[12.2664,43.0743],[12.2893,43.0757],[12.2893,43.0725],[12.2843,43.0687],[12.2819,43.0604],[12.2819,43.0592],[12.2865,43.0581],[12.3148,43.0702],[12.3166,43.0715],[12.3184,43.0751],[12.3218,43.0775],[12.3164,43.0842],[12.3143,43.088],[12.3189,43.0997],[12.3185,43.1052],[12.3147,43.1093],[12.3104,43.1234],[12.312,43.1268],[12.3189,43.1333],[12.3316,43.1377],[12.3363,43.1433],[12.3396,43.1538],[12.3251,43.1672],[12.318,43.1721],[12.3128,43.173],[12.3119,43.1724],[12.3121,43.1697],[12.3077,43.1672],[12.3013,43.1717],[12.2979,43.1759],[12.2976,43.1797],[12.2994,43.1803],[12.3017,43.1867],[12.3003,43.1934],[12.2982,43.195],[12.3002,43.1995],[12.3095,43.2047],[12.317,43.2062],[12.3185,43.2112],[12.3152,43.2138],[12.3098,43.2144],[12.304,43.2165],[12.2992,43.2208],[12.2972,43.2269],[12.2959,43.236],[12.2988,43.2372],[12.3111,43.235],[12.317,43.2369],[12.3318,43.2452],[12.3412,43.2472],[12.3602,43.2346],[12.3686,43.2301],[12.3714,43.2305],[12.3753,43.2342],[12.3785,43.2395],[12.3753,43.2437],[12.3762,43.2487],[12.3797,43.253],[12.3817,43.2541],[12.3865,43.2556],[12.3898,43.255],[12.3922,43.257],[12.4069,43.2821],[12.4114,43.2854],[12.4141,43.2857],[12.4333,43.2851],[12.4363,43.281],[12.4432,43.2752],[12.4432,43.2687],[12.4511,43.2662],[12.4764,43.2633],[12.4822,43.2591],[12.4823,43.2574],[12.4767,43.2455],[12.4683,43.2366],[12.4597,43.2311],[12.4595,43.2293],[12.4641,43.2246],[12.4783,43.2169],[12.4893,43.2123],[12.529,43.2145],[12.5311,43.2127],[12.5266,43.2053],[12.5331,43.1958],[12.5377,43.1963],[12.543,43.1994],[12.5522,43.2027],[12.5567,43.2032],[12.5583,43.2003]]]}},{"type":"Feature","properties":{"i":"054040","n":"Piegaro"},"geometry":{"type":"Polygon","coordinates":[[[12.2368,43.008],[12.2436,43.0079],[12.2452,43.0071],[12.2467,42.9982],[12.2426,42.9908],[12.2426,42.9896],[12.2591,42.9798],[12.2652,42.9745],[12.2606,42.9724],[12.2544,42.971],[12.2398,42.9706],[12.2243,42.9666],[12.2141,42.955],[12.2044,42.9374],[12.2055,42.9336],[12.2021,42.936],[12.193,42.9382],[12.1874,42.9385],[12.1725,42.9335],[12.1517,42.9385],[12.1472,42.9374],[12.1451,42.9355],[12.1426,42.9349],[12.1399,42.9355],[12.1307,42.9409],[12.1142,42.9404],[12.0926,42.9415],[12.0772,42.9394],[12.0615,42.9342],[12.0508,42.9408],[12.0519,42.9467],[12.0594,42.9556],[12.0584,42.962],[12.0554,42.9683],[12.0534,42.9762],[12.0566,42.9807],[12.0597,42.9918],[12.0631,43.0007],[12.061,43.0038],[12.0699,43.0068],[12.0809,42.9978],[12.0993,42.9882],[12.1024,42.9875],[12.116,42.9931],[12.1254,42.999],[12.1275,42.9995],[12.1329,42.9965],[12.1433,42.9845],[12.1538,42.9899],[12.16,42.9992],[12.16,43.0015],[12.1586,43.0033],[12.1621,43.0052],[12.1807,43.0085],[12.1891,43.0108],[12.191,43.0105],[12.1932,43.0046],[12.195,43.0032],[12.2059,43.0048],[12.2078,43.0065],[12.219,43.0063],[12.2218,43.0058],[12.2252,43.0037],[12.2335,43.0056],[12.2368,43.008]]]}},{"type":"Feature","properties":{"i":"054041","n":"Pietralunga"},"geometry":{"type":"Polygon","coordinates":[[[12.5008,43.5196],[12.5058,43.5171],[12.5155,43.51],[12.5209,43.5043],[12.5222,43.5019],[12.5159,43.4989],[12.5051,43.4957],[12.5003,43.496],[12.494,43.4936],[12.4914,43.4914],[12.4902,43.4897],[12.4904,43.4875],[12.4972,43.4734],[12.4974,43.4642],[12.4939,43.4578],[12.4553,43.4352],[12.4511,43.4315],[12.4447,43.4222],[12.4444,43.4193],[12.4384,43.4014],[12.4352,43.3934],[12.4305,43.3849],[12.4274,43.3802],[12.4218,43.3738],[12.4113,43.369],[12.4069,43.3657],[12.4022,43.3513],[12.3992,43.3475],[12.3901,43.3535],[12.3843,43.3553],[12.3765,43.3615],[12.3726,43.362],[12.3692,43.3664],[12.3694,43.3705],[12.3748,43.3775],[12.3841,43.3806],[12.3865,43.3801],[12.3911,43.3832],[12.398,43.3909],[12.3977,43.3927],[12.4007,43.3986],[12.4129,43.4066],[12.4189,43.413],[12.424,43.4234],[12.4217,43.4282],[12.4123,43.4248],[12.4098,43.4248],[12.4058,43.4257],[12.4065,43.4275],[12.4015,43.4321],[12.401,43.4319],[12.3994,43.4294],[12.3988,43.4146],[12.3947,43.4081],[12.3869,43.414],[12.377,43.4179],[12.3716,43.4171],[12.3701,43.4132],[12.3721,43.4114],[12.3694,43.4063],[12.3646,43.4044],[12.3596,43.4056],[12.3575,43.404],[12.356,43.3959],[12.3532,43.3932],[12.3518,43.3932],[12.3493,43.3954],[12.347,43.3993],[12.3451,43.4009],[12.3384,43.3944],[12.3353,43.3981],[12.3358,43.4016],[12.3232,43.4066],[12.3201,43.4176],[12.3234,43.4181],[12.3283,43.4163],[12.3351,43.4156],[12.3381,43.4174],[12.347,43.4251],[12.3524,43.4339],[12.3506,43.4395],[12.352,43.4425],[12.3703,43.4542],[12.3753,43.4563],[12.3797,43.4601],[12.3771,43.4647],[12.3698,43.4669],[12.3657,43.4645],[12.3595,43.4625],[12.344,43.4626],[12.3401,43.4637],[12.3326,43.4673],[12.3331,43.4707],[12.3357,43.4769],[12.3421,43.4815],[12.3475,43.4837],[12.3518,43.4834],[12.3661,43.4846],[12.3714,43.4874],[12.3862,43.4902],[12.3964,43.4938],[12.405,43.4936],[12.4078,43.4896],[12.4135,43.4847],[12.4158,43.4856],[12.4179,43.4887],[12.4178,43.4932],[12.4154,43.502],[12.4136,43.5048],[12.4002,43.5098],[12.399,43.5132],[12.4068,43.5249],[12.4165,43.5336],[12.4318,43.5371],[12.4379,43.5377],[12.4461,43.53],[12.4575,43.5168],[12.4591,43.5161],[12.4736,43.5186],[12.4784,43.526],[12.4814,43.5275],[12.484,43.5272],[12.5008,43.5196]]]}},{"type":"Feature","properties":{"i":"054042","n":"Poggiodomo"},"geometry":{"type":"Polygon","coordinates":[[[12.9547,42.748],[12.9584,42.7477],[12.9593,42.7418],[12.9534,42.72],[12.9479,42.7061],[12.9459,42.7029],[12.9498,42.6957],[12.9543,42.6906],[12.9552,42.6861],[12.956,42.68],[12.9504,42.6773],[12.9275,42.6818],[12.9234,42.6808],[12.9213,42.6818],[12.9194,42.6837],[12.9187,42.6864],[12.9147,42.6903],[12.8988,42.7017],[12.8865,42.7172],[12.8894,42.7292],[12.888,42.7326],[12.8912,42.7346],[12.9021,42.7529],[12.9044,42.7546],[12.9049,42.7597],[12.9102,42.7686],[12.9206,42.7765],[12.9232,42.7748],[12.9267,42.7676],[12.9326,42.7604],[12.9372,42.7468],[12.9386,42.7454],[12.948,42.748],[12.9547,42.748]]]}},{"type":"Feature","properties":{"i":"054043","n":"Preci"},"geometry":{"type":"Polygon","coordinates":[[[13.1122,42.8893],[13.1127,42.8885],[13.0982,42.8774],[13.0774,42.8583],[13.0724,42.8511],[13.0725,42.843],[13.0737,42.8376],[13.0808,42.8271],[13.0897,42.8177],[13.0857,42.8159],[13.0729,42.8168],[13.0571,42.8191],[13.0543,42.8186],[13.0533,42.8156],[13.0439,42.8143],[13.0311,42.817],[13.0202,42.8222],[13.017,42.823],[13.0128,42.8205],[12.9984,42.8258],[12.9845,42.8285],[12.9828,42.835],[12.985,42.8386],[12.9829,42.8467],[12.9815,42.849],[12.9726,42.8538],[12.962,42.8464],[12.9604,42.8464],[12.96,42.8474],[12.9596,42.858],[12.9617,42.8641],[12.9689,42.8677],[12.9762,42.8698],[12.9858,42.869],[12.9904,42.8721],[12.993,42.8795],[13.0001,42.8908],[12.999,42.8983],[12.997,42.9033],[13.001,42.9093],[13.0053,42.9083],[13.012,42.9028],[13.0249,42.9026],[13.037,42.9075],[13.0432,42.9151],[13.0523,42.9196],[13.0547,42.9194],[13.0677,42.9071],[13.0812,42.8997],[13.1122,42.8893]]]}},{"type":"Feature","properties":{"i":"054044","n":"San Giustino"},"geometry":{"type":"Polygon","coordinates":[[[12.2553,43.5902],[12.2574,43.5893],[12.2627,43.589],[12.2643,43.5897],[12.2652,43.5912],[12.2721,43.5939],[12.2878,43.5946],[12.292,43.5935],[12.2937,43.5905],[12.2924,43.5865],[12.2978,43.5858],[12.3058,43.5891],[12.3075,43.5918],[12.3088,43.5904],[12.311,43.5841],[12.3101,43.5805],[12.3083,43.5775],[12.3082,43.5671],[12.2888,43.553],[12.2864,43.5501],[12.2786,43.5442],[12.2683,43.5403],[12.262,43.5392],[12.2489,43.5417],[12.2441,43.5462],[12.2446,43.5488],[12.2425,43.5507],[12.2356,43.5563],[12.2329,43.556],[12.2296,43.5537],[12.2242,43.5275],[12.221,43.5221],[12.2248,43.5197],[12.2308,43.513],[12.2206,43.5082],[12.2159,43.5085],[12.2092,43.512],[12.2051,43.5127],[12.1993,43.5099],[12.1983,43.5075],[12.2007,43.5068],[12.2001,43.5058],[12.1937,43.5026],[12.1888,43.5037],[12.1749,43.5019],[12.1596,43.5228],[12.1556,43.5276],[12.1534,43.529],[12.1541,43.5346],[12.1564,43.5386],[12.1587,43.5498],[12.1627,43.5614],[12.168,43.5651],[12.1898,43.5866],[12.1968,43.595],[12.1963,43.5993],[12.1998,43.6032],[12.204,43.6064],[12.2138,43.6109],[12.2195,43.6009],[12.225,43.5944],[12.227,43.5935],[12.2341,43.5939],[12.2553,43.5902]]]}},{"type":"Feature","properties":{"i":"054045","n":"Sant'Anatolia di Narco"},"geometry":{"type":"Polygon","coordinates":[[[12.888,42.7326],[12.8894,42.7292],[12.8865,42.7172],[12.8988,42.7017],[12.9147,42.6903],[12.9187,42.6864],[12.9202,42.6825],[12.9234,42.6808],[12.9225,42.6737],[12.921,42.6726],[12.9105,42.6724],[12.8919,42.6639],[12.8932,42.6712],[12.8929,42.6726],[12.8896,42.6751],[12.8721,42.6865],[12.8668,42.6891],[12.854,42.6939],[12.8482,42.6928],[12.8457,42.6946],[12.8431,42.7022],[12.8456,42.7136],[12.8406,42.721],[12.8377,42.7221],[12.814,42.7234],[12.8056,42.7278],[12.8004,42.739],[12.8033,42.7484],[12.8111,42.7548],[12.8164,42.7647],[12.8228,42.7811],[12.8272,42.7859],[12.8306,42.7822],[12.8339,42.7771],[12.834,42.7721],[12.8332,42.7674],[12.8359,42.7634],[12.8515,42.7532],[12.8562,42.749],[12.8647,42.7385],[12.8749,42.7329],[12.8838,42.735],[12.888,42.7326]]]}},{"type":"Feature","properties":{"i":"054046","n":"Scheggia e Pascelupo"},"geometry":{"type":"Polygon","coordinates":[[[12.7674,43.4598],[12.7719,43.4571],[12.7764,43.4505],[12.7665,43.4456],[12.7659,43.4405],[12.7683,43.4372],[12.7654,43.4331],[12.7656,43.4271],[12.7683,43.4239],[12.7713,43.423],[12.7808,43.4148],[12.7752,43.4046],[12.7717,43.401],[12.7614,43.3966],[12.7514,43.395],[12.7468,43.3905],[12.743,43.3891],[12.7382,43.3908],[12.737,43.3926],[12.7351,43.3935],[12.7239,43.3942],[12.7086,43.3945],[12.6921,43.3921],[12.6889,43.3936],[12.6857,43.3991],[12.6766,43.3936],[12.6688,43.3839],[12.6643,43.3841],[12.6607,43.3832],[12.655,43.3794],[12.6522,43.3817],[12.6463,43.3907],[12.6352,43.4042],[12.6221,43.4133],[12.6194,43.4166],[12.6289,43.4223],[12.6356,43.4297],[12.6454,43.4336],[12.6575,43.4352],[12.6632,43.4368],[12.6747,43.4342],[12.6865,43.4287],[12.7061,43.4252],[12.7088,43.4258],[12.7153,43.4461],[12.7225,43.4529],[12.7248,43.4539],[12.7333,43.4636],[12.7346,43.4643],[12.7437,43.4642],[12.7499,43.4625],[12.7555,43.4591],[12.7577,43.4587],[12.7674,43.4598]]]}},{"type":"Feature","properties":{"i":"054047","n":"Scheggino"},"geometry":{"type":"Polygon","coordinates":[[[12.8919,42.6639],[12.8898,42.6557],[12.8895,42.6409],[12.8763,42.6482],[12.8692,42.6541],[12.8613,42.6651],[12.8281,42.671],[12.8121,42.6595],[12.8072,42.661],[12.8046,42.6644],[12.8014,42.6772],[12.802,42.6797],[12.8046,42.6818],[12.7974,42.6852],[12.7924,42.6852],[12.7837,42.6902],[12.7826,42.6929],[12.786,42.6952],[12.7889,42.6995],[12.7995,42.7031],[12.8082,42.7037],[12.8107,42.7073],[12.8058,42.7091],[12.8058,42.7146],[12.8096,42.7218],[12.8126,42.7234],[12.8394,42.7217],[12.8416,42.72],[12.8456,42.7136],[12.8431,42.7022],[12.8457,42.6946],[12.8482,42.6928],[12.854,42.6939],[12.8668,42.6891],[12.8721,42.6865],[12.8896,42.6751],[12.8929,42.6726],[12.8932,42.6712],[12.8919,42.6639]]]}},{"type":"Feature","properties":{"i":"054048","n":"Sellano"},"geometry":{"type":"Polygon","coordinates":[[[12.9493,42.93],[12.9693,42.9284],[12.9734,42.9277],[12.9767,42.9261],[12.9757,42.9211],[12.9691,42.9037],[12.971,42.892],[12.9738,42.8898],[12.9751,42.8866],[12.9734,42.8772],[12.9755,42.8724],[12.9509,42.8719],[12.9425,42.8746],[12.9377,42.8695],[12.9205,42.8584],[12.9143,42.8584],[12.9079,42.8606],[12.8979,42.8593],[12.8896,42.856],[12.8877,42.8509],[12.8865,42.8505],[12.8852,42.8515],[12.8894,42.8579],[12.8862,42.8623],[12.8818,42.8663],[12.87,42.874],[12.8594,42.8671],[12.8528,42.8681],[12.8412,42.8725],[12.8301,42.8754],[12.8259,42.8782],[12.8278,42.8852],[12.8271,42.889],[12.8236,42.8931],[12.8207,42.8956],[12.808,42.8991],[12.8031,42.9047],[12.8121,42.914],[12.8136,42.9196],[12.8114,42.9232],[12.8193,42.9232],[12.8405,42.9339],[12.8516,42.9353],[12.8628,42.9333],[12.8752,42.9282],[12.8793,42.9232],[12.9053,42.928],[12.9134,42.9311],[12.9173,42.9297],[12.9285,42.9224],[12.9356,42.9229],[12.9383,42.9233],[12.9493,42.93]]]}},{"type":"Feature","properties":{"i":"054049","n":"Sigillo"},"geometry":{"type":"Polygon","coordinates":[[[12.7825,43.3412],[12.7704,43.3315],[12.7587,43.3254],[12.7343,43.3172],[12.7271,43.3135],[12.7262,43.3126],[12.7252,43.309],[12.7229,43.2963],[12.7097,43.2925],[12.7074,43.2928],[12.7062,43.2944],[12.704,43.3003],[12.7073,43.3074],[12.7071,43.312],[12.7051,43.3145],[12.7045,43.3193],[12.7065,43.3224],[12.704,43.3276],[12.7005,43.3297],[12.7006,43.3334],[12.7167,43.3494],[12.7489,43.3609],[12.756,43.3622],[12.7593,43.3644],[12.7648,43.3631],[12.7701,43.36],[12.7731,43.3503],[12.7786,43.3463],[12.7821,43.3456],[12.7825,43.3412]]]}},{"type":"Feature","properties":{"i":"054050","n":"Spello"},"geometry":{"type":"Polygon","coordinates":[[[12.7234,43.0339],[12.7285,43.0226],[12.7274,43.0175],[12.7254,43.0137],[12.7177,43.0058],[12.7091,42.9942],[12.6932,42.983],[12.6907,42.9779],[12.6848,42.9738],[12.683,42.975],[12.6794,42.975],[12.6506,42.9658],[12.6427,42.9644],[12.6244,42.9664],[12.6116,42.9642],[12.6097,42.9698],[12.6099,42.9717],[12.5987,43.0017],[12.5916,43.0102],[12.5923,43.0108],[12.6073,43.0119],[12.675,43.0288],[12.6805,43.0361],[12.684,43.0438],[12.6829,43.047],[12.6839,43.0481],[12.6902,43.0514],[12.6983,43.0525],[12.7119,43.0569],[12.7143,43.0584],[12.716,43.0578],[12.7191,43.0535],[12.7168,43.0492],[12.7166,43.0438],[12.7217,43.04],[12.7234,43.0339]]]}},{"type":"Feature","properties":{"i":"054051","n":"Spoleto"},"geometry":{"type":"Polygon","coordinates":[[[12.8428,42.8096],[12.8463,42.8085],[12.8464,42.8061],[12.8454,42.8018],[12.8417,42.7941],[12.828,42.7907],[12.8272,42.7859],[12.8228,42.7811],[12.8164,42.7647],[12.8111,42.7548],[12.8033,42.7484],[12.8004,42.739],[12.8056,42.7278],[12.814,42.7234],[12.8096,42.7218],[12.8058,42.7146],[12.8058,42.7091],[12.8107,42.707],[12.8076,42.7034],[12.7995,42.7031],[12.7889,42.6995],[12.786,42.6952],[12.7826,42.6929],[12.7837,42.6902],[12.7924,42.6852],[12.7974,42.6852],[12.8046,42.6818],[12.802,42.6797],[12.8014,42.6772],[12.8046,42.6644],[12.8072,42.661],[12.8121,42.6595],[12.8081,42.6569],[12.8062,42.6567],[12.7999,42.6577],[12.7959,42.6613],[12.7918,42.662],[12.7866,42.6583],[12.7855,42.647],[12.7751,42.636],[12.7633,42.636],[12.7518,42.6341],[12.7338,42.6241],[12.7336,42.6193],[12.7362,42.6108],[12.7352,42.6092],[12.7262,42.6041],[12.7253,42.6021],[12.7262,42.5989],[12.7241,42.5974],[12.7208,42.5968],[12.7194,42.5975],[12.7145,42.6169],[12.7121,42.6212],[12.698,42.6372],[12.6903,42.642],[12.6836,42.6437],[12.6756,42.6439],[12.6689,42.6521],[12.6594,42.6606],[12.6399,42.6691],[12.64,42.6731],[12.6391,42.6749],[12.6319,42.6758],[12.6278,42.6732],[12.6222,42.6735],[12.6164,42.6812],[12.6164,42.6879],[12.6148,42.6925],[12.6133,42.6944],[12.6084,42.6949],[12.5898,42.6893],[12.5848,42.6882],[12.5836,42.6886],[12.581,42.6982],[12.5799,42.7055],[12.5871,42.7101],[12.5922,42.7112],[12.6051,42.7096],[12.6111,42.7079],[12.6169,42.7075],[12.6196,42.7084],[12.6236,42.7106],[12.6272,42.7197],[12.6126,42.7212],[12.6079,42.7259],[12.6049,42.7304],[12.6039,42.7329],[12.6043,42.7392],[12.6023,42.7432],[12.5986,42.7458],[12.5939,42.7479],[12.5892,42.7491],[12.5846,42.7491],[12.5873,42.7578],[12.5865,42.7678],[12.5786,42.769],[12.5673,42.7678],[12.5604,42.7787],[12.5599,42.7819],[12.5635,42.7936],[12.5654,42.7945],[12.5693,42.7991],[12.5663,42.8007],[12.569,42.8022],[12.5754,42.8028],[12.5798,42.8047],[12.581,42.8066],[12.5814,42.8093],[12.5838,42.8116],[12.6011,42.8042],[12.6053,42.8038],[12.616,42.8098],[12.6212,42.8145],[12.6249,42.8132],[12.6388,42.8184],[12.6444,42.8188],[12.6465,42.818],[12.647,42.8171],[12.646,42.8162],[12.6468,42.8136],[12.6489,42.811],[12.6749,42.8074],[12.6774,42.8077],[12.6932,42.8173],[12.7011,42.8206],[12.7126,42.8295],[12.7157,42.836],[12.7169,42.837],[12.7218,42.8367],[12.7268,42.8417],[12.7291,42.8423],[12.7392,42.8405],[12.74,42.8377],[12.7428,42.8343],[12.7542,42.8336],[12.7574,42.8322],[12.7602,42.8283],[12.7599,42.8264],[12.7571,42.8225],[12.7579,42.8179],[12.7698,42.8132],[12.774,42.8125],[12.7896,42.8147],[12.7981,42.8176],[12.808,42.8306],[12.8109,42.838],[12.8169,42.8374],[12.8175,42.8323],[12.8189,42.8283],[12.822,42.8231],[12.8373,42.8095],[12.8403,42.8087],[12.8428,42.8096]]]}},{"type":"Feature","properties":{"i":"054052","n":"Todi"},"geometry":{"type":"Polygon","coordinates":[[[12.4368,42.8614],[12.436,42.8575],[12.4531,42.8577],[12.4615,42.857],[12.464,42.8492],[12.4695,42.848],[12.4742,42.8427],[12.477,42.8379],[12.4763,42.8351],[12.4739,42.8322],[12.4719,42.8277],[12.4804,42.8294],[12.4852,42.8326],[12.488,42.8355],[12.4964,42.8351],[12.4999,42.8321],[12.4941,42.8192],[12.4979,42.8153],[12.5012,42.8135],[12.4999,42.8063],[12.4982,42.8044],[12.4969,42.8042],[12.4915,42.8002],[12.4904,42.7983],[12.4897,42.7963],[12.4929,42.7941],[12.4931,42.7932],[12.4931,42.7855],[12.4895,42.7757],[12.4825,42.7662],[12.4852,42.7632],[12.4988,42.7546],[12.5075,42.7483],[12.5086,42.7466],[12.5023,42.7318],[12.4932,42.7347],[12.4909,42.7313],[12.4893,42.7268],[12.4815,42.7204],[12.4741,42.7157],[12.4625,42.7047],[12.4603,42.705],[12.4501,42.7023],[12.4398,42.6943],[12.4171,42.6804],[12.4156,42.6807],[12.4149,42.6857],[12.4138,42.6969],[12.4147,42.7006],[12.4108,42.7014],[12.4057,42.7009],[12.4016,42.6995],[12.3986,42.6926],[12.3993,42.6843],[12.3968,42.6772],[12.386,42.6733],[12.3841,42.678],[12.3824,42.6796],[12.3756,42.6841],[12.3687,42.6869],[12.3711,42.6918],[12.3691,42.701],[12.373,42.7036],[12.3753,42.7068],[12.3739,42.7116],[12.3727,42.7129],[12.3706,42.7128],[12.3645,42.7159],[12.3598,42.7192],[12.3488,42.7349],[12.3426,42.7388],[12.3344,42.7478],[12.3326,42.7509],[12.3246,42.7503],[12.3236,42.7466],[12.3224,42.7452],[12.3183,42.7415],[12.3156,42.7408],[12.3109,42.7457],[12.2973,42.7489],[12.2912,42.7674],[12.292,42.7773],[12.2908,42.7812],[12.3007,42.7815],[12.3016,42.7853],[12.3018,42.7909],[12.3039,42.7908],[12.3087,42.7931],[12.3154,42.7945],[12.3227,42.7912],[12.3345,42.7888],[12.3365,42.7895],[12.3483,42.8008],[12.3528,42.8164],[12.3674,42.8304],[12.3752,42.8328],[12.3829,42.8312],[12.3922,42.8332],[12.3993,42.8378],[12.4034,42.8428],[12.397,42.8536],[12.376,42.8614],[12.3752,42.8683],[12.377,42.8731],[12.3741,42.8799],[12.377,42.8827],[12.3916,42.8845],[12.397,42.8828],[12.4005,42.883],[12.4097,42.8847],[12.4198,42.8851],[12.4265,42.8811],[12.4235,42.8763],[12.421,42.8766],[12.4175,42.875],[12.416,42.8695],[12.4308,42.8601],[12.4329,42.8598],[12.4368,42.8614]]]}},{"type":"Feature","properties":{"i":"054053","n":"Torgiano"},"geometry":{"type":"Polygon","coordinates":[[[12.4974,43.0691],[12.4982,43.0678],[12.4967,43.0602],[12.4883,43.0495],[12.4866,43.0452],[12.4706,43.0416],[12.4651,43.0413],[12.4656,43.0347],[12.4669,43.0317],[12.4682,43.0126],[12.4644,43.0052],[12.4577,43.0029],[12.4556,42.9987],[12.4564,42.996],[12.4536,42.997],[12.4455,42.9954],[12.4408,42.9958],[12.4377,43.0],[12.4368,43.0041],[12.4271,43.0093],[12.4065,43.0164],[12.4066,43.0188],[12.4158,43.0272],[12.4139,43.0353],[12.4152,43.0362],[12.4197,43.0373],[12.4257,43.0376],[12.4312,43.0432],[12.4321,43.0455],[12.4276,43.0525],[12.4231,43.0545],[12.4246,43.0617],[12.4356,43.074],[12.4473,43.0831],[12.4485,43.0887],[12.453,43.0871],[12.4556,43.0823],[12.4622,43.0742],[12.467,43.0718],[12.4731,43.0706],[12.4974,43.0691]]]}},{"type":"Feature","properties":{"i":"054054","n":"Trevi"},"geometry":{"type":"Polygon","coordinates":[[[12.8114,42.9232],[12.8136,42.9196],[12.8121,42.914],[12.8031,42.9047],[12.808,42.8991],[12.8207,42.8956],[12.8236,42.8931],[12.8271,42.889],[12.8278,42.8852],[12.8271,42.8814],[12.8259,42.8782],[12.8054,42.8834],[12.7965,42.8785],[12.7936,42.8759],[12.7929,42.8741],[12.7998,42.8662],[12.8,42.8634],[12.7934,42.8537],[12.791,42.8516],[12.785,42.85],[12.7765,42.8506],[12.7575,42.8447],[12.7537,42.8425],[12.7478,42.8363],[12.748,42.834],[12.7428,42.8343],[12.74,42.8377],[12.7392,42.8405],[12.7346,42.8416],[12.728,42.8422],[12.7218,42.8367],[12.7169,42.837],[12.7163,42.8385],[12.7098,42.8434],[12.7064,42.8433],[12.6968,42.8407],[12.6938,42.8408],[12.6922,42.8419],[12.6917,42.8477],[12.6971,42.8573],[12.7004,42.8664],[12.7031,42.8935],[12.7019,42.9022],[12.6968,42.9076],[12.7034,42.9053],[12.7076,42.905],[12.7225,42.9074],[12.7389,42.9125],[12.7658,42.9224],[12.7782,42.9203],[12.7815,42.9174],[12.7859,42.9184],[12.7913,42.9212],[12.7926,42.9235],[12.7923,42.9259],[12.7962,42.9313],[12.8058,42.9338],[12.8069,42.9333],[12.8088,42.9267],[12.8114,42.9232]]]}},{"type":"Feature","properties":{"i":"054055","n":"Tuoro sul Trasimeno"},"geometry":{"type":"Polygon","coordinates":[[[12.0948,43.2372],[12.1094,43.2311],[12.117,43.2267],[12.1124,43.2212],[12.112,43.219],[12.1146,43.2144],[12.1152,43.2104],[12.1124,43.2028],[12.1054,43.1916],[12.0812,43.1452],[12.0239,43.1809],[12.0198,43.1852],[12.0234,43.1873],[12.0261,43.1903],[12.031,43.2066],[12.0355,43.2172],[12.039,43.2288],[12.0382,43.2367],[12.0358,43.2395],[12.0338,43.246],[12.044,43.251],[12.0496,43.2528],[12.0541,43.251],[12.0557,43.2495],[12.0698,43.2449],[12.0853,43.2364],[12.0915,43.2358],[12.0948,43.2372]]]}},{"type":"Feature","properties":{"i":"054056","n":"Umbertide"},"geometry":{"type":"MultiPolygon","coordinates":[[[[12.1832,43.3008],[12.1852,43.2944],[12.1773,43.282],[12.1764,43.2819],[12.1748,43.2844],[12.168,43.3023],[12.1832,43.3008]]],[[[12.3992,43.3475],[12.3966,43.3417],[12.3912,43.3396],[12.3873,43.337],[12.3875,43.335],[12.3898,43.3301],[12.3883,43.3245],[12.3816,43.318],[12.3831,43.3156],[12.3801,43.3094],[12.3762,43.3083],[12.3748,43.3046],[12.3739,43.2976],[12.3746,43.2968],[12.3816,43.2948],[12.3861,43.2948],[12.3959,43.3],[12.4119,43.3019],[12.4137,43.3013],[12.4147,43.2986],[12.414,43.2972],[12.4121,43.2964],[12.4104,43.2924],[12.4103,43.2885],[12.4114,43.2854],[12.4069,43.2821],[12.3939,43.2592],[12.3898,43.255],[12.3865,43.2556],[12.3797,43.253],[12.3762,43.2487],[12.3753,43.2437],[12.3785,43.2395],[12.3753,43.2342],[12.3714,43.2305],[12.3686,43.2301],[12.3602,43.2346],[12.3412,43.2472],[12.3318,43.2452],[12.317,43.2369],[12.3111,43.235],[12.2981,43.2371],[12.2956,43.2354],[12.2972,43.2269],[12.2992,43.2208],[12.304,43.2165],[12.3098,43.2144],[12.3152,43.2138],[12.3185,43.2112],[12.317,43.2062],[12.3095,43.2047],[12.3002,43.1995],[12.297,43.2004],[12.2845,43.2118],[12.2813,43.2121],[12.2765,43.2146],[12.2752,43.2193],[12.2793,43.2255],[12.2749,43.2251],[12.263,43.2217],[12.2535,43.2178],[12.2518,43.2156],[12.2502,43.2162],[12.2514,43.224],[12.2505,43.2287],[12.2483,43.2305],[12.2349,43.2253],[12.2315,43.2224],[12.2328,43.2196],[12.2287,43.2189],[12.2225,43.2211],[12.2184,43.2236],[12.1995,43.2276],[12.1964,43.2267],[12.1934,43.2303],[12.1957,43.2411],[12.1985,43.2621],[12.2061,43.274],[12.2074,43.2777],[12.2071,43.2816],[12.2101,43.2827],[12.2134,43.2867],[12.2219,43.2932],[12.2239,43.2958],[12.2197,43.2988],[12.2061,43.3048],[12.1951,43.3142],[12.1938,43.3131],[12.1927,43.3145],[12.1908,43.323],[12.2081,43.3351],[12.2186,43.3411],[12.2193,43.3449],[12.2222,43.3506],[12.2274,43.358],[12.2371,43.3611],[12.258,43.355],[12.2711,43.355],[12.2749,43.3522],[12.2905,43.3504],[12.2931,43.3472],[12.2936,43.3439],[12.2948,43.3432],[12.303,43.3428],[12.3073,43.3434],[12.3097,43.3452],[12.3123,43.3405],[12.3077,43.3308],[12.3025,43.3231],[12.3009,43.3228],[12.2994,43.3201],[12.3026,43.3158],[12.3129,43.3188],[12.323,43.324],[12.326,43.3228],[12.3335,43.3224],[12.3527,43.3307],[12.3567,43.3308],[12.3726,43.362],[12.3765,43.3615],[12.3843,43.3553],[12.3901,43.3535],[12.3992,43.3475]]]]}},{"type":"Feature","properties":{"i":"054057","n":"Valfabbrica"},"geometry":{"type":"Polygon","coordinates":[[[12.713,43.1624],[12.7063,43.1616],[12.6985,43.1565],[12.6958,43.1537],[12.6859,43.1555],[12.6793,43.1582],[12.6709,43.1579],[12.6625,43.1545],[12.637,43.1514],[12.6347,43.1466],[12.6342,43.144],[12.6347,43.1421],[12.63,43.1388],[12.5965,43.1283],[12.5862,43.1312],[12.5637,43.1413],[12.5637,43.149],[12.5538,43.1582],[12.552,43.1639],[12.5543,43.1706],[12.5619,43.1757],[12.5579,43.1865],[12.5583,43.2003],[12.5625,43.2019],[12.5652,43.2016],[12.5692,43.2004],[12.5798,43.1947],[12.5829,43.194],[12.5881,43.1943],[12.5902,43.1962],[12.5928,43.202],[12.5913,43.2024],[12.5918,43.2032],[12.6033,43.2037],[12.6089,43.201],[12.6134,43.2011],[12.6282,43.2081],[12.6337,43.2117],[12.6382,43.2188],[12.6504,43.2295],[12.6571,43.2402],[12.6603,43.239],[12.6634,43.2358],[12.6717,43.2307],[12.6767,43.2317],[12.6812,43.2262],[12.6897,43.2203],[12.697,43.2196],[12.7021,43.2155],[12.7045,43.2111],[12.7037,43.2088],[12.7077,43.2038],[12.7089,43.2034],[12.7094,43.1998],[12.7084,43.1984],[12.7001,43.1937],[12.6989,43.1907],[12.701,43.1898],[12.7059,43.1893],[12.7074,43.191],[12.7085,43.1909],[12.7123,43.1897],[12.713,43.1888],[12.7137,43.1855],[12.7061,43.1792],[12.7074,43.1674],[12.7081,43.1657],[12.713,43.1624]]]}},{"type":"Feature","properties":{"i":"054058","n":"Vallo di Nera"},"geometry":{"type":"Polygon","coordinates":[[[12.9043,42.7582],[12.9044,42.7546],[12.9021,42.7529],[12.8912,42.7346],[12.888,42.7326],[12.8838,42.735],[12.8749,42.7329],[12.8647,42.7385],[12.8562,42.749],[12.8515,42.7532],[12.8367,42.7628],[12.8348,42.7647],[12.8332,42.7674],[12.8341,42.7763],[12.8306,42.7822],[12.8272,42.7859],[12.828,42.7907],[12.8417,42.7941],[12.8454,42.8018],[12.8464,42.8061],[12.8463,42.8085],[12.8428,42.8096],[12.8505,42.8126],[12.8601,42.8206],[12.8628,42.8212],[12.8691,42.8178],[12.883,42.8153],[12.8907,42.8097],[12.8921,42.8043],[12.8889,42.7875],[12.8901,42.7781],[12.8856,42.7785],[12.8841,42.7766],[12.8855,42.7669],[12.886,42.766],[12.8928,42.7639],[12.9043,42.7582]]]}},{"type":"Feature","properties":{"i":"054059","n":"Valtopina"},"geometry":{"type":"Polygon","coordinates":[[[12.7972,43.0721],[12.7953,43.0681],[12.7965,43.0629],[12.8008,43.0601],[12.8065,43.0537],[12.804,43.0507],[12.8002,43.0488],[12.7969,43.0457],[12.7953,43.0339],[12.7957,43.029],[12.7851,43.0256],[12.7816,43.0251],[12.7654,43.0279],[12.7602,43.0308],[12.7595,43.0343],[12.756,43.0388],[12.7539,43.0402],[12.7308,43.0361],[12.7239,43.0337],[12.7217,43.04],[12.7166,43.0438],[12.7168,43.0492],[12.7191,43.0535],[12.716,43.0578],[12.7143,43.0584],[12.7119,43.0635],[12.712,43.0712],[12.7202,43.075],[12.7255,43.0803],[12.7263,43.0823],[12.7245,43.0832],[12.7169,43.0841],[12.7141,43.0897],[12.7137,43.0941],[12.7191,43.103],[12.7214,43.1007],[12.7428,43.0937],[12.7463,43.0901],[12.7532,43.0864],[12.7578,43.0821],[12.7615,43.0742],[12.764,43.0791],[12.7673,43.0807],[12.7812,43.0828],[12.7888,43.082],[12.7928,43.0801],[12.7948,43.0749],[12.7972,43.0721]]]}}]}
