{"type":"FeatureCollection","fonte":"Confini comunali ISTAT via openpolis/geojson-italy — CC BY 4.0","features":[{"type":"Feature","properties":{"i":"050001","n":"Bientina"},"geometry":{"type":"Polygon","coordinates":[[[10.6678,43.7495],[10.6683,43.7456],[10.6664,43.7384],[10.6672,43.7314],[10.6712,43.7262],[10.6709,43.7222],[10.6681,43.713],[10.6608,43.7079],[10.658,43.7036],[10.6578,43.7019],[10.6593,43.6981],[10.6577,43.6936],[10.656,43.6913],[10.6538,43.6903],[10.6465,43.6907],[10.6454,43.6944],[10.6269,43.6886],[10.6244,43.6887],[10.6197,43.7023],[10.6176,43.7062],[10.6156,43.7072],[10.6106,43.7058],[10.6118,43.71],[10.6147,43.7122],[10.6169,43.7154],[10.6176,43.7193],[10.6242,43.724],[10.6293,43.7338],[10.6203,43.7342],[10.6188,43.7561],[10.6227,43.7567],[10.6363,43.7742],[10.6459,43.7959],[10.6462,43.7773],[10.6453,43.7743],[10.6468,43.7645],[10.6493,43.757],[10.6544,43.7511],[10.6603,43.751],[10.6678,43.7495]]]}},{"type":"Feature","properties":{"i":"050002","n":"Buti"},"geometry":{"type":"Polygon","coordinates":[[[10.6188,43.7561],[10.6203,43.7342],[10.6293,43.7338],[10.6242,43.724],[10.6176,43.7193],[10.6166,43.7223],[10.6072,43.7197],[10.6005,43.7164],[10.5923,43.7168],[10.5774,43.7192],[10.5646,43.7175],[10.5599,43.7177],[10.5571,43.7191],[10.5566,43.7238],[10.5498,43.7337],[10.5548,43.744],[10.5554,43.748],[10.554,43.7497],[10.5601,43.7525],[10.5896,43.7601],[10.5964,43.7609],[10.597,43.7592],[10.6089,43.7555],[10.6143,43.7553],[10.6188,43.7561]]]}},{"type":"Feature","properties":{"i":"050003","n":"Calci"},"geometry":{"type":"Polygon","coordinates":[[[10.554,43.7497],[10.5554,43.748],[10.5548,43.744],[10.5498,43.7337],[10.5566,43.7238],[10.5573,43.7182],[10.5565,43.7162],[10.5542,43.7131],[10.5517,43.7115],[10.5299,43.7042],[10.5292,43.7027],[10.5256,43.7008],[10.5227,43.6999],[10.5132,43.7044],[10.5058,43.7089],[10.5057,43.7101],[10.5072,43.7124],[10.4986,43.7147],[10.4847,43.7252],[10.4878,43.7278],[10.5026,43.7362],[10.5046,43.7444],[10.5021,43.7486],[10.5009,43.7533],[10.508,43.7559],[10.5261,43.7616],[10.5484,43.7541],[10.5529,43.7519],[10.554,43.7497]]]}},{"type":"Feature","properties":{"i":"050004","n":"Calcinaia"},"geometry":{"type":"Polygon","coordinates":[[[10.6465,43.6907],[10.647,43.6886],[10.6515,43.6849],[10.6517,43.684],[10.6483,43.6815],[10.6427,43.6795],[10.6389,43.6763],[10.6332,43.6663],[10.628,43.6657],[10.6244,43.6674],[10.6234,43.6694],[10.6059,43.6738],[10.6029,43.6678],[10.6039,43.6674],[10.6047,43.6647],[10.6034,43.6584],[10.5984,43.656],[10.5977,43.6567],[10.5981,43.6579],[10.5954,43.6611],[10.5902,43.6644],[10.5714,43.6695],[10.5685,43.6748],[10.571,43.6749],[10.5731,43.6758],[10.5764,43.6821],[10.5794,43.6842],[10.5867,43.6842],[10.5979,43.6814],[10.6042,43.6889],[10.6099,43.7025],[10.6124,43.7055],[10.6151,43.7072],[10.6174,43.7065],[10.619,43.7037],[10.6249,43.6884],[10.6454,43.6944],[10.6465,43.6907]]]}},{"type":"Feature","properties":{"i":"050005","n":"Capannoli"},"geometry":{"type":"Polygon","coordinates":[[[10.6841,43.6116],[10.6898,43.6077],[10.6968,43.6015],[10.7041,43.5919],[10.7214,43.5805],[10.695,43.5807],[10.6895,43.5768],[10.6892,43.5723],[10.6842,43.5697],[10.6836,43.568],[10.6695,43.5562],[10.6637,43.5526],[10.6612,43.5519],[10.6596,43.5521],[10.6572,43.554],[10.657,43.5581],[10.6535,43.5671],[10.6415,43.571],[10.6309,43.5733],[10.6341,43.5862],[10.6319,43.5913],[10.6322,43.5933],[10.6538,43.5929],[10.6568,43.5943],[10.6661,43.6044],[10.6664,43.6086],[10.6633,43.6128],[10.6598,43.6128],[10.661,43.6153],[10.6738,43.6136],[10.675,43.6117],[10.6794,43.6099],[10.6841,43.6116]]]}},{"type":"Feature","properties":{"i":"050006","n":"Casale Marittimo"},"geometry":{"type":"Polygon","coordinates":[[[10.6571,43.2923],[10.6518,43.2835],[10.615,43.2828],[10.6012,43.2858],[10.582,43.2912],[10.5663,43.2973],[10.563,43.3012],[10.5618,43.3083],[10.5693,43.3081],[10.5848,43.3055],[10.5935,43.3058],[10.6233,43.3034],[10.6344,43.3034],[10.6527,43.2991],[10.6556,43.2978],[10.6571,43.2923]]]}},{"type":"Feature","properties":{"i":"050008","n":"Cascina"},"geometry":{"type":"Polygon","coordinates":[[[10.4973,43.7125],[10.5002,43.7083],[10.5007,43.7057],[10.5001,43.7012],[10.5021,43.6985],[10.508,43.6955],[10.5241,43.6917],[10.5258,43.6902],[10.5283,43.6839],[10.5298,43.6826],[10.5365,43.6817],[10.5548,43.684],[10.5609,43.6822],[10.564,43.6799],[10.5685,43.6748],[10.5714,43.6695],[10.5721,43.6666],[10.578,43.6579],[10.5776,43.6498],[10.5745,43.6423],[10.5707,43.6419],[10.5586,43.628],[10.5323,43.631],[10.5024,43.6286],[10.5004,43.6299],[10.4896,43.6328],[10.479,43.6337],[10.4704,43.6344],[10.4373,43.6341],[10.4318,43.6322],[10.4114,43.6176],[10.4105,43.6178],[10.4092,43.6206],[10.4109,43.6257],[10.4144,43.6306],[10.4407,43.6507],[10.4382,43.6581],[10.438,43.6615],[10.4456,43.6791],[10.4554,43.6939],[10.4547,43.6995],[10.4489,43.7032],[10.4452,43.7082],[10.4454,43.7148],[10.4471,43.7183],[10.4526,43.7214],[10.4595,43.722],[10.4627,43.7219],[10.4685,43.719],[10.4705,43.7166],[10.4713,43.7134],[10.4706,43.7113],[10.4681,43.7076],[10.4684,43.7021],[10.4701,43.6992],[10.4735,43.6979],[10.477,43.6981],[10.4801,43.6996],[10.4875,43.7092],[10.492,43.7133],[10.4952,43.7138],[10.4973,43.7125]]]}},{"type":"Feature","properties":{"i":"050009","n":"Castelfranco di Sotto"},"geometry":{"type":"Polygon","coordinates":[[[10.7111,43.7864],[10.7161,43.7758],[10.7277,43.765],[10.7357,43.756],[10.7401,43.7529],[10.7475,43.7509],[10.7543,43.7457],[10.75,43.7387],[10.7475,43.7376],[10.7459,43.7315],[10.752,43.7178],[10.7557,43.7127],[10.7664,43.7014],[10.7691,43.7003],[10.7629,43.6927],[10.7561,43.6926],[10.7305,43.6953],[10.7244,43.694],[10.7249,43.6953],[10.7241,43.6963],[10.7195,43.6989],[10.71,43.7064],[10.7218,43.7161],[10.7166,43.7264],[10.7159,43.733],[10.713,43.7371],[10.6972,43.7482],[10.6913,43.7513],[10.6803,43.7535],[10.6678,43.7495],[10.6603,43.751],[10.6544,43.7511],[10.6511,43.7543],[10.6491,43.7575],[10.6468,43.7645],[10.6453,43.7743],[10.6462,43.7773],[10.6459,43.7959],[10.6536,43.8014],[10.6671,43.8049],[10.6834,43.8019],[10.6863,43.8025],[10.6925,43.8009],[10.6988,43.7969],[10.7111,43.7864]],[[10.6951,43.7636],[10.6905,43.7607],[10.6835,43.7545],[10.6982,43.75],[10.7025,43.7516],[10.7238,43.7512],[10.7237,43.754],[10.7163,43.7754],[10.7102,43.7772],[10.703,43.7679],[10.6989,43.7648],[10.6951,43.7636]]]}},{"type":"Feature","properties":{"i":"050010","n":"Castellina Marittima"},"geometry":{"type":"Polygon","coordinates":[[[10.5851,43.4303],[10.5899,43.4185],[10.6106,43.4049],[10.6107,43.4016],[10.6096,43.3999],[10.6086,43.3993],[10.6005,43.3997],[10.5912,43.3908],[10.577,43.38],[10.5653,43.3745],[10.5531,43.371],[10.5456,43.3711],[10.54,43.3678],[10.5306,43.3679],[10.5147,43.3621],[10.5098,43.3624],[10.5084,43.3638],[10.5028,43.3771],[10.4998,43.3876],[10.5006,43.3921],[10.4988,43.3953],[10.4906,43.4026],[10.49,43.404],[10.4906,43.4057],[10.5014,43.4149],[10.5019,43.4199],[10.5154,43.4221],[10.532,43.4182],[10.5497,43.4242],[10.567,43.4314],[10.5776,43.4322],[10.5851,43.4303]]]}},{"type":"Feature","properties":{"i":"050011","n":"Castelnuovo di Val di Cecina"},"geometry":{"type":"MultiPolygon","coordinates":[[[[10.932,43.2362],[10.9272,43.2311],[10.9387,43.227],[10.9417,43.2157],[10.9414,43.204],[10.9394,43.2002],[10.932,43.1946],[10.9237,43.1911],[10.9109,43.1804],[10.9086,43.1725],[10.9083,43.1646],[10.9115,43.1626],[10.9087,43.1598],[10.8953,43.1612],[10.8762,43.1573],[10.8661,43.1571],[10.8554,43.1588],[10.8448,43.1649],[10.8395,43.1639],[10.8415,43.1605],[10.8402,43.1583],[10.818,43.1513],[10.8145,43.1551],[10.815,43.1566],[10.8082,43.1616],[10.8005,43.1626],[10.796,43.1609],[10.8132,43.1835],[10.8297,43.2004],[10.8326,43.2044],[10.8348,43.2098],[10.846,43.2142],[10.882,43.2151],[10.8879,43.2178],[10.8865,43.2275],[10.8872,43.2295],[10.8925,43.2335],[10.9053,43.2379],[10.9214,43.2395],[10.932,43.2362]]],[[[10.9521,43.302],[10.9613,43.2989],[10.9706,43.2968],[10.9843,43.2884],[10.9853,43.2854],[10.984,43.2837],[10.984,43.2807],[10.9935,43.267],[10.9937,43.259],[10.9912,43.2456],[10.9933,43.2425],[10.9954,43.241],[10.9961,43.239],[10.9936,43.2348],[10.9898,43.232],[10.9781,43.2325],[10.9585,43.2363],[10.9523,43.2397],[10.943,43.2464],[10.9426,43.2546],[10.941,43.2611],[10.944,43.2706],[10.9424,43.2846],[10.9446,43.2915],[10.9511,43.2997],[10.9521,43.302]]]]}},{"type":"Feature","properties":{"i":"050012","n":"Chianni"},"geometry":{"type":"Polygon","coordinates":[[[10.7142,43.4897],[10.7134,43.485],[10.7085,43.4796],[10.7059,43.4778],[10.6828,43.4679],[10.6738,43.4596],[10.6729,43.4553],[10.6667,43.4412],[10.6617,43.4352],[10.6608,43.4327],[10.6447,43.4303],[10.6345,43.4259],[10.6294,43.4202],[10.6283,43.4155],[10.6252,43.4126],[10.6161,43.4071],[10.6106,43.4049],[10.5899,43.4185],[10.5851,43.4303],[10.5873,43.4297],[10.5917,43.4307],[10.5949,43.4367],[10.5953,43.4391],[10.5905,43.4469],[10.5918,43.4488],[10.5981,43.454],[10.6027,43.4566],[10.6039,43.4779],[10.6014,43.4829],[10.6065,43.4853],[10.6178,43.4966],[10.6336,43.5062],[10.6388,43.5086],[10.6539,43.5126],[10.656,43.5158],[10.6554,43.5178],[10.6572,43.5163],[10.658,43.5095],[10.6611,43.5066],[10.665,43.5061],[10.6755,43.5083],[10.6816,43.5074],[10.682,43.5063],[10.6809,43.5052],[10.6832,43.4981],[10.6896,43.4901],[10.6912,43.4891],[10.6944,43.488],[10.6989,43.4879],[10.7142,43.4897]]]}},{"type":"Feature","properties":{"i":"050014","n":"Fauglia"},"geometry":{"type":"Polygon","coordinates":[[[10.5026,43.5121],[10.4931,43.5097],[10.4837,43.5137],[10.479,43.5181],[10.4739,43.5196],[10.4715,43.5213],[10.4676,43.528],[10.4643,43.5398],[10.4653,43.5428],[10.4774,43.553],[10.4794,43.5575],[10.4797,43.5607],[10.4751,43.571],[10.4752,43.584],[10.4857,43.5864],[10.4901,43.5916],[10.4895,43.5996],[10.4903,43.6045],[10.4923,43.6045],[10.4971,43.6084],[10.4987,43.6117],[10.4967,43.6152],[10.4974,43.6191],[10.5004,43.6242],[10.5036,43.6258],[10.5086,43.6233],[10.515,43.6166],[10.5168,43.611],[10.5264,43.5993],[10.5345,43.5799],[10.5381,43.5657],[10.5373,43.5587],[10.5268,43.5541],[10.5159,43.5529],[10.512,43.5501],[10.5118,43.5492],[10.5141,43.5454],[10.5176,43.5425],[10.5177,43.5369],[10.5159,43.5304],[10.5136,43.5255],[10.5026,43.5121]]]}},{"type":"Feature","properties":{"i":"050015","n":"Guardistallo"},"geometry":{"type":"Polygon","coordinates":[[[10.6844,43.3008],[10.6793,43.2961],[10.669,43.2915],[10.6615,43.2908],[10.6571,43.2923],[10.6562,43.2975],[10.6534,43.2988],[10.6344,43.3034],[10.6233,43.3034],[10.5935,43.3058],[10.5848,43.3055],[10.5693,43.3081],[10.5484,43.3099],[10.5506,43.3134],[10.5594,43.3199],[10.5755,43.3234],[10.5807,43.3219],[10.5918,43.3212],[10.5994,43.3225],[10.6108,43.3224],[10.6247,43.3194],[10.636,43.3206],[10.6466,43.3245],[10.647,43.3314],[10.6462,43.334],[10.6482,43.3342],[10.6653,43.3294],[10.6682,43.3278],[10.674,43.3223],[10.6763,43.3174],[10.6769,43.3103],[10.6797,43.3052],[10.6844,43.3008]]]}},{"type":"Feature","properties":{"i":"050016","n":"Lajatico"},"geometry":{"type":"Polygon","coordinates":[[[10.7701,43.4787],[10.7699,43.4756],[10.7706,43.4741],[10.7888,43.4575],[10.7907,43.4523],[10.7889,43.4438],[10.7911,43.4395],[10.7937,43.4368],[10.7894,43.4309],[10.7869,43.4288],[10.7764,43.4279],[10.7724,43.4265],[10.7725,43.4237],[10.7421,43.4182],[10.7272,43.4129],[10.7053,43.4114],[10.6967,43.4112],[10.6929,43.4119],[10.6886,43.4142],[10.6846,43.4143],[10.6651,43.4111],[10.6621,43.4129],[10.6549,43.4208],[10.6577,43.4301],[10.6608,43.4327],[10.6617,43.4352],[10.6667,43.4412],[10.6729,43.4553],[10.6738,43.4596],[10.6828,43.4679],[10.7059,43.4778],[10.7134,43.485],[10.7143,43.4883],[10.7133,43.492],[10.7161,43.4946],[10.7215,43.4975],[10.7228,43.5028],[10.7223,43.5062],[10.7229,43.5111],[10.7249,43.5197],[10.7281,43.518],[10.7337,43.513],[10.7363,43.5089],[10.7401,43.4996],[10.744,43.4926],[10.7539,43.485],[10.7604,43.4811],[10.7641,43.4834],[10.7689,43.4832],[10.7707,43.4803],[10.7701,43.4787]]]}},{"type":"Feature","properties":{"i":"050019","n":"Montecatini Val di Cecina"},"geometry":{"type":"Polygon","coordinates":[[[10.7725,43.4237],[10.7758,43.4054],[10.7877,43.4024],[10.7928,43.3989],[10.7971,43.3836],[10.8004,43.3774],[10.806,43.3695],[10.8054,43.3651],[10.8033,43.3587],[10.8002,43.3564],[10.7954,43.3551],[10.7914,43.3562],[10.786,43.3548],[10.7722,43.3455],[10.7422,43.3333],[10.7404,43.3317],[10.7423,43.3283],[10.747,43.3242],[10.7547,43.3212],[10.7611,43.3163],[10.7619,43.3147],[10.763,43.3044],[10.7623,43.3011],[10.7555,43.2916],[10.7534,43.2898],[10.749,43.2799],[10.7314,43.2754],[10.727,43.2695],[10.728,43.2549],[10.7295,43.2481],[10.7343,43.242],[10.739,43.2389],[10.7389,43.2345],[10.7366,43.2332],[10.7347,43.2346],[10.7304,43.2359],[10.7264,43.2362],[10.7187,43.24],[10.6862,43.2466],[10.672,43.2469],[10.6673,43.2553],[10.667,43.2651],[10.6694,43.2674],[10.6802,43.2744],[10.6865,43.2768],[10.6896,43.2769],[10.6964,43.2807],[10.6982,43.2923],[10.697,43.2947],[10.6844,43.3008],[10.6797,43.3052],[10.6769,43.3103],[10.6764,43.3168],[10.6754,43.3197],[10.674,43.3223],[10.6682,43.3278],[10.6653,43.3294],[10.6482,43.3342],[10.6462,43.334],[10.6409,43.338],[10.6443,43.3384],[10.647,43.3399],[10.6467,43.3422],[10.6478,43.3466],[10.6561,43.3607],[10.6564,43.3733],[10.6545,43.3768],[10.6531,43.3825],[10.6519,43.3977],[10.6487,43.4034],[10.6438,43.4068],[10.6486,43.4157],[10.6549,43.4208],[10.6621,43.4129],[10.6651,43.4111],[10.6846,43.4143],[10.6886,43.4142],[10.6929,43.4119],[10.6967,43.4112],[10.7053,43.4114],[10.7272,43.4129],[10.7421,43.4182],[10.7725,43.4237]]]}},{"type":"Feature","properties":{"i":"050020","n":"Montescudaio"},"geometry":{"type":"Polygon","coordinates":[[[10.6409,43.338],[10.6466,43.3335],[10.6471,43.3252],[10.646,43.324],[10.6426,43.3227],[10.631,43.3198],[10.6247,43.3194],[10.6102,43.3224],[10.5994,43.3225],[10.5918,43.3212],[10.5807,43.3219],[10.5755,43.3234],[10.5594,43.3199],[10.5506,43.3134],[10.5484,43.3099],[10.5405,43.3131],[10.5319,43.3236],[10.535,43.3263],[10.5485,43.3331],[10.5618,43.3433],[10.5685,43.3465],[10.5701,43.3461],[10.5707,43.343],[10.5751,43.3378],[10.5795,43.3363],[10.5974,43.3402],[10.6013,43.3433],[10.6119,43.3457],[10.6207,43.3396],[10.624,43.3389],[10.6251,43.3397],[10.6239,43.3454],[10.6256,43.3475],[10.6278,43.3481],[10.6397,43.3425],[10.6408,43.3408],[10.6409,43.338]]]}},{"type":"Feature","properties":{"i":"050021","n":"Monteverdi Marittimo"},"geometry":{"type":"Polygon","coordinates":[[[10.7366,43.2332],[10.7408,43.231],[10.7465,43.2317],[10.7496,43.2298],[10.7674,43.2133],[10.7704,43.212],[10.7755,43.2071],[10.7695,43.1887],[10.7704,43.1852],[10.772,43.1826],[10.7739,43.1668],[10.7695,43.1603],[10.7649,43.156],[10.7638,43.1527],[10.7601,43.1529],[10.7554,43.1501],[10.7499,43.137],[10.7508,43.1334],[10.7506,43.1272],[10.7475,43.1228],[10.7354,43.1201],[10.7351,43.118],[10.7303,43.1136],[10.7234,43.1116],[10.7175,43.1088],[10.7149,43.1141],[10.72,43.1205],[10.7175,43.1244],[10.7035,43.1239],[10.6947,43.1298],[10.689,43.1427],[10.6735,43.1427],[10.6663,43.1441],[10.6631,43.1458],[10.6608,43.1498],[10.665,43.1579],[10.6632,43.1726],[10.659,43.1733],[10.6492,43.1716],[10.6485,43.1727],[10.6474,43.1827],[10.6449,43.1863],[10.6432,43.1909],[10.6448,43.1921],[10.6621,43.1955],[10.6749,43.1936],[10.6813,43.1967],[10.6877,43.2032],[10.6904,43.2084],[10.6877,43.2194],[10.6894,43.2215],[10.6903,43.2242],[10.68,43.2247],[10.6706,43.222],[10.6625,43.2278],[10.6621,43.2295],[10.6627,43.2303],[10.6684,43.232],[10.6702,43.235],[10.6684,43.2404],[10.6662,43.2437],[10.6679,43.2467],[10.6862,43.2466],[10.7187,43.24],[10.7264,43.2362],[10.7304,43.2359],[10.7347,43.2346],[10.7366,43.2332]]]}},{"type":"Feature","properties":{"i":"050022","n":"Montopoli in Val d'Arno"},"geometry":{"type":"Polygon","coordinates":[[[10.7629,43.6927],[10.7651,43.6919],[10.767,43.688],[10.7755,43.6561],[10.7754,43.6533],[10.7716,43.6434],[10.7659,43.6453],[10.7456,43.6374],[10.739,43.6367],[10.7262,43.6424],[10.7232,43.6492],[10.719,43.646],[10.7189,43.645],[10.7175,43.6448],[10.7096,43.6447],[10.7057,43.6465],[10.7043,43.6572],[10.7016,43.6641],[10.6938,43.67],[10.6974,43.6742],[10.7125,43.6856],[10.7166,43.6902],[10.7226,43.6935],[10.7298,43.6953],[10.7561,43.6926],[10.7629,43.6927]]]}},{"type":"Feature","properties":{"i":"050023","n":"Orciano Pisano"},"geometry":{"type":"Polygon","coordinates":[[[10.5026,43.5121],[10.5142,43.5026],[10.523,43.5007],[10.5271,43.4983],[10.523,43.4911],[10.5162,43.4828],[10.5026,43.4767],[10.49,43.4727],[10.4836,43.4888],[10.4738,43.5048],[10.4744,43.5132],[10.479,43.5181],[10.4837,43.5137],[10.4931,43.5097],[10.5026,43.5121]]]}},{"type":"Feature","properties":{"i":"050024","n":"Palaia"},"geometry":{"type":"Polygon","coordinates":[[[10.7716,43.6434],[10.7735,43.6414],[10.7815,43.6402],[10.8043,43.6257],[10.8095,43.6241],[10.8141,43.6204],[10.8178,43.6153],[10.8303,43.6104],[10.8344,43.6046],[10.8331,43.5998],[10.8343,43.5944],[10.8385,43.5909],[10.8404,43.586],[10.8403,43.5798],[10.8364,43.574],[10.831,43.5721],[10.8124,43.5768],[10.805,43.5763],[10.7861,43.5841],[10.7778,43.582],[10.77,43.578],[10.7582,43.5664],[10.7527,43.5623],[10.7431,43.5599],[10.7331,43.5604],[10.7294,43.5617],[10.7234,43.5726],[10.723,43.5758],[10.724,43.5787],[10.7041,43.5919],[10.6968,43.6015],[10.6898,43.6077],[10.6841,43.6116],[10.6905,43.6171],[10.7002,43.6181],[10.7049,43.6204],[10.7058,43.623],[10.7029,43.6311],[10.7031,43.6394],[10.7041,43.6437],[10.7057,43.6465],[10.7096,43.6447],[10.7175,43.6448],[10.7189,43.645],[10.719,43.646],[10.7232,43.6492],[10.7262,43.6424],[10.739,43.6367],[10.7456,43.6374],[10.7659,43.6453],[10.7716,43.6434]]]}},{"type":"Feature","properties":{"i":"050025","n":"Peccioli"},"geometry":{"type":"Polygon","coordinates":[[[10.831,43.5721],[10.8306,43.5699],[10.8324,43.5681],[10.8396,43.568],[10.8439,43.567],[10.8485,43.5627],[10.8461,43.5598],[10.8412,43.557],[10.834,43.5555],[10.8306,43.5511],[10.8253,43.5407],[10.8257,43.5367],[10.8311,43.5274],[10.8338,43.5239],[10.8391,43.521],[10.8458,43.5107],[10.8465,43.5083],[10.8446,43.5039],[10.8402,43.4999],[10.8382,43.4963],[10.8388,43.4956],[10.8378,43.4952],[10.831,43.4939],[10.82,43.4958],[10.8132,43.4957],[10.806,43.4939],[10.7997,43.4913],[10.7988,43.4886],[10.7992,43.4875],[10.7948,43.4841],[10.7842,43.4789],[10.777,43.4771],[10.7719,43.4775],[10.7701,43.4787],[10.7707,43.4803],[10.7689,43.4832],[10.7641,43.4834],[10.7604,43.4811],[10.7539,43.485],[10.744,43.4926],[10.7401,43.4996],[10.7363,43.5089],[10.7332,43.5136],[10.7281,43.518],[10.7186,43.5243],[10.71,43.5251],[10.7092,43.5266],[10.7091,43.5337],[10.714,43.5419],[10.7084,43.5495],[10.702,43.5614],[10.6948,43.5672],[10.6901,43.567],[10.6885,43.5702],[10.6895,43.5768],[10.695,43.5807],[10.7214,43.5805],[10.724,43.5787],[10.7229,43.5739],[10.7294,43.5617],[10.7331,43.5604],[10.7431,43.5599],[10.7527,43.5623],[10.7582,43.5664],[10.77,43.578],[10.7778,43.582],[10.7861,43.5841],[10.805,43.5763],[10.8124,43.5768],[10.831,43.5721]]]}},{"type":"Feature","properties":{"i":"050026","n":"Pisa"},"geometry":{"type":"Polygon","coordinates":[[[10.4453,43.7109],[10.4452,43.7082],[10.4466,43.7057],[10.4489,43.7032],[10.4547,43.6995],[10.4554,43.6939],[10.4456,43.6791],[10.438,43.6615],[10.4382,43.6581],[10.4407,43.6507],[10.4144,43.6306],[10.4109,43.6257],[10.4092,43.6206],[10.3782,43.6098],[10.3657,43.6038],[10.3062,43.5862],[10.2982,43.5812],[10.2957,43.5851],[10.2935,43.5906],[10.2903,43.6025],[10.2877,43.6177],[10.2869,43.6346],[10.2853,43.6433],[10.2804,43.6581],[10.2716,43.6714],[10.2697,43.6769],[10.2735,43.6793],[10.2772,43.6795],[10.2802,43.6814],[10.2828,43.6885],[10.2802,43.7031],[10.2769,43.7137],[10.2769,43.7346],[10.2776,43.7375],[10.2745,43.7505],[10.2736,43.7517],[10.2781,43.7478],[10.2811,43.7473],[10.2871,43.7481],[10.2919,43.7499],[10.2992,43.7505],[10.3023,43.748],[10.3044,43.7447],[10.3043,43.7436],[10.3076,43.7393],[10.3125,43.7347],[10.3172,43.7317],[10.325,43.7295],[10.3274,43.7298],[10.3288,43.7311],[10.3567,43.7355],[10.3892,43.7393],[10.3992,43.7395],[10.4208,43.7373],[10.418,43.7245],[10.4249,43.719],[10.4421,43.7113],[10.4453,43.7109]]]}},{"type":"Feature","properties":{"i":"050027","n":"Pomarance"},"geometry":{"type":"Polygon","coordinates":[[[10.7954,43.3551],[10.799,43.352],[10.8159,43.3504],[10.8317,43.3467],[10.8348,43.3449],[10.8362,43.3401],[10.8446,43.335],[10.882,43.3338],[10.8879,43.3303],[10.8972,43.3208],[10.903,43.3177],[10.9117,43.3172],[10.9186,43.3145],[10.922,43.3122],[10.9237,43.3093],[10.9294,43.3049],[10.9353,43.3044],[10.9418,43.3066],[10.9492,43.3045],[10.9521,43.302],[10.9511,43.2997],[10.9446,43.2915],[10.9424,43.2846],[10.944,43.2706],[10.941,43.2611],[10.9426,43.2546],[10.943,43.2464],[10.9395,43.2452],[10.9328,43.2388],[10.932,43.2362],[10.9214,43.2395],[10.9053,43.2379],[10.8925,43.2335],[10.8872,43.2295],[10.8865,43.2275],[10.8879,43.2178],[10.882,43.2151],[10.846,43.2142],[10.8348,43.2098],[10.8326,43.2044],[10.8297,43.2004],[10.8132,43.1835],[10.796,43.1609],[10.7691,43.1436],[10.7673,43.1431],[10.7636,43.1464],[10.7629,43.1503],[10.7649,43.156],[10.7695,43.1603],[10.7739,43.1668],[10.772,43.1826],[10.7704,43.1852],[10.7695,43.1887],[10.7755,43.2071],[10.7704,43.212],[10.7674,43.2133],[10.7496,43.2298],[10.7465,43.2317],[10.7408,43.231],[10.7366,43.2332],[10.7391,43.235],[10.739,43.2389],[10.7343,43.242],[10.7295,43.2481],[10.728,43.2549],[10.727,43.2695],[10.7314,43.2754],[10.749,43.2799],[10.7534,43.2898],[10.7555,43.2916],[10.7623,43.3011],[10.763,43.3044],[10.7619,43.3147],[10.7611,43.3163],[10.7547,43.3212],[10.747,43.3242],[10.7423,43.3283],[10.7404,43.3317],[10.7422,43.3333],[10.7722,43.3455],[10.786,43.3548],[10.7914,43.3562],[10.7954,43.3551]]]}},{"type":"Feature","properties":{"i":"050028","n":"Ponsacco"},"geometry":{"type":"Polygon","coordinates":[[[10.6598,43.6128],[10.6633,43.6128],[10.6664,43.6086],[10.6661,43.6044],[10.6558,43.5937],[10.6538,43.5929],[10.6358,43.593],[10.6327,43.5936],[10.6322,43.5906],[10.6163,43.5914],[10.6135,43.5938],[10.6115,43.5977],[10.6141,43.6045],[10.6185,43.6092],[10.6205,43.6144],[10.6159,43.6176],[10.604,43.6224],[10.6006,43.6251],[10.6049,43.633],[10.6079,43.6346],[10.6192,43.6387],[10.6279,43.638],[10.6352,43.6423],[10.6425,43.6439],[10.6501,43.6418],[10.6611,43.6287],[10.6464,43.619],[10.646,43.6178],[10.6493,43.6127],[10.6532,43.6133],[10.6525,43.6145],[10.6489,43.6154],[10.6507,43.6166],[10.6598,43.6128]]]}},{"type":"Feature","properties":{"i":"050029","n":"Pontedera"},"geometry":{"type":"Polygon","coordinates":[[[10.6938,43.67],[10.7016,43.6641],[10.7043,43.6572],[10.7057,43.6465],[10.7041,43.6437],[10.7031,43.6394],[10.7029,43.6311],[10.7058,43.623],[10.7048,43.6202],[10.7018,43.6185],[10.6905,43.6171],[10.6838,43.611],[10.6806,43.61],[10.6755,43.6113],[10.6738,43.6136],[10.6614,43.6155],[10.6598,43.6128],[10.6507,43.6166],[10.6489,43.6154],[10.6525,43.6145],[10.6532,43.6133],[10.6507,43.6125],[10.6488,43.6129],[10.646,43.6178],[10.6464,43.619],[10.6611,43.6287],[10.6501,43.6418],[10.6425,43.6439],[10.6352,43.6423],[10.6279,43.638],[10.6192,43.6387],[10.6049,43.633],[10.6006,43.6251],[10.597,43.6261],[10.577,43.6395],[10.5707,43.6419],[10.5745,43.6423],[10.5762,43.6453],[10.5779,43.6512],[10.578,43.6579],[10.5721,43.6666],[10.5714,43.6695],[10.5902,43.6644],[10.5954,43.6611],[10.5981,43.6579],[10.5977,43.6567],[10.5984,43.656],[10.6034,43.6584],[10.6047,43.6647],[10.6039,43.6674],[10.6029,43.6678],[10.6059,43.6738],[10.6234,43.6694],[10.6244,43.6674],[10.6264,43.6663],[10.6314,43.6657],[10.6339,43.6669],[10.6389,43.6763],[10.6427,43.6795],[10.6462,43.6809],[10.6559,43.6732],[10.6677,43.6663],[10.6704,43.663],[10.6748,43.6609],[10.6787,43.6609],[10.6829,43.6624],[10.6897,43.6661],[10.6938,43.67]]]}},{"type":"Feature","properties":{"i":"050030","n":"Riparbella"},"geometry":{"type":"Polygon","coordinates":[[[10.6549,43.4208],[10.6486,43.4157],[10.6438,43.4068],[10.6487,43.4034],[10.6519,43.3977],[10.6531,43.3825],[10.6545,43.3768],[10.6564,43.3733],[10.6561,43.3607],[10.6478,43.3466],[10.6467,43.3422],[10.647,43.3399],[10.6443,43.3384],[10.6409,43.338],[10.6408,43.3408],[10.6397,43.3425],[10.6278,43.3481],[10.6256,43.3475],[10.6239,43.3454],[10.6251,43.3397],[10.624,43.3389],[10.6207,43.3396],[10.6119,43.3457],[10.6013,43.3433],[10.5974,43.3402],[10.5795,43.3363],[10.5751,43.3378],[10.5707,43.343],[10.5701,43.3461],[10.5685,43.3465],[10.5618,43.3433],[10.5485,43.3331],[10.535,43.3263],[10.5319,43.3236],[10.5226,43.3249],[10.5305,43.3324],[10.5328,43.3366],[10.5355,43.3451],[10.5359,43.3489],[10.5339,43.3526],[10.5337,43.3564],[10.5408,43.3686],[10.5456,43.3711],[10.5531,43.371],[10.5644,43.3742],[10.577,43.38],[10.5912,43.3908],[10.6005,43.3997],[10.6093,43.3996],[10.6107,43.4016],[10.6106,43.4049],[10.6161,43.4071],[10.6252,43.4126],[10.6283,43.4155],[10.6294,43.4202],[10.6319,43.4237],[10.64,43.4287],[10.6447,43.4303],[10.6608,43.4327],[10.657,43.4286],[10.6549,43.4208]]]}},{"type":"Feature","properties":{"i":"050031","n":"San Giuliano Terme"},"geometry":{"type":"Polygon","coordinates":[[[10.4951,43.7582],[10.5009,43.7533],[10.5021,43.7486],[10.5046,43.7444],[10.5026,43.7362],[10.4878,43.7278],[10.4847,43.7252],[10.4986,43.7147],[10.4973,43.7125],[10.4952,43.7138],[10.492,43.7133],[10.4875,43.7092],[10.4801,43.6996],[10.477,43.6981],[10.4735,43.6979],[10.4701,43.6992],[10.4684,43.7021],[10.4681,43.7076],[10.4706,43.7113],[10.4713,43.7134],[10.4705,43.7166],[10.4685,43.719],[10.4622,43.722],[10.4526,43.7214],[10.4487,43.7196],[10.4464,43.7175],[10.4453,43.7143],[10.4453,43.7109],[10.4421,43.7113],[10.4249,43.719],[10.418,43.7245],[10.4208,43.7373],[10.3992,43.7395],[10.3892,43.7393],[10.3567,43.7355],[10.3288,43.7311],[10.3281,43.7301],[10.3255,43.7295],[10.3172,43.7317],[10.3125,43.7347],[10.3076,43.7393],[10.3043,43.7436],[10.3044,43.7447],[10.3023,43.748],[10.2992,43.7505],[10.2919,43.7499],[10.2871,43.7481],[10.2816,43.7473],[10.2784,43.7477],[10.2736,43.7517],[10.2732,43.7587],[10.2659,43.7851],[10.2705,43.7797],[10.2879,43.7704],[10.2944,43.7655],[10.3007,43.7592],[10.3075,43.7502],[10.3105,43.7476],[10.3187,43.744],[10.3242,43.7442],[10.3336,43.7516],[10.3411,43.7617],[10.3503,43.7703],[10.3685,43.783],[10.3752,43.7831],[10.3847,43.7774],[10.3894,43.7764],[10.3928,43.7769],[10.4002,43.7817],[10.4123,43.7837],[10.4165,43.79],[10.412,43.7924],[10.4014,43.8001],[10.3987,43.8041],[10.4072,43.809],[10.4135,43.8174],[10.4138,43.8223],[10.4185,43.8303],[10.4252,43.835],[10.427,43.8329],[10.4298,43.8215],[10.4354,43.8127],[10.4447,43.8083],[10.4464,43.8091],[10.4492,43.8075],[10.452,43.8045],[10.4508,43.7943],[10.4407,43.79],[10.4393,43.7883],[10.4401,43.7809],[10.4416,43.7778],[10.452,43.767],[10.4662,43.7662],[10.4852,43.7602],[10.4951,43.7582]]]}},{"type":"Feature","properties":{"i":"050032","n":"San Miniato"},"geometry":{"type":"Polygon","coordinates":[[[10.934,43.6577],[10.9281,43.6522],[10.9204,43.6491],[10.903,43.6347],[10.8917,43.6394],[10.8883,43.6396],[10.8864,43.6348],[10.8867,43.6325],[10.8831,43.6264],[10.878,43.6262],[10.8749,43.6217],[10.8745,43.6205],[10.8759,43.6151],[10.8743,43.6143],[10.858,43.6247],[10.8501,43.6266],[10.8449,43.6232],[10.8373,43.62],[10.8332,43.6222],[10.8262,43.6206],[10.824,43.6183],[10.8224,43.6139],[10.8217,43.6139],[10.8178,43.6153],[10.8141,43.6204],[10.8095,43.6241],[10.8043,43.6257],[10.7815,43.6402],[10.7736,43.6414],[10.772,43.6429],[10.7716,43.6434],[10.7754,43.6533],[10.7755,43.6561],[10.767,43.688],[10.7651,43.6919],[10.7629,43.6927],[10.7727,43.7044],[10.7755,43.7064],[10.7809,43.7086],[10.7923,43.7071],[10.7954,43.7085],[10.798,43.7047],[10.8012,43.7038],[10.8236,43.7036],[10.8269,43.7084],[10.8245,43.7128],[10.8376,43.7166],[10.8526,43.7189],[10.8672,43.7175],[10.8772,43.7192],[10.8788,43.7114],[10.8871,43.707],[10.8885,43.6999],[10.8913,43.6929],[10.9019,43.682],[10.909,43.6804],[10.9138,43.6716],[10.9163,43.6624],[10.9242,43.6595],[10.9313,43.6602],[10.934,43.6577]]]}},{"type":"Feature","properties":{"i":"050033","n":"Santa Croce sull'Arno"},"geometry":{"type":"MultiPolygon","coordinates":[[[[10.7954,43.7085],[10.7923,43.7071],[10.7809,43.7086],[10.7743,43.7057],[10.7691,43.7003],[10.7664,43.7014],[10.7563,43.7119],[10.752,43.7178],[10.7459,43.7315],[10.7475,43.7376],[10.75,43.7387],[10.7543,43.7457],[10.7602,43.7441],[10.7614,43.7421],[10.766,43.7387],[10.7713,43.7365],[10.7795,43.7362],[10.7858,43.729],[10.7932,43.7183],[10.7963,43.7107],[10.7964,43.7096],[10.7954,43.7085]]],[[[10.6951,43.7636],[10.6989,43.7648],[10.703,43.7679],[10.7102,43.7772],[10.7163,43.7754],[10.7237,43.754],[10.7238,43.7512],[10.7025,43.7516],[10.6982,43.75],[10.6835,43.7545],[10.6905,43.7607],[10.6951,43.7636]]]]}},{"type":"Feature","properties":{"i":"050034","n":"Santa Luce"},"geometry":{"type":"Polygon","coordinates":[[[10.6014,43.4829],[10.6039,43.4779],[10.6027,43.4566],[10.5981,43.454],[10.5918,43.4488],[10.5905,43.4469],[10.5953,43.4391],[10.5949,43.4367],[10.5911,43.4301],[10.5867,43.4297],[10.5776,43.4322],[10.567,43.4314],[10.5497,43.4242],[10.532,43.4182],[10.5154,43.4221],[10.5019,43.4199],[10.507,43.4318],[10.5054,43.4353],[10.504,43.4366],[10.4899,43.4367],[10.4863,43.435],[10.4854,43.434],[10.4856,43.4318],[10.4836,43.4304],[10.4819,43.436],[10.49,43.4397],[10.4998,43.4464],[10.4993,43.4509],[10.4927,43.4558],[10.4922,43.4604],[10.4932,43.4616],[10.49,43.4727],[10.5026,43.4767],[10.5162,43.4828],[10.523,43.4911],[10.5272,43.4986],[10.5365,43.502],[10.5425,43.5062],[10.5443,43.5131],[10.5446,43.5173],[10.5548,43.5109],[10.5583,43.5071],[10.5598,43.504],[10.5695,43.5025],[10.5756,43.5032],[10.5912,43.4999],[10.5977,43.4937],[10.5974,43.4884],[10.6001,43.4833],[10.6014,43.4829]]]}},{"type":"Feature","properties":{"i":"050035","n":"Santa Maria a Monte"},"geometry":{"type":"Polygon","coordinates":[[[10.7244,43.694],[10.7166,43.6902],[10.7125,43.6856],[10.6974,43.6742],[10.6901,43.6664],[10.6787,43.6609],[10.6748,43.6609],[10.6704,43.663],[10.6677,43.6663],[10.6559,43.6732],[10.6468,43.6809],[10.6517,43.684],[10.6515,43.6849],[10.647,43.6886],[10.6465,43.6907],[10.6538,43.6903],[10.656,43.6913],[10.6585,43.6951],[10.6593,43.6981],[10.6578,43.7019],[10.658,43.7036],[10.6608,43.7079],[10.6681,43.713],[10.6708,43.7216],[10.6712,43.7262],[10.6672,43.7314],[10.6664,43.7384],[10.6683,43.7456],[10.6678,43.7495],[10.6803,43.7535],[10.6913,43.7513],[10.6972,43.7482],[10.713,43.7371],[10.7159,43.733],[10.7166,43.7264],[10.7218,43.7161],[10.71,43.7064],[10.7195,43.6989],[10.7241,43.6963],[10.7249,43.6953],[10.7244,43.694]]]}},{"type":"Feature","properties":{"i":"050036","n":"Terricciola"},"geometry":{"type":"Polygon","coordinates":[[[10.6892,43.5723],[10.6885,43.5702],[10.6898,43.5672],[10.6922,43.5666],[10.6948,43.5672],[10.702,43.5614],[10.7084,43.5495],[10.714,43.5419],[10.7091,43.5337],[10.7097,43.5254],[10.7108,43.5245],[10.7125,43.5251],[10.7186,43.5243],[10.7249,43.5197],[10.7229,43.5111],[10.7223,43.5062],[10.7228,43.5028],[10.7215,43.4975],[10.7161,43.4946],[10.7133,43.492],[10.713,43.4911],[10.7142,43.4897],[10.6989,43.4879],[10.6937,43.4881],[10.6896,43.4901],[10.6832,43.4981],[10.6809,43.5052],[10.6821,43.5067],[10.6811,43.5079],[10.6734,43.5082],[10.6643,43.5061],[10.6607,43.5069],[10.658,43.5095],[10.6572,43.5163],[10.6554,43.5178],[10.6529,43.5173],[10.6459,43.522],[10.644,43.5282],[10.6438,43.5324],[10.6415,43.5372],[10.6316,43.5436],[10.6292,43.5475],[10.6283,43.5525],[10.6285,43.5678],[10.6309,43.5733],[10.6415,43.571],[10.6535,43.5671],[10.657,43.5581],[10.6572,43.554],[10.6606,43.5519],[10.6668,43.5542],[10.6767,43.5618],[10.6836,43.568],[10.6842,43.5697],[10.6892,43.5723]]]}},{"type":"Feature","properties":{"i":"050037","n":"Vecchiano"},"geometry":{"type":"Polygon","coordinates":[[[10.3737,43.8144],[10.3773,43.8127],[10.3804,43.8126],[10.4048,43.8248],[10.4065,43.8265],[10.411,43.8269],[10.4138,43.8223],[10.4135,43.8174],[10.4072,43.809],[10.3987,43.8041],[10.4014,43.8001],[10.412,43.7924],[10.4165,43.79],[10.4123,43.7837],[10.4002,43.7817],[10.3928,43.7769],[10.3894,43.7764],[10.3847,43.7774],[10.3752,43.7831],[10.3685,43.783],[10.3497,43.7697],[10.3411,43.7617],[10.3336,43.7516],[10.3261,43.7453],[10.3234,43.744],[10.3205,43.7437],[10.3135,43.7459],[10.3105,43.7476],[10.307,43.7507],[10.3007,43.7592],[10.2931,43.7666],[10.2879,43.7704],[10.2733,43.7779],[10.2688,43.7813],[10.2659,43.7851],[10.2638,43.7958],[10.2579,43.8157],[10.2925,43.8237],[10.3071,43.8294],[10.3117,43.8278],[10.3203,43.8226],[10.3298,43.8215],[10.337,43.8229],[10.339,43.8224],[10.3481,43.8166],[10.3737,43.8144]]]}},{"type":"Feature","properties":{"i":"050038","n":"Vicopisano"},"geometry":{"type":"Polygon","coordinates":[[[10.6137,43.7064],[10.6113,43.7044],[10.609,43.7007],[10.6042,43.6889],[10.5979,43.6814],[10.5867,43.6842],[10.579,43.6842],[10.5764,43.6821],[10.5731,43.6758],[10.569,43.6747],[10.5622,43.6814],[10.5565,43.6837],[10.5523,43.6839],[10.5365,43.6817],[10.5298,43.6826],[10.5283,43.6839],[10.5258,43.6902],[10.5241,43.6917],[10.508,43.6955],[10.5021,43.6985],[10.5001,43.7012],[10.5007,43.7057],[10.5002,43.7083],[10.4973,43.7125],[10.4986,43.7147],[10.5066,43.7127],[10.5072,43.7124],[10.5057,43.7101],[10.5058,43.7089],[10.5178,43.7019],[10.5227,43.6999],[10.5292,43.7027],[10.5299,43.7042],[10.5522,43.7118],[10.5542,43.7131],[10.5565,43.7162],[10.5571,43.7191],[10.5599,43.7177],[10.563,43.7174],[10.5774,43.7192],[10.5923,43.7168],[10.6005,43.7164],[10.6072,43.7197],[10.6166,43.7223],[10.6176,43.7193],[10.6169,43.7154],[10.6147,43.7122],[10.6118,43.71],[10.6106,43.7058],[10.6137,43.7064]]]}},{"type":"Feature","properties":{"i":"050039","n":"Volterra"},"geometry":{"type":"Polygon","coordinates":[[[10.8607,43.4872],[10.8541,43.4819],[10.8513,43.4778],[10.853,43.4763],[10.8599,43.4762],[10.8655,43.4748],[10.8687,43.4718],[10.8698,43.4632],[10.874,43.4601],[10.8841,43.4591],[10.8889,43.4596],[10.9013,43.465],[10.9108,43.4663],[10.9156,43.4634],[10.9194,43.4571],[10.9397,43.4527],[10.9515,43.4514],[10.9516,43.4491],[10.9598,43.4394],[10.9743,43.4264],[10.9787,43.4196],[10.9792,43.4066],[10.9841,43.4023],[10.99,43.4011],[11.002,43.4013],[10.9995,43.4003],[10.9997,43.3982],[11.0049,43.381],[11.0127,43.3766],[11.0133,43.3707],[11.0119,43.3622],[11.0027,43.3523],[10.9977,43.344],[10.991,43.3423],[10.9733,43.3444],[10.9721,43.3426],[10.9702,43.3356],[10.9699,43.3314],[10.9722,43.3216],[10.9698,43.3136],[10.9652,43.3127],[10.9612,43.3145],[10.9603,43.3163],[10.954,43.3168],[10.9539,43.311],[10.9521,43.302],[10.9492,43.3045],[10.9418,43.3066],[10.9353,43.3044],[10.9294,43.3049],[10.9237,43.3093],[10.922,43.3122],[10.9186,43.3145],[10.9117,43.3172],[10.903,43.3177],[10.8972,43.3208],[10.8879,43.3303],[10.882,43.3338],[10.8446,43.335],[10.8362,43.3401],[10.8348,43.3449],[10.8317,43.3467],[10.8159,43.3504],[10.799,43.352],[10.7954,43.3551],[10.8002,43.3564],[10.8033,43.3587],[10.806,43.3695],[10.8004,43.3774],[10.7971,43.3836],[10.7928,43.3989],[10.7877,43.4024],[10.7758,43.4054],[10.7723,43.4253],[10.773,43.4269],[10.7764,43.4279],[10.7869,43.4288],[10.793,43.4353],[10.7937,43.4368],[10.7911,43.4395],[10.7889,43.4438],[10.7907,43.4523],[10.7888,43.4575],[10.7706,43.4741],[10.7699,43.4756],[10.7701,43.4787],[10.7719,43.4775],[10.777,43.4771],[10.7842,43.4789],[10.7948,43.4841],[10.7992,43.4875],[10.7988,43.4886],[10.7997,43.4913],[10.806,43.4939],[10.8132,43.4957],[10.82,43.4958],[10.831,43.4939],[10.8378,43.4952],[10.8426,43.497],[10.8472,43.4974],[10.8545,43.4949],[10.8567,43.4934],[10.8607,43.4872]]]}},{"type":"Feature","properties":{"i":"050040","n":"Casciana Terme Lari"},"geometry":{"type":"Polygon","coordinates":[[[10.6006,43.6251],[10.604,43.6224],[10.6159,43.6176],[10.6205,43.6144],[10.6185,43.6092],[10.6141,43.6045],[10.6115,43.5977],[10.6135,43.5938],[10.6159,43.5915],[10.6322,43.5906],[10.6332,43.5892],[10.634,43.5859],[10.6309,43.5733],[10.6285,43.5678],[10.6283,43.5525],[10.6293,43.5472],[10.6316,43.5436],[10.6415,43.5372],[10.6438,43.5324],[10.644,43.5282],[10.6463,43.5215],[10.6529,43.5173],[10.6554,43.5178],[10.656,43.5162],[10.6539,43.5126],[10.6388,43.5086],[10.6291,43.5036],[10.6178,43.4966],[10.6065,43.4853],[10.6014,43.4829],[10.6001,43.4833],[10.5974,43.4884],[10.5977,43.4937],[10.5912,43.4999],[10.5756,43.5032],[10.5695,43.5025],[10.5598,43.504],[10.5583,43.5071],[10.5548,43.5109],[10.5446,43.5173],[10.5453,43.521],[10.547,43.5238],[10.5519,43.5289],[10.5553,43.5337],[10.5527,43.5489],[10.5637,43.5549],[10.573,43.5642],[10.5741,43.5718],[10.5732,43.5739],[10.5728,43.5807],[10.5737,43.5827],[10.5767,43.5852],[10.5777,43.5895],[10.577,43.5912],[10.5685,43.6002],[10.5638,43.6024],[10.5605,43.6016],[10.5596,43.608],[10.561,43.6137],[10.5632,43.618],[10.5613,43.6244],[10.558,43.6281],[10.5596,43.629],[10.5707,43.6419],[10.577,43.6395],[10.597,43.6261],[10.6006,43.6251]]]}},{"type":"Feature","properties":{"i":"050041","n":"Crespina Lorenzana"},"geometry":{"type":"Polygon","coordinates":[[[10.5446,43.5173],[10.5443,43.5131],[10.5425,43.5062],[10.5365,43.502],[10.5272,43.4986],[10.523,43.5007],[10.5142,43.5026],[10.5026,43.5121],[10.5136,43.5255],[10.5159,43.5304],[10.5177,43.5369],[10.5176,43.5425],[10.5141,43.5454],[10.5118,43.5492],[10.512,43.5501],[10.5159,43.5529],[10.5268,43.5541],[10.5373,43.5587],[10.5381,43.5643],[10.5345,43.5799],[10.5264,43.5993],[10.5168,43.611],[10.515,43.6166],[10.5086,43.6233],[10.5036,43.6258],[10.5009,43.6243],[10.4999,43.6251],[10.5048,43.6267],[10.5089,43.6292],[10.5323,43.631],[10.558,43.6281],[10.5613,43.6244],[10.5632,43.618],[10.561,43.6137],[10.5596,43.608],[10.5605,43.6016],[10.5638,43.6024],[10.5685,43.6002],[10.5777,43.5898],[10.5767,43.5852],[10.5737,43.5827],[10.5728,43.5807],[10.5732,43.5739],[10.5741,43.5718],[10.573,43.5642],[10.5637,43.5549],[10.5527,43.5489],[10.5553,43.5337],[10.5519,43.5289],[10.547,43.5238],[10.5453,43.521],[10.5446,43.5173]]]}}]}
