{"type":"FeatureCollection","fonte":"Confini comunali ISTAT via openpolis/geojson-italy — CC BY 4.0","features":[{"type":"Feature","properties":{"i":"100001","n":"Cantagallo"},"geometry":{"type":"Polygon","coordinates":[[[11.174,44.01],[11.1765,44.0087],[11.1771,44.0062],[11.1765,44.0042],[11.1791,43.9944],[11.1759,43.9871],[11.1711,43.9804],[11.1673,43.9788],[11.1528,43.9767],[11.1454,43.9775],[11.1373,43.9799],[11.126,43.9784],[11.1167,43.9752],[11.104,43.9763],[11.0992,43.9745],[11.0818,43.9708],[11.0811,43.9736],[11.0776,43.9763],[11.0715,43.9829],[11.0628,43.9843],[11.0494,43.993],[11.0374,43.9984],[11.0341,43.9992],[11.0302,43.9988],[11.0143,43.9957],[11.0117,44.0055],[11.021,44.009],[11.0299,44.018],[11.038,44.0289],[11.0397,44.0332],[11.0391,44.0352],[11.0402,44.045],[11.0446,44.0508],[11.0542,44.0723],[11.0478,44.0865],[11.0494,44.0902],[11.0543,44.0915],[11.0676,44.0918],[11.0767,44.0916],[11.0825,44.0899],[11.0888,44.09],[11.0904,44.0907],[11.0932,44.0945],[11.0975,44.0929],[11.1045,44.0833],[11.1041,44.0791],[11.1029,44.0756],[11.1039,44.0707],[11.1073,44.0672],[11.1123,44.064],[11.1058,44.0533],[11.1096,44.0473],[11.1188,44.0438],[11.129,44.0425],[11.1336,44.0399],[11.1326,44.0389],[11.1288,44.0378],[11.1233,44.031],[11.123,44.0286],[11.1251,44.0234],[11.1374,44.0208],[11.1568,44.0213],[11.1617,44.0185],[11.1651,44.0136],[11.1715,44.0104],[11.174,44.01]]]}},{"type":"Feature","properties":{"i":"100002","n":"Carmignano"},"geometry":{"type":"Polygon","coordinates":[[[11.0328,43.8381],[11.0403,43.8307],[11.028,43.8292],[11.0249,43.8262],[11.0309,43.818],[11.0371,43.8142],[11.0332,43.8046],[11.0421,43.8009],[11.0472,43.8003],[11.0573,43.8044],[11.0629,43.8052],[11.0657,43.8003],[11.0686,43.7974],[11.0739,43.7939],[11.0781,43.7926],[11.0759,43.79],[11.0693,43.7887],[11.0625,43.7896],[11.0562,43.7824],[11.0562,43.7806],[11.057,43.7799],[11.0649,43.7761],[11.0633,43.7756],[11.0622,43.7742],[11.0567,43.7588],[11.0528,43.7587],[11.0494,43.7603],[11.0458,43.7643],[11.0348,43.7669],[11.0322,43.7697],[11.0281,43.7796],[11.0238,43.7803],[11.019,43.7792],[11.0142,43.7758],[11.0099,43.7753],[10.9983,43.777],[10.9921,43.7809],[10.9778,43.7854],[10.9798,43.792],[10.9792,43.795],[10.9745,43.801],[10.9664,43.8086],[10.9641,43.8125],[10.9731,43.8155],[10.98,43.8189],[10.9843,43.8236],[10.9842,43.8258],[10.9893,43.8282],[10.9983,43.8309],[11.0048,43.8308],[11.0131,43.8337],[11.0214,43.841],[11.0328,43.8381]]]}},{"type":"Feature","properties":{"i":"100003","n":"Montemurlo"},"geometry":{"type":"Polygon","coordinates":[[[11.0927,43.9476],[11.0882,43.9433],[11.0815,43.9339],[11.0814,43.9299],[11.0798,43.9243],[11.067,43.9083],[11.0645,43.9069],[11.0558,43.9046],[11.0479,43.9034],[11.0392,43.9034],[11.0301,43.9018],[11.0248,43.8964],[11.0256,43.8993],[11.0253,43.902],[11.023,43.9039],[11.0186,43.9103],[11.0205,43.9217],[11.0219,43.9247],[11.0247,43.9281],[11.0273,43.9341],[11.0293,43.942],[11.0468,43.96],[11.0541,43.9638],[11.0609,43.9659],[11.0645,43.9699],[11.0715,43.9829],[11.0776,43.9763],[11.0811,43.9736],[11.0823,43.9681],[11.0948,43.9548],[11.0956,43.9534],[11.0956,43.9503],[11.0927,43.9476]]]}},{"type":"Feature","properties":{"i":"100004","n":"Poggio a Caiano"},"geometry":{"type":"Polygon","coordinates":[[[11.062,43.8159],[11.0613,43.8143],[11.0629,43.8052],[11.0573,43.8044],[11.0482,43.8004],[11.0421,43.8009],[11.0332,43.8046],[11.0371,43.8142],[11.0309,43.818],[11.0249,43.8262],[11.028,43.8292],[11.0403,43.8307],[11.0521,43.8225],[11.0591,43.8187],[11.062,43.8159]]]}},{"type":"Feature","properties":{"i":"100005","n":"Prato"},"geometry":{"type":"Polygon","coordinates":[[[11.1631,43.9281],[11.1693,43.9186],[11.1671,43.9153],[11.1582,43.9156],[11.1416,43.9069],[11.1476,43.9023],[11.1414,43.8934],[11.1371,43.8898],[11.1344,43.8842],[11.1394,43.879],[11.1417,43.8778],[11.1474,43.8694],[11.1485,43.8655],[11.1465,43.8609],[11.1438,43.8584],[11.1385,43.8566],[11.1304,43.8557],[11.1238,43.852],[11.1012,43.8242],[11.0949,43.8196],[11.0857,43.8183],[11.0794,43.8208],[11.0801,43.8219],[11.0785,43.8228],[11.0696,43.8251],[11.0623,43.8171],[11.062,43.8159],[11.0591,43.8187],[11.0521,43.8225],[11.0403,43.8307],[11.0282,43.842],[11.0246,43.8509],[11.0257,43.8556],[11.0254,43.8571],[11.0175,43.8666],[11.0133,43.8695],[11.0162,43.8825],[11.0226,43.8935],[11.0283,43.9001],[11.0301,43.9018],[11.0392,43.9034],[11.0479,43.9034],[11.0558,43.9046],[11.0645,43.9069],[11.067,43.9083],[11.0798,43.9243],[11.0814,43.9299],[11.0815,43.9339],[11.0882,43.9433],[11.0927,43.9476],[11.0985,43.9495],[11.1091,43.9451],[11.1125,43.9411],[11.1146,43.934],[11.1182,43.9264],[11.1246,43.9231],[11.1271,43.9207],[11.1278,43.9141],[11.1376,43.9157],[11.1544,43.9249],[11.1631,43.9281]]]}},{"type":"Feature","properties":{"i":"100006","n":"Vaiano"},"geometry":{"type":"Polygon","coordinates":[[[11.1711,43.9804],[11.173,43.9786],[11.1739,43.9745],[11.1698,43.962],[11.1751,43.9517],[11.1731,43.9456],[11.1686,43.9407],[11.1608,43.9353],[11.1631,43.9281],[11.1544,43.9249],[11.1376,43.9157],[11.1311,43.9143],[11.1278,43.9141],[11.1271,43.9207],[11.1246,43.9231],[11.1182,43.9264],[11.1146,43.934],[11.1125,43.9411],[11.1091,43.9451],[11.0985,43.9495],[11.0927,43.9476],[11.0956,43.9503],[11.0956,43.9534],[11.0823,43.9681],[11.0818,43.9708],[11.0992,43.9745],[11.104,43.9763],[11.1167,43.9752],[11.126,43.9784],[11.1373,43.9799],[11.1454,43.9775],[11.1528,43.9767],[11.1663,43.9784],[11.1711,43.9804]]]}},{"type":"Feature","properties":{"i":"100007","n":"Vernio"},"geometry":{"type":"Polygon","coordinates":[[[11.2024,44.1007],[11.2001,44.0999],[11.1987,44.0976],[11.1992,44.0963],[11.2026,44.0932],[11.212,44.0887],[11.2128,44.086],[11.1982,44.0828],[11.1887,44.0766],[11.1867,44.0738],[11.1857,44.0712],[11.1865,44.0576],[11.1844,44.0539],[11.1803,44.0502],[11.1794,44.0423],[11.1894,44.0334],[11.1916,44.0298],[11.1892,44.0222],[11.1856,44.0164],[11.175,44.0113],[11.174,44.01],[11.1715,44.0104],[11.1651,44.0136],[11.1617,44.0185],[11.1568,44.0213],[11.1374,44.0208],[11.1251,44.0234],[11.123,44.0286],[11.1233,44.031],[11.1288,44.0378],[11.1326,44.0389],[11.1336,44.0399],[11.129,44.0425],[11.1188,44.0438],[11.1096,44.0473],[11.1058,44.0533],[11.1123,44.064],[11.1073,44.0672],[11.1039,44.0707],[11.1029,44.0756],[11.1041,44.0791],[11.1045,44.0833],[11.0975,44.0929],[11.0932,44.0945],[11.124,44.1069],[11.1276,44.1097],[11.1394,44.1078],[11.1447,44.1105],[11.1549,44.1118],[11.1639,44.1107],[11.1669,44.1087],[11.1709,44.1074],[11.1858,44.1059],[11.2024,44.1007]]]}}]}
