{"type":"FeatureCollection","fonte":"Confini comunali ISTAT via openpolis/geojson-italy — CC BY 4.0","features":[{"type":"Feature","properties":{"i":"034001","n":"Albareto"},"geometry":{"type":"Polygon","coordinates":[[[9.7574,44.4072],[9.7528,44.4005],[9.7553,44.3925],[9.7605,44.39],[9.7448,44.3895],[9.7442,44.3823],[9.7405,44.3806],[9.7321,44.3794],[9.7254,44.3822],[9.7169,44.3832],[9.69,44.3691],[9.6867,44.3659],[9.675,44.3647],[9.6713,44.3712],[9.6633,44.3953],[9.6643,44.3973],[9.663,44.4007],[9.6545,44.4117],[9.6425,44.4124],[9.635,44.4151],[9.6235,44.4216],[9.6212,44.4285],[9.6222,44.4308],[9.6312,44.4363],[9.6372,44.445],[9.6443,44.4516],[9.6459,44.4516],[9.6514,44.454],[9.6565,44.4582],[9.6576,44.4599],[9.6595,44.4687],[9.6591,44.4721],[9.6555,44.475],[9.663,44.475],[9.6679,44.4761],[9.6679,44.4787],[9.6639,44.4836],[9.665,44.4863],[9.6695,44.4895],[9.6736,44.491],[9.6873,44.4865],[9.6991,44.4844],[9.7003,44.4858],[9.7056,44.5049],[9.7177,44.5129],[9.7269,44.5129],[9.7285,44.5121],[9.7294,44.509],[9.7284,44.5076],[9.7207,44.5047],[9.7171,44.5063],[9.7115,44.4974],[9.7204,44.4981],[9.725,44.4967],[9.7331,44.491],[9.7316,44.4874],[9.7324,44.4788],[9.7354,44.4732],[9.7404,44.4767],[9.7503,44.4797],[9.7609,44.4746],[9.7624,44.4702],[9.76,44.4638],[9.7599,44.4595],[9.761,44.4548],[9.76,44.45],[9.7545,44.4419],[9.7551,44.437],[9.757,44.4313],[9.7544,44.4276],[9.7451,44.4235],[9.7423,44.4164],[9.7458,44.4135],[9.7574,44.4072]]]}},{"type":"Feature","properties":{"i":"034002","n":"Bardi"},"geometry":{"type":"Polygon","coordinates":[[[9.7652,44.6813],[9.775,44.6788],[9.7777,44.6769],[9.7847,44.6758],[9.8052,44.6779],[9.8149,44.6822],[9.8152,44.679],[9.8197,44.6699],[9.8335,44.6613],[9.833,44.6593],[9.8312,44.6575],[9.8126,44.6517],[9.8075,44.6468],[9.8069,44.6426],[9.8053,44.639],[9.791,44.6287],[9.7866,44.6284],[9.7835,44.6295],[9.7803,44.634],[9.777,44.6366],[9.7685,44.6377],[9.7571,44.633],[9.7526,44.6292],[9.7411,44.6222],[9.741,44.6192],[9.7752,44.61],[9.8015,44.61],[9.8162,44.6032],[9.8219,44.5991],[9.8209,44.5908],[9.8173,44.5863],[9.8095,44.582],[9.8004,44.5751],[9.8017,44.5715],[9.8041,44.5683],[9.8025,44.5584],[9.7923,44.5507],[9.7867,44.5479],[9.7822,44.5469],[9.7692,44.5463],[9.7649,44.5468],[9.7517,44.555],[9.7492,44.5599],[9.7485,44.56],[9.7435,44.5578],[9.7346,44.5504],[9.728,44.5461],[9.7259,44.5469],[9.7227,44.5512],[9.7156,44.5564],[9.713,44.557],[9.7053,44.5549],[9.702,44.5531],[9.6964,44.5609],[9.695,44.5674],[9.6919,44.5761],[9.6837,44.5851],[9.6703,44.5873],[9.6609,44.5863],[9.6601,44.5871],[9.6602,44.5906],[9.6623,44.5962],[9.6634,44.6038],[9.6613,44.6121],[9.6587,44.6122],[9.6496,44.6102],[9.6452,44.6067],[9.6341,44.6027],[9.6315,44.6033],[9.627,44.6028],[9.616,44.5996],[9.6154,44.5969],[9.6171,44.5871],[9.6162,44.5823],[9.6074,44.5804],[9.5916,44.568],[9.5866,44.57],[9.5832,44.5725],[9.5827,44.5753],[9.5707,44.5835],[9.5554,44.5906],[9.5534,44.5905],[9.5524,44.5967],[9.5538,44.5996],[9.5587,44.6045],[9.5633,44.6075],[9.5684,44.6075],[9.5766,44.6102],[9.5809,44.6147],[9.5807,44.6174],[9.5815,44.6191],[9.585,44.6228],[9.6185,44.6367],[9.6318,44.6406],[9.6279,44.653],[9.6241,44.657],[9.6241,44.6585],[9.6282,44.6626],[9.6402,44.665],[9.6519,44.6708],[9.6543,44.6725],[9.6551,44.6742],[9.6618,44.6804],[9.6691,44.6822],[9.6719,44.6838],[9.6752,44.6876],[9.6795,44.6841],[9.6867,44.6751],[9.6985,44.6715],[9.7028,44.6717],[9.706,44.6731],[9.7074,44.6746],[9.7114,44.6759],[9.7194,44.6771],[9.74,44.6796],[9.7599,44.6798],[9.7652,44.6813]]]}},{"type":"Feature","properties":{"i":"034003","n":"Bedonia"},"geometry":{"type":"Polygon","coordinates":[[[9.6609,44.5863],[9.6576,44.5841],[9.6547,44.5726],[9.6568,44.5593],[9.6555,44.5542],[9.6517,44.5469],[9.6583,44.5412],[9.6646,44.5371],[9.6675,44.5276],[9.6672,44.525],[9.6596,44.5175],[9.6625,44.5153],[9.6648,44.5075],[9.6555,44.4947],[9.652,44.4935],[9.6458,44.4889],[9.6449,44.4871],[9.6299,44.4918],[9.6196,44.4902],[9.6165,44.4884],[9.6155,44.4827],[9.6175,44.4781],[9.6059,44.4677],[9.6038,44.4641],[9.604,44.4605],[9.6059,44.4553],[9.6052,44.4507],[9.5928,44.4535],[9.5887,44.4567],[9.5836,44.463],[9.5798,44.4649],[9.5768,44.465],[9.568,44.4583],[9.5649,44.4537],[9.5592,44.4406],[9.5583,44.4401],[9.5484,44.4428],[9.5409,44.4487],[9.5378,44.4492],[9.5338,44.448],[9.5287,44.4483],[9.5208,44.455],[9.5144,44.4646],[9.5117,44.4698],[9.5109,44.4731],[9.5084,44.4766],[9.5039,44.4802],[9.4968,44.4827],[9.4946,44.5004],[9.4955,44.5031],[9.501,44.5117],[9.5046,44.53],[9.4995,44.5389],[9.4975,44.5406],[9.4905,44.5432],[9.4882,44.5456],[9.4883,44.5484],[9.4906,44.5528],[9.4933,44.5559],[9.5112,44.5621],[9.5248,44.5754],[9.533,44.586],[9.54,44.5889],[9.5491,44.5878],[9.5534,44.5905],[9.5554,44.5906],[9.5641,44.5869],[9.5777,44.5793],[9.5827,44.5753],[9.5832,44.5725],[9.5874,44.5695],[9.5916,44.568],[9.6074,44.5804],[9.6162,44.5823],[9.6171,44.5871],[9.6154,44.5969],[9.616,44.5996],[9.627,44.6028],[9.6315,44.6033],[9.6341,44.6027],[9.6452,44.6067],[9.6496,44.6102],[9.6594,44.6123],[9.6613,44.6121],[9.6634,44.6038],[9.6623,44.5962],[9.66,44.5896],[9.6601,44.5871],[9.6609,44.5863]]]}},{"type":"Feature","properties":{"i":"034004","n":"Berceto"},"geometry":{"type":"Polygon","coordinates":[[[10.0466,44.576],[10.0447,44.5732],[10.045,44.5704],[10.0517,44.5654],[10.0566,44.5623],[10.0621,44.5601],[10.067,44.5563],[10.0676,44.5537],[10.0652,44.5448],[10.0689,44.5413],[10.0711,44.5414],[10.0714,44.5378],[10.0621,44.5237],[10.0521,44.5165],[10.0443,44.5086],[10.0286,44.5001],[10.0205,44.4969],[10.0045,44.4929],[9.9935,44.4791],[9.9919,44.475],[9.9876,44.4707],[9.9831,44.4673],[9.9732,44.4646],[9.9713,44.4632],[9.9707,44.4644],[9.9537,44.4684],[9.9331,44.4711],[9.9182,44.4708],[9.9092,44.468],[9.9015,44.4713],[9.9,44.4727],[9.9043,44.4745],[9.9075,44.4801],[9.9074,44.4898],[9.9035,44.5013],[9.9051,44.5058],[9.9061,44.5068],[9.9057,44.5243],[9.8965,44.5322],[9.8864,44.5375],[9.8886,44.5396],[9.8923,44.5409],[9.896,44.5406],[9.9059,44.5434],[9.9082,44.5469],[9.9223,44.5502],[9.9278,44.5527],[9.9292,44.5547],[9.9288,44.5592],[9.931,44.5615],[9.9377,44.5644],[9.9457,44.5689],[9.9487,44.5714],[9.9448,44.5796],[9.9399,44.5828],[9.929,44.5832],[9.9275,44.5866],[9.9258,44.5878],[9.9263,44.5904],[9.9325,44.5937],[9.9478,44.6057],[9.952,44.6038],[9.9561,44.6004],[9.9584,44.5971],[9.9661,44.5985],[9.9776,44.6065],[9.9828,44.6001],[9.9903,44.587],[9.9942,44.5823],[9.9977,44.5764],[9.9981,44.5732],[10.0142,44.5644],[10.0233,44.5644],[10.0397,44.5748],[10.0428,44.576],[10.0466,44.576]]]}},{"type":"Feature","properties":{"i":"034005","n":"Bore"},"geometry":{"type":"Polygon","coordinates":[[[9.8365,44.7582],[9.8336,44.754],[9.8422,44.7518],[9.8482,44.7475],[9.8461,44.7431],[9.8589,44.7334],[9.8493,44.717],[9.8471,44.7149],[9.8456,44.7122],[9.8451,44.7089],[9.8472,44.707],[9.8593,44.7031],[9.8743,44.7002],[9.8833,44.6912],[9.8484,44.6919],[9.827,44.6885],[9.8186,44.6855],[9.8149,44.6822],[9.8073,44.6785],[9.7961,44.6765],[9.7847,44.6758],[9.7777,44.6769],[9.775,44.6788],[9.7652,44.6813],[9.7655,44.6932],[9.7641,44.7022],[9.7622,44.7054],[9.7656,44.7097],[9.776,44.7115],[9.7852,44.7165],[9.7901,44.7206],[9.7982,44.731],[9.8063,44.7339],[9.8158,44.7388],[9.8183,44.7433],[9.8201,44.7509],[9.815,44.7539],[9.8141,44.7572],[9.8195,44.7612],[9.8293,44.7603],[9.8365,44.7582]]]}},{"type":"Feature","properties":{"i":"034006","n":"Borgo Val di Taro"},"geometry":{"type":"Polygon","coordinates":[[[9.8864,44.5375],[9.8965,44.5322],[9.9057,44.5243],[9.9061,44.5068],[9.9051,44.5058],[9.9035,44.5013],[9.9074,44.4898],[9.9076,44.4815],[9.9067,44.4781],[9.9043,44.4745],[9.8926,44.4702],[9.8746,44.4695],[9.8551,44.4706],[9.8325,44.4686],[9.8197,44.4661],[9.8158,44.4618],[9.8172,44.4556],[9.8167,44.4521],[9.8109,44.451],[9.7982,44.4431],[9.7897,44.4361],[9.7812,44.4249],[9.7728,44.4168],[9.7631,44.4081],[9.7581,44.4071],[9.7501,44.4109],[9.7423,44.4164],[9.7451,44.4235],[9.7544,44.4276],[9.757,44.4313],[9.7551,44.437],[9.7545,44.4419],[9.76,44.45],[9.761,44.4548],[9.7599,44.4595],[9.76,44.4638],[9.7624,44.4702],[9.7609,44.4746],[9.7503,44.4797],[9.7404,44.4767],[9.7354,44.4732],[9.7324,44.4788],[9.7316,44.4874],[9.7331,44.491],[9.725,44.4967],[9.7204,44.4981],[9.7114,44.4977],[9.7171,44.5063],[9.7207,44.5047],[9.7284,44.5076],[9.7294,44.509],[9.7285,44.5121],[9.7269,44.5129],[9.7181,44.513],[9.7056,44.5049],[9.7003,44.5106],[9.6985,44.5166],[9.6986,44.5242],[9.7049,44.5407],[9.7043,44.5447],[9.7001,44.5513],[9.7,44.5527],[9.713,44.557],[9.7156,44.5564],[9.7195,44.554],[9.7259,44.5469],[9.728,44.5461],[9.7346,44.5504],[9.7435,44.5578],[9.7485,44.56],[9.7492,44.5599],[9.7517,44.555],[9.7649,44.5468],[9.7692,44.5463],[9.7822,44.5469],[9.7867,44.5479],[9.7923,44.5507],[9.8006,44.5566],[9.8025,44.5584],[9.8034,44.5664],[9.8201,44.5636],[9.8363,44.5546],[9.8362,44.5481],[9.8542,44.5332],[9.8617,44.5295],[9.8645,44.5292],[9.8725,44.5332],[9.8831,44.537],[9.8864,44.5375]]]}},{"type":"Feature","properties":{"i":"034007","n":"Busseto"},"geometry":{"type":"Polygon","coordinates":[[[10.1459,44.9853],[10.1412,44.9754],[10.1359,44.9609],[10.1352,44.9566],[10.1296,44.9531],[10.1044,44.9431],[10.0868,44.9338],[10.0765,44.9223],[10.0744,44.9173],[10.0633,44.9085],[10.0586,44.9078],[10.0551,44.9087],[10.0537,44.9101],[10.0555,44.914],[10.0624,44.9162],[10.0648,44.9185],[10.0661,44.922],[10.0657,44.9275],[10.0586,44.9304],[10.0569,44.9277],[10.0534,44.9278],[10.0404,44.9346],[10.0368,44.9369],[10.0373,44.9376],[10.033,44.9389],[10.0224,44.9316],[10.0144,44.921],[10.0141,44.9201],[10.0163,44.918],[10.0161,44.9124],[10.0123,44.9009],[10.0219,44.8981],[10.0205,44.8908],[10.017,44.8907],[10.0123,44.8879],[10.0109,44.8889],[10.0075,44.8974],[10.0042,44.9018],[9.9978,44.9047],[9.9939,44.9077],[9.9926,44.9143],[9.9991,44.9292],[9.9874,44.9359],[9.9881,44.9385],[9.9962,44.957],[10.0044,44.9684],[10.028,44.9806],[10.0334,44.9867],[10.0358,44.9905],[10.0337,44.9942],[10.0343,45.0013],[10.0395,45.0122],[10.0418,45.009],[10.0537,45.0021],[10.0617,44.9991],[10.0685,45.0027],[10.0704,45.0053],[10.0872,45.0048],[10.0987,45.0018],[10.0926,44.9937],[10.0904,44.9865],[10.0955,44.9845],[10.1459,44.9853]]]}},{"type":"Feature","properties":{"i":"034008","n":"Calestano"},"geometry":{"type":"Polygon","coordinates":[[[10.1976,44.637],[10.2098,44.6235],[10.2073,44.6161],[10.1966,44.607],[10.188,44.6055],[10.1837,44.6069],[10.1766,44.6024],[10.171,44.5974],[10.1713,44.5906],[10.1744,44.5897],[10.1748,44.5888],[10.1739,44.5842],[10.1669,44.5721],[10.1574,44.5679],[10.1474,44.5665],[10.1399,44.5627],[10.1382,44.5596],[10.1335,44.5565],[10.1123,44.5621],[10.1013,44.5589],[10.0742,44.5438],[10.0711,44.5414],[10.0695,44.5411],[10.0652,44.5448],[10.0676,44.5537],[10.067,44.5563],[10.0621,44.5601],[10.0566,44.5623],[10.0517,44.5654],[10.0448,44.5707],[10.0449,44.5739],[10.0478,44.5782],[10.0498,44.5794],[10.0521,44.5795],[10.0662,44.5844],[10.0822,44.5859],[10.09,44.5874],[10.0949,44.5892],[10.1031,44.596],[10.1114,44.611],[10.1156,44.6131],[10.1214,44.6154],[10.1324,44.6175],[10.1393,44.6156],[10.153,44.6168],[10.1611,44.6204],[10.1652,44.6241],[10.1729,44.6398],[10.1783,44.6446],[10.1976,44.637]]]}},{"type":"Feature","properties":{"i":"034009","n":"Collecchio"},"geometry":{"type":"Polygon","coordinates":[[[10.2448,44.7293],[10.2394,44.7313],[10.2337,44.726],[10.2208,44.7272],[10.2114,44.7323],[10.2006,44.7331],[10.1982,44.7299],[10.1941,44.729],[10.1921,44.7353],[10.1894,44.7363],[10.1867,44.7327],[10.1809,44.7215],[10.1747,44.7156],[10.1719,44.7144],[10.1695,44.7112],[10.1566,44.7023],[10.1502,44.6897],[10.1467,44.6906],[10.1394,44.6952],[10.1365,44.7006],[10.121,44.712],[10.141,44.724],[10.1555,44.7309],[10.169,44.7403],[10.1705,44.7427],[10.1731,44.7551],[10.1806,44.7662],[10.185,44.7753],[10.2059,44.7967],[10.2135,44.8055],[10.2388,44.8],[10.2424,44.7974],[10.2326,44.7749],[10.2412,44.7736],[10.2565,44.7759],[10.2649,44.7745],[10.2732,44.7729],[10.2734,44.771],[10.2841,44.7658],[10.2762,44.756],[10.256,44.7367],[10.2448,44.7293]]]}},{"type":"Feature","properties":{"i":"034010","n":"Colorno"},"geometry":{"type":"Polygon","coordinates":[[[10.4252,44.9602],[10.4137,44.9539],[10.4126,44.9508],[10.4229,44.9321],[10.4232,44.93],[10.4194,44.9199],[10.4083,44.9123],[10.4135,44.9047],[10.4098,44.8983],[10.3944,44.9009],[10.3886,44.903],[10.377,44.9054],[10.3764,44.9124],[10.3669,44.9145],[10.363,44.9095],[10.3536,44.9087],[10.3493,44.9096],[10.3479,44.9113],[10.3307,44.9165],[10.3283,44.9191],[10.3281,44.9219],[10.3343,44.9245],[10.3389,44.9226],[10.3414,44.9233],[10.3445,44.9265],[10.3459,44.9296],[10.3459,44.9339],[10.3388,44.9399],[10.3351,44.9409],[10.3213,44.9479],[10.3296,44.9569],[10.3445,44.9638],[10.356,44.9622],[10.3588,44.9655],[10.3634,44.9656],[10.3693,44.9681],[10.3855,44.9803],[10.3954,44.9841],[10.4035,44.9848],[10.4099,44.9829],[10.4168,44.9777],[10.4193,44.9736],[10.4229,44.9638],[10.4252,44.9602]]]}},{"type":"Feature","properties":{"i":"034011","n":"Compiano"},"geometry":{"type":"Polygon","coordinates":[[[9.702,44.5531],[9.7,44.5527],[9.7001,44.5513],[9.7043,44.5447],[9.7049,44.5407],[9.6986,44.5242],[9.6985,44.5166],[9.7003,44.5106],[9.7056,44.5049],[9.6997,44.485],[9.6991,44.4844],[9.6873,44.4865],[9.6731,44.4911],[9.6695,44.4895],[9.6642,44.4854],[9.6644,44.4822],[9.6679,44.4787],[9.6676,44.4757],[9.663,44.475],[9.6503,44.475],[9.6471,44.4755],[9.6421,44.4778],[9.641,44.4801],[9.6453,44.4855],[9.6449,44.4871],[9.6458,44.4889],[9.652,44.4935],[9.6555,44.4947],[9.6648,44.5075],[9.6625,44.5153],[9.6596,44.5175],[9.6672,44.525],[9.6675,44.5276],[9.6646,44.5371],[9.6583,44.5412],[9.6517,44.5469],[9.6555,44.5542],[9.6568,44.5593],[9.6547,44.5726],[9.6576,44.5841],[9.6613,44.5864],[9.668,44.5873],[9.6837,44.5851],[9.6919,44.5761],[9.695,44.5674],[9.6964,44.5609],[9.702,44.5531]]]}},{"type":"Feature","properties":{"i":"034012","n":"Corniglio"},"geometry":{"type":"Polygon","coordinates":[[[10.1928,44.5545],[10.1868,44.5468],[10.1746,44.5387],[10.1658,44.5354],[10.1594,44.5346],[10.1524,44.5324],[10.1387,44.5232],[10.1324,44.5174],[10.1253,44.5042],[10.1335,44.4969],[10.1409,44.4936],[10.1424,44.492],[10.1428,44.4889],[10.1395,44.4826],[10.1481,44.4753],[10.1489,44.4736],[10.1491,44.4678],[10.1364,44.4572],[10.135,44.4529],[10.1288,44.4524],[10.1235,44.4425],[10.1177,44.4354],[10.1129,44.4346],[10.1072,44.4368],[10.0969,44.4356],[10.087,44.4283],[10.0824,44.4295],[10.071,44.4264],[10.0654,44.4148],[10.0632,44.4042],[10.0631,44.394],[10.0532,44.373],[10.0422,44.3743],[10.0302,44.3812],[10.0103,44.3891],[9.9966,44.3983],[9.994,44.4017],[9.9893,44.4043],[9.9962,44.4156],[10.0025,44.4229],[10.0055,44.4285],[10.0064,44.4324],[10.0011,44.443],[9.9969,44.4465],[9.996,44.447],[9.9936,44.4459],[9.988,44.4451],[9.9811,44.4451],[9.972,44.4514],[9.9696,44.4582],[9.9716,44.4635],[9.9732,44.4646],[9.9831,44.4673],[9.9919,44.475],[9.9935,44.4791],[10.0045,44.4929],[10.0205,44.4969],[10.0286,44.5001],[10.0443,44.5086],[10.0521,44.5165],[10.0621,44.5237],[10.0713,44.5376],[10.0711,44.5414],[10.0742,44.5438],[10.1013,44.5589],[10.1123,44.5621],[10.1335,44.5565],[10.1382,44.5596],[10.1399,44.5627],[10.1474,44.5665],[10.1574,44.5679],[10.1669,44.5721],[10.1697,44.5689],[10.1743,44.5607],[10.181,44.5573],[10.1886,44.5563],[10.1928,44.5545]]]}},{"type":"Feature","properties":{"i":"034013","n":"Felino"},"geometry":{"type":"Polygon","coordinates":[[[10.2934,44.6913],[10.2899,44.691],[10.2835,44.6867],[10.2701,44.674],[10.2603,44.6685],[10.2545,44.663],[10.246,44.6566],[10.2404,44.6529],[10.2324,44.6497],[10.2244,44.6467],[10.2095,44.6469],[10.1976,44.637],[10.1783,44.6446],[10.1815,44.6483],[10.1833,44.6568],[10.1854,44.6594],[10.1904,44.6634],[10.1955,44.666],[10.204,44.6732],[10.207,44.6778],[10.213,44.6836],[10.2235,44.6907],[10.228,44.6975],[10.2423,44.7238],[10.2489,44.7229],[10.2583,44.7131],[10.275,44.7078],[10.2834,44.7089],[10.2899,44.7074],[10.298,44.7042],[10.2959,44.6998],[10.2934,44.6913]]]}},{"type":"Feature","properties":{"i":"034014","n":"Fidenza"},"geometry":{"type":"Polygon","coordinates":[[[10.0744,44.9173],[10.0906,44.9134],[10.0953,44.9131],[10.1075,44.9079],[10.1075,44.9038],[10.1024,44.8957],[10.1032,44.8883],[10.1046,44.8862],[10.1083,44.8839],[10.1041,44.8801],[10.102,44.8766],[10.1027,44.8684],[10.1049,44.8623],[10.105,44.8477],[10.1021,44.8438],[10.0994,44.8443],[10.095,44.8425],[10.0933,44.8389],[10.0939,44.8338],[10.0959,44.8283],[10.0958,44.8215],[10.0938,44.8142],[10.0945,44.8085],[10.0921,44.805],[10.084,44.7996],[10.0759,44.7922],[10.0728,44.7876],[10.0664,44.7809],[10.0622,44.7791],[10.0525,44.7802],[10.0411,44.7769],[10.0387,44.7753],[10.039,44.7743],[10.0341,44.7717],[10.0271,44.7787],[10.025,44.7828],[10.0269,44.7858],[10.0392,44.7901],[10.0414,44.7922],[10.0411,44.802],[10.0418,44.8079],[10.041,44.8229],[10.0465,44.8278],[10.0492,44.8315],[10.0514,44.8369],[10.0494,44.838],[10.0425,44.8386],[10.0301,44.8422],[10.0201,44.8419],[10.0158,44.8457],[10.0162,44.853],[10.0151,44.8539],[10.012,44.8537],[9.9911,44.8458],[9.9867,44.8456],[9.9849,44.8512],[9.9851,44.8585],[9.9992,44.8707],[10.01,44.8746],[10.011,44.8761],[10.0107,44.8833],[10.0123,44.8879],[10.017,44.8907],[10.0205,44.8908],[10.0219,44.8981],[10.0123,44.9009],[10.0161,44.9124],[10.0163,44.918],[10.0141,44.9201],[10.016,44.9238],[10.0224,44.9316],[10.0306,44.9375],[10.033,44.9389],[10.0373,44.9376],[10.0368,44.9369],[10.0404,44.9346],[10.0534,44.9278],[10.0569,44.9277],[10.0586,44.9304],[10.0657,44.9275],[10.0661,44.922],[10.0648,44.9185],[10.0624,44.9162],[10.0555,44.914],[10.0537,44.9101],[10.0551,44.9087],[10.0586,44.9078],[10.0633,44.9085],[10.0744,44.9173]]]}},{"type":"Feature","properties":{"i":"034015","n":"Fontanellato"},"geometry":{"type":"Polygon","coordinates":[[[10.2456,44.8905],[10.24,44.8769],[10.2423,44.8707],[10.2021,44.8635],[10.1948,44.865],[10.1937,44.8678],[10.1914,44.8699],[10.1736,44.8719],[10.1683,44.8717],[10.166,44.8648],[10.168,44.8624],[10.1626,44.8532],[10.1591,44.8384],[10.1107,44.8522],[10.1049,44.8545],[10.1054,44.8558],[10.1049,44.8623],[10.1027,44.8684],[10.102,44.8766],[10.1041,44.8801],[10.1083,44.8839],[10.1134,44.8863],[10.1262,44.9008],[10.1321,44.9032],[10.1338,44.9028],[10.1386,44.905],[10.1415,44.907],[10.1477,44.9149],[10.1546,44.9196],[10.1592,44.9178],[10.1638,44.9203],[10.1752,44.9199],[10.1838,44.9175],[10.1872,44.9173],[10.1893,44.9125],[10.1894,44.91],[10.1886,44.9087],[10.1828,44.9051],[10.1828,44.9042],[10.1906,44.9005],[10.1995,44.902],[10.2083,44.8991],[10.211,44.8968],[10.211,44.8923],[10.2102,44.8918],[10.2114,44.8913],[10.2251,44.8903],[10.2258,44.8918],[10.2385,44.8918],[10.2456,44.8905]]]}},{"type":"Feature","properties":{"i":"034016","n":"Fontevivo"},"geometry":{"type":"Polygon","coordinates":[[[10.2423,44.8707],[10.2443,44.8689],[10.2458,44.8639],[10.2406,44.8473],[10.2349,44.8354],[10.2238,44.8227],[10.1837,44.8316],[10.1591,44.8384],[10.1626,44.8532],[10.168,44.8624],[10.166,44.8648],[10.1683,44.8717],[10.1736,44.8719],[10.1914,44.8699],[10.1937,44.8678],[10.1948,44.865],[10.2021,44.8635],[10.2423,44.8707]]]}},{"type":"Feature","properties":{"i":"034017","n":"Fornovo di Taro"},"geometry":{"type":"Polygon","coordinates":[[[10.1635,44.6524],[10.162,44.6512],[10.1582,44.6503],[10.1441,44.6495],[10.1385,44.6502],[10.127,44.6532],[10.1228,44.6511],[10.1151,44.6409],[10.1106,44.6366],[10.105,44.6345],[10.0968,44.6335],[10.0901,44.6344],[10.0828,44.6411],[10.0707,44.6435],[10.0633,44.6398],[10.0588,44.6316],[10.0487,44.6233],[10.045,44.6215],[10.0358,44.626],[10.0187,44.6296],[10.0362,44.6391],[10.0411,44.647],[10.0466,44.654],[10.0575,44.6597],[10.0675,44.6661],[10.0682,44.6674],[10.0651,44.6674],[10.0685,44.6722],[10.0806,44.6799],[10.0888,44.6827],[10.09,44.6847],[10.0913,44.6926],[10.0944,44.6964],[10.1057,44.7043],[10.121,44.712],[10.1365,44.7006],[10.1394,44.6952],[10.1467,44.6906],[10.1502,44.6897],[10.1566,44.7023],[10.1695,44.7112],[10.1739,44.7118],[10.1838,44.7083],[10.1859,44.7036],[10.186,44.7015],[10.1747,44.6859],[10.1704,44.6858],[10.1661,44.6781],[10.1662,44.6762],[10.1693,44.6725],[10.1703,44.66],[10.1672,44.6555],[10.1635,44.6524]]]}},{"type":"Feature","properties":{"i":"034018","n":"Langhirano"},"geometry":{"type":"Polygon","coordinates":[[[10.2934,44.6913],[10.2972,44.6896],[10.2961,44.6828],[10.2937,44.6756],[10.3055,44.6677],[10.3089,44.6626],[10.2868,44.6552],[10.2781,44.6484],[10.2751,44.6409],[10.276,44.636],[10.2795,44.6283],[10.2802,44.6228],[10.2792,44.6189],[10.2745,44.6133],[10.2687,44.6085],[10.2608,44.6002],[10.2527,44.5903],[10.2448,44.5765],[10.2412,44.5723],[10.2295,44.5638],[10.2011,44.5556],[10.196,44.5559],[10.1928,44.5545],[10.1886,44.5563],[10.181,44.5573],[10.1743,44.5607],[10.1697,44.5689],[10.1669,44.5721],[10.1739,44.5842],[10.1748,44.5888],[10.1744,44.5897],[10.1713,44.5906],[10.171,44.5974],[10.1766,44.6024],[10.1837,44.6069],[10.188,44.6055],[10.1966,44.607],[10.2073,44.6161],[10.2098,44.6235],[10.1976,44.637],[10.2095,44.6469],[10.2244,44.6467],[10.2404,44.6529],[10.2545,44.663],[10.2603,44.6685],[10.2701,44.674],[10.2835,44.6867],[10.2899,44.691],[10.2934,44.6913]]]}},{"type":"Feature","properties":{"i":"034019","n":"Lesignano de' Bagni"},"geometry":{"type":"Polygon","coordinates":[[[10.3384,44.6037],[10.3297,44.602],[10.3133,44.5967],[10.3091,44.5908],[10.3064,44.5843],[10.3021,44.5815],[10.289,44.5781],[10.2796,44.5778],[10.2734,44.5748],[10.267,44.569],[10.259,44.566],[10.2489,44.5659],[10.2431,44.5681],[10.2391,44.5709],[10.2448,44.5765],[10.2527,44.5903],[10.2608,44.6002],[10.2687,44.6085],[10.2745,44.6133],[10.2792,44.6189],[10.2802,44.6228],[10.2795,44.6283],[10.276,44.636],[10.2751,44.6409],[10.2781,44.6484],[10.2868,44.6552],[10.3089,44.6626],[10.3118,44.6668],[10.3212,44.6712],[10.3266,44.6674],[10.3374,44.6635],[10.3391,44.6624],[10.3418,44.6579],[10.3395,44.6419],[10.3439,44.6371],[10.3356,44.6283],[10.3256,44.6238],[10.3229,44.6195],[10.3369,44.617],[10.3442,44.6117],[10.3443,44.61],[10.3412,44.606],[10.3384,44.6037]]]}},{"type":"Feature","properties":{"i":"034020","n":"Medesano"},"geometry":{"type":"Polygon","coordinates":[[[10.1822,44.7703],[10.1827,44.7698],[10.1806,44.7662],[10.1731,44.7551],[10.1705,44.7427],[10.169,44.7403],[10.1555,44.7309],[10.141,44.724],[10.121,44.712],[10.1057,44.7043],[10.0944,44.6964],[10.092,44.6941],[10.0912,44.6915],[10.0723,44.7027],[10.0689,44.7035],[10.0581,44.7022],[10.0427,44.7042],[10.026,44.7103],[10.0193,44.7132],[10.0184,44.7172],[10.0117,44.7226],[9.9969,44.7267],[9.9865,44.7256],[9.9856,44.731],[9.9868,44.7324],[9.9852,44.7408],[9.9836,44.742],[9.9828,44.745],[9.9829,44.7484],[9.9966,44.7609],[10.0082,44.7663],[10.0179,44.7688],[10.0341,44.7717],[10.039,44.7743],[10.0422,44.7698],[10.0487,44.7667],[10.0715,44.769],[10.077,44.7664],[10.0797,44.7606],[10.0705,44.76],[10.0695,44.7594],[10.0698,44.7589],[10.0936,44.7572],[10.1121,44.7587],[10.1158,44.7604],[10.1222,44.7653],[10.1294,44.7674],[10.1355,44.7677],[10.1376,44.7708],[10.138,44.7724],[10.1366,44.7737],[10.1397,44.78],[10.1488,44.7824],[10.1543,44.7818],[10.1634,44.7774],[10.1822,44.7703]]]}},{"type":"Feature","properties":{"i":"034022","n":"Monchio delle Corti"},"geometry":{"type":"Polygon","coordinates":[[[10.135,44.4529],[10.136,44.4476],[10.1339,44.4456],[10.1375,44.441],[10.1462,44.439],[10.1495,44.4366],[10.1519,44.4325],[10.1557,44.4296],[10.1645,44.4256],[10.1709,44.4254],[10.1767,44.416],[10.1759,44.4102],[10.1705,44.4045],[10.1582,44.4004],[10.1487,44.3934],[10.1476,44.3917],[10.1554,44.3829],[10.1599,44.3808],[10.1498,44.3706],[10.1461,44.3634],[10.1445,44.3578],[10.142,44.3539],[10.1333,44.3543],[10.1183,44.3529],[10.1041,44.3495],[10.0992,44.3461],[10.0983,44.3463],[10.0949,44.3484],[10.092,44.3524],[10.0807,44.3571],[10.0781,44.3567],[10.0669,44.3634],[10.0625,44.3681],[10.0532,44.373],[10.0631,44.394],[10.0632,44.4042],[10.0654,44.4148],[10.071,44.4264],[10.0824,44.4295],[10.087,44.4283],[10.0969,44.4356],[10.1072,44.4368],[10.1129,44.4346],[10.1177,44.4354],[10.1235,44.4425],[10.1288,44.4524],[10.135,44.4529]]]}},{"type":"Feature","properties":{"i":"034023","n":"Montechiarugolo"},"geometry":{"type":"Polygon","coordinates":[[[10.4261,44.7439],[10.425,44.7401],[10.4257,44.7387],[10.4358,44.7347],[10.4454,44.7271],[10.4469,44.7238],[10.4473,44.7193],[10.4458,44.7157],[10.4422,44.7128],[10.4293,44.695],[10.419,44.6762],[10.4154,44.6669],[10.4092,44.667],[10.3984,44.6689],[10.386,44.6746],[10.3761,44.6693],[10.3679,44.6696],[10.3588,44.6728],[10.354,44.6836],[10.3528,44.6839],[10.3445,44.6846],[10.339,44.6794],[10.3349,44.6791],[10.3311,44.681],[10.3376,44.7177],[10.3389,44.7193],[10.3538,44.7144],[10.3588,44.7077],[10.3732,44.7041],[10.3779,44.7246],[10.3867,44.7401],[10.4013,44.7459],[10.4098,44.7444],[10.4198,44.7414],[10.4246,44.7427],[10.4261,44.7439]]]}},{"type":"Feature","properties":{"i":"034024","n":"Neviano degli Arduini"},"geometry":{"type":"Polygon","coordinates":[[[10.3991,44.5855],[10.4024,44.5754],[10.4022,44.5645],[10.4008,44.5616],[10.397,44.5577],[10.3848,44.5489],[10.3756,44.545],[10.3682,44.5448],[10.3633,44.5429],[10.3545,44.5329],[10.3534,44.53],[10.3425,44.5257],[10.3385,44.5162],[10.3381,44.5121],[10.3392,44.5084],[10.3388,44.5038],[10.3357,44.4971],[10.332,44.4952],[10.3309,44.4887],[10.3324,44.487],[10.3322,44.4854],[10.3264,44.4808],[10.3216,44.4784],[10.3031,44.4701],[10.2978,44.4744],[10.2949,44.4781],[10.2875,44.483],[10.2766,44.4854],[10.2714,44.49],[10.2709,44.4916],[10.2759,44.4977],[10.2769,44.5014],[10.2719,44.5083],[10.2691,44.5101],[10.2449,44.5041],[10.2339,44.5046],[10.2327,44.5054],[10.2346,44.5131],[10.2398,44.5265],[10.2419,44.5271],[10.2457,44.5259],[10.2506,44.5278],[10.2555,44.5347],[10.256,44.5374],[10.2552,44.54],[10.2477,44.5399],[10.2425,44.5409],[10.2403,44.5436],[10.2402,44.5489],[10.2388,44.5523],[10.2322,44.5594],[10.2295,44.5638],[10.2391,44.5709],[10.2431,44.5681],[10.2489,44.5659],[10.259,44.566],[10.267,44.569],[10.2734,44.5748],[10.2796,44.5778],[10.289,44.5781],[10.3021,44.5815],[10.3064,44.5843],[10.3091,44.5908],[10.3133,44.5967],[10.3361,44.6035],[10.3384,44.6037],[10.3406,44.6025],[10.34,44.5945],[10.3408,44.5935],[10.3575,44.5894],[10.3607,44.587],[10.3629,44.5865],[10.3721,44.5877],[10.3978,44.5879],[10.3991,44.5855]]]}},{"type":"Feature","properties":{"i":"034025","n":"Noceto"},"geometry":{"type":"Polygon","coordinates":[[[10.1591,44.8384],[10.1837,44.8316],[10.2238,44.8227],[10.2201,44.8169],[10.2206,44.8128],[10.2201,44.8112],[10.2135,44.8055],[10.2059,44.7967],[10.185,44.7753],[10.1822,44.7703],[10.1634,44.7774],[10.1543,44.7818],[10.1488,44.7824],[10.1397,44.78],[10.1366,44.7737],[10.138,44.7724],[10.1376,44.7708],[10.1355,44.7677],[10.1294,44.7674],[10.1222,44.7653],[10.1158,44.7604],[10.1121,44.7587],[10.0936,44.7572],[10.0698,44.7589],[10.0695,44.7594],[10.0705,44.76],[10.0797,44.7606],[10.077,44.7664],[10.0715,44.769],[10.0487,44.7667],[10.0422,44.7698],[10.0385,44.7745],[10.0411,44.7769],[10.0525,44.7802],[10.0622,44.7791],[10.0664,44.7809],[10.0728,44.7876],[10.0759,44.7922],[10.084,44.7996],[10.0921,44.805],[10.0945,44.8085],[10.0938,44.8142],[10.0958,44.8215],[10.0959,44.8283],[10.0939,44.8338],[10.0933,44.8389],[10.095,44.8425],[10.097,44.8437],[10.0994,44.8443],[10.1021,44.8438],[10.105,44.8477],[10.1049,44.8545],[10.1107,44.8522],[10.1591,44.8384]]]}},{"type":"Feature","properties":{"i":"034026","n":"Palanzano"},"geometry":{"type":"Polygon","coordinates":[[[10.3031,44.4701],[10.2854,44.46],[10.2698,44.4581],[10.2546,44.4517],[10.2514,44.4469],[10.2358,44.435],[10.2317,44.4302],[10.2257,44.4143],[10.2232,44.4097],[10.2089,44.3959],[10.2033,44.3924],[10.1888,44.3873],[10.1696,44.3838],[10.1669,44.3844],[10.1599,44.3808],[10.1554,44.3829],[10.1476,44.3917],[10.1487,44.3934],[10.1582,44.4004],[10.1705,44.4045],[10.1759,44.4102],[10.1767,44.416],[10.1709,44.4254],[10.1645,44.4256],[10.1557,44.4296],[10.1519,44.4325],[10.1489,44.4371],[10.1462,44.439],[10.1375,44.441],[10.1339,44.4456],[10.136,44.4476],[10.135,44.4529],[10.1364,44.4572],[10.1491,44.4678],[10.1578,44.4655],[10.1789,44.4634],[10.1875,44.4641],[10.2161,44.472],[10.2262,44.4712],[10.2345,44.4719],[10.236,44.4727],[10.2448,44.4853],[10.2551,44.4862],[10.2709,44.4916],[10.2714,44.49],[10.2766,44.4854],[10.2875,44.483],[10.2949,44.4781],[10.2978,44.4744],[10.3031,44.4701]]]}},{"type":"Feature","properties":{"i":"034027","n":"Parma"},"geometry":{"type":"Polygon","coordinates":[[[10.4065,44.8801],[10.4136,44.8808],[10.4151,44.8783],[10.4095,44.8642],[10.3968,44.8535],[10.3957,44.8537],[10.3844,44.8248],[10.396,44.8291],[10.4158,44.8324],[10.4332,44.8225],[10.4381,44.8202],[10.4421,44.8196],[10.4375,44.8058],[10.4314,44.7999],[10.4248,44.7997],[10.4235,44.7982],[10.4232,44.7953],[10.4248,44.7834],[10.4297,44.7531],[10.4283,44.7488],[10.4261,44.7439],[10.4246,44.7427],[10.4198,44.7414],[10.4098,44.7444],[10.4013,44.7459],[10.3867,44.7401],[10.3779,44.7246],[10.3732,44.7041],[10.3588,44.7077],[10.3538,44.7144],[10.3389,44.7193],[10.3376,44.7177],[10.3311,44.681],[10.3212,44.6712],[10.3114,44.6664],[10.3089,44.6626],[10.3055,44.6677],[10.2937,44.6756],[10.2961,44.6828],[10.2972,44.6896],[10.2935,44.6918],[10.298,44.7042],[10.2899,44.7074],[10.2834,44.7089],[10.275,44.7078],[10.2583,44.7131],[10.2489,44.7229],[10.2423,44.7238],[10.2448,44.7293],[10.256,44.7367],[10.2762,44.756],[10.2841,44.7658],[10.2734,44.771],[10.2732,44.7729],[10.2649,44.7745],[10.2565,44.7759],[10.2412,44.7736],[10.2326,44.7749],[10.2424,44.7974],[10.2388,44.8],[10.2135,44.8055],[10.2201,44.8112],[10.2206,44.8128],[10.2198,44.8155],[10.2205,44.8178],[10.2238,44.8227],[10.2349,44.8354],[10.2406,44.8473],[10.2458,44.8649],[10.2443,44.8689],[10.2423,44.8707],[10.24,44.8769],[10.2567,44.8756],[10.2742,44.8789],[10.2836,44.8879],[10.2903,44.9009],[10.2968,44.9008],[10.2962,44.8943],[10.2968,44.8854],[10.3055,44.884],[10.3084,44.8853],[10.3547,44.8756],[10.3613,44.874],[10.3598,44.8712],[10.3645,44.8703],[10.379,44.8741],[10.3941,44.8801],[10.4065,44.8801]]]}},{"type":"Feature","properties":{"i":"034028","n":"Pellegrino Parmense"},"geometry":{"type":"Polygon","coordinates":[[[9.9846,44.7502],[9.9825,44.7478],[9.9831,44.7431],[9.9852,44.7408],[9.9868,44.7324],[9.9856,44.731],[9.9865,44.7256],[9.9838,44.7255],[9.9771,44.7273],[9.9771,44.7283],[9.9725,44.7297],[9.9696,44.729],[9.9673,44.7234],[9.9696,44.7171],[9.9672,44.709],[9.9504,44.7046],[9.9415,44.7054],[9.9382,44.7074],[9.9307,44.7087],[9.9182,44.7071],[9.9155,44.7098],[9.9157,44.7115],[9.9145,44.7121],[9.9077,44.7147],[9.8999,44.7164],[9.8996,44.7121],[9.8925,44.7072],[9.8849,44.7052],[9.8778,44.7004],[9.8762,44.6982],[9.8743,44.7002],[9.8593,44.7031],[9.8472,44.707],[9.8451,44.7089],[9.8456,44.7122],[9.8471,44.7149],[9.8493,44.717],[9.8589,44.7334],[9.8461,44.7431],[9.8482,44.7475],[9.8422,44.7518],[9.8336,44.754],[9.8365,44.7582],[9.8448,44.7623],[9.8493,44.7656],[9.8561,44.7661],[9.8581,44.7639],[9.865,44.7621],[9.8685,44.763],[9.8802,44.7685],[9.8768,44.7757],[9.8744,44.7854],[9.8781,44.7954],[9.8821,44.8028],[9.8918,44.8044],[9.9003,44.8078],[9.9021,44.802],[9.906,44.7986],[9.9216,44.8001],[9.9231,44.7981],[9.9237,44.7908],[9.9323,44.7861],[9.9378,44.7801],[9.9376,44.7706],[9.9433,44.7615],[9.9706,44.7562],[9.9846,44.7502]]]}},{"type":"Feature","properties":{"i":"034030","n":"Roccabianca"},"geometry":{"type":"Polygon","coordinates":[[[10.2422,45.0228],[10.2481,45.02],[10.2541,45.0187],[10.2585,45.0161],[10.2651,45.0048],[10.2556,45.0009],[10.2546,44.9996],[10.2537,44.9942],[10.2518,44.9911],[10.2374,44.9795],[10.2347,44.981],[10.2348,44.9827],[10.2402,44.9927],[10.2443,44.9983],[10.2441,44.9995],[10.2425,45.0014],[10.2396,45.0008],[10.2316,44.9952],[10.2311,44.9915],[10.2331,44.9775],[10.2344,44.9756],[10.2402,44.973],[10.2444,44.9699],[10.2453,44.966],[10.2448,44.9645],[10.2436,44.9637],[10.2422,44.9642],[10.2392,44.9681],[10.2345,44.9709],[10.2317,44.9715],[10.2294,44.9702],[10.2294,44.9674],[10.2273,44.9647],[10.2199,44.9639],[10.2124,44.9656],[10.2031,44.9648],[10.1999,44.9631],[10.1958,44.9623],[10.1758,44.9625],[10.1765,44.9711],[10.1821,44.9771],[10.1704,44.9812],[10.1707,44.9891],[10.172,44.9991],[10.1796,45.0198],[10.1812,45.028],[10.1809,45.0305],[10.1873,45.0282],[10.194,45.0282],[10.2111,45.034],[10.2422,45.0228]]]}},{"type":"Feature","properties":{"i":"034031","n":"Sala Baganza"},"geometry":{"type":"Polygon","coordinates":[[[10.2448,44.7293],[10.228,44.6975],[10.2235,44.6907],[10.213,44.6836],[10.207,44.6778],[10.204,44.6732],[10.1955,44.666],[10.1904,44.6634],[10.1854,44.6594],[10.1833,44.6568],[10.1821,44.65],[10.1808,44.6473],[10.1729,44.6398],[10.171,44.6407],[10.1635,44.6519],[10.1672,44.6555],[10.1703,44.66],[10.1693,44.6725],[10.1662,44.6762],[10.1661,44.6781],[10.1704,44.6858],[10.1747,44.6859],[10.186,44.7015],[10.1859,44.7036],[10.1838,44.7083],[10.1739,44.7118],[10.1694,44.7117],[10.1809,44.7215],[10.1881,44.7348],[10.1894,44.7363],[10.1921,44.7353],[10.1941,44.729],[10.1982,44.7299],[10.2006,44.7331],[10.2114,44.7323],[10.2208,44.7272],[10.2337,44.726],[10.2394,44.7313],[10.2448,44.7293]]]}},{"type":"Feature","properties":{"i":"034032","n":"Salsomaggiore Terme"},"geometry":{"type":"Polygon","coordinates":[[[10.0341,44.7717],[10.0179,44.7688],[10.0082,44.7663],[9.9966,44.7609],[9.9846,44.7502],[9.9706,44.7562],[9.9433,44.7615],[9.9376,44.7706],[9.9378,44.7801],[9.9323,44.7861],[9.9237,44.7908],[9.9231,44.7981],[9.9216,44.8001],[9.906,44.7986],[9.9021,44.802],[9.9003,44.8078],[9.9052,44.8105],[9.9167,44.8206],[9.9244,44.825],[9.9354,44.8344],[9.9434,44.8375],[9.9485,44.8377],[9.9542,44.8404],[9.9577,44.8399],[9.9607,44.8378],[9.9689,44.839],[9.9787,44.844],[9.9911,44.8458],[10.012,44.8537],[10.0151,44.8539],[10.0162,44.853],[10.0158,44.8457],[10.0201,44.8419],[10.0301,44.8422],[10.0425,44.8386],[10.0494,44.838],[10.0515,44.8366],[10.0492,44.8315],[10.0465,44.8278],[10.041,44.8229],[10.0418,44.8079],[10.0411,44.802],[10.0414,44.7922],[10.0392,44.7901],[10.0269,44.7858],[10.025,44.7828],[10.0271,44.7787],[10.0341,44.7717]]]}},{"type":"Feature","properties":{"i":"034033","n":"San Secondo Parmense"},"geometry":{"type":"Polygon","coordinates":[[[10.2456,44.8905],[10.2385,44.8918],[10.2258,44.8918],[10.2251,44.8903],[10.2114,44.8913],[10.2102,44.8918],[10.211,44.8923],[10.211,44.8968],[10.2083,44.8991],[10.1995,44.902],[10.1906,44.9005],[10.1828,44.9042],[10.1828,44.9051],[10.1886,44.9087],[10.1894,44.91],[10.1893,44.9125],[10.1872,44.9173],[10.1838,44.9175],[10.1752,44.9199],[10.1638,44.9203],[10.1592,44.9178],[10.1546,44.9196],[10.1617,44.9216],[10.1768,44.9307],[10.1836,44.9416],[10.1842,44.9457],[10.1895,44.9533],[10.2008,44.959],[10.2028,44.9615],[10.2031,44.9648],[10.2124,44.9656],[10.2199,44.9639],[10.2273,44.9647],[10.2294,44.9674],[10.2294,44.9702],[10.2301,44.971],[10.2333,44.9712],[10.2325,44.9688],[10.2344,44.9563],[10.2326,44.9444],[10.2331,44.9427],[10.2362,44.9408],[10.2407,44.9395],[10.2426,44.942],[10.2484,44.9418],[10.2586,44.9377],[10.2592,44.9362],[10.2592,44.9347],[10.2572,44.9331],[10.2547,44.9257],[10.2554,44.9231],[10.2538,44.9166],[10.2444,44.9017],[10.2465,44.8929],[10.2456,44.8905]]]}},{"type":"Feature","properties":{"i":"034035","n":"Solignano"},"geometry":{"type":"Polygon","coordinates":[[[10.0905,44.6897],[10.09,44.6847],[10.0888,44.6827],[10.0806,44.6799],[10.0685,44.6722],[10.0651,44.6674],[10.0682,44.6674],[10.0675,44.6661],[10.0575,44.6597],[10.0466,44.654],[10.0411,44.647],[10.0362,44.6391],[10.0187,44.6296],[10.013,44.6299],[10.0066,44.6271],[9.9994,44.6219],[9.9835,44.6134],[9.9776,44.6065],[9.9661,44.5985],[9.9584,44.5971],[9.9561,44.6004],[9.952,44.6038],[9.9478,44.6057],[9.9325,44.5937],[9.9263,44.5904],[9.9258,44.5878],[9.9274,44.5863],[9.9201,44.5883],[9.9151,44.5914],[9.9034,44.6132],[9.9076,44.6142],[9.9229,44.6133],[9.9344,44.6182],[9.9298,44.6258],[9.9219,44.6314],[9.9212,44.6356],[9.9235,44.6362],[9.9239,44.6507],[9.9112,44.6599],[9.9012,44.6543],[9.8889,44.6553],[9.8883,44.6569],[9.8877,44.6613],[9.8886,44.6642],[9.8937,44.6705],[9.9089,44.6807],[9.9174,44.6788],[9.94,44.6787],[9.9486,44.6749],[9.9526,44.6678],[9.9631,44.6689],[9.9715,44.6637],[9.973,44.6601],[9.9755,44.6582],[9.9778,44.6578],[9.9904,44.661],[9.9922,44.6709],[9.989,44.6764],[9.988,44.683],[9.9986,44.6823],[9.9994,44.6774],[10.0102,44.6769],[10.0113,44.6721],[10.0116,44.6656],[10.0162,44.6623],[10.0362,44.6616],[10.0399,44.6631],[10.0435,44.6666],[10.0531,44.682],[10.0821,44.6894],[10.0905,44.6897]]]}},{"type":"Feature","properties":{"i":"034036","n":"Soragna"},"geometry":{"type":"Polygon","coordinates":[[[10.2031,44.9648],[10.2028,44.9615],[10.2008,44.959],[10.1895,44.9533],[10.1842,44.9457],[10.1836,44.9416],[10.1768,44.9307],[10.1617,44.9216],[10.1533,44.9191],[10.1477,44.9149],[10.1415,44.907],[10.1386,44.905],[10.1338,44.9028],[10.1321,44.9032],[10.1262,44.9008],[10.1117,44.8851],[10.1083,44.8839],[10.1046,44.8862],[10.1032,44.8883],[10.1024,44.8957],[10.1075,44.9038],[10.1075,44.9079],[10.0953,44.9131],[10.0837,44.9147],[10.074,44.9176],[10.0765,44.9223],[10.0868,44.9338],[10.1044,44.9431],[10.1296,44.9531],[10.1352,44.9566],[10.1359,44.9609],[10.1412,44.9754],[10.1459,44.9853],[10.1517,44.9851],[10.1704,44.9812],[10.1819,44.9773],[10.1765,44.9711],[10.1758,44.9625],[10.1958,44.9623],[10.1999,44.9631],[10.2031,44.9648]]]}},{"type":"Feature","properties":{"i":"034038","n":"Terenzo"},"geometry":{"type":"Polygon","coordinates":[[[10.1635,44.6524],[10.1688,44.6436],[10.171,44.6407],[10.1729,44.6398],[10.1652,44.6241],[10.162,44.6209],[10.153,44.6168],[10.1393,44.6156],[10.1324,44.6175],[10.1214,44.6154],[10.1156,44.6131],[10.1114,44.611],[10.1031,44.596],[10.0931,44.5883],[10.0822,44.5859],[10.0662,44.5844],[10.0521,44.5795],[10.0503,44.5796],[10.0478,44.5782],[10.0466,44.576],[10.0428,44.576],[10.0397,44.5748],[10.0233,44.5644],[10.0142,44.5644],[9.9981,44.5732],[9.9977,44.5764],[9.9942,44.5823],[9.9903,44.587],[9.9828,44.6001],[9.9776,44.6065],[9.9835,44.6134],[9.9994,44.6219],[10.0066,44.6271],[10.013,44.6299],[10.0187,44.6296],[10.0358,44.626],[10.045,44.6215],[10.0487,44.6233],[10.0588,44.6316],[10.0633,44.6398],[10.0707,44.6435],[10.0828,44.6411],[10.0901,44.6344],[10.0968,44.6335],[10.105,44.6345],[10.1106,44.6366],[10.1151,44.6409],[10.1228,44.6511],[10.127,44.6532],[10.1385,44.6502],[10.1441,44.6495],[10.1582,44.6503],[10.162,44.6512],[10.1635,44.6524]]]}},{"type":"Feature","properties":{"i":"034039","n":"Tizzano Val Parma"},"geometry":{"type":"Polygon","coordinates":[[[10.2709,44.4916],[10.2551,44.4862],[10.2448,44.4853],[10.236,44.4727],[10.2345,44.4719],[10.2262,44.4712],[10.2161,44.472],[10.1875,44.4641],[10.1789,44.4634],[10.1578,44.4655],[10.1491,44.4678],[10.1489,44.4736],[10.1481,44.4753],[10.1395,44.4826],[10.1428,44.4889],[10.1424,44.492],[10.1409,44.4936],[10.1335,44.4969],[10.1253,44.5042],[10.1324,44.5174],[10.1387,44.5232],[10.1524,44.5324],[10.1594,44.5346],[10.1658,44.5354],[10.1736,44.5381],[10.1868,44.5468],[10.1928,44.5545],[10.1951,44.5557],[10.2011,44.5556],[10.2295,44.5638],[10.2322,44.5594],[10.2388,44.5523],[10.2402,44.5489],[10.2403,44.5436],[10.2425,44.5409],[10.2477,44.5399],[10.2552,44.54],[10.256,44.5378],[10.2555,44.5347],[10.2506,44.5278],[10.2457,44.5259],[10.2419,44.5271],[10.2398,44.5265],[10.2346,44.5131],[10.2327,44.5054],[10.2339,44.5046],[10.2449,44.5041],[10.2691,44.5101],[10.2719,44.5083],[10.2771,44.5004],[10.2755,44.4971],[10.2709,44.4916]]]}},{"type":"Feature","properties":{"i":"034040","n":"Tornolo"},"geometry":{"type":"Polygon","coordinates":[[[9.6449,44.4871],[9.6453,44.4855],[9.6413,44.4808],[9.6411,44.4788],[9.6471,44.4755],[9.6555,44.475],[9.6591,44.4721],[9.6595,44.4687],[9.6576,44.4599],[9.6514,44.454],[9.6459,44.4516],[9.6443,44.4516],[9.6372,44.445],[9.6312,44.4363],[9.6222,44.4308],[9.6212,44.4285],[9.6235,44.4216],[9.613,44.4259],[9.6097,44.4281],[9.6067,44.4314],[9.6055,44.4357],[9.5982,44.4367],[9.592,44.4317],[9.5849,44.4284],[9.5825,44.4285],[9.5797,44.4319],[9.5741,44.435],[9.5585,44.4387],[9.5548,44.438],[9.5507,44.428],[9.5474,44.4268],[9.5409,44.4258],[9.529,44.4278],[9.4928,44.4233],[9.4819,44.4171],[9.483,44.4145],[9.4813,44.4109],[9.479,44.4093],[9.4738,44.4128],[9.472,44.4193],[9.4723,44.4219],[9.4613,44.4229],[9.4428,44.4166],[9.4384,44.4185],[9.4388,44.4279],[9.4396,44.4301],[9.4458,44.4384],[9.4523,44.4404],[9.4581,44.4488],[9.4618,44.4586],[9.4644,44.4629],[9.4675,44.466],[9.4706,44.472],[9.4689,44.4819],[9.4746,44.4825],[9.4823,44.4793],[9.4908,44.4807],[9.4968,44.4827],[9.5039,44.4802],[9.5067,44.4785],[9.5109,44.4731],[9.5117,44.4698],[9.5144,44.4646],[9.5208,44.455],[9.5277,44.4489],[9.5331,44.4479],[9.5378,44.4492],[9.5416,44.4485],[9.5484,44.4428],[9.5583,44.4401],[9.5592,44.4406],[9.5649,44.4537],[9.568,44.4583],[9.5768,44.465],[9.5798,44.4649],[9.5836,44.463],[9.5887,44.4567],[9.5928,44.4535],[9.6052,44.4507],[9.6059,44.4553],[9.604,44.4605],[9.6038,44.4641],[9.6059,44.4677],[9.6175,44.4781],[9.6155,44.4827],[9.6162,44.4875],[9.6179,44.4896],[9.6267,44.4918],[9.6299,44.4918],[9.6449,44.4871]]]}},{"type":"Feature","properties":{"i":"034041","n":"Torrile"},"geometry":{"type":"Polygon","coordinates":[[[10.3944,44.9009],[10.3904,44.8974],[10.3873,44.8931],[10.4109,44.8905],[10.4065,44.8801],[10.3928,44.8798],[10.379,44.8741],[10.3656,44.8702],[10.3598,44.8712],[10.3613,44.874],[10.3547,44.8756],[10.3084,44.8853],[10.3055,44.884],[10.2968,44.8854],[10.2962,44.8943],[10.2968,44.9008],[10.2903,44.9009],[10.2919,44.9066],[10.2951,44.9077],[10.3018,44.9138],[10.3068,44.9215],[10.3051,44.9254],[10.3078,44.9305],[10.3213,44.9479],[10.3351,44.9409],[10.3388,44.9399],[10.3459,44.9339],[10.3459,44.9296],[10.3445,44.9265],[10.3414,44.9233],[10.3389,44.9226],[10.3343,44.9245],[10.3278,44.9216],[10.3283,44.9191],[10.3297,44.917],[10.3479,44.9113],[10.3493,44.9096],[10.3536,44.9087],[10.363,44.9095],[10.3669,44.9145],[10.3714,44.9136],[10.3764,44.9124],[10.377,44.9054],[10.3886,44.903],[10.3944,44.9009]]]}},{"type":"Feature","properties":{"i":"034042","n":"Traversetolo"},"geometry":{"type":"Polygon","coordinates":[[[10.4154,44.6669],[10.4138,44.6659],[10.4139,44.664],[10.4168,44.6416],[10.4144,44.6288],[10.4099,44.6207],[10.4026,44.6164],[10.4015,44.6022],[10.4024,44.593],[10.3991,44.5855],[10.3978,44.5879],[10.3721,44.5877],[10.3629,44.5865],[10.3607,44.587],[10.3575,44.5894],[10.3402,44.594],[10.3406,44.6025],[10.3384,44.6037],[10.3412,44.606],[10.3443,44.61],[10.3442,44.6117],[10.3369,44.617],[10.3229,44.6195],[10.3256,44.6238],[10.3356,44.6283],[10.3439,44.6371],[10.3395,44.6419],[10.3418,44.6579],[10.3391,44.6624],[10.3266,44.6674],[10.3212,44.6712],[10.3311,44.681],[10.3349,44.6791],[10.339,44.6794],[10.3445,44.6846],[10.3528,44.6839],[10.354,44.6836],[10.3588,44.6728],[10.3679,44.6696],[10.3761,44.6693],[10.386,44.6746],[10.3984,44.6689],[10.4092,44.667],[10.4154,44.6669]]]}},{"type":"Feature","properties":{"i":"034044","n":"Valmozzola"},"geometry":{"type":"Polygon","coordinates":[[[9.9076,44.6142],[9.9034,44.6132],[9.9151,44.5914],[9.9201,44.5883],[9.9275,44.5866],[9.929,44.5832],[9.9399,44.5828],[9.9448,44.5796],[9.9486,44.5722],[9.9487,44.5714],[9.9457,44.5689],[9.931,44.5615],[9.9288,44.5592],[9.9292,44.5547],[9.9278,44.5527],[9.9223,44.5502],[9.9082,44.5469],[9.9059,44.5434],[9.896,44.5406],[9.8923,44.5409],[9.8886,44.5396],[9.8864,44.5375],[9.8831,44.537],[9.8725,44.5332],[9.8637,44.529],[9.8542,44.5332],[9.8362,44.5481],[9.8363,44.5546],[9.8201,44.5636],[9.8034,44.5664],[9.8039,44.5689],[9.8017,44.5715],[9.8004,44.5751],[9.8095,44.582],[9.8173,44.5863],[9.8209,44.5908],[9.8219,44.5991],[9.8255,44.5994],[9.8285,44.6018],[9.8444,44.6039],[9.8693,44.6163],[9.8871,44.6187],[9.8946,44.6232],[9.8995,44.6249],[9.9033,44.6246],[9.9079,44.617],[9.9076,44.6142]]]}},{"type":"Feature","properties":{"i":"034045","n":"Varano de' Melegari"},"geometry":{"type":"Polygon","coordinates":[[[9.9865,44.7256],[9.9969,44.7267],[10.0117,44.7226],[10.0184,44.7172],[10.0193,44.7132],[10.026,44.7103],[10.0427,44.7042],[10.0581,44.7022],[10.0689,44.7035],[10.0723,44.7027],[10.0912,44.6915],[10.0905,44.6897],[10.0821,44.6894],[10.0531,44.682],[10.0435,44.6666],[10.0399,44.6631],[10.0362,44.6616],[10.0162,44.6623],[10.0116,44.6656],[10.0113,44.6721],[10.0102,44.6769],[9.9994,44.6774],[9.9986,44.6823],[9.988,44.683],[9.989,44.6764],[9.9922,44.6709],[9.9904,44.661],[9.9769,44.6577],[9.973,44.6601],[9.9715,44.6637],[9.9631,44.6689],[9.9526,44.6678],[9.9486,44.6749],[9.94,44.6787],[9.9174,44.6788],[9.9089,44.6807],[9.8985,44.6874],[9.884,44.6875],[9.8831,44.6894],[9.8833,44.6912],[9.8762,44.6982],[9.8778,44.7004],[9.8849,44.7052],[9.8925,44.7072],[9.8996,44.7121],[9.8999,44.7164],[9.9077,44.7147],[9.9145,44.7121],[9.9157,44.7115],[9.9155,44.7098],[9.9182,44.7071],[9.9307,44.7087],[9.9382,44.7074],[9.9415,44.7054],[9.9511,44.7046],[9.9672,44.709],[9.9696,44.7171],[9.9673,44.7234],[9.9696,44.729],[9.9725,44.7297],[9.9771,44.7283],[9.9771,44.7273],[9.9838,44.7255],[9.9865,44.7256]]]}},{"type":"Feature","properties":{"i":"034046","n":"Varsi"},"geometry":{"type":"Polygon","coordinates":[[[9.8833,44.6912],[9.8831,44.6894],[9.884,44.6875],[9.8985,44.6874],[9.9089,44.6807],[9.8937,44.6705],[9.889,44.6647],[9.8877,44.6613],[9.8889,44.6553],[9.9012,44.6543],[9.9112,44.6599],[9.9239,44.6507],[9.9235,44.6362],[9.9212,44.6356],[9.9219,44.6314],[9.9298,44.6258],[9.9344,44.6182],[9.9229,44.6133],[9.9076,44.6142],[9.9079,44.617],[9.9033,44.6246],[9.9012,44.6252],[9.8946,44.6232],[9.8871,44.6187],[9.8693,44.6163],[9.8444,44.6039],[9.8285,44.6018],[9.8255,44.5994],[9.8219,44.5991],[9.8162,44.6032],[9.8015,44.61],[9.7752,44.61],[9.741,44.6192],[9.7411,44.6222],[9.7526,44.6292],[9.7571,44.633],[9.7685,44.6377],[9.777,44.6366],[9.7803,44.634],[9.7835,44.6295],[9.7866,44.6284],[9.791,44.6287],[9.8053,44.639],[9.8069,44.6426],[9.8075,44.6468],[9.8126,44.6517],[9.8318,44.6578],[9.8334,44.6601],[9.8329,44.6619],[9.8227,44.6674],[9.8197,44.6699],[9.8182,44.6722],[9.8152,44.679],[9.8149,44.6822],[9.8186,44.6855],[9.827,44.6885],[9.8484,44.6919],[9.8833,44.6912]]]}},{"type":"Feature","properties":{"i":"034049","n":"Sissa Trecasali"},"geometry":{"type":"Polygon","coordinates":[[[10.3182,44.9838],[10.3215,44.9836],[10.3308,44.9808],[10.3393,44.9762],[10.3489,44.9686],[10.3588,44.9655],[10.356,44.9622],[10.3445,44.9638],[10.3296,44.9569],[10.3273,44.9551],[10.3078,44.9305],[10.3051,44.9254],[10.3068,44.9215],[10.3018,44.9138],[10.2951,44.9077],[10.2919,44.9066],[10.2903,44.9009],[10.2836,44.8879],[10.2742,44.8789],[10.2567,44.8756],[10.24,44.8769],[10.2465,44.8929],[10.2444,44.9017],[10.2538,44.9166],[10.2554,44.9231],[10.2547,44.9257],[10.2572,44.9331],[10.2586,44.9339],[10.2592,44.9355],[10.2586,44.9377],[10.2484,44.9418],[10.2426,44.942],[10.2407,44.9395],[10.2349,44.9413],[10.2326,44.9437],[10.2344,44.9563],[10.2325,44.9688],[10.2333,44.9712],[10.2392,44.9681],[10.2422,44.9642],[10.2442,44.964],[10.2453,44.966],[10.2448,44.969],[10.2436,44.9706],[10.2344,44.9756],[10.2331,44.9775],[10.2311,44.9915],[10.2316,44.9952],[10.2396,45.0008],[10.2425,45.0014],[10.2441,44.9995],[10.2443,44.9983],[10.2357,44.9851],[10.2347,44.981],[10.2363,44.9796],[10.2381,44.9799],[10.2506,44.9898],[10.2537,44.9942],[10.2546,44.9996],[10.2556,45.0009],[10.2651,45.0048],[10.2696,45.0028],[10.2739,44.9985],[10.2999,45.0003],[10.3038,44.9994],[10.31,44.993],[10.3089,44.9874],[10.3182,44.9838]]]}},{"type":"Feature","properties":{"i":"034050","n":"Polesine Zibello"},"geometry":{"type":"Polygon","coordinates":[[[10.1704,44.9812],[10.1517,44.9851],[10.1296,44.9854],[10.0955,44.9845],[10.0904,44.9865],[10.0926,44.9937],[10.0987,45.0018],[10.0872,45.0048],[10.0704,45.0053],[10.0685,45.0027],[10.0617,44.9991],[10.0537,45.0021],[10.0418,45.009],[10.0395,45.0122],[10.0428,45.0184],[10.044,45.0253],[10.0455,45.0292],[10.0569,45.0373],[10.0589,45.038],[10.0835,45.044],[10.0841,45.0329],[10.0904,45.0259],[10.0929,45.0238],[10.1062,45.0221],[10.1436,45.0338],[10.1477,45.0355],[10.1524,45.0408],[10.1565,45.0437],[10.1648,45.0443],[10.1706,45.042],[10.1742,45.0383],[10.1751,45.0357],[10.1747,45.0342],[10.1772,45.0319],[10.1809,45.0305],[10.1812,45.0294],[10.1786,45.016],[10.172,44.9991],[10.1704,44.9812]]]}},{"type":"Feature","properties":{"i":"034051","n":"Sorbolo Mezzani"},"geometry":{"type":"Polygon","coordinates":[[[10.464,44.9372],[10.4812,44.9301],[10.5043,44.9224],[10.493,44.9129],[10.4946,44.9098],[10.4913,44.9054],[10.4868,44.9019],[10.4762,44.9017],[10.4686,44.8998],[10.4634,44.8967],[10.4609,44.8896],[10.4656,44.8871],[10.4706,44.8783],[10.4706,44.8756],[10.4663,44.8741],[10.4647,44.856],[10.4624,44.8523],[10.4551,44.8486],[10.4535,44.8445],[10.4538,44.8353],[10.4552,44.833],[10.4547,44.8307],[10.4509,44.8287],[10.4454,44.8278],[10.441,44.824],[10.4409,44.8215],[10.4421,44.8196],[10.4381,44.8202],[10.4332,44.8225],[10.4158,44.8324],[10.396,44.8291],[10.3844,44.8248],[10.3957,44.8537],[10.3968,44.8535],[10.4095,44.8642],[10.4151,44.8783],[10.4136,44.8808],[10.4065,44.8801],[10.4109,44.8905],[10.3873,44.8931],[10.3904,44.8974],[10.3944,44.9009],[10.4098,44.8983],[10.4135,44.9047],[10.4083,44.9123],[10.4194,44.9199],[10.423,44.9286],[10.4232,44.9314],[10.4129,44.9497],[10.4126,44.9508],[10.4137,44.9539],[10.4252,44.9602],[10.4302,44.952],[10.4318,44.9471],[10.4357,44.9431],[10.4417,44.9408],[10.4516,44.9405],[10.464,44.9372]]]}}]}
