{"type":"FeatureCollection","fonte":"Confini comunali ISTAT via openpolis/geojson-italy — CC BY 4.0","features":[{"type":"Feature","properties":{"i":"047002","n":"Agliana"},"geometry":{"type":"Polygon","coordinates":[[[11.0245,43.8969],[11.0248,43.8964],[11.0155,43.881],[11.0133,43.8695],[11.0061,43.8717],[11.0005,43.8756],[10.9852,43.8882],[10.9829,43.8917],[10.9811,43.8928],[10.9797,43.9082],[10.9801,43.9102],[10.9808,43.9109],[10.9875,43.9108],[10.9908,43.922],[10.9932,43.9215],[10.9968,43.9196],[11.0245,43.8969]]]}},{"type":"Feature","properties":{"i":"047003","n":"Buggiano"},"geometry":{"type":"Polygon","coordinates":[[[10.7292,43.934],[10.7309,43.9123],[10.7341,43.9057],[10.7374,43.9057],[10.7441,43.9011],[10.7521,43.8768],[10.7495,43.8738],[10.7482,43.8705],[10.7481,43.8632],[10.7575,43.8592],[10.7677,43.8562],[10.7678,43.8541],[10.7552,43.8592],[10.7371,43.859],[10.7293,43.8598],[10.7244,43.8612],[10.718,43.8771],[10.7139,43.8785],[10.7144,43.8818],[10.7182,43.8869],[10.7181,43.897],[10.7163,43.9025],[10.7165,43.9115],[10.7179,43.9166],[10.7162,43.9189],[10.7153,43.9235],[10.7163,43.9358],[10.7202,43.9375],[10.7281,43.935],[10.7292,43.934]]]}},{"type":"Feature","properties":{"i":"047005","n":"Lamporecchio"},"geometry":{"type":"Polygon","coordinates":[[[10.942,43.8234],[10.9209,43.8032],[10.9158,43.8006],[10.8937,43.7954],[10.8776,43.7944],[10.868,43.7959],[10.864,43.7987],[10.8565,43.801],[10.8456,43.8023],[10.8256,43.7949],[10.8257,43.7959],[10.8323,43.799],[10.8478,43.8033],[10.8553,43.8089],[10.8696,43.8121],[10.8889,43.8186],[10.8995,43.8407],[10.9062,43.8467],[10.9149,43.8471],[10.9343,43.8366],[10.9382,43.8285],[10.942,43.8234]]]}},{"type":"Feature","properties":{"i":"047006","n":"Larciano"},"geometry":{"type":"Polygon","coordinates":[[[10.9062,43.8467],[10.8995,43.8407],[10.8889,43.8186],[10.8696,43.8121],[10.8553,43.8089],[10.8478,43.8033],[10.8323,43.799],[10.8257,43.7959],[10.8256,43.7949],[10.8127,43.7888],[10.8162,43.7942],[10.8179,43.7992],[10.8165,43.8072],[10.8092,43.8179],[10.8329,43.8266],[10.8358,43.8274],[10.8391,43.8267],[10.8422,43.828],[10.8463,43.8311],[10.8532,43.8379],[10.861,43.8476],[10.8694,43.8559],[10.8706,43.8633],[10.8702,43.8676],[10.8816,43.8648],[10.8792,43.8574],[10.882,43.8509],[10.8888,43.8537],[10.8981,43.8529],[10.9052,43.8498],[10.9062,43.8467]]]}},{"type":"Feature","properties":{"i":"047007","n":"Marliana"},"geometry":{"type":"Polygon","coordinates":[[[10.8102,43.9982],[10.8077,43.9956],[10.8087,43.992],[10.8183,43.9834],[10.8285,43.978],[10.8343,43.9729],[10.8413,43.9554],[10.8399,43.9506],[10.839,43.9507],[10.8362,43.9485],[10.8266,43.9383],[10.8262,43.9307],[10.8177,43.9298],[10.8131,43.9264],[10.8046,43.9182],[10.8031,43.9181],[10.7965,43.9208],[10.7971,43.922],[10.7964,43.9232],[10.7903,43.9285],[10.7857,43.9274],[10.7767,43.9214],[10.7702,43.9192],[10.7679,43.9261],[10.7651,43.9308],[10.7621,43.9342],[10.7507,43.9432],[10.7545,43.9465],[10.7543,43.9512],[10.747,43.9595],[10.7404,43.9648],[10.7351,43.9663],[10.7353,43.9681],[10.7381,43.972],[10.7414,43.9744],[10.7504,43.9787],[10.7654,43.9828],[10.77,43.9802],[10.775,43.9754],[10.7833,43.9713],[10.7873,43.9715],[10.7949,43.9787],[10.7989,43.9855],[10.7986,43.9873],[10.7955,43.9899],[10.7927,43.9951],[10.7926,44.0007],[10.7933,44.0018],[10.7958,44.0023],[10.8035,44.0014],[10.8102,43.9982]]]}},{"type":"Feature","properties":{"i":"047008","n":"Massa e Cozzile"},"geometry":{"type":"Polygon","coordinates":[[[10.7702,43.9192],[10.7694,43.9149],[10.7674,43.912],[10.7628,43.9094],[10.7593,43.9019],[10.7602,43.8979],[10.761,43.8979],[10.7609,43.8932],[10.7574,43.8898],[10.7643,43.8755],[10.7677,43.8562],[10.7575,43.8592],[10.7481,43.8632],[10.7482,43.8705],[10.7495,43.8738],[10.7521,43.8768],[10.7441,43.9011],[10.7374,43.9057],[10.7341,43.9057],[10.7309,43.9123],[10.7292,43.934],[10.739,43.934],[10.7458,43.9411],[10.7507,43.9432],[10.7621,43.9342],[10.7651,43.9308],[10.7679,43.9261],[10.7702,43.9192]]]}},{"type":"Feature","properties":{"i":"047009","n":"Monsummano Terme"},"geometry":{"type":"Polygon","coordinates":[[[10.8702,43.8676],[10.8706,43.8633],[10.8694,43.8559],[10.861,43.8476],[10.8532,43.8379],[10.8463,43.8311],[10.8422,43.828],[10.8391,43.8267],[10.8358,43.8274],[10.8329,43.8266],[10.8092,43.8179],[10.797,43.8322],[10.7911,43.838],[10.7912,43.8395],[10.7998,43.8561],[10.8055,43.8706],[10.8081,43.881],[10.816,43.8894],[10.8184,43.8871],[10.8296,43.8877],[10.8324,43.8886],[10.8405,43.8868],[10.8477,43.8841],[10.8573,43.8775],[10.8598,43.8736],[10.8702,43.8676]]]}},{"type":"Feature","properties":{"i":"047010","n":"Montale"},"geometry":{"type":"Polygon","coordinates":[[[11.0715,43.9829],[11.0645,43.9699],[11.0609,43.9659],[11.0541,43.9638],[11.0468,43.96],[11.0293,43.942],[11.0273,43.9341],[11.0247,43.9281],[11.0219,43.9247],[11.0205,43.9217],[11.0186,43.9103],[11.023,43.9039],[11.0253,43.902],[11.0256,43.8993],[11.0245,43.8969],[10.9968,43.9196],[11.0015,43.9357],[11.003,43.944],[10.9979,43.9499],[10.9955,43.9543],[10.9948,43.9578],[10.9953,43.9684],[11.0001,43.9699],[11.0034,43.9719],[11.0076,43.9843],[11.0087,43.9894],[11.0082,43.9923],[11.0094,43.9954],[11.035,43.9991],[11.0494,43.993],[11.0628,43.9843],[11.0715,43.9829]]]}},{"type":"Feature","properties":{"i":"047011","n":"Montecatini-Terme"},"geometry":{"type":"Polygon","coordinates":[[[10.8111,43.9243],[10.8156,43.9221],[10.8142,43.9167],[10.8092,43.913],[10.8081,43.9109],[10.8086,43.9067],[10.8035,43.9012],[10.7971,43.8921],[10.7874,43.889],[10.7864,43.8879],[10.7844,43.8847],[10.7823,43.8764],[10.7785,43.8662],[10.7734,43.8611],[10.7723,43.8516],[10.7678,43.8541],[10.7673,43.8612],[10.7643,43.8755],[10.7574,43.8898],[10.7609,43.8932],[10.761,43.8979],[10.7602,43.8979],[10.7593,43.9019],[10.7628,43.9094],[10.7674,43.912],[10.7694,43.9149],[10.7702,43.9192],[10.7767,43.9214],[10.7857,43.9274],[10.7903,43.9285],[10.7964,43.9232],[10.7971,43.922],[10.7965,43.9208],[10.8031,43.9181],[10.8046,43.9182],[10.8111,43.9243]]]}},{"type":"Feature","properties":{"i":"047012","n":"Pescia"},"geometry":{"type":"Polygon","coordinates":[[[10.7381,43.972],[10.7353,43.9681],[10.7351,43.9663],[10.7404,43.9648],[10.747,43.9595],[10.7543,43.9512],[10.7545,43.9465],[10.7507,43.9432],[10.7454,43.9408],[10.739,43.934],[10.7292,43.934],[10.7281,43.935],[10.7202,43.9375],[10.7163,43.9358],[10.7153,43.9235],[10.7162,43.9189],[10.7179,43.9166],[10.7068,43.912],[10.7027,43.9067],[10.6981,43.8983],[10.6949,43.89],[10.6934,43.8827],[10.6941,43.8802],[10.6982,43.879],[10.7082,43.8697],[10.711,43.8646],[10.7148,43.8626],[10.7167,43.8538],[10.7136,43.853],[10.7048,43.853],[10.6877,43.8542],[10.6868,43.8654],[10.6807,43.8737],[10.6784,43.8755],[10.6749,43.8756],[10.671,43.8733],[10.6762,43.8679],[10.6708,43.8666],[10.6639,43.8676],[10.6585,43.8673],[10.6529,43.8679],[10.6506,43.8696],[10.6501,43.8809],[10.6563,43.8873],[10.6583,43.8913],[10.658,43.8927],[10.6544,43.8953],[10.652,43.899],[10.6477,43.9093],[10.6492,43.9124],[10.6509,43.9138],[10.6579,43.9161],[10.6711,43.951],[10.6728,43.9585],[10.6711,43.9758],[10.6737,43.9836],[10.675,43.985],[10.6768,43.9844],[10.6778,43.9849],[10.69,43.996],[10.696,44.0031],[10.6973,44.0077],[10.6996,44.0105],[10.7055,44.0146],[10.711,44.0176],[10.7237,44.0174],[10.7275,44.0185],[10.7404,44.0264],[10.7441,44.0201],[10.7421,44.0075],[10.7404,44.0015],[10.7355,43.9966],[10.7293,43.9825],[10.7333,43.9757],[10.7381,43.972]]]}},{"type":"Feature","properties":{"i":"047013","n":"Pieve a Nievole"},"geometry":{"type":"Polygon","coordinates":[[[10.816,43.8894],[10.8081,43.881],[10.8055,43.8706],[10.7998,43.8561],[10.791,43.8389],[10.7911,43.838],[10.797,43.8322],[10.7892,43.8307],[10.788,43.8318],[10.7837,43.8406],[10.7723,43.8516],[10.7734,43.8611],[10.7785,43.8662],[10.7823,43.8764],[10.7844,43.8847],[10.7864,43.8879],[10.7874,43.889],[10.7971,43.8921],[10.8035,43.9012],[10.8086,43.9067],[10.8135,43.9057],[10.8147,43.9046],[10.8115,43.8974],[10.8116,43.896],[10.8133,43.8916],[10.816,43.8894]]]}},{"type":"Feature","properties":{"i":"047014","n":"Pistoia"},"geometry":{"type":"Polygon","coordinates":[[[10.8787,44.0986],[10.8923,44.092],[10.9019,44.0863],[10.9041,44.084],[10.9052,44.0799],[10.8991,44.0665],[10.9003,44.0648],[10.9047,44.0633],[10.9101,44.0625],[10.9177,44.0628],[10.9202,44.0604],[10.9281,44.0579],[10.9305,44.0579],[10.9341,44.0594],[10.9439,44.0591],[10.9706,44.0506],[10.976,44.0464],[10.9776,44.0436],[10.9782,44.0419],[10.9772,44.0372],[10.9775,44.0358],[10.9804,44.0336],[10.985,44.0322],[10.9869,44.0219],[10.9857,44.0178],[10.9928,44.0115],[10.9995,44.0079],[11.0061,44.0055],[11.0117,44.0055],[11.0143,43.9957],[11.0094,43.9954],[11.0082,43.9923],[11.0087,43.9894],[11.0076,43.9843],[11.0034,43.9719],[11.0001,43.9699],[10.9953,43.9684],[10.9948,43.9578],[10.9955,43.9543],[10.9979,43.9499],[11.003,43.944],[11.0015,43.9357],[10.9968,43.9196],[10.9908,43.922],[10.9875,43.9108],[10.9808,43.9109],[10.9801,43.9102],[10.9797,43.9082],[10.981,43.8984],[10.9806,43.8949],[10.9811,43.8928],[10.9829,43.8917],[10.9708,43.8819],[10.9589,43.8736],[10.9429,43.8855],[10.9378,43.8832],[10.934,43.8885],[10.93,43.8901],[10.9168,43.8921],[10.916,43.8885],[10.9105,43.8882],[10.8995,43.8939],[10.8931,43.8961],[10.8895,43.8961],[10.8872,43.8952],[10.8867,43.8921],[10.873,43.8952],[10.8685,43.8973],[10.8679,43.8983],[10.8675,43.8995],[10.8688,43.9057],[10.8661,43.9116],[10.8585,43.9165],[10.8502,43.9169],[10.8465,43.9236],[10.8461,43.93],[10.8333,43.9299],[10.8262,43.9307],[10.8266,43.9383],[10.8362,43.9485],[10.839,43.9507],[10.8399,43.9506],[10.8413,43.9554],[10.8365,43.9685],[10.8336,43.9739],[10.8279,43.9784],[10.8183,43.9834],[10.8087,43.992],[10.8077,43.9956],[10.8102,43.9982],[10.8131,44.0074],[10.8054,44.0136],[10.8074,44.0176],[10.8108,44.0201],[10.8266,44.0256],[10.8326,44.0248],[10.8395,44.0212],[10.8461,44.0206],[10.8527,44.0237],[10.8575,44.0283],[10.8681,44.0347],[10.882,44.0374],[10.89,44.0426],[10.8895,44.0456],[10.8828,44.0531],[10.8781,44.0608],[10.8686,44.0648],[10.8663,44.0667],[10.8655,44.0685],[10.8657,44.0696],[10.8794,44.0751],[10.8841,44.0784],[10.8807,44.0813],[10.8687,44.0885],[10.8587,44.0963],[10.8567,44.0991],[10.8686,44.1002],[10.8763,44.0999],[10.8787,44.0986]]]}},{"type":"Feature","properties":{"i":"047016","n":"Ponte Buggianese"},"geometry":{"type":"Polygon","coordinates":[[[10.7678,43.8541],[10.7723,43.8516],[10.7837,43.8406],[10.7886,43.8311],[10.7898,43.8306],[10.797,43.8322],[10.8092,43.8179],[10.8157,43.8087],[10.7865,43.7987],[10.7675,43.8006],[10.7362,43.8121],[10.7329,43.8224],[10.7329,43.823],[10.7344,43.8232],[10.7353,43.8258],[10.7355,43.832],[10.7327,43.8396],[10.7288,43.846],[10.7275,43.8516],[10.7282,43.8548],[10.726,43.8607],[10.7371,43.859],[10.7552,43.8592],[10.7678,43.8541]]]}},{"type":"Feature","properties":{"i":"047017","n":"Quarrata"},"geometry":{"type":"Polygon","coordinates":[[[11.0133,43.8695],[11.0175,43.8666],[11.0254,43.8571],[11.0257,43.8556],[11.0246,43.8509],[11.0282,43.842],[11.0328,43.8381],[11.0214,43.841],[11.0131,43.8337],[11.0048,43.8308],[10.9983,43.8309],[10.9893,43.8282],[10.9842,43.8258],[10.9843,43.8236],[10.98,43.8189],[10.9731,43.8155],[10.9641,43.8125],[10.956,43.8196],[10.9481,43.8206],[10.942,43.8234],[10.9382,43.8285],[10.9343,43.8366],[10.9149,43.8471],[10.9273,43.8615],[10.9305,43.8678],[10.9327,43.8757],[10.937,43.8824],[10.9429,43.8855],[10.9589,43.8736],[10.9708,43.8819],[10.9829,43.8917],[10.9852,43.8882],[11.0005,43.8756],[11.0061,43.8717],[11.0133,43.8695]]]}},{"type":"Feature","properties":{"i":"047018","n":"Sambuca Pistoiese"},"geometry":{"type":"Polygon","coordinates":[[[11.007,44.1385],[11.0143,44.1375],[11.0151,44.1325],[11.0149,44.1252],[11.0135,44.1233],[11.0062,44.1215],[11.0021,44.1124],[11.0115,44.1044],[11.024,44.0975],[11.0291,44.0958],[11.0409,44.0963],[11.0471,44.0949],[11.0486,44.0932],[11.0494,44.0902],[11.0478,44.0865],[11.0542,44.0723],[11.0446,44.0508],[11.0402,44.045],[11.0391,44.0352],[11.0397,44.0332],[11.038,44.0289],[11.0299,44.018],[11.021,44.009],[11.0099,44.0053],[11.0061,44.0055],[10.9943,44.0105],[10.9857,44.0178],[10.9869,44.0219],[10.985,44.0322],[10.9804,44.0336],[10.9775,44.0358],[10.9772,44.0372],[10.9782,44.0419],[10.9776,44.0436],[10.976,44.0464],[10.9706,44.0506],[10.9439,44.0591],[10.9341,44.0594],[10.9305,44.0579],[10.9271,44.0581],[10.9202,44.0604],[10.9177,44.0628],[10.9267,44.0749],[10.9447,44.0817],[10.9643,44.102],[10.9714,44.1163],[10.9823,44.1243],[10.994,44.1296],[10.995,44.1313],[10.9929,44.134],[10.9962,44.1362],[11.007,44.1385]]]}},{"type":"Feature","properties":{"i":"047020","n":"Serravalle Pistoiese"},"geometry":{"type":"Polygon","coordinates":[[[10.9378,43.8832],[10.9327,43.8757],[10.9305,43.8678],[10.9273,43.8615],[10.9149,43.8471],[10.9062,43.8467],[10.9052,43.8498],[10.8968,43.8531],[10.8888,43.8537],[10.882,43.8509],[10.8792,43.8574],[10.8816,43.8648],[10.8702,43.8676],[10.864,43.871],[10.8598,43.8736],[10.8573,43.8775],[10.8477,43.8841],[10.8405,43.8868],[10.8324,43.8886],[10.8296,43.8877],[10.8184,43.8871],[10.8137,43.8911],[10.8115,43.8974],[10.8147,43.9046],[10.8135,43.9057],[10.8086,43.9067],[10.8079,43.9086],[10.8092,43.913],[10.8142,43.9167],[10.8156,43.9221],[10.8111,43.9243],[10.8177,43.9298],[10.8262,43.9307],[10.8333,43.9299],[10.8461,43.93],[10.8465,43.9236],[10.8502,43.9169],[10.8585,43.9165],[10.8661,43.9116],[10.8688,43.9057],[10.8675,43.8995],[10.8685,43.8973],[10.8701,43.8964],[10.873,43.8952],[10.8867,43.8921],[10.8872,43.8952],[10.8895,43.8961],[10.8931,43.8961],[10.8995,43.8939],[10.9105,43.8882],[10.916,43.8885],[10.9168,43.8921],[10.9249,43.8913],[10.934,43.8885],[10.9378,43.8832]]]}},{"type":"Feature","properties":{"i":"047021","n":"Uzzano"},"geometry":{"type":"Polygon","coordinates":[[[10.7244,43.8612],[10.7113,43.8644],[10.7082,43.8697],[10.6982,43.879],[10.6941,43.8802],[10.6934,43.882],[10.6957,43.8922],[10.6981,43.8983],[10.7027,43.9067],[10.7068,43.912],[10.7179,43.9166],[10.7165,43.9115],[10.7163,43.9025],[10.7181,43.897],[10.7182,43.8869],[10.7144,43.8818],[10.7139,43.8785],[10.718,43.8771],[10.7244,43.8612]]]}},{"type":"Feature","properties":{"i":"047022","n":"Chiesina Uzzanese"},"geometry":{"type":"Polygon","coordinates":[[[10.7244,43.8612],[10.726,43.8607],[10.7272,43.8577],[10.7282,43.8548],[10.7275,43.8516],[10.7288,43.846],[10.7327,43.8396],[10.7355,43.832],[10.7353,43.8258],[10.7344,43.8232],[10.7329,43.823],[10.7329,43.8224],[10.7362,43.8121],[10.7278,43.8142],[10.7263,43.8192],[10.7201,43.8326],[10.7065,43.8428],[10.7054,43.8427],[10.695,43.8539],[10.7048,43.853],[10.7136,43.853],[10.7167,43.8538],[10.7149,43.8625],[10.7123,43.864],[10.7244,43.8612]]]}},{"type":"Feature","properties":{"i":"047023","n":"Abetone Cutigliano"},"geometry":{"type":"Polygon","coordinates":[[[10.7124,44.1572],[10.7172,44.1556],[10.7416,44.1564],[10.7543,44.1541],[10.7598,44.151],[10.7674,44.14],[10.7733,44.1347],[10.7837,44.1295],[10.7813,44.1247],[10.7704,44.1107],[10.7681,44.1064],[10.7653,44.0949],[10.7454,44.0819],[10.7418,44.0807],[10.7306,44.0828],[10.7223,44.083],[10.7125,44.0886],[10.6883,44.0984],[10.6815,44.105],[10.6631,44.1094],[10.6543,44.1091],[10.6491,44.1072],[10.6419,44.1086],[10.6241,44.1204],[10.6252,44.1271],[10.6223,44.1383],[10.6226,44.1412],[10.6332,44.1462],[10.6357,44.1533],[10.641,44.1595],[10.644,44.1601],[10.6454,44.1587],[10.6616,44.154],[10.6717,44.1542],[10.6779,44.156],[10.6892,44.1572],[10.6966,44.1564],[10.7006,44.1551],[10.7089,44.155],[10.7124,44.1572]]]}},{"type":"Feature","properties":{"i":"047024","n":"San Marcello Piteglio"},"geometry":{"type":"Polygon","coordinates":[[[10.8148,44.1162],[10.8191,44.1125],[10.8292,44.1167],[10.8342,44.1143],[10.8428,44.1096],[10.8482,44.0986],[10.8492,44.0981],[10.8567,44.0991],[10.8587,44.0963],[10.8687,44.0885],[10.8807,44.0813],[10.8841,44.0784],[10.8794,44.0751],[10.8657,44.0696],[10.8655,44.0685],[10.8663,44.0667],[10.8686,44.0648],[10.8781,44.0608],[10.8828,44.0531],[10.8895,44.0456],[10.89,44.0426],[10.882,44.0374],[10.8681,44.0347],[10.8575,44.0283],[10.8527,44.0237],[10.8461,44.0206],[10.8395,44.0212],[10.8326,44.0248],[10.828,44.0257],[10.8207,44.024],[10.8108,44.0201],[10.8074,44.0176],[10.8054,44.0136],[10.8131,44.0074],[10.8102,43.9982],[10.8035,44.0014],[10.7958,44.0023],[10.7933,44.0018],[10.7926,44.0007],[10.7927,43.9951],[10.7955,43.9899],[10.7986,43.9873],[10.7989,43.9855],[10.7949,43.9787],[10.7873,43.9715],[10.7833,43.9713],[10.775,43.9754],[10.77,43.9802],[10.7654,43.9828],[10.7504,43.9787],[10.7414,43.9744],[10.7381,43.972],[10.7333,43.9757],[10.7293,43.9825],[10.7355,43.9966],[10.7404,44.0015],[10.7441,44.0201],[10.7411,44.0259],[10.7394,44.0264],[10.7378,44.0249],[10.7371,44.0257],[10.735,44.0327],[10.7307,44.0387],[10.7268,44.0393],[10.719,44.0443],[10.7187,44.0519],[10.7251,44.0638],[10.7223,44.083],[10.7306,44.0828],[10.7418,44.0807],[10.7454,44.0819],[10.7653,44.0949],[10.7681,44.1064],[10.7704,44.1107],[10.7813,44.1247],[10.7837,44.1295],[10.7943,44.1278],[10.7981,44.1263],[10.8014,44.123],[10.8033,44.1191],[10.8148,44.1162]]]}}]}
