{"type":"FeatureCollection","fonte":"Confini comunali ISTAT via openpolis/geojson-italy — CC BY 4.0","features":[{"type":"Feature","properties":{"i":"041001","n":"Acqualagna"},"geometry":{"type":"Polygon","coordinates":[[[12.7047,43.6695],[12.7095,43.6632],[12.7134,43.6612],[12.715,43.6581],[12.7151,43.6533],[12.7224,43.6457],[12.7168,43.6399],[12.7166,43.6389],[12.7127,43.6359],[12.7068,43.6347],[12.7051,43.6364],[12.6864,43.6338],[12.685,43.6295],[12.6743,43.6179],[12.6647,43.6137],[12.6498,43.6113],[12.6257,43.609],[12.6123,43.6111],[12.6027,43.6109],[12.594,43.6084],[12.5886,43.6053],[12.5894,43.6035],[12.5882,43.6026],[12.5853,43.6015],[12.5801,43.6025],[12.5809,43.609],[12.5746,43.6112],[12.5629,43.6099],[12.5583,43.6051],[12.557,43.6021],[12.5553,43.6009],[12.5499,43.6029],[12.5462,43.6051],[12.5449,43.607],[12.5435,43.6135],[12.5472,43.6167],[12.5511,43.6171],[12.5521,43.6217],[12.551,43.6247],[12.5515,43.6287],[12.5555,43.6346],[12.5624,43.6422],[12.5686,43.6461],[12.5749,43.6453],[12.5754,43.6432],[12.5842,43.6416],[12.5976,43.643],[12.5992,43.6452],[12.6072,43.6492],[12.612,43.6496],[12.6162,43.6453],[12.6186,43.6412],[12.6247,43.6355],[12.6295,43.6323],[12.6412,43.6337],[12.6439,43.6401],[12.6505,43.6437],[12.6555,43.642],[12.6573,43.6422],[12.659,43.6451],[12.6576,43.6484],[12.6606,43.6501],[12.6666,43.6499],[12.667,43.6485],[12.6663,43.647],[12.67,43.6457],[12.6743,43.6481],[12.6762,43.65],[12.6779,43.6589],[12.6705,43.6645],[12.6702,43.666],[12.677,43.6729],[12.6794,43.6722],[12.6847,43.6725],[12.6879,43.6751],[12.689,43.6734],[12.6926,43.6719],[12.7019,43.6718],[12.7047,43.6695]]]}},{"type":"Feature","properties":{"i":"041002","n":"Apecchio"},"geometry":{"type":"Polygon","coordinates":[[[12.4078,43.6021],[12.4146,43.5991],[12.4246,43.5925],[12.432,43.5915],[12.4334,43.5927],[12.4342,43.6],[12.4313,43.6035],[12.4306,43.6064],[12.4474,43.6151],[12.4501,43.6091],[12.4481,43.6001],[12.4462,43.5964],[12.4445,43.5959],[12.444,43.5942],[12.4436,43.5894],[12.4445,43.5875],[12.4565,43.5799],[12.4626,43.5783],[12.481,43.5782],[12.4871,43.583],[12.4902,43.5805],[12.4921,43.5757],[12.4902,43.5698],[12.4923,43.5662],[12.5018,43.5605],[12.5126,43.5565],[12.5177,43.5578],[12.5222,43.5553],[12.5224,43.5546],[12.5134,43.548],[12.516,43.5355],[12.5236,43.5287],[12.5221,43.5267],[12.52,43.5259],[12.5168,43.528],[12.5028,43.5221],[12.5008,43.5196],[12.484,43.5272],[12.4805,43.5275],[12.4784,43.526],[12.4736,43.5186],[12.4591,43.5161],[12.4575,43.5168],[12.4461,43.53],[12.4379,43.5377],[12.4318,43.5371],[12.4165,43.5336],[12.4068,43.5249],[12.4049,43.5223],[12.399,43.5132],[12.4002,43.5098],[12.3928,43.5089],[12.3881,43.5098],[12.3851,43.5123],[12.3834,43.5167],[12.3864,43.5204],[12.3801,43.5257],[12.37,43.5316],[12.3649,43.5326],[12.3588,43.5291],[12.3497,43.5218],[12.3458,43.5211],[12.3366,43.5229],[12.3332,43.5236],[12.3309,43.5255],[12.3267,43.5292],[12.325,43.5318],[12.3171,43.5399],[12.3129,43.5431],[12.3128,43.5442],[12.315,43.5489],[12.3198,43.5532],[12.3408,43.5527],[12.3463,43.5561],[12.3669,43.5772],[12.3708,43.5865],[12.3618,43.5952],[12.3613,43.5965],[12.3627,43.6027],[12.3683,43.6095],[12.3746,43.6121],[12.3874,43.6139],[12.3912,43.6171],[12.396,43.6144],[12.3976,43.6094],[12.4045,43.6011],[12.4067,43.6005],[12.4078,43.6021]]]}},{"type":"Feature","properties":{"i":"041005","n":"Belforte all'Isauro"},"geometry":{"type":"Polygon","coordinates":[[[12.3984,43.7061],[12.3958,43.7044],[12.3908,43.7053],[12.3654,43.6977],[12.359,43.6932],[12.3534,43.6845],[12.35,43.6833],[12.3429,43.6922],[12.3332,43.7076],[12.3348,43.7072],[12.3457,43.709],[12.3573,43.702],[12.3695,43.7066],[12.3713,43.709],[12.3711,43.7114],[12.3645,43.7179],[12.3604,43.7201],[12.3388,43.7362],[12.3453,43.7381],[12.3593,43.7392],[12.3661,43.7267],[12.3678,43.7249],[12.377,43.7243],[12.383,43.7274],[12.3859,43.7271],[12.3886,43.7256],[12.3955,43.7163],[12.3984,43.7061]]]}},{"type":"Feature","properties":{"i":"041006","n":"Borgo Pace"},"geometry":{"type":"Polygon","coordinates":[[[12.3157,43.6779],[12.3066,43.6748],[12.3012,43.6717],[12.2963,43.6624],[12.2963,43.6502],[12.2802,43.6237],[12.2765,43.6196],[12.2682,43.6154],[12.2646,43.6058],[12.265,43.599],[12.2617,43.5963],[12.2569,43.5943],[12.2553,43.5902],[12.2341,43.5939],[12.227,43.5935],[12.225,43.5944],[12.2195,43.6009],[12.2138,43.6109],[12.2096,43.6213],[12.2039,43.6262],[12.1897,43.6329],[12.1872,43.6363],[12.1855,43.6411],[12.1855,43.6418],[12.1976,43.648],[12.2083,43.6509],[12.2129,43.6502],[12.2201,43.6507],[12.2268,43.6528],[12.2333,43.6565],[12.2495,43.6689],[12.251,43.6737],[12.2451,43.6815],[12.2614,43.6805],[12.2716,43.6766],[12.28,43.6779],[12.2934,43.6846],[12.3026,43.6952],[12.3058,43.6979],[12.311,43.7005],[12.314,43.7008],[12.3187,43.6959],[12.3204,43.6879],[12.3157,43.6779]]]}},{"type":"Feature","properties":{"i":"041007","n":"Cagli"},"geometry":{"type":"Polygon","coordinates":[[[12.8085,43.5899],[12.811,43.5813],[12.8073,43.5732],[12.7958,43.5693],[12.7906,43.5717],[12.7873,43.5775],[12.7791,43.5833],[12.7643,43.5804],[12.7572,43.5771],[12.7531,43.5698],[12.7528,43.5644],[12.7534,43.5615],[12.7483,43.5552],[12.7456,43.5547],[12.7424,43.5518],[12.7352,43.55],[12.7233,43.5478],[12.7138,43.5473],[12.7139,43.5436],[12.7123,43.5345],[12.7078,43.5275],[12.7038,43.506],[12.702,43.5027],[12.6994,43.5],[12.686,43.4952],[12.6733,43.4855],[12.6686,43.48],[12.667,43.4754],[12.6667,43.4698],[12.6641,43.4746],[12.6639,43.4766],[12.6659,43.4956],[12.6526,43.4957],[12.6449,43.4984],[12.6356,43.5033],[12.6354,43.5056],[12.6338,43.507],[12.6182,43.5145],[12.5991,43.5181],[12.584,43.5154],[12.5802,43.5157],[12.5771,43.5126],[12.5711,43.5018],[12.5666,43.4959],[12.5563,43.4904],[12.5429,43.4797],[12.5242,43.4962],[12.5227,43.4984],[12.522,43.5025],[12.5177,43.5081],[12.5058,43.5171],[12.5008,43.5196],[12.5028,43.5221],[12.5168,43.528],[12.52,43.5259],[12.5221,43.5267],[12.5236,43.5287],[12.516,43.5355],[12.5134,43.548],[12.5224,43.5546],[12.5226,43.5519],[12.5314,43.5543],[12.5467,43.5528],[12.5551,43.5472],[12.5623,43.5459],[12.5653,43.5467],[12.572,43.5515],[12.5692,43.5557],[12.5694,43.5567],[12.5708,43.5591],[12.5751,43.5632],[12.5821,43.5685],[12.5819,43.5718],[12.574,43.5778],[12.5704,43.5755],[12.5634,43.5766],[12.5613,43.5785],[12.5613,43.5803],[12.5535,43.5848],[12.552,43.59],[12.5531,43.5921],[12.551,43.5964],[12.557,43.6021],[12.5583,43.6051],[12.5629,43.6099],[12.5746,43.6112],[12.5809,43.609],[12.5801,43.6025],[12.5853,43.6015],[12.5882,43.6026],[12.5894,43.6035],[12.5886,43.6053],[12.594,43.6084],[12.6027,43.6109],[12.6123,43.6111],[12.6257,43.609],[12.6498,43.6113],[12.6647,43.6137],[12.6743,43.6179],[12.685,43.6295],[12.6864,43.6338],[12.7051,43.6364],[12.7068,43.6347],[12.713,43.636],[12.7166,43.6389],[12.7204,43.6441],[12.728,43.6481],[12.7342,43.6452],[12.7385,43.6417],[12.7531,43.6346],[12.7585,43.6311],[12.7651,43.6246],[12.7755,43.6164],[12.789,43.6115],[12.794,43.6046],[12.7911,43.6011],[12.7903,43.5959],[12.7915,43.5946],[12.7979,43.5924],[12.8052,43.5916],[12.8085,43.5899]]]}},{"type":"Feature","properties":{"i":"041008","n":"Cantiano"},"geometry":{"type":"Polygon","coordinates":[[[12.6667,43.4698],[12.6857,43.474],[12.6969,43.4698],[12.7021,43.4646],[12.6998,43.4552],[12.7116,43.4506],[12.7153,43.4461],[12.7088,43.4258],[12.7061,43.4252],[12.6865,43.4287],[12.6747,43.4342],[12.6632,43.4368],[12.6575,43.4352],[12.6454,43.4336],[12.6356,43.4297],[12.6289,43.4223],[12.6194,43.4166],[12.6228,43.4209],[12.6228,43.423],[12.6223,43.4244],[12.6171,43.429],[12.6033,43.4388],[12.5936,43.443],[12.5842,43.4459],[12.5755,43.4514],[12.5646,43.4595],[12.5489,43.475],[12.5429,43.4797],[12.5563,43.4904],[12.5666,43.4959],[12.5711,43.5018],[12.5771,43.5126],[12.5802,43.5157],[12.584,43.5154],[12.5991,43.5181],[12.6216,43.5133],[12.6348,43.5063],[12.6356,43.5033],[12.6449,43.4984],[12.6526,43.4957],[12.6659,43.4956],[12.6639,43.4766],[12.6641,43.4746],[12.6667,43.4698]]]}},{"type":"Feature","properties":{"i":"041009","n":"Carpegna"},"geometry":{"type":"MultiPolygon","coordinates":[[[[12.3362,43.6781],[12.3294,43.7005],[12.3301,43.707],[12.3311,43.7082],[12.3332,43.7076],[12.3429,43.6922],[12.3514,43.6815],[12.3362,43.6781]]],[[[12.314,43.7008],[12.311,43.7005],[12.3058,43.6979],[12.3033,43.7005],[12.3053,43.713],[12.3034,43.7164],[12.3015,43.7174],[12.3011,43.7202],[12.3038,43.7267],[12.3083,43.7302],[12.314,43.7196],[12.3148,43.7081],[12.3147,43.7022],[12.314,43.7008]]],[[[12.3498,43.7996],[12.3585,43.794],[12.3619,43.786],[12.3644,43.7836],[12.3588,43.7787],[12.3464,43.7739],[12.3277,43.7626],[12.3236,43.7598],[12.3222,43.7579],[12.3014,43.756],[12.2866,43.7628],[12.2828,43.7663],[12.2848,43.7702],[12.2864,43.7705],[12.2872,43.7717],[12.2881,43.7752],[12.2891,43.786],[12.2852,43.7887],[12.2828,43.7894],[12.2845,43.7934],[12.2862,43.7949],[12.3066,43.8],[12.3159,43.8056],[12.3194,43.8057],[12.3343,43.8015],[12.3451,43.8014],[12.3498,43.7996]]]]}},{"type":"Feature","properties":{"i":"041010","n":"Cartoceto"},"geometry":{"type":"Polygon","coordinates":[[[12.9752,43.7644],[12.9584,43.761],[12.9533,43.7611],[12.9421,43.768],[12.9313,43.7693],[12.9173,43.7638],[12.8969,43.7625],[12.8882,43.7587],[12.8855,43.7569],[12.8854,43.7557],[12.8834,43.7556],[12.8776,43.7568],[12.8726,43.7599],[12.868,43.7722],[12.8632,43.778],[12.8655,43.7829],[12.8682,43.7803],[12.8719,43.78],[12.8754,43.7805],[12.8865,43.7851],[12.8872,43.7864],[12.8868,43.7903],[12.8875,43.7992],[12.8916,43.8006],[12.9033,43.8079],[12.9105,43.8098],[12.9121,43.808],[12.913,43.8023],[12.9207,43.7963],[12.9235,43.7951],[12.9286,43.7876],[12.9273,43.7858],[12.9217,43.7827],[12.9275,43.7797],[12.9376,43.7777],[12.9415,43.7797],[12.9545,43.7795],[12.963,43.7765],[12.9735,43.7705],[12.9759,43.7672],[12.9764,43.7648],[12.9752,43.7644]]]}},{"type":"Feature","properties":{"i":"041013","n":"Fano"},"geometry":{"type":"Polygon","coordinates":[[[13.1206,43.7822],[13.1104,43.775],[13.0802,43.7959],[13.0778,43.7939],[13.0747,43.7875],[13.0624,43.7782],[13.0553,43.7791],[13.0464,43.7778],[13.0405,43.7746],[13.0389,43.7719],[13.0392,43.7697],[13.0377,43.7658],[13.0358,43.7644],[13.0304,43.7623],[13.0271,43.7639],[13.0248,43.7666],[13.0209,43.7682],[13.0117,43.7636],[13.0063,43.7565],[13.003,43.7546],[12.9965,43.7535],[12.9947,43.7558],[12.9907,43.7576],[12.9836,43.7587],[12.9778,43.7618],[12.9752,43.7644],[12.9764,43.7648],[12.9759,43.7672],[12.9735,43.7705],[12.963,43.7765],[12.9545,43.7795],[12.9415,43.7797],[12.9376,43.7777],[12.9275,43.7797],[12.9217,43.7827],[12.9273,43.7858],[12.9286,43.7876],[12.9235,43.7951],[12.9207,43.7963],[12.913,43.8023],[12.9119,43.8083],[12.9015,43.8237],[12.9022,43.8253],[12.9125,43.8293],[12.9186,43.8379],[12.9258,43.841],[12.9399,43.8511],[12.9423,43.8563],[12.9417,43.858],[12.9386,43.8602],[12.9403,43.8651],[12.9568,43.8747],[12.963,43.8816],[12.9836,43.8673],[13.0023,43.856],[13.0118,43.8522],[13.0207,43.8522],[13.0221,43.8498],[13.0303,43.8438],[13.0665,43.8225],[13.1206,43.7822]]]}},{"type":"Feature","properties":{"i":"041014","n":"Fermignano"},"geometry":{"type":"MultiPolygon","coordinates":[[[[12.7202,43.686],[12.7211,43.684],[12.7259,43.6821],[12.7324,43.681],[12.7399,43.6779],[12.745,43.6734],[12.7609,43.6696],[12.762,43.668],[12.758,43.6636],[12.7373,43.6614],[12.728,43.6481],[12.7224,43.6457],[12.7151,43.6533],[12.715,43.6581],[12.7134,43.6612],[12.7095,43.6632],[12.7047,43.6695],[12.7069,43.6733],[12.7077,43.6766],[12.7049,43.6797],[12.7052,43.6826],[12.7063,43.6842],[12.7095,43.6859],[12.7202,43.686]]],[[[12.6879,43.6751],[12.6847,43.6725],[12.6794,43.6722],[12.677,43.6729],[12.6702,43.666],[12.6705,43.6645],[12.6779,43.6589],[12.6762,43.65],[12.6743,43.6481],[12.67,43.6457],[12.6663,43.647],[12.667,43.6485],[12.6666,43.6499],[12.6606,43.6501],[12.6576,43.6484],[12.659,43.6451],[12.6573,43.6422],[12.6555,43.642],[12.6505,43.6437],[12.6439,43.6401],[12.6412,43.6337],[12.6295,43.6323],[12.6247,43.6355],[12.6186,43.6412],[12.6162,43.6453],[12.612,43.6496],[12.6076,43.6494],[12.5992,43.6452],[12.595,43.6503],[12.5921,43.6566],[12.5889,43.6612],[12.5848,43.6629],[12.5876,43.6664],[12.5898,43.6677],[12.5926,43.6661],[12.6079,43.6617],[12.6098,43.6622],[12.6163,43.6658],[12.6144,43.6663],[12.6132,43.6678],[12.6121,43.6747],[12.6122,43.6803],[12.6184,43.6907],[12.6293,43.6898],[12.6414,43.6924],[12.6578,43.6986],[12.6646,43.7002],[12.6696,43.6967],[12.6725,43.6916],[12.6774,43.6861],[12.689,43.6782],[12.6879,43.6751]]]]}},{"type":"Feature","properties":{"i":"041015","n":"Fossombrone"},"geometry":{"type":"Polygon","coordinates":[[[12.852,43.7091],[12.8482,43.7054],[12.8486,43.7038],[12.8525,43.7018],[12.8564,43.7026],[12.8611,43.7014],[12.8623,43.7005],[12.8642,43.6961],[12.8614,43.688],[12.8556,43.6757],[12.8557,43.6725],[12.857,43.6682],[12.8824,43.6538],[12.8852,43.6505],[12.8796,43.6457],[12.8733,43.6432],[12.8691,43.6438],[12.8536,43.6415],[12.8505,43.6389],[12.8478,43.633],[12.841,43.6257],[12.8348,43.6242],[12.817,43.626],[12.8148,43.6294],[12.8132,43.6305],[12.8076,43.6285],[12.8046,43.6261],[12.8045,43.6232],[12.8165,43.6171],[12.8168,43.6077],[12.8185,43.6052],[12.8289,43.6042],[12.8306,43.6022],[12.8311,43.6001],[12.8304,43.5991],[12.8282,43.5984],[12.8195,43.5892],[12.8168,43.5887],[12.8104,43.5891],[12.8052,43.5916],[12.7979,43.5924],[12.7915,43.5946],[12.7903,43.5959],[12.7911,43.6011],[12.794,43.6046],[12.789,43.6115],[12.7755,43.6164],[12.7651,43.6246],[12.7585,43.6311],[12.7531,43.6346],[12.7385,43.6417],[12.7342,43.6452],[12.728,43.6481],[12.7373,43.6614],[12.758,43.6636],[12.7621,43.6682],[12.7609,43.6696],[12.745,43.6734],[12.7399,43.6779],[12.7365,43.6796],[12.7211,43.684],[12.7202,43.686],[12.7262,43.6905],[12.7421,43.7091],[12.7492,43.7055],[12.7701,43.7028],[12.7707,43.7081],[12.7757,43.7125],[12.7866,43.7174],[12.7999,43.7219],[12.8049,43.7255],[12.8096,43.7272],[12.8103,43.7244],[12.8147,43.7192],[12.8434,43.718],[12.8475,43.717],[12.8509,43.7141],[12.852,43.7091]]]}},{"type":"Feature","properties":{"i":"041016","n":"Fratte Rosa"},"geometry":{"type":"Polygon","coordinates":[[[12.9369,43.6571],[12.9373,43.6527],[12.9352,43.6492],[12.939,43.6343],[12.9397,43.6273],[12.9392,43.6258],[12.9345,43.6273],[12.9316,43.624],[12.916,43.6235],[12.9059,43.621],[12.9027,43.6206],[12.9008,43.6214],[12.8942,43.6203],[12.8889,43.6248],[12.8895,43.6296],[12.8875,43.6349],[12.8806,43.6462],[12.8796,43.6457],[12.8852,43.6505],[12.8872,43.6502],[12.9014,43.6582],[12.9067,43.6567],[12.9163,43.6565],[12.932,43.6588],[12.9369,43.6571]]]}},{"type":"Feature","properties":{"i":"041017","n":"Frontino"},"geometry":{"type":"Polygon","coordinates":[[[12.386,43.7747],[12.3873,43.7716],[12.3843,43.7628],[12.3842,43.7534],[12.372,43.7514],[12.3635,43.7511],[12.3549,43.7536],[12.3518,43.7569],[12.3414,43.7599],[12.3286,43.7601],[12.3222,43.7579],[12.3236,43.7598],[12.3277,43.7626],[12.3464,43.7739],[12.3588,43.7787],[12.3644,43.7836],[12.3699,43.781],[12.3806,43.778],[12.386,43.7747]]]}},{"type":"Feature","properties":{"i":"041018","n":"Frontone"},"geometry":{"type":"Polygon","coordinates":[[[12.7577,43.5288],[12.7538,43.527],[12.7559,43.5156],[12.7499,43.5097],[12.7489,43.5095],[12.7478,43.5109],[12.7419,43.5071],[12.7382,43.4983],[12.7326,43.4896],[12.7328,43.4865],[12.7357,43.4855],[12.736,43.4838],[12.7326,43.4805],[12.7279,43.4791],[12.7127,43.4711],[12.7127,43.4683],[12.7175,43.4569],[12.7225,43.4529],[12.7153,43.4461],[12.7116,43.4506],[12.6998,43.4552],[12.7021,43.4646],[12.6969,43.4698],[12.6857,43.474],[12.6667,43.4698],[12.667,43.4754],[12.6686,43.48],[12.6733,43.4855],[12.686,43.4952],[12.6994,43.5],[12.702,43.5027],[12.7038,43.506],[12.7078,43.5275],[12.7123,43.5345],[12.7139,43.5436],[12.7138,43.5473],[12.7233,43.5478],[12.7424,43.5518],[12.7532,43.5424],[12.7569,43.5359],[12.7577,43.5288]]]}},{"type":"Feature","properties":{"i":"041019","n":"Gabicce Mare"},"geometry":{"type":"Polygon","coordinates":[[[12.7871,43.9648],[12.787,43.9598],[12.7845,43.9539],[12.7733,43.9483],[12.7625,43.9487],[12.7526,43.9525],[12.7483,43.953],[12.7535,43.96],[12.7534,43.9655],[12.7506,43.9685],[12.7516,43.9695],[12.7871,43.9648]]]}},{"type":"Feature","properties":{"i":"041020","n":"Gradara"},"geometry":{"type":"Polygon","coordinates":[[[12.7733,43.9483],[12.7769,43.9463],[12.7826,43.9412],[12.7897,43.9431],[12.7907,43.9452],[12.8004,43.9448],[12.8091,43.9404],[12.8202,43.9297],[12.8085,43.919],[12.8028,43.9155],[12.7971,43.9234],[12.787,43.9225],[12.7828,43.9189],[12.7799,43.9174],[12.7645,43.9156],[12.755,43.9166],[12.7545,43.9183],[12.748,43.9233],[12.737,43.9293],[12.7329,43.9305],[12.7342,43.9335],[12.7384,43.9367],[12.7409,43.94],[12.7483,43.953],[12.7526,43.9525],[12.7625,43.9487],[12.7733,43.9483]]]}},{"type":"Feature","properties":{"i":"041021","n":"Isola del Piano"},"geometry":{"type":"Polygon","coordinates":[[[12.8096,43.7272],[12.8049,43.7255],[12.7999,43.7219],[12.7866,43.7174],[12.7757,43.7125],[12.7707,43.7081],[12.7701,43.7028],[12.7492,43.7055],[12.7421,43.7091],[12.7426,43.7117],[12.7391,43.7156],[12.7441,43.7299],[12.7489,43.7384],[12.7611,43.754],[12.7672,43.754],[12.7775,43.75],[12.7963,43.7537],[12.8141,43.7531],[12.8149,43.7522],[12.8151,43.7433],[12.8125,43.7293],[12.8096,43.7272]]]}},{"type":"Feature","properties":{"i":"041022","n":"Lunano"},"geometry":{"type":"Polygon","coordinates":[[[12.4363,43.7819],[12.429,43.7756],[12.4184,43.7633],[12.425,43.7613],[12.4338,43.7552],[12.437,43.7505],[12.4554,43.7471],[12.4766,43.7365],[12.4742,43.734],[12.4692,43.7317],[12.4517,43.7255],[12.4355,43.7159],[12.4338,43.7175],[12.4314,43.7234],[12.4238,43.7349],[12.4228,43.7395],[12.4285,43.7487],[12.4111,43.7647],[12.4046,43.7747],[12.4065,43.788],[12.4098,43.7906],[12.4122,43.7907],[12.4316,43.7826],[12.4363,43.7819]]]}},{"type":"Feature","properties":{"i":"041023","n":"Macerata Feltria"},"geometry":{"type":"Polygon","coordinates":[[[12.4945,43.826],[12.491,43.8188],[12.4934,43.8151],[12.4916,43.802],[12.4862,43.7966],[12.4779,43.7917],[12.4695,43.7852],[12.4719,43.7832],[12.4752,43.7781],[12.4746,43.7751],[12.4728,43.7738],[12.462,43.7759],[12.4572,43.7794],[12.452,43.7816],[12.4422,43.7813],[12.4316,43.7826],[12.4122,43.7907],[12.409,43.7903],[12.406,43.7935],[12.4112,43.8026],[12.3941,43.8213],[12.3985,43.8264],[12.4043,43.8265],[12.4157,43.8306],[12.4253,43.8332],[12.43,43.8337],[12.4343,43.8359],[12.4404,43.8369],[12.4489,43.8367],[12.4604,43.8387],[12.4657,43.8401],[12.4784,43.8457],[12.4809,43.8462],[12.4782,43.8413],[12.4784,43.8389],[12.4917,43.8298],[12.4945,43.826]]]}},{"type":"Feature","properties":{"i":"041025","n":"Mercatello sul Metauro"},"geometry":{"type":"Polygon","coordinates":[[[12.396,43.6144],[12.3912,43.6171],[12.3874,43.6139],[12.3713,43.6112],[12.3571,43.6172],[12.3547,43.6173],[12.3507,43.6122],[12.3522,43.6094],[12.3513,43.6081],[12.3451,43.6079],[12.3344,43.6099],[12.3322,43.6071],[12.3267,43.6033],[12.3111,43.5992],[12.3109,43.5971],[12.3062,43.5893],[12.2991,43.5859],[12.2924,43.5865],[12.2937,43.5905],[12.292,43.5935],[12.2878,43.5946],[12.2721,43.5939],[12.2652,43.5912],[12.2643,43.5897],[12.2627,43.589],[12.2574,43.5893],[12.2553,43.5902],[12.2569,43.5943],[12.2617,43.5963],[12.265,43.599],[12.2646,43.6058],[12.2682,43.6154],[12.2765,43.6196],[12.2802,43.6237],[12.2963,43.6502],[12.2963,43.6624],[12.3012,43.6717],[12.3066,43.6748],[12.3157,43.6779],[12.3312,43.6736],[12.3362,43.6781],[12.3514,43.6815],[12.3551,43.6838],[12.3579,43.6839],[12.3633,43.679],[12.3639,43.6749],[12.3622,43.6729],[12.372,43.6614],[12.3714,43.6585],[12.3664,43.6523],[12.3666,43.6407],[12.3749,43.6423],[12.3807,43.6486],[12.3867,43.6533],[12.4041,43.6496],[12.4126,43.6396],[12.4157,43.64],[12.4164,43.6393],[12.4138,43.6334],[12.4067,43.6303],[12.4016,43.6263],[12.3989,43.6179],[12.396,43.6144]]]}},{"type":"Feature","properties":{"i":"041026","n":"Mercatino Conca"},"geometry":{"type":"Polygon","coordinates":[[[12.5341,43.8706],[12.5355,43.868],[12.5411,43.8645],[12.5511,43.8664],[12.5502,43.8653],[12.5503,43.8639],[12.5518,43.8626],[12.5627,43.8597],[12.5609,43.8577],[12.561,43.8523],[12.5629,43.8491],[12.5653,43.8478],[12.5594,43.8474],[12.5407,43.855],[12.5286,43.8574],[12.5226,43.8565],[12.5109,43.8463],[12.4915,43.85],[12.4878,43.8498],[12.49,43.8542],[12.49,43.8578],[12.489,43.8599],[12.4851,43.864],[12.4829,43.8699],[12.4862,43.877],[12.4897,43.8825],[12.5018,43.8754],[12.5088,43.8785],[12.5182,43.881],[12.5191,43.8751],[12.5299,43.8709],[12.5341,43.8706]]]}},{"type":"Feature","properties":{"i":"041027","n":"Mombaroccio"},"geometry":{"type":"Polygon","coordinates":[[[12.9022,43.8253],[12.9015,43.8237],[12.9056,43.8184],[12.9105,43.8098],[12.9033,43.8079],[12.8916,43.8006],[12.8875,43.7992],[12.887,43.7856],[12.8754,43.7805],[12.8682,43.7803],[12.8616,43.7864],[12.8593,43.7874],[12.8349,43.7775],[12.8213,43.7974],[12.8229,43.8002],[12.8271,43.8046],[12.8311,43.8067],[12.8365,43.8069],[12.8406,43.8095],[12.8425,43.8142],[12.8424,43.8159],[12.8393,43.8193],[12.8397,43.822],[12.8461,43.8302],[12.8488,43.8321],[12.8576,43.8325],[12.8685,43.8353],[12.8928,43.83],[12.9022,43.8253]]]}},{"type":"Feature","properties":{"i":"041028","n":"Mondavio"},"geometry":{"type":"MultiPolygon","coordinates":[[[[13.0206,43.6889],[13.0264,43.6759],[13.0212,43.6733],[13.0154,43.6651],[13.0042,43.6583],[12.9949,43.6554],[12.9862,43.6554],[12.9842,43.6546],[12.9795,43.648],[12.969,43.6368],[12.9607,43.6286],[12.9581,43.627],[12.9457,43.6234],[12.939,43.6253],[12.9397,43.6273],[12.939,43.6343],[12.9352,43.6492],[12.9373,43.6527],[12.9369,43.6571],[12.942,43.6551],[12.9552,43.6558],[12.9563,43.6598],[12.9567,43.6708],[12.9537,43.6761],[12.9538,43.6776],[12.9597,43.681],[12.9667,43.6832],[12.9761,43.6807],[12.984,43.6811],[12.9939,43.6841],[13.0206,43.6889]]],[[[12.9485,43.7238],[12.9539,43.7194],[12.9605,43.7081],[12.9587,43.7066],[12.9396,43.7046],[12.9296,43.7101],[12.927,43.7127],[12.9238,43.7179],[12.9196,43.7199],[12.928,43.7258],[12.9387,43.7204],[12.9455,43.7217],[12.9485,43.7238]]]]}},{"type":"Feature","properties":{"i":"041029","n":"Mondolfo"},"geometry":{"type":"Polygon","coordinates":[[[13.1727,43.7505],[13.1612,43.7428],[13.1531,43.7405],[13.1507,43.7406],[13.1275,43.7302],[13.113,43.727],[13.1055,43.7267],[13.0976,43.7291],[13.0882,43.7356],[13.0853,43.7427],[13.0869,43.7512],[13.0848,43.7537],[13.0848,43.7563],[13.0858,43.7586],[13.0897,43.7629],[13.1028,43.7692],[13.1166,43.7646],[13.1184,43.7707],[13.1104,43.775],[13.1206,43.7822],[13.1382,43.7709],[13.1727,43.7505]]]}},{"type":"Feature","properties":{"i":"041030","n":"Montecalvo in Foglia"},"geometry":{"type":"Polygon","coordinates":[[[12.6876,43.8262],[12.6833,43.824],[12.6746,43.8115],[12.6746,43.8104],[12.6653,43.8123],[12.6641,43.8091],[12.6651,43.8067],[12.6642,43.8027],[12.6574,43.7924],[12.6442,43.7835],[12.6384,43.7863],[12.6349,43.789],[12.6259,43.793],[12.6153,43.7959],[12.6143,43.8014],[12.6077,43.8019],[12.6045,43.8065],[12.6045,43.8113],[12.6063,43.8144],[12.6189,43.8264],[12.6243,43.821],[12.6288,43.8209],[12.6443,43.8269],[12.6572,43.8262],[12.6651,43.8249],[12.675,43.825],[12.6813,43.8281],[12.6876,43.8262]]]}},{"type":"Feature","properties":{"i":"041031","n":"Monte Cerignone"},"geometry":{"type":"MultiPolygon","coordinates":[[[[12.5109,43.8463],[12.5101,43.8431],[12.5117,43.8229],[12.4945,43.826],[12.4917,43.8298],[12.4806,43.8369],[12.4782,43.8392],[12.4782,43.8413],[12.4809,43.8462],[12.4878,43.8498],[12.4915,43.85],[12.5109,43.8463]]],[[[12.4343,43.8359],[12.43,43.8337],[12.4253,43.8332],[12.4157,43.8306],[12.4043,43.8265],[12.3985,43.8264],[12.396,43.8299],[12.3915,43.847],[12.3929,43.8538],[12.3975,43.8674],[12.4036,43.8705],[12.4148,43.863],[12.4166,43.8606],[12.4248,43.8577],[12.4313,43.8565],[12.4404,43.8484],[12.4429,43.8423],[12.4402,43.8398],[12.4338,43.8368],[12.4343,43.8359]]]]}},{"type":"Feature","properties":{"i":"041034","n":"Montefelcino"},"geometry":{"type":"Polygon","coordinates":[[[12.83,43.7751],[12.8371,43.7502],[12.8428,43.7411],[12.8492,43.738],[12.854,43.7367],[12.872,43.7281],[12.8786,43.7271],[12.8835,43.7251],[12.8854,43.7233],[12.8826,43.7223],[12.8795,43.7164],[12.8687,43.7076],[12.852,43.7091],[12.8509,43.7141],[12.848,43.7168],[12.8452,43.7177],[12.8147,43.7192],[12.8103,43.7244],[12.8096,43.7272],[12.8125,43.7293],[12.8151,43.7433],[12.8149,43.7522],[12.8141,43.7531],[12.7963,43.7537],[12.7775,43.75],[12.7672,43.754],[12.7611,43.754],[12.7619,43.7635],[12.75,43.76],[12.7427,43.7561],[12.7381,43.7564],[12.7475,43.7647],[12.7476,43.7666],[12.7449,43.7687],[12.7404,43.7746],[12.7394,43.7854],[12.7453,43.7857],[12.7559,43.7834],[12.7636,43.7899],[12.7676,43.7961],[12.7738,43.7995],[12.778,43.797],[12.7813,43.7904],[12.7845,43.7867],[12.8057,43.7737],[12.8171,43.7697],[12.8222,43.7695],[12.83,43.7751]]]}},{"type":"Feature","properties":{"i":"041035","n":"Monte Grimano Terme"},"geometry":{"type":"Polygon","coordinates":[[[12.4874,43.8965],[12.4872,43.8863],[12.4879,43.8842],[12.4897,43.8825],[12.4862,43.877],[12.4829,43.8699],[12.4851,43.864],[12.4897,43.8586],[12.4898,43.8533],[12.4878,43.8498],[12.4809,43.8462],[12.4784,43.8457],[12.4657,43.8401],[12.4489,43.8367],[12.4404,43.8369],[12.4343,43.8359],[12.4338,43.8368],[12.4402,43.8398],[12.4429,43.8423],[12.4404,43.8484],[12.4313,43.8565],[12.4248,43.8577],[12.4166,43.8606],[12.4148,43.863],[12.4006,43.8728],[12.4035,43.8749],[12.4142,43.8744],[12.4223,43.8722],[12.4302,43.8717],[12.4321,43.8726],[12.4323,43.8749],[12.4349,43.8722],[12.4458,43.8712],[12.4486,43.8725],[12.4556,43.8784],[12.4605,43.8873],[12.4631,43.8902],[12.4636,43.8912],[12.4624,43.8938],[12.4636,43.8952],[12.4667,43.8962],[12.4748,43.8969],[12.4874,43.8965]]]}},{"type":"Feature","properties":{"i":"041036","n":"Montelabbate"},"geometry":{"type":"MultiPolygon","coordinates":[[[[12.7844,43.8217],[12.7842,43.8197],[12.7866,43.8134],[12.7767,43.803],[12.771,43.8023],[12.7687,43.8066],[12.7641,43.8106],[12.7518,43.8101],[12.7501,43.8119],[12.7467,43.8215],[12.7507,43.8378],[12.7585,43.8493],[12.7723,43.8484],[12.7735,43.8429],[12.7702,43.8374],[12.7813,43.8242],[12.7844,43.8217]]],[[[12.8032,43.8422],[12.7897,43.8373],[12.7832,43.8428],[12.782,43.8445],[12.7817,43.848],[12.7822,43.8491],[12.7859,43.8516],[12.7907,43.8528],[12.7904,43.8536],[12.7764,43.8624],[12.7706,43.861],[12.7624,43.8627],[12.7555,43.8682],[12.7558,43.8695],[12.7607,43.8754],[12.7674,43.875],[12.7717,43.8775],[12.7759,43.8751],[12.785,43.8677],[12.7919,43.8704],[12.8161,43.8611],[12.8191,43.8629],[12.8219,43.862],[12.822,43.8584],[12.8209,43.8575],[12.8071,43.855],[12.8075,43.844],[12.8032,43.8422]]]]}},{"type":"Feature","properties":{"i":"041038","n":"Monte Porzio"},"geometry":{"type":"MultiPolygon","coordinates":[[[[13.0902,43.7155],[13.0909,43.7147],[13.0822,43.7111],[13.0786,43.7134],[13.0851,43.7188],[13.0902,43.7155]]],[[[13.0698,43.693],[13.0438,43.6803],[13.0387,43.6762],[13.0331,43.6748],[13.0264,43.6759],[13.0206,43.6889],[13.0217,43.6909],[13.0216,43.6944],[13.0149,43.7055],[13.0317,43.7161],[13.0343,43.7193],[13.0363,43.7204],[13.0626,43.7233],[13.0655,43.72],[13.0727,43.7153],[13.0771,43.7053],[13.0771,43.7014],[13.0698,43.693]]],[[[13.0961,43.7214],[13.1015,43.7221],[13.1013,43.7201],[13.0978,43.7179],[13.0909,43.717],[13.0871,43.7205],[13.0919,43.7244],[13.0961,43.7214]]]]}},{"type":"Feature","properties":{"i":"041041","n":"Peglio"},"geometry":{"type":"Polygon","coordinates":[[[12.5378,43.7008],[12.5311,43.6999],[12.5206,43.6955],[12.5098,43.687],[12.5052,43.6818],[12.5021,43.682],[12.5017,43.6831],[12.4991,43.6839],[12.4911,43.6843],[12.4703,43.6775],[12.4675,43.6752],[12.4639,43.6751],[12.4621,43.6764],[12.4595,43.6789],[12.4537,43.6876],[12.4575,43.6919],[12.461,43.6987],[12.4647,43.7004],[12.4726,43.7129],[12.4811,43.7209],[12.4918,43.7215],[12.4961,43.7201],[12.503,43.7197],[12.513,43.7269],[12.517,43.7252],[12.5251,43.7141],[12.5371,43.706],[12.538,43.7034],[12.5378,43.7008]]]}},{"type":"Feature","properties":{"i":"041043","n":"Pergola"},"geometry":{"type":"Polygon","coordinates":[[[12.9008,43.6214],[12.8962,43.6081],[12.8879,43.6057],[12.8833,43.6065],[12.8815,43.6076],[12.877,43.606],[12.8736,43.599],[12.8749,43.5855],[12.8865,43.5823],[12.8934,43.5837],[12.8955,43.5871],[12.9033,43.59],[12.9161,43.5868],[12.923,43.5878],[12.9178,43.5824],[12.9213,43.5793],[12.9215,43.5782],[12.9217,43.575],[12.92,43.5721],[12.9073,43.5588],[12.8768,43.5361],[12.8453,43.5254],[12.8432,43.5183],[12.8301,43.5092],[12.8291,43.5088],[12.825,43.5102],[12.8141,43.508],[12.8142,43.5067],[12.8112,43.5045],[12.8059,43.5041],[12.8037,43.5088],[12.7982,43.5126],[12.7829,43.5199],[12.7593,43.5288],[12.7577,43.5288],[12.7569,43.5359],[12.7532,43.5424],[12.7424,43.5518],[12.7456,43.5547],[12.7483,43.5552],[12.7529,43.5603],[12.7536,43.5621],[12.7528,43.5644],[12.7531,43.5698],[12.7572,43.5771],[12.7643,43.5804],[12.7787,43.5834],[12.7873,43.5775],[12.7906,43.5717],[12.7958,43.5693],[12.8073,43.5732],[12.811,43.5813],[12.8085,43.5899],[12.8142,43.5887],[12.8192,43.589],[12.8282,43.5984],[12.8304,43.5991],[12.8311,43.6001],[12.8306,43.6022],[12.8292,43.6041],[12.8185,43.6052],[12.8168,43.6077],[12.8165,43.6171],[12.8044,43.6234],[12.8046,43.6261],[12.8076,43.6285],[12.8132,43.6305],[12.8148,43.6294],[12.817,43.626],[12.8356,43.6243],[12.841,43.6257],[12.8478,43.633],[12.8505,43.6389],[12.8536,43.6415],[12.8691,43.6438],[12.873,43.6432],[12.8806,43.6462],[12.8875,43.6349],[12.8895,43.6296],[12.8889,43.6248],[12.8942,43.6203],[12.9008,43.6214]]]}},{"type":"Feature","properties":{"i":"041044","n":"Pesaro"},"geometry":{"type":"Polygon","coordinates":[[[12.9626,43.8816],[12.9568,43.8747],[12.9403,43.8651],[12.9386,43.8602],[12.9417,43.858],[12.9423,43.8563],[12.9399,43.8511],[12.9258,43.841],[12.9186,43.8379],[12.9125,43.8293],[12.9045,43.8257],[12.9022,43.8253],[12.8928,43.83],[12.8685,43.8353],[12.8576,43.8325],[12.8488,43.8321],[12.8461,43.8302],[12.8397,43.822],[12.8393,43.8193],[12.8424,43.8159],[12.8425,43.8142],[12.8406,43.8095],[12.8365,43.8069],[12.8311,43.8067],[12.8279,43.8051],[12.8212,43.7981],[12.8349,43.7775],[12.83,43.7751],[12.8228,43.7696],[12.8171,43.7697],[12.8057,43.7737],[12.796,43.7791],[12.7845,43.7867],[12.7813,43.7904],[12.778,43.797],[12.7738,43.7995],[12.771,43.8023],[12.7767,43.803],[12.7866,43.8134],[12.7842,43.8197],[12.7844,43.8217],[12.7909,43.8175],[12.7948,43.8163],[12.7976,43.8176],[12.8044,43.8252],[12.8058,43.8313],[12.8024,43.8389],[12.8032,43.8422],[12.8075,43.844],[12.8071,43.855],[12.8203,43.8572],[12.822,43.8584],[12.8224,43.8607],[12.8219,43.862],[12.8197,43.8629],[12.8161,43.8611],[12.7919,43.8704],[12.785,43.8677],[12.7759,43.8751],[12.7717,43.8775],[12.7744,43.8835],[12.7743,43.8864],[12.783,43.8914],[12.7987,43.8908],[12.8086,43.8891],[12.8162,43.8874],[12.8214,43.8833],[12.8247,43.886],[12.8219,43.892],[12.815,43.9016],[12.8075,43.9112],[12.8028,43.9155],[12.8085,43.919],[12.8202,43.9297],[12.8091,43.9404],[12.8004,43.9448],[12.7907,43.9452],[12.7897,43.9431],[12.7826,43.9412],[12.7769,43.9463],[12.7733,43.9483],[12.7845,43.9539],[12.787,43.9598],[12.7871,43.9648],[12.7976,43.9652],[12.8343,43.9489],[12.8777,43.9311],[12.8916,43.9237],[12.8982,43.9226],[12.9022,43.9234],[12.9073,43.923],[12.9483,43.8938],[12.9626,43.8816]]]}},{"type":"Feature","properties":{"i":"041045","n":"Petriano"},"geometry":{"type":"Polygon","coordinates":[[[12.7209,43.7921],[12.7264,43.7889],[12.7394,43.7854],[12.7404,43.7746],[12.7449,43.7687],[12.7476,43.7666],[12.7475,43.7647],[12.7381,43.7564],[12.7213,43.7646],[12.7151,43.7754],[12.7167,43.7817],[12.718,43.7826],[12.718,43.7837],[12.713,43.7848],[12.7053,43.7801],[12.7024,43.7795],[12.6896,43.782],[12.6843,43.7932],[12.6867,43.7955],[12.6866,43.7978],[12.6883,43.7996],[12.6937,43.8031],[12.6985,43.8037],[12.7098,43.8017],[12.7134,43.7984],[12.7113,43.7972],[12.7136,43.7933],[12.7187,43.7911],[12.7209,43.7921]]]}},{"type":"Feature","properties":{"i":"041047","n":"Piandimeleto"},"geometry":{"type":"MultiPolygon","coordinates":[[[[12.4819,43.7434],[12.4766,43.7365],[12.4554,43.7471],[12.4553,43.7502],[12.4596,43.7553],[12.4663,43.7597],[12.4719,43.7568],[12.475,43.7497],[12.4792,43.7437],[12.4819,43.7434]]],[[[12.409,43.7903],[12.4065,43.788],[12.4046,43.7747],[12.4111,43.7647],[12.4285,43.7487],[12.4228,43.7395],[12.4238,43.7349],[12.4314,43.7234],[12.4338,43.7175],[12.4355,43.7159],[12.436,43.7075],[12.4352,43.706],[12.424,43.7039],[12.4196,43.7056],[12.4133,43.7058],[12.4011,43.7046],[12.3984,43.7061],[12.3955,43.7163],[12.3882,43.7259],[12.3859,43.7271],[12.383,43.7274],[12.377,43.7243],[12.3678,43.7249],[12.3661,43.7267],[12.3593,43.7392],[12.3453,43.7381],[12.3388,43.7362],[12.3346,43.7399],[12.33,43.7476],[12.3271,43.751],[12.3191,43.7546],[12.3074,43.7564],[12.3222,43.7579],[12.3286,43.7601],[12.3414,43.7599],[12.3518,43.7569],[12.3549,43.7536],[12.3635,43.7511],[12.372,43.7514],[12.3842,43.7534],[12.3843,43.7628],[12.3873,43.7716],[12.386,43.7747],[12.3894,43.783],[12.3927,43.7887],[12.3942,43.7902],[12.4036,43.792],[12.406,43.7935],[12.409,43.7903]]]]}},{"type":"Feature","properties":{"i":"041048","n":"Pietrarubbia"},"geometry":{"type":"Polygon","coordinates":[[[12.406,43.7935],[12.4036,43.792],[12.3939,43.79],[12.3894,43.783],[12.386,43.7747],[12.3806,43.778],[12.3656,43.7827],[12.3619,43.786],[12.3585,43.794],[12.3498,43.7996],[12.3561,43.8029],[12.3683,43.8129],[12.3805,43.8148],[12.388,43.8168],[12.3905,43.8195],[12.3941,43.8213],[12.4112,43.8026],[12.406,43.7935]]]}},{"type":"Feature","properties":{"i":"041049","n":"Piobbico"},"geometry":{"type":"Polygon","coordinates":[[[12.551,43.5964],[12.5531,43.5921],[12.552,43.59],[12.5535,43.5848],[12.5613,43.5803],[12.5613,43.5785],[12.5631,43.5769],[12.5704,43.5755],[12.574,43.5778],[12.582,43.5716],[12.5821,43.5685],[12.5751,43.5632],[12.5708,43.5591],[12.5694,43.5567],[12.5692,43.5557],[12.572,43.5515],[12.5642,43.5462],[12.5623,43.5459],[12.5554,43.5471],[12.5515,43.5502],[12.5456,43.5529],[12.5314,43.5543],[12.5226,43.5519],[12.5222,43.5553],[12.5181,43.5578],[12.5126,43.5565],[12.5018,43.5605],[12.4923,43.5662],[12.4902,43.5698],[12.4921,43.5757],[12.4902,43.5805],[12.4871,43.583],[12.481,43.5782],[12.4626,43.5783],[12.4565,43.5799],[12.4456,43.5863],[12.4436,43.5894],[12.4445,43.5959],[12.4462,43.5964],[12.4473,43.5982],[12.4496,43.606],[12.4498,43.6103],[12.4521,43.6124],[12.4688,43.6123],[12.4882,43.6184],[12.4963,43.6177],[12.5036,43.6218],[12.5061,43.6206],[12.5075,43.6134],[12.5209,43.6095],[12.5281,43.6043],[12.53,43.5973],[12.5388,43.5977],[12.5413,43.595],[12.5421,43.5927],[12.5492,43.5951],[12.551,43.5964]]]}},{"type":"Feature","properties":{"i":"041051","n":"San Costanzo"},"geometry":{"type":"Polygon","coordinates":[[[13.1104,43.775],[13.1184,43.7707],[13.1166,43.7646],[13.1028,43.7692],[13.0897,43.7629],[13.0858,43.7586],[13.0848,43.7563],[13.0848,43.7537],[13.0869,43.7512],[13.0853,43.7427],[13.0882,43.7356],[13.0976,43.7291],[13.0957,43.7285],[13.0826,43.7271],[13.0681,43.7238],[13.0366,43.7204],[13.0343,43.7193],[13.0283,43.723],[13.0241,43.7289],[13.0223,43.7341],[13.0171,43.7355],[13.0119,43.7342],[13.0069,43.7367],[13.0047,43.7404],[13.0047,43.7427],[13.0016,43.7507],[12.9965,43.7535],[13.003,43.7546],[13.0063,43.7565],[13.0117,43.7636],[13.0209,43.7682],[13.0248,43.7666],[13.0271,43.7639],[13.0304,43.7623],[13.0358,43.7644],[13.0377,43.7658],[13.0392,43.7697],[13.0389,43.7719],[13.0405,43.7746],[13.0464,43.7778],[13.0553,43.7791],[13.0624,43.7782],[13.0747,43.7875],[13.0778,43.7939],[13.0802,43.7959],[13.1104,43.775]]]}},{"type":"Feature","properties":{"i":"041054","n":"San Lorenzo in Campo"},"geometry":{"type":"Polygon","coordinates":[[[12.9841,43.6372],[12.9779,43.6221],[12.9614,43.5983],[12.9577,43.5963],[12.955,43.5977],[12.9421,43.5968],[12.9392,43.5939],[12.9385,43.5915],[12.9281,43.5864],[12.9252,43.5866],[12.923,43.5878],[12.9161,43.5868],[12.9033,43.59],[12.8955,43.5871],[12.8934,43.5837],[12.8865,43.5823],[12.8749,43.5855],[12.8736,43.599],[12.877,43.606],[12.8815,43.6076],[12.8833,43.6065],[12.8879,43.6057],[12.8962,43.6081],[12.9008,43.6214],[12.9027,43.6206],[12.916,43.6235],[12.9316,43.624],[12.9347,43.6273],[12.9392,43.6258],[12.939,43.6253],[12.9403,43.6244],[12.9446,43.6234],[12.9488,43.6239],[12.9581,43.627],[12.9607,43.6286],[12.969,43.6368],[12.9795,43.648],[12.984,43.6544],[12.9862,43.6554],[12.988,43.6498],[12.9841,43.6372]]]}},{"type":"Feature","properties":{"i":"041057","n":"Sant'Angelo in Vado"},"geometry":{"type":"Polygon","coordinates":[[[12.461,43.6987],[12.4575,43.6919],[12.4537,43.6876],[12.4595,43.6789],[12.4621,43.6764],[12.4639,43.6751],[12.4675,43.6752],[12.4618,43.6732],[12.4585,43.6702],[12.4583,43.6647],[12.4623,43.6579],[12.465,43.6506],[12.4589,43.6414],[12.4553,43.6342],[12.4583,43.6317],[12.4544,43.6174],[12.4521,43.6145],[12.4507,43.6141],[12.4474,43.6151],[12.4306,43.6064],[12.4235,43.6101],[12.4176,43.6086],[12.4132,43.6039],[12.4078,43.6021],[12.4067,43.6005],[12.4045,43.6011],[12.3976,43.6094],[12.396,43.6144],[12.3989,43.6179],[12.4016,43.6263],[12.4067,43.6303],[12.4138,43.6334],[12.4163,43.6396],[12.4126,43.6396],[12.4037,43.6497],[12.3867,43.6533],[12.3807,43.6486],[12.3749,43.6423],[12.3666,43.6407],[12.3664,43.6523],[12.3714,43.6585],[12.372,43.6614],[12.3622,43.6729],[12.3639,43.6749],[12.3633,43.679],[12.3579,43.6839],[12.3551,43.6838],[12.3514,43.6815],[12.35,43.6833],[12.3534,43.6845],[12.359,43.6932],[12.3654,43.6977],[12.3908,43.7053],[12.3958,43.7044],[12.3984,43.7061],[12.4011,43.7046],[12.4133,43.7058],[12.4196,43.7056],[12.424,43.7039],[12.4352,43.706],[12.436,43.7075],[12.4589,43.7045],[12.4615,43.7021],[12.461,43.6987]]]}},{"type":"Feature","properties":{"i":"041058","n":"Sant'Ippolito"},"geometry":{"type":"Polygon","coordinates":[[[12.8858,43.7207],[12.8881,43.7199],[12.8899,43.717],[12.8909,43.7133],[12.8881,43.7075],[12.8853,43.7056],[12.885,43.6968],[12.8884,43.6849],[12.8957,43.6852],[12.8999,43.6866],[12.9066,43.6872],[12.9123,43.6835],[12.9143,43.681],[12.9077,43.6733],[12.9066,43.6622],[12.9058,43.6611],[12.9024,43.6574],[12.9014,43.6582],[12.8991,43.6574],[12.8872,43.6502],[12.8852,43.6505],[12.8824,43.6538],[12.8723,43.66],[12.8593,43.6664],[12.857,43.6682],[12.8557,43.6725],[12.8556,43.6757],[12.8637,43.6936],[12.864,43.6967],[12.8623,43.7005],[12.8611,43.7014],[12.8564,43.7026],[12.8519,43.7019],[12.8479,43.7047],[12.852,43.7091],[12.8687,43.7076],[12.8795,43.7164],[12.8826,43.7223],[12.8858,43.7207]]]}},{"type":"Feature","properties":{"i":"041061","n":"Serra Sant'Abbondio"},"geometry":{"type":"Polygon","coordinates":[[[12.8059,43.5041],[12.7991,43.4947],[12.7973,43.487],[12.7991,43.4789],[12.7748,43.4719],[12.7692,43.465],[12.7678,43.4624],[12.7674,43.4598],[12.7577,43.4587],[12.7555,43.4591],[12.7466,43.4636],[12.7346,43.4643],[12.7322,43.4628],[12.7233,43.453],[12.7209,43.4539],[12.7175,43.4569],[12.7127,43.4683],[12.7127,43.4711],[12.7279,43.4791],[12.7326,43.4805],[12.736,43.4838],[12.7357,43.4855],[12.7328,43.4865],[12.7326,43.4896],[12.7382,43.4983],[12.7419,43.5071],[12.7478,43.5109],[12.7489,43.5095],[12.7499,43.5097],[12.7559,43.5156],[12.754,43.5273],[12.7593,43.5288],[12.7829,43.5199],[12.8002,43.5115],[12.8037,43.5088],[12.8059,43.5041]]]}},{"type":"Feature","properties":{"i":"041064","n":"Tavoleto"},"geometry":{"type":"MultiPolygon","coordinates":[[[[12.5594,43.8474],[12.5565,43.8417],[12.5492,43.837],[12.5405,43.8331],[12.5263,43.8457],[12.5109,43.8463],[12.5226,43.8565],[12.5286,43.8574],[12.5407,43.855],[12.5594,43.8474]]],[[[12.6159,43.8465],[12.6189,43.8426],[12.6102,43.8369],[12.61,43.8341],[12.6112,43.8308],[12.6051,43.838],[12.6008,43.8399],[12.598,43.8401],[12.5948,43.8364],[12.582,43.843],[12.5731,43.8493],[12.5703,43.8498],[12.5653,43.8478],[12.5629,43.8491],[12.561,43.8523],[12.5609,43.8577],[12.5627,43.8597],[12.5704,43.8585],[12.5737,43.8565],[12.5739,43.8548],[12.5728,43.8524],[12.5746,43.8519],[12.5839,43.857],[12.5894,43.8653],[12.5925,43.8651],[12.6029,43.8619],[12.6031,43.8578],[12.6012,43.8534],[12.601,43.8505],[12.6051,43.8456],[12.607,43.845],[12.6159,43.8465]]]]}},{"type":"Feature","properties":{"i":"041065","n":"Tavullia"},"geometry":{"type":"MultiPolygon","coordinates":[[[[12.6876,43.8262],[12.6813,43.8281],[12.6784,43.8393],[12.6825,43.8529],[12.6906,43.8522],[12.6963,43.8528],[12.6994,43.8552],[12.7106,43.8596],[12.7219,43.861],[12.7297,43.866],[12.7329,43.8694],[12.7379,43.8672],[12.7435,43.8627],[12.7491,43.8508],[12.7445,43.8481],[12.7353,43.8456],[12.7259,43.847],[12.7229,43.849],[12.7151,43.8478],[12.7125,43.8462],[12.7083,43.8397],[12.7099,43.8373],[12.7111,43.8371],[12.7123,43.8382],[12.7107,43.8347],[12.6962,43.8348],[12.6876,43.8262]]],[[[12.8028,43.9155],[12.8075,43.9112],[12.8219,43.892],[12.8247,43.8867],[12.8241,43.8849],[12.8214,43.8833],[12.8162,43.8874],[12.8086,43.8891],[12.7987,43.8908],[12.783,43.8914],[12.7743,43.8864],[12.7744,43.8835],[12.7719,43.8776],[12.7674,43.875],[12.7607,43.8754],[12.7558,43.8695],[12.7555,43.8682],[12.7486,43.8718],[12.7396,43.8721],[12.7335,43.87],[12.7336,43.8711],[12.7314,43.8735],[12.7228,43.8795],[12.7228,43.8811],[12.7301,43.8917],[12.7348,43.896],[12.7271,43.9117],[12.7293,43.9122],[12.73,43.9131],[12.7287,43.9217],[12.7308,43.9271],[12.7335,43.9298],[12.737,43.9293],[12.748,43.9233],[12.7545,43.9183],[12.755,43.9166],[12.7645,43.9156],[12.7772,43.9168],[12.7828,43.9189],[12.787,43.9225],[12.7971,43.9234],[12.8028,43.9155]]]]}},{"type":"Feature","properties":{"i":"041066","n":"Urbania"},"geometry":{"type":"Polygon","coordinates":[[[12.5898,43.6677],[12.5869,43.6656],[12.5849,43.6627],[12.5889,43.6612],[12.5921,43.6566],[12.595,43.6503],[12.5992,43.6452],[12.5976,43.643],[12.5842,43.6416],[12.5754,43.6432],[12.5749,43.6453],[12.5686,43.6461],[12.5636,43.6434],[12.5555,43.6346],[12.5515,43.6287],[12.551,43.6247],[12.5521,43.6217],[12.5511,43.6171],[12.5472,43.6167],[12.5435,43.6135],[12.5449,43.607],[12.5462,43.6051],[12.5515,43.6021],[12.5553,43.6009],[12.5492,43.5951],[12.5436,43.5928],[12.5421,43.5927],[12.5413,43.595],[12.5388,43.5977],[12.53,43.5973],[12.5281,43.6043],[12.5209,43.6095],[12.5075,43.6134],[12.5061,43.6206],[12.5045,43.6218],[12.4963,43.6177],[12.4882,43.6184],[12.4688,43.6123],[12.4521,43.6124],[12.4498,43.6103],[12.4474,43.6151],[12.4512,43.6142],[12.4544,43.6174],[12.4583,43.6317],[12.4553,43.6342],[12.4589,43.6414],[12.465,43.6506],[12.4623,43.6579],[12.4583,43.6647],[12.4587,43.6707],[12.4618,43.6732],[12.4675,43.6752],[12.4703,43.6775],[12.4869,43.6834],[12.4945,43.6846],[12.4991,43.6839],[12.5017,43.6831],[12.5021,43.682],[12.5052,43.6818],[12.5098,43.687],[12.5157,43.692],[12.5206,43.6955],[12.5285,43.6991],[12.5378,43.7008],[12.5397,43.6912],[12.5427,43.6868],[12.5549,43.6823],[12.5588,43.6818],[12.5614,43.6833],[12.5629,43.6854],[12.569,43.6891],[12.5734,43.6895],[12.5797,43.6862],[12.5823,43.6835],[12.5811,43.6761],[12.5898,43.6677]]]}},{"type":"Feature","properties":{"i":"041067","n":"Urbino"},"geometry":{"type":"MultiPolygon","coordinates":[[[[12.7394,43.7854],[12.7264,43.7889],[12.7209,43.7921],[12.7247,43.8009],[12.7371,43.8021],[12.7513,43.7989],[12.7572,43.7985],[12.7706,43.8031],[12.7738,43.7995],[12.7676,43.7961],[12.7636,43.7899],[12.7559,43.7834],[12.7453,43.7857],[12.7394,43.7854]]],[[[12.6112,43.8308],[12.6189,43.8264],[12.6063,43.8144],[12.6045,43.8113],[12.6044,43.8079],[12.6046,43.8063],[12.6077,43.8019],[12.6143,43.8014],[12.6153,43.7959],[12.6259,43.793],[12.6349,43.789],[12.6384,43.7863],[12.6442,43.7835],[12.6574,43.7924],[12.6642,43.8027],[12.6651,43.8067],[12.6641,43.8091],[12.6653,43.8123],[12.6665,43.8096],[12.6703,43.8068],[12.6734,43.8095],[12.6756,43.8103],[12.6837,43.8062],[12.6803,43.8018],[12.6809,43.7973],[12.6867,43.7955],[12.6843,43.7932],[12.6896,43.782],[12.7024,43.7795],[12.7053,43.7801],[12.713,43.7848],[12.718,43.7837],[12.718,43.7826],[12.7167,43.7817],[12.7151,43.7754],[12.7213,43.7646],[12.7381,43.7564],[12.7427,43.7561],[12.75,43.76],[12.7619,43.7635],[12.7611,43.754],[12.7489,43.7384],[12.7441,43.7299],[12.7412,43.722],[12.7391,43.7156],[12.7426,43.7117],[12.7421,43.7091],[12.7262,43.6905],[12.7215,43.6866],[12.7202,43.686],[12.7095,43.6859],[12.7063,43.6842],[12.7052,43.6826],[12.7049,43.6797],[12.7077,43.6766],[12.7069,43.6733],[12.7047,43.6695],[12.7019,43.6718],[12.6926,43.6719],[12.689,43.6734],[12.6879,43.6751],[12.689,43.6782],[12.6774,43.6861],[12.6725,43.6916],[12.6696,43.6967],[12.6646,43.7002],[12.6578,43.6986],[12.6414,43.6924],[12.6293,43.6898],[12.6184,43.6907],[12.6122,43.6803],[12.6121,43.6747],[12.6132,43.6678],[12.6144,43.6663],[12.6162,43.6657],[12.6079,43.6617],[12.5926,43.6661],[12.5878,43.6694],[12.5811,43.6761],[12.5823,43.6835],[12.5797,43.6862],[12.5734,43.6895],[12.569,43.6891],[12.5629,43.6854],[12.5614,43.6833],[12.5588,43.6818],[12.5549,43.6823],[12.5427,43.6868],[12.5397,43.6912],[12.5378,43.7008],[12.5377,43.7054],[12.5251,43.7141],[12.517,43.7252],[12.5133,43.7269],[12.503,43.7197],[12.4961,43.7201],[12.4918,43.7215],[12.4811,43.7209],[12.4726,43.7129],[12.4647,43.7004],[12.461,43.6987],[12.4615,43.7021],[12.4589,43.7045],[12.436,43.7075],[12.4355,43.7159],[12.4517,43.7255],[12.4613,43.7286],[12.4742,43.734],[12.4819,43.7434],[12.5032,43.748],[12.5177,43.7556],[12.5212,43.7563],[12.5325,43.7542],[12.5381,43.7562],[12.5432,43.7628],[12.5478,43.764],[12.5518,43.7702],[12.5566,43.781],[12.5661,43.7884],[12.5768,43.7923],[12.5799,43.794],[12.5854,43.7987],[12.5781,43.8022],[12.5759,43.8027],[12.572,43.802],[12.5682,43.8091],[12.5712,43.8107],[12.5921,43.8104],[12.5925,43.8245],[12.595,43.8318],[12.5948,43.8364],[12.5955,43.8379],[12.5984,43.8402],[12.6031,43.839],[12.6051,43.838],[12.6112,43.8308]]]]}},{"type":"Feature","properties":{"i":"041068","n":"Vallefoglia"},"geometry":{"type":"Polygon","coordinates":[[[12.7555,43.8682],[12.7624,43.8627],[12.7706,43.861],[12.7764,43.8624],[12.7904,43.8536],[12.7907,43.8528],[12.7859,43.8516],[12.7822,43.8491],[12.7817,43.848],[12.782,43.8445],[12.7832,43.8428],[12.7897,43.8373],[12.8032,43.8422],[12.8024,43.8389],[12.8058,43.8313],[12.8044,43.8252],[12.7974,43.8175],[12.7948,43.8163],[12.7922,43.8169],[12.7844,43.8217],[12.7813,43.8242],[12.7702,43.8374],[12.7735,43.8429],[12.7723,43.8484],[12.7599,43.8494],[12.758,43.8487],[12.7507,43.8378],[12.7467,43.8215],[12.7501,43.8119],[12.7518,43.8101],[12.7641,43.8106],[12.7687,43.8066],[12.7706,43.8031],[12.7572,43.7985],[12.7513,43.7989],[12.7371,43.8021],[12.7247,43.8009],[12.7209,43.7921],[12.7187,43.7911],[12.7136,43.7933],[12.7113,43.7972],[12.7134,43.7984],[12.7098,43.8017],[12.7005,43.8036],[12.6937,43.8031],[12.6871,43.7985],[12.6864,43.7973],[12.6867,43.7955],[12.6826,43.7966],[12.6809,43.7973],[12.6802,43.801],[12.6837,43.8062],[12.6755,43.8103],[12.6734,43.8095],[12.6703,43.8068],[12.6657,43.8106],[12.6653,43.8123],[12.6746,43.8104],[12.6746,43.8115],[12.6833,43.824],[12.6876,43.8262],[12.6962,43.8348],[12.7107,43.8347],[12.7123,43.8382],[12.7111,43.8371],[12.7099,43.8373],[12.7083,43.8397],[12.7135,43.8471],[12.7229,43.849],[12.7259,43.847],[12.7353,43.8456],[12.7445,43.8481],[12.7491,43.8508],[12.7435,43.8627],[12.7379,43.8672],[12.7329,43.8694],[12.7335,43.87],[12.7396,43.8721],[12.7486,43.8718],[12.7555,43.8682]]]}},{"type":"Feature","properties":{"i":"041069","n":"Colli al Metauro"},"geometry":{"type":"Polygon","coordinates":[[[12.8655,43.7829],[12.8632,43.778],[12.868,43.7722],[12.8726,43.7599],[12.8797,43.7562],[12.8854,43.7557],[12.8855,43.7569],[12.8882,43.7587],[12.8969,43.7625],[12.9173,43.7638],[12.9313,43.7693],[12.9421,43.768],[12.9533,43.7611],[12.9584,43.761],[12.9701,43.7634],[12.9717,43.7609],[12.9682,43.7574],[12.965,43.7517],[12.9655,43.7483],[12.9593,43.7342],[12.9536,43.7265],[12.9455,43.7217],[12.9382,43.7205],[12.928,43.7258],[12.918,43.7194],[12.9151,43.7207],[12.912,43.7244],[12.9041,43.7263],[12.8858,43.7207],[12.8826,43.7223],[12.8854,43.7233],[12.8835,43.7251],[12.8786,43.7271],[12.872,43.7281],[12.854,43.7367],[12.8492,43.738],[12.8428,43.7411],[12.8371,43.7502],[12.83,43.7751],[12.8588,43.7873],[12.8613,43.7866],[12.8655,43.7829]]]}},{"type":"Feature","properties":{"i":"041070","n":"Terre Roveresche"},"geometry":{"type":"Polygon","coordinates":[[[12.9965,43.7535],[13.0016,43.7507],[13.0047,43.7427],[13.0047,43.7404],[13.0069,43.7367],[13.0119,43.7342],[13.0171,43.7355],[13.0223,43.7341],[13.0241,43.7289],[13.0283,43.723],[13.0343,43.7193],[13.0317,43.7161],[13.0149,43.7055],[13.0216,43.6944],[13.0217,43.6909],[13.0206,43.6889],[12.9939,43.6841],[12.984,43.6811],[12.9761,43.6807],[12.9673,43.6832],[12.9597,43.681],[12.9538,43.6776],[12.9536,43.6767],[12.9567,43.6708],[12.9563,43.6598],[12.9552,43.6558],[12.9418,43.6551],[12.932,43.6588],[12.9163,43.6565],[12.9024,43.6574],[12.9066,43.6622],[12.9077,43.6733],[12.9142,43.6803],[12.9143,43.6814],[12.9066,43.6872],[12.8999,43.6866],[12.8957,43.6852],[12.8884,43.6849],[12.885,43.6968],[12.8853,43.7056],[12.8881,43.7075],[12.8909,43.7133],[12.8899,43.717],[12.8881,43.7199],[12.8858,43.7207],[12.9041,43.7263],[12.912,43.7244],[12.9151,43.7207],[12.918,43.7194],[12.9196,43.7199],[12.9238,43.7179],[12.927,43.7127],[12.9296,43.7101],[12.9396,43.7046],[12.9587,43.7066],[12.9605,43.7081],[12.9539,43.7194],[12.9485,43.7238],[12.9536,43.7265],[12.9593,43.7342],[12.9655,43.7483],[12.965,43.7517],[12.9682,43.7574],[12.9717,43.7609],[12.9701,43.7634],[12.9752,43.7644],[12.9778,43.7618],[12.9836,43.7587],[12.9907,43.7576],[12.9947,43.7558],[12.9965,43.7535]]]}},{"type":"Feature","properties":{"i":"041071","n":"Sassocorvaro Auditore"},"geometry":{"type":"MultiPolygon","coordinates":[[[[12.5948,43.8364],[12.595,43.8318],[12.5925,43.8245],[12.5921,43.8104],[12.5712,43.8107],[12.5682,43.8091],[12.572,43.802],[12.5759,43.8027],[12.5781,43.8022],[12.5854,43.7987],[12.5799,43.794],[12.5768,43.7923],[12.5661,43.7884],[12.5566,43.781],[12.5518,43.7702],[12.5478,43.764],[12.5432,43.7628],[12.5381,43.7562],[12.5325,43.7542],[12.5212,43.7563],[12.5177,43.7556],[12.5032,43.748],[12.4805,43.7433],[12.4792,43.7437],[12.475,43.7497],[12.4719,43.7568],[12.4663,43.7597],[12.4596,43.7553],[12.4553,43.7502],[12.4554,43.7471],[12.4521,43.7473],[12.437,43.7505],[12.4338,43.7552],[12.425,43.7613],[12.4184,43.7633],[12.429,43.7756],[12.4363,43.7819],[12.452,43.7816],[12.4572,43.7794],[12.462,43.7759],[12.4728,43.7738],[12.474,43.7744],[12.4753,43.7768],[12.4751,43.7785],[12.4719,43.7832],[12.4695,43.7852],[12.4779,43.7917],[12.4862,43.7966],[12.4916,43.802],[12.4934,43.8151],[12.491,43.8188],[12.4939,43.8254],[12.4945,43.826],[12.512,43.8231],[12.5101,43.8431],[12.5109,43.8463],[12.5263,43.8457],[12.5405,43.8331],[12.5492,43.837],[12.5565,43.8417],[12.5594,43.8474],[12.5653,43.8478],[12.5703,43.8498],[12.5731,43.8493],[12.582,43.843],[12.5948,43.8364]]],[[[12.5894,43.8653],[12.5839,43.857],[12.5746,43.8519],[12.5728,43.8524],[12.574,43.8559],[12.573,43.8571],[12.568,43.8592],[12.5627,43.8597],[12.5532,43.862],[12.5503,43.8639],[12.5502,43.8653],[12.5511,43.8664],[12.5603,43.869],[12.5648,43.8791],[12.5673,43.8824],[12.5725,43.8849],[12.5831,43.8841],[12.5895,43.8856],[12.5903,43.883],[12.5913,43.8696],[12.5894,43.8653]]]]}}]}
