{"type":"FeatureCollection","fonte":"Confini comunali ISTAT via openpolis/geojson-italy — CC BY 4.0","features":[{"type":"Feature","properties":{"i":"039001","n":"Alfonsine"},"geometry":{"type":"Polygon","coordinates":[[[12.1141,44.5472],[12.107,44.5455],[12.1045,44.5438],[12.099,44.5372],[12.0939,44.5265],[12.0876,44.5193],[12.0787,44.5117],[12.0651,44.4931],[12.0575,44.4958],[12.0531,44.4963],[12.048,44.4942],[12.0003,44.498],[11.9688,44.4964],[11.9513,44.5114],[11.9546,44.5136],[11.9606,44.5272],[11.9647,44.5327],[11.9779,44.5317],[11.987,44.5407],[11.9779,44.5445],[11.9249,44.557],[11.909,44.5615],[11.8951,44.561],[11.8872,44.5664],[11.8839,44.5792],[11.8978,44.5823],[11.9193,44.5855],[12.0022,44.6002],[12.0055,44.5993],[12.0072,44.5969],[12.006,44.5845],[12.0152,44.5808],[12.0238,44.579],[12.027,44.5768],[12.031,44.5693],[12.0299,44.5646],[12.028,44.563],[12.0283,44.5604],[12.0388,44.5576],[12.0595,44.5485],[12.0635,44.5481],[12.0674,44.5508],[12.0679,44.5527],[12.0671,44.5572],[12.0692,44.56],[12.0739,44.5611],[12.0793,44.5612],[12.0913,44.5591],[12.1141,44.5472]]]}},{"type":"Feature","properties":{"i":"039002","n":"Bagnacavallo"},"geometry":{"type":"Polygon","coordinates":[[[12.0281,44.4117],[12.0257,44.4061],[12.0212,44.3993],[12.0112,44.3891],[12.0035,44.3827],[11.9947,44.3789],[11.9838,44.3778],[11.9781,44.3795],[11.9755,44.3838],[11.9734,44.3927],[11.9717,44.3941],[11.9599,44.3964],[11.9453,44.4012],[11.9437,44.4075],[11.9396,44.416],[11.9393,44.4184],[11.9512,44.4329],[11.9563,44.4472],[11.9507,44.4498],[11.9503,44.4516],[11.9614,44.461],[11.9678,44.4653],[11.9742,44.4688],[12.0071,44.4806],[12.0206,44.4829],[12.0287,44.4852],[12.0531,44.4963],[12.0575,44.4958],[12.071,44.4907],[12.0689,44.4872],[12.0696,44.4793],[12.0718,44.4773],[12.0751,44.4762],[12.0772,44.4746],[12.0812,44.4694],[12.0759,44.4611],[12.0544,44.4469],[12.0423,44.4368],[12.0405,44.4338],[12.0372,44.4236],[12.0281,44.4117]]]}},{"type":"Feature","properties":{"i":"039003","n":"Bagnara di Romagna"},"geometry":{"type":"Polygon","coordinates":[[[11.8093,44.381],[11.8113,44.3894],[11.8144,44.3935],[11.8281,44.4045],[11.8369,44.414],[11.8507,44.4083],[11.8496,44.4068],[11.8516,44.4008],[11.861,44.3971],[11.8499,44.3814],[11.8414,44.3765],[11.8337,44.3788],[11.8184,44.3777],[11.8093,44.381]]]}},{"type":"Feature","properties":{"i":"039004","n":"Brisighella"},"geometry":{"type":"Polygon","coordinates":[[[11.9276,44.2153],[11.9215,44.2109],[11.9135,44.2079],[11.9101,44.203],[11.906,44.1942],[11.8988,44.1895],[11.8886,44.1707],[11.8643,44.1801],[11.8322,44.1974],[11.8164,44.199],[11.8067,44.1994],[11.7959,44.1929],[11.7808,44.1805],[11.7781,44.1809],[11.776,44.1821],[11.7738,44.1868],[11.7738,44.1904],[11.7714,44.1989],[11.7567,44.1949],[11.7525,44.193],[11.747,44.1875],[11.7452,44.1826],[11.7276,44.1689],[11.7197,44.1572],[11.7207,44.1506],[11.7219,44.1481],[11.7211,44.1376],[11.7159,44.1225],[11.7005,44.1206],[11.6817,44.1227],[11.6783,44.1213],[11.6732,44.1134],[11.6664,44.11],[11.6526,44.1009],[11.6435,44.1063],[11.6387,44.1115],[11.6141,44.1192],[11.6008,44.1186],[11.5907,44.1136],[11.5846,44.1122],[11.5843,44.1127],[11.5839,44.1162],[11.5878,44.1237],[11.5997,44.1252],[11.6036,44.1372],[11.611,44.1417],[11.6146,44.1417],[11.6167,44.1434],[11.6178,44.1457],[11.6173,44.1498],[11.6142,44.1551],[11.6148,44.1579],[11.6315,44.1683],[11.6402,44.1769],[11.6569,44.1975],[11.6671,44.2062],[11.6749,44.2111],[11.6879,44.2159],[11.6957,44.2256],[11.6955,44.2266],[11.684,44.2288],[11.6817,44.2352],[11.6873,44.2454],[11.6916,44.2508],[11.7002,44.2528],[11.7049,44.2507],[11.7234,44.2518],[11.7393,44.2557],[11.7428,44.2588],[11.7481,44.2672],[11.7506,44.2727],[11.7564,44.2708],[11.7615,44.2704],[11.7651,44.2735],[11.7659,44.2756],[11.7741,44.2752],[11.7797,44.2775],[11.7845,44.2772],[11.7894,44.2715],[11.7944,44.2675],[11.7964,44.2665],[11.7984,44.2668],[11.8063,44.2636],[11.8116,44.2503],[11.8288,44.2409],[11.8359,44.2359],[11.8598,44.2294],[11.8664,44.2243],[11.8733,44.2222],[11.8792,44.2223],[11.8941,44.2342],[11.8964,44.2349],[11.8973,44.2326],[11.8968,44.2194],[11.9023,44.2124],[11.9046,44.2109],[11.9079,44.2098],[11.9233,44.2173],[11.9276,44.2153]]]}},{"type":"Feature","properties":{"i":"039005","n":"Casola Valsenio"},"geometry":{"type":"Polygon","coordinates":[[[11.6344,44.2583],[11.6443,44.2571],[11.654,44.2569],[11.6674,44.2538],[11.6759,44.246],[11.6864,44.2435],[11.6817,44.2352],[11.684,44.2288],[11.6955,44.2266],[11.6957,44.2256],[11.6879,44.2159],[11.6749,44.2111],[11.6671,44.2062],[11.6569,44.1975],[11.6402,44.1769],[11.6315,44.1683],[11.6154,44.1583],[11.6103,44.1604],[11.6042,44.1584],[11.5928,44.161],[11.5775,44.1614],[11.5685,44.1667],[11.5641,44.1675],[11.5525,44.1653],[11.5536,44.1621],[11.5527,44.1593],[11.5448,44.1526],[11.5394,44.1535],[11.5296,44.1579],[11.5249,44.1577],[11.5282,44.1644],[11.5294,44.1717],[11.5354,44.1791],[11.5363,44.1851],[11.5356,44.1904],[11.5396,44.1906],[11.5476,44.189],[11.5518,44.1861],[11.5566,44.1845],[11.5617,44.1855],[11.5624,44.1877],[11.5617,44.1892],[11.5555,44.1949],[11.5491,44.205],[11.5492,44.2063],[11.5517,44.209],[11.5528,44.2151],[11.5509,44.2168],[11.5519,44.2199],[11.5557,44.2231],[11.5628,44.2203],[11.5641,44.2184],[11.5656,44.2183],[11.5778,44.2249],[11.5769,44.2285],[11.5838,44.2338],[11.5904,44.2364],[11.5944,44.2353],[11.5993,44.2371],[11.6081,44.2431],[11.6208,44.2451],[11.626,44.2471],[11.6299,44.251],[11.6344,44.2583]]]}},{"type":"Feature","properties":{"i":"039006","n":"Castel Bolognese"},"geometry":{"type":"Polygon","coordinates":[[[11.8481,44.3255],[11.8463,44.324],[11.838,44.3233],[11.8341,44.3209],[11.8258,44.3114],[11.8211,44.3101],[11.8084,44.3115],[11.8029,44.3104],[11.8008,44.3082],[11.7976,44.3016],[11.7887,44.301],[11.7723,44.2886],[11.7672,44.2869],[11.7639,44.287],[11.7591,44.2893],[11.7519,44.2945],[11.745,44.2944],[11.7365,44.3092],[11.7532,44.3234],[11.7587,44.3322],[11.7691,44.3331],[11.7768,44.338],[11.786,44.3481],[11.789,44.3538],[11.7894,44.3563],[11.7876,44.3601],[11.7938,44.3647],[11.7988,44.3608],[11.7976,44.3526],[11.8015,44.348],[11.8243,44.3389],[11.8425,44.326],[11.8445,44.3253],[11.8481,44.3255]]]}},{"type":"Feature","properties":{"i":"039007","n":"Cervia"},"geometry":{"type":"Polygon","coordinates":[[[12.3481,44.3013],[12.3485,44.2965],[12.3514,44.2864],[12.3575,44.2699],[12.3679,44.2494],[12.3839,44.2246],[12.3748,44.2183],[12.3681,44.2093],[12.3522,44.1962],[12.3493,44.1907],[12.2802,44.2332],[12.2471,44.2308],[12.2394,44.2209],[12.2376,44.2175],[12.2301,44.2167],[12.2316,44.2189],[12.2315,44.223],[12.2292,44.2266],[12.2392,44.237],[12.2406,44.2418],[12.2443,44.248],[12.2475,44.2499],[12.2551,44.2525],[12.26,44.2576],[12.2696,44.2794],[12.271,44.2852],[12.2698,44.29],[12.2706,44.2935],[12.2739,44.2986],[12.3046,44.3083],[12.3108,44.2933],[12.3481,44.3013]]]}},{"type":"Feature","properties":{"i":"039008","n":"Conselice"},"geometry":{"type":"Polygon","coordinates":[[[11.9162,44.5595],[11.9128,44.554],[11.9101,44.553],[11.8854,44.5531],[11.8794,44.5508],[11.8741,44.5473],[11.8707,44.5286],[11.8655,44.5086],[11.8537,44.4964],[11.8535,44.4915],[11.8512,44.4879],[11.8446,44.4891],[11.8429,44.4878],[11.8416,44.4854],[11.8424,44.482],[11.846,44.477],[11.8479,44.4717],[11.8471,44.4687],[11.8277,44.4731],[11.8196,44.485],[11.7787,44.5035],[11.7806,44.5226],[11.7891,44.5543],[11.8319,44.5616],[11.8444,44.5558],[11.8496,44.5561],[11.8603,44.5598],[11.8607,44.5632],[11.8636,44.5699],[11.8705,44.5776],[11.8749,44.5776],[11.8839,44.5792],[11.8872,44.5664],[11.8951,44.561],[11.909,44.5615],[11.9162,44.5595]]]}},{"type":"Feature","properties":{"i":"039009","n":"Cotignola"},"geometry":{"type":"Polygon","coordinates":[[[11.9838,44.3778],[11.9833,44.3762],[11.9779,44.3707],[11.9637,44.3707],[11.958,44.3746],[11.9492,44.3782],[11.9395,44.3793],[11.9286,44.3738],[11.9257,44.3746],[11.9028,44.3444],[11.8754,44.3553],[11.8771,44.3608],[11.8665,44.3656],[11.8621,44.3716],[11.8687,44.3794],[11.8524,44.3857],[11.861,44.3971],[11.8681,44.3943],[11.8782,44.3974],[11.8852,44.4008],[11.8952,44.398],[11.9038,44.3986],[11.9059,44.4011],[11.9212,44.395],[11.926,44.401],[11.943,44.4086],[11.9453,44.4012],[11.9599,44.3964],[11.9717,44.3941],[11.9734,44.3927],[11.9755,44.3838],[11.9781,44.3795],[11.9838,44.3778]]]}},{"type":"Feature","properties":{"i":"039010","n":"Faenza"},"geometry":{"type":"Polygon","coordinates":[[[12.0292,44.3281],[12.027,44.3262],[12.0265,44.3209],[12.0215,44.3145],[12.0055,44.2996],[11.9983,44.2894],[11.993,44.2789],[11.9789,44.2598],[11.9622,44.2471],[11.9558,44.2405],[11.9476,44.2361],[11.9434,44.2358],[11.9367,44.2369],[11.9318,44.2411],[11.9267,44.2414],[11.9255,44.24],[11.9249,44.2344],[11.9256,44.2298],[11.9294,44.2191],[11.9283,44.2156],[11.9233,44.2173],[11.9079,44.2098],[11.9023,44.2124],[11.8968,44.2194],[11.8973,44.2326],[11.8964,44.2349],[11.8941,44.2342],[11.8792,44.2223],[11.8733,44.2222],[11.8684,44.2237],[11.8664,44.2243],[11.8598,44.2294],[11.8359,44.2359],[11.8288,44.2409],[11.8116,44.2503],[11.8063,44.2636],[11.7984,44.2668],[11.7964,44.2665],[11.7944,44.2675],[11.7894,44.2715],[11.7845,44.2772],[11.7797,44.2775],[11.7739,44.2752],[11.769,44.2751],[11.7621,44.2765],[11.7626,44.2808],[11.765,44.2861],[11.7723,44.2886],[11.7887,44.301],[11.7976,44.3016],[11.8008,44.3082],[11.8029,44.3104],[11.8084,44.3115],[11.8211,44.3101],[11.8258,44.3114],[11.8341,44.3209],[11.838,44.3233],[11.8463,44.324],[11.8493,44.3276],[11.8545,44.3303],[11.87,44.3536],[11.8754,44.3553],[11.9028,44.3444],[11.9257,44.3746],[11.9286,44.3738],[11.9395,44.3793],[11.9492,44.3782],[11.958,44.3746],[11.9637,44.3707],[11.968,44.3704],[11.9779,44.3707],[11.9833,44.3762],[11.9838,44.3778],[11.9877,44.378],[11.9946,44.3728],[11.9993,44.3669],[12.0052,44.3568],[12.012,44.3526],[12.0143,44.3515],[12.0148,44.3529],[12.0191,44.3554],[12.0249,44.3565],[12.0306,44.353],[12.025,44.3482],[12.0169,44.3433],[12.0174,44.3375],[12.0292,44.3281]]]}},{"type":"Feature","properties":{"i":"039011","n":"Fusignano"},"geometry":{"type":"Polygon","coordinates":[[[12.048,44.4942],[12.0287,44.4852],[12.0206,44.4829],[12.0071,44.4806],[11.9742,44.4688],[11.9644,44.4633],[11.9521,44.4533],[11.9341,44.4626],[11.9362,44.4674],[11.9417,44.474],[11.9251,44.4815],[11.9253,44.4848],[11.9268,44.4866],[11.9493,44.5007],[11.9558,44.5075],[11.9688,44.4964],[12.0003,44.498],[12.048,44.4942]]]}},{"type":"Feature","properties":{"i":"039012","n":"Lugo"},"geometry":{"type":"Polygon","coordinates":[[[11.9558,44.5075],[11.9493,44.5007],[11.9268,44.4866],[11.9252,44.484],[11.9252,44.4811],[11.9417,44.474],[11.9362,44.4674],[11.9341,44.4626],[11.9521,44.4533],[11.9503,44.4516],[11.9507,44.4498],[11.9563,44.4472],[11.9512,44.4329],[11.9393,44.4184],[11.9396,44.416],[11.943,44.4086],[11.926,44.401],[11.9212,44.395],[11.9059,44.4011],[11.9038,44.3986],[11.8952,44.398],[11.8852,44.4008],[11.8782,44.3974],[11.8681,44.3943],[11.8516,44.4008],[11.8496,44.4068],[11.8507,44.4083],[11.8369,44.414],[11.8407,44.4171],[11.842,44.4209],[11.8407,44.4234],[11.8374,44.4237],[11.8364,44.425],[11.8409,44.4277],[11.8508,44.427],[11.8581,44.4254],[11.8589,44.4266],[11.8587,44.4281],[11.8561,44.4327],[11.8576,44.434],[11.8748,44.4281],[11.8838,44.4387],[11.8751,44.4423],[11.8719,44.4477],[11.879,44.4561],[11.8812,44.4616],[11.8689,44.4663],[11.855,44.4702],[11.856,44.4721],[11.8555,44.479],[11.8646,44.4904],[11.8537,44.4964],[11.8655,44.5086],[11.8707,44.5286],[11.8741,44.5473],[11.8794,44.5508],[11.8854,44.5531],[11.9101,44.553],[11.9128,44.554],[11.9162,44.5595],[11.9779,44.5445],[11.987,44.5407],[11.9779,44.5317],[11.9647,44.5327],[11.9606,44.5272],[11.9546,44.5136],[11.9513,44.5114],[11.9558,44.5075]]]}},{"type":"Feature","properties":{"i":"039013","n":"Massa Lombarda"},"geometry":{"type":"Polygon","coordinates":[[[11.7787,44.5035],[11.8196,44.485],[11.8277,44.4731],[11.8459,44.4688],[11.8471,44.4687],[11.8479,44.4717],[11.846,44.477],[11.8424,44.482],[11.8416,44.4845],[11.8429,44.4878],[11.8446,44.4891],[11.8512,44.4879],[11.8535,44.4915],[11.8537,44.4964],[11.8645,44.4905],[11.8555,44.479],[11.8559,44.4717],[11.8501,44.4612],[11.8574,44.4585],[11.8569,44.4567],[11.8493,44.4462],[11.8453,44.4449],[11.8418,44.4422],[11.8386,44.4373],[11.8398,44.4356],[11.8445,44.4332],[11.8479,44.4328],[11.8536,44.4265],[11.841,44.4278],[11.8364,44.425],[11.8374,44.4237],[11.8394,44.4236],[11.8351,44.4221],[11.8273,44.4177],[11.808,44.4252],[11.7916,44.4329],[11.7813,44.4363],[11.7989,44.4608],[11.7926,44.463],[11.7909,44.463],[11.7806,44.4676],[11.7819,44.471],[11.79,44.4801],[11.7953,44.4846],[11.7902,44.4874],[11.7719,44.4931],[11.7498,44.4976],[11.7631,44.5104],[11.7787,44.5035]]]}},{"type":"Feature","properties":{"i":"039014","n":"Ravenna"},"geometry":{"type":"Polygon","coordinates":[[[12.3481,44.3013],[12.3108,44.2933],[12.3046,44.3083],[12.2739,44.2986],[12.2706,44.2935],[12.2698,44.29],[12.271,44.2852],[12.2696,44.2794],[12.26,44.2576],[12.2551,44.2525],[12.2475,44.2499],[12.2443,44.248],[12.2406,44.2418],[12.2392,44.237],[12.2292,44.2266],[12.2315,44.223],[12.2316,44.2189],[12.2299,44.2172],[12.2266,44.2158],[12.2264,44.2136],[12.2159,44.217],[12.2159,44.2206],[12.2131,44.2208],[12.2106,44.2194],[12.2073,44.2205],[12.201,44.2282],[12.2008,44.2301],[12.21,44.238],[12.2111,44.249],[12.2088,44.2556],[12.2044,44.2561],[12.1901,44.2534],[12.1854,44.2518],[12.177,44.2464],[12.1756,44.2425],[12.171,44.2433],[12.1663,44.2477],[12.1409,44.2566],[12.1032,44.272],[12.1037,44.2757],[12.1066,44.2822],[12.108,44.2884],[12.0968,44.2961],[12.0869,44.3005],[12.0826,44.3003],[12.0762,44.2987],[12.0686,44.3003],[12.0611,44.3031],[12.0499,44.3115],[12.0473,44.3168],[12.0483,44.3205],[12.0421,44.3284],[12.0356,44.3308],[12.0436,44.3334],[12.0504,44.3376],[12.052,44.3403],[12.0569,44.3451],[12.0592,44.3464],[12.0775,44.3494],[12.0891,44.3587],[12.1034,44.362],[12.101,44.3644],[12.088,44.3655],[12.0744,44.3709],[12.0771,44.3747],[12.0786,44.3758],[12.0826,44.375],[12.0947,44.3699],[12.0969,44.37],[12.103,44.3874],[12.0823,44.401],[12.0734,44.4021],[12.0636,44.4002],[12.0456,44.406],[12.0415,44.4064],[12.0281,44.4117],[12.0372,44.4236],[12.0405,44.4338],[12.0423,44.4368],[12.0544,44.4469],[12.0759,44.4611],[12.0812,44.4694],[12.0772,44.4746],[12.0698,44.4788],[12.0689,44.4872],[12.0713,44.4904],[12.0651,44.4931],[12.0787,44.5117],[12.0876,44.5193],[12.0939,44.5265],[12.099,44.5372],[12.1045,44.5438],[12.107,44.5455],[12.1141,44.5472],[12.1307,44.5457],[12.1351,44.5481],[12.1538,44.5485],[12.237,44.6205],[12.2609,44.6237],[12.2678,44.6284],[12.2692,44.6273],[12.2732,44.6208],[12.2758,44.6148],[12.2782,44.604],[12.2811,44.5963],[12.2825,44.5868],[12.2833,44.5586],[12.2822,44.5484],[12.2803,44.5412],[12.2797,44.519],[12.2811,44.5097],[12.2843,44.5003],[12.2913,44.4909],[12.2938,44.4889],[12.2859,44.486],[12.289,44.4641],[12.2927,44.4529],[12.3083,44.4198],[12.3123,44.4138],[12.3151,44.4066],[12.326,44.3585],[12.3334,44.3372],[12.3351,44.3335],[12.3369,44.3316],[12.3428,44.3188],[12.3481,44.3013]]]}},{"type":"Feature","properties":{"i":"039015","n":"Riolo Terme"},"geometry":{"type":"Polygon","coordinates":[[[11.7365,44.3092],[11.745,44.2944],[11.7519,44.2945],[11.7591,44.2893],[11.7639,44.287],[11.7672,44.2869],[11.7646,44.2857],[11.7626,44.2808],[11.7621,44.2765],[11.7659,44.2756],[11.7651,44.2735],[11.7622,44.2707],[11.7602,44.2703],[11.7506,44.2727],[11.7481,44.2672],[11.7428,44.2588],[11.7393,44.2557],[11.7234,44.2518],[11.7049,44.2507],[11.7002,44.2528],[11.6925,44.2515],[11.6864,44.2435],[11.6759,44.246],[11.6674,44.2538],[11.654,44.2569],[11.6359,44.258],[11.6324,44.2599],[11.6322,44.2631],[11.6396,44.2712],[11.6435,44.2737],[11.6555,44.2747],[11.6654,44.2787],[11.6656,44.2828],[11.6697,44.2855],[11.6715,44.2882],[11.6677,44.3119],[11.6728,44.3155],[11.6753,44.3158],[11.685,44.3135],[11.6976,44.3093],[11.698,44.3067],[11.6973,44.3046],[11.6916,44.2984],[11.6914,44.2906],[11.692,44.2894],[11.7022,44.2881],[11.7089,44.2903],[11.7137,44.2982],[11.7225,44.3032],[11.728,44.3044],[11.7365,44.3092]]]}},{"type":"Feature","properties":{"i":"039016","n":"Russi"},"geometry":{"type":"Polygon","coordinates":[[[12.0356,44.3308],[12.0292,44.3281],[12.0174,44.3375],[12.0169,44.3433],[12.025,44.3482],[12.0306,44.353],[12.0249,44.3565],[12.0191,44.3554],[12.0148,44.3529],[12.0143,44.3515],[12.012,44.3526],[12.0052,44.3568],[11.9993,44.3669],[11.9946,44.3728],[11.9877,44.378],[11.9947,44.3789],[12.0035,44.3827],[12.0112,44.3891],[12.0212,44.3993],[12.0257,44.4061],[12.0281,44.4117],[12.0415,44.4064],[12.0456,44.406],[12.0636,44.4002],[12.0734,44.4021],[12.0823,44.401],[12.103,44.3874],[12.0969,44.37],[12.0947,44.3699],[12.0826,44.375],[12.0786,44.3758],[12.0771,44.3747],[12.0744,44.3709],[12.088,44.3655],[12.101,44.3644],[12.1034,44.362],[12.0891,44.3587],[12.0775,44.3494],[12.0592,44.3464],[12.0569,44.3451],[12.052,44.3403],[12.0504,44.3376],[12.0436,44.3334],[12.0356,44.3308]]]}},{"type":"Feature","properties":{"i":"039017","n":"Sant'Agata sul Santerno"},"geometry":{"type":"Polygon","coordinates":[[[11.8536,44.4265],[11.8479,44.4328],[11.8445,44.4332],[11.8398,44.4356],[11.8386,44.4373],[11.8418,44.4422],[11.8453,44.4449],[11.8493,44.4462],[11.8569,44.4567],[11.8574,44.4585],[11.8501,44.4612],[11.855,44.4702],[11.8689,44.4663],[11.8812,44.4616],[11.879,44.4561],[11.8719,44.4477],[11.8751,44.4423],[11.8838,44.4387],[11.8827,44.4373],[11.8748,44.4281],[11.8572,44.434],[11.8561,44.4327],[11.8584,44.4289],[11.8586,44.426],[11.8575,44.4254],[11.8536,44.4265]]]}},{"type":"Feature","properties":{"i":"039018","n":"Solarolo"},"geometry":{"type":"Polygon","coordinates":[[[11.8754,44.3553],[11.8705,44.3539],[11.8688,44.3526],[11.8545,44.3303],[11.8493,44.3276],[11.8481,44.3255],[11.8445,44.3253],[11.8243,44.3389],[11.8015,44.348],[11.7976,44.3526],[11.7988,44.3608],[11.7938,44.3647],[11.7945,44.3666],[11.7988,44.367],[11.8007,44.3691],[11.8014,44.3732],[11.8093,44.381],[11.8184,44.3777],[11.8337,44.3788],[11.8414,44.3765],[11.8499,44.3814],[11.8524,44.3857],[11.8687,44.3794],[11.8621,44.3716],[11.8665,44.3656],[11.8771,44.3608],[11.8754,44.3553]]]}}]}
