{"type":"FeatureCollection","fonte":"Confini comunali ISTAT via openpolis/geojson-italy — CC BY 4.0","features":[{"type":"Feature","properties":{"i":"080001","n":"Africo"},"geometry":{"type":"MultiPolygon","coordinates":[[[[16.1485,38.0569],[16.1429,38.0436],[16.1365,38.041],[16.1314,38.0409],[16.1267,38.0437],[16.1252,38.0454],[16.127,38.0474],[16.1284,38.0527],[16.1297,38.0546],[16.1397,38.0586],[16.1485,38.0569]]],[[[16.0007,38.0693],[16.0014,38.0665],[16.0005,38.0627],[16.0054,38.0573],[16.0113,38.0563],[16.0175,38.0518],[16.0188,38.0498],[16.0228,38.049],[16.0319,38.0508],[16.0405,38.0535],[16.0435,38.0561],[16.0486,38.054],[16.0431,38.05],[16.026,38.0401],[16.023,38.0374],[16.0226,38.0365],[16.024,38.0311],[16.0244,38.0198],[16.0214,38.0179],[16.0016,38.0101],[15.9997,38.0085],[15.9984,38.0103],[15.9941,38.0116],[15.9929,38.0192],[15.9933,38.0352],[15.994,38.0387],[15.9957,38.0414],[15.9932,38.0453],[15.9846,38.0435],[15.9767,38.0436],[15.9765,38.047],[15.9728,38.0488],[15.9548,38.0485],[15.951,38.0527],[15.9497,38.0557],[15.951,38.0595],[15.95,38.0642],[15.9453,38.073],[15.9361,38.0841],[15.9369,38.0876],[15.9333,38.0979],[15.9271,38.1021],[15.9242,38.1023],[15.9231,38.1032],[15.9153,38.1156],[15.9149,38.1206],[15.9158,38.1214],[15.9199,38.1214],[15.9232,38.127],[15.9232,38.1291],[15.922,38.131],[15.9089,38.1373],[15.9066,38.1398],[15.9007,38.1501],[15.9045,38.1566],[15.9076,38.1535],[15.9093,38.1491],[15.9119,38.147],[15.9231,38.1431],[15.9306,38.1389],[15.9373,38.1295],[15.942,38.1252],[15.9554,38.1086],[15.9593,38.1005],[15.9633,38.0958],[15.982,38.0933],[15.9838,38.0892],[15.9824,38.0875],[15.981,38.0829],[15.9816,38.0815],[15.9896,38.0811],[15.9985,38.0778],[16.0007,38.0693]]]]}},{"type":"Feature","properties":{"i":"080002","n":"Agnana Calabra"},"geometry":{"type":"Polygon","coordinates":[[[16.2454,38.3157],[16.2433,38.3057],[16.2455,38.3013],[16.2476,38.3002],[16.2458,38.2951],[16.2405,38.2884],[16.237,38.2877],[16.2284,38.2922],[16.2171,38.2959],[16.2138,38.2994],[16.2131,38.3128],[16.2226,38.3262],[16.2249,38.3271],[16.2267,38.3258],[16.2271,38.3208],[16.233,38.3192],[16.2345,38.3202],[16.2397,38.3189],[16.2421,38.3182],[16.2454,38.3157]]]}},{"type":"Feature","properties":{"i":"080003","n":"Anoia"},"geometry":{"type":"Polygon","coordinates":[[[16.0554,38.4596],[16.065,38.4512],[16.0801,38.447],[16.0909,38.4381],[16.0978,38.4359],[16.1062,38.4346],[16.1085,38.4361],[16.1122,38.4341],[16.1165,38.4299],[16.1165,38.429],[16.1154,38.4276],[16.0917,38.4301],[16.0866,38.4321],[16.0836,38.432],[16.0818,38.4309],[16.0815,38.428],[16.0826,38.4275],[16.082,38.4251],[16.0786,38.4238],[16.0681,38.4302],[16.0715,38.4341],[16.071,38.4353],[16.0644,38.4383],[16.0446,38.445],[16.0423,38.4484],[16.0393,38.4628],[16.0362,38.4679],[16.036,38.4709],[16.0396,38.4714],[16.0415,38.4707],[16.0451,38.4672],[16.048,38.4628],[16.0517,38.4606],[16.0554,38.4596]]]}},{"type":"Feature","properties":{"i":"080004","n":"Antonimina"},"geometry":{"type":"Polygon","coordinates":[[[16.2046,38.253],[16.1973,38.2478],[16.1954,38.2454],[16.1953,38.2441],[16.1971,38.2422],[16.1863,38.2381],[16.1778,38.2438],[16.1733,38.2494],[16.1685,38.2613],[16.1647,38.2646],[16.1536,38.2709],[16.1476,38.2697],[16.1437,38.2708],[16.1393,38.2739],[16.1404,38.2762],[16.1439,38.2783],[16.1446,38.28],[16.1421,38.2824],[16.1352,38.2881],[16.1169,38.2969],[16.1117,38.2981],[16.1187,38.305],[16.1218,38.3066],[16.125,38.3098],[16.1347,38.3248],[16.1374,38.321],[16.1383,38.3184],[16.1378,38.3164],[16.1474,38.3096],[16.153,38.3095],[16.1555,38.3086],[16.1574,38.3078],[16.161,38.3043],[16.1631,38.3012],[16.1633,38.2961],[16.1761,38.2824],[16.178,38.2732],[16.1766,38.2687],[16.1785,38.2652],[16.1875,38.2606],[16.1999,38.2576],[16.2046,38.253]]]}},{"type":"Feature","properties":{"i":"080005","n":"Ardore"},"geometry":{"type":"Polygon","coordinates":[[[16.1597,38.2299],[16.1697,38.2197],[16.1733,38.2143],[16.2082,38.1949],[16.2197,38.1889],[16.222,38.1886],[16.1927,38.1578],[16.1867,38.1655],[16.1781,38.1709],[16.1731,38.1718],[16.1701,38.176],[16.1699,38.1775],[16.1645,38.1823],[16.1563,38.1843],[16.148,38.1877],[16.1265,38.2007],[16.1251,38.2034],[16.1216,38.2071],[16.1197,38.2071],[16.1227,38.2126],[16.1251,38.2145],[16.1356,38.2192],[16.138,38.223],[16.1351,38.2309],[16.1398,38.2311],[16.1426,38.2336],[16.1467,38.2346],[16.1532,38.2329],[16.1597,38.2299]]]}},{"type":"Feature","properties":{"i":"080006","n":"Bagaladi"},"geometry":{"type":"Polygon","coordinates":[[[15.8738,38.1146],[15.8747,38.1133],[15.8736,38.1102],[15.8688,38.1031],[15.8617,38.0994],[15.8538,38.0976],[15.8459,38.0919],[15.8372,38.0831],[15.8366,38.0808],[15.8381,38.0794],[15.8396,38.0734],[15.8381,38.0678],[15.8296,38.0538],[15.8319,38.0481],[15.8267,38.0308],[15.8262,38.0241],[15.8229,38.0198],[15.8139,38.0103],[15.8105,38.0097],[15.8054,38.011],[15.7861,38.0082],[15.781,38.0176],[15.7826,38.0275],[15.7818,38.0328],[15.7823,38.0416],[15.7853,38.06],[15.7936,38.063],[15.8089,38.0647],[15.8109,38.0679],[15.821,38.0725],[15.8296,38.079],[15.8419,38.0981],[15.8552,38.1056],[15.8635,38.114],[15.8642,38.1157],[15.8662,38.1171],[15.8682,38.1172],[15.8738,38.1146]]]}},{"type":"Feature","properties":{"i":"080007","n":"Bagnara Calabra"},"geometry":{"type":"Polygon","coordinates":[[[15.8249,38.3149],[15.8301,38.3115],[15.8426,38.3121],[15.854,38.3073],[15.8578,38.3065],[15.8534,38.3003],[15.8497,38.2907],[15.8414,38.2784],[15.839,38.2762],[15.8306,38.2721],[15.8277,38.2697],[15.8292,38.2606],[15.8202,38.2579],[15.8171,38.2598],[15.8123,38.26],[15.8099,38.2594],[15.8094,38.2584],[15.8081,38.2592],[15.8058,38.2589],[15.7979,38.254],[15.7917,38.2519],[15.7881,38.2517],[15.7806,38.2532],[15.7792,38.2548],[15.7795,38.2566],[15.7736,38.2654],[15.77,38.2677],[15.7935,38.2801],[15.8068,38.2911],[15.8147,38.2988],[15.8169,38.3026],[15.8164,38.3025],[15.8166,38.3046],[15.8187,38.308],[15.8229,38.3144],[15.8249,38.3149]]]}},{"type":"Feature","properties":{"i":"080008","n":"Benestare"},"geometry":{"type":"Polygon","coordinates":[[[16.175,38.1713],[16.1704,38.1703],[16.1678,38.1706],[16.1603,38.1734],[16.1565,38.1764],[16.1452,38.1823],[16.1387,38.1824],[16.1381,38.1745],[16.1392,38.168],[16.1409,38.1638],[16.1458,38.1567],[16.147,38.1526],[16.1467,38.1507],[16.1434,38.1436],[16.1311,38.1311],[16.126,38.1283],[16.1237,38.1326],[16.1235,38.1389],[16.1207,38.1443],[16.1179,38.1465],[16.1078,38.1471],[16.0998,38.1511],[16.1049,38.1528],[16.115,38.1592],[16.1165,38.1613],[16.12,38.1777],[16.1182,38.2007],[16.1176,38.202],[16.1141,38.2036],[16.1197,38.2071],[16.1216,38.2071],[16.1251,38.2034],[16.1265,38.2007],[16.148,38.1877],[16.1563,38.1843],[16.1645,38.1823],[16.1699,38.1775],[16.1701,38.176],[16.1729,38.172],[16.175,38.1713]]]}},{"type":"Feature","properties":{"i":"080009","n":"Bianco"},"geometry":{"type":"Polygon","coordinates":[[[16.1485,38.0569],[16.1397,38.0586],[16.1297,38.0546],[16.1284,38.0527],[16.127,38.0474],[16.1251,38.0457],[16.1267,38.0437],[16.1314,38.0409],[16.1365,38.041],[16.1429,38.0436],[16.1443,38.0316],[16.1406,38.0251],[16.1344,38.0268],[16.1232,38.0239],[16.1162,38.0238],[16.1123,38.0247],[16.1135,38.03],[16.1115,38.0377],[16.1186,38.0383],[16.1172,38.0459],[16.1098,38.0625],[16.1109,38.0852],[16.1022,38.0939],[16.0989,38.0951],[16.1035,38.0969],[16.1109,38.1014],[16.1164,38.1076],[16.125,38.111],[16.1509,38.1113],[16.1549,38.1134],[16.1597,38.1138],[16.1572,38.0954],[16.1513,38.075],[16.1485,38.0569]]]}},{"type":"Feature","properties":{"i":"080010","n":"Bivongi"},"geometry":{"type":"Polygon","coordinates":[[[16.4206,38.5285],[16.4195,38.5274],[16.4195,38.5256],[16.4216,38.5238],[16.4233,38.5238],[16.4228,38.5209],[16.4168,38.5194],[16.4117,38.5206],[16.4083,38.5224],[16.4065,38.5203],[16.4067,38.5148],[16.4078,38.5133],[16.411,38.5115],[16.4204,38.5103],[16.4556,38.5126],[16.4589,38.5112],[16.464,38.507],[16.4709,38.5034],[16.4815,38.5015],[16.4862,38.4996],[16.4871,38.4976],[16.4802,38.4921],[16.4767,38.4881],[16.4647,38.4829],[16.4602,38.4799],[16.4509,38.4779],[16.4298,38.4764],[16.4239,38.4768],[16.4213,38.4786],[16.4202,38.4821],[16.4209,38.4851],[16.4237,38.4882],[16.423,38.4896],[16.4203,38.4916],[16.4173,38.4923],[16.4092,38.4937],[16.4043,38.4933],[16.3998,38.4976],[16.3904,38.5021],[16.3878,38.5062],[16.3878,38.5073],[16.3933,38.5131],[16.3979,38.522],[16.4005,38.5304],[16.4046,38.5348],[16.4145,38.5318],[16.4206,38.5285]]]}},{"type":"Feature","properties":{"i":"080011","n":"Bova"},"geometry":{"type":"Polygon","coordinates":[[[15.9997,38.0085],[15.9974,38.0041],[15.9834,37.9907],[15.9807,37.9893],[15.9748,37.9889],[15.9759,37.9829],[15.9768,37.9815],[15.9757,37.9788],[15.9731,37.9763],[15.9725,37.977],[15.9657,37.976],[15.963,37.9711],[15.9536,37.9689],[15.9445,37.9643],[15.9343,37.9626],[15.9243,37.9625],[15.9223,37.9634],[15.913,37.9636],[15.9035,37.9651],[15.9066,37.9782],[15.9089,37.9815],[15.9154,37.9847],[15.9166,37.9879],[15.9154,37.9979],[15.9173,37.9997],[15.9217,38.0001],[15.9313,38.0068],[15.9435,38.0318],[15.9466,38.0375],[15.9497,38.0397],[15.9519,38.0467],[15.9523,38.0513],[15.9548,38.0485],[15.9728,38.0488],[15.9765,38.047],[15.9767,38.0436],[15.9846,38.0435],[15.9932,38.0453],[15.9957,38.0414],[15.994,38.0387],[15.9933,38.0352],[15.9929,38.0192],[15.9941,38.0116],[15.9984,38.0103],[15.9997,38.0085]]]}},{"type":"Feature","properties":{"i":"080012","n":"Bovalino"},"geometry":{"type":"Polygon","coordinates":[[[16.175,38.1713],[16.1781,38.1709],[16.1867,38.1655],[16.1927,38.1578],[16.1798,38.1474],[16.17,38.1413],[16.1652,38.1358],[16.1613,38.1281],[16.1465,38.1286],[16.1346,38.1247],[16.1273,38.1257],[16.1249,38.1271],[16.1311,38.1311],[16.1434,38.1436],[16.1467,38.1507],[16.147,38.1526],[16.1458,38.1567],[16.1409,38.1638],[16.1392,38.168],[16.1381,38.1745],[16.1387,38.1824],[16.1452,38.1823],[16.1565,38.1764],[16.1603,38.1734],[16.1678,38.1706],[16.1704,38.1703],[16.175,38.1713]]]}},{"type":"Feature","properties":{"i":"080013","n":"Bova Marina"},"geometry":{"type":"Polygon","coordinates":[[[15.9731,37.9763],[15.9746,37.9486],[15.9728,37.9403],[15.9717,37.9281],[15.976,37.9191],[15.9655,37.9194],[15.9531,37.921],[15.935,37.9266],[15.932,37.9285],[15.9228,37.9297],[15.8983,37.9271],[15.9018,37.9378],[15.9011,37.9477],[15.9048,37.9518],[15.9035,37.9651],[15.913,37.9636],[15.9223,37.9634],[15.9252,37.9625],[15.94,37.9632],[15.9445,37.9643],[15.9536,37.9689],[15.963,37.9711],[15.9657,37.976],[15.9725,37.977],[15.9731,37.9763]]]}},{"type":"Feature","properties":{"i":"080014","n":"Brancaleone"},"geometry":{"type":"Polygon","coordinates":[[[16.0842,38.0044],[16.0894,37.9975],[16.1085,37.9893],[16.1121,37.9847],[16.1162,37.9817],[16.1134,37.9768],[16.0966,37.956],[16.0809,37.9406],[16.0676,37.9298],[16.0645,37.9256],[16.047,37.9417],[16.0431,37.9488],[16.0456,37.9532],[16.0448,37.9565],[16.0388,37.969],[16.0383,37.9729],[16.0396,37.9729],[16.0408,37.9776],[16.0358,37.9837],[16.0334,37.9895],[16.0393,37.9907],[16.0516,37.9898],[16.0609,37.9911],[16.0713,37.9998],[16.0712,38.0007],[16.0678,38.0008],[16.0656,38.003],[16.0654,38.0052],[16.0693,38.0074],[16.0749,38.007],[16.0821,38.0033],[16.0842,38.0044]]]}},{"type":"Feature","properties":{"i":"080015","n":"Bruzzano Zeffirio"},"geometry":{"type":"Polygon","coordinates":[[[16.0606,38.0457],[16.0576,38.0421],[16.0575,38.0403],[16.059,38.0376],[16.0639,38.0331],[16.0831,38.0279],[16.0864,38.0243],[16.0937,38.0119],[16.1056,38.0075],[16.1162,38.0013],[16.1249,37.9993],[16.1162,37.9817],[16.1121,37.9847],[16.1085,37.9893],[16.089,37.9978],[16.0814,38.0092],[16.0778,38.0124],[16.0747,38.0139],[16.0708,38.0147],[16.0652,38.0142],[16.063,38.0147],[16.0578,38.0198],[16.0545,38.0217],[16.0398,38.0173],[16.0244,38.0198],[16.024,38.0311],[16.0226,38.0365],[16.026,38.0401],[16.0431,38.05],[16.0486,38.054],[16.0538,38.0476],[16.0557,38.048],[16.0606,38.0457]]]}},{"type":"Feature","properties":{"i":"080016","n":"Calanna"},"geometry":{"type":"Polygon","coordinates":[[[15.7276,38.1698],[15.7237,38.1729],[15.6993,38.1844],[15.699,38.1856],[15.7005,38.1888],[15.7028,38.1905],[15.7035,38.1933],[15.7009,38.1999],[15.701,38.2022],[15.7047,38.2044],[15.7103,38.2055],[15.7177,38.2044],[15.7413,38.1984],[15.7467,38.1985],[15.7501,38.2006],[15.7535,38.2049],[15.7583,38.1924],[15.758,38.1906],[15.7537,38.1883],[15.7491,38.191],[15.7468,38.1914],[15.7384,38.187],[15.7339,38.1834],[15.7323,38.1809],[15.7302,38.1774],[15.7276,38.1698]]]}},{"type":"Feature","properties":{"i":"080017","n":"Camini"},"geometry":{"type":"Polygon","coordinates":[[[16.5674,38.4229],[16.547,38.403],[16.5363,38.4105],[16.5256,38.4098],[16.5205,38.4102],[16.5134,38.4155],[16.4982,38.4236],[16.4844,38.4241],[16.4703,38.4314],[16.4674,38.4392],[16.4784,38.4393],[16.4947,38.4426],[16.4986,38.4447],[16.5248,38.4361],[16.5347,38.4288],[16.5452,38.4242],[16.5516,38.4235],[16.5565,38.4238],[16.559,38.4251],[16.5674,38.4229]]]}},{"type":"Feature","properties":{"i":"080018","n":"Campo Calabro"},"geometry":{"type":"Polygon","coordinates":[[[15.6792,38.2081],[15.6799,38.21],[15.6793,38.2118],[15.6714,38.213],[15.6655,38.2036],[15.6563,38.2008],[15.6539,38.2025],[15.6528,38.2053],[15.6482,38.2075],[15.6462,38.2095],[15.6473,38.2206],[15.6497,38.223],[15.6519,38.2238],[15.6751,38.2274],[15.6869,38.2332],[15.6886,38.2347],[15.6933,38.2281],[15.6943,38.2254],[15.6905,38.2238],[15.685,38.2176],[15.6792,38.2081]]]}},{"type":"Feature","properties":{"i":"080019","n":"Candidoni"},"geometry":{"type":"Polygon","coordinates":[[[16.0687,38.549],[16.0672,38.5466],[16.0571,38.5396],[16.0553,38.5372],[16.0521,38.5292],[16.055,38.5242],[16.0639,38.518],[16.0704,38.5096],[16.0765,38.5098],[16.0835,38.5113],[16.1145,38.5061],[16.1259,38.5003],[16.1262,38.4995],[16.1227,38.4981],[16.1152,38.4974],[16.1043,38.4984],[16.0983,38.5001],[16.0673,38.5027],[16.0576,38.5062],[16.0472,38.5189],[16.0379,38.5242],[16.034,38.5246],[16.0268,38.5229],[16.0223,38.5207],[16.0206,38.5152],[16.0174,38.5116],[16.0122,38.5122],[16.0078,38.511],[15.9978,38.5054],[15.997,38.5033],[15.9942,38.5032],[15.9792,38.4988],[15.9602,38.4985],[15.9527,38.5011],[15.9318,38.5038],[15.9292,38.5075],[15.9436,38.514],[15.9489,38.5136],[15.9515,38.5145],[15.9547,38.5238],[15.9588,38.5255],[15.9797,38.5221],[15.9827,38.5186],[15.9863,38.5175],[15.9905,38.5214],[16.0004,38.5174],[16.0045,38.5167],[16.0098,38.519],[16.0144,38.5227],[16.0157,38.525],[16.02,38.5293],[16.0254,38.532],[16.028,38.5328],[16.038,38.5327],[16.0403,38.5349],[16.045,38.5439],[16.0512,38.5455],[16.0607,38.5501],[16.0607,38.5532],[16.065,38.5534],[16.0687,38.549]]]}},{"type":"Feature","properties":{"i":"080020","n":"Canolo"},"geometry":{"type":"Polygon","coordinates":[[[16.2218,38.3247],[16.2131,38.3128],[16.2138,38.2994],[16.2171,38.2959],[16.2145,38.2931],[16.215,38.2915],[16.214,38.2879],[16.2091,38.2853],[16.2032,38.2857],[16.1883,38.2923],[16.182,38.302],[16.1746,38.3095],[16.1637,38.3135],[16.1514,38.3157],[16.1453,38.3179],[16.1416,38.3207],[16.1376,38.3252],[16.1382,38.3289],[16.1427,38.3371],[16.15,38.3401],[16.1526,38.3429],[16.1533,38.3446],[16.1509,38.3477],[16.1569,38.3553],[16.1687,38.3525],[16.1741,38.3453],[16.184,38.3372],[16.1962,38.3326],[16.2037,38.3322],[16.2123,38.3303],[16.2199,38.3269],[16.2218,38.3247]]]}},{"type":"Feature","properties":{"i":"080021","n":"Caraffa del Bianco"},"geometry":{"type":"Polygon","coordinates":[[[16.0989,38.0951],[16.1022,38.0939],[16.1108,38.0855],[16.1098,38.0625],[16.1172,38.0459],[16.1186,38.0383],[16.1078,38.0372],[16.1063,38.0389],[16.1059,38.0412],[16.0971,38.0507],[16.0901,38.0554],[16.0887,38.0578],[16.087,38.0665],[16.0891,38.0745],[16.0887,38.0856],[16.083,38.1003],[16.089,38.0967],[16.0989,38.0951]]]}},{"type":"Feature","properties":{"i":"080022","n":"Cardeto"},"geometry":{"type":"Polygon","coordinates":[[[15.8687,38.1171],[15.8662,38.1171],[15.8642,38.1157],[15.8635,38.114],[15.8552,38.1056],[15.8419,38.0981],[15.8296,38.079],[15.821,38.0725],[15.8102,38.0674],[15.808,38.0713],[15.8064,38.0716],[15.7734,38.0616],[15.766,38.062],[15.7609,38.0668],[15.7575,38.0674],[15.7543,38.0671],[15.7534,38.065],[15.7456,38.063],[15.7425,38.0646],[15.7449,38.0688],[15.749,38.0725],[15.7515,38.0763],[15.7497,38.0788],[15.7465,38.081],[15.747,38.0828],[15.7516,38.0886],[15.7624,38.093],[15.769,38.0945],[15.7783,38.1006],[15.787,38.1077],[15.7921,38.1094],[15.8046,38.1098],[15.8158,38.1118],[15.8195,38.113],[15.8262,38.1185],[15.8317,38.1212],[15.8324,38.1201],[15.8319,38.1168],[15.8275,38.1095],[15.8289,38.1061],[15.8342,38.1089],[15.8362,38.1114],[15.8365,38.1153],[15.8354,38.1172],[15.8401,38.1224],[15.8488,38.1233],[15.859,38.1263],[15.8616,38.1278],[15.8687,38.1171]]]}},{"type":"Feature","properties":{"i":"080023","n":"Careri"},"geometry":{"type":"Polygon","coordinates":[[[16.1141,38.2036],[16.1176,38.202],[16.1182,38.2007],[16.12,38.1777],[16.1165,38.1613],[16.115,38.1592],[16.1049,38.1528],[16.0998,38.1511],[16.0967,38.1539],[16.087,38.1545],[16.0783,38.1589],[16.0754,38.1616],[16.0597,38.1676],[16.0526,38.1652],[16.0492,38.1653],[16.0429,38.1704],[16.0366,38.1787],[15.9935,38.1912],[15.9929,38.197],[15.9909,38.2047],[15.9972,38.2089],[16.0013,38.2147],[16.0221,38.201],[16.0262,38.2],[16.0314,38.2007],[16.046,38.1976],[16.055,38.1991],[16.0621,38.1991],[16.0666,38.1972],[16.0693,38.1936],[16.0784,38.1886],[16.0967,38.1989],[16.0992,38.2017],[16.0998,38.205],[16.1048,38.2056],[16.1141,38.2036]]]}},{"type":"Feature","properties":{"i":"080024","n":"Casignana"},"geometry":{"type":"Polygon","coordinates":[[[16.1248,38.1274],[16.1273,38.1257],[16.1346,38.1247],[16.1465,38.1286],[16.1613,38.1281],[16.1597,38.1138],[16.1549,38.1134],[16.1509,38.1113],[16.125,38.111],[16.1164,38.1076],[16.1109,38.1014],[16.1035,38.0969],[16.0989,38.0951],[16.0886,38.0968],[16.083,38.1003],[16.0718,38.1036],[16.0704,38.1059],[16.0688,38.1069],[16.0594,38.1073],[16.0553,38.1065],[16.0514,38.1047],[16.0501,38.1049],[16.0477,38.1072],[16.0508,38.1083],[16.0636,38.1195],[16.0714,38.1315],[16.0767,38.1349],[16.0895,38.1356],[16.0968,38.1347],[16.1024,38.1335],[16.1205,38.1267],[16.1248,38.1274]]]}},{"type":"Feature","properties":{"i":"080025","n":"Caulonia"},"geometry":{"type":"Polygon","coordinates":[[[16.4209,38.4634],[16.4178,38.4612],[16.4134,38.4608],[16.4094,38.4579],[16.409,38.4564],[16.4066,38.4481],[16.407,38.4396],[16.4077,38.4387],[16.4143,38.4384],[16.4177,38.436],[16.4152,38.4328],[16.4121,38.4315],[16.4087,38.4236],[16.4268,38.4074],[16.4444,38.3956],[16.4596,38.3885],[16.4626,38.3863],[16.4679,38.3806],[16.4709,38.3703],[16.4762,38.3632],[16.4871,38.3534],[16.4673,38.3405],[16.4424,38.33],[16.4395,38.3348],[16.4203,38.3435],[16.4142,38.3471],[16.4148,38.3485],[16.4139,38.3497],[16.3984,38.3573],[16.3872,38.3536],[16.3734,38.3544],[16.3702,38.3593],[16.3692,38.368],[16.3606,38.3779],[16.3581,38.3819],[16.3503,38.3884],[16.3394,38.3938],[16.3253,38.4073],[16.3213,38.4088],[16.3103,38.4171],[16.3093,38.4208],[16.3108,38.4255],[16.3138,38.4286],[16.3127,38.4335],[16.3168,38.4327],[16.3272,38.4326],[16.3398,38.43],[16.3529,38.4307],[16.363,38.4358],[16.3694,38.4339],[16.3717,38.4381],[16.3767,38.4428],[16.3784,38.4434],[16.3918,38.4437],[16.3928,38.4479],[16.3845,38.4562],[16.3823,38.4599],[16.3818,38.4663],[16.3884,38.4696],[16.3867,38.4763],[16.383,38.4785],[16.3883,38.4776],[16.4209,38.4634]]]}},{"type":"Feature","properties":{"i":"080026","n":"Ciminà"},"geometry":{"type":"Polygon","coordinates":[[[16.1858,38.2389],[16.1764,38.2386],[16.1656,38.234],[16.1597,38.2299],[16.1532,38.2329],[16.1467,38.2346],[16.1426,38.2336],[16.1398,38.2311],[16.1351,38.2309],[16.1291,38.2284],[16.1234,38.2274],[16.0866,38.2451],[16.0744,38.252],[16.0728,38.2541],[16.0576,38.256],[16.0638,38.2624],[16.0623,38.2698],[16.066,38.2794],[16.068,38.2826],[16.075,38.2869],[16.085,38.2891],[16.0976,38.2884],[16.1052,38.2896],[16.1095,38.2924],[16.1117,38.2981],[16.1169,38.2969],[16.1352,38.2881],[16.1446,38.28],[16.1439,38.2783],[16.1404,38.2762],[16.1395,38.2736],[16.1461,38.27],[16.1484,38.2698],[16.1536,38.2709],[16.1647,38.2646],[16.1685,38.2613],[16.1733,38.2494],[16.1778,38.2438],[16.1858,38.2389]]]}},{"type":"Feature","properties":{"i":"080027","n":"Cinquefrondi"},"geometry":{"type":"Polygon","coordinates":[[[16.1845,38.4285],[16.1767,38.4152],[16.1792,38.4074],[16.1866,38.3969],[16.1883,38.3918],[16.1872,38.3855],[16.1834,38.3831],[16.1787,38.386],[16.1741,38.3854],[16.1732,38.3868],[16.1676,38.3897],[16.1592,38.3898],[16.1484,38.3922],[16.1247,38.3993],[16.1085,38.4027],[16.0937,38.4026],[16.0898,38.4065],[16.0799,38.4133],[16.0759,38.416],[16.0712,38.4178],[16.0718,38.4214],[16.0746,38.4263],[16.0786,38.4238],[16.0819,38.4249],[16.0826,38.4275],[16.0815,38.428],[16.0818,38.4309],[16.0836,38.432],[16.0866,38.4321],[16.0917,38.4301],[16.1158,38.4277],[16.1165,38.4299],[16.1122,38.4341],[16.1161,38.4329],[16.1264,38.4272],[16.1329,38.426],[16.1482,38.4206],[16.1527,38.4205],[16.1543,38.422],[16.1577,38.4227],[16.1655,38.4223],[16.1747,38.4201],[16.1845,38.4285]]]}},{"type":"Feature","properties":{"i":"080028","n":"Cittanova"},"geometry":{"type":"Polygon","coordinates":[[[16.0432,38.4246],[16.0402,38.425],[16.0306,38.4228],[16.0265,38.4209],[16.0351,38.4161],[16.0276,38.4085],[16.0349,38.407],[16.0469,38.4079],[16.0559,38.4056],[16.0593,38.4034],[16.0653,38.3987],[16.0673,38.394],[16.073,38.3894],[16.0787,38.3815],[16.0867,38.373],[16.0993,38.3625],[16.112,38.3561],[16.1189,38.3478],[16.1289,38.3419],[16.1427,38.3371],[16.1382,38.3289],[16.1347,38.3248],[16.1263,38.3115],[16.1218,38.3066],[16.1187,38.305],[16.1117,38.2981],[16.1106,38.2943],[16.1065,38.2987],[16.1057,38.3047],[16.1082,38.306],[16.1041,38.3093],[16.0943,38.3144],[16.0874,38.3159],[16.0838,38.3154],[16.0772,38.3169],[16.0734,38.3223],[16.0689,38.3269],[16.0592,38.3311],[16.0531,38.3302],[16.0504,38.3307],[16.0519,38.334],[16.0565,38.3395],[16.0498,38.343],[16.0462,38.343],[16.0477,38.3465],[16.0482,38.3524],[16.0472,38.3589],[16.0321,38.3693],[16.0357,38.3736],[16.0415,38.3774],[16.0442,38.3815],[16.0332,38.3919],[16.0205,38.3922],[16.0097,38.4015],[16.0089,38.404],[16.0032,38.4072],[16.0102,38.4099],[16.0141,38.4175],[16.0274,38.431],[16.0273,38.4324],[16.034,38.4403],[16.0358,38.4454],[16.0359,38.4502],[16.0403,38.4447],[16.0439,38.4383],[16.0426,38.4274],[16.0432,38.4246]]]}},{"type":"Feature","properties":{"i":"080029","n":"Condofuri"},"geometry":{"type":"Polygon","coordinates":[[[15.9061,38.029],[15.9037,38.0133],[15.9108,38.0127],[15.9276,38.0081],[15.9319,38.0078],[15.931,38.0064],[15.9217,38.0001],[15.9173,37.9997],[15.9154,37.9979],[15.9166,37.9879],[15.9154,37.9847],[15.9089,37.9815],[15.9066,37.9782],[15.9035,37.9651],[15.9048,37.9518],[15.9011,37.9477],[15.9018,37.9378],[15.8983,37.9271],[15.883,37.9269],[15.8513,37.9219],[15.8398,37.9192],[15.8392,37.9251],[15.8436,37.9298],[15.8456,37.9363],[15.846,37.9451],[15.8497,37.9509],[15.8552,37.9569],[15.8589,37.9644],[15.8533,37.9869],[15.8518,37.9875],[15.8508,37.99],[15.8512,37.9922],[15.8572,38.0004],[15.8492,38.0086],[15.8469,38.0149],[15.8528,38.0344],[15.8598,38.0376],[15.8627,38.0343],[15.8652,38.0332],[15.8718,38.0354],[15.8791,38.0346],[15.8823,38.0325],[15.8837,38.0288],[15.888,38.0285],[15.8961,38.0305],[15.9011,38.0308],[15.9061,38.029]]]}},{"type":"Feature","properties":{"i":"080030","n":"Cosoleto"},"geometry":{"type":"Polygon","coordinates":[[[15.9443,38.2848],[15.9435,38.2801],[15.9454,38.2738],[15.9439,38.2698],[15.9317,38.267],[15.9306,38.2665],[15.9305,38.2655],[15.9228,38.2647],[15.9143,38.262],[15.9117,38.2603],[15.9158,38.2496],[15.9129,38.2416],[15.9032,38.2331],[15.8976,38.2208],[15.8974,38.2181],[15.9045,38.2054],[15.9128,38.1846],[15.9119,38.1816],[15.9133,38.1755],[15.9123,38.1635],[15.9135,38.1598],[15.9045,38.1566],[15.9007,38.1501],[15.8971,38.1531],[15.8977,38.1589],[15.8964,38.1629],[15.8896,38.1705],[15.8869,38.1724],[15.8847,38.1758],[15.8846,38.1791],[15.8869,38.182],[15.8895,38.1886],[15.8876,38.1894],[15.8837,38.2052],[15.8829,38.2277],[15.8855,38.2367],[15.8873,38.2388],[15.8876,38.2441],[15.8863,38.2513],[15.8872,38.2609],[15.8925,38.2689],[15.8951,38.2712],[15.8963,38.2734],[15.8957,38.2749],[15.9009,38.28],[15.9042,38.2768],[15.9042,38.2746],[15.9062,38.2705],[15.914,38.2677],[15.9163,38.2684],[15.9148,38.2752],[15.9163,38.2818],[15.9181,38.2824],[15.9221,38.2878],[15.9168,38.3057],[15.9181,38.3083],[15.9236,38.3149],[15.9262,38.3118],[15.9265,38.31],[15.93,38.3039],[15.9391,38.2942],[15.9417,38.2849],[15.9428,38.2844],[15.9443,38.2848]]]}},{"type":"Feature","properties":{"i":"080031","n":"Delianuova"},"geometry":{"type":"Polygon","coordinates":[[[15.9533,38.1925],[15.9432,38.1928],[15.9229,38.1888],[15.9128,38.1846],[15.9117,38.1864],[15.9045,38.2054],[15.8972,38.2193],[15.9032,38.2331],[15.9129,38.2416],[15.9158,38.2496],[15.9117,38.2603],[15.9143,38.262],[15.9228,38.2647],[15.9305,38.2655],[15.9311,38.2626],[15.9271,38.2591],[15.9328,38.2536],[15.9323,38.2474],[15.9293,38.2411],[15.9338,38.2319],[15.9355,38.2247],[15.9329,38.2213],[15.9396,38.2073],[15.9477,38.2],[15.9533,38.1925]]]}},{"type":"Feature","properties":{"i":"080032","n":"Feroleto della Chiesa"},"geometry":{"type":"Polygon","coordinates":[[[16.093,38.4717],[16.0887,38.462],[16.0571,38.4587],[16.048,38.4628],[16.0451,38.4672],[16.0415,38.4707],[16.0396,38.4714],[16.036,38.4709],[16.0313,38.4749],[16.0329,38.4762],[16.0371,38.4768],[16.0466,38.4767],[16.0504,38.476],[16.0524,38.4745],[16.0554,38.4735],[16.0616,38.4727],[16.0663,38.4761],[16.0682,38.4792],[16.0708,38.4805],[16.0838,38.4769],[16.093,38.4717]]]}},{"type":"Feature","properties":{"i":"080033","n":"Ferruzzano"},"geometry":{"type":"Polygon","coordinates":[[[16.1115,38.0377],[16.1135,38.03],[16.1123,38.0247],[16.1162,38.0238],[16.1232,38.0239],[16.1344,38.0268],[16.1406,38.0251],[16.1249,37.9993],[16.1162,38.0013],[16.1056,38.0075],[16.0937,38.0119],[16.0864,38.0243],[16.0831,38.0279],[16.0639,38.0331],[16.059,38.0376],[16.0575,38.0403],[16.0576,38.0421],[16.0606,38.0457],[16.0623,38.0451],[16.0668,38.0456],[16.0715,38.0485],[16.0859,38.0528],[16.0901,38.0554],[16.0971,38.0507],[16.1059,38.0412],[16.1063,38.0389],[16.1078,38.0372],[16.1115,38.0377]]]}},{"type":"Feature","properties":{"i":"080034","n":"Fiumara"},"geometry":{"type":"Polygon","coordinates":[[[15.7187,38.2257],[15.709,38.2051],[15.7047,38.2044],[15.7036,38.2055],[15.7005,38.2061],[15.6902,38.2048],[15.6897,38.2038],[15.6854,38.2031],[15.6807,38.2031],[15.6795,38.204],[15.6792,38.2081],[15.685,38.2176],[15.6918,38.2247],[15.7115,38.2286],[15.7176,38.2318],[15.7187,38.2257]]]}},{"type":"Feature","properties":{"i":"080035","n":"Galatro"},"geometry":{"type":"Polygon","coordinates":[[[16.2651,38.4663],[16.2684,38.4584],[16.2691,38.4543],[16.2645,38.4463],[16.2622,38.4446],[16.2555,38.4444],[16.2387,38.4384],[16.2353,38.4394],[16.2327,38.4369],[16.2289,38.4356],[16.2231,38.4345],[16.2159,38.4358],[16.2079,38.4339],[16.206,38.4322],[16.2052,38.4299],[16.2028,38.4297],[16.1912,38.4409],[16.1864,38.4439],[16.18,38.4463],[16.1639,38.4456],[16.152,38.444],[16.1402,38.445],[16.1388,38.4429],[16.1372,38.4432],[16.128,38.4494],[16.0934,38.4558],[16.091,38.4609],[16.0887,38.462],[16.093,38.4717],[16.0956,38.4714],[16.0983,38.4735],[16.099,38.4789],[16.101,38.4834],[16.1166,38.4944],[16.1247,38.4954],[16.1488,38.4892],[16.1544,38.4888],[16.169,38.491],[16.1716,38.493],[16.1811,38.4947],[16.191,38.4959],[16.1932,38.4953],[16.1948,38.4934],[16.1927,38.4906],[16.1825,38.4868],[16.1712,38.4794],[16.1692,38.4729],[16.1706,38.4693],[16.1729,38.4644],[16.1796,38.4609],[16.2161,38.4542],[16.2289,38.4576],[16.2371,38.4543],[16.245,38.4564],[16.2464,38.4591],[16.2599,38.4614],[16.2635,38.4636],[16.2651,38.4663]]]}},{"type":"Feature","properties":{"i":"080036","n":"Gerace"},"geometry":{"type":"Polygon","coordinates":[[[16.2171,38.2959],[16.22,38.2954],[16.2357,38.2889],[16.2498,38.2761],[16.2493,38.2719],[16.2512,38.2674],[16.2465,38.2651],[16.242,38.2589],[16.2319,38.2514],[16.2261,38.2511],[16.224,38.2524],[16.2181,38.2531],[16.2046,38.253],[16.1996,38.2578],[16.1875,38.2606],[16.1789,38.2649],[16.1766,38.2687],[16.178,38.2732],[16.1761,38.2824],[16.1633,38.2961],[16.1631,38.3012],[16.161,38.3043],[16.1574,38.3078],[16.1555,38.3086],[16.153,38.3095],[16.1474,38.3096],[16.1378,38.3164],[16.1383,38.3184],[16.1374,38.321],[16.1347,38.3248],[16.1382,38.3289],[16.1376,38.3252],[16.1416,38.3207],[16.1453,38.3179],[16.1514,38.3157],[16.1637,38.3135],[16.1746,38.3095],[16.182,38.302],[16.1883,38.2923],[16.2032,38.2857],[16.2091,38.2853],[16.214,38.2879],[16.215,38.2915],[16.2145,38.2931],[16.2171,38.2959]]]}},{"type":"Feature","properties":{"i":"080037","n":"Giffone"},"geometry":{"type":"Polygon","coordinates":[[[16.2052,38.4299],[16.1974,38.4263],[16.1939,38.4261],[16.1845,38.4285],[16.1747,38.4201],[16.1655,38.4223],[16.1577,38.4227],[16.1543,38.422],[16.1527,38.4205],[16.1482,38.4206],[16.1329,38.426],[16.1264,38.4272],[16.1161,38.4329],[16.1122,38.4341],[16.1061,38.4373],[16.1042,38.4394],[16.1044,38.4402],[16.1054,38.4405],[16.1071,38.4394],[16.1213,38.4363],[16.1283,38.4358],[16.138,38.4413],[16.1402,38.445],[16.152,38.444],[16.1639,38.4456],[16.18,38.4463],[16.1864,38.4439],[16.1912,38.4409],[16.2023,38.4297],[16.2052,38.4299]]]}},{"type":"Feature","properties":{"i":"080038","n":"Gioia Tauro"},"geometry":{"type":"MultiPolygon","coordinates":[[[[15.9347,38.4616],[15.9386,38.4594],[15.9449,38.4577],[15.9651,38.4553],[15.9625,38.4509],[15.9574,38.4389],[15.9536,38.4342],[15.9505,38.4326],[15.9345,38.4336],[15.9283,38.4309],[15.9288,38.4293],[15.9389,38.4287],[15.9513,38.4205],[15.9511,38.4171],[15.9399,38.4057],[15.936,38.3986],[15.9311,38.385],[15.9143,38.3828],[15.9124,38.382],[15.9109,38.3801],[15.906,38.3865],[15.9059,38.3913],[15.9084,38.3962],[15.9068,38.408],[15.8876,38.4184],[15.876,38.4223],[15.8902,38.4388],[15.8931,38.4401],[15.8985,38.439],[15.9019,38.4394],[15.9061,38.443],[15.9076,38.4453],[15.9065,38.4458],[15.9053,38.4441],[15.9021,38.4464],[15.9025,38.4475],[15.9079,38.4605],[15.9164,38.4704],[15.9307,38.4659],[15.933,38.4642],[15.9347,38.4616]]],[[[15.9084,38.4726],[15.911,38.4726],[15.9103,38.468],[15.9059,38.462],[15.8993,38.4474],[15.8965,38.446],[15.8918,38.4454],[15.8948,38.4464],[15.8976,38.4502],[15.9084,38.4726]]]]}},{"type":"Feature","properties":{"i":"080039","n":"Gioiosa Ionica"},"geometry":{"type":"Polygon","coordinates":[[[16.3214,38.3996],[16.3279,38.3939],[16.3292,38.3903],[16.3398,38.3842],[16.3493,38.3798],[16.3515,38.371],[16.3517,38.3626],[16.3456,38.3534],[16.3345,38.3482],[16.335,38.3438],[16.3338,38.3352],[16.3298,38.334],[16.3262,38.332],[16.3194,38.3239],[16.3195,38.3208],[16.3208,38.3169],[16.3206,38.3138],[16.3159,38.3126],[16.3143,38.3133],[16.313,38.3156],[16.2972,38.3146],[16.2951,38.3186],[16.2827,38.3358],[16.2817,38.3443],[16.2824,38.3486],[16.2854,38.3472],[16.2904,38.3468],[16.2881,38.3509],[16.2924,38.3575],[16.2937,38.365],[16.2957,38.3692],[16.2986,38.3728],[16.2996,38.3781],[16.2987,38.3836],[16.2989,38.3916],[16.3068,38.4009],[16.3131,38.4017],[16.3214,38.3996]]]}},{"type":"Feature","properties":{"i":"080040","n":"Grotteria"},"geometry":{"type":"Polygon","coordinates":[[[16.2814,38.4393],[16.2916,38.4339],[16.2955,38.4295],[16.2959,38.4255],[16.2929,38.4215],[16.2881,38.419],[16.287,38.4195],[16.2869,38.423],[16.2817,38.4275],[16.2762,38.4279],[16.273,38.4227],[16.2703,38.4094],[16.2695,38.4077],[16.2682,38.407],[16.2691,38.3978],[16.271,38.3929],[16.2727,38.3919],[16.2739,38.3862],[16.2741,38.3819],[16.2727,38.3711],[16.2756,38.3611],[16.2793,38.3561],[16.2824,38.3486],[16.2817,38.3443],[16.2827,38.3358],[16.2951,38.3186],[16.2972,38.3146],[16.3055,38.3051],[16.3195,38.2981],[16.325,38.2938],[16.32,38.2898],[16.3169,38.2948],[16.3136,38.2971],[16.3064,38.3001],[16.3005,38.3],[16.2972,38.3012],[16.2822,38.3081],[16.279,38.3131],[16.2764,38.315],[16.2683,38.3182],[16.2608,38.319],[16.2592,38.3203],[16.2551,38.3296],[16.2549,38.3316],[16.258,38.3363],[16.2597,38.3376],[16.2602,38.342],[16.259,38.3484],[16.2563,38.3576],[16.2511,38.3692],[16.2489,38.377],[16.2421,38.3946],[16.2406,38.4007],[16.2479,38.4091],[16.2552,38.4266],[16.2444,38.4333],[16.2388,38.4348],[16.2353,38.4394],[16.2387,38.4384],[16.2555,38.4444],[16.2622,38.4446],[16.2645,38.4463],[16.2652,38.4484],[16.2671,38.4453],[16.2814,38.4393]]]}},{"type":"Feature","properties":{"i":"080041","n":"Laganadi"},"geometry":{"type":"Polygon","coordinates":[[[15.7836,38.1912],[15.7825,38.1864],[15.7796,38.1841],[15.7691,38.1864],[15.7576,38.1855],[15.7447,38.1676],[15.735,38.168],[15.7276,38.1698],[15.7302,38.1774],[15.7323,38.1809],[15.7339,38.1834],[15.7384,38.187],[15.7468,38.1914],[15.7491,38.191],[15.7537,38.1883],[15.758,38.1906],[15.7583,38.1924],[15.7535,38.2049],[15.7557,38.2074],[15.7659,38.2035],[15.7745,38.1989],[15.7836,38.1912]]]}},{"type":"Feature","properties":{"i":"080042","n":"Laureana di Borrello"},"geometry":{"type":"Polygon","coordinates":[[[16.1187,38.5043],[16.1383,38.5069],[16.154,38.4952],[16.1579,38.4946],[16.1627,38.4965],[16.1716,38.493],[16.169,38.491],[16.1544,38.4888],[16.1488,38.4892],[16.1247,38.4954],[16.117,38.4946],[16.101,38.4834],[16.099,38.4789],[16.0983,38.4735],[16.0956,38.4714],[16.093,38.4717],[16.0838,38.4769],[16.0708,38.4805],[16.0682,38.4792],[16.0668,38.4767],[16.0632,38.4736],[16.0616,38.4727],[16.0592,38.4728],[16.0524,38.4745],[16.0495,38.4764],[16.0389,38.4768],[16.0329,38.4762],[16.0306,38.4805],[16.022,38.4865],[16.0112,38.492],[16.004,38.4981],[16.0037,38.5007],[16.0025,38.5022],[15.9968,38.5037],[15.9991,38.5063],[16.0078,38.511],[16.0122,38.5122],[16.0174,38.5116],[16.0206,38.5152],[16.0223,38.5207],[16.0268,38.5229],[16.034,38.5246],[16.0379,38.5242],[16.0472,38.5189],[16.0576,38.5062],[16.0673,38.5027],[16.0983,38.5001],[16.1043,38.4984],[16.1152,38.4974],[16.1227,38.4981],[16.1262,38.4995],[16.1259,38.5003],[16.1231,38.5012],[16.1187,38.5043]]]}},{"type":"Feature","properties":{"i":"080043","n":"Locri"},"geometry":{"type":"Polygon","coordinates":[[[16.2814,38.2499],[16.2715,38.2378],[16.2377,38.2044],[16.2289,38.2117],[16.2308,38.2141],[16.228,38.2179],[16.2231,38.219],[16.2142,38.2245],[16.2127,38.2268],[16.2138,38.2296],[16.2048,38.2337],[16.1984,38.2395],[16.1952,38.2446],[16.1973,38.2478],[16.2046,38.253],[16.2181,38.2531],[16.224,38.2524],[16.2261,38.2511],[16.2319,38.2514],[16.242,38.2589],[16.2465,38.2651],[16.2512,38.2674],[16.2606,38.2637],[16.2635,38.2592],[16.2674,38.256],[16.2814,38.2499]]]}},{"type":"Feature","properties":{"i":"080044","n":"Mammola"},"geometry":{"type":"Polygon","coordinates":[[[16.2592,38.3203],[16.2564,38.315],[16.2542,38.3143],[16.2473,38.3176],[16.2454,38.3157],[16.2421,38.3182],[16.2397,38.3189],[16.2345,38.3202],[16.233,38.3192],[16.2271,38.3208],[16.2271,38.3251],[16.2249,38.3271],[16.2226,38.3262],[16.2218,38.3247],[16.2199,38.3269],[16.2123,38.3303],[16.2037,38.3322],[16.1962,38.3326],[16.184,38.3372],[16.1741,38.3453],[16.1687,38.3525],[16.1569,38.3553],[16.1532,38.3587],[16.1523,38.3602],[16.1544,38.373],[16.1595,38.3795],[16.1683,38.3843],[16.1787,38.386],[16.1834,38.3831],[16.1873,38.3858],[16.1883,38.3918],[16.1866,38.3969],[16.1792,38.4074],[16.1767,38.414],[16.1768,38.4156],[16.1845,38.4285],[16.1939,38.4261],[16.1974,38.4263],[16.2052,38.4299],[16.2058,38.4319],[16.2076,38.4337],[16.2159,38.4358],[16.2231,38.4345],[16.2289,38.4356],[16.2327,38.4369],[16.2353,38.4394],[16.2388,38.4348],[16.2444,38.4333],[16.2552,38.4266],[16.2479,38.4091],[16.2406,38.4007],[16.2421,38.3946],[16.2489,38.377],[16.2511,38.3692],[16.2563,38.3576],[16.259,38.3484],[16.2602,38.342],[16.2597,38.3376],[16.258,38.3363],[16.2549,38.3316],[16.2551,38.3296],[16.2592,38.3203]]]}},{"type":"Feature","properties":{"i":"080045","n":"Marina di Gioiosa Ionica"},"geometry":{"type":"Polygon","coordinates":[[[16.353,38.3049],[16.3478,38.3046],[16.3351,38.3001],[16.325,38.2938],[16.3195,38.2981],[16.3059,38.3047],[16.2972,38.3146],[16.313,38.3156],[16.3143,38.3133],[16.3159,38.3126],[16.3206,38.3138],[16.3208,38.3169],[16.3195,38.3208],[16.3194,38.3239],[16.3262,38.332],[16.3298,38.334],[16.3338,38.3352],[16.335,38.3438],[16.3345,38.3482],[16.3456,38.3534],[16.3494,38.3589],[16.3507,38.3555],[16.3495,38.3494],[16.3545,38.335],[16.3521,38.3301],[16.3511,38.3251],[16.3533,38.3195],[16.3538,38.3081],[16.353,38.3049]]]}},{"type":"Feature","properties":{"i":"080046","n":"Maropati"},"geometry":{"type":"Polygon","coordinates":[[[16.1393,38.4429],[16.138,38.4413],[16.1283,38.4358],[16.1213,38.4363],[16.1049,38.4405],[16.1043,38.4388],[16.1085,38.4361],[16.1069,38.4347],[16.0978,38.4359],[16.0909,38.4381],[16.0801,38.447],[16.065,38.4512],[16.0554,38.4596],[16.0571,38.4587],[16.0608,38.4586],[16.0895,38.4619],[16.0923,38.459],[16.0934,38.4558],[16.128,38.4494],[16.1372,38.4432],[16.1393,38.4429]]]}},{"type":"Feature","properties":{"i":"080047","n":"Martone"},"geometry":{"type":"Polygon","coordinates":[[[16.2888,38.4398],[16.295,38.4374],[16.2986,38.4323],[16.3016,38.4306],[16.3064,38.416],[16.3168,38.4036],[16.3214,38.3996],[16.3131,38.4017],[16.3068,38.4009],[16.2989,38.3916],[16.2987,38.3836],[16.2996,38.3781],[16.2986,38.3728],[16.2957,38.3692],[16.2937,38.365],[16.2924,38.3575],[16.2881,38.3509],[16.2904,38.3468],[16.2854,38.3472],[16.2824,38.3486],[16.2802,38.3534],[16.2852,38.363],[16.293,38.3713],[16.2964,38.3736],[16.2948,38.3747],[16.2937,38.378],[16.289,38.3833],[16.2971,38.4064],[16.2975,38.4176],[16.2957,38.4196],[16.2922,38.4211],[16.2958,38.4253],[16.296,38.4283],[16.2916,38.4339],[16.2814,38.4393],[16.2888,38.4398]]]}},{"type":"Feature","properties":{"i":"080048","n":"Melicuccà"},"geometry":{"type":"Polygon","coordinates":[[[15.8947,38.3189],[15.8958,38.2975],[15.8907,38.289],[15.8665,38.2721],[15.8573,38.2686],[15.8435,38.2671],[15.8409,38.2678],[15.8386,38.2718],[15.8379,38.2758],[15.8414,38.2784],[15.8468,38.2862],[15.8497,38.2907],[15.8539,38.3011],[15.8578,38.3065],[15.8669,38.3136],[15.8794,38.3198],[15.8858,38.3207],[15.8866,38.3192],[15.8947,38.3189]]]}},{"type":"Feature","properties":{"i":"080049","n":"Melicucco"},"geometry":{"type":"Polygon","coordinates":[[[16.036,38.4709],[16.0362,38.4679],[16.0393,38.4628],[16.0423,38.4484],[16.0446,38.445],[16.0644,38.4383],[16.071,38.4353],[16.0715,38.4341],[16.0681,38.4302],[16.0724,38.4272],[16.0609,38.4283],[16.0481,38.4249],[16.0432,38.4246],[16.0426,38.4274],[16.0439,38.4383],[16.0366,38.4497],[16.0305,38.4532],[16.028,38.4558],[16.0244,38.4654],[16.0241,38.4674],[16.0252,38.4694],[16.0303,38.4732],[16.0313,38.4749],[16.036,38.4709]]]}},{"type":"Feature","properties":{"i":"080050","n":"Melito di Porto Salvo"},"geometry":{"type":"Polygon","coordinates":[[[15.786,38.0032],[15.7894,38.0026],[15.795,37.9996],[15.7948,37.9959],[15.7936,37.9956],[15.7912,37.9902],[15.7909,37.9867],[15.7919,37.9824],[15.7983,37.9798],[15.8033,37.9789],[15.8073,37.9757],[15.8105,37.9717],[15.8108,37.9659],[15.8138,37.9649],[15.8228,37.9674],[15.8242,37.9632],[15.8187,37.9572],[15.8133,37.946],[15.8087,37.9315],[15.8077,37.9246],[15.8045,37.9198],[15.7875,37.9163],[15.7721,37.9162],[15.7612,37.9171],[15.7547,37.92],[15.749,37.9243],[15.7448,37.9256],[15.7403,37.9259],[15.7411,37.9282],[15.7451,37.9319],[15.7545,37.9362],[15.7569,37.9384],[15.7578,37.9534],[15.7629,37.9685],[15.7659,37.9737],[15.7767,37.9857],[15.7772,37.9928],[15.7759,37.9977],[15.7846,38.0031],[15.786,38.0032]],[[15.759,37.9272],[15.7588,37.926],[15.7627,37.9236],[15.7678,37.9224],[15.7775,37.9333],[15.7799,37.9363],[15.7798,37.9373],[15.7769,37.9395],[15.7735,37.9403],[15.7701,37.9406],[15.7676,37.9397],[15.763,37.9356],[15.759,37.9272]]]}},{"type":"Feature","properties":{"i":"080051","n":"Molochio"},"geometry":{"type":"Polygon","coordinates":[[[16.1106,38.2943],[16.109,38.2919],[16.1052,38.2896],[16.0976,38.2884],[16.085,38.2891],[16.075,38.2869],[16.068,38.2826],[16.066,38.2794],[16.0623,38.2698],[16.0638,38.2624],[16.0593,38.258],[16.0572,38.2631],[16.056,38.2696],[16.0513,38.2743],[16.0453,38.2753],[16.0396,38.2823],[16.0232,38.2969],[16.0173,38.2996],[16.0136,38.3025],[16.015,38.3038],[16.0159,38.311],[16.0111,38.3317],[16.0148,38.3318],[16.0215,38.3297],[16.0248,38.3268],[16.0299,38.3277],[16.0363,38.3313],[16.0382,38.3377],[16.0448,38.3385],[16.045,38.3427],[16.0498,38.343],[16.0565,38.3395],[16.0519,38.334],[16.0504,38.3307],[16.0531,38.3302],[16.0592,38.3311],[16.0689,38.3269],[16.0734,38.3223],[16.0772,38.3169],[16.0838,38.3154],[16.0874,38.3159],[16.0943,38.3144],[16.1041,38.3093],[16.1082,38.306],[16.1057,38.3047],[16.1065,38.2987],[16.1106,38.2943]]]}},{"type":"Feature","properties":{"i":"080052","n":"Monasterace"},"geometry":{"type":"Polygon","coordinates":[[[16.582,38.4701],[16.5832,38.4588],[16.5819,38.452],[16.5758,38.4356],[16.5708,38.4267],[16.5437,38.4333],[16.5421,38.4329],[16.5363,38.4338],[16.5325,38.4362],[16.5288,38.4416],[16.5286,38.4435],[16.5326,38.4457],[16.5353,38.4461],[16.5385,38.4445],[16.5419,38.4441],[16.5469,38.4456],[16.544,38.4487],[16.5407,38.4601],[16.541,38.4633],[16.5425,38.4659],[16.5453,38.4703],[16.548,38.4721],[16.5499,38.4719],[16.5549,38.4693],[16.5604,38.4686],[16.5658,38.4712],[16.5698,38.4713],[16.5784,38.4685],[16.5802,38.4688],[16.582,38.4701]]]}},{"type":"Feature","properties":{"i":"080053","n":"Montebello Jonico"},"geometry":{"type":"Polygon","coordinates":[[[15.7861,38.0082],[15.786,38.0032],[15.7846,38.0031],[15.7759,37.9977],[15.7772,37.9928],[15.7767,37.9857],[15.7659,37.9737],[15.7629,37.9685],[15.7578,37.9534],[15.7569,37.9384],[15.7545,37.9362],[15.7451,37.9319],[15.7411,37.9282],[15.7403,37.9259],[15.7333,37.9257],[15.7217,37.9326],[15.7105,37.9365],[15.7071,37.9384],[15.6992,37.9473],[15.6935,37.9505],[15.6931,37.9618],[15.694,37.9643],[15.6989,37.969],[15.7075,37.9698],[15.7134,37.9751],[15.7171,37.9816],[15.7306,37.994],[15.7296,37.9958],[15.7336,38.0012],[15.7395,38.007],[15.7417,38.0119],[15.7416,38.0149],[15.7389,38.0194],[15.742,38.0234],[15.7445,38.0241],[15.7575,38.0384],[15.7576,38.0422],[15.7546,38.0467],[15.7598,38.0478],[15.7655,38.0525],[15.7736,38.0554],[15.7814,38.0572],[15.7847,38.0633],[15.7888,38.0617],[15.7853,38.06],[15.7834,38.0489],[15.7818,38.0328],[15.7826,38.0275],[15.781,38.0176],[15.7861,38.0082]]]}},{"type":"Feature","properties":{"i":"080054","n":"Motta San Giovanni"},"geometry":{"type":"Polygon","coordinates":[[[15.6935,37.9505],[15.6829,37.952],[15.6777,37.9545],[15.6602,37.9738],[15.6524,37.9849],[15.6459,37.9914],[15.6746,38.0006],[15.6831,38.0056],[15.691,38.0136],[15.6963,38.0278],[15.6948,38.033],[15.6985,38.0453],[15.7008,38.0459],[15.72,38.0428],[15.7247,38.0404],[15.7444,38.0437],[15.7546,38.0467],[15.7576,38.0422],[15.7575,38.0384],[15.7445,38.0241],[15.742,38.0234],[15.7389,38.0194],[15.7416,38.0149],[15.7417,38.0119],[15.7395,38.007],[15.7336,38.0012],[15.7296,37.9958],[15.7306,37.994],[15.7171,37.9816],[15.7134,37.9751],[15.7075,37.9698],[15.6989,37.969],[15.694,37.9643],[15.6931,37.9618],[15.6935,37.9505]]]}},{"type":"Feature","properties":{"i":"080055","n":"Oppido Mamertina"},"geometry":{"type":"Polygon","coordinates":[[[15.934,38.3633],[15.9353,38.3624],[15.938,38.3573],[15.9415,38.3399],[15.9439,38.3343],[15.9528,38.3314],[15.9651,38.3216],[15.9662,38.3201],[15.9663,38.3178],[15.9682,38.3153],[15.9851,38.3058],[15.9934,38.3023],[15.9928,38.3044],[15.9934,38.3058],[15.9966,38.307],[15.9977,38.3063],[16.0273,38.2731],[16.0358,38.2706],[16.0412,38.2701],[16.0415,38.2673],[16.0386,38.2574],[16.035,38.2557],[16.032,38.2512],[16.0272,38.2495],[16.0207,38.2441],[16.0171,38.2386],[16.0164,38.2325],[16.0076,38.2215],[16.0021,38.2246],[15.9923,38.2331],[15.9869,38.2461],[15.9788,38.2539],[15.976,38.2669],[15.9703,38.273],[15.968,38.2744],[15.958,38.277],[15.9535,38.2815],[15.9533,38.2841],[15.9522,38.2849],[15.9483,38.2858],[15.9432,38.2843],[15.9417,38.2849],[15.9391,38.2942],[15.93,38.3039],[15.9265,38.31],[15.9262,38.3118],[15.9236,38.3149],[15.9222,38.3232],[15.9226,38.3309],[15.9205,38.3397],[15.9226,38.3437],[15.9227,38.3489],[15.9199,38.3619],[15.9195,38.3668],[15.934,38.3633]]]}},{"type":"Feature","properties":{"i":"080056","n":"Palizzi"},"geometry":{"type":"Polygon","coordinates":[[[16.0383,37.9729],[16.0388,37.969],[16.0448,37.9565],[16.0456,37.9532],[16.0431,37.9488],[16.047,37.9417],[16.0645,37.9256],[16.0474,37.9222],[16.0409,37.9221],[16.0333,37.9235],[16.0198,37.9226],[16.0005,37.9168],[15.9801,37.9178],[15.976,37.9191],[15.9717,37.9281],[15.9728,37.9403],[15.9746,37.9486],[15.9731,37.9763],[15.9757,37.9788],[15.9768,37.9815],[15.9759,37.9829],[15.9748,37.9889],[15.9807,37.9893],[15.9834,37.9907],[15.9932,37.9996],[15.9986,38.0057],[16.0103,38.0027],[16.0203,38.0014],[16.0267,37.993],[16.0363,37.9744],[16.0383,37.9729]]]}},{"type":"Feature","properties":{"i":"080057","n":"Palmi"},"geometry":{"type":"MultiPolygon","coordinates":[[[[15.908,38.3835],[15.9062,38.3816],[15.9038,38.3741],[15.8999,38.3696],[15.8911,38.3647],[15.8865,38.3643],[15.881,38.3618],[15.8739,38.3577],[15.8713,38.3543],[15.8706,38.3515],[15.8559,38.3395],[15.8536,38.3362],[15.8446,38.3362],[15.837,38.3398],[15.8305,38.3406],[15.8323,38.3482],[15.833,38.3561],[15.8392,38.3641],[15.8575,38.3794],[15.8595,38.3823],[15.863,38.3892],[15.8628,38.3911],[15.8619,38.3916],[15.8609,38.3914],[15.8602,38.3896],[15.8605,38.3918],[15.876,38.4223],[15.8876,38.4184],[15.9068,38.408],[15.9084,38.3962],[15.9056,38.3893],[15.9061,38.3859],[15.908,38.3835]]]]}},{"type":"Feature","properties":{"i":"080058","n":"Pazzano"},"geometry":{"type":"Polygon","coordinates":[[[16.4602,38.4799],[16.4559,38.4771],[16.4591,38.4632],[16.4622,38.4541],[16.4602,38.4406],[16.4574,38.4406],[16.4523,38.4413],[16.4471,38.4437],[16.4401,38.4522],[16.4361,38.46],[16.4302,38.4625],[16.4218,38.4624],[16.3994,38.473],[16.3883,38.4776],[16.383,38.4785],[16.3827,38.4799],[16.3843,38.4813],[16.3957,38.4825],[16.3987,38.4838],[16.4043,38.4933],[16.4057,38.4938],[16.4203,38.4916],[16.423,38.4896],[16.4237,38.4882],[16.4209,38.4851],[16.4202,38.4821],[16.4213,38.4786],[16.4239,38.4768],[16.4298,38.4764],[16.4509,38.4779],[16.4602,38.4799]]]}},{"type":"Feature","properties":{"i":"080059","n":"Placanica"},"geometry":{"type":"Polygon","coordinates":[[[16.4574,38.4406],[16.454,38.4393],[16.4544,38.4374],[16.456,38.4363],[16.4685,38.4204],[16.4728,38.4053],[16.4737,38.392],[16.4732,38.3866],[16.4718,38.3843],[16.4645,38.3842],[16.4596,38.3885],[16.4444,38.3956],[16.4268,38.4074],[16.4087,38.4236],[16.4121,38.4315],[16.4152,38.4328],[16.4177,38.436],[16.4143,38.4384],[16.4077,38.4387],[16.4068,38.4402],[16.4066,38.4481],[16.4094,38.4579],[16.4137,38.461],[16.4178,38.4612],[16.4209,38.4634],[16.4218,38.4624],[16.4302,38.4625],[16.4361,38.46],[16.4401,38.4522],[16.4471,38.4437],[16.4523,38.4413],[16.4574,38.4406]]]}},{"type":"Feature","properties":{"i":"080060","n":"Platì"},"geometry":{"type":"Polygon","coordinates":[[[16.1351,38.2309],[16.138,38.223],[16.1356,38.2192],[16.1251,38.2145],[16.1227,38.2126],[16.1197,38.2071],[16.1141,38.2036],[16.1048,38.2056],[16.0998,38.205],[16.0992,38.2017],[16.0967,38.1989],[16.0784,38.1886],[16.0693,38.1936],[16.0666,38.1972],[16.0621,38.1991],[16.055,38.1991],[16.046,38.1976],[16.0314,38.2007],[16.0262,38.2],[16.0221,38.201],[16.0013,38.2147],[16.0164,38.2325],[16.0171,38.2386],[16.0207,38.2441],[16.0279,38.2499],[16.0341,38.2515],[16.0501,38.2464],[16.0539,38.242],[16.0593,38.2411],[16.0636,38.2475],[16.0612,38.2516],[16.0586,38.2533],[16.0576,38.256],[16.0728,38.2541],[16.0744,38.252],[16.0866,38.2451],[16.1229,38.2275],[16.1291,38.2284],[16.1351,38.2309]]]}},{"type":"Feature","properties":{"i":"080061","n":"Polistena"},"geometry":{"type":"Polygon","coordinates":[[[16.0724,38.4272],[16.0746,38.4263],[16.0718,38.4214],[16.0712,38.4178],[16.0759,38.416],[16.0928,38.4039],[16.0937,38.4026],[16.0935,38.4001],[16.0913,38.3973],[16.0814,38.4007],[16.0734,38.395],[16.0699,38.3944],[16.067,38.3957],[16.0653,38.3987],[16.0559,38.4056],[16.0469,38.4079],[16.0349,38.407],[16.0276,38.4085],[16.0351,38.4161],[16.0265,38.4209],[16.0287,38.422],[16.0402,38.425],[16.0481,38.4249],[16.0609,38.4283],[16.0724,38.4272]]]}},{"type":"Feature","properties":{"i":"080062","n":"Portigliola"},"geometry":{"type":"Polygon","coordinates":[[[16.2377,38.2044],[16.2322,38.1994],[16.2266,38.2036],[16.2107,38.2121],[16.2082,38.2143],[16.1975,38.2282],[16.1863,38.2381],[16.1971,38.2422],[16.1984,38.2395],[16.2048,38.2337],[16.2138,38.2296],[16.2127,38.2268],[16.2142,38.2245],[16.2231,38.219],[16.228,38.2179],[16.2308,38.2141],[16.2289,38.2117],[16.2377,38.2044]]]}},{"type":"Feature","properties":{"i":"080063","n":"Reggio di Calabria"},"geometry":{"type":"Polygon","coordinates":[[[15.6792,38.2081],[15.6795,38.204],[15.6807,38.2031],[15.687,38.2033],[15.6901,38.204],[15.6902,38.2048],[15.6949,38.2056],[15.7005,38.2061],[15.7036,38.2055],[15.7047,38.2044],[15.701,38.2022],[15.7009,38.1999],[15.7035,38.1933],[15.7028,38.1905],[15.7005,38.1888],[15.699,38.1856],[15.6993,38.1844],[15.7237,38.1729],[15.7276,38.1698],[15.735,38.168],[15.7408,38.1681],[15.7548,38.166],[15.7611,38.1663],[15.7686,38.168],[15.7736,38.1665],[15.8012,38.1622],[15.8177,38.1673],[15.832,38.164],[15.8483,38.1575],[15.8642,38.1528],[15.8567,38.1402],[15.8616,38.1278],[15.859,38.1263],[15.8488,38.1233],[15.8401,38.1224],[15.8354,38.1172],[15.8365,38.1153],[15.8362,38.1114],[15.8342,38.1089],[15.8293,38.1063],[15.8284,38.1065],[15.8275,38.1095],[15.8319,38.1168],[15.8324,38.1201],[15.8317,38.1212],[15.8262,38.1185],[15.8195,38.113],[15.8158,38.1118],[15.8046,38.1098],[15.7921,38.1094],[15.787,38.1077],[15.7783,38.1006],[15.769,38.0945],[15.7624,38.093],[15.7516,38.0886],[15.747,38.0828],[15.7465,38.081],[15.7497,38.0788],[15.7515,38.0763],[15.7425,38.0651],[15.7448,38.0631],[15.7514,38.0643],[15.7539,38.0655],[15.7536,38.0663],[15.7543,38.0671],[15.7575,38.0674],[15.7609,38.0668],[15.766,38.062],[15.7734,38.0616],[15.8064,38.0716],[15.808,38.0713],[15.8102,38.0674],[15.8089,38.0647],[15.807,38.0642],[15.7936,38.063],[15.7888,38.0617],[15.7844,38.0632],[15.7814,38.0572],[15.7736,38.0554],[15.7655,38.0525],[15.7598,38.0478],[15.7444,38.0437],[15.7247,38.0404],[15.72,38.0428],[15.7008,38.0459],[15.6985,38.0453],[15.6948,38.033],[15.6963,38.0278],[15.691,38.0136],[15.6831,38.0056],[15.6746,38.0006],[15.6459,37.9914],[15.6371,38.0062],[15.634,38.0189],[15.6347,38.02],[15.6412,38.0217],[15.6527,38.0291],[15.6541,38.0307],[15.6571,38.0403],[15.6557,38.0428],[15.6532,38.0444],[15.6512,38.047],[15.6482,38.0536],[15.6481,38.0549],[15.652,38.0622],[15.6519,38.0662],[15.6482,38.0688],[15.6347,38.0758],[15.6302,38.0932],[15.6304,38.0965],[15.6311,38.1025],[15.6413,38.1092],[15.6479,38.1161],[15.6481,38.122],[15.6521,38.1269],[15.6563,38.135],[15.6532,38.1415],[15.6543,38.1503],[15.6507,38.1592],[15.6398,38.1701],[15.6396,38.173],[15.6414,38.1794],[15.634,38.1858],[15.6328,38.1947],[15.6331,38.2021],[15.6372,38.203],[15.6452,38.2032],[15.6494,38.2069],[15.6528,38.2053],[15.6539,38.2025],[15.6563,38.2008],[15.6655,38.2036],[15.6714,38.213],[15.6793,38.2118],[15.6799,38.21],[15.6792,38.2081]]]}},{"type":"Feature","properties":{"i":"080064","n":"Riace"},"geometry":{"type":"Polygon","coordinates":[[[16.547,38.403],[16.5167,38.3766],[16.5146,38.3788],[16.5149,38.3845],[16.5111,38.3883],[16.5055,38.3927],[16.4928,38.3962],[16.4828,38.4044],[16.477,38.4112],[16.4757,38.4145],[16.4757,38.4192],[16.4743,38.4245],[16.4703,38.4314],[16.4844,38.4241],[16.4982,38.4236],[16.5134,38.4155],[16.5205,38.4102],[16.5256,38.4098],[16.5363,38.4105],[16.547,38.403]]]}},{"type":"Feature","properties":{"i":"080065","n":"Rizziconi"},"geometry":{"type":"Polygon","coordinates":[[[16.0273,38.4324],[16.0274,38.431],[16.0255,38.4286],[16.0141,38.4175],[16.0098,38.4097],[16.0032,38.4072],[15.9952,38.4025],[15.9905,38.4011],[15.9737,38.3935],[15.9539,38.3907],[15.9493,38.3878],[15.9436,38.3813],[15.9377,38.3716],[15.934,38.3633],[15.9195,38.3668],[15.9109,38.3801],[15.9124,38.382],[15.9143,38.3828],[15.9311,38.385],[15.936,38.3986],[15.9399,38.4057],[15.9511,38.4171],[15.9513,38.4205],[15.9389,38.4287],[15.9288,38.4293],[15.9283,38.4309],[15.9345,38.4336],[15.9505,38.4326],[15.9536,38.4342],[15.9574,38.4389],[15.9625,38.4509],[15.9651,38.4553],[15.9731,38.4555],[15.9776,38.4542],[15.9927,38.4473],[16.0045,38.4395],[16.0273,38.4324]]]}},{"type":"Feature","properties":{"i":"080066","n":"Roccaforte del Greco"},"geometry":{"type":"Polygon","coordinates":[[[15.9061,38.029],[15.9011,38.0308],[15.8961,38.0305],[15.888,38.0285],[15.8837,38.0288],[15.8823,38.0325],[15.8791,38.0346],[15.8718,38.0354],[15.8652,38.0332],[15.8627,38.0343],[15.8598,38.0376],[15.862,38.0412],[15.8654,38.0502],[15.8566,38.0772],[15.8573,38.0821],[15.8737,38.0975],[15.8769,38.1031],[15.8772,38.1081],[15.8755,38.1139],[15.8687,38.1171],[15.8616,38.1278],[15.8567,38.1402],[15.8642,38.1528],[15.871,38.1569],[15.8888,38.1611],[15.8867,38.1564],[15.879,38.1466],[15.8776,38.1379],[15.8783,38.1369],[15.8775,38.1343],[15.8721,38.1273],[15.8776,38.1218],[15.8831,38.1209],[15.8902,38.1211],[15.8957,38.1251],[15.9003,38.1259],[15.9029,38.1244],[15.9036,38.1215],[15.9029,38.117],[15.9132,38.096],[15.9137,38.0903],[15.9128,38.0888],[15.9076,38.0845],[15.9069,38.0846],[15.9068,38.0865],[15.9059,38.0867],[15.9024,38.0845],[15.9004,38.0781],[15.9052,38.0783],[15.9064,38.0771],[15.9048,38.0726],[15.9037,38.0716],[15.901,38.0704],[15.899,38.0712],[15.8982,38.0651],[15.899,38.0638],[15.9079,38.0607],[15.9137,38.0528],[15.9152,38.0463],[15.9146,38.0409],[15.9074,38.0336],[15.9061,38.029]]]}},{"type":"Feature","properties":{"i":"080067","n":"Roccella Ionica"},"geometry":{"type":"Polygon","coordinates":[[[16.4424,38.33],[16.4367,38.328],[16.4189,38.3246],[16.3656,38.3072],[16.353,38.3049],[16.3538,38.3081],[16.3533,38.3195],[16.3511,38.3251],[16.3521,38.3301],[16.3545,38.335],[16.3495,38.3494],[16.3507,38.3555],[16.3494,38.3589],[16.3517,38.3626],[16.3515,38.371],[16.3493,38.3798],[16.3398,38.3842],[16.3292,38.3903],[16.3279,38.3939],[16.3168,38.4036],[16.3064,38.416],[16.3016,38.4306],[16.3095,38.4312],[16.3127,38.4335],[16.3138,38.4286],[16.3101,38.4242],[16.3093,38.4208],[16.31,38.4174],[16.3213,38.4088],[16.3253,38.4073],[16.3394,38.3938],[16.3503,38.3884],[16.3581,38.3819],[16.3606,38.3779],[16.3692,38.368],[16.3702,38.3593],[16.3734,38.3544],[16.3872,38.3536],[16.3984,38.3573],[16.4139,38.3497],[16.4148,38.3485],[16.4142,38.3471],[16.4203,38.3435],[16.4395,38.3348],[16.4424,38.33]]]}},{"type":"Feature","properties":{"i":"080068","n":"Roghudi"},"geometry":{"type":"MultiPolygon","coordinates":[[[[15.759,37.9272],[15.763,37.9356],[15.7676,37.9397],[15.7701,37.9406],[15.7735,37.9403],[15.7769,37.9395],[15.7798,37.9373],[15.7799,37.9363],[15.7775,37.9333],[15.7678,37.9224],[15.7627,37.9236],[15.7588,37.926],[15.759,37.9272]]],[[[15.9523,38.0513],[15.9519,38.0467],[15.9497,38.0397],[15.9466,38.0375],[15.9435,38.0318],[15.9377,38.021],[15.9319,38.0078],[15.9276,38.0081],[15.9108,38.0127],[15.9037,38.0133],[15.9054,38.0266],[15.9074,38.0336],[15.9146,38.0409],[15.9152,38.0463],[15.9137,38.0528],[15.9079,38.0607],[15.899,38.0638],[15.8982,38.0651],[15.899,38.0712],[15.901,38.0704],[15.9037,38.0716],[15.9048,38.0726],[15.9064,38.0771],[15.9052,38.0783],[15.9004,38.0781],[15.9024,38.0845],[15.9059,38.0867],[15.9068,38.0865],[15.9069,38.0846],[15.9076,38.0845],[15.9128,38.0888],[15.9137,38.0903],[15.9132,38.096],[15.9029,38.117],[15.9036,38.1215],[15.9029,38.1244],[15.9003,38.1259],[15.8957,38.1251],[15.8902,38.1211],[15.8831,38.1209],[15.8776,38.1218],[15.8721,38.1273],[15.8775,38.1343],[15.8783,38.1369],[15.8776,38.1379],[15.879,38.1466],[15.8867,38.1564],[15.8892,38.1615],[15.8931,38.1598],[15.8971,38.1531],[15.9007,38.1501],[15.9042,38.1433],[15.9089,38.1373],[15.9217,38.1312],[15.9231,38.1294],[15.9232,38.127],[15.9199,38.1214],[15.9158,38.1214],[15.9149,38.1206],[15.9153,38.1156],[15.9231,38.1032],[15.9242,38.1023],[15.9271,38.1021],[15.9333,38.0979],[15.9369,38.0876],[15.9361,38.0841],[15.9453,38.073],[15.95,38.0642],[15.951,38.0595],[15.9498,38.0554],[15.9523,38.0513]]]]}},{"type":"Feature","properties":{"i":"080069","n":"Rosarno"},"geometry":{"type":"Polygon","coordinates":[[[15.9292,38.5075],[15.9318,38.5038],[15.9527,38.5011],[15.9602,38.4985],[15.9792,38.4988],[15.9951,38.5034],[16.0003,38.5031],[16.0025,38.5022],[16.0037,38.5007],[16.004,38.4981],[16.0112,38.492],[16.022,38.4865],[16.0306,38.4805],[16.0323,38.4777],[16.0329,38.4762],[16.0303,38.4732],[16.0252,38.4694],[16.0241,38.4674],[16.0252,38.4624],[16.028,38.4558],[16.0305,38.4532],[16.0359,38.4502],[16.0358,38.4454],[16.034,38.4403],[16.0273,38.4324],[16.0045,38.4395],[15.9927,38.4473],[15.9776,38.4542],[15.9731,38.4555],[15.9651,38.4553],[15.9471,38.4572],[15.936,38.4606],[15.9347,38.4616],[15.9471,38.4715],[15.9561,38.4766],[15.9634,38.4787],[15.9672,38.4811],[15.9605,38.4907],[15.9451,38.4981],[15.9183,38.505],[15.9186,38.5068],[15.9292,38.5075]]]}},{"type":"Feature","properties":{"i":"080070","n":"Samo"},"geometry":{"type":"Polygon","coordinates":[[[16.0386,38.1025],[16.0373,38.1],[16.0367,38.0933],[16.0379,38.0921],[16.0522,38.0904],[16.0682,38.0897],[16.0684,38.0862],[16.07,38.0812],[16.0719,38.0788],[16.0757,38.0768],[16.0789,38.0715],[16.0797,38.0663],[16.0769,38.0646],[16.0608,38.0611],[16.0521,38.0627],[16.0468,38.0621],[16.0395,38.0596],[16.0333,38.059],[16.0251,38.0643],[16.0095,38.0663],[16.0065,38.0657],[16.0007,38.0693],[15.9985,38.0778],[15.9896,38.0811],[15.9816,38.0815],[15.981,38.0829],[15.9824,38.0875],[15.9838,38.0892],[15.982,38.0933],[15.9633,38.0958],[15.9593,38.1005],[15.9554,38.1086],[15.942,38.1252],[15.9373,38.1295],[15.9306,38.1389],[15.9231,38.1431],[15.9119,38.147],[15.9093,38.1491],[15.9076,38.1535],[15.9045,38.1566],[15.9135,38.1598],[15.9222,38.1593],[15.9274,38.1579],[15.941,38.1505],[15.9475,38.1448],[15.9579,38.1408],[15.9669,38.1362],[15.9781,38.1242],[15.9814,38.1192],[15.9911,38.1156],[16.0003,38.1098],[16.008,38.1065],[16.018,38.105],[16.0254,38.1029],[16.0386,38.1025]]]}},{"type":"Feature","properties":{"i":"080071","n":"San Giorgio Morgeto"},"geometry":{"type":"Polygon","coordinates":[[[16.1741,38.3854],[16.1683,38.3843],[16.1595,38.3795],[16.1544,38.373],[16.1523,38.3602],[16.1569,38.3553],[16.1509,38.3477],[16.1533,38.3446],[16.1521,38.3421],[16.15,38.3401],[16.1427,38.3371],[16.1289,38.3419],[16.1189,38.3478],[16.112,38.3561],[16.0993,38.3625],[16.0867,38.373],[16.0787,38.3815],[16.073,38.3894],[16.0673,38.394],[16.067,38.3957],[16.0699,38.3944],[16.0734,38.395],[16.0814,38.4007],[16.0909,38.3972],[16.093,38.3989],[16.0937,38.4026],[16.1085,38.4027],[16.1247,38.3993],[16.1484,38.3922],[16.1592,38.3898],[16.1676,38.3897],[16.1732,38.3868],[16.1741,38.3854]]]}},{"type":"Feature","properties":{"i":"080072","n":"San Giovanni di Gerace"},"geometry":{"type":"Polygon","coordinates":[[[16.2922,38.4211],[16.2957,38.4196],[16.2975,38.4176],[16.2971,38.4064],[16.289,38.3833],[16.2937,38.378],[16.2948,38.3747],[16.2964,38.3736],[16.293,38.3713],[16.2852,38.363],[16.2802,38.3534],[16.2793,38.3561],[16.2756,38.3611],[16.2727,38.3711],[16.2741,38.3819],[16.2739,38.3862],[16.2727,38.3919],[16.271,38.3929],[16.2691,38.3978],[16.2682,38.407],[16.2702,38.4091],[16.2723,38.4207],[16.2756,38.4276],[16.2774,38.4282],[16.2824,38.4271],[16.2869,38.423],[16.287,38.4195],[16.2881,38.419],[16.2922,38.4211]]]}},{"type":"Feature","properties":{"i":"080073","n":"San Lorenzo"},"geometry":{"type":"Polygon","coordinates":[[[15.8598,38.0376],[15.8528,38.0344],[15.8469,38.0149],[15.8492,38.0086],[15.8572,38.0004],[15.8512,37.9922],[15.8508,37.99],[15.8518,37.9875],[15.8533,37.9869],[15.8589,37.9644],[15.8552,37.9569],[15.8497,37.9509],[15.846,37.9451],[15.8456,37.9363],[15.8436,37.9298],[15.8392,37.9251],[15.8398,37.9192],[15.8279,37.9183],[15.8125,37.9202],[15.8045,37.9198],[15.8077,37.9246],[15.8087,37.9315],[15.8133,37.946],[15.8187,37.9572],[15.8242,37.9632],[15.8228,37.9674],[15.8138,37.9649],[15.8108,37.9659],[15.8105,37.9717],[15.8073,37.9757],[15.8033,37.9789],[15.7983,37.9798],[15.7919,37.9824],[15.7909,37.9867],[15.7912,37.9902],[15.7936,37.9956],[15.7948,37.9959],[15.795,37.9996],[15.7894,38.0026],[15.786,38.0032],[15.7861,38.0082],[15.8054,38.011],[15.8105,38.0097],[15.8139,38.0103],[15.8229,38.0198],[15.8262,38.0241],[15.8267,38.0308],[15.8319,38.0481],[15.8296,38.0538],[15.8381,38.0678],[15.8396,38.0734],[15.8381,38.0794],[15.8366,38.0808],[15.8372,38.0831],[15.8459,38.0919],[15.8538,38.0976],[15.8617,38.0994],[15.8688,38.1031],[15.8736,38.1102],[15.8747,38.1133],[15.8738,38.1146],[15.8744,38.1145],[15.8755,38.1139],[15.877,38.11],[15.8769,38.1031],[15.8737,38.0975],[15.8573,38.0821],[15.8566,38.0772],[15.8654,38.0502],[15.862,38.0412],[15.8598,38.0376]]]}},{"type":"Feature","properties":{"i":"080074","n":"San Luca"},"geometry":{"type":"Polygon","coordinates":[[[16.0998,38.1511],[16.1078,38.1471],[16.1179,38.1465],[16.1207,38.1443],[16.1235,38.1389],[16.1237,38.1326],[16.126,38.1283],[16.1248,38.1274],[16.1205,38.1267],[16.1024,38.1335],[16.0918,38.1354],[16.0767,38.1349],[16.0716,38.1317],[16.0636,38.1195],[16.0508,38.1083],[16.0386,38.1025],[16.0254,38.1029],[16.018,38.105],[16.008,38.1065],[16.0003,38.1098],[15.9911,38.1156],[15.9814,38.1192],[15.9781,38.1242],[15.9669,38.1362],[15.9579,38.1408],[15.9475,38.1448],[15.941,38.1505],[15.9274,38.1579],[15.9222,38.1593],[15.9135,38.1598],[15.9123,38.1635],[15.9133,38.1755],[15.9119,38.1816],[15.9128,38.1846],[15.9229,38.1888],[15.9432,38.1928],[15.9533,38.1925],[15.9571,38.1966],[15.971,38.2007],[15.9909,38.2047],[15.9929,38.197],[15.9935,38.1912],[16.0366,38.1787],[16.0429,38.1704],[16.0492,38.1653],[16.0526,38.1652],[16.0597,38.1676],[16.0754,38.1616],[16.0783,38.1589],[16.087,38.1545],[16.0967,38.1539],[16.0998,38.1511]]]}},{"type":"Feature","properties":{"i":"080075","n":"San Pietro di Caridà"},"geometry":{"type":"Polygon","coordinates":[[[16.2311,38.501],[16.2333,38.5008],[16.2365,38.4987],[16.2421,38.4921],[16.254,38.4839],[16.2651,38.4663],[16.2635,38.4636],[16.2599,38.4614],[16.2464,38.4591],[16.245,38.4564],[16.2371,38.4543],[16.2289,38.4576],[16.2161,38.4542],[16.1796,38.4609],[16.1729,38.4644],[16.1706,38.4693],[16.1692,38.4729],[16.1712,38.4794],[16.1825,38.4868],[16.1927,38.4906],[16.1948,38.4934],[16.1932,38.4953],[16.1868,38.4955],[16.1716,38.493],[16.1458,38.5034],[16.1374,38.5078],[16.1252,38.5102],[16.1149,38.5193],[16.1096,38.5256],[16.1064,38.5283],[16.098,38.5303],[16.0937,38.5351],[16.1018,38.5367],[16.1058,38.5409],[16.1103,38.5436],[16.1201,38.5369],[16.1334,38.5355],[16.1443,38.5291],[16.1598,38.5166],[16.167,38.5134],[16.1795,38.5101],[16.1932,38.4978],[16.2026,38.4989],[16.2109,38.4968],[16.2277,38.4997],[16.2311,38.501]]]}},{"type":"Feature","properties":{"i":"080076","n":"San Procopio"},"geometry":{"type":"Polygon","coordinates":[[[15.9222,38.3232],[15.9195,38.3209],[15.9107,38.308],[15.9091,38.3047],[15.9072,38.2951],[15.9041,38.2846],[15.9009,38.28],[15.8957,38.2749],[15.8933,38.2747],[15.888,38.2718],[15.8837,38.268],[15.8767,38.2708],[15.8754,38.2729],[15.8715,38.2733],[15.871,38.2752],[15.8909,38.2892],[15.8958,38.2975],[15.8947,38.3189],[15.8973,38.3206],[15.9056,38.3291],[15.9205,38.3397],[15.9226,38.3309],[15.9222,38.3232]]]}},{"type":"Feature","properties":{"i":"080077","n":"San Roberto"},"geometry":{"type":"Polygon","coordinates":[[[15.8487,38.1775],[15.8415,38.18],[15.8395,38.1822],[15.8368,38.1831],[15.8268,38.1824],[15.8234,38.1804],[15.7892,38.1893],[15.7836,38.1912],[15.7736,38.1994],[15.7563,38.2074],[15.754,38.2062],[15.7501,38.2006],[15.7467,38.1985],[15.7418,38.1983],[15.7177,38.2044],[15.7103,38.2055],[15.709,38.2051],[15.7187,38.2257],[15.7298,38.2308],[15.7324,38.2316],[15.7464,38.2307],[15.755,38.2294],[15.7639,38.2263],[15.7737,38.2296],[15.7762,38.2316],[15.7792,38.2315],[15.7871,38.2277],[15.7929,38.2235],[15.8058,38.2193],[15.813,38.2133],[15.8211,38.2031],[15.8297,38.1955],[15.8496,38.1855],[15.8509,38.1839],[15.8514,38.1806],[15.8487,38.1775]]]}},{"type":"Feature","properties":{"i":"080078","n":"Santa Cristina d'Aspromonte"},"geometry":{"type":"Polygon","coordinates":[[[16.0076,38.2215],[16.0013,38.2147],[15.9972,38.2089],[15.9914,38.2048],[15.971,38.2007],[15.9664,38.2026],[15.9642,38.2075],[15.9625,38.2159],[15.9629,38.2227],[15.9649,38.226],[15.9654,38.2295],[15.9614,38.2333],[15.9574,38.2416],[15.9549,38.2594],[15.9516,38.2628],[15.9441,38.2641],[15.9439,38.2698],[15.9454,38.2738],[15.9435,38.2801],[15.9443,38.2848],[15.9483,38.2858],[15.9522,38.2849],[15.9533,38.2841],[15.9535,38.2815],[15.958,38.277],[15.968,38.2744],[15.9703,38.273],[15.976,38.2669],[15.9788,38.2539],[15.9869,38.2461],[15.9923,38.2331],[16.0021,38.2246],[16.0076,38.2215]]]}},{"type":"Feature","properties":{"i":"080079","n":"Sant'Agata del Bianco"},"geometry":{"type":"Polygon","coordinates":[[[16.083,38.1003],[16.0887,38.0856],[16.0891,38.0745],[16.087,38.0668],[16.087,38.0643],[16.0901,38.0554],[16.0859,38.0528],[16.0715,38.0485],[16.0649,38.0452],[16.0618,38.0452],[16.0557,38.048],[16.0538,38.0476],[16.0486,38.054],[16.0435,38.0561],[16.0411,38.0538],[16.038,38.0526],[16.0228,38.049],[16.0188,38.0498],[16.0175,38.0518],[16.0113,38.0563],[16.0054,38.0573],[16.0005,38.0627],[16.0014,38.0665],[16.0007,38.0693],[16.0065,38.0657],[16.0095,38.0663],[16.0251,38.0643],[16.0333,38.059],[16.0395,38.0596],[16.0468,38.0621],[16.0521,38.0627],[16.0608,38.0611],[16.0778,38.0649],[16.0798,38.0667],[16.0789,38.0715],[16.0757,38.0768],[16.0719,38.0788],[16.07,38.0812],[16.0684,38.0862],[16.0682,38.0897],[16.0522,38.0904],[16.0385,38.0919],[16.0367,38.0933],[16.0373,38.1],[16.0386,38.1025],[16.0477,38.1072],[16.0501,38.1049],[16.0514,38.1047],[16.0553,38.1065],[16.0598,38.1074],[16.0688,38.1069],[16.0704,38.1059],[16.0718,38.1036],[16.083,38.1003]]]}},{"type":"Feature","properties":{"i":"080080","n":"Sant'Alessio in Aspromonte"},"geometry":{"type":"Polygon","coordinates":[[[15.7723,38.1854],[15.7727,38.1797],[15.774,38.1774],[15.7694,38.1679],[15.7611,38.1663],[15.7548,38.166],[15.7447,38.1676],[15.7576,38.1855],[15.7691,38.1864],[15.7723,38.1854]]]}},{"type":"Feature","properties":{"i":"080081","n":"Sant'Eufemia d'Aspromonte"},"geometry":{"type":"Polygon","coordinates":[[[15.8758,38.1634],[15.8726,38.1628],[15.8717,38.1634],[15.8465,38.1994],[15.8437,38.2056],[15.8449,38.2069],[15.8447,38.2086],[15.8416,38.2131],[15.8307,38.2242],[15.8282,38.2298],[15.8219,38.2332],[15.8137,38.2343],[15.8124,38.2368],[15.814,38.2414],[15.8104,38.2531],[15.8094,38.2584],[15.8099,38.2594],[15.8123,38.26],[15.8171,38.2598],[15.8202,38.2579],[15.8292,38.2606],[15.8277,38.2697],[15.8306,38.2721],[15.8379,38.2758],[15.8386,38.2718],[15.8419,38.2673],[15.8583,38.2688],[15.8665,38.2721],[15.8707,38.2748],[15.873,38.2697],[15.8683,38.2503],[15.8617,38.2411],[15.8586,38.238],[15.8585,38.2346],[15.8597,38.2296],[15.8649,38.2265],[15.8684,38.2201],[15.8676,38.2111],[15.8654,38.2053],[15.8698,38.1942],[15.8733,38.192],[15.8769,38.1677],[15.8758,38.1634]]]}},{"type":"Feature","properties":{"i":"080082","n":"Sant'Ilario dello Ionio"},"geometry":{"type":"Polygon","coordinates":[[[16.2322,38.1994],[16.222,38.1886],[16.2197,38.1889],[16.1733,38.2143],[16.1697,38.2197],[16.1597,38.2299],[16.1656,38.234],[16.1764,38.2386],[16.1858,38.2389],[16.1975,38.2282],[16.2091,38.2133],[16.2266,38.2036],[16.2322,38.1994]]]}},{"type":"Feature","properties":{"i":"080083","n":"Santo Stefano in Aspromonte"},"geometry":{"type":"Polygon","coordinates":[[[15.8487,38.1775],[15.8615,38.1653],[15.871,38.1594],[15.871,38.1569],[15.8642,38.1528],[15.8483,38.1575],[15.832,38.164],[15.8202,38.167],[15.8177,38.1673],[15.8012,38.1622],[15.7736,38.1665],[15.7694,38.1679],[15.774,38.1774],[15.7727,38.1797],[15.7723,38.1854],[15.7784,38.184],[15.7805,38.1845],[15.7827,38.1869],[15.7836,38.1912],[15.8133,38.1825],[15.8234,38.1804],[15.8268,38.1824],[15.8368,38.1831],[15.8395,38.1822],[15.8415,38.18],[15.8487,38.1775]]]}},{"type":"Feature","properties":{"i":"080084","n":"Scido"},"geometry":{"type":"Polygon","coordinates":[[[15.971,38.2007],[15.9571,38.1966],[15.9533,38.1925],[15.9477,38.2],[15.9396,38.2073],[15.9329,38.2213],[15.9355,38.2247],[15.9338,38.2319],[15.9293,38.2411],[15.9323,38.2474],[15.9328,38.2536],[15.9271,38.2591],[15.9311,38.2626],[15.9304,38.266],[15.9312,38.2669],[15.9439,38.2698],[15.9441,38.2641],[15.9516,38.2628],[15.9549,38.2594],[15.9574,38.2416],[15.9614,38.2333],[15.9654,38.2295],[15.9649,38.226],[15.9629,38.2227],[15.9627,38.2191],[15.9626,38.2135],[15.9642,38.2075],[15.9664,38.2026],[15.971,38.2007]]]}},{"type":"Feature","properties":{"i":"080085","n":"Scilla"},"geometry":{"type":"Polygon","coordinates":[[[15.8094,38.2584],[15.814,38.2414],[15.8124,38.2368],[15.8132,38.2349],[15.8233,38.2327],[15.8282,38.2298],[15.8307,38.2242],[15.8416,38.2131],[15.8447,38.2086],[15.8449,38.2069],[15.8437,38.2056],[15.8465,38.1994],[15.8717,38.1634],[15.8726,38.1628],[15.8758,38.1634],[15.8763,38.1584],[15.871,38.1569],[15.871,38.1594],[15.8615,38.1653],[15.8487,38.1775],[15.8514,38.1806],[15.8509,38.1839],[15.8496,38.1855],[15.8297,38.1955],[15.8211,38.2031],[15.813,38.2133],[15.8058,38.2193],[15.7929,38.2235],[15.7855,38.2286],[15.7794,38.2314],[15.7767,38.2318],[15.7737,38.2296],[15.7639,38.2263],[15.755,38.2294],[15.7324,38.2316],[15.7187,38.2257],[15.7176,38.2318],[15.7129,38.233],[15.7031,38.2404],[15.6988,38.241],[15.6947,38.2406],[15.6856,38.2478],[15.6929,38.2511],[15.6994,38.2523],[15.7039,38.2522],[15.7139,38.2548],[15.7291,38.2528],[15.7389,38.2541],[15.7502,38.2574],[15.77,38.2677],[15.7736,38.2654],[15.7795,38.2566],[15.7792,38.2548],[15.7806,38.2532],[15.7823,38.2527],[15.7881,38.2517],[15.7917,38.2519],[15.7979,38.254],[15.8058,38.2589],[15.8081,38.2592],[15.8094,38.2584]]]}},{"type":"Feature","properties":{"i":"080086","n":"Seminara"},"geometry":{"type":"Polygon","coordinates":[[[15.9205,38.3397],[15.9056,38.3291],[15.8973,38.3206],[15.8947,38.3189],[15.8866,38.3192],[15.8858,38.3207],[15.8794,38.3198],[15.8669,38.3136],[15.8578,38.3065],[15.854,38.3073],[15.8426,38.3121],[15.8301,38.3115],[15.8249,38.3149],[15.8256,38.318],[15.8279,38.3224],[15.8287,38.3377],[15.8305,38.3406],[15.837,38.3398],[15.8446,38.3362],[15.8536,38.3362],[15.8559,38.3395],[15.8706,38.3515],[15.8713,38.3543],[15.8739,38.3577],[15.881,38.3618],[15.8865,38.3643],[15.8911,38.3647],[15.8999,38.3696],[15.9038,38.3741],[15.9062,38.3816],[15.908,38.3835],[15.9195,38.3668],[15.9199,38.3619],[15.9227,38.3489],[15.9226,38.3437],[15.9205,38.3397]]]}},{"type":"Feature","properties":{"i":"080087","n":"Serrata"},"geometry":{"type":"Polygon","coordinates":[[[16.08,38.5621],[16.0894,38.5537],[16.0979,38.548],[16.0994,38.5432],[16.1011,38.541],[16.103,38.5404],[16.1058,38.5409],[16.1018,38.5367],[16.0937,38.5351],[16.098,38.5303],[16.1064,38.5283],[16.1096,38.5256],[16.1149,38.5193],[16.1252,38.5102],[16.1374,38.5078],[16.1458,38.5034],[16.1627,38.4965],[16.1579,38.4946],[16.154,38.4952],[16.138,38.5069],[16.1187,38.5043],[16.1145,38.5061],[16.0925,38.5093],[16.087,38.511],[16.0835,38.5113],[16.0765,38.5098],[16.0704,38.5096],[16.0639,38.518],[16.055,38.5242],[16.0521,38.5292],[16.0553,38.5372],[16.0571,38.5396],[16.0624,38.5428],[16.0672,38.5466],[16.0687,38.549],[16.0702,38.5496],[16.0709,38.5528],[16.0705,38.5571],[16.0727,38.5603],[16.0763,38.562],[16.08,38.5621]]]}},{"type":"Feature","properties":{"i":"080088","n":"Siderno"},"geometry":{"type":"Polygon","coordinates":[[[16.32,38.2898],[16.3152,38.2849],[16.3121,38.2792],[16.3088,38.2755],[16.2849,38.2548],[16.2814,38.2499],[16.2674,38.256],[16.2635,38.2592],[16.2606,38.2637],[16.2512,38.2674],[16.2493,38.2719],[16.2497,38.2765],[16.237,38.2877],[16.24,38.2882],[16.2419,38.2894],[16.2458,38.2951],[16.2476,38.3002],[16.2455,38.3013],[16.2433,38.3057],[16.2459,38.3164],[16.2473,38.3176],[16.2508,38.3154],[16.2553,38.3144],[16.2567,38.3154],[16.2592,38.3203],[16.2621,38.3184],[16.2683,38.3182],[16.2764,38.315],[16.279,38.3131],[16.2822,38.3081],[16.2972,38.3012],[16.3005,38.3],[16.3064,38.3001],[16.3136,38.2971],[16.3169,38.2948],[16.32,38.2898]]]}},{"type":"Feature","properties":{"i":"080089","n":"Sinopoli"},"geometry":{"type":"MultiPolygon","coordinates":[[[[15.8957,38.2749],[15.8963,38.2734],[15.8951,38.2712],[15.8925,38.2689],[15.8872,38.2609],[15.8863,38.2513],[15.8876,38.2441],[15.8873,38.2388],[15.8855,38.2367],[15.8829,38.2277],[15.8837,38.2052],[15.8876,38.1894],[15.8895,38.1886],[15.8869,38.182],[15.8846,38.1791],[15.8847,38.1758],[15.8869,38.1724],[15.8896,38.1705],[15.8964,38.1629],[15.8977,38.1589],[15.8971,38.1531],[15.8931,38.1598],[15.8904,38.1614],[15.8763,38.1584],[15.8758,38.1634],[15.8769,38.1677],[15.8733,38.192],[15.8698,38.1942],[15.8654,38.2053],[15.8676,38.2111],[15.8684,38.2201],[15.8649,38.2265],[15.8597,38.2296],[15.8585,38.2346],[15.8586,38.238],[15.8617,38.2411],[15.8683,38.2503],[15.873,38.2697],[15.8715,38.2733],[15.8754,38.2729],[15.8767,38.2708],[15.8837,38.268],[15.888,38.2718],[15.8933,38.2747],[15.8957,38.2749]]],[[[15.9009,38.28],[15.9041,38.2846],[15.9072,38.2951],[15.9091,38.3047],[15.9107,38.308],[15.9195,38.3209],[15.9222,38.3232],[15.9236,38.3149],[15.9181,38.3083],[15.9168,38.3051],[15.9221,38.2878],[15.9181,38.2824],[15.9163,38.2818],[15.9148,38.2752],[15.9163,38.2684],[15.914,38.2677],[15.9062,38.2705],[15.9042,38.2746],[15.9042,38.2768],[15.9009,38.28]]]]}},{"type":"Feature","properties":{"i":"080090","n":"Staiti"},"geometry":{"type":"Polygon","coordinates":[[[16.0842,38.0044],[16.0821,38.0033],[16.0749,38.007],[16.0693,38.0074],[16.0654,38.0052],[16.0656,38.003],[16.0678,38.0008],[16.0712,38.0007],[16.0713,37.9998],[16.0609,37.9911],[16.0516,37.9898],[16.0423,37.99],[16.0402,37.9907],[16.0337,37.9899],[16.0334,37.9882],[16.0358,37.9837],[16.0408,37.9776],[16.0394,37.9726],[16.0363,37.9744],[16.0267,37.993],[16.0203,38.0014],[16.0103,38.0027],[15.9986,38.0057],[15.9997,38.0085],[16.0012,38.0099],[16.0214,38.0179],[16.0244,38.0198],[16.0398,38.0173],[16.0545,38.0217],[16.0578,38.0198],[16.063,38.0147],[16.073,38.0144],[16.0778,38.0124],[16.0814,38.0092],[16.0842,38.0044]]]}},{"type":"Feature","properties":{"i":"080091","n":"Stignano"},"geometry":{"type":"Polygon","coordinates":[[[16.4602,38.4406],[16.4674,38.4392],[16.4703,38.4314],[16.4743,38.4245],[16.4757,38.4192],[16.4757,38.4145],[16.477,38.4112],[16.4828,38.4044],[16.4928,38.3962],[16.5055,38.3927],[16.5149,38.3845],[16.5146,38.3788],[16.5167,38.3766],[16.4988,38.3614],[16.4871,38.3534],[16.4762,38.3632],[16.4709,38.3703],[16.4679,38.3806],[16.4645,38.3842],[16.4722,38.3846],[16.4734,38.3875],[16.4737,38.3993],[16.4693,38.4188],[16.456,38.4363],[16.4544,38.4374],[16.454,38.4393],[16.4574,38.4406],[16.4602,38.4406]]]}},{"type":"Feature","properties":{"i":"080092","n":"Stilo"},"geometry":{"type":"MultiPolygon","coordinates":[[[[16.541,38.4633],[16.5407,38.4601],[16.544,38.4487],[16.5469,38.4456],[16.5419,38.4441],[16.5385,38.4445],[16.5353,38.4461],[16.5326,38.4457],[16.5285,38.4431],[16.5309,38.4381],[16.5363,38.4338],[16.5421,38.4329],[16.5437,38.4333],[16.5708,38.4267],[16.5674,38.4229],[16.559,38.4251],[16.5565,38.4238],[16.5516,38.4235],[16.5452,38.4242],[16.5347,38.4288],[16.5248,38.4361],[16.4986,38.4447],[16.4947,38.4426],[16.4784,38.4393],[16.4674,38.4392],[16.4602,38.4406],[16.4622,38.4541],[16.4591,38.4632],[16.4559,38.4771],[16.4647,38.4829],[16.4767,38.4881],[16.4802,38.4921],[16.4865,38.4908],[16.5134,38.4784],[16.516,38.4762],[16.5354,38.4671],[16.541,38.4633]]],[[[16.4198,38.554],[16.44,38.5384],[16.4386,38.5364],[16.4206,38.5285],[16.4145,38.5318],[16.4046,38.5348],[16.4005,38.5304],[16.3979,38.522],[16.3933,38.5131],[16.3878,38.5073],[16.3904,38.5021],[16.3998,38.4976],[16.4043,38.4933],[16.3987,38.4838],[16.3957,38.4825],[16.3843,38.4813],[16.3827,38.4799],[16.374,38.4807],[16.3556,38.4953],[16.3458,38.5159],[16.3452,38.5202],[16.3475,38.522],[16.3492,38.5216],[16.3503,38.5231],[16.351,38.5277],[16.3487,38.5352],[16.3493,38.5374],[16.3597,38.5433],[16.3619,38.5502],[16.3597,38.554],[16.363,38.5605],[16.3699,38.5646],[16.3731,38.5639],[16.3773,38.5661],[16.3826,38.5664],[16.3889,38.5708],[16.39,38.5733],[16.3925,38.5738],[16.3979,38.571],[16.4058,38.5638],[16.4198,38.554]]]]}},{"type":"Feature","properties":{"i":"080093","n":"Taurianova"},"geometry":{"type":"Polygon","coordinates":[[[16.0462,38.343],[16.0314,38.3418],[16.0233,38.343],[16.0089,38.3434],[16.0041,38.3427],[16.0006,38.3411],[15.985,38.3386],[15.98,38.3408],[15.9669,38.3516],[15.9463,38.36],[15.934,38.3633],[15.9377,38.3716],[15.9451,38.3838],[15.9525,38.3901],[15.9737,38.3935],[15.9905,38.4011],[15.9952,38.4025],[16.0032,38.4072],[16.0089,38.404],[16.0097,38.4015],[16.0205,38.3922],[16.0332,38.3919],[16.0442,38.3815],[16.0415,38.3774],[16.0357,38.3736],[16.0321,38.3693],[16.0472,38.3589],[16.0482,38.3524],[16.0477,38.3465],[16.0462,38.343]]]}},{"type":"Feature","properties":{"i":"080094","n":"Terranova Sappo Minulio"},"geometry":{"type":"Polygon","coordinates":[[[16.0136,38.3025],[16.0106,38.3062],[16.0031,38.3125],[15.9964,38.3166],[15.997,38.3287],[15.9958,38.333],[15.985,38.3386],[16.0006,38.3411],[16.0041,38.3427],[16.0089,38.3434],[16.0233,38.343],[16.0314,38.3418],[16.045,38.3427],[16.0448,38.3385],[16.0382,38.3377],[16.0363,38.3313],[16.0299,38.3277],[16.0248,38.3268],[16.0215,38.3297],[16.0148,38.3318],[16.0111,38.3317],[16.0159,38.311],[16.015,38.3038],[16.0136,38.3025]]]}},{"type":"Feature","properties":{"i":"080095","n":"Varapodio"},"geometry":{"type":"Polygon","coordinates":[[[15.985,38.3386],[15.9949,38.3339],[15.996,38.3327],[15.997,38.3287],[15.9964,38.3166],[16.0031,38.3125],[16.0173,38.2996],[16.0232,38.2969],[16.0396,38.2823],[16.0453,38.2753],[16.0513,38.2743],[16.0559,38.2698],[16.057,38.2666],[16.0572,38.2631],[16.0593,38.258],[16.0576,38.256],[16.0579,38.2545],[16.0612,38.2516],[16.0636,38.2475],[16.0593,38.2411],[16.0539,38.242],[16.0508,38.246],[16.0475,38.2474],[16.0337,38.2516],[16.032,38.2512],[16.035,38.2557],[16.0386,38.2574],[16.0415,38.2673],[16.0412,38.2701],[16.0358,38.2706],[16.0273,38.2731],[15.9977,38.3063],[15.9966,38.307],[15.9934,38.3058],[15.9928,38.3044],[15.9934,38.3023],[15.9851,38.3058],[15.9682,38.3153],[15.9663,38.3178],[15.9662,38.3201],[15.9651,38.3216],[15.9528,38.3314],[15.9439,38.3343],[15.9415,38.3399],[15.938,38.3573],[15.9353,38.3624],[15.9463,38.36],[15.9669,38.3516],[15.98,38.3408],[15.985,38.3386]]]}},{"type":"Feature","properties":{"i":"080096","n":"Villa San Giovanni"},"geometry":{"type":"Polygon","coordinates":[[[15.6856,38.2478],[15.6947,38.2406],[15.6988,38.241],[15.7031,38.2404],[15.7129,38.233],[15.7176,38.2318],[15.7115,38.2286],[15.6943,38.2254],[15.6933,38.2281],[15.6886,38.2347],[15.6869,38.2332],[15.6751,38.2274],[15.6519,38.2238],[15.6497,38.223],[15.6473,38.2206],[15.6462,38.2095],[15.6494,38.2069],[15.6452,38.2032],[15.6372,38.203],[15.6331,38.2021],[15.634,38.2093],[15.6328,38.2223],[15.6359,38.2317],[15.6656,38.2385],[15.6711,38.2405],[15.6791,38.2469],[15.6856,38.2478]]]}},{"type":"Feature","properties":{"i":"080097","n":"San Ferdinando"},"geometry":{"type":"Polygon","coordinates":[[[15.9347,38.4616],[15.933,38.4642],[15.9307,38.4659],[15.9101,38.4729],[15.9084,38.4726],[15.9156,38.4931],[15.9183,38.505],[15.9451,38.4981],[15.9605,38.4907],[15.9672,38.4811],[15.9639,38.479],[15.9566,38.4769],[15.9504,38.4734],[15.9347,38.4616]]]}}]}
