{"type":"FeatureCollection","fonte":"Confini comunali ISTAT via openpolis/geojson-italy — CC BY 4.0","features":[{"type":"Feature","properties":{"i":"035001","n":"Albinea"},"geometry":{"type":"Polygon","coordinates":[[[10.6624,44.6307],[10.6603,44.628],[10.6548,44.6116],[10.6555,44.6083],[10.6599,44.5974],[10.6589,44.596],[10.6528,44.5958],[10.6494,44.5949],[10.6377,44.5837],[10.6359,44.5809],[10.6353,44.5764],[10.6376,44.5729],[10.6314,44.5742],[10.6261,44.5717],[10.618,44.5714],[10.5808,44.5859],[10.5707,44.5869],[10.5684,44.5884],[10.5675,44.5904],[10.5675,44.5915],[10.5706,44.5938],[10.5697,44.6023],[10.5667,44.6048],[10.5683,44.6047],[10.5698,44.6059],[10.5696,44.6103],[10.5689,44.6146],[10.5648,44.6191],[10.5649,44.6214],[10.5705,44.6259],[10.5746,44.6274],[10.5852,44.6377],[10.5883,44.6363],[10.6017,44.6444],[10.608,44.6468],[10.6114,44.6427],[10.626,44.6351],[10.6309,44.6356],[10.6323,44.6367],[10.632,44.6372],[10.6401,44.6375],[10.6624,44.6307]]]}},{"type":"Feature","properties":{"i":"035002","n":"Bagnolo in Piano"},"geometry":{"type":"Polygon","coordinates":[[[10.7306,44.796],[10.7316,44.7902],[10.7209,44.787],[10.7025,44.7755],[10.7039,44.7698],[10.7054,44.767],[10.7058,44.7622],[10.7014,44.7624],[10.6928,44.765],[10.6891,44.7606],[10.6902,44.7598],[10.689,44.7574],[10.6841,44.7541],[10.674,44.7496],[10.6684,44.7509],[10.6581,44.7556],[10.6506,44.7631],[10.6501,44.7661],[10.654,44.7758],[10.654,44.7826],[10.6513,44.7874],[10.6507,44.8015],[10.6518,44.8114],[10.655,44.8168],[10.659,44.8173],[10.6594,44.8194],[10.669,44.8164],[10.6865,44.808],[10.6915,44.8046],[10.6962,44.7979],[10.7087,44.7922],[10.7229,44.7955],[10.7306,44.796]]]}},{"type":"Feature","properties":{"i":"035003","n":"Baiso"},"geometry":{"type":"Polygon","coordinates":[[[10.6588,44.5368],[10.6566,44.5301],[10.6569,44.5283],[10.6623,44.5249],[10.6677,44.5233],[10.6691,44.5201],[10.6667,44.5127],[10.6552,44.5003],[10.6542,44.4785],[10.6618,44.4756],[10.6672,44.4711],[10.6682,44.4678],[10.6591,44.46],[10.6549,44.4542],[10.6535,44.4483],[10.6537,44.445],[10.6556,44.4395],[10.6507,44.433],[10.6434,44.43],[10.6315,44.4208],[10.624,44.4083],[10.6215,44.4059],[10.6052,44.4065],[10.5904,44.4109],[10.592,44.4144],[10.5978,44.4199],[10.6025,44.4221],[10.6043,44.4277],[10.5984,44.4339],[10.6012,44.4439],[10.6025,44.4535],[10.6021,44.4567],[10.5945,44.4669],[10.5848,44.4737],[10.5749,44.4822],[10.5668,44.4998],[10.571,44.5114],[10.5751,44.5165],[10.5822,44.5222],[10.592,44.5238],[10.6014,44.5265],[10.6145,44.5317],[10.6208,44.5347],[10.6185,44.5381],[10.6233,44.5422],[10.6326,44.5457],[10.6386,44.5446],[10.6588,44.5368]]]}},{"type":"Feature","properties":{"i":"035004","n":"Bibbiano"},"geometry":{"type":"Polygon","coordinates":[[[10.513,44.6741],[10.5093,44.6726],[10.5119,44.6702],[10.5147,44.6695],[10.5186,44.6641],[10.5114,44.6583],[10.5092,44.6553],[10.5062,44.654],[10.482,44.6524],[10.4721,44.6533],[10.4532,44.6384],[10.4526,44.636],[10.4476,44.638],[10.4458,44.6486],[10.4433,44.6522],[10.4372,44.6575],[10.4398,44.6667],[10.4411,44.6758],[10.4464,44.6789],[10.4615,44.6832],[10.4709,44.693],[10.4737,44.6949],[10.4767,44.6955],[10.4801,44.6982],[10.4844,44.7048],[10.4921,44.7078],[10.4972,44.713],[10.5021,44.7223],[10.5073,44.7253],[10.5045,44.7177],[10.4963,44.7038],[10.5031,44.7023],[10.5115,44.6935],[10.5117,44.6858],[10.5092,44.683],[10.5054,44.6805],[10.5087,44.6767],[10.513,44.6741]]]}},{"type":"Feature","properties":{"i":"035005","n":"Boretto"},"geometry":{"type":"Polygon","coordinates":[[[10.5924,44.9148],[10.5901,44.905],[10.5909,44.8987],[10.5953,44.8891],[10.594,44.8856],[10.5957,44.8777],[10.5835,44.8768],[10.5589,44.8804],[10.5543,44.8784],[10.5477,44.8777],[10.5322,44.8815],[10.5303,44.8865],[10.5268,44.9127],[10.5317,44.9131],[10.5427,44.912],[10.5698,44.9083],[10.5824,44.9126],[10.5924,44.9148]]]}},{"type":"Feature","properties":{"i":"035006","n":"Brescello"},"geometry":{"type":"Polygon","coordinates":[[[10.5268,44.9127],[10.5303,44.8865],[10.5322,44.8815],[10.5235,44.8809],[10.5169,44.8823],[10.5067,44.8825],[10.4995,44.8815],[10.4948,44.8796],[10.4876,44.8703],[10.4866,44.8622],[10.4835,44.8542],[10.4732,44.8542],[10.4734,44.8491],[10.4747,44.8428],[10.4706,44.8332],[10.4674,44.834],[10.4552,44.833],[10.4538,44.8353],[10.4535,44.8445],[10.4551,44.8486],[10.4624,44.8523],[10.4647,44.856],[10.4663,44.8741],[10.4706,44.8756],[10.4706,44.8783],[10.4656,44.8871],[10.4609,44.8896],[10.4634,44.8967],[10.4686,44.8998],[10.4762,44.9017],[10.4868,44.9019],[10.4913,44.9054],[10.4946,44.9098],[10.493,44.9129],[10.5043,44.9224],[10.515,44.9144],[10.5199,44.9127],[10.5268,44.9127]]]}},{"type":"Feature","properties":{"i":"035008","n":"Cadelbosco di Sopra"},"geometry":{"type":"Polygon","coordinates":[[[10.6501,44.7661],[10.6494,44.7679],[10.64,44.7705],[10.6312,44.7679],[10.6241,44.7711],[10.6136,44.7734],[10.6116,44.7727],[10.6101,44.7643],[10.6017,44.753],[10.5998,44.7518],[10.589,44.7491],[10.5767,44.7584],[10.5554,44.7646],[10.5562,44.7667],[10.5649,44.7786],[10.5737,44.7865],[10.5764,44.7893],[10.5763,44.7902],[10.5788,44.7903],[10.5966,44.7981],[10.6152,44.8165],[10.6353,44.8464],[10.6403,44.852],[10.6585,44.8601],[10.6588,44.8555],[10.6553,44.8447],[10.6601,44.8416],[10.6603,44.8349],[10.6578,44.8239],[10.6594,44.8194],[10.659,44.8173],[10.655,44.8168],[10.6518,44.8114],[10.6507,44.8015],[10.6513,44.7874],[10.654,44.7826],[10.654,44.7758],[10.6501,44.7661]]]}},{"type":"Feature","properties":{"i":"035009","n":"Campagnola Emilia"},"geometry":{"type":"Polygon","coordinates":[[[10.797,44.8506],[10.7786,44.8314],[10.7757,44.8229],[10.7738,44.8116],[10.7651,44.8134],[10.7615,44.8156],[10.757,44.8162],[10.753,44.8144],[10.7525,44.8126],[10.7537,44.8124],[10.7524,44.8096],[10.7464,44.8068],[10.738,44.8072],[10.7376,44.8094],[10.7285,44.8157],[10.7222,44.8221],[10.7438,44.8371],[10.746,44.8422],[10.7461,44.8456],[10.7452,44.8515],[10.7424,44.8552],[10.7447,44.8586],[10.7538,44.8648],[10.7886,44.9001],[10.7939,44.8988],[10.7877,44.8894],[10.7809,44.8818],[10.7782,44.8832],[10.7723,44.8772],[10.7754,44.8688],[10.7861,44.8607],[10.797,44.8506]]]}},{"type":"Feature","properties":{"i":"035010","n":"Campegine"},"geometry":{"type":"Polygon","coordinates":[[[10.5763,44.7902],[10.5761,44.7891],[10.5649,44.7786],[10.5607,44.7732],[10.5569,44.7708],[10.5514,44.7685],[10.5141,44.7565],[10.5091,44.7541],[10.506,44.7555],[10.506,44.7565],[10.5116,44.7577],[10.5134,44.757],[10.5166,44.7591],[10.5101,44.7613],[10.5,44.7615],[10.4954,44.76],[10.4884,44.7623],[10.4852,44.7701],[10.4828,44.7735],[10.4837,44.7826],[10.4852,44.7845],[10.5126,44.7969],[10.5188,44.797],[10.5288,44.8],[10.559,44.791],[10.5744,44.7936],[10.5763,44.7902]]]}},{"type":"Feature","properties":{"i":"035011","n":"Carpineti"},"geometry":{"type":"Polygon","coordinates":[[[10.5665,44.4999],[10.57,44.4937],[10.5749,44.4822],[10.5848,44.4737],[10.5945,44.4669],[10.6021,44.4567],[10.6025,44.4535],[10.6012,44.4439],[10.5984,44.4339],[10.6043,44.4277],[10.6025,44.4221],[10.5978,44.4199],[10.592,44.4144],[10.5904,44.4109],[10.5877,44.4113],[10.5739,44.4196],[10.5564,44.4193],[10.5353,44.4166],[10.5244,44.4115],[10.5191,44.407],[10.4879,44.4057],[10.4765,44.408],[10.4687,44.4049],[10.4683,44.4104],[10.4691,44.4111],[10.4676,44.4172],[10.4594,44.4248],[10.4577,44.4297],[10.4587,44.4331],[10.4654,44.4363],[10.4793,44.4394],[10.4821,44.4423],[10.4829,44.4494],[10.4823,44.4531],[10.4758,44.4637],[10.4726,44.4727],[10.4728,44.4786],[10.4706,44.4857],[10.4675,44.4895],[10.484,44.4987],[10.5105,44.5034],[10.5255,44.4944],[10.5282,44.4895],[10.5332,44.4841],[10.5432,44.489],[10.5457,44.4908],[10.5481,44.4965],[10.554,44.4994],[10.5665,44.4999]]]}},{"type":"Feature","properties":{"i":"035012","n":"Casalgrande"},"geometry":{"type":"Polygon","coordinates":[[[10.7868,44.6065],[10.7853,44.5998],[10.7807,44.5918],[10.7768,44.5798],[10.7752,44.564],[10.7696,44.5488],[10.765,44.5404],[10.761,44.5426],[10.7578,44.5455],[10.7598,44.5487],[10.7593,44.549],[10.7348,44.5565],[10.7255,44.5613],[10.7114,44.5652],[10.7058,44.5659],[10.7058,44.5735],[10.7068,44.5765],[10.709,44.5794],[10.7127,44.5807],[10.7196,44.5864],[10.7222,44.5907],[10.7229,44.5982],[10.726,44.6038],[10.7279,44.6053],[10.7388,44.6057],[10.751,44.6034],[10.7559,44.6101],[10.7574,44.6164],[10.7484,44.6178],[10.7418,44.6166],[10.7364,44.6212],[10.7387,44.6259],[10.7369,44.6272],[10.7532,44.6309],[10.7718,44.6375],[10.782,44.6278],[10.786,44.6221],[10.787,44.6147],[10.7868,44.6065]]]}},{"type":"Feature","properties":{"i":"035013","n":"Casina"},"geometry":{"type":"Polygon","coordinates":[[[10.5406,44.537],[10.5432,44.5333],[10.5415,44.527],[10.5433,44.5168],[10.5585,44.5048],[10.5665,44.4999],[10.554,44.4994],[10.5481,44.4965],[10.5457,44.4908],[10.5432,44.489],[10.5332,44.4841],[10.5282,44.4895],[10.5255,44.4944],[10.5105,44.5034],[10.484,44.4987],[10.4675,44.4895],[10.4631,44.491],[10.4591,44.4928],[10.453,44.497],[10.4518,44.4999],[10.4465,44.5052],[10.4425,44.5079],[10.4378,44.5132],[10.4364,44.5178],[10.4379,44.5209],[10.4401,44.5222],[10.4357,44.5253],[10.4298,44.5174],[10.4248,44.5174],[10.4169,44.5196],[10.4156,44.5211],[10.4148,44.527],[10.4171,44.5385],[10.4282,44.5431],[10.434,44.5477],[10.4376,44.5517],[10.4431,44.5512],[10.4516,44.5476],[10.4573,44.5486],[10.4615,44.5474],[10.4676,44.5436],[10.4708,44.5451],[10.4722,44.5467],[10.4684,44.5518],[10.468,44.558],[10.4701,44.5612],[10.4769,44.5634],[10.4779,44.568],[10.4775,44.569],[10.483,44.5712],[10.4971,44.5738],[10.5057,44.5656],[10.5127,44.5664],[10.5265,44.5657],[10.5274,44.5644],[10.5284,44.5548],[10.531,44.5471],[10.5368,44.5368],[10.5382,44.536],[10.5406,44.537]]]}},{"type":"Feature","properties":{"i":"035014","n":"Castellarano"},"geometry":{"type":"Polygon","coordinates":[[[10.7058,44.5659],[10.7114,44.5652],[10.7255,44.5613],[10.7348,44.5565],[10.7593,44.549],[10.7598,44.5487],[10.7578,44.5455],[10.761,44.5426],[10.765,44.5404],[10.7427,44.5125],[10.7297,44.5009],[10.7229,44.4992],[10.7026,44.488],[10.6988,44.4847],[10.693,44.4776],[10.6872,44.4736],[10.6843,44.4723],[10.6736,44.4702],[10.6682,44.4678],[10.6672,44.4711],[10.6618,44.4756],[10.6542,44.4785],[10.6552,44.5003],[10.6667,44.5127],[10.6691,44.5201],[10.6677,44.5233],[10.6623,44.5249],[10.6569,44.5283],[10.6566,44.5301],[10.6588,44.5368],[10.6689,44.5393],[10.6707,44.5404],[10.6721,44.5428],[10.6723,44.5462],[10.6795,44.5544],[10.678,44.5609],[10.6749,44.5647],[10.675,44.5668],[10.6838,44.5709],[10.7058,44.5659]]]}},{"type":"Feature","properties":{"i":"035015","n":"Castelnovo di Sotto"},"geometry":{"type":"Polygon","coordinates":[[[10.6281,44.836],[10.6155,44.8169],[10.5984,44.7996],[10.5953,44.7973],[10.5788,44.7903],[10.5763,44.7902],[10.5744,44.7936],[10.559,44.791],[10.5288,44.8],[10.5365,44.8129],[10.5335,44.8159],[10.53,44.8167],[10.5388,44.8312],[10.5433,44.8321],[10.5498,44.831],[10.5631,44.8348],[10.5689,44.8378],[10.5814,44.8424],[10.5673,44.8469],[10.5715,44.8534],[10.5827,44.8771],[10.5835,44.8768],[10.578,44.8627],[10.5967,44.8557],[10.5972,44.8477],[10.6069,44.8427],[10.6104,44.8429],[10.6281,44.836]]]}},{"type":"Feature","properties":{"i":"035016","n":"Castelnovo ne' Monti"},"geometry":{"type":"Polygon","coordinates":[[[10.4675,44.4895],[10.4706,44.4857],[10.4728,44.4786],[10.4726,44.4727],[10.4758,44.4637],[10.4823,44.4531],[10.4827,44.4446],[10.4816,44.4414],[10.4793,44.4394],[10.4654,44.4363],[10.4587,44.4331],[10.4577,44.4297],[10.4594,44.4248],[10.4676,44.4172],[10.4691,44.4111],[10.4683,44.4104],[10.4687,44.4049],[10.4603,44.3984],[10.4535,44.3943],[10.4477,44.3921],[10.4231,44.3867],[10.3822,44.3856],[10.3712,44.3843],[10.3693,44.3893],[10.3655,44.396],[10.3612,44.3983],[10.3565,44.399],[10.3437,44.4126],[10.3279,44.4201],[10.3308,44.4284],[10.3353,44.4294],[10.3575,44.4424],[10.3742,44.4481],[10.3833,44.4482],[10.3884,44.4642],[10.3941,44.4671],[10.4064,44.4677],[10.4126,44.4731],[10.4145,44.4752],[10.4156,44.4781],[10.4114,44.482],[10.4118,44.485],[10.4146,44.4893],[10.4178,44.4906],[10.4194,44.4968],[10.4134,44.5007],[10.4303,44.5163],[10.4298,44.5174],[10.4357,44.5253],[10.4401,44.5222],[10.4379,44.5209],[10.4364,44.5178],[10.4375,44.5136],[10.4406,44.5099],[10.4518,44.4999],[10.453,44.497],[10.4591,44.4928],[10.4675,44.4895]]]}},{"type":"Feature","properties":{"i":"035017","n":"Cavriago"},"geometry":{"type":"Polygon","coordinates":[[[10.513,44.6741],[10.5087,44.6767],[10.5054,44.6805],[10.5092,44.683],[10.5117,44.6858],[10.5115,44.6935],[10.5031,44.7023],[10.4963,44.7038],[10.5045,44.7177],[10.5073,44.7253],[10.5128,44.7248],[10.5184,44.7254],[10.5253,44.7235],[10.5274,44.7218],[10.5423,44.7177],[10.5454,44.718],[10.5531,44.7209],[10.5639,44.7171],[10.5554,44.7063],[10.5486,44.6954],[10.5405,44.6895],[10.5392,44.6862],[10.5348,44.6816],[10.5291,44.6807],[10.513,44.6741]]]}},{"type":"Feature","properties":{"i":"035018","n":"Canossa"},"geometry":{"type":"Polygon","coordinates":[[[10.4705,44.5766],[10.4779,44.568],[10.4769,44.5634],[10.471,44.5618],[10.468,44.558],[10.4684,44.5518],[10.4722,44.5467],[10.4708,44.5451],[10.4676,44.5436],[10.4615,44.5474],[10.4573,44.5486],[10.4516,44.5476],[10.4431,44.5512],[10.4376,44.5517],[10.434,44.5477],[10.4282,44.5431],[10.4171,44.5385],[10.4148,44.527],[10.4156,44.5211],[10.4175,44.5193],[10.4257,44.5172],[10.4298,44.5174],[10.4304,44.5165],[10.4267,44.5124],[10.4153,44.503],[10.4134,44.5007],[10.4144,44.4995],[10.4113,44.5002],[10.3929,44.499],[10.3826,44.5052],[10.369,44.5095],[10.3623,44.5133],[10.351,44.5254],[10.3545,44.5329],[10.3621,44.5421],[10.3682,44.5448],[10.3756,44.545],[10.3848,44.5489],[10.397,44.5577],[10.4016,44.5629],[10.4024,44.5682],[10.4024,44.5754],[10.3991,44.5855],[10.4024,44.593],[10.4015,44.6022],[10.4026,44.6164],[10.4086,44.6141],[10.4203,44.6057],[10.4329,44.5953],[10.4348,44.5916],[10.4346,44.59],[10.436,44.5863],[10.4402,44.5829],[10.4543,44.5848],[10.4636,44.5787],[10.4705,44.5766]]]}},{"type":"Feature","properties":{"i":"035020","n":"Correggio"},"geometry":{"type":"Polygon","coordinates":[[[10.7738,44.8116],[10.7712,44.8078],[10.7643,44.8014],[10.7611,44.7975],[10.7701,44.796],[10.7704,44.7974],[10.7799,44.7989],[10.7911,44.7996],[10.792,44.8013],[10.8031,44.8023],[10.8106,44.8007],[10.815,44.8072],[10.8184,44.8041],[10.8368,44.7978],[10.8398,44.7932],[10.8382,44.7828],[10.8259,44.7639],[10.8181,44.7602],[10.8162,44.7574],[10.8155,44.7546],[10.8176,44.7491],[10.8176,44.747],[10.8154,44.7416],[10.805,44.7446],[10.7949,44.7436],[10.778,44.7396],[10.7725,44.7356],[10.7671,44.7229],[10.7698,44.7181],[10.7675,44.7131],[10.7663,44.7129],[10.7554,44.7053],[10.7463,44.7015],[10.743,44.6954],[10.7386,44.6984],[10.7349,44.6996],[10.7265,44.7006],[10.7184,44.7174],[10.7188,44.7276],[10.7224,44.7314],[10.7246,44.736],[10.7256,44.7409],[10.7189,44.7458],[10.7067,44.7598],[10.7054,44.767],[10.7039,44.7698],[10.7025,44.7755],[10.7209,44.787],[10.7316,44.7902],[10.7306,44.796],[10.7338,44.7964],[10.738,44.8072],[10.7464,44.8068],[10.7524,44.8096],[10.7537,44.8124],[10.7525,44.8126],[10.753,44.8144],[10.757,44.8162],[10.7615,44.8156],[10.7651,44.8134],[10.7738,44.8116]]]}},{"type":"Feature","properties":{"i":"035021","n":"Fabbrico"},"geometry":{"type":"Polygon","coordinates":[[[10.8501,44.8665],[10.8468,44.8601],[10.8374,44.8618],[10.8338,44.8586],[10.8161,44.8501],[10.8134,44.8501],[10.8043,44.8524],[10.7991,44.852],[10.797,44.8506],[10.7861,44.8607],[10.7754,44.8688],[10.7723,44.8772],[10.7782,44.8832],[10.7809,44.8818],[10.7877,44.8894],[10.7939,44.8988],[10.8032,44.8964],[10.8149,44.8945],[10.8231,44.8976],[10.8305,44.9023],[10.842,44.9034],[10.843,44.9027],[10.8417,44.894],[10.8455,44.8846],[10.8439,44.8759],[10.842,44.871],[10.8501,44.8665]]]}},{"type":"Feature","properties":{"i":"035022","n":"Gattatico"},"geometry":{"type":"Polygon","coordinates":[[[10.4706,44.8332],[10.4668,44.8297],[10.4657,44.825],[10.4701,44.8242],[10.4733,44.8246],[10.4781,44.8277],[10.4851,44.8304],[10.5,44.8313],[10.5089,44.8288],[10.5086,44.8256],[10.5174,44.8208],[10.5335,44.8159],[10.5365,44.8129],[10.5288,44.8],[10.5188,44.797],[10.5126,44.7969],[10.4852,44.7845],[10.4837,44.7826],[10.4828,44.7735],[10.4758,44.7727],[10.4751,44.7692],[10.4735,44.7684],[10.4661,44.766],[10.4574,44.766],[10.4336,44.7678],[10.4316,44.7673],[10.4297,44.7655],[10.4351,44.7542],[10.4355,44.7506],[10.4331,44.7486],[10.4288,44.7484],[10.4297,44.7531],[10.4232,44.7953],[10.4238,44.799],[10.4248,44.7997],[10.4314,44.7999],[10.4375,44.8058],[10.4421,44.8196],[10.4409,44.8215],[10.441,44.824],[10.4454,44.8278],[10.4509,44.8287],[10.4547,44.8307],[10.4552,44.833],[10.4674,44.834],[10.4706,44.8332]]]}},{"type":"Feature","properties":{"i":"035023","n":"Gualtieri"},"geometry":{"type":"Polygon","coordinates":[[[10.6412,44.8526],[10.6353,44.8464],[10.6281,44.836],[10.6104,44.8429],[10.6069,44.8427],[10.5972,44.8477],[10.5967,44.8557],[10.578,44.8627],[10.5835,44.8768],[10.5957,44.8777],[10.594,44.8856],[10.5953,44.8891],[10.5909,44.8987],[10.5901,44.905],[10.5924,44.9148],[10.5988,44.9147],[10.617,44.9235],[10.6252,44.9256],[10.6362,44.9194],[10.6484,44.908],[10.6488,44.9049],[10.638,44.8799],[10.6385,44.8765],[10.6437,44.8708],[10.6453,44.8661],[10.645,44.862],[10.6412,44.8526]]]}},{"type":"Feature","properties":{"i":"035024","n":"Guastalla"},"geometry":{"type":"Polygon","coordinates":[[[10.7492,44.9223],[10.749,44.9192],[10.751,44.9129],[10.7475,44.9083],[10.7399,44.9084],[10.724,44.8899],[10.7284,44.8866],[10.731,44.8863],[10.6941,44.8793],[10.6841,44.8756],[10.6764,44.8669],[10.6615,44.8617],[10.6412,44.8526],[10.645,44.862],[10.6453,44.8661],[10.6437,44.8708],[10.6385,44.8765],[10.638,44.8799],[10.6482,44.9032],[10.6488,44.9066],[10.6473,44.9091],[10.6383,44.9177],[10.6279,44.9242],[10.6309,44.9302],[10.6394,44.9394],[10.6503,44.9481],[10.6749,44.9389],[10.6779,44.9348],[10.688,44.9315],[10.694,44.9307],[10.702,44.9315],[10.7113,44.9313],[10.7235,44.9285],[10.7335,44.9238],[10.7407,44.9223],[10.7492,44.9223]]]}},{"type":"Feature","properties":{"i":"035026","n":"Luzzara"},"geometry":{"type":"Polygon","coordinates":[[[10.7482,44.9627],[10.7428,44.9539],[10.7446,44.9489],[10.7665,44.9457],[10.7707,44.9441],[10.7666,44.9384],[10.757,44.932],[10.7511,44.9257],[10.7492,44.9223],[10.7407,44.9223],[10.7335,44.9238],[10.7235,44.9285],[10.7113,44.9313],[10.702,44.9315],[10.694,44.9307],[10.688,44.9315],[10.6779,44.9348],[10.6749,44.9389],[10.6503,44.9481],[10.6547,44.9543],[10.6562,44.9578],[10.6647,44.9689],[10.6789,44.9764],[10.6867,44.9866],[10.696,44.9745],[10.6936,44.9695],[10.6891,44.9674],[10.688,44.9659],[10.6922,44.9621],[10.6956,44.9621],[10.7022,44.9651],[10.7108,44.9731],[10.7121,44.9764],[10.7113,44.983],[10.7132,44.9861],[10.7274,44.992],[10.7316,44.9914],[10.7382,44.9854],[10.7411,44.9809],[10.7424,44.9721],[10.7482,44.9627]]]}},{"type":"Feature","properties":{"i":"035027","n":"Montecchio Emilia"},"geometry":{"type":"Polygon","coordinates":[[[10.4923,44.7294],[10.4908,44.7265],[10.5021,44.7223],[10.4972,44.713],[10.4921,44.7078],[10.4844,44.7048],[10.4801,44.6982],[10.4767,44.6955],[10.4737,44.6949],[10.4709,44.693],[10.4615,44.6832],[10.4464,44.6789],[10.4411,44.6758],[10.4407,44.674],[10.4278,44.6746],[10.419,44.6762],[10.4293,44.695],[10.4422,44.7128],[10.4458,44.7157],[10.4471,44.7177],[10.4463,44.7261],[10.4415,44.7305],[10.456,44.7415],[10.4563,44.743],[10.4654,44.7428],[10.4725,44.7382],[10.4717,44.7336],[10.4795,44.7298],[10.4864,44.7301],[10.4923,44.7294]]]}},{"type":"Feature","properties":{"i":"035028","n":"Novellara"},"geometry":{"type":"Polygon","coordinates":[[[10.7782,44.8896],[10.7538,44.8648],[10.7451,44.8591],[10.7424,44.8552],[10.7452,44.8515],[10.7461,44.8456],[10.746,44.8422],[10.7438,44.8371],[10.7222,44.8221],[10.7285,44.8157],[10.7376,44.8094],[10.738,44.8072],[10.7338,44.7964],[10.7229,44.7955],[10.7087,44.7922],[10.6962,44.7979],[10.6915,44.8046],[10.6865,44.808],[10.669,44.8164],[10.6594,44.8194],[10.6578,44.8239],[10.6603,44.8349],[10.6601,44.8416],[10.6553,44.8447],[10.6588,44.8555],[10.6585,44.8601],[10.6764,44.8669],[10.6841,44.8756],[10.6941,44.8793],[10.731,44.8863],[10.7419,44.8976],[10.7674,44.8821],[10.7782,44.8896]]]}},{"type":"Feature","properties":{"i":"035029","n":"Poviglio"},"geometry":{"type":"Polygon","coordinates":[[[10.5322,44.8815],[10.5477,44.8777],[10.5543,44.8784],[10.5589,44.8804],[10.5827,44.8771],[10.5715,44.8534],[10.5673,44.8469],[10.5814,44.8424],[10.5689,44.8378],[10.5631,44.8348],[10.5498,44.831],[10.5433,44.8321],[10.5388,44.8312],[10.53,44.8167],[10.5174,44.8208],[10.5086,44.8256],[10.5089,44.8288],[10.5,44.8313],[10.4851,44.8304],[10.4781,44.8277],[10.4733,44.8246],[10.4701,44.8242],[10.4657,44.825],[10.4668,44.8297],[10.4708,44.8337],[10.4747,44.8428],[10.4734,44.8491],[10.4732,44.8542],[10.4835,44.8542],[10.4866,44.8622],[10.4876,44.8703],[10.4948,44.8796],[10.4995,44.8815],[10.5067,44.8825],[10.5169,44.8823],[10.5235,44.8809],[10.5322,44.8815]]]}},{"type":"Feature","properties":{"i":"035030","n":"Quattro Castella"},"geometry":{"type":"Polygon","coordinates":[[[10.5852,44.6377],[10.5746,44.6274],[10.5705,44.6259],[10.5649,44.6214],[10.5648,44.6191],[10.5689,44.6146],[10.5698,44.6059],[10.5683,44.6047],[10.5667,44.6048],[10.5614,44.6102],[10.5469,44.6133],[10.514,44.6096],[10.5007,44.6024],[10.4979,44.5996],[10.4982,44.5987],[10.4973,44.5978],[10.4935,44.5949],[10.4886,44.5928],[10.4826,44.5929],[10.4795,44.5999],[10.4821,44.6102],[10.4815,44.6122],[10.4783,44.6124],[10.4684,44.6101],[10.4601,44.6109],[10.4564,44.6133],[10.4526,44.636],[10.4532,44.6384],[10.4721,44.6533],[10.482,44.6524],[10.5062,44.654],[10.5092,44.6553],[10.5092,44.654],[10.5179,44.6508],[10.5278,44.6532],[10.5389,44.6533],[10.5472,44.6524],[10.5521,44.6542],[10.5528,44.656],[10.5628,44.6534],[10.5656,44.6501],[10.5668,44.6431],[10.577,44.6405],[10.5785,44.6426],[10.5805,44.6434],[10.5877,44.643],[10.5852,44.6377]]]}},{"type":"Feature","properties":{"i":"035032","n":"Reggiolo"},"geometry":{"type":"Polygon","coordinates":[[[10.874,44.9218],[10.8766,44.9171],[10.8722,44.9164],[10.8699,44.9149],[10.8742,44.9054],[10.8305,44.9023],[10.8231,44.8976],[10.8138,44.8944],[10.7886,44.9001],[10.7782,44.8896],[10.7674,44.8821],[10.7419,44.8976],[10.731,44.8863],[10.7284,44.8866],[10.724,44.8899],[10.7399,44.9084],[10.7475,44.9083],[10.751,44.9129],[10.7489,44.9199],[10.749,44.9219],[10.7511,44.9257],[10.757,44.932],[10.7666,44.9384],[10.7707,44.9441],[10.7768,44.942],[10.7924,44.9397],[10.8088,44.9361],[10.8125,44.9378],[10.8401,44.9319],[10.8415,44.93],[10.8477,44.9257],[10.8654,44.9296],[10.867,44.9282],[10.866,44.9236],[10.8676,44.9221],[10.8713,44.9209],[10.874,44.9218]]]}},{"type":"Feature","properties":{"i":"035033","n":"Reggio nell'Emilia"},"geometry":{"type":"Polygon","coordinates":[[[10.6501,44.7661],[10.6506,44.7631],[10.6569,44.7564],[10.6666,44.7516],[10.674,44.7496],[10.6841,44.7541],[10.689,44.7574],[10.6902,44.7598],[10.6891,44.7606],[10.6928,44.765],[10.7014,44.7624],[10.7058,44.7622],[10.7067,44.7598],[10.7113,44.7537],[10.7189,44.7458],[10.7256,44.7409],[10.7246,44.736],[10.7224,44.7314],[10.7188,44.7276],[10.7184,44.7174],[10.7265,44.7006],[10.7349,44.6996],[10.7386,44.6984],[10.743,44.6954],[10.7395,44.6873],[10.7536,44.682],[10.7582,44.6817],[10.7557,44.677],[10.756,44.6748],[10.7586,44.6674],[10.7615,44.6648],[10.7629,44.6608],[10.7633,44.653],[10.77,44.6448],[10.7711,44.6413],[10.771,44.6375],[10.7532,44.6309],[10.7369,44.6272],[10.7344,44.6279],[10.7318,44.6316],[10.7308,44.6412],[10.7288,44.6439],[10.7258,44.6461],[10.715,44.6442],[10.7125,44.6424],[10.7085,44.6376],[10.7041,44.6291],[10.704,44.6281],[10.7067,44.6279],[10.7062,44.6243],[10.6978,44.6252],[10.6776,44.6315],[10.6745,44.6342],[10.676,44.6359],[10.676,44.637],[10.674,44.6393],[10.6717,44.6391],[10.6624,44.6307],[10.6401,44.6375],[10.632,44.6372],[10.6323,44.6367],[10.6309,44.6356],[10.626,44.6351],[10.6114,44.6427],[10.608,44.6468],[10.6017,44.6444],[10.5883,44.6363],[10.5852,44.6377],[10.5877,44.643],[10.5805,44.6434],[10.5785,44.6426],[10.577,44.6405],[10.5668,44.6431],[10.5656,44.6501],[10.5628,44.6534],[10.5541,44.6557],[10.5528,44.656],[10.5521,44.6542],[10.5472,44.6524],[10.5389,44.6533],[10.5278,44.6532],[10.5179,44.6508],[10.5092,44.654],[10.5092,44.6553],[10.5114,44.6583],[10.5186,44.6641],[10.5147,44.6695],[10.5119,44.6702],[10.5093,44.6726],[10.5291,44.6807],[10.5348,44.6816],[10.5392,44.6862],[10.5405,44.6895],[10.5486,44.6954],[10.5554,44.7063],[10.5639,44.7171],[10.5531,44.7209],[10.5454,44.718],[10.5423,44.7177],[10.5274,44.7218],[10.5253,44.7235],[10.5184,44.7254],[10.5128,44.7248],[10.5073,44.7253],[10.5021,44.7223],[10.4912,44.7263],[10.4937,44.734],[10.5023,44.7487],[10.5103,44.7505],[10.5139,44.7544],[10.5117,44.7555],[10.5141,44.7565],[10.5514,44.7685],[10.5607,44.7732],[10.5554,44.7646],[10.5767,44.7584],[10.589,44.7491],[10.5998,44.7518],[10.6017,44.753],[10.6101,44.7643],[10.6116,44.7727],[10.6136,44.7734],[10.6241,44.7711],[10.6312,44.7679],[10.64,44.7705],[10.6494,44.7679],[10.6501,44.7661]]]}},{"type":"Feature","properties":{"i":"035034","n":"Rio Saliceto"},"geometry":{"type":"Polygon","coordinates":[[[10.8468,44.8601],[10.844,44.8546],[10.8387,44.8521],[10.8363,44.8484],[10.8374,44.8443],[10.8121,44.8021],[10.8106,44.8007],[10.8031,44.8023],[10.792,44.8013],[10.7911,44.7996],[10.7799,44.7989],[10.7704,44.7974],[10.7701,44.796],[10.7611,44.7976],[10.7712,44.8078],[10.7738,44.8116],[10.7757,44.8229],[10.7786,44.8314],[10.797,44.8506],[10.7991,44.852],[10.8043,44.8524],[10.8153,44.8499],[10.8338,44.8586],[10.8374,44.8618],[10.8468,44.8601]]]}},{"type":"Feature","properties":{"i":"035035","n":"Rolo"},"geometry":{"type":"Polygon","coordinates":[[[10.8879,44.9143],[10.8803,44.9043],[10.8771,44.9019],[10.8774,44.8932],[10.881,44.8894],[10.8808,44.8706],[10.8781,44.8675],[10.8729,44.8658],[10.8564,44.8652],[10.8475,44.8675],[10.842,44.871],[10.8439,44.8759],[10.8455,44.8846],[10.8417,44.894],[10.843,44.9027],[10.842,44.9034],[10.8742,44.9054],[10.8699,44.9149],[10.8722,44.9164],[10.898,44.9218],[10.8897,44.9175],[10.8879,44.9143]]]}},{"type":"Feature","properties":{"i":"035036","n":"Rubiera"},"geometry":{"type":"Polygon","coordinates":[[[10.809,44.7031],[10.8075,44.7014],[10.8062,44.697],[10.8173,44.6918],[10.8129,44.6612],[10.8153,44.6565],[10.8046,44.6552],[10.7964,44.6525],[10.7949,44.6501],[10.7942,44.6415],[10.7932,44.6387],[10.7891,44.6343],[10.7832,44.6309],[10.782,44.6278],[10.771,44.6375],[10.7711,44.6413],[10.77,44.6448],[10.7633,44.653],[10.7629,44.6608],[10.7615,44.6648],[10.7586,44.6674],[10.7557,44.677],[10.7582,44.6817],[10.7618,44.6858],[10.7734,44.6894],[10.7831,44.6969],[10.7866,44.7019],[10.802,44.7044],[10.809,44.7031]]]}},{"type":"Feature","properties":{"i":"035037","n":"San Martino in Rio"},"geometry":{"type":"Polygon","coordinates":[[[10.8154,44.7416],[10.8181,44.7384],[10.8198,44.7297],[10.8157,44.7162],[10.8097,44.7033],[10.802,44.7044],[10.7866,44.7019],[10.7831,44.6969],[10.7734,44.6894],[10.7618,44.6858],[10.7582,44.6817],[10.7536,44.682],[10.7395,44.6873],[10.7413,44.6925],[10.7463,44.7015],[10.7554,44.7053],[10.7663,44.7129],[10.7675,44.7131],[10.7698,44.7181],[10.7671,44.7229],[10.7725,44.7356],[10.778,44.7396],[10.7949,44.7436],[10.805,44.7446],[10.8154,44.7416]]]}},{"type":"Feature","properties":{"i":"035038","n":"San Polo d'Enza"},"geometry":{"type":"Polygon","coordinates":[[[10.4407,44.674],[10.4398,44.6667],[10.4372,44.6575],[10.4433,44.6522],[10.4458,44.6486],[10.4476,44.638],[10.4526,44.636],[10.4561,44.6136],[10.4601,44.6109],[10.4695,44.6102],[10.4783,44.6124],[10.4815,44.6122],[10.4821,44.6109],[10.4795,44.5999],[10.4818,44.5959],[10.4826,44.5929],[10.4823,44.5897],[10.4734,44.5783],[10.4705,44.5766],[10.4636,44.5787],[10.4543,44.5848],[10.4402,44.5829],[10.436,44.5863],[10.4346,44.59],[10.4348,44.5916],[10.4329,44.5953],[10.4203,44.6057],[10.4086,44.6141],[10.4026,44.6164],[10.4099,44.6207],[10.4144,44.6288],[10.4168,44.6416],[10.4138,44.6659],[10.4154,44.6669],[10.419,44.6762],[10.4278,44.6746],[10.4407,44.674]]]}},{"type":"Feature","properties":{"i":"035039","n":"Sant'Ilario d'Enza"},"geometry":{"type":"Polygon","coordinates":[[[10.5117,44.7555],[10.5139,44.7544],[10.5103,44.7505],[10.5023,44.7487],[10.496,44.7385],[10.4923,44.7294],[10.4864,44.7301],[10.4795,44.7298],[10.4717,44.7336],[10.4725,44.7382],[10.4654,44.7428],[10.4563,44.743],[10.456,44.7415],[10.4415,44.7305],[10.4358,44.7347],[10.4264,44.7381],[10.425,44.7401],[10.4283,44.7488],[10.4309,44.748],[10.4331,44.7486],[10.4355,44.7506],[10.4351,44.7542],[10.4297,44.7655],[10.4316,44.7673],[10.4336,44.7678],[10.4574,44.766],[10.4661,44.766],[10.4751,44.7692],[10.4758,44.7727],[10.4828,44.7735],[10.4852,44.7701],[10.4884,44.7623],[10.4954,44.76],[10.5,44.7615],[10.5101,44.7613],[10.5166,44.7591],[10.5134,44.757],[10.5116,44.7577],[10.506,44.7565],[10.506,44.7555],[10.5091,44.7541],[10.5117,44.7555]]]}},{"type":"Feature","properties":{"i":"035040","n":"Scandiano"},"geometry":{"type":"Polygon","coordinates":[[[10.7369,44.6272],[10.7387,44.6259],[10.7364,44.6212],[10.7418,44.6166],[10.7484,44.6178],[10.7574,44.6164],[10.7559,44.6101],[10.7522,44.6045],[10.751,44.6034],[10.7401,44.6055],[10.7323,44.6057],[10.7279,44.6053],[10.726,44.6038],[10.7229,44.5982],[10.7222,44.5907],[10.7196,44.5864],[10.7127,44.5807],[10.709,44.5794],[10.7068,44.5765],[10.7058,44.5735],[10.7058,44.5659],[10.6838,44.5709],[10.675,44.5668],[10.6749,44.5647],[10.678,44.5609],[10.6795,44.5544],[10.6723,44.5462],[10.6717,44.5418],[10.6689,44.5393],[10.6493,44.5592],[10.649,44.5665],[10.653,44.5685],[10.6538,44.5723],[10.6376,44.5729],[10.6353,44.5764],[10.6359,44.5809],[10.6377,44.5837],[10.6494,44.5949],[10.6528,44.5958],[10.6589,44.596],[10.6599,44.5974],[10.6549,44.6102],[10.6555,44.6148],[10.6608,44.629],[10.6717,44.6391],[10.674,44.6393],[10.6754,44.6381],[10.676,44.6359],[10.6745,44.6342],[10.6776,44.6315],[10.6978,44.6252],[10.7062,44.6243],[10.7067,44.6279],[10.704,44.6281],[10.7041,44.6291],[10.7106,44.6404],[10.715,44.6442],[10.7258,44.6461],[10.7288,44.6439],[10.7308,44.6412],[10.7318,44.6316],[10.7344,44.6279],[10.7369,44.6272]]]}},{"type":"Feature","properties":{"i":"035041","n":"Toano"},"geometry":{"type":"Polygon","coordinates":[[[10.5904,44.4109],[10.6052,44.4065],[10.6215,44.4059],[10.6223,44.398],[10.624,44.3908],[10.619,44.3793],[10.6127,44.3737],[10.5958,44.3634],[10.5891,44.3614],[10.5855,44.3619],[10.5512,44.3598],[10.5387,44.3552],[10.5277,44.35],[10.5263,44.3439],[10.5235,44.3451],[10.5187,44.3458],[10.5047,44.3426],[10.5024,44.3429],[10.5005,44.3473],[10.5006,44.3513],[10.4975,44.3584],[10.4908,44.3626],[10.4844,44.3691],[10.476,44.3796],[10.4724,44.3829],[10.4712,44.3856],[10.4717,44.3937],[10.4768,44.3941],[10.4804,44.3955],[10.4791,44.3975],[10.4723,44.4024],[10.4719,44.4057],[10.4755,44.4079],[10.4797,44.4077],[10.4879,44.4057],[10.5191,44.407],[10.5244,44.4115],[10.5353,44.4166],[10.5564,44.4193],[10.5739,44.4196],[10.5877,44.4113],[10.5904,44.4109]]]}},{"type":"Feature","properties":{"i":"035042","n":"Vetto"},"geometry":{"type":"Polygon","coordinates":[[[10.4144,44.4995],[10.4194,44.4968],[10.4178,44.4906],[10.4146,44.4893],[10.4118,44.485],[10.4114,44.482],[10.4156,44.4781],[10.4145,44.4752],[10.4106,44.4713],[10.4064,44.4677],[10.3941,44.4671],[10.3884,44.4642],[10.3833,44.4482],[10.3742,44.4481],[10.3653,44.4455],[10.3575,44.4424],[10.3353,44.4294],[10.3308,44.4284],[10.3202,44.4462],[10.3148,44.4503],[10.3117,44.4515],[10.307,44.4498],[10.2924,44.4517],[10.2897,44.4539],[10.2876,44.459],[10.2854,44.46],[10.3012,44.4693],[10.3264,44.4808],[10.3322,44.4854],[10.3324,44.487],[10.3309,44.4887],[10.332,44.4952],[10.3357,44.4971],[10.3388,44.5038],[10.3392,44.5084],[10.3381,44.5121],[10.3385,44.5162],[10.3412,44.5238],[10.3425,44.5257],[10.3448,44.5271],[10.3534,44.53],[10.3513,44.5266],[10.3515,44.5246],[10.3623,44.5133],[10.369,44.5095],[10.3826,44.5052],[10.3929,44.499],[10.4113,44.5002],[10.4144,44.4995]]]}},{"type":"Feature","properties":{"i":"035043","n":"Vezzano sul Crostolo"},"geometry":{"type":"Polygon","coordinates":[[[10.5667,44.6048],[10.5697,44.6023],[10.5704,44.5933],[10.5675,44.5915],[10.5596,44.5836],[10.5548,44.5814],[10.5519,44.5751],[10.5519,44.5719],[10.5597,44.5642],[10.5676,44.5538],[10.5684,44.5511],[10.5667,44.5436],[10.5637,44.5391],[10.5572,44.536],[10.5504,44.535],[10.5406,44.537],[10.5382,44.536],[10.5372,44.5364],[10.5351,44.5388],[10.531,44.5471],[10.5284,44.5548],[10.5274,44.5644],[10.5265,44.5657],[10.5127,44.5664],[10.5057,44.5656],[10.4971,44.5738],[10.483,44.5712],[10.4775,44.569],[10.4705,44.5766],[10.4734,44.5783],[10.4823,44.5897],[10.4826,44.5929],[10.4886,44.5928],[10.4935,44.5949],[10.498,44.5984],[10.4979,44.5996],[10.5007,44.6024],[10.514,44.6096],[10.5469,44.6133],[10.5614,44.6102],[10.5667,44.6048]]]}},{"type":"Feature","properties":{"i":"035044","n":"Viano"},"geometry":{"type":"Polygon","coordinates":[[[10.6376,44.5729],[10.6538,44.5723],[10.653,44.5685],[10.649,44.5665],[10.6493,44.5592],[10.6689,44.5393],[10.6588,44.5368],[10.6386,44.5446],[10.6326,44.5457],[10.6233,44.5422],[10.6185,44.5381],[10.6208,44.5347],[10.6014,44.5265],[10.592,44.5238],[10.5822,44.5222],[10.5806,44.5212],[10.5751,44.5165],[10.571,44.5114],[10.5668,44.4998],[10.5585,44.5048],[10.5433,44.5168],[10.5415,44.527],[10.5432,44.5333],[10.5406,44.537],[10.5491,44.5351],[10.5572,44.536],[10.5637,44.5391],[10.5667,44.5436],[10.5684,44.5511],[10.5676,44.5538],[10.5597,44.5642],[10.5519,44.5719],[10.5519,44.5751],[10.5548,44.5814],[10.5596,44.5836],[10.5675,44.5915],[10.5684,44.5884],[10.5707,44.5869],[10.5808,44.5859],[10.618,44.5714],[10.6261,44.5717],[10.6314,44.5742],[10.6376,44.5729]]]}},{"type":"Feature","properties":{"i":"035045","n":"Villa Minozzo"},"geometry":{"type":"Polygon","coordinates":[[[10.5263,44.3439],[10.5259,44.3427],[10.5269,44.3358],[10.5253,44.328],[10.5159,44.3135],[10.5116,44.3026],[10.5109,44.298],[10.516,44.2822],[10.5104,44.274],[10.5071,44.2713],[10.4966,44.2653],[10.4892,44.2643],[10.487,44.263],[10.4845,44.2352],[10.4807,44.2316],[10.4725,44.2288],[10.4701,44.2261],[10.4664,44.2297],[10.452,44.2295],[10.4426,44.2282],[10.4388,44.2261],[10.4321,44.2264],[10.414,44.2358],[10.4074,44.2493],[10.4143,44.2613],[10.4183,44.2665],[10.418,44.2685],[10.3921,44.2793],[10.3865,44.2825],[10.3781,44.2893],[10.3736,44.2983],[10.3735,44.299],[10.378,44.2994],[10.3895,44.2989],[10.3938,44.3025],[10.3993,44.309],[10.4021,44.3147],[10.4006,44.3179],[10.3898,44.3245],[10.3796,44.3335],[10.367,44.3395],[10.3605,44.3481],[10.3395,44.3458],[10.336,44.3601],[10.3408,44.3665],[10.3516,44.3743],[10.3693,44.3841],[10.3822,44.3856],[10.424,44.3868],[10.4494,44.3927],[10.4603,44.3984],[10.4687,44.4049],[10.4719,44.4057],[10.4723,44.4024],[10.4791,44.3975],[10.4804,44.3955],[10.4768,44.3941],[10.4717,44.3937],[10.4711,44.3876],[10.4719,44.3837],[10.4908,44.3626],[10.4975,44.3584],[10.5006,44.3513],[10.5005,44.3473],[10.5024,44.3429],[10.5047,44.3426],[10.5187,44.3458],[10.5235,44.3451],[10.5263,44.3439]]]}},{"type":"Feature","properties":{"i":"035046","n":"Ventasso"},"geometry":{"type":"Polygon","coordinates":[[[10.3308,44.4284],[10.3279,44.4208],[10.3283,44.4195],[10.3437,44.4126],[10.3565,44.399],[10.3612,44.3983],[10.3655,44.396],[10.3693,44.3893],[10.3712,44.3843],[10.3657,44.3827],[10.3516,44.3743],[10.3408,44.3665],[10.3383,44.3638],[10.336,44.3601],[10.336,44.3585],[10.3395,44.3458],[10.3605,44.3481],[10.367,44.3395],[10.3796,44.3335],[10.3898,44.3245],[10.4006,44.3179],[10.4021,44.3147],[10.3993,44.309],[10.3938,44.3025],[10.3895,44.2989],[10.3735,44.299],[10.3775,44.2901],[10.3865,44.2825],[10.3921,44.2793],[10.418,44.2685],[10.4183,44.2665],[10.4143,44.2613],[10.4074,44.2493],[10.4013,44.2513],[10.377,44.2671],[10.3606,44.2715],[10.3506,44.2697],[10.3371,44.2715],[10.3141,44.2788],[10.3081,44.2841],[10.3005,44.2853],[10.2964,44.2852],[10.2849,44.2812],[10.273,44.276],[10.2683,44.2724],[10.2539,44.2686],[10.237,44.2816],[10.2303,44.295],[10.2263,44.3],[10.2181,44.3047],[10.2124,44.3028],[10.2069,44.3051],[10.2023,44.3118],[10.1992,44.3139],[10.1953,44.3159],[10.1932,44.3151],[10.1877,44.317],[10.1849,44.3215],[10.1679,44.3299],[10.1599,44.3447],[10.1445,44.3533],[10.142,44.3539],[10.1445,44.3578],[10.1461,44.3634],[10.1498,44.3706],[10.1599,44.3808],[10.1669,44.3844],[10.1696,44.3838],[10.1888,44.3873],[10.2033,44.3924],[10.2089,44.3959],[10.2238,44.4104],[10.2317,44.4302],[10.2358,44.435],[10.2514,44.4469],[10.2546,44.4517],[10.2633,44.4558],[10.2698,44.4581],[10.2854,44.46],[10.2876,44.459],[10.2897,44.4539],[10.2924,44.4517],[10.307,44.4498],[10.3117,44.4515],[10.3137,44.4508],[10.3202,44.4462],[10.3308,44.4284]]]}}]}
