{"type":"FeatureCollection","fonte":"Confini comunali ISTAT via openpolis/geojson-italy — CC BY 4.0","features":[{"type":"Feature","properties":{"i":"088001","n":"Acate"},"geometry":{"type":"Polygon","coordinates":[[[14.5441,37.053],[14.5439,37.0523],[14.5403,37.0533],[14.5367,37.053],[14.5359,37.051],[14.5319,37.0479],[14.5202,37.0455],[14.5136,37.0433],[14.5082,37.0366],[14.5032,37.0364],[14.5014,37.0399],[14.4997,37.035],[14.5003,37.0184],[14.5008,37.0115],[14.5029,37.0024],[14.4999,36.992],[14.4905,36.9832],[14.4868,36.9776],[14.4751,36.9718],[14.4533,36.9861],[14.4475,36.9867],[14.4406,36.9856],[14.4399,36.9836],[14.4401,36.9799],[14.4078,36.9722],[14.404,36.9667],[14.3978,36.9553],[14.3878,36.9501],[14.3626,36.9786],[14.3379,37.0016],[14.3398,37.0028],[14.3654,37.005],[14.3761,37.0142],[14.39,37.0247],[14.3945,37.0268],[14.4131,37.0296],[14.442,37.0509],[14.4459,37.0548],[14.4644,37.0503],[14.471,37.0505],[14.4757,37.0521],[14.4791,37.0548],[14.4959,37.0602],[14.5043,37.0638],[14.5176,37.0711],[14.534,37.0754],[14.5329,37.0653],[14.5341,37.0631],[14.5407,37.0589],[14.5437,37.0555],[14.5441,37.053]]]}},{"type":"Feature","properties":{"i":"088002","n":"Chiaramonte Gulfi"},"geometry":{"type":"Polygon","coordinates":[[[14.728,37.0249],[14.7206,37.0205],[14.7141,37.014],[14.7036,36.9963],[14.6982,36.9918],[14.6909,36.9978],[14.6715,36.9933],[14.6582,36.9873],[14.6536,36.9884],[14.6516,36.9909],[14.6486,36.9913],[14.6419,36.9969],[14.6367,36.9936],[14.6294,36.9927],[14.6259,36.9931],[14.6109,36.9995],[14.6044,37.0006],[14.6026,37.0033],[14.6042,37.0076],[14.6012,37.0172],[14.5988,37.0201],[14.5965,37.029],[14.5974,37.032],[14.6016,37.0377],[14.6016,37.0405],[14.5928,37.0401],[14.5798,37.0373],[14.5595,37.0351],[14.5561,37.0366],[14.5515,37.045],[14.5443,37.0465],[14.5438,37.0518],[14.5443,37.0533],[14.5469,37.0552],[14.5507,37.0562],[14.5589,37.0541],[14.5646,37.0518],[14.5684,37.0526],[14.5713,37.0547],[14.5799,37.0658],[14.5842,37.0694],[14.6076,37.0839],[14.6105,37.0867],[14.6093,37.0886],[14.6127,37.0917],[14.6144,37.0893],[14.6174,37.0805],[14.6204,37.0793],[14.639,37.0857],[14.6416,37.0858],[14.6487,37.1005],[14.6603,37.1067],[14.6631,37.1051],[14.6767,37.1012],[14.672,37.097],[14.6762,37.0806],[14.6796,37.0801],[14.6852,37.0813],[14.6905,37.0851],[14.7066,37.0892],[14.7102,37.0878],[14.7091,37.0862],[14.7101,37.082],[14.7175,37.0806],[14.7271,37.0808],[14.7332,37.0785],[14.7357,37.0674],[14.7356,37.0631],[14.7276,37.0457],[14.7251,37.0412],[14.7216,37.0371],[14.7258,37.0272],[14.728,37.0249]]]}},{"type":"Feature","properties":{"i":"088003","n":"Comiso"},"geometry":{"type":"Polygon","coordinates":[[[14.6486,36.9913],[14.6321,36.9785],[14.6485,36.9611],[14.6412,36.9523],[14.6405,36.949],[14.6472,36.948],[14.6481,36.9465],[14.6463,36.9434],[14.6425,36.9411],[14.6389,36.9415],[14.6261,36.9376],[14.6123,36.9298],[14.6021,36.9173],[14.5758,36.9148],[14.5747,36.9204],[14.5673,36.9249],[14.5628,36.9227],[14.5508,36.9115],[14.5493,36.9043],[14.5403,36.9082],[14.5383,36.9083],[14.5414,36.911],[14.5455,36.9205],[14.5411,36.9203],[14.5324,36.9242],[14.5309,36.9265],[14.5319,36.9382],[14.5486,36.9497],[14.5587,36.9502],[14.5764,36.9535],[14.5917,36.9616],[14.5973,36.9666],[14.5939,36.9718],[14.5907,36.9901],[14.5768,37.0067],[14.5677,37.0264],[14.5625,37.0341],[14.5595,37.0351],[14.5798,37.0373],[14.5928,37.0401],[14.6016,37.0405],[14.6016,37.0377],[14.5974,37.032],[14.5965,37.029],[14.5988,37.0201],[14.6012,37.0172],[14.6042,37.0076],[14.6026,37.0033],[14.6044,37.0006],[14.6109,36.9995],[14.6259,36.9931],[14.6294,36.9927],[14.6367,36.9936],[14.6419,36.9969],[14.6486,36.9913]]]}},{"type":"Feature","properties":{"i":"088004","n":"Giarratana"},"geometry":{"type":"Polygon","coordinates":[[[14.7939,37.132],[14.8001,37.1267],[14.8012,37.1244],[14.7972,37.1211],[14.7941,37.1155],[14.795,37.1136],[14.803,37.1102],[14.8097,37.1113],[14.8159,37.1136],[14.8181,37.112],[14.8166,37.1097],[14.8172,37.1026],[14.8182,37.0997],[14.82,37.0981],[14.8213,37.0949],[14.8222,37.0896],[14.8193,37.0821],[14.8198,37.0807],[14.8321,37.0712],[14.8332,37.0675],[14.8365,37.0645],[14.8431,37.0607],[14.8376,37.0596],[14.8332,37.0625],[14.8285,37.0679],[14.8249,37.0676],[14.822,37.0657],[14.8182,37.0597],[14.8183,37.054],[14.8259,37.0504],[14.8317,37.0492],[14.8356,37.0552],[14.8374,37.0555],[14.8405,37.0462],[14.8389,37.0434],[14.8401,37.0387],[14.8334,37.0278],[14.8322,37.019],[14.8278,37.0141],[14.8263,37.0172],[14.8256,37.0232],[14.8231,37.0249],[14.8143,37.0278],[14.8123,37.0256],[14.8114,37.0222],[14.8103,37.0153],[14.8109,37.0106],[14.8027,37.0093],[14.7901,37.0108],[14.7918,37.0214],[14.7791,37.0296],[14.7782,37.0416],[14.7752,37.0563],[14.7796,37.0649],[14.7787,37.0674],[14.7792,37.0711],[14.7839,37.0756],[14.7865,37.077],[14.789,37.0771],[14.7932,37.0815],[14.7975,37.0894],[14.798,37.0923],[14.7968,37.0977],[14.7955,37.0997],[14.7943,37.0999],[14.7925,37.1051],[14.7957,37.1064],[14.795,37.1089],[14.7887,37.1116],[14.7845,37.1156],[14.7739,37.1319],[14.7734,37.1351],[14.7754,37.1395],[14.778,37.1396],[14.7939,37.132]]]}},{"type":"Feature","properties":{"i":"088005","n":"Ispica"},"geometry":{"type":"MultiPolygon","coordinates":[[[[14.9322,36.6858],[14.9316,36.6864],[14.9325,36.6863],[14.9322,36.6858]]],[[[14.9412,36.8055],[14.9401,36.8002],[14.9412,36.7976],[14.9432,36.7964],[14.9536,36.8034],[14.9621,36.7967],[14.9852,36.7807],[14.9887,36.7765],[14.9922,36.7615],[14.9902,36.7575],[14.9865,36.7548],[14.9859,36.7514],[14.9883,36.7476],[14.9941,36.7435],[14.9958,36.7381],[14.9975,36.7314],[14.999,36.7202],[14.9989,36.7138],[14.9967,36.7089],[15.0004,36.7028],[14.9936,36.7011],[14.991,36.6982],[14.9732,36.6928],[14.9558,36.6944],[14.9396,36.7065],[14.9244,36.7166],[14.9103,36.7243],[14.901,36.7279],[14.8946,36.7294],[14.896,36.7308],[14.8928,36.7392],[14.8897,36.7434],[14.8807,36.7518],[14.8761,36.7519],[14.8696,36.7539],[14.8624,36.758],[14.862,36.7591],[14.8673,36.7649],[14.8672,36.7738],[14.8705,36.7765],[14.8724,36.7841],[14.8697,36.7936],[14.8638,36.8026],[14.8625,36.8116],[14.8625,36.8159],[14.8649,36.8156],[14.8648,36.817],[14.8679,36.8214],[14.8823,36.8247],[14.8905,36.8241],[14.8948,36.8177],[14.9023,36.814],[14.9127,36.8121],[14.9235,36.8138],[14.9412,36.8055]]]]}},{"type":"Feature","properties":{"i":"088006","n":"Modica"},"geometry":{"type":"MultiPolygon","coordinates":[[[[14.8405,36.9493],[14.8392,36.9465],[14.841,36.945],[14.8455,36.9457],[14.8484,36.9473],[14.8654,36.9439],[14.8727,36.9385],[14.8816,36.9355],[14.8968,36.9253],[14.8966,36.9233],[14.8915,36.9207],[14.8862,36.9196],[14.8785,36.9202],[14.8775,36.9194],[14.8776,36.9145],[14.8816,36.9082],[14.8841,36.8988],[14.8998,36.8896],[14.908,36.8889],[14.9151,36.8862],[14.9208,36.8779],[14.9368,36.8663],[14.9386,36.8637],[14.9291,36.8525],[14.9286,36.8507],[14.9292,36.8498],[14.9216,36.8488],[14.8971,36.8591],[14.8924,36.8644],[14.8862,36.8682],[14.8701,36.8705],[14.8644,36.8654],[14.861,36.8569],[14.8618,36.8541],[14.865,36.8507],[14.8644,36.847],[14.8599,36.8315],[14.8571,36.8284],[14.8538,36.828],[14.8601,36.8175],[14.8625,36.8159],[14.8638,36.8026],[14.8697,36.7936],[14.8724,36.7841],[14.8705,36.7765],[14.8672,36.7738],[14.8673,36.7649],[14.862,36.7591],[14.8598,36.7605],[14.8568,36.7599],[14.8514,36.7551],[14.8522,36.7536],[14.8512,36.7531],[14.8457,36.7502],[14.839,36.7492],[14.8348,36.747],[14.8338,36.7455],[14.8317,36.7361],[14.8297,36.7233],[14.825,36.7211],[14.821,36.7175],[14.8206,36.7163],[14.8185,36.717],[14.8117,36.7158],[14.7982,36.7072],[14.781,36.7037],[14.7804,36.7045],[14.7826,36.7066],[14.7776,36.7108],[14.7759,36.7114],[14.764,36.7102],[14.7649,36.7202],[14.7674,36.7225],[14.7718,36.7374],[14.7716,36.7396],[14.7684,36.7442],[14.7668,36.7489],[14.768,36.7544],[14.7712,36.7613],[14.7724,36.7714],[14.7721,36.7899],[14.7658,36.7975],[14.7552,36.8067],[14.7468,36.8116],[14.7397,36.8173],[14.723,36.8147],[14.7222,36.8174],[14.7258,36.821],[14.7267,36.8234],[14.7249,36.8272],[14.7201,36.8296],[14.717,36.8327],[14.7144,36.8388],[14.7148,36.8461],[14.7139,36.8499],[14.7202,36.8508],[14.729,36.8602],[14.7361,36.8715],[14.7446,36.8805],[14.7508,36.8839],[14.7521,36.8878],[14.7581,36.8914],[14.7653,36.8938],[14.7731,36.8994],[14.7747,36.9023],[14.773,36.9038],[14.7733,36.9045],[14.7789,36.9095],[14.7809,36.9099],[14.7839,36.9083],[14.7871,36.908],[14.7906,36.9154],[14.7944,36.9165],[14.8086,36.9128],[14.8172,36.9159],[14.8217,36.9209],[14.8231,36.9244],[14.8237,36.931],[14.8167,36.9347],[14.811,36.9364],[14.8023,36.9379],[14.7962,36.9379],[14.7924,36.9394],[14.7988,36.9472],[14.8015,36.9584],[14.8083,36.966],[14.8108,36.9665],[14.8278,36.9598],[14.8293,36.9573],[14.8289,36.9509],[14.8306,36.9494],[14.8362,36.9483],[14.8405,36.9493]]],[[[14.8683,37.0084],[14.875,37.0037],[14.878,37.0006],[14.8871,36.9885],[14.8875,36.9822],[14.8859,36.9741],[14.8883,36.9641],[14.9075,36.9393],[14.9111,36.9365],[14.9186,36.9355],[14.9205,36.9274],[14.9251,36.9236],[14.9321,36.9146],[14.9378,36.9032],[14.9372,36.9004],[14.9357,36.8988],[14.9223,36.9117],[14.9156,36.9163],[14.9033,36.9221],[14.8933,36.9299],[14.8592,36.9591],[14.857,36.9666],[14.858,36.9723],[14.8623,36.9762],[14.8653,36.9774],[14.8727,36.9825],[14.8725,36.9859],[14.8701,36.986],[14.8678,36.9873],[14.8652,36.9962],[14.866,37.0001],[14.863,37.0019],[14.858,36.9999],[14.8524,36.9957],[14.8454,36.9944],[14.8434,36.9955],[14.8414,36.9984],[14.8409,37.0003],[14.8411,37.0056],[14.8427,37.0089],[14.8363,37.0092],[14.8278,37.0083],[14.8243,37.0126],[14.8278,37.0141],[14.8322,37.019],[14.8334,37.0278],[14.8401,37.0387],[14.8531,37.0353],[14.856,37.0304],[14.8565,37.0228],[14.8665,37.0124],[14.8683,37.0084]]]]}},{"type":"Feature","properties":{"i":"088007","n":"Monterosso Almo"},"geometry":{"type":"Polygon","coordinates":[[[14.7925,37.1051],[14.7943,37.0999],[14.7955,37.0997],[14.7968,37.0977],[14.798,37.0923],[14.7975,37.0894],[14.7932,37.0815],[14.789,37.0771],[14.7865,37.077],[14.7839,37.0756],[14.7792,37.0711],[14.7787,37.0674],[14.7796,37.0649],[14.7752,37.0563],[14.7782,37.0416],[14.7791,37.0296],[14.775,37.0227],[14.7671,37.0207],[14.7649,37.022],[14.7634,37.0241],[14.7653,37.028],[14.7694,37.0273],[14.7701,37.0279],[14.7688,37.0314],[14.7549,37.0429],[14.7425,37.0222],[14.7368,37.0209],[14.7316,37.0216],[14.7265,37.0258],[14.7216,37.0371],[14.7251,37.0412],[14.7276,37.0457],[14.7356,37.0631],[14.7357,37.0674],[14.7332,37.0785],[14.7271,37.0808],[14.7175,37.0806],[14.7101,37.082],[14.7091,37.0862],[14.7102,37.0878],[14.7066,37.0892],[14.6905,37.0851],[14.6852,37.0813],[14.6796,37.0801],[14.6762,37.0806],[14.672,37.097],[14.6767,37.1012],[14.6836,37.1101],[14.6927,37.1144],[14.7107,37.1256],[14.7288,37.1168],[14.7292,37.1133],[14.725,37.102],[14.7274,37.096],[14.7317,37.0962],[14.7438,37.101],[14.7512,37.0991],[14.7543,37.0967],[14.7576,37.0957],[14.7651,37.0957],[14.7655,37.0993],[14.7709,37.1022],[14.7891,37.1084],[14.7925,37.1051]]]}},{"type":"Feature","properties":{"i":"088008","n":"Pozzallo"},"geometry":{"type":"Polygon","coordinates":[[[14.8946,36.7294],[14.89,36.7291],[14.8769,36.7311],[14.8607,36.7299],[14.8489,36.7274],[14.8392,36.7225],[14.8318,36.7176],[14.8283,36.7122],[14.8241,36.7152],[14.8206,36.7163],[14.821,36.7175],[14.825,36.7211],[14.8297,36.7233],[14.8317,36.7361],[14.8344,36.7466],[14.839,36.7492],[14.8457,36.7502],[14.8522,36.7536],[14.8514,36.7551],[14.8579,36.7605],[14.8598,36.7605],[14.862,36.7591],[14.8636,36.7568],[14.8696,36.7539],[14.8761,36.7519],[14.8807,36.7518],[14.8897,36.7434],[14.8928,36.7392],[14.896,36.7308],[14.8946,36.7294]]]}},{"type":"Feature","properties":{"i":"088009","n":"Ragusa"},"geometry":{"type":"Polygon","coordinates":[[[14.7791,37.0296],[14.7918,37.0214],[14.7901,37.0134],[14.7901,37.0108],[14.791,37.0104],[14.8027,37.0093],[14.8109,37.0106],[14.8103,37.0153],[14.8114,37.0222],[14.8133,37.0272],[14.8143,37.0278],[14.8231,37.0249],[14.8259,37.0228],[14.8263,37.0172],[14.8278,37.0141],[14.8243,37.0126],[14.8278,37.0083],[14.8363,37.0092],[14.8427,37.0089],[14.8411,37.0056],[14.8409,37.0003],[14.8414,36.9984],[14.8434,36.9955],[14.8454,36.9944],[14.8524,36.9957],[14.858,36.9999],[14.863,37.0019],[14.8636,37.0016],[14.866,37.0001],[14.8652,36.9962],[14.8678,36.9873],[14.8701,36.986],[14.8725,36.9859],[14.8727,36.9825],[14.8653,36.9774],[14.8623,36.9762],[14.8605,36.9739],[14.8561,36.9756],[14.8469,36.9758],[14.837,36.9731],[14.8394,36.966],[14.8405,36.9493],[14.8393,36.949],[14.8362,36.9483],[14.8306,36.9494],[14.8291,36.9506],[14.8293,36.9573],[14.8278,36.9598],[14.8108,36.9665],[14.8083,36.966],[14.8015,36.9584],[14.7988,36.9472],[14.7924,36.9394],[14.7962,36.9379],[14.8023,36.9379],[14.811,36.9364],[14.8167,36.9347],[14.8237,36.931],[14.8231,36.9244],[14.8217,36.9209],[14.8172,36.9159],[14.8086,36.9128],[14.7944,36.9165],[14.7906,36.9154],[14.7871,36.908],[14.7839,36.9083],[14.7809,36.9099],[14.7785,36.9092],[14.7733,36.9045],[14.773,36.9038],[14.7747,36.9023],[14.7731,36.8994],[14.7653,36.8938],[14.7581,36.8914],[14.7521,36.8878],[14.7508,36.8839],[14.7446,36.8805],[14.7361,36.8715],[14.729,36.8602],[14.7202,36.8508],[14.7139,36.8499],[14.7148,36.8461],[14.7144,36.8388],[14.7085,36.8395],[14.687,36.836],[14.6753,36.8363],[14.671,36.8354],[14.6703,36.8339],[14.6722,36.831],[14.6653,36.828],[14.6585,36.8264],[14.649,36.818],[14.6404,36.8124],[14.6266,36.8058],[14.6177,36.8057],[14.6166,36.7996],[14.6092,36.7936],[14.598,36.7877],[14.5957,36.7793],[14.5976,36.7792],[14.5978,36.7785],[14.5952,36.7722],[14.5883,36.777],[14.5767,36.7775],[14.5561,36.7824],[14.5483,36.7825],[14.5444,36.7804],[14.5331,36.7803],[14.5299,36.7811],[14.5269,36.7834],[14.527,36.7884],[14.5383,36.8026],[14.5508,36.8151],[14.5643,36.8321],[14.5732,36.838],[14.5782,36.8426],[14.5681,36.8426],[14.5634,36.8447],[14.5622,36.8462],[14.5621,36.8504],[14.559,36.856],[14.5548,36.8604],[14.5532,36.8607],[14.5392,36.8561],[14.5296,36.8488],[14.5029,36.8367],[14.4983,36.8334],[14.4982,36.8322],[14.4948,36.8294],[14.46,36.8147],[14.4576,36.8194],[14.4598,36.8248],[14.4564,36.8397],[14.4528,36.8438],[14.4444,36.8695],[14.4389,36.8758],[14.4425,36.8761],[14.4536,36.8744],[14.4737,36.8822],[14.4823,36.884],[14.4959,36.885],[14.5045,36.8844],[14.5068,36.8868],[14.503,36.8885],[14.4912,36.8971],[14.4948,36.901],[14.5049,36.8984],[14.5117,36.8918],[14.5145,36.8901],[14.5259,36.8964],[14.5369,36.9063],[14.5383,36.9083],[14.5403,36.9082],[14.5493,36.9043],[14.5508,36.9115],[14.5628,36.9227],[14.5673,36.9249],[14.5747,36.9204],[14.5758,36.9148],[14.6021,36.9173],[14.6123,36.9298],[14.6261,36.9376],[14.6389,36.9415],[14.6425,36.9411],[14.6475,36.9448],[14.6481,36.9465],[14.6468,36.9483],[14.6405,36.949],[14.6412,36.9523],[14.6485,36.9611],[14.6321,36.9785],[14.6486,36.9913],[14.6516,36.9909],[14.6536,36.9884],[14.6582,36.9873],[14.6715,36.9933],[14.6909,36.9978],[14.6982,36.9918],[14.7036,36.9963],[14.7141,37.014],[14.7206,37.0205],[14.728,37.0249],[14.73,37.0223],[14.7316,37.0216],[14.7368,37.0209],[14.7425,37.0222],[14.7549,37.0429],[14.7688,37.0314],[14.7701,37.0279],[14.7694,37.0273],[14.7653,37.028],[14.7634,37.0241],[14.7665,37.0207],[14.775,37.0227],[14.7791,37.0296]]]}},{"type":"Feature","properties":{"i":"088010","n":"Santa Croce Camerina"},"geometry":{"type":"Polygon","coordinates":[[[14.5269,36.7834],[14.5142,36.7879],[14.5065,36.7879],[14.4986,36.7862],[14.493,36.7866],[14.4795,36.803],[14.467,36.8146],[14.4637,36.8168],[14.4948,36.8294],[14.4982,36.8322],[14.4983,36.8334],[14.5029,36.8367],[14.5296,36.8488],[14.5392,36.8561],[14.5532,36.8607],[14.5548,36.8604],[14.559,36.856],[14.5621,36.8504],[14.5622,36.8462],[14.5634,36.8447],[14.5681,36.8426],[14.5782,36.8426],[14.5732,36.838],[14.5643,36.8321],[14.5508,36.8151],[14.5383,36.8026],[14.527,36.7884],[14.5269,36.7834]]]}},{"type":"Feature","properties":{"i":"088011","n":"Scicli"},"geometry":{"type":"Polygon","coordinates":[[[14.764,36.7102],[14.7577,36.7104],[14.7558,36.7128],[14.7563,36.7149],[14.7542,36.7166],[14.748,36.7197],[14.7444,36.7204],[14.738,36.7203],[14.7272,36.7214],[14.7184,36.7206],[14.7078,36.7178],[14.6997,36.7179],[14.6913,36.7208],[14.6854,36.7251],[14.6841,36.7283],[14.6716,36.7417],[14.6586,36.7483],[14.6499,36.7508],[14.6391,36.7611],[14.6282,36.7651],[14.607,36.7682],[14.5955,36.7721],[14.5978,36.7785],[14.5976,36.7792],[14.5957,36.7793],[14.598,36.7877],[14.6092,36.7936],[14.6166,36.7996],[14.6177,36.8057],[14.6266,36.8058],[14.6342,36.8092],[14.649,36.818],[14.6585,36.8264],[14.6653,36.828],[14.6722,36.831],[14.6703,36.8339],[14.671,36.8354],[14.6753,36.8363],[14.687,36.836],[14.7085,36.8395],[14.7141,36.8391],[14.717,36.8327],[14.7201,36.8296],[14.7249,36.8272],[14.7267,36.8234],[14.7258,36.821],[14.7222,36.8174],[14.723,36.8147],[14.7397,36.8173],[14.7468,36.8116],[14.7552,36.8067],[14.7658,36.7975],[14.7721,36.7899],[14.7724,36.7714],[14.7712,36.7613],[14.768,36.7544],[14.7668,36.7489],[14.7684,36.7442],[14.7716,36.7396],[14.7718,36.7374],[14.7674,36.7225],[14.7649,36.7202],[14.764,36.7102]]]}},{"type":"Feature","properties":{"i":"088012","n":"Vittoria"},"geometry":{"type":"Polygon","coordinates":[[[14.5439,37.0523],[14.5443,37.0465],[14.5515,37.045],[14.5561,37.0366],[14.5625,37.0341],[14.5677,37.0264],[14.5768,37.0067],[14.59,36.9913],[14.5915,36.9879],[14.5939,36.9718],[14.5973,36.9666],[14.5917,36.9616],[14.5764,36.9535],[14.5587,36.9502],[14.5486,36.9497],[14.5319,36.9382],[14.5309,36.9265],[14.5324,36.9242],[14.5411,36.9203],[14.5455,36.9205],[14.5414,36.911],[14.5369,36.9063],[14.5226,36.8941],[14.5145,36.8901],[14.5117,36.8918],[14.5049,36.8984],[14.4948,36.901],[14.4912,36.8971],[14.503,36.8885],[14.5068,36.8868],[14.5045,36.8844],[14.4959,36.885],[14.4823,36.884],[14.4737,36.8822],[14.4536,36.8744],[14.4425,36.8761],[14.4389,36.8758],[14.4388,36.8782],[14.4359,36.8849],[14.425,36.8926],[14.4256,36.8956],[14.4219,36.9039],[14.4165,36.9117],[14.4038,36.9265],[14.3878,36.9501],[14.3978,36.9553],[14.404,36.9667],[14.4078,36.9722],[14.4401,36.9799],[14.4399,36.9836],[14.4406,36.9856],[14.4475,36.9867],[14.4533,36.9861],[14.4751,36.9718],[14.4868,36.9776],[14.4905,36.9832],[14.4999,36.992],[14.5029,37.0024],[14.5008,37.0115],[14.5003,37.0184],[14.4997,37.035],[14.5014,37.0399],[14.5032,37.0364],[14.5082,37.0366],[14.5136,37.0433],[14.5202,37.0455],[14.5319,37.0479],[14.5359,37.051],[14.5367,37.053],[14.5403,37.0533],[14.5439,37.0523]]]}}]}
