{"type":"FeatureCollection","fonte":"Confini comunali ISTAT via openpolis/geojson-italy — CC BY 4.0","features":[{"type":"Feature","properties":{"i":"099001","n":"Bellaria-Igea Marina"},"geometry":{"type":"Polygon","coordinates":[[[12.4506,44.1622],[12.4728,44.1442],[12.504,44.1157],[12.4969,44.1106],[12.4879,44.1088],[12.4848,44.1085],[12.4781,44.1108],[12.4594,44.1087],[12.4526,44.1087],[12.4535,44.1147],[12.4394,44.1276],[12.44,44.1359],[12.4412,44.1384],[12.4337,44.1448],[12.4287,44.1473],[12.4411,44.1596],[12.4483,44.1622],[12.4506,44.1622]]]}},{"type":"Feature","properties":{"i":"099002","n":"Cattolica"},"geometry":{"type":"Polygon","coordinates":[[[12.7506,43.9685],[12.7534,43.9655],[12.7535,43.96],[12.7483,43.953],[12.7415,43.9409],[12.7388,43.9403],[12.7282,43.9535],[12.7271,43.9543],[12.7238,43.9502],[12.7206,43.9538],[12.7212,43.9554],[12.724,43.9575],[12.7289,43.9593],[12.7321,43.9595],[12.7332,43.9617],[12.7326,43.963],[12.7166,43.9619],[12.7134,43.9587],[12.7116,43.958],[12.7103,43.9581],[12.7094,43.9609],[12.7095,43.9627],[12.7151,43.9655],[12.719,43.9691],[12.7213,43.9727],[12.7371,43.9683],[12.7471,43.9694],[12.7506,43.9685]]]}},{"type":"Feature","properties":{"i":"099003","n":"Coriano"},"geometry":{"type":"Polygon","coordinates":[[[12.6053,43.9883],[12.6072,43.9904],[12.6101,43.9892],[12.6253,43.9877],[12.6327,43.9911],[12.6347,43.9858],[12.6417,43.9792],[12.6402,43.9788],[12.6349,43.9742],[12.6342,43.9727],[12.6357,43.9679],[12.6432,43.9651],[12.6418,43.9584],[12.6391,43.9567],[12.6295,43.957],[12.6181,43.9547],[12.6131,43.9572],[12.6068,43.951],[12.6071,43.9503],[12.6032,43.9458],[12.5908,43.9444],[12.5823,43.9462],[12.5804,43.9479],[12.5731,43.9409],[12.5657,43.9398],[12.5622,43.943],[12.5608,43.9479],[12.5565,43.9519],[12.5552,43.9521],[12.5444,43.9476],[12.5361,43.9426],[12.5281,43.94],[12.5212,43.9418],[12.5155,43.9413],[12.5156,43.9441],[12.5137,43.9496],[12.5095,43.9545],[12.5073,43.959],[12.5076,43.9653],[12.5095,43.9712],[12.5103,43.9802],[12.5158,43.9848],[12.5144,43.9908],[12.5135,43.9913],[12.5291,43.9921],[12.5394,43.9942],[12.5416,43.9913],[12.5462,43.988],[12.5506,43.9867],[12.5658,43.9908],[12.5715,43.994],[12.5746,43.9928],[12.5746,43.9886],[12.5778,43.9827],[12.5831,43.982],[12.5986,43.9841],[12.6053,43.9883]]]}},{"type":"Feature","properties":{"i":"099004","n":"Gemmano"},"geometry":{"type":"Polygon","coordinates":[[[12.6022,43.9124],[12.5984,43.9017],[12.5944,43.898],[12.5895,43.8856],[12.5831,43.8841],[12.5725,43.8849],[12.5673,43.8824],[12.5648,43.8791],[12.5603,43.869],[12.5489,43.8656],[12.5411,43.8645],[12.5355,43.868],[12.5309,43.8754],[12.5303,43.8772],[12.5309,43.883],[12.5322,43.8822],[12.5376,43.8832],[12.5425,43.8885],[12.5365,43.8951],[12.5359,43.8972],[12.5633,43.9134],[12.5868,43.9174],[12.5897,43.9158],[12.6022,43.9124]]]}},{"type":"Feature","properties":{"i":"099005","n":"Misano Adriatico"},"geometry":{"type":"Polygon","coordinates":[[[12.7213,43.9727],[12.719,43.9691],[12.7144,43.9649],[12.7095,43.9627],[12.7082,43.9633],[12.7055,43.9628],[12.6856,43.9497],[12.682,43.9405],[12.6819,43.9361],[12.6791,43.9337],[12.6681,43.9381],[12.6549,43.9448],[12.6449,43.943],[12.6414,43.9438],[12.6367,43.9472],[12.6352,43.9495],[12.6341,43.9572],[12.6377,43.9565],[12.6412,43.9577],[12.6432,43.9651],[12.6357,43.9679],[12.6343,43.9734],[12.6402,43.9788],[12.6429,43.9803],[12.6582,43.9852],[12.6599,43.9851],[12.6629,43.9814],[12.6653,43.9761],[12.6671,43.9747],[12.671,43.9736],[12.6779,43.9747],[12.6803,43.9763],[12.6872,43.9843],[12.6882,43.9871],[12.7134,43.9746],[12.7213,43.9727]]]}},{"type":"Feature","properties":{"i":"099006","n":"Mondaino"},"geometry":{"type":"Polygon","coordinates":[[[12.6828,43.8606],[12.6825,43.8529],[12.6784,43.8393],[12.6813,43.8281],[12.675,43.825],[12.6651,43.8249],[12.6572,43.8262],[12.6443,43.8269],[12.6295,43.8211],[12.6243,43.821],[12.6189,43.8264],[12.6112,43.8308],[12.61,43.8341],[12.6102,43.8369],[12.6189,43.8426],[12.6275,43.837],[12.6306,43.8369],[12.6341,43.8385],[12.6378,43.8456],[12.6387,43.8516],[12.6445,43.8573],[12.6408,43.8613],[12.6329,43.8663],[12.6292,43.8679],[12.6433,43.8773],[12.6479,43.8758],[12.6534,43.8695],[12.6535,43.8636],[12.6527,43.8614],[12.6552,43.8574],[12.6647,43.8622],[12.6661,43.8652],[12.6693,43.8659],[12.6789,43.8656],[12.6828,43.8606]]]}},{"type":"Feature","properties":{"i":"099008","n":"Montefiore Conca"},"geometry":{"type":"Polygon","coordinates":[[[12.6193,43.9047],[12.6188,43.9028],[12.6223,43.9019],[12.6391,43.9049],[12.6454,43.9052],[12.6507,43.9031],[12.6544,43.8984],[12.6506,43.8969],[12.6456,43.8926],[12.6424,43.8846],[12.642,43.8808],[12.6433,43.8773],[12.6292,43.8679],[12.619,43.8486],[12.6159,43.8465],[12.6066,43.845],[12.6051,43.8456],[12.601,43.8505],[12.6012,43.8534],[12.6031,43.8578],[12.6029,43.8619],[12.5925,43.8651],[12.5894,43.8653],[12.5913,43.8696],[12.5903,43.883],[12.5895,43.8856],[12.5899,43.8875],[12.5944,43.898],[12.5984,43.9017],[12.6022,43.9124],[12.6112,43.9116],[12.6165,43.9096],[12.6193,43.9047]]]}},{"type":"Feature","properties":{"i":"099009","n":"Montegridolfo"},"geometry":{"type":"Polygon","coordinates":[[[12.7335,43.87],[12.7297,43.866],[12.7219,43.861],[12.7106,43.8596],[12.6994,43.8552],[12.6963,43.8528],[12.6906,43.8522],[12.6825,43.8529],[12.6828,43.8606],[12.6895,43.862],[12.6908,43.8637],[12.6946,43.873],[12.6958,43.8737],[12.7,43.8739],[12.7088,43.8757],[12.7146,43.8811],[12.7202,43.8817],[12.7228,43.8811],[12.7231,43.8792],[12.7314,43.8735],[12.7336,43.8711],[12.7335,43.87]]]}},{"type":"Feature","properties":{"i":"099011","n":"Morciano di Romagna"},"geometry":{"type":"Polygon","coordinates":[[[12.6544,43.8984],[12.6507,43.9031],[12.6454,43.9052],[12.6391,43.9049],[12.6223,43.9019],[12.6188,43.9028],[12.6187,43.9041],[12.6193,43.9047],[12.6237,43.9041],[12.6415,43.9141],[12.6437,43.9181],[12.6462,43.92],[12.6521,43.9217],[12.6688,43.9238],[12.6712,43.9251],[12.6758,43.9299],[12.6788,43.9258],[12.6759,43.9206],[12.6733,43.9178],[12.6728,43.9156],[12.6748,43.914],[12.666,43.9119],[12.6574,43.9068],[12.656,43.9049],[12.6544,43.8984]]]}},{"type":"Feature","properties":{"i":"099013","n":"Riccione"},"geometry":{"type":"Polygon","coordinates":[[[12.6882,43.9871],[12.6872,43.9843],[12.6803,43.9763],[12.6779,43.9747],[12.6716,43.9735],[12.6671,43.9747],[12.6653,43.9761],[12.6629,43.9814],[12.6599,43.9851],[12.6582,43.9852],[12.6457,43.9815],[12.6417,43.9792],[12.6347,43.9858],[12.6327,43.9911],[12.6253,43.9877],[12.6101,43.9892],[12.6072,43.9904],[12.6053,43.9883],[12.6014,43.9938],[12.6039,43.9956],[12.6136,43.9948],[12.6196,44.0001],[12.62,44.002],[12.618,44.0076],[12.6186,44.0139],[12.6323,44.0251],[12.657,44.0077],[12.6882,43.9871]]]}},{"type":"Feature","properties":{"i":"099014","n":"Rimini"},"geometry":{"type":"Polygon","coordinates":[[[12.6323,44.0251],[12.6186,44.0139],[12.618,44.0076],[12.62,44.002],[12.6196,44.0001],[12.6136,43.9948],[12.6031,43.9953],[12.6014,43.9938],[12.6053,43.9883],[12.5986,43.9841],[12.5831,43.982],[12.5778,43.9827],[12.5746,43.9886],[12.5746,43.9928],[12.5715,43.994],[12.5658,43.9908],[12.5506,43.9867],[12.5462,43.988],[12.5416,43.9913],[12.5394,43.9942],[12.5223,43.9914],[12.507,43.9915],[12.4917,43.983],[12.4808,43.981],[12.4641,43.9748],[12.453,43.9694],[12.4482,43.9783],[12.4627,44.0016],[12.4603,44.006],[12.4559,44.0096],[12.4535,44.01],[12.4518,44.0088],[12.4496,44.0094],[12.4406,44.0162],[12.4388,44.0194],[12.4488,44.0278],[12.4557,44.0295],[12.4628,44.0241],[12.4627,44.023],[12.4672,44.0175],[12.4749,44.0145],[12.4804,44.0108],[12.4866,44.013],[12.4952,44.0196],[12.4997,44.0284],[12.4996,44.0295],[12.48,44.0442],[12.4725,44.0451],[12.463,44.0475],[12.4619,44.0495],[12.4675,44.0513],[12.4715,44.0555],[12.4726,44.0646],[12.4757,44.0679],[12.4796,44.0682],[12.4767,44.072],[12.4521,44.0872],[12.4529,44.0898],[12.4557,44.0924],[12.4524,44.1096],[12.4529,44.1086],[12.4568,44.1085],[12.4781,44.1108],[12.4848,44.1085],[12.4879,44.1088],[12.4969,44.1106],[12.504,44.1157],[12.5159,44.1053],[12.5294,44.0952],[12.5558,44.0785],[12.5619,44.0763],[12.5681,44.0761],[12.5697,44.0768],[12.5697,44.0781],[12.5746,44.0791],[12.605,44.0488],[12.6323,44.0251]]]}},{"type":"Feature","properties":{"i":"099015","n":"Saludecio"},"geometry":{"type":"MultiPolygon","coordinates":[[[[12.6189,43.8426],[12.6159,43.8465],[12.619,43.8486],[12.6292,43.8679],[12.6329,43.8663],[12.6408,43.8613],[12.6445,43.8573],[12.6387,43.8516],[12.637,43.8434],[12.6337,43.8381],[12.6306,43.8369],[12.6268,43.8372],[12.6189,43.8426]]],[[[12.7228,43.8811],[12.7202,43.8817],[12.7146,43.8811],[12.7088,43.8757],[12.7,43.8739],[12.6958,43.8737],[12.6946,43.873],[12.6908,43.8637],[12.6895,43.862],[12.6828,43.8606],[12.6789,43.8656],[12.6693,43.8659],[12.6661,43.8652],[12.6647,43.8622],[12.6557,43.8573],[12.6527,43.8614],[12.6535,43.8636],[12.6534,43.8695],[12.6479,43.8758],[12.6433,43.8773],[12.642,43.8808],[12.6424,43.8846],[12.6456,43.8926],[12.6506,43.8969],[12.6544,43.8984],[12.656,43.9049],[12.6574,43.9068],[12.666,43.9119],[12.6748,43.914],[12.6785,43.9134],[12.6841,43.914],[12.6913,43.9132],[12.7034,43.9096],[12.7138,43.9122],[12.717,43.915],[12.72,43.9162],[12.7225,43.9155],[12.7269,43.9126],[12.7348,43.896],[12.7301,43.8917],[12.7228,43.8811]]]]}},{"type":"Feature","properties":{"i":"099016","n":"San Clemente"},"geometry":{"type":"Polygon","coordinates":[[[12.6791,43.9337],[12.6704,43.9246],[12.6669,43.9233],[12.6521,43.9217],[12.6462,43.92],[12.6437,43.9181],[12.6415,43.9141],[12.6237,43.9041],[12.6193,43.9047],[12.6165,43.9096],[12.6112,43.9116],[12.6022,43.9124],[12.6004,43.9133],[12.6027,43.9175],[12.6038,43.9224],[12.6042,43.9311],[12.6021,43.9356],[12.6044,43.9398],[12.6079,43.9409],[12.6087,43.9421],[12.6087,43.9464],[12.6068,43.951],[12.6131,43.9572],[12.6181,43.9547],[12.6341,43.9572],[12.6358,43.948],[12.6407,43.9441],[12.6449,43.943],[12.6549,43.9448],[12.6681,43.9381],[12.6791,43.9337]]]}},{"type":"Feature","properties":{"i":"099017","n":"San Giovanni in Marignano"},"geometry":{"type":"Polygon","coordinates":[[[12.7415,43.9409],[12.7384,43.9367],[12.7342,43.9335],[12.7327,43.931],[12.7335,43.9298],[12.7308,43.9271],[12.7287,43.9217],[12.73,43.9131],[12.729,43.912],[12.7271,43.9117],[12.7269,43.9126],[12.7225,43.9155],[12.72,43.9162],[12.717,43.915],[12.7138,43.9122],[12.7034,43.9096],[12.6913,43.9132],[12.6841,43.914],[12.6763,43.9136],[12.6728,43.9156],[12.6733,43.9178],[12.6759,43.9206],[12.6788,43.9258],[12.6758,43.9299],[12.6819,43.9361],[12.682,43.9405],[12.6856,43.9497],[12.7055,43.9628],[12.7092,43.963],[12.7101,43.9585],[12.7116,43.958],[12.7134,43.9587],[12.7166,43.9619],[12.7326,43.963],[12.7332,43.9617],[12.7321,43.9595],[12.7289,43.9593],[12.724,43.9575],[12.7212,43.9554],[12.7206,43.9538],[12.7238,43.9502],[12.7271,43.9543],[12.73,43.952],[12.7388,43.9403],[12.7415,43.9409]]]}},{"type":"Feature","properties":{"i":"099018","n":"Santarcangelo di Romagna"},"geometry":{"type":"Polygon","coordinates":[[[12.4521,44.0872],[12.4767,44.072],[12.4796,44.0682],[12.4757,44.0679],[12.4726,44.0646],[12.4715,44.0555],[12.4675,44.0513],[12.4619,44.0495],[12.463,44.0475],[12.4725,44.0451],[12.48,44.0442],[12.4996,44.0295],[12.4997,44.0284],[12.4952,44.0196],[12.4866,44.013],[12.4804,44.0108],[12.4749,44.0145],[12.4672,44.0175],[12.4627,44.023],[12.4628,44.0241],[12.4557,44.0295],[12.4488,44.0278],[12.4433,44.0231],[12.4435,44.0249],[12.4414,44.0283],[12.4364,44.0329],[12.4269,44.026],[12.4239,44.0279],[12.4204,44.0334],[12.4259,44.0388],[12.427,44.044],[12.4249,44.0481],[12.4191,44.0554],[12.409,44.0557],[12.398,44.0492],[12.3997,44.0434],[12.3989,44.0345],[12.3953,44.0302],[12.3887,44.033],[12.37,44.0449],[12.3686,44.0446],[12.3642,44.0468],[12.3592,44.0518],[12.3591,44.0542],[12.3639,44.058],[12.3705,44.066],[12.3747,44.0666],[12.3888,44.0638],[12.3921,44.0638],[12.4005,44.0663],[12.4035,44.0715],[12.408,44.0768],[12.4167,44.0808],[12.4253,44.0885],[12.437,44.0889],[12.4479,44.0864],[12.4521,44.0872]]]}},{"type":"Feature","properties":{"i":"099020","n":"Verucchio"},"geometry":{"type":"MultiPolygon","coordinates":[[[[12.4084,43.903],[12.4177,43.899],[12.4144,43.899],[12.4097,43.8976],[12.4054,43.895],[12.402,43.8916],[12.3988,43.8924],[12.3889,43.9015],[12.3985,43.9031],[12.4043,43.9058],[12.4084,43.903]]],[[[12.453,43.9694],[12.4475,43.9659],[12.4393,43.9591],[12.4251,43.9573],[12.4137,43.9524],[12.4049,43.955],[12.3978,43.9623],[12.4028,43.9664],[12.4065,43.9725],[12.4078,43.9774],[12.4053,43.9834],[12.4051,43.9876],[12.4077,43.9914],[12.4132,44.0034],[12.4163,44.0124],[12.4225,44.0219],[12.4271,44.0262],[12.4364,44.0329],[12.4396,44.0305],[12.4435,44.0249],[12.4433,44.0231],[12.4388,44.0194],[12.4402,44.0166],[12.4503,44.0091],[12.4521,44.0088],[12.4535,44.01],[12.4559,44.0096],[12.4603,44.006],[12.4627,44.0016],[12.4482,43.9783],[12.453,43.9694]]]]}},{"type":"Feature","properties":{"i":"099021","n":"Casteldelci"},"geometry":{"type":"Polygon","coordinates":[[[12.1765,43.8105],[12.1709,43.8077],[12.1698,43.8046],[12.1764,43.7883],[12.1783,43.7874],[12.1842,43.7815],[12.1847,43.7767],[12.1877,43.7737],[12.1993,43.7704],[12.195,43.7592],[12.1963,43.7485],[12.1977,43.7448],[12.1999,43.7417],[12.1984,43.7369],[12.1946,43.7319],[12.1717,43.7498],[12.1709,43.7522],[12.1648,43.7611],[12.16,43.7617],[12.1525,43.7587],[12.1482,43.7555],[12.1398,43.7525],[12.1236,43.7492],[12.1086,43.7531],[12.0962,43.7653],[12.1034,43.7817],[12.1037,43.7869],[12.1025,43.7905],[12.1036,43.7936],[12.105,43.7951],[12.1075,43.7959],[12.114,43.7961],[12.1187,43.8028],[12.1169,43.8064],[12.1206,43.8135],[12.1324,43.8269],[12.1457,43.829],[12.1483,43.831],[12.1495,43.8333],[12.1577,43.8304],[12.1733,43.8166],[12.1765,43.8105]]]}},{"type":"Feature","properties":{"i":"099022","n":"Maiolo"},"geometry":{"type":"Polygon","coordinates":[[[12.3528,43.8711],[12.3474,43.867],[12.3407,43.8638],[12.3334,43.8637],[12.3315,43.8646],[12.3227,43.862],[12.2996,43.8476],[12.2962,43.8468],[12.2852,43.8519],[12.2782,43.8572],[12.2788,43.8615],[12.282,43.8652],[12.2854,43.8649],[12.2985,43.8728],[12.2894,43.8759],[12.2894,43.8838],[12.2956,43.8935],[12.2945,43.8995],[12.2951,43.9014],[12.3158,43.917],[12.3167,43.9157],[12.3208,43.9131],[12.3279,43.9105],[12.3318,43.9068],[12.3349,43.8995],[12.3357,43.8942],[12.3399,43.8845],[12.3442,43.8792],[12.3528,43.8711]]]}},{"type":"Feature","properties":{"i":"099023","n":"Novafeltria"},"geometry":{"type":"MultiPolygon","coordinates":[[[[12.2547,43.9123],[12.2636,43.9055],[12.2642,43.9018],[12.2611,43.8965],[12.2653,43.8953],[12.2733,43.8954],[12.2843,43.9009],[12.2954,43.9039],[12.2978,43.9039],[12.2947,43.9007],[12.2948,43.8972],[12.2957,43.8945],[12.2951,43.8921],[12.2894,43.8838],[12.2894,43.8759],[12.2985,43.8728],[12.2854,43.8649],[12.282,43.8652],[12.2788,43.8615],[12.2782,43.8572],[12.2775,43.8574],[12.2737,43.8544],[12.2733,43.8532],[12.2749,43.8514],[12.2746,43.8502],[12.27,43.8447],[12.2654,43.8425],[12.2568,43.8462],[12.2435,43.8485],[12.2422,43.8508],[12.242,43.8536],[12.2448,43.8554],[12.2429,43.8601],[12.2389,43.8655],[12.2361,43.8675],[12.236,43.8701],[12.2389,43.8746],[12.2441,43.878],[12.2475,43.8831],[12.2482,43.8852],[12.2466,43.8903],[12.2284,43.8938],[12.2164,43.8972],[12.2041,43.9081],[12.2036,43.9122],[12.2036,43.9129],[12.2125,43.9095],[12.2191,43.9081],[12.2224,43.9089],[12.2232,43.9154],[12.2348,43.917],[12.2387,43.9164],[12.2508,43.9107],[12.2534,43.9103],[12.2547,43.9123]]],[[[12.3563,43.9496],[12.3531,43.9435],[12.3461,43.9375],[12.3299,43.9261],[12.3211,43.9216],[12.3092,43.9124],[12.3046,43.913],[12.3018,43.9157],[12.2987,43.92],[12.2948,43.9282],[12.2967,43.9317],[12.3009,43.9354],[12.3125,43.9402],[12.3174,43.9533],[12.3199,43.9551],[12.3231,43.9597],[12.3228,43.9606],[12.3259,43.9616],[12.3342,43.962],[12.3405,43.9573],[12.3522,43.9506],[12.3563,43.9496]]]]}},{"type":"Feature","properties":{"i":"099024","n":"Pennabilli"},"geometry":{"type":"Polygon","coordinates":[[[12.3159,43.8056],[12.3066,43.8],[12.2862,43.7949],[12.2845,43.7934],[12.2829,43.7892],[12.2852,43.7887],[12.2891,43.786],[12.2872,43.7717],[12.2864,43.7705],[12.2848,43.7702],[12.2834,43.7676],[12.2828,43.7663],[12.2838,43.7649],[12.2779,43.7648],[12.2709,43.7627],[12.258,43.7604],[12.2544,43.7545],[12.2552,43.7539],[12.2547,43.7533],[12.2459,43.7512],[12.2414,43.7514],[12.2413,43.7542],[12.229,43.7596],[12.2175,43.7579],[12.2093,43.7551],[12.2044,43.7482],[12.1977,43.7448],[12.1963,43.7485],[12.195,43.7592],[12.1984,43.7673],[12.2003,43.7745],[12.2124,43.7817],[12.219,43.7839],[12.2341,43.7872],[12.2395,43.7865],[12.2402,43.7906],[12.2371,43.8012],[12.2325,43.8071],[12.2298,43.8087],[12.2243,43.8099],[12.231,43.8177],[12.2395,43.8249],[12.2466,43.8279],[12.2518,43.8267],[12.2593,43.8326],[12.2626,43.8404],[12.27,43.8447],[12.2746,43.8502],[12.2749,43.8514],[12.2733,43.8532],[12.2744,43.8552],[12.2779,43.8575],[12.2852,43.8519],[12.2962,43.8468],[12.2996,43.8476],[12.3227,43.862],[12.3315,43.8646],[12.3334,43.8637],[12.3407,43.8638],[12.3474,43.867],[12.3449,43.8538],[12.3471,43.8486],[12.3418,43.8397],[12.3366,43.8286],[12.3295,43.8214],[12.3215,43.8167],[12.3174,43.8129],[12.3159,43.8056]]]}},{"type":"Feature","properties":{"i":"099025","n":"San Leo"},"geometry":{"type":"Polygon","coordinates":[[[12.4046,43.9557],[12.4036,43.9511],[12.4048,43.944],[12.4061,43.9422],[12.4122,43.9377],[12.415,43.9325],[12.4147,43.9287],[12.4094,43.9246],[12.4082,43.9212],[12.4125,43.9094],[12.4084,43.903],[12.4043,43.9058],[12.3985,43.9031],[12.3889,43.9015],[12.3988,43.8924],[12.4013,43.8916],[12.4026,43.8919],[12.4054,43.895],[12.4097,43.8976],[12.4144,43.899],[12.4177,43.899],[12.4232,43.8826],[12.4251,43.8803],[12.4321,43.8758],[12.4321,43.8726],[12.4302,43.8717],[12.4223,43.8722],[12.4142,43.8744],[12.4035,43.8749],[12.4006,43.8728],[12.397,43.8767],[12.3939,43.8843],[12.3943,43.8863],[12.391,43.8915],[12.3893,43.8857],[12.3862,43.882],[12.3772,43.8787],[12.3717,43.8774],[12.3668,43.8776],[12.3603,43.8757],[12.3528,43.8711],[12.3442,43.8792],[12.3399,43.8845],[12.3357,43.8942],[12.3349,43.8995],[12.3318,43.9068],[12.3279,43.9105],[12.3208,43.9131],[12.3165,43.9159],[12.3159,43.9172],[12.3216,43.9219],[12.3299,43.9261],[12.3393,43.9322],[12.3531,43.9435],[12.3593,43.9541],[12.3672,43.962],[12.3719,43.9625],[12.3814,43.9596],[12.3901,43.9602],[12.3978,43.9623],[12.4046,43.9557]]]}},{"type":"Feature","properties":{"i":"099026","n":"Sant'Agata Feltria"},"geometry":{"type":"Polygon","coordinates":[[[12.2036,43.9129],[12.2041,43.9081],[12.2164,43.8972],[12.2284,43.8938],[12.2466,43.8903],[12.2482,43.8852],[12.2475,43.8831],[12.2441,43.878],[12.2389,43.8746],[12.236,43.8701],[12.2361,43.8675],[12.2389,43.8655],[12.2429,43.8601],[12.2448,43.8554],[12.242,43.8536],[12.2422,43.8508],[12.2435,43.8485],[12.2568,43.8462],[12.2654,43.8425],[12.2624,43.8401],[12.2594,43.8328],[12.2556,43.8293],[12.2518,43.8267],[12.2466,43.8279],[12.2395,43.8249],[12.231,43.8177],[12.2205,43.8047],[12.218,43.8028],[12.2077,43.8053],[12.2,43.8061],[12.1889,43.8047],[12.1775,43.8116],[12.1764,43.8113],[12.1765,43.8105],[12.1733,43.8166],[12.1577,43.8304],[12.1495,43.8333],[12.1503,43.8369],[12.1477,43.8403],[12.1383,43.8476],[12.1431,43.8531],[12.1421,43.861],[12.1527,43.869],[12.1586,43.8775],[12.1672,43.8958],[12.1605,43.9029],[12.1596,43.9048],[12.1582,43.9101],[12.1585,43.9192],[12.1595,43.9217],[12.1648,43.9246],[12.1703,43.9253],[12.1705,43.9264],[12.1723,43.9265],[12.1734,43.9252],[12.1725,43.9222],[12.176,43.9204],[12.1911,43.9164],[12.2032,43.9165],[12.2036,43.9129]]]}},{"type":"Feature","properties":{"i":"099027","n":"Talamello"},"geometry":{"type":"Polygon","coordinates":[[[12.2948,43.9282],[12.2987,43.92],[12.3018,43.9157],[12.3046,43.913],[12.3079,43.9121],[12.3102,43.9127],[12.2973,43.9032],[12.2977,43.904],[12.2954,43.9039],[12.2843,43.9009],[12.2733,43.8954],[12.2653,43.8953],[12.2611,43.8965],[12.2642,43.9028],[12.2627,43.9066],[12.2547,43.9123],[12.2557,43.9159],[12.2551,43.9187],[12.2562,43.9209],[12.2673,43.9275],[12.2715,43.9291],[12.2759,43.9276],[12.288,43.9297],[12.2948,43.9282]]]}},{"type":"Feature","properties":{"i":"099028","n":"Poggio Torriana"},"geometry":{"type":"Polygon","coordinates":[[[12.4269,44.026],[12.4225,44.0219],[12.4179,44.0151],[12.4077,43.9914],[12.4056,43.989],[12.4053,43.9834],[12.4078,43.9774],[12.4065,43.9725],[12.4028,43.9664],[12.3978,43.9623],[12.3901,43.9602],[12.3814,43.9596],[12.3733,43.9622],[12.3688,43.9626],[12.3658,43.9613],[12.3633,43.9587],[12.3563,43.9496],[12.3522,43.9506],[12.3405,43.9573],[12.3342,43.962],[12.3259,43.9616],[12.3228,43.9606],[12.3232,43.9619],[12.3256,43.9645],[12.3399,43.9715],[12.3478,43.9772],[12.3518,43.9855],[12.3634,43.9867],[12.3668,43.9877],[12.3691,43.9895],[12.3709,43.9952],[12.3735,43.9995],[12.3785,44.0029],[12.3844,44.0085],[12.3872,44.0209],[12.3989,44.0345],[12.3997,44.0434],[12.398,44.0492],[12.409,44.0557],[12.4191,44.0554],[12.4249,44.0481],[12.427,44.044],[12.4259,44.0388],[12.4204,44.0334],[12.4239,44.0279],[12.4269,44.026]]]}},{"type":"Feature","properties":{"i":"099029","n":"Montescudo-Monte Colombo"},"geometry":{"type":"Polygon","coordinates":[[[12.6071,43.9503],[12.6087,43.9464],[12.6089,43.9428],[12.6079,43.9409],[12.6044,43.9398],[12.6021,43.9356],[12.6042,43.9311],[12.6038,43.9224],[12.6027,43.9175],[12.6004,43.9133],[12.5897,43.9158],[12.5868,43.9174],[12.5633,43.9134],[12.5359,43.8972],[12.5315,43.8987],[12.5209,43.8985],[12.5145,43.9022],[12.5093,43.9091],[12.5018,43.914],[12.4928,43.9159],[12.4924,43.9183],[12.4938,43.9199],[12.5133,43.9377],[12.5155,43.9413],[12.5212,43.9418],[12.5281,43.94],[12.5361,43.9426],[12.5444,43.9476],[12.5552,43.9521],[12.5565,43.9519],[12.5608,43.9479],[12.5622,43.943],[12.5657,43.9398],[12.5731,43.9409],[12.5804,43.9479],[12.5823,43.9462],[12.5908,43.9444],[12.5993,43.945],[12.6032,43.9458],[12.6071,43.9503]]]}}]}
