{"type":"FeatureCollection","fonte":"Confini comunali ISTAT via openpolis/geojson-italy — CC BY 4.0","features":[{"type":"Feature","properties":{"i":"029001","n":"Adria"},"geometry":{"type":"Polygon","coordinates":[[[12.1365,45.0563],[12.1392,45.0532],[12.143,45.0516],[12.1461,45.0517],[12.1479,45.0538],[12.1498,45.0543],[12.1544,45.0535],[12.1621,45.0499],[12.1623,45.0486],[12.1555,45.042],[12.154,45.0414],[12.15,45.0417],[12.1459,45.0388],[12.1587,45.0277],[12.1485,45.0254],[12.135,45.0194],[12.1262,45.0175],[12.1199,45.0182],[12.107,45.0213],[12.0823,45.0201],[12.0726,45.0178],[12.0716,45.0203],[12.0693,45.0205],[12.046,45.0124],[12.0429,44.9995],[12.0389,44.9998],[12.0216,45.0065],[12.0177,45.0063],[12.014,45.0049],[12.0056,44.9974],[12.0054,44.9961],[12.0038,44.9958],[11.9966,44.9987],[11.9961,45.0014],[11.9967,45.0033],[12.0025,45.0071],[12.0044,45.0112],[12.0015,45.0149],[11.9998,45.0135],[11.9949,45.013],[11.9906,45.0226],[11.9931,45.025],[11.9995,45.0278],[12.0132,45.0385],[12.0134,45.0423],[12.0119,45.0461],[12.0074,45.0502],[11.9976,45.0542],[11.9866,45.05],[11.9816,45.0453],[11.972,45.0417],[11.9674,45.0463],[11.9729,45.0527],[11.9683,45.0608],[11.9682,45.069],[11.9697,45.0698],[11.9547,45.0777],[11.9521,45.0807],[11.9449,45.1076],[11.9435,45.1084],[11.9602,45.1104],[11.9781,45.1001],[11.9826,45.1005],[11.9903,45.1043],[12.0067,45.095],[12.0099,45.0946],[12.0127,45.0956],[12.0264,45.107],[12.0289,45.1136],[12.0268,45.1154],[12.0255,45.1196],[12.0286,45.1185],[12.0468,45.1154],[12.0496,45.1127],[12.0476,45.1078],[12.0477,45.1054],[12.09,45.077],[12.1141,45.062],[12.1198,45.0597],[12.1365,45.0563]]]}},{"type":"Feature","properties":{"i":"029002","n":"Ariano nel Polesine"},"geometry":{"type":"Polygon","coordinates":[[[12.3913,44.8179],[12.3992,44.8137],[12.4048,44.8022],[12.4082,44.7992],[12.3981,44.7928],[12.3902,44.7959],[12.3762,44.8032],[12.3631,44.8116],[12.3552,44.8151],[12.3517,44.8194],[12.347,44.8282],[12.3446,44.8352],[12.3435,44.8458],[12.3405,44.8501],[12.3344,44.8526],[12.3019,44.8557],[12.2979,44.8572],[12.2941,44.8604],[12.2867,44.8703],[12.286,44.8724],[12.284,44.8864],[12.2851,44.8971],[12.284,44.9038],[12.2819,44.91],[12.2841,44.9142],[12.2932,44.9231],[12.2947,44.9254],[12.2947,44.9274],[12.2923,44.9316],[12.2809,44.9418],[12.2762,44.9433],[12.2722,44.9433],[12.2467,44.9356],[12.2354,44.9314],[12.2296,44.9247],[12.225,44.923],[12.2159,44.9255],[12.1942,44.9254],[12.1877,44.9264],[12.1793,44.9318],[12.1766,44.9354],[12.1749,44.9394],[12.1723,44.9416],[12.1707,44.942],[12.1673,44.9415],[12.1611,44.9386],[12.1592,44.9365],[12.1588,44.9338],[12.1444,44.9283],[12.1389,44.9296],[12.1276,44.9355],[12.1175,44.9512],[12.1175,44.9548],[12.1162,44.9577],[12.1131,44.9604],[12.109,44.9616],[12.1012,44.9618],[12.0998,44.9661],[12.0916,44.9702],[12.0723,44.972],[12.0665,44.9699],[12.0611,44.9696],[12.0554,44.9713],[12.0475,44.977],[12.0618,44.9775],[12.0706,44.9787],[12.076,44.9804],[12.0815,44.9837],[12.0922,44.9785],[12.1001,44.983],[12.1022,44.9867],[12.1048,44.987],[12.149,44.9779],[12.158,44.9816],[12.1621,44.9938],[12.2378,44.9727],[12.2408,44.9707],[12.243,44.9678],[12.2494,44.9571],[12.262,44.9468],[12.2781,44.9447],[12.2825,44.9448],[12.2972,44.9315],[12.2983,44.9281],[12.2981,44.9264],[12.2952,44.9203],[12.2904,44.9148],[12.2888,44.9056],[12.2889,44.8918],[12.2896,44.8832],[12.2919,44.8734],[12.2978,44.8628],[12.3013,44.8599],[12.3177,44.8594],[12.3409,44.8541],[12.344,44.8507],[12.3623,44.8184],[12.3913,44.8179]]]}},{"type":"Feature","properties":{"i":"029003","n":"Arquà Polesine"},"geometry":{"type":"Polygon","coordinates":[[[11.7817,45.0145],[11.7797,45.0106],[11.7723,45.0066],[11.7628,45.002],[11.7458,44.9971],[11.7369,44.9982],[11.729,44.9955],[11.7098,44.9942],[11.7089,44.9999],[11.7117,45.0199],[11.7124,45.0353],[11.7257,45.0428],[11.7317,45.0407],[11.7385,45.0409],[11.7433,45.0401],[11.7443,45.0313],[11.7592,45.0265],[11.7605,45.0249],[11.7602,45.0197],[11.7632,45.017],[11.7663,45.018],[11.7648,45.0208],[11.7729,45.0241],[11.7741,45.024],[11.7806,45.0149],[11.7817,45.0145]]]}},{"type":"Feature","properties":{"i":"029004","n":"Badia Polesine"},"geometry":{"type":"Polygon","coordinates":[[[11.468,45.1088],[11.493,45.1031],[11.4961,45.1037],[11.507,45.1084],[11.5154,45.1148],[11.5175,45.1184],[11.5222,45.1202],[11.5289,45.1209],[11.5612,45.1205],[11.5696,45.1227],[11.5718,45.1189],[11.5689,45.1116],[11.5614,45.1088],[11.5618,45.0998],[11.5611,45.0955],[11.5573,45.0944],[11.5449,45.0962],[11.5446,45.0972],[11.542,45.0981],[11.5316,45.0976],[11.5177,45.0906],[11.5166,45.0874],[11.5174,45.0861],[11.5312,45.0816],[11.529,45.0742],[11.5481,45.0639],[11.5453,45.061],[11.5403,45.0586],[11.5466,45.0542],[11.5483,45.0508],[11.5419,45.0511],[11.5372,45.0529],[11.5347,45.0568],[11.521,45.0653],[11.5192,45.0638],[11.5128,45.0619],[11.4967,45.0625],[11.4923,45.06],[11.4751,45.055],[11.4688,45.0546],[11.4557,45.0601],[11.4559,45.0622],[11.4678,45.065],[11.4709,45.0719],[11.47,45.0782],[11.4715,45.0865],[11.4714,45.0904],[11.4671,45.0979],[11.4654,45.0993],[11.4604,45.0997],[11.4568,45.0989],[11.45,45.0948],[11.4479,45.0917],[11.4485,45.0905],[11.4465,45.0861],[11.4437,45.0819],[11.4421,45.0836],[11.44,45.0896],[11.4417,45.0912],[11.441,45.096],[11.4362,45.1027],[11.4334,45.1044],[11.4247,45.1133],[11.4165,45.1191],[11.411,45.1216],[11.4097,45.1245],[11.4092,45.131],[11.411,45.1323],[11.4276,45.1247],[11.4456,45.1186],[11.468,45.1088]]]}},{"type":"Feature","properties":{"i":"029005","n":"Bagnolo di Po"},"geometry":{"type":"Polygon","coordinates":[[[11.5407,44.9798],[11.5295,44.9776],[11.5272,44.9835],[11.5179,44.9822],[11.5165,44.9807],[11.5098,44.9791],[11.4875,44.9764],[11.4797,44.978],[11.4619,44.9784],[11.4629,44.9876],[11.4815,44.9883],[11.4871,44.9924],[11.4889,44.9958],[11.4829,45.0009],[11.4809,45.0127],[11.4771,45.0198],[11.4771,45.0214],[11.4778,45.0244],[11.4809,45.0274],[11.4872,45.0265],[11.489,45.0309],[11.4891,45.0358],[11.4975,45.0338],[11.4957,45.032],[11.4967,45.0308],[11.5006,45.0319],[11.5049,45.0244],[11.5054,45.019],[11.5063,45.0174],[11.5091,45.015],[11.5133,45.0146],[11.5262,45.0096],[11.5338,44.997],[11.535,44.997],[11.5409,45.0002],[11.5449,45.0002],[11.5454,44.9975],[11.5416,44.9954],[11.5379,44.9881],[11.5407,44.9798]]]}},{"type":"Feature","properties":{"i":"029006","n":"Bergantino"},"geometry":{"type":"Polygon","coordinates":[[[11.2805,45.0911],[11.2794,45.09],[11.2772,45.0841],[11.2764,45.0736],[11.279,45.0685],[11.2776,45.0599],[11.2746,45.0503],[11.2776,45.0475],[11.2787,45.0452],[11.2704,45.044],[11.2706,45.0475],[11.2687,45.0534],[11.2676,45.0552],[11.2643,45.0568],[11.2614,45.0563],[11.257,45.0539],[11.253,45.0504],[11.249,45.0454],[11.2454,45.0437],[11.2385,45.0432],[11.2298,45.0478],[11.2296,45.0531],[11.2281,45.0558],[11.2256,45.0574],[11.2238,45.0607],[11.2276,45.0695],[11.2346,45.0762],[11.2338,45.0886],[11.2442,45.0925],[11.2493,45.0915],[11.2602,45.0916],[11.2781,45.093],[11.2805,45.0911]]]}},{"type":"Feature","properties":{"i":"029007","n":"Bosaro"},"geometry":{"type":"Polygon","coordinates":[[[11.783,45.0001],[11.7704,44.9922],[11.7688,44.9922],[11.7678,44.985],[11.7527,44.9826],[11.7488,44.9931],[11.7458,44.9971],[11.7628,45.002],[11.7723,45.0066],[11.7797,45.0106],[11.7817,45.0145],[11.7856,45.0171],[11.7918,45.0242],[11.8088,45.0318],[11.8133,45.0329],[11.8141,45.0322],[11.8146,45.0316],[11.807,45.0288],[11.8004,45.0235],[11.7989,45.0216],[11.7991,45.0202],[11.7975,45.0148],[11.7963,45.0136],[11.785,45.0114],[11.7809,45.0098],[11.783,45.0026],[11.783,45.0001]]]}},{"type":"Feature","properties":{"i":"029008","n":"Calto"},"geometry":{"type":"Polygon","coordinates":[[[11.3615,45.0165],[11.3549,45.0125],[11.3482,45.0046],[11.3644,45.0024],[11.3728,44.9966],[11.3721,44.9953],[11.3726,44.995],[11.3895,44.9891],[11.3835,44.9809],[11.3901,44.9798],[11.391,44.9787],[11.3904,44.9764],[11.388,44.9738],[11.3664,44.9805],[11.3564,44.9844],[11.3382,44.9894],[11.3319,44.9922],[11.3272,44.9957],[11.3438,45.019],[11.3469,45.0198],[11.3562,45.0191],[11.3615,45.0165]]]}},{"type":"Feature","properties":{"i":"029009","n":"Canaro"},"geometry":{"type":"Polygon","coordinates":[[[11.7117,44.9557],[11.713,44.9549],[11.7108,44.9516],[11.7036,44.9477],[11.7031,44.9412],[11.7055,44.9408],[11.7232,44.9431],[11.7293,44.9447],[11.74,44.9498],[11.7401,44.9461],[11.7447,44.9371],[11.7448,44.935],[11.744,44.9336],[11.7329,44.9266],[11.7184,44.9267],[11.7076,44.9245],[11.6978,44.9202],[11.6822,44.9163],[11.6713,44.9148],[11.6569,44.9071],[11.6548,44.9096],[11.6565,44.9124],[11.6448,44.9164],[11.6429,44.9161],[11.6377,44.9239],[11.6371,44.9303],[11.6361,44.9331],[11.6313,44.9384],[11.6317,44.9435],[11.6347,44.9507],[11.6401,44.9524],[11.6508,44.9581],[11.6541,44.9642],[11.6529,44.9681],[11.6621,44.9747],[11.6658,44.9736],[11.67,44.9707],[11.6656,44.9659],[11.663,44.9617],[11.6618,44.9579],[11.663,44.9565],[11.6724,44.9555],[11.6923,44.9606],[11.7044,44.9567],[11.7117,44.9557]]]}},{"type":"Feature","properties":{"i":"029010","n":"Canda"},"geometry":{"type":"Polygon","coordinates":[[[11.5484,45.051],[11.5538,45.0431],[11.552,45.0433],[11.5469,45.0417],[11.5464,45.0399],[11.5483,45.0371],[11.5455,45.0338],[11.5326,45.0315],[11.5196,45.0306],[11.502,45.0342],[11.4975,45.0338],[11.4891,45.0358],[11.4824,45.0363],[11.4789,45.0393],[11.4799,45.0474],[11.4936,45.0482],[11.4966,45.0533],[11.4935,45.0572],[11.4923,45.06],[11.4967,45.0625],[11.5128,45.0619],[11.5192,45.0638],[11.521,45.0653],[11.5347,45.0568],[11.5372,45.0529],[11.5419,45.0511],[11.5484,45.051]]]}},{"type":"Feature","properties":{"i":"029011","n":"Castelguglielmo"},"geometry":{"type":"Polygon","coordinates":[[[11.5538,45.0431],[11.5714,45.0422],[11.5726,45.0415],[11.5692,45.032],[11.5592,45.0339],[11.5534,45.0322],[11.5519,45.0294],[11.5539,45.0235],[11.5557,45.022],[11.5622,45.0193],[11.5691,45.0173],[11.5699,45.0046],[11.5934,44.9943],[11.5957,44.9915],[11.5952,44.9909],[11.5874,44.9893],[11.5558,44.988],[11.5553,44.983],[11.5407,44.9798],[11.5379,44.9881],[11.5416,44.9954],[11.5454,44.9975],[11.5449,45.0002],[11.5409,45.0002],[11.535,44.997],[11.5338,44.997],[11.5262,45.0096],[11.5133,45.0146],[11.509,45.0151],[11.5054,45.019],[11.5049,45.0244],[11.5006,45.0319],[11.4967,45.0308],[11.4957,45.032],[11.4975,45.0338],[11.502,45.0342],[11.5196,45.0306],[11.5326,45.0315],[11.5455,45.0338],[11.5483,45.0371],[11.5464,45.0399],[11.5469,45.0417],[11.552,45.0433],[11.5538,45.0431]]]}},{"type":"Feature","properties":{"i":"029012","n":"Castelmassa"},"geometry":{"type":"Polygon","coordinates":[[[11.3615,45.0165],[11.3562,45.0191],[11.3469,45.0198],[11.3438,45.019],[11.3272,44.9957],[11.3179,45.0042],[11.3132,45.0097],[11.3087,45.0124],[11.2989,45.0145],[11.3012,45.0233],[11.3005,45.0269],[11.3018,45.0301],[11.3117,45.036],[11.3161,45.0355],[11.3204,45.034],[11.3309,45.0369],[11.3337,45.0398],[11.3372,45.0452],[11.3459,45.0436],[11.3519,45.0411],[11.3452,45.0304],[11.339,45.0241],[11.3474,45.0203],[11.3576,45.0198],[11.3614,45.0179],[11.3622,45.0171],[11.3615,45.0165]]]}},{"type":"Feature","properties":{"i":"029013","n":"Castelnovo Bariano"},"geometry":{"type":"Polygon","coordinates":[[[11.3259,45.0803],[11.3346,45.075],[11.3458,45.071],[11.3501,45.0712],[11.3539,45.0704],[11.3565,45.068],[11.3608,45.0573],[11.3519,45.0411],[11.3459,45.0436],[11.3372,45.0452],[11.3337,45.0398],[11.3309,45.0369],[11.3204,45.034],[11.3141,45.0359],[11.3106,45.0357],[11.3014,45.0295],[11.3005,45.0269],[11.3012,45.0233],[11.2989,45.0145],[11.2774,45.0169],[11.274,45.0183],[11.2733,45.0192],[11.2728,45.0241],[11.2713,45.0271],[11.2631,45.0329],[11.2704,45.044],[11.2787,45.0452],[11.2776,45.0475],[11.2746,45.0503],[11.2776,45.0599],[11.279,45.0685],[11.2764,45.0736],[11.2772,45.0841],[11.2794,45.09],[11.2805,45.0911],[11.286,45.0904],[11.3003,45.0923],[11.3057,45.0922],[11.3157,45.0901],[11.3185,45.0875],[11.32,45.0811],[11.3238,45.0795],[11.3259,45.0803]]]}},{"type":"Feature","properties":{"i":"029014","n":"Ceneselli"},"geometry":{"type":"Polygon","coordinates":[[[11.4309,45.0359],[11.4134,45.0289],[11.401,45.0277],[11.3994,45.0288],[11.3973,45.022],[11.4037,45.0106],[11.4052,45.0039],[11.3943,45.0033],[11.3939,45.0009],[11.4029,45.002],[11.4026,44.9992],[11.3895,44.9891],[11.3726,44.995],[11.3721,44.9953],[11.3728,44.9966],[11.3644,45.0024],[11.3482,45.0046],[11.3549,45.0125],[11.3622,45.0171],[11.3576,45.0198],[11.3474,45.0203],[11.339,45.0241],[11.3452,45.0304],[11.3606,45.0562],[11.3898,45.0545],[11.4034,45.0515],[11.4058,45.0506],[11.4067,45.0492],[11.4145,45.0437],[11.4241,45.0381],[11.4309,45.0359]]]}},{"type":"Feature","properties":{"i":"029015","n":"Ceregnano"},"geometry":{"type":"Polygon","coordinates":[[[11.972,45.0417],[11.9561,45.0355],[11.9457,45.0294],[11.9424,45.0289],[11.9128,45.0361],[11.8992,45.0371],[11.8993,45.0189],[11.894,45.0179],[11.8914,45.0299],[11.8862,45.0274],[11.8691,45.0239],[11.868,45.0305],[11.8663,45.0344],[11.8595,45.0423],[11.8582,45.0466],[11.8526,45.058],[11.845,45.0601],[11.8373,45.0573],[11.8354,45.0603],[11.8386,45.0626],[11.8534,45.0655],[11.8576,45.0656],[11.8673,45.0632],[11.871,45.0646],[11.8789,45.0653],[11.8854,45.0637],[11.8876,45.059],[11.9091,45.0544],[11.9682,45.069],[11.9683,45.0608],[11.9729,45.0527],[11.9674,45.0463],[11.972,45.0417]]]}},{"type":"Feature","properties":{"i":"029017","n":"Corbola"},"geometry":{"type":"Polygon","coordinates":[[[12.1621,44.9938],[12.158,44.9816],[12.149,44.9779],[12.1048,44.987],[12.1022,44.9867],[12.1001,44.983],[12.0922,44.9785],[12.0815,44.9837],[12.0863,44.9897],[12.0865,44.9919],[12.0852,44.9951],[12.082,44.9981],[12.0697,45.0053],[12.0674,45.0085],[12.0669,45.0121],[12.0683,45.0156],[12.0753,45.0189],[12.0823,45.0201],[12.094,45.0207],[12.1018,45.0106],[12.1621,44.9938]]]}},{"type":"Feature","properties":{"i":"029018","n":"Costa di Rovigo"},"geometry":{"type":"Polygon","coordinates":[[[11.7257,45.0428],[11.7124,45.0353],[11.7064,45.0369],[11.7017,45.0356],[11.6981,45.0332],[11.6961,45.0293],[11.6947,45.0283],[11.6918,45.0282],[11.6831,45.0336],[11.6784,45.0386],[11.6724,45.0421],[11.6679,45.0426],[11.6733,45.0506],[11.6734,45.0497],[11.6741,45.05],[11.6763,45.0523],[11.6839,45.0625],[11.691,45.0641],[11.6924,45.0661],[11.7037,45.0746],[11.7098,45.076],[11.7159,45.0756],[11.7158,45.0736],[11.7273,45.0688],[11.7377,45.0664],[11.7357,45.0617],[11.7281,45.0554],[11.7252,45.0458],[11.7257,45.0428]]]}},{"type":"Feature","properties":{"i":"029019","n":"Crespino"},"geometry":{"type":"Polygon","coordinates":[[[11.8993,45.0189],[11.9019,45.0121],[11.9162,45.0113],[11.9281,44.9963],[11.9273,44.98],[11.9278,44.975],[11.9212,44.9747],[11.9062,44.9765],[11.8898,44.977],[11.8709,44.9747],[11.8559,44.9746],[11.8383,44.9728],[11.8377,44.9761],[11.84,44.9842],[11.8474,44.9943],[11.848,44.9988],[11.842,45.0113],[11.8359,45.0129],[11.8552,45.0211],[11.8862,45.0274],[11.8914,45.0299],[11.894,45.0179],[11.8993,45.0189]]]}},{"type":"Feature","properties":{"i":"029021","n":"Ficarolo"},"geometry":{"type":"Polygon","coordinates":[[[11.4619,44.9784],[11.4797,44.978],[11.4778,44.9669],[11.4736,44.9625],[11.4684,44.961],[11.4573,44.9502],[11.4584,44.9442],[11.4617,44.9423],[11.4658,44.936],[11.4326,44.9291],[11.4294,44.929],[11.4264,44.9301],[11.425,44.9323],[11.4239,44.9379],[11.4247,44.9438],[11.4275,44.9528],[11.4273,44.9579],[11.423,44.9631],[11.4148,44.9673],[11.4198,44.9733],[11.4347,44.978],[11.4415,44.9824],[11.4476,44.9806],[11.4532,44.9777],[11.4583,44.9776],[11.4619,44.9784]]]}},{"type":"Feature","properties":{"i":"029022","n":"Fiesso Umbertiano"},"geometry":{"type":"Polygon","coordinates":[[[11.5726,44.9884],[11.5776,44.9878],[11.5813,44.9854],[11.5802,44.9835],[11.581,44.9787],[11.5898,44.9776],[11.5939,44.9787],[11.6019,44.9784],[11.6041,44.9777],[11.6061,44.9737],[11.6138,44.9722],[11.6338,44.9743],[11.6411,44.9769],[11.6552,44.9855],[11.6618,44.9783],[11.6621,44.9747],[11.6529,44.9681],[11.6541,44.9642],[11.6508,44.9581],[11.6401,44.9524],[11.6347,44.9507],[11.6317,44.9435],[11.6315,44.9375],[11.6268,44.9384],[11.6255,44.9405],[11.6211,44.9442],[11.6123,44.9446],[11.5941,44.9417],[11.5904,44.9419],[11.5726,44.9503],[11.5668,44.9498],[11.5557,44.9665],[11.5559,44.9725],[11.5585,44.974],[11.5589,44.9837],[11.5553,44.983],[11.5558,44.988],[11.5726,44.9884]]]}},{"type":"Feature","properties":{"i":"029023","n":"Frassinelle Polesine"},"geometry":{"type":"Polygon","coordinates":[[[11.7098,44.9942],[11.729,44.9955],[11.726,44.9877],[11.7233,44.9753],[11.7243,44.9656],[11.7201,44.9595],[11.7117,44.9557],[11.7044,44.9567],[11.6923,44.9606],[11.6708,44.9554],[11.6641,44.9561],[11.6621,44.9572],[11.663,44.9617],[11.6656,44.9659],[11.67,44.9707],[11.6658,44.9736],[11.6621,44.9747],[11.6618,44.9783],[11.6552,44.9855],[11.6591,44.9876],[11.6728,45.0009],[11.6751,45.0036],[11.6768,45.0076],[11.6807,45.0074],[11.6829,45.0059],[11.6882,44.9954],[11.7098,44.9942]]]}},{"type":"Feature","properties":{"i":"029024","n":"Fratta Polesine"},"geometry":{"type":"Polygon","coordinates":[[[11.6733,45.0506],[11.6679,45.0426],[11.668,45.0398],[11.6647,45.0293],[11.6623,45.0248],[11.6599,45.0105],[11.6605,45.0094],[11.6383,45.0019],[11.6247,45.0025],[11.6103,45.0018],[11.5942,44.9943],[11.5937,44.9989],[11.5862,45.0045],[11.5881,45.017],[11.5905,45.0195],[11.6004,45.0229],[11.6038,45.0202],[11.6035,45.0171],[11.6052,45.0173],[11.62,45.0218],[11.622,45.0236],[11.6281,45.0381],[11.6252,45.0406],[11.6229,45.0418],[11.6217,45.0416],[11.6221,45.0421],[11.6295,45.0411],[11.6387,45.0368],[11.6406,45.0369],[11.6461,45.0391],[11.6471,45.0453],[11.6441,45.0509],[11.6461,45.0521],[11.6495,45.051],[11.655,45.0511],[11.6637,45.0531],[11.6724,45.0514],[11.6733,45.0506]]]}},{"type":"Feature","properties":{"i":"029025","n":"Gaiba"},"geometry":{"type":"Polygon","coordinates":[[[11.5237,44.9369],[11.4895,44.9373],[11.4658,44.936],[11.4617,44.9423],[11.4584,44.9442],[11.4573,44.9502],[11.4684,44.961],[11.4736,44.9625],[11.4778,44.9669],[11.4797,44.978],[11.4875,44.9764],[11.488,44.9747],[11.4974,44.9605],[11.5011,44.9528],[11.5009,44.9518],[11.5063,44.946],[11.5126,44.9469],[11.5185,44.945],[11.5223,44.9405],[11.5237,44.9369]]]}},{"type":"Feature","properties":{"i":"029026","n":"Gavello"},"geometry":{"type":"Polygon","coordinates":[[[11.9995,45.0278],[11.9995,45.0309],[11.9895,45.0298],[11.9848,45.0269],[11.9812,45.0218],[11.9778,45.0191],[11.97,45.0195],[11.9627,45.0179],[11.9582,45.0148],[11.9521,45.0098],[11.9487,45.0011],[11.9365,44.9976],[11.9281,44.9963],[11.9162,45.0113],[11.9019,45.0121],[11.8993,45.0189],[11.8992,45.0371],[11.9128,45.0361],[11.9316,45.0311],[11.9424,45.0289],[11.9457,45.0294],[11.9561,45.0355],[11.9816,45.0453],[11.9866,45.05],[11.9976,45.0542],[12.0086,45.0494],[12.0119,45.0461],[12.0134,45.0423],[12.0132,45.0385],[11.9995,45.0278]]]}},{"type":"Feature","properties":{"i":"029027","n":"Giacciano con Baruchella"},"geometry":{"type":"Polygon","coordinates":[[[11.4557,45.0601],[11.4567,45.0513],[11.4641,45.049],[11.4642,45.0471],[11.4603,45.0449],[11.4557,45.0469],[11.4499,45.0459],[11.4334,45.0387],[11.4309,45.0359],[11.4241,45.0381],[11.4145,45.0437],[11.4067,45.0492],[11.4058,45.0506],[11.4034,45.0515],[11.3898,45.0545],[11.3606,45.0562],[11.3608,45.0573],[11.3688,45.0579],[11.3743,45.0569],[11.3858,45.0571],[11.3941,45.0544],[11.4024,45.053],[11.413,45.0606],[11.4163,45.0643],[11.4217,45.0676],[11.435,45.0682],[11.438,45.0693],[11.4424,45.0726],[11.4441,45.0757],[11.4456,45.0803],[11.4437,45.0819],[11.4465,45.0861],[11.4485,45.0905],[11.4479,45.0917],[11.45,45.0948],[11.4568,45.0989],[11.4604,45.0997],[11.4654,45.0993],[11.4671,45.0979],[11.4714,45.0904],[11.4715,45.0865],[11.47,45.0782],[11.4709,45.0719],[11.4678,45.065],[11.4559,45.0622],[11.4557,45.0601]]]}},{"type":"Feature","properties":{"i":"029028","n":"Guarda Veneta"},"geometry":{"type":"Polygon","coordinates":[[[11.8481,44.9966],[11.8474,44.9943],[11.84,44.9842],[11.8377,44.9761],[11.8383,44.9728],[11.8178,44.977],[11.8065,44.9772],[11.7991,44.975],[11.7884,44.9664],[11.7825,44.9638],[11.7722,44.962],[11.7711,44.9649],[11.7673,44.9686],[11.7656,44.9678],[11.7688,44.9922],[11.7704,44.9922],[11.783,45.0001],[11.8481,44.9966]]]}},{"type":"Feature","properties":{"i":"029029","n":"Lendinara"},"geometry":{"type":"Polygon","coordinates":[[[11.6106,45.1099],[11.6007,45.1072],[11.5995,45.1017],[11.6001,45.0977],[11.6095,45.0948],[11.6232,45.0938],[11.6326,45.0873],[11.6353,45.0872],[11.6344,45.0763],[11.6392,45.071],[11.6452,45.07],[11.6434,45.0638],[11.6416,45.0634],[11.64,45.0645],[11.6339,45.0645],[11.6286,45.0632],[11.6263,45.0612],[11.6299,45.057],[11.6346,45.0561],[11.6379,45.0578],[11.6404,45.0582],[11.6433,45.0567],[11.6461,45.0521],[11.6441,45.0509],[11.6471,45.0453],[11.6459,45.0385],[11.6387,45.0368],[11.6295,45.0411],[11.6252,45.042],[11.6221,45.0421],[11.6201,45.0408],[11.6075,45.0388],[11.6041,45.0391],[11.5838,45.0459],[11.565,45.0453],[11.5631,45.0447],[11.5606,45.0423],[11.5538,45.0431],[11.5466,45.0542],[11.5403,45.0586],[11.5453,45.061],[11.5481,45.0639],[11.529,45.0742],[11.5312,45.0816],[11.52,45.085],[11.5174,45.0861],[11.5166,45.0874],[11.5179,45.0909],[11.5316,45.0976],[11.542,45.0981],[11.5446,45.0972],[11.5449,45.0962],[11.5573,45.0944],[11.5611,45.0955],[11.5618,45.0998],[11.5614,45.1088],[11.5689,45.1116],[11.5718,45.1189],[11.5696,45.1227],[11.5726,45.1241],[11.5785,45.1235],[11.5814,45.1205],[11.5908,45.1177],[11.5953,45.1184],[11.6,45.1176],[11.6098,45.1117],[11.6106,45.1099]]]}},{"type":"Feature","properties":{"i":"029030","n":"Loreo"},"geometry":{"type":"Polygon","coordinates":[[[12.2177,45.0571],[12.2003,45.0425],[12.1929,45.033],[12.1924,45.0294],[12.1896,45.0237],[12.1869,45.0212],[12.1828,45.0239],[12.1749,45.0266],[12.1654,45.0279],[12.1587,45.0277],[12.1568,45.0289],[12.1459,45.0388],[12.15,45.0417],[12.154,45.0414],[12.1555,45.042],[12.1623,45.0486],[12.1621,45.0499],[12.1544,45.0535],[12.1498,45.0543],[12.1479,45.0538],[12.1461,45.0517],[12.143,45.0516],[12.1392,45.0532],[12.1365,45.0563],[12.1397,45.0559],[12.1481,45.0576],[12.1484,45.0583],[12.1465,45.0619],[12.1478,45.0686],[12.1539,45.0718],[12.157,45.0722],[12.1604,45.0798],[12.1595,45.0819],[12.1599,45.0841],[12.1678,45.094],[12.1744,45.0923],[12.1747,45.0913],[12.1801,45.0885],[12.188,45.0891],[12.1959,45.0995],[12.2033,45.1054],[12.2153,45.1045],[12.2227,45.1049],[12.238,45.1064],[12.2458,45.1083],[12.2471,45.1052],[12.2408,45.0998],[12.2213,45.0667],[12.2177,45.0571]]]}},{"type":"Feature","properties":{"i":"029031","n":"Lusia"},"geometry":{"type":"Polygon","coordinates":[[[11.6385,45.1087],[11.644,45.1086],[11.6525,45.1071],[11.6551,45.1056],[11.663,45.1039],[11.67,45.1057],[11.6849,45.1021],[11.6945,45.0986],[11.7088,45.1021],[11.7074,45.0922],[11.7002,45.0874],[11.6971,45.087],[11.6929,45.0879],[11.6857,45.0864],[11.68,45.0836],[11.6665,45.0788],[11.6509,45.0795],[11.6441,45.0807],[11.6407,45.086],[11.6326,45.0873],[11.6232,45.0938],[11.6095,45.0948],[11.6001,45.0977],[11.5995,45.1017],[11.6007,45.1072],[11.6061,45.1087],[11.6106,45.1099],[11.6385,45.1087]]]}},{"type":"Feature","properties":{"i":"029032","n":"Melara"},"geometry":{"type":"Polygon","coordinates":[[[11.2338,45.0886],[11.2346,45.0762],[11.2276,45.0695],[11.2238,45.0607],[11.2256,45.0574],[11.2281,45.0558],[11.2296,45.0531],[11.2298,45.0478],[11.2122,45.0575],[11.2005,45.0603],[11.1811,45.0612],[11.1753,45.0601],[11.1743,45.0616],[11.1736,45.0708],[11.1755,45.0749],[11.1826,45.0789],[11.1884,45.0841],[11.1875,45.0865],[11.1829,45.0879],[11.1793,45.0876],[11.1768,45.0885],[11.1775,45.0973],[11.1884,45.1015],[11.2055,45.1095],[11.2051,45.0997],[11.2104,45.094],[11.223,45.0844],[11.2291,45.0855],[11.2338,45.0886]]]}},{"type":"Feature","properties":{"i":"029033","n":"Occhiobello"},"geometry":{"type":"Polygon","coordinates":[[[11.6315,44.9375],[11.6361,44.9331],[11.6371,44.9303],[11.6377,44.9239],[11.6429,44.9161],[11.6448,44.9164],[11.6565,44.9124],[11.6548,44.9096],[11.6569,44.9071],[11.6248,44.8892],[11.6196,44.8881],[11.6009,44.889],[11.5935,44.8909],[11.5913,44.8932],[11.5883,44.8993],[11.5876,44.9087],[11.5847,44.9132],[11.5776,44.9171],[11.5727,44.9184],[11.5651,44.9189],[11.5601,44.9205],[11.5491,44.9288],[11.5617,44.9309],[11.5669,44.9334],[11.5669,44.9376],[11.5639,44.9421],[11.5582,44.9432],[11.5617,44.9486],[11.5668,44.9498],[11.5726,44.9503],[11.5904,44.9419],[11.5941,44.9417],[11.6123,44.9446],[11.6211,44.9442],[11.6255,44.9405],[11.6268,44.9384],[11.6315,44.9375]]]}},{"type":"Feature","properties":{"i":"029034","n":"Papozze"},"geometry":{"type":"Polygon","coordinates":[[[12.0815,44.9837],[12.0733,44.9793],[12.0642,44.9776],[12.0169,44.9765],[11.9966,44.9822],[11.9858,44.9837],[11.9995,44.9975],[12.0046,44.9956],[12.0089,45.0008],[12.016,45.0058],[12.0216,45.0065],[12.0389,44.9998],[12.0429,44.9995],[12.046,45.0124],[12.07,45.0206],[12.0716,45.0203],[12.0726,45.0178],[12.0693,45.0164],[12.0675,45.0144],[12.0669,45.0121],[12.0674,45.0085],[12.0703,45.0048],[12.083,44.9974],[12.0862,44.9928],[12.0866,44.9908],[12.0859,44.9887],[12.0815,44.9837]]]}},{"type":"Feature","properties":{"i":"029035","n":"Pettorazza Grimani"},"geometry":{"type":"Polygon","coordinates":[[[12.0255,45.1196],[12.0268,45.1154],[12.0289,45.1136],[12.0264,45.107],[12.0127,45.0956],[12.0099,45.0946],[12.0067,45.095],[11.9903,45.1043],[11.9826,45.1005],[11.9777,45.1001],[11.9602,45.1104],[11.955,45.1098],[11.9604,45.1263],[11.9696,45.1244],[11.9741,45.129],[11.9748,45.1337],[11.9738,45.1348],[11.9949,45.1397],[12.0057,45.1403],[12.023,45.1386],[12.0407,45.1333],[12.0398,45.1297],[12.035,45.1287],[12.0295,45.1253],[12.0255,45.1196]]]}},{"type":"Feature","properties":{"i":"029036","n":"Pincara"},"geometry":{"type":"Polygon","coordinates":[[[11.6768,45.0076],[11.6751,45.0036],[11.6728,45.0009],[11.6591,44.9876],[11.6411,44.9769],[11.6338,44.9743],[11.6138,44.9722],[11.6061,44.9737],[11.6041,44.9777],[11.6019,44.9784],[11.5939,44.9787],[11.5898,44.9776],[11.581,44.9787],[11.5802,44.9835],[11.5813,44.9854],[11.5776,44.9878],[11.5726,44.9884],[11.5799,44.9895],[11.5887,44.9895],[11.5952,44.9909],[11.5957,44.9915],[11.5934,44.9943],[11.6103,45.0018],[11.6247,45.0025],[11.6383,45.0019],[11.6605,45.0094],[11.6768,45.0076]]]}},{"type":"Feature","properties":{"i":"029037","n":"Polesella"},"geometry":{"type":"Polygon","coordinates":[[[11.7678,44.985],[11.7656,44.9678],[11.7673,44.9686],[11.7711,44.9649],[11.7722,44.962],[11.747,44.9581],[11.7424,44.9546],[11.74,44.9498],[11.7293,44.9447],[11.7232,44.9431],[11.7055,44.9408],[11.7031,44.9412],[11.7034,44.947],[11.7042,44.9483],[11.7108,44.9516],[11.713,44.9549],[11.7117,44.9557],[11.7201,44.9595],[11.7243,44.9656],[11.7233,44.9753],[11.726,44.9877],[11.729,44.9955],[11.7369,44.9982],[11.7458,44.9971],[11.7488,44.9931],[11.7527,44.9826],[11.7678,44.985]]]}},{"type":"Feature","properties":{"i":"029038","n":"Pontecchio Polesine"},"geometry":{"type":"Polygon","coordinates":[[[11.8359,45.0129],[11.8414,45.0116],[11.8426,45.0105],[11.8475,45.0009],[11.8481,44.9966],[11.783,45.0001],[11.783,45.0026],[11.7809,45.0098],[11.785,45.0114],[11.7963,45.0136],[11.7975,45.0148],[11.7991,45.0202],[11.7989,45.0216],[11.803,45.0258],[11.8082,45.0294],[11.8177,45.0321],[11.8184,45.0284],[11.8219,45.0239],[11.8298,45.0168],[11.8359,45.0129]]]}},{"type":"Feature","properties":{"i":"029039","n":"Porto Tolle"},"geometry":{"type":"Polygon","coordinates":[[[12.4082,44.7992],[12.4048,44.8022],[12.3992,44.8137],[12.3881,44.8196],[12.3799,44.8261],[12.3712,44.8469],[12.3612,44.865],[12.356,44.8697],[12.3397,44.8756],[12.3335,44.8787],[12.3289,44.8831],[12.3275,44.8857],[12.3278,44.8902],[12.3269,44.8935],[12.3241,44.8968],[12.3165,44.9009],[12.3131,44.9056],[12.3137,44.9086],[12.3189,44.9165],[12.324,44.9283],[12.3246,44.9313],[12.3232,44.9334],[12.3189,44.9363],[12.303,44.939],[12.3002,44.9412],[12.2996,44.9436],[12.3019,44.9503],[12.3,44.9534],[12.3128,44.9532],[12.3221,44.9541],[12.3259,44.9553],[12.331,44.9583],[12.342,44.974],[12.3419,44.9814],[12.3401,44.9849],[12.3401,44.987],[12.3445,44.9941],[12.3479,44.9967],[12.3569,44.9979],[12.3654,44.9954],[12.3719,44.9854],[12.3792,44.9817],[12.3818,44.9828],[12.388,44.9915],[12.3915,44.9951],[12.4006,45.0003],[12.4067,45.002],[12.4204,45.0032],[12.4237,45.0048],[12.4238,45.0064],[12.4102,45.0179],[12.4097,45.0205],[12.41,45.037],[12.4277,45.026],[12.4501,45.0106],[12.455,45.0094],[12.4608,45.0065],[12.4751,44.9979],[12.4849,44.9931],[12.4956,44.9963],[12.5042,44.9945],[12.5042,44.9919],[12.5065,44.9896],[12.5052,44.996],[12.5057,44.9967],[12.5177,44.9882],[12.531,44.9808],[12.5436,44.9758],[12.5535,44.969],[12.5553,44.9657],[12.5553,44.9604],[12.5409,44.9547],[12.5148,44.9328],[12.5099,44.9266],[12.4814,44.868],[12.4661,44.8437],[12.4545,44.8381],[12.4244,44.8272],[12.4155,44.82],[12.4228,44.8154],[12.4235,44.813],[12.4224,44.8111],[12.4082,44.7992]]]}},{"type":"Feature","properties":{"i":"029040","n":"Rosolina"},"geometry":{"type":"Polygon","coordinates":[[[12.3566,45.0753],[12.3581,45.0718],[12.3555,45.0665],[12.3594,45.0622],[12.3743,45.0583],[12.3759,45.0563],[12.3758,45.0551],[12.3577,45.0471],[12.3465,45.0452],[12.3388,45.0447],[12.3231,45.0456],[12.3107,45.0478],[12.2907,45.0558],[12.278,45.0555],[12.2618,45.0636],[12.2507,45.0629],[12.247,45.0611],[12.246,45.0589],[12.2431,45.0582],[12.236,45.0596],[12.2345,45.0603],[12.2344,45.0626],[12.2318,45.0633],[12.2177,45.0571],[12.2213,45.0667],[12.2408,45.0998],[12.2471,45.1052],[12.2458,45.1083],[12.2662,45.1158],[12.2807,45.1229],[12.2843,45.1258],[12.2854,45.1284],[12.2851,45.1302],[12.2805,45.138],[12.2804,45.1401],[12.2815,45.1425],[12.2827,45.1434],[12.2882,45.1445],[12.2985,45.1433],[12.3093,45.1438],[12.3125,45.1447],[12.3327,45.1631],[12.3347,45.1638],[12.3305,45.1534],[12.3268,45.1368],[12.3291,45.1188],[12.3369,45.0983],[12.3356,45.0933],[12.334,45.0913],[12.3339,45.089],[12.3449,45.0892],[12.3566,45.0753]]]}},{"type":"Feature","properties":{"i":"029041","n":"Rovigo"},"geometry":{"type":"Polygon","coordinates":[[[11.9191,45.1051],[11.8856,45.0963],[11.8721,45.0914],[11.8691,45.0859],[11.8631,45.0811],[11.8593,45.0795],[11.8575,45.0765],[11.8602,45.0725],[11.8649,45.0678],[11.8632,45.0638],[11.8576,45.0656],[11.8534,45.0655],[11.8386,45.0626],[11.8354,45.0603],[11.8373,45.0573],[11.845,45.0601],[11.8526,45.058],[11.8582,45.0466],[11.8595,45.0423],[11.8663,45.0344],[11.868,45.0305],[11.8691,45.0239],[11.8552,45.0211],[11.8359,45.0129],[11.8298,45.0168],[11.8219,45.0239],[11.8184,45.0284],[11.8177,45.0321],[11.8146,45.0316],[11.8133,45.0329],[11.7969,45.027],[11.7918,45.0242],[11.7856,45.0171],[11.7817,45.0145],[11.7806,45.0149],[11.7741,45.024],[11.7729,45.0241],[11.7648,45.0208],[11.7663,45.018],[11.7632,45.017],[11.7602,45.0197],[11.7605,45.0249],[11.7592,45.0265],[11.7443,45.0313],[11.7433,45.0401],[11.7385,45.0409],[11.7317,45.0407],[11.7257,45.0428],[11.7252,45.0458],[11.7281,45.0554],[11.7357,45.0617],[11.7377,45.0664],[11.7273,45.0688],[11.7158,45.0736],[11.7159,45.0756],[11.7082,45.0759],[11.7037,45.0746],[11.6924,45.0661],[11.691,45.0641],[11.6763,45.0822],[11.6857,45.0864],[11.6929,45.0879],[11.6971,45.087],[11.702,45.0881],[11.7074,45.0922],[11.7088,45.1021],[11.7156,45.1015],[11.7196,45.0992],[11.7294,45.0978],[11.7612,45.0956],[11.7757,45.0992],[11.7867,45.1078],[11.7957,45.1112],[11.8068,45.1206],[11.8131,45.1231],[11.8167,45.1233],[11.8234,45.1214],[11.8323,45.122],[11.834,45.1228],[11.8363,45.1256],[11.8418,45.1283],[11.8519,45.1294],[11.8524,45.1232],[11.8502,45.1219],[11.8476,45.1216],[11.8486,45.1141],[11.8542,45.1119],[11.86,45.1068],[11.8601,45.097],[11.9191,45.1051]]]}},{"type":"Feature","properties":{"i":"029042","n":"Salara"},"geometry":{"type":"Polygon","coordinates":[[[11.4629,44.9876],[11.4619,44.9784],[11.4583,44.9776],[11.4532,44.9777],[11.4476,44.9806],[11.4415,44.9824],[11.4347,44.978],[11.4198,44.9733],[11.4148,44.9673],[11.409,44.9695],[11.3958,44.9713],[11.388,44.9738],[11.3904,44.9764],[11.391,44.9787],[11.3901,44.9798],[11.3835,44.9809],[11.3895,44.9891],[11.4026,44.9992],[11.4029,45.002],[11.4081,45.001],[11.4169,44.9951],[11.4195,44.9945],[11.4261,44.9954],[11.435,45.0011],[11.4379,45.0023],[11.4412,45.0025],[11.4477,44.9993],[11.4606,44.9904],[11.4629,44.9876]]]}},{"type":"Feature","properties":{"i":"029043","n":"San Bellino"},"geometry":{"type":"Polygon","coordinates":[[[11.6217,45.0416],[11.6229,45.0418],[11.6252,45.0406],[11.6281,45.0381],[11.622,45.0236],[11.62,45.0218],[11.6035,45.0171],[11.6038,45.0202],[11.6001,45.0229],[11.5905,45.0195],[11.5881,45.017],[11.5862,45.0045],[11.5937,44.9989],[11.5942,44.9943],[11.5699,45.0046],[11.5691,45.0173],[11.5557,45.022],[11.5539,45.0235],[11.5519,45.0294],[11.5534,45.0322],[11.5592,45.0339],[11.5692,45.032],[11.5726,45.0415],[11.5714,45.0422],[11.5606,45.0423],[11.5644,45.0452],[11.5838,45.0459],[11.6024,45.0395],[11.6069,45.0388],[11.6192,45.0406],[11.6217,45.0416]]]}},{"type":"Feature","properties":{"i":"029044","n":"San Martino di Venezze"},"geometry":{"type":"Polygon","coordinates":[[[11.9688,45.134],[11.9738,45.1348],[11.9748,45.1337],[11.9741,45.129],[11.9696,45.1244],[11.9604,45.1263],[11.955,45.1098],[11.8601,45.097],[11.86,45.1068],[11.8542,45.1119],[11.8486,45.1141],[11.8476,45.1216],[11.8502,45.1219],[11.8524,45.1232],[11.8519,45.1294],[11.8572,45.1317],[11.8801,45.135],[11.8913,45.1344],[11.8972,45.1333],[11.9117,45.1367],[11.9245,45.1431],[11.9359,45.1426],[11.9455,45.1364],[11.9485,45.1354],[11.9583,45.1337],[11.9688,45.134]]]}},{"type":"Feature","properties":{"i":"029045","n":"Stienta"},"geometry":{"type":"Polygon","coordinates":[[[11.5668,44.9498],[11.5617,44.9486],[11.5582,44.9432],[11.5639,44.9421],[11.5669,44.9376],[11.5669,44.9334],[11.5617,44.9309],[11.5491,44.9288],[11.5378,44.9352],[11.532,44.9368],[11.5237,44.9369],[11.5223,44.9405],[11.5185,44.945],[11.5126,44.9469],[11.5063,44.946],[11.5009,44.9518],[11.5011,44.9528],[11.4974,44.9605],[11.488,44.9747],[11.4875,44.9764],[11.5098,44.9791],[11.5165,44.9807],[11.5179,44.9822],[11.5272,44.9835],[11.5295,44.9776],[11.5589,44.9837],[11.5585,44.974],[11.5559,44.9725],[11.5557,44.9665],[11.5668,44.9498]]]}},{"type":"Feature","properties":{"i":"029046","n":"Taglio di Po"},"geometry":{"type":"Polygon","coordinates":[[[12.3,44.9534],[12.3019,44.9503],[12.2996,44.9436],[12.3002,44.9412],[12.3013,44.94],[12.303,44.939],[12.3189,44.9363],[12.3232,44.9334],[12.3246,44.9313],[12.324,44.9283],[12.3189,44.9165],[12.3131,44.9074],[12.3137,44.9045],[12.3169,44.9006],[12.3241,44.8968],[12.3269,44.8935],[12.3278,44.8902],[12.3275,44.8857],[12.3317,44.8802],[12.3397,44.8756],[12.356,44.8697],[12.3612,44.865],[12.3712,44.8469],[12.3791,44.8273],[12.3881,44.8196],[12.3913,44.8179],[12.3623,44.8184],[12.344,44.8507],[12.3409,44.8541],[12.3177,44.8594],[12.3013,44.8599],[12.2978,44.8628],[12.2919,44.8734],[12.2908,44.877],[12.289,44.8897],[12.2888,44.9056],[12.2904,44.9148],[12.2957,44.9211],[12.2983,44.9281],[12.297,44.9318],[12.2825,44.9448],[12.2781,44.9447],[12.262,44.9468],[12.2494,44.9571],[12.2408,44.9707],[12.237,44.973],[12.1018,45.0106],[12.094,45.0207],[12.107,45.0213],[12.1199,45.0182],[12.1262,45.0175],[12.1328,45.0187],[12.152,45.0264],[12.1587,45.0277],[12.1677,45.0277],[12.1749,45.0266],[12.1812,45.0246],[12.1979,45.0154],[12.2186,45.0117],[12.2356,45.0073],[12.2372,45.0065],[12.2405,45.0021],[12.2562,44.9726],[12.2619,44.9658],[12.2716,44.9593],[12.2781,44.9569],[12.3,44.9534]]]}},{"type":"Feature","properties":{"i":"029047","n":"Trecenta"},"geometry":{"type":"Polygon","coordinates":[[[11.4891,45.0358],[11.489,45.0309],[11.4872,45.0265],[11.4809,45.0274],[11.4778,45.0244],[11.4771,45.0214],[11.4771,45.0198],[11.4809,45.0127],[11.4829,45.0009],[11.4889,44.9958],[11.4871,44.9924],[11.4815,44.9883],[11.4629,44.9876],[11.4606,44.9904],[11.4477,44.9993],[11.4412,45.0025],[11.4379,45.0023],[11.435,45.0011],[11.4261,44.9954],[11.4195,44.9945],[11.4169,44.9951],[11.4138,44.9977],[11.4068,45.0015],[11.4029,45.002],[11.3939,45.0009],[11.3943,45.0033],[11.4052,45.0039],[11.4037,45.0106],[11.3973,45.022],[11.3994,45.0288],[11.401,45.0277],[11.4134,45.0289],[11.4309,45.0359],[11.4334,45.0387],[11.4499,45.0459],[11.4557,45.0469],[11.4603,45.0449],[11.4638,45.0467],[11.4645,45.0476],[11.4641,45.049],[11.4567,45.0513],[11.4557,45.0601],[11.4688,45.0546],[11.4751,45.055],[11.4923,45.06],[11.4935,45.0572],[11.4966,45.0533],[11.4936,45.0482],[11.4799,45.0474],[11.4789,45.0393],[11.4824,45.0363],[11.4891,45.0358]]]}},{"type":"Feature","properties":{"i":"029048","n":"Villadose"},"geometry":{"type":"Polygon","coordinates":[[[11.9682,45.069],[11.9091,45.0544],[11.8876,45.059],[11.8854,45.0637],[11.8789,45.0653],[11.871,45.0646],[11.8673,45.0632],[11.8632,45.0638],[11.8649,45.0678],[11.8602,45.0725],[11.8575,45.0765],[11.8593,45.0795],[11.8631,45.0811],[11.8691,45.0859],[11.8721,45.0914],[11.8856,45.0963],[11.9191,45.1051],[11.9435,45.1084],[11.9449,45.1076],[11.9521,45.0807],[11.9547,45.0777],[11.9697,45.0698],[11.9682,45.069]]]}},{"type":"Feature","properties":{"i":"029049","n":"Villamarzana"},"geometry":{"type":"Polygon","coordinates":[[[11.7124,45.0353],[11.7117,45.0199],[11.7089,44.9999],[11.7098,44.9942],[11.6882,44.9954],[11.682,45.0068],[11.6605,45.0094],[11.6599,45.0105],[11.6623,45.0248],[11.6647,45.0293],[11.668,45.0398],[11.6679,45.0426],[11.6724,45.0421],[11.6784,45.0386],[11.6831,45.0336],[11.6918,45.0282],[11.6947,45.0283],[11.6961,45.0293],[11.6986,45.0338],[11.702,45.0358],[11.7064,45.0369],[11.7124,45.0353]]]}},{"type":"Feature","properties":{"i":"029050","n":"Villanova del Ghebbo"},"geometry":{"type":"Polygon","coordinates":[[[11.6763,45.0822],[11.691,45.0641],[11.6839,45.0625],[11.6741,45.05],[11.6734,45.0497],[11.6724,45.0514],[11.6637,45.0531],[11.655,45.0511],[11.6482,45.0512],[11.6461,45.0521],[11.6433,45.0567],[11.6413,45.0578],[11.6379,45.0578],[11.6346,45.0561],[11.6299,45.057],[11.6263,45.0612],[11.6286,45.0632],[11.6339,45.0645],[11.64,45.0645],[11.6416,45.0634],[11.6434,45.0638],[11.6452,45.07],[11.6392,45.071],[11.6344,45.0763],[11.6353,45.0872],[11.6407,45.086],[11.6441,45.0807],[11.6509,45.0795],[11.6665,45.0788],[11.6763,45.0822]]]}},{"type":"Feature","properties":{"i":"029051","n":"Villanova Marchesana"},"geometry":{"type":"Polygon","coordinates":[[[11.9995,45.0278],[11.9931,45.025],[11.9906,45.0226],[11.9949,45.013],[11.9998,45.0135],[12.0015,45.0149],[12.0044,45.0112],[12.0041,45.0097],[12.0025,45.0071],[11.9989,45.0053],[11.9964,45.0028],[11.9962,44.9994],[11.9995,44.9975],[11.9858,44.9837],[11.975,44.9858],[11.9627,44.9868],[11.9512,44.9835],[11.9387,44.978],[11.9278,44.975],[11.9273,44.98],[11.9281,44.9963],[11.9365,44.9976],[11.9487,45.0011],[11.9521,45.0098],[11.9582,45.0148],[11.9627,45.0179],[11.97,45.0195],[11.9778,45.0191],[11.9812,45.0218],[11.9848,45.0269],[11.9895,45.0298],[11.9995,45.0309],[11.9995,45.0278]]]}},{"type":"Feature","properties":{"i":"029052","n":"Porto Viro"},"geometry":{"type":"Polygon","coordinates":[[[12.41,45.037],[12.4097,45.0205],[12.4102,45.0179],[12.4238,45.0064],[12.4237,45.0048],[12.4204,45.0032],[12.4067,45.002],[12.4006,45.0003],[12.3915,44.9951],[12.388,44.9915],[12.3818,44.9828],[12.3792,44.9817],[12.3719,44.9854],[12.3654,44.9954],[12.3569,44.9979],[12.3479,44.9967],[12.3445,44.9941],[12.3401,44.987],[12.3401,44.9849],[12.3419,44.9814],[12.342,44.974],[12.3334,44.9614],[12.3303,44.9577],[12.3259,44.9553],[12.3151,44.9533],[12.3055,44.953],[12.2957,44.9538],[12.2801,44.9563],[12.2716,44.9593],[12.2657,44.9627],[12.2575,44.9708],[12.2413,45.0008],[12.2372,45.0065],[12.2242,45.0105],[12.1979,45.0154],[12.1869,45.0212],[12.1896,45.0237],[12.1924,45.0294],[12.1929,45.033],[12.2003,45.0425],[12.2177,45.0571],[12.2318,45.0633],[12.2344,45.0626],[12.2345,45.0603],[12.236,45.0596],[12.2431,45.0582],[12.246,45.0589],[12.247,45.0611],[12.2507,45.0629],[12.2635,45.0632],[12.2663,45.0611],[12.278,45.0555],[12.2907,45.0558],[12.3107,45.0478],[12.3241,45.0455],[12.3388,45.0447],[12.3465,45.0452],[12.3577,45.0471],[12.3752,45.0545],[12.3759,45.0563],[12.3743,45.0583],[12.3594,45.0622],[12.3555,45.0665],[12.3581,45.0718],[12.3566,45.0753],[12.3656,45.0724],[12.4012,45.0421],[12.41,45.037]]]}}]}
