{"type":"FeatureCollection","fonte":"Confini comunali ISTAT via openpolis/geojson-italy — CC BY 4.0","features":[{"type":"Feature","properties":{"i":"052001","n":"Abbadia San Salvatore"},"geometry":{"type":"Polygon","coordinates":[[[11.7515,42.837],[11.7494,42.8337],[11.7346,42.8409],[11.7317,42.8484],[11.727,42.8539],[11.7182,42.8606],[11.7122,42.8639],[11.7024,42.8597],[11.6782,42.8543],[11.6708,42.8564],[11.669,42.8589],[11.6631,42.8635],[11.656,42.8643],[11.6521,42.862],[11.6362,42.8585],[11.6257,42.8643],[11.6246,42.8652],[11.6223,42.8754],[11.6197,42.8814],[11.6248,42.8881],[11.6253,42.8922],[11.6244,42.9052],[11.6268,42.9116],[11.6342,42.9092],[11.6379,42.9127],[11.6436,42.9157],[11.6563,42.9145],[11.6671,42.9151],[11.6779,42.9172],[11.7015,42.9168],[11.706,42.9174],[11.714,42.9201],[11.7201,42.9242],[11.7202,42.9164],[11.7233,42.9077],[11.727,42.9051],[11.7313,42.9035],[11.7317,42.9024],[11.7314,42.8983],[11.7256,42.8914],[11.7261,42.8863],[11.7418,42.8686],[11.7485,42.858],[11.751,42.8517],[11.7503,42.8448],[11.7515,42.837]]]}},{"type":"Feature","properties":{"i":"052002","n":"Asciano"},"geometry":{"type":"Polygon","coordinates":[[[11.5681,43.3204],[11.5722,43.318],[11.5771,43.313],[11.5782,43.3088],[11.5783,43.3001],[11.5752,43.2945],[11.5779,43.2889],[11.5744,43.2796],[11.5741,43.2745],[11.5817,43.2694],[11.5821,43.2608],[11.5869,43.2577],[11.5917,43.2565],[11.5952,43.2534],[11.5963,43.2521],[11.5958,43.247],[11.5984,43.2436],[11.6065,43.2399],[11.6072,43.2373],[11.6113,43.2317],[11.6164,43.2311],[11.6275,43.2334],[11.641,43.2253],[11.6434,43.2228],[11.6514,43.2231],[11.6624,43.2259],[11.6651,43.2255],[11.6727,43.2265],[11.6678,43.2164],[11.6576,43.2098],[11.6527,43.2077],[11.6484,43.2082],[11.6419,43.2071],[11.6364,43.2052],[11.6256,43.1961],[11.6114,43.1952],[11.6014,43.1904],[11.6056,43.1863],[11.6113,43.1784],[11.6126,43.1753],[11.6125,43.1729],[11.5978,43.1734],[11.5884,43.1754],[11.5789,43.173],[11.5728,43.1662],[11.5593,43.1584],[11.5538,43.1586],[11.5471,43.1556],[11.5465,43.1531],[11.5441,43.1543],[11.5385,43.1616],[11.5249,43.1642],[11.5227,43.1642],[11.519,43.1624],[11.5164,43.1578],[11.513,43.1548],[11.512,43.1551],[11.5029,43.1638],[11.5005,43.1681],[11.4999,43.17],[11.5004,43.1711],[11.4996,43.1898],[11.4924,43.1973],[11.4898,43.1984],[11.4874,43.1984],[11.4738,43.1949],[11.465,43.1938],[11.4635,43.1942],[11.4632,43.197],[11.4693,43.2169],[11.46,43.2307],[11.4523,43.2382],[11.4435,43.2394],[11.4382,43.2448],[11.4356,43.256],[11.4365,43.2585],[11.4368,43.2633],[11.4349,43.2653],[11.4317,43.2654],[11.4189,43.2618],[11.4115,43.2555],[11.4087,43.2496],[11.4094,43.2479],[11.4,43.2519],[11.3966,43.2567],[11.3938,43.2574],[11.3919,43.2561],[11.3889,43.2562],[11.3829,43.2609],[11.3796,43.2731],[11.3851,43.2798],[11.3936,43.2858],[11.4025,43.2952],[11.4167,43.2991],[11.4234,43.302],[11.4431,43.3068],[11.4644,43.3089],[11.4812,43.3086],[11.4956,43.3073],[11.505,43.308],[11.5128,43.3128],[11.5231,43.3177],[11.5314,43.3175],[11.5409,43.32],[11.551,43.324],[11.5588,43.3237],[11.5681,43.3204]]]}},{"type":"Feature","properties":{"i":"052003","n":"Buonconvento"},"geometry":{"type":"Polygon","coordinates":[[[11.5465,43.1531],[11.5433,43.15],[11.5305,43.1474],[11.5205,43.147],[11.5118,43.1451],[11.5099,43.1439],[11.5111,43.1422],[11.5184,43.1371],[11.5215,43.1329],[11.5234,43.1253],[11.5272,43.117],[11.527,43.1151],[11.5246,43.1118],[11.5123,43.1059],[11.489,43.1091],[11.4772,43.1063],[11.4704,43.1069],[11.4579,43.1093],[11.4537,43.1131],[11.4469,43.1082],[11.4499,43.1029],[11.4443,43.1003],[11.4361,43.1074],[11.4306,43.1039],[11.4235,43.1031],[11.4219,43.1042],[11.4228,43.1074],[11.4203,43.1089],[11.4049,43.1127],[11.4019,43.1114],[11.4013,43.121],[11.4021,43.1228],[11.403,43.124],[11.4141,43.13],[11.4156,43.1318],[11.4254,43.1551],[11.4296,43.1555],[11.4305,43.1562],[11.4309,43.1581],[11.4377,43.1606],[11.4635,43.1635],[11.4729,43.1714],[11.475,43.1743],[11.4749,43.1758],[11.4727,43.1756],[11.4624,43.1863],[11.4586,43.1873],[11.4564,43.1897],[11.465,43.1938],[11.4738,43.1949],[11.4874,43.1984],[11.4898,43.1984],[11.4924,43.1973],[11.4996,43.1898],[11.5004,43.1711],[11.4999,43.17],[11.5005,43.1681],[11.5029,43.1638],[11.5113,43.1556],[11.5134,43.155],[11.5164,43.1578],[11.519,43.1624],[11.5227,43.1642],[11.5249,43.1642],[11.5385,43.1616],[11.5441,43.1543],[11.5465,43.1531]]]}},{"type":"Feature","properties":{"i":"052004","n":"Casole d'Elsa"},"geometry":{"type":"Polygon","coordinates":[[[11.1331,43.3483],[11.1521,43.35],[11.1645,43.3541],[11.1684,43.3531],[11.1775,43.349],[11.1943,43.345],[11.1997,43.3392],[11.1964,43.3331],[11.1948,43.3277],[11.1974,43.326],[11.183,43.3189],[11.1768,43.3172],[11.169,43.3174],[11.1507,43.3003],[11.1456,43.2944],[11.1476,43.2793],[11.1451,43.2776],[11.1287,43.2722],[11.1323,43.2681],[11.1651,43.2522],[11.1704,43.2465],[11.1711,43.2402],[11.1651,43.2445],[11.1577,43.2469],[11.1555,43.2395],[11.157,43.2353],[11.1497,43.2328],[11.1357,43.2336],[11.1278,43.2376],[11.1167,43.2385],[11.115,43.2425],[11.1122,43.2444],[11.108,43.2454],[11.1046,43.2508],[11.1079,43.2594],[11.1047,43.2636],[11.1013,43.2651],[11.0872,43.2682],[11.0857,43.2718],[11.0829,43.2745],[11.075,43.2779],[11.0551,43.2816],[11.0406,43.2815],[11.0377,43.2867],[11.0321,43.2919],[11.0306,43.2921],[11.0231,43.2905],[11.0215,43.2895],[11.0204,43.2876],[11.0148,43.2851],[10.995,43.2812],[10.9853,43.2854],[10.9843,43.2884],[10.9706,43.2968],[10.9613,43.2989],[10.9521,43.302],[10.9539,43.311],[10.954,43.3168],[10.9603,43.3163],[10.9612,43.3145],[10.9652,43.3127],[10.9698,43.3136],[10.9722,43.3216],[10.9699,43.3314],[10.9702,43.3356],[10.9721,43.3426],[10.9733,43.3444],[10.991,43.3423],[10.9977,43.344],[11.0027,43.3523],[11.0119,43.3622],[11.0133,43.3707],[11.0127,43.3766],[11.0351,43.3787],[11.046,43.3821],[11.0592,43.3804],[11.0634,43.3769],[11.0643,43.3727],[11.0633,43.3698],[11.0637,43.3689],[11.0716,43.3572],[11.0758,43.3526],[11.0818,43.3524],[11.0905,43.3506],[11.0851,43.3441],[11.078,43.3326],[11.0787,43.3305],[11.1015,43.3258],[11.1129,43.3252],[11.1209,43.3283],[11.1317,43.3346],[11.1331,43.3483]]]}},{"type":"Feature","properties":{"i":"052005","n":"Castellina in Chianti"},"geometry":{"type":"Polygon","coordinates":[[[11.3072,43.5182],[11.306,43.5166],[11.3055,43.51],[11.3152,43.4979],[11.3069,43.4889],[11.3075,43.4809],[11.3061,43.4802],[11.3104,43.4737],[11.3125,43.4717],[11.3156,43.4707],[11.3171,43.4677],[11.3168,43.4665],[11.3136,43.4639],[11.3027,43.4583],[11.2999,43.4557],[11.309,43.452],[11.3195,43.444],[11.3239,43.4328],[11.3238,43.4257],[11.3211,43.4245],[11.3176,43.4198],[11.3046,43.4095],[11.2999,43.41],[11.2913,43.4053],[11.2869,43.3999],[11.2839,43.3984],[11.2786,43.4037],[11.2677,43.4042],[11.258,43.403],[11.256,43.3996],[11.2528,43.3903],[11.2509,43.3883],[11.2467,43.3894],[11.2441,43.392],[11.2291,43.3951],[11.2208,43.3951],[11.2166,43.3979],[11.2135,43.4048],[11.2143,43.418],[11.2124,43.4177],[11.2097,43.4204],[11.2073,43.4259],[11.2128,43.4314],[11.2218,43.4438],[11.2202,43.4487],[11.2095,43.4545],[11.2198,43.4648],[11.2179,43.4744],[11.2159,43.4791],[11.2112,43.4812],[11.2119,43.4832],[11.2208,43.4885],[11.2332,43.4922],[11.2452,43.4983],[11.2481,43.5007],[11.2461,43.5032],[11.2469,43.5074],[11.2535,43.5093],[11.2687,43.5243],[11.2724,43.5305],[11.2683,43.5426],[11.2696,43.5458],[11.2755,43.5448],[11.2784,43.5397],[11.2831,43.5362],[11.2905,43.5329],[11.2933,43.525],[11.2981,43.5193],[11.3036,43.5195],[11.3072,43.5182]]]}},{"type":"Feature","properties":{"i":"052006","n":"Castelnuovo Berardenga"},"geometry":{"type":"Polygon","coordinates":[[[11.3669,43.4289],[11.3729,43.4248],[11.382,43.4171],[11.3838,43.4142],[11.3829,43.4101],[11.3856,43.4079],[11.3928,43.407],[11.3971,43.4098],[11.3994,43.4102],[11.4024,43.4092],[11.4049,43.3946],[11.4072,43.3939],[11.4099,43.391],[11.4114,43.3872],[11.4113,43.3819],[11.4098,43.3796],[11.4147,43.3669],[11.4151,43.3581],[11.4165,43.3565],[11.4218,43.3553],[11.4293,43.3609],[11.4455,43.3888],[11.4487,43.3925],[11.456,43.3948],[11.4889,43.415],[11.5036,43.4186],[11.5251,43.4124],[11.5351,43.4076],[11.5305,43.3993],[11.5302,43.3943],[11.5319,43.392],[11.5472,43.3783],[11.5573,43.3759],[11.5642,43.3699],[11.5692,43.3631],[11.5787,43.3614],[11.5868,43.3573],[11.5895,43.3542],[11.5961,43.3516],[11.6004,43.3514],[11.5986,43.3473],[11.5932,43.3419],[11.5725,43.328],[11.5681,43.3226],[11.5681,43.3204],[11.5588,43.3237],[11.551,43.324],[11.5409,43.32],[11.5314,43.3175],[11.5231,43.3177],[11.5128,43.3128],[11.505,43.308],[11.4956,43.3073],[11.4812,43.3086],[11.4644,43.3089],[11.4457,43.3072],[11.4234,43.302],[11.4167,43.2991],[11.4025,43.2952],[11.4058,43.2976],[11.4141,43.3016],[11.4161,43.3107],[11.4204,43.3189],[11.4266,43.3378],[11.4212,43.3491],[11.4167,43.3508],[11.4124,43.3487],[11.4082,43.348],[11.3853,43.3488],[11.3671,43.3476],[11.3607,43.3494],[11.3481,43.3546],[11.3355,43.3622],[11.3339,43.3642],[11.3275,43.3634],[11.3148,43.3584],[11.3124,43.3639],[11.313,43.369],[11.3122,43.3755],[11.3098,43.3808],[11.3103,43.39],[11.307,43.3946],[11.3057,43.3994],[11.3062,43.4047],[11.3046,43.4095],[11.3176,43.4198],[11.3211,43.4245],[11.3238,43.4257],[11.3276,43.4244],[11.3341,43.4245],[11.335,43.4248],[11.3345,43.426],[11.3372,43.4274],[11.3438,43.4283],[11.3669,43.4289]]]}},{"type":"Feature","properties":{"i":"052007","n":"Castiglione d'Orcia"},"geometry":{"type":"Polygon","coordinates":[[[11.5657,43.0427],[11.575,43.0398],[11.5813,43.0398],[11.5903,43.0364],[11.5923,43.0323],[11.5974,43.0249],[11.6069,43.0202],[11.6097,43.0203],[11.6133,43.0218],[11.6241,43.0271],[11.6274,43.0297],[11.6355,43.0308],[11.6423,43.0303],[11.6497,43.0315],[11.659,43.0293],[11.6596,43.0274],[11.679,43.0218],[11.6919,43.0192],[11.7093,43.0174],[11.7144,43.016],[11.7228,43.0163],[11.7308,43.02],[11.7326,43.0195],[11.7318,43.0106],[11.7309,43.008],[11.726,43.0005],[11.7158,42.99],[11.71,42.9824],[11.7075,42.9764],[11.7071,42.9671],[11.708,42.9534],[11.7153,42.9327],[11.7181,42.9299],[11.72,42.9262],[11.7201,42.9242],[11.714,42.9201],[11.706,42.9174],[11.7015,42.9168],[11.6779,42.9172],[11.6671,42.9151],[11.6563,42.9145],[11.6436,42.9157],[11.6379,42.9127],[11.6351,42.9094],[11.6332,42.9094],[11.6268,42.9116],[11.6265,42.9136],[11.6229,42.9201],[11.623,42.9296],[11.6099,42.9514],[11.5959,42.9509],[11.588,42.9582],[11.5841,42.9629],[11.5713,42.9703],[11.5683,42.9704],[11.5384,42.9636],[11.5271,42.9666],[11.5262,42.9678],[11.5286,42.9737],[11.5401,42.9734],[11.5442,42.9743],[11.5476,42.9765],[11.5553,42.987],[11.5548,42.9913],[11.5516,42.9997],[11.5523,43.0037],[11.5556,43.0077],[11.5525,43.0193],[11.5524,43.0306],[11.5592,43.0429],[11.5657,43.0427]]]}},{"type":"Feature","properties":{"i":"052008","n":"Cetona"},"geometry":{"type":"Polygon","coordinates":[[[11.9495,42.9765],[11.9506,42.9706],[11.9495,42.9699],[11.9485,42.9673],[11.9485,42.9626],[11.9529,42.9547],[11.9521,42.9497],[11.9391,42.9325],[11.9372,42.9213],[11.9327,42.9085],[11.9335,42.9054],[11.9367,42.9035],[11.9521,42.901],[11.9566,42.8938],[11.9452,42.8985],[11.9191,42.905],[11.9093,42.9039],[11.9013,42.9018],[11.8874,42.8929],[11.8856,42.893],[11.8806,42.8955],[11.8765,42.9012],[11.8758,42.9109],[11.8772,42.9137],[11.8721,42.9133],[11.8646,42.9175],[11.8623,42.92],[11.8691,42.9243],[11.8752,42.93],[11.8743,42.9364],[11.8693,42.9465],[11.868,42.9581],[11.8724,42.9628],[11.88,42.9676],[11.8998,42.9848],[11.9083,42.9899],[11.918,42.9891],[11.922,42.9918],[11.9275,42.9937],[11.9301,42.9939],[11.9312,42.9926],[11.9293,42.9885],[11.9359,42.9807],[11.9436,42.9761],[11.9495,42.9765]]]}},{"type":"Feature","properties":{"i":"052009","n":"Chianciano Terme"},"geometry":{"type":"Polygon","coordinates":[[[11.8873,43.0613],[11.8974,43.0523],[11.8965,43.0508],[11.8766,43.0422],[11.8694,43.0337],[11.8651,43.0317],[11.8564,43.029],[11.8488,43.0313],[11.8409,43.0307],[11.8372,43.0299],[11.8316,43.0265],[11.8217,43.0281],[11.8159,43.0215],[11.8144,43.0171],[11.8098,43.0118],[11.806,43.0088],[11.7989,43.007],[11.7868,43.0011],[11.7733,43.0055],[11.7661,43.0061],[11.7672,43.0074],[11.7775,43.0128],[11.7807,43.0134],[11.7805,43.0311],[11.7965,43.0442],[11.8002,43.0513],[11.8,43.0531],[11.8008,43.055],[11.8044,43.0576],[11.8205,43.0637],[11.8268,43.0672],[11.843,43.0709],[11.8609,43.0691],[11.8737,43.0657],[11.8781,43.063],[11.8829,43.0615],[11.8873,43.0613]]]}},{"type":"Feature","properties":{"i":"052010","n":"Chiusdino"},"geometry":{"type":"Polygon","coordinates":[[[11.2207,43.1537],[11.209,43.1559],[11.2081,43.1566],[11.208,43.1589],[11.1972,43.1673],[11.1918,43.1676],[11.1862,43.1655],[11.1755,43.1662],[11.1702,43.1653],[11.1667,43.1637],[11.163,43.1614],[11.1632,43.1585],[11.1646,43.1571],[11.1634,43.1521],[11.1623,43.149],[11.1554,43.1395],[11.1445,43.1393],[11.142,43.1385],[11.1376,43.1349],[11.1371,43.1321],[11.1396,43.1217],[11.1429,43.1148],[11.1414,43.1094],[11.1361,43.1006],[11.1318,43.1006],[11.1272,43.0983],[11.1251,43.0929],[11.1254,43.0911],[11.1212,43.0915],[11.1108,43.0902],[11.105,43.0878],[11.0824,43.084],[11.0772,43.0878],[11.0728,43.0952],[11.0719,43.1019],[11.0648,43.1108],[11.0659,43.1181],[11.068,43.1193],[11.0711,43.1225],[11.0711,43.1235],[11.0597,43.1307],[11.0579,43.1355],[11.0625,43.1396],[11.0582,43.1436],[11.0551,43.1434],[11.0533,43.1498],[11.0556,43.1506],[11.0603,43.1548],[11.0601,43.1629],[11.0589,43.1685],[11.0574,43.1714],[11.0569,43.1757],[11.0584,43.182],[11.06,43.1853],[11.0569,43.1898],[11.0592,43.1981],[11.0631,43.2035],[11.0706,43.2071],[11.0816,43.2091],[11.0881,43.2091],[11.0955,43.2073],[11.11,43.2081],[11.1106,43.2245],[11.1179,43.2325],[11.1167,43.2385],[11.1278,43.2376],[11.1357,43.2336],[11.148,43.2325],[11.157,43.2353],[11.1555,43.2395],[11.1577,43.2469],[11.1651,43.2445],[11.1693,43.2416],[11.1771,43.2331],[11.1876,43.2303],[11.1902,43.2325],[11.1925,43.2388],[11.2001,43.2405],[11.2067,43.2267],[11.2065,43.2242],[11.2054,43.2215],[11.1975,43.2123],[11.1946,43.2106],[11.1947,43.2095],[11.2017,43.2003],[11.2048,43.1985],[11.2157,43.1985],[11.2176,43.1976],[11.2232,43.177],[11.2152,43.1607],[11.2214,43.1568],[11.2216,43.1544],[11.2207,43.1537]]]}},{"type":"Feature","properties":{"i":"052011","n":"Chiusi"},"geometry":{"type":"Polygon","coordinates":[[[11.9682,43.0155],[11.962,43.0012],[11.9543,42.9787],[11.9495,42.9765],[11.9436,42.9761],[11.9359,42.9807],[11.9329,42.9838],[11.9293,42.9885],[11.9312,42.9926],[11.9301,42.9939],[11.9275,42.9937],[11.922,42.9918],[11.918,42.9891],[11.9111,43.0034],[11.9058,43.009],[11.9007,43.0128],[11.8778,43.0195],[11.8564,43.029],[11.8626,43.0306],[11.8694,43.0337],[11.8766,43.0422],[11.8965,43.0508],[11.8974,43.0523],[11.8873,43.0613],[11.8975,43.0636],[11.9238,43.0752],[11.9254,43.0746],[11.9325,43.0669],[11.9361,43.0559],[11.9408,43.053],[11.9482,43.0557],[11.9511,43.0606],[11.9504,43.0644],[11.9566,43.0687],[11.9645,43.0671],[11.9725,43.064],[11.9806,43.0568],[11.9824,43.0509],[11.9822,43.0489],[11.9799,43.0446],[11.9757,43.0418],[11.9724,43.0353],[11.972,43.022],[11.9682,43.0155]]]}},{"type":"Feature","properties":{"i":"052012","n":"Colle di Val d'Elsa"},"geometry":{"type":"Polygon","coordinates":[[[11.175,43.403],[11.1689,43.3996],[11.1622,43.3933],[11.1502,43.3908],[11.1448,43.3908],[11.1357,43.3864],[11.1334,43.3833],[11.1326,43.3766],[11.1278,43.3703],[11.123,43.3656],[11.122,43.3627],[11.1237,43.3583],[11.1331,43.3483],[11.1317,43.3346],[11.1209,43.3283],[11.1129,43.3252],[11.1015,43.3258],[11.0787,43.3305],[11.078,43.3326],[11.0851,43.3441],[11.0905,43.3506],[11.0818,43.3524],[11.0758,43.3526],[11.0716,43.3572],[11.0637,43.3689],[11.0633,43.3698],[11.0643,43.3727],[11.0634,43.3769],[11.0592,43.3804],[11.046,43.3821],[11.0351,43.3787],[11.0127,43.3766],[11.0049,43.381],[10.9995,43.4003],[11.01,43.4043],[11.0263,43.4046],[11.0386,43.4076],[11.0494,43.4115],[11.0534,43.415],[11.0534,43.4168],[11.0573,43.4225],[11.0667,43.4291],[11.0824,43.4357],[11.0878,43.4441],[11.0866,43.447],[11.085,43.4483],[11.0878,43.4527],[11.0986,43.4475],[11.1009,43.4489],[11.1019,43.4518],[11.1126,43.4421],[11.1294,43.4369],[11.1282,43.4328],[11.1305,43.4304],[11.1385,43.431],[11.1398,43.432],[11.1604,43.4295],[11.164,43.4261],[11.1627,43.4196],[11.1609,43.4162],[11.1691,43.4099],[11.175,43.403]]]}},{"type":"Feature","properties":{"i":"052013","n":"Gaiole in Chianti"},"geometry":{"type":"Polygon","coordinates":[[[11.4801,43.4793],[11.4893,43.4769],[11.4921,43.474],[11.4954,43.4674],[11.5007,43.4617],[11.5034,43.4621],[11.5051,43.465],[11.5099,43.4681],[11.5133,43.4687],[11.5186,43.4674],[11.5252,43.4619],[11.5285,43.4569],[11.5423,43.4577],[11.5506,43.4596],[11.542,43.4426],[11.5437,43.432],[11.5464,43.4262],[11.5456,43.4213],[11.5435,43.418],[11.5398,43.4164],[11.537,43.4138],[11.5354,43.4111],[11.5351,43.4076],[11.5251,43.4124],[11.5036,43.4186],[11.4889,43.415],[11.456,43.3948],[11.4487,43.3925],[11.4455,43.3888],[11.4293,43.3609],[11.4218,43.3553],[11.4165,43.3565],[11.4151,43.3581],[11.4147,43.3669],[11.4098,43.3796],[11.4113,43.3819],[11.4114,43.3872],[11.4099,43.391],[11.4072,43.3939],[11.4049,43.3946],[11.4025,43.409],[11.3994,43.4102],[11.3971,43.4098],[11.3928,43.407],[11.3856,43.4079],[11.3829,43.4101],[11.3838,43.4142],[11.382,43.4171],[11.3729,43.4248],[11.3669,43.4289],[11.3671,43.431],[11.3567,43.442],[11.3545,43.4562],[11.3574,43.4632],[11.3625,43.466],[11.3646,43.4661],[11.3752,43.4705],[11.3888,43.4773],[11.4097,43.4861],[11.4244,43.4934],[11.4328,43.4945],[11.4443,43.4928],[11.4466,43.4933],[11.4476,43.4943],[11.4485,43.4993],[11.4448,43.5006],[11.438,43.5078],[11.4359,43.5116],[11.4529,43.5128],[11.4598,43.5105],[11.4601,43.4999],[11.4728,43.4846],[11.4776,43.4804],[11.4801,43.4793]]]}},{"type":"Feature","properties":{"i":"052015","n":"Montepulciano"},"geometry":{"type":"Polygon","coordinates":[[[11.9612,43.1669],[11.9403,43.1591],[11.9287,43.1526],[11.924,43.1478],[11.9223,43.1414],[11.9218,43.1348],[11.9204,43.1317],[11.9133,43.1277],[11.919,43.1201],[11.9219,43.1105],[11.9304,43.0943],[11.931,43.0899],[11.9231,43.08],[11.9238,43.0752],[11.8975,43.0636],[11.8873,43.0613],[11.8834,43.0614],[11.8781,43.063],[11.8737,43.0657],[11.8609,43.0691],[11.843,43.0709],[11.8268,43.0672],[11.8205,43.0637],[11.8028,43.0567],[11.8004,43.0541],[11.8002,43.0513],[11.7965,43.0442],[11.7805,43.0311],[11.7731,43.0387],[11.771,43.038],[11.7688,43.0358],[11.7677,43.0359],[11.7657,43.0392],[11.7678,43.0467],[11.765,43.0553],[11.7546,43.0638],[11.7505,43.07],[11.7343,43.0834],[11.7376,43.0948],[11.736,43.1038],[11.7376,43.1073],[11.7386,43.108],[11.7501,43.1086],[11.7693,43.1173],[11.778,43.1323],[11.7778,43.1351],[11.7791,43.142],[11.7825,43.1511],[11.7937,43.1539],[11.7959,43.159],[11.7966,43.1631],[11.8007,43.1658],[11.8125,43.1713],[11.8278,43.1769],[11.8332,43.1772],[11.8514,43.1856],[11.8576,43.1779],[11.8795,43.1633],[11.8874,43.1571],[11.8928,43.16],[11.9034,43.1745],[11.9195,43.1678],[11.926,43.173],[11.9355,43.1749],[11.9612,43.1669]]]}},{"type":"Feature","properties":{"i":"052016","n":"Monteriggioni"},"geometry":{"type":"Polygon","coordinates":[[[11.2124,43.4177],[11.2144,43.4176],[11.2135,43.4048],[11.2166,43.3979],[11.2208,43.3951],[11.2291,43.3951],[11.2441,43.392],[11.2467,43.3894],[11.2503,43.3883],[11.2517,43.3887],[11.2528,43.3903],[11.256,43.3996],[11.258,43.403],[11.2677,43.4042],[11.2786,43.4037],[11.2839,43.3984],[11.2869,43.3999],[11.2913,43.4053],[11.2999,43.41],[11.3046,43.4095],[11.3062,43.4047],[11.3057,43.3994],[11.307,43.3946],[11.3103,43.39],[11.3098,43.3808],[11.3122,43.3755],[11.313,43.369],[11.3124,43.3639],[11.3149,43.3582],[11.3123,43.35],[11.3055,43.3436],[11.2799,43.3459],[11.2758,43.3489],[11.2694,43.352],[11.2652,43.3528],[11.2658,43.348],[11.261,43.3314],[11.2607,43.3273],[11.2592,43.3243],[11.2503,43.3194],[11.2412,43.3187],[11.2391,43.3224],[11.2355,43.3225],[11.2311,43.3209],[11.2233,43.3211],[11.2163,43.3187],[11.2115,43.3196],[11.1994,43.3249],[11.1948,43.3277],[11.1964,43.3331],[11.1997,43.3392],[11.1943,43.345],[11.1775,43.349],[11.1684,43.3531],[11.1645,43.3541],[11.1521,43.35],[11.1331,43.3483],[11.1237,43.3583],[11.122,43.3627],[11.123,43.3656],[11.1278,43.3703],[11.1326,43.3766],[11.1334,43.3833],[11.1357,43.3864],[11.1448,43.3908],[11.1502,43.3908],[11.1622,43.3933],[11.1689,43.3996],[11.175,43.403],[11.1781,43.4019],[11.1966,43.4042],[11.2018,43.406],[11.2075,43.4107],[11.2087,43.4142],[11.2074,43.4158],[11.2097,43.4174],[11.2124,43.4177]]]}},{"type":"Feature","properties":{"i":"052017","n":"Monteroni d'Arbia"},"geometry":{"type":"Polygon","coordinates":[[[11.3976,43.2548],[11.4,43.2519],[11.4094,43.2479],[11.4087,43.2496],[11.4115,43.2555],[11.4189,43.2618],[11.4317,43.2654],[11.4349,43.2653],[11.4368,43.2633],[11.4365,43.2585],[11.4356,43.256],[11.4382,43.2448],[11.4435,43.2394],[11.4523,43.2382],[11.46,43.2307],[11.4693,43.2169],[11.4632,43.197],[11.4635,43.1942],[11.465,43.1938],[11.4564,43.1897],[11.4586,43.1873],[11.4624,43.1863],[11.4727,43.1756],[11.4749,43.1758],[11.475,43.1743],[11.4694,43.1679],[11.4635,43.1635],[11.4377,43.1606],[11.4309,43.1581],[11.4242,43.1662],[11.404,43.1825],[11.4007,43.1825],[11.3929,43.1843],[11.3895,43.186],[11.3838,43.192],[11.3718,43.1982],[11.3553,43.2019],[11.3489,43.1991],[11.3406,43.1931],[11.3283,43.1898],[11.3237,43.1932],[11.3211,43.1966],[11.3183,43.204],[11.3115,43.2109],[11.3068,43.2138],[11.2972,43.223],[11.2932,43.229],[11.2951,43.2347],[11.3013,43.2422],[11.3042,43.25],[11.3112,43.253],[11.3245,43.2559],[11.3288,43.2596],[11.3283,43.2654],[11.3434,43.2745],[11.3638,43.2626],[11.377,43.2573],[11.3799,43.2538],[11.386,43.2521],[11.3891,43.2521],[11.3976,43.2548]]]}},{"type":"Feature","properties":{"i":"052018","n":"Monticiano"},"geometry":{"type":"Polygon","coordinates":[[[11.2207,43.1537],[11.2214,43.1499],[11.2243,43.1487],[11.2374,43.1483],[11.2387,43.1472],[11.243,43.1478],[11.2539,43.1517],[11.2578,43.1568],[11.2637,43.1618],[11.2719,43.1657],[11.2763,43.1659],[11.2781,43.1641],[11.2785,43.162],[11.2824,43.1594],[11.2964,43.1377],[11.2938,43.1333],[11.3027,43.1187],[11.3084,43.1109],[11.3172,43.1121],[11.3198,43.1113],[11.3231,43.1075],[11.324,43.103],[11.3269,43.0971],[11.3386,43.0982],[11.3404,43.0972],[11.3406,43.0933],[11.3398,43.0913],[11.3385,43.0899],[11.3324,43.0916],[11.3246,43.0881],[11.3204,43.0849],[11.3115,43.0859],[11.3101,43.0889],[11.3094,43.0891],[11.2972,43.0771],[11.2882,43.08],[11.2742,43.0822],[11.2705,43.0816],[11.2705,43.0823],[11.2655,43.0832],[11.2439,43.0849],[11.2325,43.089],[11.2242,43.0902],[11.2226,43.0886],[11.2166,43.0871],[11.1997,43.0909],[11.183,43.0901],[11.1739,43.0861],[11.1731,43.0824],[11.1702,43.0788],[11.1689,43.0785],[11.1573,43.08],[11.1385,43.084],[11.129,43.0848],[11.1276,43.0856],[11.1251,43.0929],[11.1272,43.0983],[11.1318,43.1006],[11.1361,43.1006],[11.1414,43.1094],[11.1429,43.1148],[11.1396,43.1217],[11.1371,43.1321],[11.1376,43.1349],[11.142,43.1385],[11.1445,43.1393],[11.1554,43.1395],[11.1623,43.149],[11.1634,43.1521],[11.1646,43.1571],[11.1632,43.1585],[11.163,43.1614],[11.1702,43.1653],[11.1755,43.1662],[11.1862,43.1655],[11.1918,43.1676],[11.1972,43.1673],[11.208,43.1589],[11.2081,43.1566],[11.209,43.1559],[11.2207,43.1537]]]}},{"type":"Feature","properties":{"i":"052019","n":"Murlo"},"geometry":{"type":"Polygon","coordinates":[[[11.2992,43.2212],[11.3068,43.2138],[11.3115,43.2109],[11.3183,43.204],[11.3211,43.1966],[11.3237,43.1932],[11.3283,43.1898],[11.3406,43.1931],[11.3489,43.1991],[11.3541,43.2017],[11.3718,43.1982],[11.3838,43.192],[11.3895,43.186],[11.3929,43.1843],[11.4007,43.1825],[11.404,43.1825],[11.4242,43.1662],[11.4309,43.1581],[11.4302,43.1558],[11.4276,43.1549],[11.4254,43.1551],[11.4151,43.1311],[11.4021,43.1228],[11.4013,43.121],[11.4019,43.1114],[11.4013,43.1104],[11.3948,43.1059],[11.392,43.1062],[11.3911,43.1076],[11.3862,43.1053],[11.3809,43.0983],[11.3744,43.0868],[11.3639,43.0811],[11.3615,43.0832],[11.357,43.0824],[11.3558,43.0812],[11.349,43.0824],[11.3399,43.087],[11.3385,43.0899],[11.3406,43.0933],[11.3404,43.0972],[11.3386,43.0982],[11.3269,43.0971],[11.324,43.103],[11.3231,43.1075],[11.3198,43.1113],[11.3172,43.1121],[11.3084,43.1109],[11.3027,43.1187],[11.2938,43.1333],[11.2964,43.1377],[11.2824,43.1594],[11.2797,43.1608],[11.2778,43.163],[11.2781,43.1641],[11.2806,43.1652],[11.281,43.1695],[11.2786,43.1725],[11.2774,43.1786],[11.2763,43.2022],[11.2791,43.2093],[11.2923,43.2213],[11.2992,43.2212]]]}},{"type":"Feature","properties":{"i":"052020","n":"Piancastagnaio"},"geometry":{"type":"Polygon","coordinates":[[[11.7494,42.8337],[11.7503,42.8315],[11.7547,42.8274],[11.7685,42.82],[11.7689,42.8164],[11.7646,42.8119],[11.758,42.8076],[11.7533,42.8022],[11.75,42.7905],[11.746,42.7858],[11.7382,42.7898],[11.7142,42.7954],[11.7122,42.7975],[11.7021,42.799],[11.6973,42.7981],[11.6822,42.79],[11.6649,42.7883],[11.6562,42.7912],[11.6413,42.7997],[11.6379,42.7996],[11.6283,42.7971],[11.6256,42.7979],[11.6236,42.8041],[11.6321,42.8083],[11.6352,42.8198],[11.6328,42.8244],[11.6322,42.8272],[11.6341,42.8403],[11.6372,42.8493],[11.6362,42.8585],[11.6521,42.862],[11.656,42.8643],[11.6631,42.8635],[11.669,42.8589],[11.6708,42.8564],[11.6782,42.8543],[11.7024,42.8597],[11.7122,42.8639],[11.7182,42.8606],[11.727,42.8539],[11.7317,42.8484],[11.7346,42.8409],[11.7494,42.8337]]]}},{"type":"Feature","properties":{"i":"052021","n":"Pienza"},"geometry":{"type":"Polygon","coordinates":[[[11.7078,43.1199],[11.7149,43.1131],[11.7219,43.1139],[11.7241,43.1123],[11.7232,43.109],[11.7238,43.102],[11.7327,43.0984],[11.7364,43.0985],[11.7377,43.0972],[11.7343,43.0834],[11.7505,43.07],[11.7546,43.0638],[11.765,43.0553],[11.7678,43.0467],[11.7657,43.0392],[11.7677,43.0359],[11.7688,43.0358],[11.771,43.038],[11.7731,43.0387],[11.7805,43.0311],[11.7807,43.0134],[11.7775,43.0128],[11.7672,43.0074],[11.7661,43.0061],[11.7634,43.0068],[11.7607,43.0063],[11.7575,43.0008],[11.7667,42.9868],[11.7795,42.9771],[11.7874,42.9618],[11.7876,42.959],[11.7858,42.9515],[11.7814,42.9503],[11.7722,42.9606],[11.7659,42.9709],[11.7659,42.9731],[11.7645,42.9766],[11.7528,42.987],[11.7416,43.0004],[11.7394,43.0067],[11.7395,43.0098],[11.7383,43.0142],[11.7319,43.0199],[11.7308,43.02],[11.7228,43.0163],[11.7144,43.016],[11.7093,43.0174],[11.6919,43.0192],[11.679,43.0218],[11.6596,43.0274],[11.659,43.0293],[11.6508,43.0315],[11.6445,43.031],[11.645,43.0335],[11.6483,43.0367],[11.6527,43.0363],[11.6578,43.0399],[11.6555,43.0451],[11.6507,43.0463],[11.6427,43.0513],[11.6415,43.0682],[11.6393,43.0707],[11.6321,43.0741],[11.6296,43.089],[11.6245,43.0927],[11.618,43.0913],[11.6158,43.0899],[11.6108,43.0892],[11.6031,43.0927],[11.5911,43.1041],[11.587,43.1037],[11.5827,43.1048],[11.5794,43.1093],[11.5852,43.1168],[11.5972,43.1178],[11.6058,43.1176],[11.6153,43.119],[11.6224,43.124],[11.6279,43.1291],[11.6258,43.133],[11.6313,43.1356],[11.6391,43.1372],[11.6466,43.1367],[11.6559,43.1347],[11.6558,43.1318],[11.6547,43.1303],[11.6589,43.1173],[11.6599,43.1059],[11.6606,43.105],[11.6627,43.105],[11.6667,43.1066],[11.6712,43.113],[11.6731,43.1143],[11.6793,43.1139],[11.6851,43.1121],[11.6953,43.1122],[11.7023,43.1175],[11.7078,43.1199]]]}},{"type":"Feature","properties":{"i":"052022","n":"Poggibonsi"},"geometry":{"type":"Polygon","coordinates":[[[11.2112,43.4812],[11.2159,43.4791],[11.2179,43.4744],[11.2198,43.4648],[11.2095,43.4545],[11.2202,43.4487],[11.2218,43.4438],[11.2128,43.4314],[11.2073,43.4259],[11.2097,43.4204],[11.2124,43.4177],[11.2097,43.4174],[11.2074,43.4158],[11.2087,43.4142],[11.2072,43.4102],[11.2018,43.406],[11.1966,43.4042],[11.1781,43.4019],[11.175,43.403],[11.1691,43.4099],[11.1609,43.4162],[11.1627,43.4196],[11.164,43.4261],[11.1604,43.4295],[11.1398,43.432],[11.1385,43.431],[11.1305,43.4304],[11.1282,43.4328],[11.1294,43.4369],[11.1126,43.4421],[11.1019,43.4518],[11.1009,43.4489],[11.0986,43.4475],[11.0878,43.4527],[11.1056,43.4593],[11.1104,43.4629],[11.111,43.4646],[11.1071,43.4678],[11.1028,43.4775],[11.102,43.482],[11.1127,43.4965],[11.1199,43.4855],[11.1197,43.4799],[11.1207,43.478],[11.1247,43.4756],[11.1361,43.4772],[11.1427,43.4812],[11.1506,43.4874],[11.1542,43.5005],[11.1596,43.5072],[11.183,43.5221],[11.1936,43.5178],[11.1944,43.515],[11.1836,43.499],[11.1815,43.498],[11.178,43.4947],[11.1745,43.4898],[11.1758,43.4883],[11.1855,43.4906],[11.19,43.49],[11.1957,43.488],[11.2015,43.4826],[11.2055,43.4806],[11.2081,43.4804],[11.2112,43.4812]]]}},{"type":"Feature","properties":{"i":"052023","n":"Radda in Chianti"},"geometry":{"type":"Polygon","coordinates":[[[11.4359,43.5116],[11.438,43.5078],[11.4448,43.5006],[11.4485,43.4993],[11.4476,43.4943],[11.4466,43.4933],[11.4443,43.4928],[11.4328,43.4945],[11.4244,43.4934],[11.3752,43.4705],[11.3576,43.4635],[11.3545,43.4562],[11.3567,43.442],[11.3671,43.431],[11.3664,43.4287],[11.3438,43.4283],[11.3372,43.4274],[11.3345,43.426],[11.335,43.4248],[11.3341,43.4245],[11.3276,43.4244],[11.3238,43.4257],[11.3239,43.4328],[11.3195,43.444],[11.309,43.452],[11.2999,43.4557],[11.3027,43.4583],[11.3136,43.4639],[11.3168,43.4665],[11.3171,43.4677],[11.3156,43.4707],[11.3125,43.4717],[11.3104,43.4737],[11.3061,43.4802],[11.3075,43.4809],[11.3069,43.4889],[11.3152,43.4979],[11.3078,43.5063],[11.3054,43.5104],[11.3064,43.5173],[11.3124,43.5206],[11.3313,43.5264],[11.3437,43.5282],[11.3525,43.5274],[11.3672,43.5275],[11.3804,43.5325],[11.3819,43.5396],[11.3815,43.5406],[11.3859,43.5472],[11.4031,43.5483],[11.4067,43.5456],[11.4085,43.5434],[11.41,43.5394],[11.4144,43.5351],[11.426,43.5289],[11.4296,43.5239],[11.4359,43.5116]]]}},{"type":"Feature","properties":{"i":"052024","n":"Radicofani"},"geometry":{"type":"Polygon","coordinates":[[[11.7858,42.9515],[11.7927,42.9529],[11.8043,42.9522],[11.815,42.9493],[11.8238,42.944],[11.8271,42.9392],[11.8362,42.9291],[11.8436,42.9238],[11.8501,42.9215],[11.8535,42.9156],[11.8527,42.9141],[11.8477,42.9106],[11.8401,42.9067],[11.8382,42.9064],[11.8337,42.8987],[11.8314,42.8921],[11.8329,42.8895],[11.832,42.8859],[11.8128,42.8736],[11.8048,42.8709],[11.8041,42.8566],[11.8018,42.8505],[11.7987,42.848],[11.7906,42.8441],[11.7797,42.8462],[11.7668,42.8463],[11.7634,42.8439],[11.7608,42.84],[11.7565,42.8381],[11.7515,42.837],[11.7503,42.8448],[11.751,42.8517],[11.7485,42.858],[11.7418,42.8686],[11.7261,42.8863],[11.7256,42.8914],[11.7314,42.8983],[11.7317,42.9024],[11.7313,42.9035],[11.727,42.9051],[11.7233,42.9077],[11.7202,42.9164],[11.72,42.9262],[11.7181,42.9299],[11.7153,42.9327],[11.708,42.9534],[11.7071,42.9671],[11.7076,42.9775],[11.71,42.9824],[11.7158,42.99],[11.726,43.0005],[11.7309,43.008],[11.7318,43.0106],[11.7326,43.0195],[11.7383,43.0142],[11.7395,43.0098],[11.7394,43.0067],[11.7416,43.0004],[11.7528,42.987],[11.7645,42.9766],[11.7659,42.9731],[11.7659,42.9709],[11.7722,42.9606],[11.7814,42.9503],[11.7858,42.9515]]]}},{"type":"Feature","properties":{"i":"052025","n":"Radicondoli"},"geometry":{"type":"Polygon","coordinates":[[[11.1167,43.2385],[11.1179,43.2325],[11.1106,43.2245],[11.11,43.2081],[11.0955,43.2073],[11.0881,43.2091],[11.0816,43.2091],[11.0706,43.2071],[11.0658,43.205],[11.0631,43.2035],[11.059,43.1974],[11.0569,43.1898],[11.06,43.1853],[11.0591,43.1839],[11.0461,43.1805],[11.025,43.1876],[11.0181,43.1858],[11.0189,43.1849],[11.0156,43.1786],[11.0124,43.1773],[11.0001,43.1785],[10.9841,43.1777],[10.9782,43.1762],[10.9726,43.1736],[10.968,43.1703],[10.9606,43.1668],[10.9445,43.1615],[10.9154,43.1635],[10.9115,43.1626],[10.9083,43.1646],[10.9086,43.1725],[10.9112,43.1808],[10.9237,43.1911],[10.932,43.1946],[10.9394,43.2002],[10.9414,43.204],[10.9417,43.2157],[10.9387,43.227],[10.9272,43.2311],[10.932,43.2362],[10.9328,43.2388],[10.9395,43.2452],[10.943,43.2464],[10.9523,43.2397],[10.9585,43.2363],[10.9781,43.2325],[10.9898,43.232],[10.9943,43.2358],[10.9961,43.239],[10.9954,43.241],[10.9933,43.2425],[10.9912,43.2456],[10.9937,43.259],[10.9935,43.267],[10.984,43.2807],[10.984,43.2837],[10.9853,43.2854],[10.995,43.2812],[11.0148,43.2851],[11.0204,43.2876],[11.0215,43.2895],[11.0231,43.2905],[11.0306,43.2921],[11.0321,43.2919],[11.0377,43.2867],[11.0406,43.2815],[11.0551,43.2816],[11.075,43.2779],[11.0829,43.2745],[11.0857,43.2718],[11.0872,43.2682],[11.1013,43.2651],[11.1047,43.2636],[11.1079,43.2594],[11.1046,43.2508],[11.108,43.2454],[11.1122,43.2444],[11.115,43.2425],[11.1167,43.2385]]]}},{"type":"Feature","properties":{"i":"052026","n":"Rapolano Terme"},"geometry":{"type":"Polygon","coordinates":[[[11.6616,43.3109],[11.6664,43.3026],[11.6732,43.2961],[11.6766,43.2911],[11.6764,43.2894],[11.6781,43.2855],[11.6742,43.2783],[11.6751,43.2729],[11.6658,43.2592],[11.6632,43.2443],[11.6638,43.2365],[11.667,43.2318],[11.6737,43.2293],[11.6743,43.2273],[11.6727,43.2265],[11.6651,43.2255],[11.6624,43.2259],[11.6514,43.2231],[11.6434,43.2228],[11.641,43.2253],[11.6275,43.2334],[11.6164,43.2311],[11.6113,43.2317],[11.6072,43.2373],[11.6065,43.2399],[11.5984,43.2436],[11.5958,43.247],[11.5963,43.2521],[11.5952,43.2534],[11.5917,43.2565],[11.5869,43.2577],[11.5821,43.2608],[11.5817,43.2694],[11.5741,43.2745],[11.5744,43.2796],[11.5779,43.2889],[11.5752,43.2945],[11.5783,43.3001],[11.5782,43.3088],[11.5771,43.313],[11.5722,43.318],[11.5681,43.3204],[11.5681,43.3226],[11.5733,43.3287],[11.5968,43.345],[11.6004,43.3514],[11.626,43.3427],[11.6353,43.3361],[11.6368,43.3346],[11.6368,43.3335],[11.6423,43.3295],[11.655,43.3238],[11.6589,43.3209],[11.6586,43.3144],[11.659,43.313],[11.6616,43.3109]]]}},{"type":"Feature","properties":{"i":"052027","n":"San Casciano dei Bagni"},"geometry":{"type":"Polygon","coordinates":[[[11.8772,42.9137],[11.8758,42.9109],[11.8768,42.9003],[11.8806,42.8955],[11.8856,42.893],[11.8874,42.8929],[11.9013,42.9018],[11.9093,42.9039],[11.9191,42.905],[11.9452,42.8985],[11.9541,42.8952],[11.9588,42.8916],[11.959,42.8822],[11.9582,42.8767],[11.959,42.8706],[11.9518,42.87],[11.9446,42.8716],[11.9287,42.8689],[11.926,42.8672],[11.92,42.8568],[11.9149,42.8522],[11.9092,42.8491],[11.8919,42.8429],[11.8946,42.8343],[11.8678,42.8348],[11.8474,42.8377],[11.8421,42.8326],[11.8329,42.8274],[11.8221,42.826],[11.8146,42.8234],[11.8131,42.8215],[11.8146,42.8146],[11.8109,42.8069],[11.8115,42.8052],[11.8114,42.7996],[11.8097,42.797],[11.8069,42.7949],[11.8048,42.7957],[11.8028,42.7983],[11.8033,42.8012],[11.787,42.8153],[11.7759,42.8207],[11.7742,42.8211],[11.7685,42.82],[11.7547,42.8274],[11.7503,42.8315],[11.7494,42.8337],[11.7515,42.837],[11.7565,42.8381],[11.7608,42.84],[11.7634,42.8439],[11.7668,42.8463],[11.7797,42.8462],[11.7906,42.8441],[11.7987,42.848],[11.8018,42.8505],[11.8041,42.8566],[11.8048,42.8611],[11.8048,42.8709],[11.8128,42.8736],[11.832,42.8859],[11.8329,42.8895],[11.8314,42.8921],[11.8337,42.8987],[11.8382,42.9064],[11.8401,42.9067],[11.8477,42.9106],[11.8527,42.9141],[11.8576,42.916],[11.8618,42.9153],[11.8697,42.9124],[11.8772,42.9137]]]}},{"type":"Feature","properties":{"i":"052028","n":"San Gimignano"},"geometry":{"type":"Polygon","coordinates":[[[11.0801,43.5159],[11.0866,43.5113],[11.1104,43.4988],[11.1127,43.4965],[11.102,43.482],[11.1028,43.4775],[11.1071,43.4678],[11.111,43.4646],[11.1104,43.4629],[11.1056,43.4593],[11.0878,43.4527],[11.085,43.4483],[11.0866,43.447],[11.0878,43.4441],[11.0824,43.4357],[11.0667,43.4291],[11.0573,43.4225],[11.0534,43.4168],[11.0534,43.415],[11.0486,43.4111],[11.0263,43.4046],[11.01,43.4043],[11.002,43.4013],[10.99,43.4011],[10.9832,43.403],[10.9792,43.4066],[10.9787,43.4196],[10.9743,43.4264],[10.9598,43.4394],[10.9516,43.4491],[10.9515,43.4514],[10.9564,43.4615],[10.9593,43.4702],[10.9612,43.4821],[10.9556,43.4871],[10.9541,43.4948],[10.9586,43.501],[10.9644,43.5116],[10.9998,43.5269],[11.0079,43.5313],[11.0108,43.5339],[11.0117,43.5362],[11.0226,43.5415],[11.0328,43.5447],[11.034,43.5467],[11.0345,43.5417],[11.0375,43.5368],[11.0529,43.5321],[11.0551,43.5299],[11.0613,43.5274],[11.0706,43.5269],[11.0801,43.5159]]]}},{"type":"Feature","properties":{"i":"052030","n":"San Quirico d'Orcia"},"geometry":{"type":"Polygon","coordinates":[[[11.6445,43.031],[11.6274,43.0297],[11.6241,43.0271],[11.6133,43.0218],[11.6097,43.0203],[11.6069,43.0202],[11.5974,43.0249],[11.5923,43.0323],[11.5903,43.0364],[11.5813,43.0398],[11.575,43.0398],[11.566,43.0422],[11.5652,43.0462],[11.5611,43.0504],[11.5549,43.0509],[11.5522,43.0551],[11.5527,43.0581],[11.5594,43.0719],[11.5618,43.0748],[11.5772,43.0815],[11.5803,43.0814],[11.5829,43.0799],[11.5854,43.08],[11.5897,43.086],[11.5885,43.0905],[11.5872,43.0917],[11.5831,43.0925],[11.58,43.0918],[11.5758,43.0935],[11.5762,43.0948],[11.5781,43.0957],[11.5868,43.0984],[11.5891,43.0983],[11.5889,43.1017],[11.5872,43.1037],[11.5911,43.1041],[11.6031,43.0927],[11.6108,43.0892],[11.6158,43.0899],[11.618,43.0913],[11.6245,43.0927],[11.6296,43.089],[11.6321,43.0741],[11.6393,43.0707],[11.6415,43.0682],[11.6427,43.0513],[11.6507,43.0463],[11.6555,43.0451],[11.6578,43.0399],[11.6527,43.0363],[11.6483,43.0367],[11.645,43.0335],[11.6445,43.031]]]}},{"type":"Feature","properties":{"i":"052031","n":"Sarteano"},"geometry":{"type":"Polygon","coordinates":[[[11.8564,43.029],[11.8778,43.0195],[11.9007,43.0128],[11.9058,43.009],[11.9111,43.0034],[11.918,42.9891],[11.9083,42.9899],[11.9058,42.989],[11.8998,42.9848],[11.88,42.9676],[11.8738,42.964],[11.868,42.9581],[11.8693,42.9465],[11.8743,42.9364],[11.8752,42.93],[11.8691,42.9243],[11.8623,42.92],[11.8646,42.9175],[11.8721,42.9133],[11.8772,42.9137],[11.8718,42.9124],[11.8666,42.913],[11.8618,42.9153],[11.8576,42.916],[11.8527,42.9141],[11.8535,42.9166],[11.8501,42.9215],[11.8436,42.9238],[11.8362,42.9291],[11.8271,42.9392],[11.8238,42.944],[11.815,42.9493],[11.8043,42.9522],[11.7927,42.9529],[11.7858,42.9515],[11.7876,42.959],[11.7874,42.9618],[11.7795,42.9771],[11.7667,42.9868],[11.7575,43.0008],[11.7615,43.0067],[11.7733,43.0055],[11.7868,43.0011],[11.7989,43.007],[11.806,43.0088],[11.8098,43.0118],[11.8144,43.0171],[11.8159,43.0215],[11.8217,43.0281],[11.8316,43.0265],[11.8378,43.0302],[11.8488,43.0313],[11.8564,43.029]]]}},{"type":"Feature","properties":{"i":"052032","n":"Siena"},"geometry":{"type":"Polygon","coordinates":[[[11.4025,43.2952],[11.3936,43.2858],[11.3851,43.2798],[11.3796,43.2731],[11.3835,43.2599],[11.3889,43.2562],[11.3919,43.2561],[11.3938,43.2574],[11.3966,43.2567],[11.3976,43.2548],[11.3891,43.2521],[11.386,43.2521],[11.3799,43.2538],[11.377,43.2573],[11.3638,43.2626],[11.3434,43.2745],[11.3283,43.2654],[11.3288,43.2596],[11.3245,43.2559],[11.3112,43.253],[11.3042,43.25],[11.303,43.2508],[11.2988,43.2612],[11.2938,43.2614],[11.2893,43.2593],[11.2874,43.259],[11.2868,43.2596],[11.2869,43.2622],[11.2973,43.2794],[11.2885,43.2814],[11.2827,43.2816],[11.2682,43.2851],[11.2669,43.2855],[11.2694,43.2878],[11.2461,43.2953],[11.2342,43.3037],[11.23,43.3092],[11.2303,43.3145],[11.2328,43.318],[11.2311,43.3209],[11.2355,43.3225],[11.2391,43.3224],[11.2412,43.3187],[11.2503,43.3194],[11.2592,43.3243],[11.2607,43.3273],[11.261,43.3314],[11.2658,43.348],[11.2652,43.3528],[11.2694,43.352],[11.2758,43.3489],[11.2799,43.3459],[11.3059,43.3436],[11.3123,43.35],[11.3148,43.3584],[11.3275,43.3634],[11.3339,43.3642],[11.3355,43.3622],[11.3481,43.3546],[11.3607,43.3494],[11.3671,43.3476],[11.3853,43.3488],[11.4082,43.348],[11.4124,43.3487],[11.4167,43.3508],[11.4212,43.3491],[11.4266,43.3378],[11.4204,43.3189],[11.4161,43.3107],[11.4141,43.3016],[11.4058,43.2976],[11.4025,43.2952]]]}},{"type":"Feature","properties":{"i":"052033","n":"Sinalunga"},"geometry":{"type":"Polygon","coordinates":[[[11.7784,43.2364],[11.7878,43.2275],[11.7963,43.2219],[11.813,43.2207],[11.8337,43.2245],[11.8384,43.2054],[11.8436,43.1978],[11.8293,43.1932],[11.8167,43.1927],[11.8125,43.1914],[11.8015,43.1958],[11.7912,43.1981],[11.7846,43.1964],[11.7638,43.1864],[11.7511,43.1929],[11.7314,43.176],[11.7261,43.1768],[11.7182,43.1799],[11.7108,43.1862],[11.7091,43.1898],[11.7104,43.1916],[11.708,43.2047],[11.7035,43.2074],[11.6934,43.2103],[11.6864,43.2178],[11.6843,43.2225],[11.6727,43.2265],[11.6743,43.2273],[11.6737,43.2293],[11.667,43.2318],[11.6638,43.2365],[11.6632,43.2443],[11.6658,43.2592],[11.6751,43.2729],[11.6742,43.2783],[11.6781,43.2855],[11.6968,43.2837],[11.7004,43.2858],[11.7128,43.2766],[11.7225,43.2586],[11.7197,43.2546],[11.7408,43.2426],[11.7501,43.2352],[11.7722,43.238],[11.7749,43.2381],[11.7784,43.2364]]]}},{"type":"Feature","properties":{"i":"052034","n":"Sovicille"},"geometry":{"type":"Polygon","coordinates":[[[11.2311,43.3209],[11.2328,43.318],[11.2303,43.3145],[11.23,43.3092],[11.2342,43.3037],[11.2461,43.2953],[11.2694,43.2878],[11.2669,43.2855],[11.2682,43.2851],[11.2827,43.2816],[11.2885,43.2814],[11.2973,43.2794],[11.2869,43.2622],[11.2868,43.2596],[11.2874,43.259],[11.2893,43.2593],[11.2938,43.2614],[11.2988,43.2612],[11.303,43.2508],[11.3042,43.25],[11.3013,43.2422],[11.2951,43.2347],[11.2933,43.2298],[11.2958,43.225],[11.2992,43.2212],[11.2923,43.2213],[11.2791,43.2093],[11.2763,43.2022],[11.2774,43.1786],[11.2786,43.1725],[11.281,43.1695],[11.2806,43.1652],[11.2781,43.1641],[11.2753,43.1661],[11.271,43.1653],[11.2637,43.1618],[11.2578,43.1568],[11.2539,43.1517],[11.2452,43.1484],[11.2387,43.1472],[11.2374,43.1483],[11.2243,43.1487],[11.2214,43.1499],[11.2207,43.1537],[11.2216,43.1544],[11.2214,43.1568],[11.2152,43.1607],[11.2232,43.177],[11.2176,43.1976],[11.2157,43.1985],[11.2048,43.1985],[11.2017,43.2003],[11.1947,43.2095],[11.1946,43.2106],[11.1975,43.2123],[11.2054,43.2215],[11.2065,43.2242],[11.2067,43.2267],[11.2001,43.2405],[11.1925,43.2388],[11.1902,43.2325],[11.1876,43.2303],[11.1771,43.2331],[11.1711,43.2402],[11.1704,43.2465],[11.1651,43.2522],[11.1323,43.2681],[11.1287,43.2722],[11.1451,43.2776],[11.1476,43.2793],[11.1456,43.2944],[11.1507,43.3003],[11.169,43.3174],[11.1768,43.3172],[11.183,43.3189],[11.1974,43.326],[11.214,43.3189],[11.2163,43.3187],[11.2239,43.3211],[11.2311,43.3209]]]}},{"type":"Feature","properties":{"i":"052035","n":"Torrita di Siena"},"geometry":{"type":"Polygon","coordinates":[[[11.8514,43.1856],[11.8332,43.1772],[11.8278,43.1769],[11.8125,43.1713],[11.8007,43.1658],[11.7966,43.1631],[11.7959,43.159],[11.7937,43.1539],[11.7825,43.1511],[11.7791,43.142],[11.7778,43.1351],[11.778,43.1323],[11.7693,43.1173],[11.7501,43.1086],[11.7382,43.1078],[11.7361,43.1044],[11.7364,43.0985],[11.7327,43.0984],[11.7238,43.102],[11.7232,43.109],[11.7241,43.1123],[11.7219,43.1139],[11.7149,43.1131],[11.7078,43.1199],[11.7086,43.1302],[11.7157,43.1526],[11.7203,43.1586],[11.7248,43.1621],[11.7288,43.1668],[11.7304,43.1693],[11.7314,43.176],[11.7511,43.1929],[11.7638,43.1864],[11.7846,43.1964],[11.7912,43.1981],[11.8015,43.1958],[11.8125,43.1914],[11.8167,43.1927],[11.8293,43.1932],[11.8436,43.1978],[11.8481,43.1883],[11.8514,43.1856]]]}},{"type":"Feature","properties":{"i":"052036","n":"Trequanda"},"geometry":{"type":"Polygon","coordinates":[[[11.7314,43.176],[11.7304,43.1693],[11.7288,43.1668],[11.7248,43.1621],[11.7203,43.1586],[11.7157,43.1526],[11.7086,43.1302],[11.7078,43.1199],[11.7023,43.1175],[11.6953,43.1122],[11.6851,43.1121],[11.6793,43.1139],[11.6731,43.1143],[11.6712,43.113],[11.6667,43.1066],[11.6609,43.105],[11.6599,43.1059],[11.6589,43.1173],[11.6547,43.1303],[11.6558,43.1318],[11.6559,43.1347],[11.6466,43.1367],[11.6391,43.1372],[11.6298,43.135],[11.6282,43.1381],[11.6427,43.1475],[11.6474,43.1475],[11.6579,43.1501],[11.6824,43.1609],[11.6845,43.1652],[11.6839,43.1733],[11.6805,43.1743],[11.6755,43.1709],[11.6732,43.1703],[11.6616,43.1717],[11.6581,43.1731],[11.6301,43.1757],[11.618,43.1752],[11.6125,43.1729],[11.6126,43.1753],[11.6113,43.1784],[11.6056,43.1863],[11.6014,43.1904],[11.6114,43.1952],[11.6256,43.1961],[11.6364,43.2052],[11.6419,43.2071],[11.6484,43.2082],[11.6527,43.2077],[11.6576,43.2098],[11.6678,43.2164],[11.6727,43.2265],[11.6843,43.2225],[11.6864,43.2178],[11.6934,43.2103],[11.7035,43.2074],[11.708,43.2047],[11.7104,43.1916],[11.7091,43.1898],[11.7108,43.1862],[11.72,43.179],[11.7261,43.1768],[11.7314,43.176]]]}},{"type":"Feature","properties":{"i":"052037","n":"Montalcino"},"geometry":{"type":"Polygon","coordinates":[[[11.6125,43.1729],[11.618,43.1752],[11.6301,43.1757],[11.6581,43.1731],[11.6616,43.1717],[11.6732,43.1703],[11.6755,43.1709],[11.6794,43.1739],[11.6821,43.1742],[11.6839,43.1733],[11.6845,43.1652],[11.6824,43.1609],[11.6579,43.1501],[11.6474,43.1475],[11.6427,43.1475],[11.6351,43.143],[11.6282,43.1381],[11.6298,43.135],[11.6258,43.133],[11.6279,43.1291],[11.6224,43.124],[11.6153,43.119],[11.6058,43.1176],[11.5972,43.1178],[11.5852,43.1168],[11.5794,43.1093],[11.5827,43.1048],[11.5872,43.1037],[11.5889,43.1017],[11.5892,43.0986],[11.5781,43.0957],[11.5762,43.0948],[11.5758,43.0934],[11.58,43.0918],[11.5831,43.0925],[11.5872,43.0917],[11.5885,43.0905],[11.5897,43.086],[11.5854,43.08],[11.5829,43.0799],[11.5803,43.0814],[11.5772,43.0815],[11.5618,43.0748],[11.5594,43.0719],[11.5527,43.0581],[11.5522,43.0551],[11.5549,43.0509],[11.5611,43.0504],[11.5652,43.0462],[11.5657,43.0427],[11.5592,43.0429],[11.5524,43.0306],[11.5525,43.0193],[11.5556,43.0077],[11.5523,43.0037],[11.5516,42.9997],[11.5548,42.9913],[11.5553,42.987],[11.5476,42.9765],[11.5442,42.9743],[11.5401,42.9734],[11.5296,42.9734],[11.5272,42.9757],[11.5191,42.9809],[11.515,42.9812],[11.5075,42.9794],[11.4973,42.9756],[11.4938,42.9724],[11.4914,42.9671],[11.487,42.9641],[11.454,42.9584],[11.4521,42.9606],[11.4474,42.9615],[11.4396,42.959],[11.4152,42.9599],[11.3881,42.9637],[11.3759,42.9665],[11.358,42.9675],[11.3529,42.9693],[11.3504,42.972],[11.3538,42.9748],[11.3617,42.9784],[11.3666,42.9769],[11.3747,42.9785],[11.3757,42.9792],[11.3775,42.9842],[11.3763,42.9859],[11.3723,42.9862],[11.3686,42.9876],[11.3669,42.9893],[11.3651,42.9942],[11.3675,42.9952],[11.3727,42.9928],[11.3743,42.9927],[11.3775,42.9935],[11.3803,42.9954],[11.3804,42.9964],[11.3791,42.9982],[11.3672,43.0065],[11.3638,43.0059],[11.3619,43.007],[11.3611,43.01],[11.3634,43.0212],[11.3568,43.0262],[11.3551,43.0294],[11.3612,43.0347],[11.3559,43.0391],[11.357,43.0413],[11.3634,43.0479],[11.3651,43.0542],[11.3657,43.0609],[11.3643,43.0682],[11.3639,43.0811],[11.3744,43.0868],[11.3809,43.0983],[11.3862,43.1053],[11.3911,43.1076],[11.392,43.1062],[11.3948,43.1059],[11.4002,43.1092],[11.4032,43.1124],[11.4049,43.1127],[11.4203,43.1089],[11.4228,43.1074],[11.4219,43.1047],[11.4226,43.1032],[11.4306,43.1039],[11.4361,43.1074],[11.4433,43.1007],[11.445,43.1003],[11.4499,43.1029],[11.4471,43.1073],[11.4472,43.1089],[11.4537,43.1131],[11.4579,43.1093],[11.4704,43.1069],[11.4772,43.1063],[11.489,43.1091],[11.5123,43.1059],[11.5246,43.1118],[11.527,43.1151],[11.5272,43.117],[11.5234,43.1253],[11.5215,43.1329],[11.5184,43.1371],[11.5111,43.1422],[11.5099,43.1439],[11.5107,43.1446],[11.5205,43.147],[11.5305,43.1474],[11.5433,43.15],[11.5465,43.1531],[11.5471,43.1556],[11.5538,43.1586],[11.5593,43.1584],[11.5728,43.1662],[11.5789,43.173],[11.5884,43.1754],[11.5978,43.1734],[11.6125,43.1729]]]}}]}
