{"type":"FeatureCollection","fonte":"Confini comunali ISTAT via openpolis/geojson-italy — CC BY 4.0","features":[{"type":"Feature","properties":{"i":"014001","n":"Albaredo per San Marco"},"geometry":{"type":"Polygon","coordinates":[[[9.6441,46.0894],[9.6434,46.0876],[9.6456,46.082],[9.6474,46.0798],[9.6477,46.0776],[9.6435,46.06],[9.6404,46.0575],[9.6417,46.0553],[9.6339,46.0469],[9.6219,46.0473],[9.6185,46.0502],[9.5956,46.0916],[9.5829,46.1025],[9.5816,46.1066],[9.5862,46.1064],[9.6032,46.1111],[9.6104,46.1051],[9.6199,46.1022],[9.6441,46.0894]]]}},{"type":"Feature","properties":{"i":"014002","n":"Albosaggia"},"geometry":{"type":"Polygon","coordinates":[[[9.8913,46.1192],[9.8902,46.1174],[9.8806,46.1104],[9.8704,46.105],[9.8685,46.105],[9.8608,46.0996],[9.8564,46.0937],[9.8496,46.0823],[9.8504,46.0779],[9.8456,46.0543],[9.8467,46.0517],[9.8489,46.0499],[9.8448,46.0495],[9.8392,46.0526],[9.8372,46.0653],[9.8407,46.0778],[9.8411,46.0885],[9.8375,46.1004],[9.8348,46.1061],[9.8328,46.1159],[9.8324,46.1197],[9.8353,46.1272],[9.836,46.1357],[9.8328,46.1372],[9.8304,46.1401],[9.829,46.1436],[9.8282,46.1533],[9.829,46.1597],[9.8439,46.1621],[9.852,46.1611],[9.8591,46.1588],[9.8727,46.1589],[9.891,46.1608],[9.898,46.1632],[9.8991,46.1467],[9.8981,46.142],[9.8905,46.1317],[9.8913,46.1192]]]}},{"type":"Feature","properties":{"i":"014003","n":"Andalo Valtellino"},"geometry":{"type":"Polygon","coordinates":[[[9.4802,46.1466],[9.4777,46.1374],[9.4804,46.1304],[9.4825,46.1142],[9.4781,46.111],[9.4778,46.107],[9.4878,46.1001],[9.4794,46.0924],[9.4734,46.0881],[9.4691,46.0864],[9.4643,46.0943],[9.4676,46.0983],[9.4707,46.1041],[9.4707,46.1086],[9.4697,46.1111],[9.4657,46.114],[9.4636,46.1219],[9.4658,46.1297],[9.4729,46.1407],[9.4697,46.1413],[9.4655,46.1474],[9.4802,46.1466]]]}},{"type":"Feature","properties":{"i":"014004","n":"Aprica"},"geometry":{"type":"Polygon","coordinates":[[[10.1594,46.1595],[10.1633,46.1482],[10.1674,46.1414],[10.1718,46.1362],[10.1651,46.1126],[10.1649,46.1071],[10.1713,46.103],[10.1746,46.0969],[10.1748,46.0932],[10.1591,46.0928],[10.1539,46.0973],[10.1573,46.1021],[10.1485,46.1056],[10.1431,46.1067],[10.128,46.1223],[10.1247,46.1275],[10.1255,46.1376],[10.124,46.1409],[10.116,46.1501],[10.1075,46.1526],[10.1065,46.154],[10.108,46.1574],[10.1095,46.159],[10.1153,46.161],[10.1216,46.161],[10.1235,46.158],[10.1271,46.1552],[10.1304,46.1547],[10.1355,46.1549],[10.1594,46.1595]]]}},{"type":"Feature","properties":{"i":"014005","n":"Ardenno"},"geometry":{"type":"Polygon","coordinates":[[[9.6756,46.1652],[9.6607,46.165],[9.6606,46.1627],[9.6583,46.1603],[9.6548,46.1575],[9.6503,46.1555],[9.6333,46.1539],[9.6326,46.1545],[9.6309,46.1643],[9.6293,46.1655],[9.6203,46.1667],[9.6194,46.1693],[9.619,46.1744],[9.6246,46.1831],[9.6255,46.1862],[9.6258,46.1956],[9.6355,46.2045],[9.6395,46.2031],[9.6523,46.2071],[9.6718,46.2094],[9.6666,46.2069],[9.6664,46.1988],[9.664,46.1854],[9.6652,46.1815],[9.6688,46.175],[9.6756,46.1652]]]}},{"type":"Feature","properties":{"i":"014006","n":"Bema"},"geometry":{"type":"Polygon","coordinates":[[[9.6219,46.0473],[9.6041,46.0436],[9.6015,46.0458],[9.596,46.0547],[9.5914,46.06],[9.5882,46.0595],[9.5841,46.0575],[9.577,46.058],[9.5687,46.0626],[9.5665,46.0654],[9.562,46.0748],[9.5575,46.0795],[9.5567,46.0895],[9.5588,46.1006],[9.5567,46.1074],[9.5593,46.1122],[9.5656,46.1167],[9.5816,46.1066],[9.5829,46.1025],[9.5956,46.0916],[9.6185,46.0502],[9.6219,46.0473]]]}},{"type":"Feature","properties":{"i":"014007","n":"Berbenno di Valtellina"},"geometry":{"type":"Polygon","coordinates":[[[9.7692,46.2206],[9.7732,46.2114],[9.7734,46.2075],[9.7713,46.2025],[9.7655,46.1819],[9.7658,46.1773],[9.7689,46.1674],[9.7668,46.1587],[9.7659,46.1575],[9.7541,46.159],[9.7085,46.1598],[9.7031,46.1604],[9.7027,46.1658],[9.6998,46.1683],[9.7,46.173],[9.6987,46.177],[9.699,46.1851],[9.7013,46.191],[9.7155,46.2136],[9.7188,46.2151],[9.7386,46.2197],[9.7421,46.222],[9.7425,46.2238],[9.7392,46.228],[9.7359,46.2358],[9.7361,46.2377],[9.7458,46.2372],[9.7598,46.2289],[9.7692,46.2206]]]}},{"type":"Feature","properties":{"i":"014008","n":"Bianzone"},"geometry":{"type":"Polygon","coordinates":[[[10.1023,46.2283],[10.1089,46.2173],[10.1159,46.2115],[10.121,46.2052],[10.1227,46.1903],[10.1257,46.1838],[10.1202,46.1764],[10.1123,46.1741],[10.1091,46.1722],[10.1059,46.1736],[10.0929,46.1826],[10.0765,46.1914],[10.0715,46.1992],[10.0745,46.2081],[10.0745,46.2124],[10.0708,46.2171],[10.0717,46.218],[10.0836,46.2266],[10.0945,46.2286],[10.1023,46.2283]]]}},{"type":"Feature","properties":{"i":"014009","n":"Bormio"},"geometry":{"type":"Polygon","coordinates":[[[10.4531,46.5306],[10.4535,46.5258],[10.4579,46.5106],[10.473,46.5006],[10.4759,46.4973],[10.4761,46.4955],[10.472,46.4949],[10.4517,46.4948],[10.4437,46.4925],[10.4368,46.4921],[10.4161,46.4919],[10.4024,46.4716],[10.3996,46.4692],[10.395,46.4692],[10.3925,46.4665],[10.3927,46.4599],[10.3967,46.4588],[10.3987,46.449],[10.4037,46.4445],[10.4004,46.4443],[10.394,46.4495],[10.3883,46.459],[10.3829,46.4574],[10.3765,46.4577],[10.3739,46.4594],[10.3703,46.4552],[10.3686,46.4504],[10.3669,46.4484],[10.3618,46.4473],[10.3602,46.4486],[10.3585,46.4512],[10.3578,46.4614],[10.3589,46.4738],[10.3654,46.4781],[10.368,46.4823],[10.3646,46.4892],[10.3598,46.494],[10.3548,46.5024],[10.3567,46.5057],[10.3727,46.5118],[10.3862,46.5109],[10.3942,46.5125],[10.4044,46.5158],[10.4073,46.52],[10.4086,46.5262],[10.4131,46.533],[10.4189,46.5393],[10.4261,46.5404],[10.4284,46.5397],[10.4335,46.5412],[10.4366,46.5374],[10.4531,46.5306]]]}},{"type":"Feature","properties":{"i":"014010","n":"Buglio in Monte"},"geometry":{"type":"Polygon","coordinates":[[[9.7361,46.2377],[9.7359,46.2358],[9.7392,46.228],[9.7425,46.2238],[9.7421,46.222],[9.7386,46.2197],[9.7188,46.2151],[9.7155,46.2136],[9.7013,46.191],[9.699,46.1851],[9.6987,46.177],[9.7,46.173],[9.6994,46.1663],[9.6974,46.1652],[9.6914,46.1659],[9.6867,46.1638],[9.6833,46.1643],[9.6802,46.1666],[9.6756,46.1652],[9.6688,46.175],[9.6652,46.1815],[9.664,46.1854],[9.6664,46.1988],[9.6666,46.2069],[9.6718,46.2094],[9.6669,46.2112],[9.662,46.216],[9.667,46.2199],[9.6899,46.2221],[9.6963,46.2244],[9.7082,46.2348],[9.7234,46.2443],[9.7279,46.2526],[9.7492,46.2692],[9.7512,46.2681],[9.749,46.2617],[9.7387,46.2454],[9.739,46.2414],[9.7361,46.2377]]]}},{"type":"Feature","properties":{"i":"014011","n":"Caiolo"},"geometry":{"type":"Polygon","coordinates":[[[9.829,46.1597],[9.8282,46.1533],[9.829,46.1436],[9.8304,46.1401],[9.8328,46.1372],[9.836,46.1357],[9.8353,46.1272],[9.8324,46.1197],[9.8328,46.1159],[9.8348,46.1061],[9.8375,46.1004],[9.8411,46.0885],[9.8407,46.0778],[9.8372,46.0653],[9.839,46.0534],[9.8392,46.0526],[9.8448,46.0495],[9.8489,46.0499],[9.848,46.0467],[9.8465,46.0459],[9.8367,46.044],[9.8343,46.0448],[9.8315,46.0472],[9.8196,46.0496],[9.8111,46.0497],[9.8074,46.0537],[9.8086,46.0555],[9.8077,46.059],[9.8078,46.0671],[9.8101,46.0689],[9.8112,46.0725],[9.8126,46.0978],[9.8073,46.1107],[9.7975,46.1171],[9.7902,46.1293],[9.7885,46.1376],[9.7904,46.144],[9.7846,46.1563],[9.796,46.1602],[9.8022,46.1611],[9.829,46.1597]]]}},{"type":"Feature","properties":{"i":"014012","n":"Campodolcino"},"geometry":{"type":"Polygon","coordinates":[[[9.3997,46.4141],[9.4043,46.4141],[9.4085,46.4131],[9.4192,46.4043],[9.4234,46.3886],[9.4204,46.3802],[9.4061,46.3786],[9.3907,46.3812],[9.3658,46.3799],[9.3602,46.3839],[9.3462,46.3843],[9.3413,46.3834],[9.3335,46.3807],[9.3111,46.3779],[9.3049,46.3838],[9.299,46.3877],[9.292,46.3879],[9.2843,46.3861],[9.2802,46.3879],[9.2779,46.3897],[9.2757,46.3947],[9.2756,46.3955],[9.2799,46.3987],[9.2812,46.4006],[9.2814,46.4075],[9.2788,46.4142],[9.275,46.4186],[9.2753,46.4197],[9.2851,46.4208],[9.2956,46.4231],[9.3177,46.425],[9.3271,46.4276],[9.3314,46.4296],[9.3377,46.4286],[9.3454,46.4258],[9.3576,46.4247],[9.3711,46.4301],[9.374,46.4299],[9.3796,46.4219],[9.3839,46.4175],[9.3879,46.415],[9.3918,46.414],[9.3975,46.4147],[9.3997,46.4141]]]}},{"type":"Feature","properties":{"i":"014013","n":"Caspoggio"},"geometry":{"type":"Polygon","coordinates":[[[9.8958,46.2448],[9.895,46.2373],[9.8746,46.2404],[9.8719,46.2416],[9.8576,46.2514],[9.8486,46.2529],[9.8477,46.2568],[9.8483,46.2589],[9.8591,46.269],[9.8621,46.2685],[9.8792,46.2622],[9.8868,46.2628],[9.8878,46.257],[9.8866,46.2525],[9.8933,46.2453],[9.8958,46.2448]]]}},{"type":"Feature","properties":{"i":"014014","n":"Castello dell'Acqua"},"geometry":{"type":"Polygon","coordinates":[[[10.0063,46.1575],[10.0169,46.1565],[10.0301,46.1586],[10.034,46.1542],[10.037,46.1478],[10.037,46.1455],[10.0302,46.1349],[10.0316,46.1122],[10.0407,46.1005],[10.0307,46.1025],[10.0195,46.1184],[10.0044,46.129],[9.995,46.1305],[9.9906,46.1458],[9.983,46.152],[9.9786,46.1611],[9.981,46.1619],[9.9966,46.1598],[10.0063,46.1575]]]}},{"type":"Feature","properties":{"i":"014015","n":"Castione Andevenno"},"geometry":{"type":"Polygon","coordinates":[[[9.8243,46.199],[9.8274,46.1939],[9.829,46.1597],[9.8022,46.1611],[9.796,46.1602],[9.7863,46.157],[9.7847,46.1614],[9.786,46.1728],[9.789,46.1831],[9.7895,46.2144],[9.7907,46.2188],[9.7984,46.2149],[9.8175,46.2083],[9.8173,46.2008],[9.8243,46.199]]]}},{"type":"Feature","properties":{"i":"014016","n":"Cedrasco"},"geometry":{"type":"Polygon","coordinates":[[[9.7846,46.1563],[9.7904,46.144],[9.7885,46.1376],[9.7902,46.1293],[9.7975,46.1171],[9.8073,46.1107],[9.8126,46.0978],[9.8112,46.0725],[9.8101,46.0689],[9.8078,46.0671],[9.8077,46.059],[9.8086,46.0555],[9.8074,46.0537],[9.8005,46.0528],[9.7992,46.0558],[9.7974,46.0684],[9.7988,46.0686],[9.7989,46.0694],[9.7979,46.0772],[9.7937,46.0988],[9.7908,46.1062],[9.7787,46.1224],[9.7711,46.1341],[9.7619,46.1523],[9.7628,46.1549],[9.7655,46.1573],[9.7748,46.1551],[9.7816,46.1565],[9.7846,46.1563]]]}},{"type":"Feature","properties":{"i":"014017","n":"Cercino"},"geometry":{"type":"Polygon","coordinates":[[[9.5049,46.1412],[9.501,46.1441],[9.5002,46.1493],[9.4988,46.1502],[9.4969,46.157],[9.5024,46.1578],[9.5035,46.1588],[9.4992,46.1596],[9.4979,46.1692],[9.4985,46.1752],[9.4957,46.1828],[9.5082,46.1816],[9.5156,46.183],[9.5195,46.1591],[9.5148,46.1546],[9.5083,46.1445],[9.5049,46.1412]]]}},{"type":"Feature","properties":{"i":"014018","n":"Chiavenna"},"geometry":{"type":"Polygon","coordinates":[[[9.4385,46.3037],[9.432,46.3032],[9.4186,46.3064],[9.4115,46.3105],[9.4088,46.314],[9.4008,46.3158],[9.3981,46.3156],[9.3955,46.3094],[9.3922,46.3083],[9.3845,46.3223],[9.3755,46.3264],[9.3748,46.3285],[9.3778,46.3308],[9.39,46.3294],[9.3918,46.3347],[9.3926,46.3433],[9.3945,46.3481],[9.4021,46.3533],[9.409,46.3561],[9.417,46.3259],[9.4247,46.3157],[9.432,46.3106],[9.4385,46.3037]]]}},{"type":"Feature","properties":{"i":"014019","n":"Chiesa in Valmalenco"},"geometry":{"type":"Polygon","coordinates":[[[9.8621,46.2685],[9.8591,46.269],[9.8483,46.2589],[9.8477,46.2568],[9.8371,46.2533],[9.8229,46.2463],[9.8203,46.2429],[9.8203,46.2411],[9.8186,46.2403],[9.8159,46.2399],[9.805,46.2508],[9.7916,46.2487],[9.7781,46.2493],[9.7765,46.2529],[9.7803,46.2622],[9.78,46.2637],[9.7746,46.2612],[9.7665,46.2609],[9.757,46.2645],[9.7474,46.27],[9.738,46.272],[9.73,46.2782],[9.7263,46.2836],[9.7173,46.2915],[9.7145,46.2931],[9.7151,46.2997],[9.7178,46.3052],[9.7215,46.3089],[9.7242,46.3097],[9.7259,46.3137],[9.7261,46.3192],[9.7221,46.3211],[9.7207,46.3276],[9.7271,46.3335],[9.7233,46.3407],[9.7258,46.3435],[9.7357,46.35],[9.7431,46.3516],[9.7548,46.3457],[9.7647,46.3378],[9.7696,46.3359],[9.7775,46.335],[9.7816,46.3379],[9.7954,46.3432],[9.8217,46.3516],[9.8271,46.3506],[9.8326,46.345],[9.8378,46.342],[9.8492,46.3404],[9.8581,46.3376],[9.8592,46.3366],[9.8578,46.3342],[9.8583,46.3322],[9.8612,46.3284],[9.8781,46.3168],[9.8813,46.3121],[9.8837,46.2905],[9.8824,46.2896],[9.8695,46.2889],[9.8635,46.2875],[9.8608,46.2858],[9.8602,46.2844],[9.8619,46.2782],[9.8625,46.272],[9.8621,46.2685]]]}},{"type":"Feature","properties":{"i":"014020","n":"Chiuro"},"geometry":{"type":"Polygon","coordinates":[[[10.0493,46.2275],[10.0497,46.2256],[10.0471,46.2206],[10.041,46.2166],[10.0356,46.2101],[10.0321,46.2039],[10.0274,46.1873],[10.0156,46.1742],[10.0109,46.1732],[10.0092,46.1721],[10.0063,46.1575],[9.9966,46.1598],[9.981,46.1619],[9.9742,46.1602],[9.9736,46.1636],[9.9908,46.1745],[9.997,46.1829],[9.9978,46.1882],[10.0,46.1938],[10.0121,46.2164],[9.9974,46.2267],[9.9903,46.2307],[9.9784,46.2312],[9.9723,46.2325],[9.9612,46.2381],[9.9714,46.2475],[9.9764,46.2623],[9.9755,46.2702],[9.9745,46.2722],[9.9747,46.274],[9.9765,46.2764],[9.9896,46.2787],[9.9983,46.2829],[10.0301,46.2771],[10.0506,46.2676],[10.0558,46.2637],[10.0603,46.2511],[10.0599,46.2475],[10.0544,46.239],[10.0478,46.2322],[10.0474,46.2287],[10.0493,46.2275]]]}},{"type":"Feature","properties":{"i":"014021","n":"Cino"},"geometry":{"type":"Polygon","coordinates":[[[9.4969,46.157],[9.4851,46.1546],[9.4816,46.1553],[9.4779,46.158],[9.474,46.1715],[9.4637,46.1745],[9.4764,46.1788],[9.4896,46.1796],[9.4957,46.1828],[9.4985,46.1752],[9.4979,46.1692],[9.4992,46.1596],[9.5035,46.1588],[9.5024,46.1578],[9.4969,46.157]]]}},{"type":"Feature","properties":{"i":"014022","n":"Civo"},"geometry":{"type":"Polygon","coordinates":[[[9.6255,46.1884],[9.6246,46.1831],[9.619,46.1744],[9.6203,46.1667],[9.6193,46.164],[9.6161,46.1628],[9.6104,46.1657],[9.6029,46.1659],[9.599,46.1645],[9.5961,46.1634],[9.5936,46.1602],[9.5956,46.1577],[9.5955,46.1553],[9.5945,46.1536],[9.5898,46.1526],[9.5832,46.1532],[9.5759,46.1505],[9.5702,46.1458],[9.5647,46.1454],[9.5527,46.1484],[9.5547,46.1495],[9.561,46.1562],[9.5623,46.1631],[9.5615,46.1669],[9.5555,46.1821],[9.5539,46.1931],[9.5612,46.1949],[9.5642,46.1982],[9.5604,46.2077],[9.5609,46.2121],[9.5707,46.2118],[9.5851,46.2073],[9.6038,46.1977],[9.6131,46.1898],[9.6255,46.1884]]]}},{"type":"Feature","properties":{"i":"014023","n":"Colorina"},"geometry":{"type":"Polygon","coordinates":[[[9.7412,46.1594],[9.7413,46.1576],[9.7475,46.147],[9.748,46.1421],[9.7464,46.1361],[9.7477,46.1305],[9.7496,46.1286],[9.7509,46.1226],[9.7413,46.1197],[9.7269,46.1179],[9.7232,46.1153],[9.7162,46.118],[9.702,46.1285],[9.6982,46.135],[9.6947,46.1499],[9.6927,46.1533],[9.6885,46.1565],[9.6881,46.1589],[9.6896,46.1651],[9.6914,46.1659],[9.6986,46.1655],[9.6998,46.167],[9.6998,46.1683],[9.7027,46.1658],[9.7031,46.1604],[9.7085,46.1598],[9.7412,46.1594]]]}},{"type":"Feature","properties":{"i":"014024","n":"Cosio Valtellino"},"geometry":{"type":"Polygon","coordinates":[[[9.5049,46.1412],[9.5121,46.1411],[9.5319,46.1384],[9.5576,46.1448],[9.5633,46.1309],[9.566,46.121],[9.5656,46.1167],[9.5621,46.1147],[9.5582,46.1112],[9.5567,46.1074],[9.5573,46.1057],[9.5538,46.1057],[9.5225,46.098],[9.5129,46.0921],[9.5092,46.0915],[9.5037,46.092],[9.5027,46.0986],[9.4997,46.1025],[9.4989,46.1128],[9.4997,46.1199],[9.4925,46.1295],[9.4915,46.1375],[9.4898,46.1405],[9.4922,46.1398],[9.4914,46.1444],[9.4988,46.1502],[9.5002,46.1493],[9.501,46.1441],[9.5049,46.1412]]]}},{"type":"Feature","properties":{"i":"014025","n":"Dazio"},"geometry":{"type":"Polygon","coordinates":[[[9.6357,46.1537],[9.6303,46.1506],[9.6208,46.1546],[9.6032,46.1548],[9.5945,46.1536],[9.5955,46.1553],[9.5956,46.1577],[9.5936,46.1602],[9.5961,46.1634],[9.6029,46.1659],[9.6104,46.1657],[9.6161,46.1628],[9.6193,46.164],[9.6203,46.1667],[9.6293,46.1655],[9.6314,46.1631],[9.6326,46.1545],[9.6357,46.1537]]]}},{"type":"Feature","properties":{"i":"014026","n":"Delebio"},"geometry":{"type":"Polygon","coordinates":[[[9.4655,46.1474],[9.4697,46.1413],[9.4729,46.1407],[9.4658,46.1297],[9.4636,46.1219],[9.4657,46.114],[9.4697,46.1111],[9.4707,46.1086],[9.4707,46.1041],[9.4676,46.0983],[9.4643,46.0943],[9.4691,46.0864],[9.468,46.083],[9.4646,46.0807],[9.4567,46.0774],[9.4305,46.0861],[9.415,46.0948],[9.4189,46.1001],[9.4251,46.1126],[9.4388,46.1302],[9.4382,46.138],[9.435,46.1425],[9.4304,46.1447],[9.4281,46.1493],[9.4341,46.1482],[9.4373,46.1492],[9.4448,46.1478],[9.4477,46.1442],[9.449,46.1437],[9.453,46.1441],[9.4564,46.1484],[9.4591,46.1499],[9.4616,46.1498],[9.4655,46.1474]]]}},{"type":"Feature","properties":{"i":"014027","n":"Dubino"},"geometry":{"type":"Polygon","coordinates":[[[9.4646,46.1801],[9.4723,46.1774],[9.4637,46.1745],[9.4679,46.1578],[9.4685,46.1495],[9.4678,46.1475],[9.4655,46.1474],[9.4616,46.1498],[9.4591,46.1499],[9.4564,46.1484],[9.453,46.1441],[9.449,46.1437],[9.4477,46.1442],[9.4448,46.1478],[9.4373,46.1492],[9.4341,46.1482],[9.4216,46.1495],[9.4242,46.1551],[9.4249,46.1899],[9.444,46.1859],[9.452,46.1827],[9.4646,46.1801]]]}},{"type":"Feature","properties":{"i":"014028","n":"Faedo Valtellino"},"geometry":{"type":"Polygon","coordinates":[[[9.8913,46.1192],[9.8905,46.1317],[9.8981,46.142],[9.8991,46.1467],[9.898,46.1632],[9.9117,46.1613],[9.9142,46.1598],[9.9183,46.1542],[9.9186,46.1511],[9.9131,46.1467],[9.9052,46.1368],[9.8972,46.1208],[9.8913,46.1192]]]}},{"type":"Feature","properties":{"i":"014029","n":"Forcola"},"geometry":{"type":"Polygon","coordinates":[[[9.6896,46.1651],[9.6881,46.1589],[9.6885,46.1565],[9.6927,46.1533],[9.6947,46.1499],[9.6965,46.1403],[9.7002,46.1308],[9.702,46.1285],[9.7128,46.1202],[9.7162,46.118],[9.7232,46.1153],[9.7223,46.104],[9.7127,46.1071],[9.6945,46.1162],[9.6744,46.1279],[9.6694,46.133],[9.6616,46.1371],[9.6543,46.1466],[9.654,46.1498],[9.6478,46.1531],[9.6464,46.1549],[9.6492,46.1551],[9.6548,46.1575],[9.6606,46.1627],[9.6607,46.165],[9.6756,46.1652],[9.6802,46.1666],[9.6833,46.1643],[9.6867,46.1638],[9.6896,46.1651]]]}},{"type":"Feature","properties":{"i":"014030","n":"Fusine"},"geometry":{"type":"Polygon","coordinates":[[[9.7655,46.1573],[9.7628,46.1549],[9.7619,46.1523],[9.7711,46.1341],[9.7787,46.1224],[9.7896,46.1082],[9.7933,46.1004],[9.7979,46.0772],[9.7989,46.0694],[9.7988,46.0686],[9.7974,46.0684],[9.7987,46.0585],[9.8005,46.0528],[9.7928,46.0536],[9.7783,46.0613],[9.7701,46.0638],[9.7664,46.0644],[9.7643,46.0634],[9.7511,46.0615],[9.7459,46.0628],[9.7446,46.0668],[9.7461,46.0728],[9.7459,46.0819],[9.7284,46.0965],[9.7253,46.1013],[9.7223,46.104],[9.7232,46.1153],[9.7269,46.1179],[9.7413,46.1197],[9.7509,46.1226],[9.7496,46.1286],[9.7477,46.1305],[9.7464,46.1361],[9.748,46.1421],[9.7475,46.147],[9.7413,46.1576],[9.7412,46.1594],[9.7557,46.1589],[9.7655,46.1573]]]}},{"type":"Feature","properties":{"i":"014031","n":"Gerola Alta"},"geometry":{"type":"Polygon","coordinates":[[[9.6041,46.0436],[9.601,46.0372],[9.6003,46.0337],[9.5954,46.029],[9.5873,46.024],[9.5834,46.0235],[9.5785,46.0211],[9.5734,46.0212],[9.567,46.0228],[9.5592,46.0227],[9.5559,46.0215],[9.5548,46.0169],[9.5534,46.0152],[9.5512,46.0141],[9.5458,46.0136],[9.5343,46.0149],[9.5326,46.0141],[9.5318,46.0114],[9.5269,46.0115],[9.5222,46.0312],[9.5109,46.0416],[9.5033,46.0443],[9.5018,46.0457],[9.5018,46.0475],[9.5069,46.0525],[9.5093,46.0576],[9.51,46.0615],[9.5098,46.0625],[9.5058,46.0634],[9.5021,46.0659],[9.5311,46.0762],[9.5472,46.0783],[9.5525,46.0798],[9.5573,46.0823],[9.5575,46.0795],[9.562,46.0748],[9.5665,46.0654],[9.5687,46.0626],[9.577,46.058],[9.5841,46.0575],[9.5882,46.0595],[9.5914,46.06],[9.596,46.0547],[9.6015,46.0458],[9.6041,46.0436]]]}},{"type":"Feature","properties":{"i":"014032","n":"Gordona"},"geometry":{"type":"Polygon","coordinates":[[[9.3535,46.3113],[9.3548,46.3092],[9.3644,46.3028],[9.3842,46.2947],[9.3836,46.2917],[9.3905,46.2762],[9.3899,46.2707],[9.3871,46.2673],[9.3784,46.2665],[9.37,46.2692],[9.3639,46.2755],[9.352,46.2783],[9.3471,46.2756],[9.3481,46.2716],[9.3496,46.2695],[9.3497,46.2671],[9.3488,46.2659],[9.3409,46.2621],[9.3144,46.2535],[9.3121,46.2518],[9.31,46.2481],[9.3097,46.2373],[9.303,46.2356],[9.2752,46.2396],[9.2617,46.2333],[9.2555,46.2323],[9.2476,46.2336],[9.2498,46.2404],[9.2488,46.2488],[9.2494,46.2545],[9.2546,46.2688],[9.2644,46.2809],[9.274,46.2912],[9.2845,46.2969],[9.2847,46.3],[9.2821,46.3083],[9.3001,46.3266],[9.3023,46.325],[9.3108,46.3227],[9.3152,46.3229],[9.3198,46.3242],[9.3234,46.3235],[9.3535,46.3113]]]}},{"type":"Feature","properties":{"i":"014033","n":"Grosio"},"geometry":{"type":"Polygon","coordinates":[[[10.2821,46.4023],[10.2844,46.402],[10.2901,46.3966],[10.2902,46.3938],[10.2965,46.3894],[10.3018,46.3877],[10.3096,46.3834],[10.3115,46.3799],[10.3097,46.373],[10.3099,46.3701],[10.2972,46.3667],[10.2961,46.3621],[10.2965,46.3602],[10.2906,46.3579],[10.2836,46.361],[10.2706,46.3614],[10.2649,46.36],[10.2652,46.3561],[10.2686,46.3457],[10.2705,46.3423],[10.2721,46.3411],[10.2739,46.3325],[10.2791,46.3259],[10.2972,46.3134],[10.2985,46.313],[10.3004,46.3164],[10.3054,46.3197],[10.3199,46.3072],[10.3451,46.2899],[10.3391,46.2863],[10.3348,46.2882],[10.3285,46.2871],[10.3208,46.2817],[10.316,46.2773],[10.3153,46.2758],[10.2949,46.2771],[10.2815,46.2806],[10.2624,46.2909],[10.2532,46.2995],[10.2507,46.3032],[10.2485,46.3091],[10.2475,46.3186],[10.2455,46.3197],[10.2078,46.3245],[10.1856,46.3304],[10.1586,46.3315],[10.1429,46.3155],[10.1426,46.3076],[10.141,46.3052],[10.1389,46.3047],[10.1171,46.3137],[10.1061,46.3314],[10.1062,46.3409],[10.1083,46.3498],[10.1113,46.353],[10.1262,46.3601],[10.1289,46.3633],[10.1261,46.3712],[10.1277,46.3776],[10.141,46.3857],[10.1478,46.3865],[10.1489,46.3857],[10.1545,46.3854],[10.1645,46.3857],[10.1897,46.382],[10.1971,46.3834],[10.1986,46.3849],[10.2003,46.3887],[10.2051,46.3894],[10.2097,46.3885],[10.2127,46.3846],[10.2188,46.3844],[10.2272,46.389],[10.2282,46.3985],[10.2255,46.4148],[10.2262,46.4165],[10.2347,46.4153],[10.257,46.4086],[10.2703,46.401],[10.2759,46.3999],[10.2821,46.4023]]]}},{"type":"Feature","properties":{"i":"014034","n":"Grosotto"},"geometry":{"type":"Polygon","coordinates":[[[10.3153,46.2758],[10.3143,46.2599],[10.3134,46.2597],[10.3006,46.26],[10.2822,46.2628],[10.2712,46.2655],[10.2662,46.2685],[10.2636,46.2692],[10.2604,46.2688],[10.256,46.2671],[10.255,46.2659],[10.2511,46.2657],[10.2264,46.2733],[10.2191,46.2774],[10.2166,46.2807],[10.2127,46.2833],[10.2005,46.2863],[10.1984,46.2864],[10.1923,46.2846],[10.1902,46.2826],[10.189,46.2799],[10.1822,46.2773],[10.1744,46.2764],[10.17,46.2774],[10.1635,46.2745],[10.1614,46.2763],[10.1618,46.2802],[10.1498,46.2944],[10.143,46.2974],[10.1396,46.2996],[10.138,46.3015],[10.1389,46.3047],[10.141,46.3052],[10.1426,46.3076],[10.1429,46.3155],[10.1586,46.3315],[10.1856,46.3304],[10.2078,46.3245],[10.2466,46.3194],[10.2475,46.3186],[10.2485,46.3091],[10.2507,46.3032],[10.2532,46.2995],[10.2624,46.2909],[10.2815,46.2806],[10.2949,46.2771],[10.3153,46.2758]]]}},{"type":"Feature","properties":{"i":"014035","n":"Madesimo"},"geometry":{"type":"Polygon","coordinates":[[[9.409,46.4667],[9.4016,46.4577],[9.3956,46.4437],[9.3982,46.44],[9.4007,46.4381],[9.4021,46.4346],[9.4031,46.4182],[9.3997,46.4141],[9.3975,46.4147],[9.3918,46.414],[9.3879,46.415],[9.3839,46.4175],[9.3796,46.4219],[9.3744,46.4296],[9.3719,46.4302],[9.3576,46.4247],[9.3454,46.4258],[9.3377,46.4286],[9.3314,46.4296],[9.3271,46.4276],[9.3177,46.425],[9.2956,46.4231],[9.2851,46.4208],[9.2765,46.42],[9.2753,46.4197],[9.275,46.4186],[9.2707,46.4186],[9.2647,46.4203],[9.2495,46.4312],[9.2482,46.4331],[9.2475,46.4362],[9.2477,46.4472],[9.252,46.4495],[9.2611,46.45],[9.2656,46.4515],[9.2717,46.4545],[9.2778,46.4616],[9.2767,46.4622],[9.2738,46.4701],[9.2749,46.4808],[9.2789,46.4916],[9.2819,46.4964],[9.2889,46.4971],[9.2971,46.499],[9.3109,46.5045],[9.3256,46.5059],[9.3435,46.5048],[9.3521,46.5052],[9.3604,46.5094],[9.363,46.5094],[9.3723,46.5037],[9.3737,46.4998],[9.3695,46.4973],[9.3684,46.4949],[9.3708,46.4897],[9.3751,46.4863],[9.3796,46.484],[9.3881,46.4767],[9.4,46.4696],[9.4053,46.4685],[9.409,46.4667]]]}},{"type":"Feature","properties":{"i":"014036","n":"Lanzada"},"geometry":{"type":"Polygon","coordinates":[[[9.9983,46.2829],[9.9896,46.2787],[9.9765,46.2764],[9.9735,46.2783],[9.9683,46.2771],[9.952,46.2705],[9.9336,46.2648],[9.9146,46.2562],[9.8947,46.2447],[9.8923,46.2461],[9.8866,46.2525],[9.8878,46.257],[9.8868,46.2628],[9.8792,46.2622],[9.8621,46.2685],[9.8625,46.272],[9.8619,46.2782],[9.8602,46.2844],[9.8608,46.2858],[9.8635,46.2875],[9.8695,46.2889],[9.8824,46.2896],[9.8837,46.2905],[9.8818,46.311],[9.8795,46.3151],[9.8764,46.3182],[9.8612,46.3284],[9.8583,46.3322],[9.8578,46.3342],[9.8591,46.3355],[9.859,46.3372],[9.8557,46.3388],[9.8492,46.3404],[9.8378,46.342],[9.8326,46.345],[9.8271,46.3506],[9.8217,46.3516],[9.8316,46.3584],[9.8377,46.3613],[9.8518,46.364],[9.8705,46.363],[9.8794,46.3678],[9.883,46.371],[9.9064,46.3809],[9.9099,46.3789],[9.9133,46.3749],[9.9254,46.366],[9.9292,46.3669],[9.9309,46.368],[9.9298,46.3717],[9.9335,46.3745],[9.9529,46.3794],[9.9586,46.3781],[9.9554,46.3737],[9.9624,46.3656],[9.9659,46.3628],[9.9835,46.3537],[9.9887,46.352],[9.9931,46.3525],[9.9964,46.3509],[9.994,46.3414],[9.9862,46.3347],[9.9808,46.3236],[9.9897,46.3176],[9.997,46.314],[10.0009,46.3027],[9.9971,46.2988],[9.9933,46.2975],[9.9926,46.2931],[9.9944,46.2883],[9.9983,46.2829]]]}},{"type":"Feature","properties":{"i":"014037","n":"Livigno"},"geometry":{"type":"Polygon","coordinates":[[[10.2423,46.5925],[10.2258,46.5914],[10.1973,46.5755],[10.1938,46.5722],[10.1932,46.5673],[10.1938,46.5665],[10.2013,46.5634],[10.2037,46.5613],[10.2065,46.5564],[10.2023,46.5511],[10.1959,46.5458],[10.1986,46.5426],[10.2024,46.5404],[10.2132,46.5388],[10.2143,46.5209],[10.2164,46.5095],[10.2158,46.5022],[10.2138,46.4911],[10.2118,46.4876],[10.2093,46.4852],[10.2035,46.4753],[10.2032,46.4732],[10.209,46.4687],[10.2084,46.4679],[10.2042,46.4658],[10.1931,46.4645],[10.179,46.4596],[10.1657,46.4561],[10.1594,46.4506],[10.1611,46.4486],[10.16,46.4465],[10.1488,46.4435],[10.1438,46.443],[10.1329,46.4365],[10.1307,46.4319],[10.1195,46.4292],[10.1013,46.4229],[10.095,46.422],[10.0796,46.4211],[10.0798,46.4242],[10.0696,46.4271],[10.0652,46.426],[10.062,46.4272],[10.0592,46.4296],[10.0579,46.4359],[10.0552,46.4405],[10.0431,46.4421],[10.0405,46.4441],[10.0398,46.4457],[10.0439,46.4548],[10.0519,46.4603],[10.0534,46.4631],[10.0509,46.4721],[10.0477,46.4746],[10.0444,46.4834],[10.0465,46.5017],[10.0468,46.5106],[10.0517,46.514],[10.054,46.5209],[10.0525,46.5304],[10.0447,46.5365],[10.0436,46.5378],[10.0441,46.5394],[10.0471,46.5428],[10.0492,46.5439],[10.0597,46.5456],[10.0664,46.5501],[10.0689,46.5537],[10.0831,46.5641],[10.0852,46.5666],[10.0851,46.5676],[10.0792,46.5731],[10.0794,46.5749],[10.0921,46.5768],[10.0971,46.579],[10.1011,46.5828],[10.1012,46.5887],[10.0996,46.5908],[10.0981,46.5967],[10.0999,46.6062],[10.1022,46.6108],[10.1056,46.6107],[10.1117,46.608],[10.1189,46.6062],[10.1302,46.6056],[10.1357,46.6075],[10.1371,46.6094],[10.1405,46.6108],[10.1562,46.615],[10.1646,46.616],[10.1831,46.624],[10.1906,46.6261],[10.1937,46.6257],[10.2012,46.6219],[10.2096,46.6201],[10.2192,46.6218],[10.223,46.6283],[10.2281,46.6311],[10.2391,46.6352],[10.2403,46.6351],[10.2403,46.63],[10.2411,46.6273],[10.2434,46.6238],[10.2518,46.6161],[10.2564,46.6085],[10.2423,46.5925]]]}},{"type":"Feature","properties":{"i":"014038","n":"Lovero"},"geometry":{"type":"Polygon","coordinates":[[[10.2306,46.2394],[10.2428,46.2338],[10.255,46.2265],[10.2644,46.2162],[10.2716,46.2111],[10.2682,46.2088],[10.2597,46.2051],[10.2534,46.2033],[10.2416,46.2023],[10.2337,46.2138],[10.2086,46.2319],[10.1975,46.2511],[10.1902,46.2567],[10.2002,46.2567],[10.2071,46.2557],[10.2207,46.2483],[10.2262,46.2404],[10.2289,46.2388],[10.2306,46.2394]]]}},{"type":"Feature","properties":{"i":"014039","n":"Mantello"},"geometry":{"type":"Polygon","coordinates":[[[9.4969,46.157],[9.4988,46.1502],[9.4914,46.1444],[9.4922,46.1398],[9.4898,46.1405],[9.4874,46.148],[9.4835,46.1484],[9.4802,46.1466],[9.4678,46.1475],[9.4685,46.1495],[9.4679,46.1578],[9.4637,46.1745],[9.474,46.1715],[9.4779,46.158],[9.4816,46.1553],[9.4851,46.1546],[9.4969,46.157]]]}},{"type":"Feature","properties":{"i":"014040","n":"Mazzo di Valtellina"},"geometry":{"type":"Polygon","coordinates":[[[10.3143,46.2599],[10.3117,46.2565],[10.3009,46.2496],[10.2968,46.2412],[10.2966,46.2361],[10.2665,46.2431],[10.2535,46.2472],[10.2477,46.2513],[10.2425,46.2524],[10.249,46.2582],[10.2446,46.2623],[10.2373,46.2645],[10.2251,46.2663],[10.2131,46.2698],[10.2009,46.2744],[10.1898,46.2805],[10.1899,46.282],[10.1932,46.2851],[10.1984,46.2864],[10.2036,46.2859],[10.2127,46.2833],[10.2166,46.2807],[10.2191,46.2774],[10.2264,46.2733],[10.2511,46.2657],[10.255,46.2659],[10.256,46.2671],[10.2604,46.2688],[10.2636,46.2692],[10.2662,46.2685],[10.2712,46.2655],[10.2822,46.2628],[10.3006,46.26],[10.3143,46.2599]]]}},{"type":"Feature","properties":{"i":"014041","n":"Mello"},"geometry":{"type":"Polygon","coordinates":[[[9.5527,46.1484],[9.5483,46.1476],[9.5294,46.1535],[9.5296,46.1606],[9.5277,46.1661],[9.5208,46.1748],[9.5172,46.1833],[9.5463,46.1924],[9.5539,46.1931],[9.5555,46.1821],[9.5624,46.1641],[9.561,46.1562],[9.5547,46.1495],[9.5527,46.1484]]]}},{"type":"Feature","properties":{"i":"014043","n":"Mese"},"geometry":{"type":"Polygon","coordinates":[[[9.3922,46.3083],[9.385,46.2995],[9.3842,46.2947],[9.3644,46.3028],[9.3548,46.3092],[9.3535,46.3113],[9.3636,46.3121],[9.3666,46.3109],[9.3736,46.3115],[9.3785,46.3163],[9.3801,46.3243],[9.3832,46.3233],[9.3857,46.3209],[9.3922,46.3083]]]}},{"type":"Feature","properties":{"i":"014044","n":"Montagna in Valtellina"},"geometry":{"type":"Polygon","coordinates":[[[9.9612,46.2381],[9.9377,46.2288],[9.933,46.2207],[9.9458,46.2045],[9.9425,46.1959],[9.9326,46.1815],[9.9207,46.1806],[9.9165,46.1783],[9.9141,46.169],[9.9159,46.1661],[9.9108,46.1614],[9.898,46.1632],[9.8951,46.1714],[9.8755,46.1815],[9.8731,46.186],[9.8734,46.1875],[9.8789,46.1886],[9.8823,46.1907],[9.8796,46.1979],[9.8842,46.2003],[9.8914,46.207],[9.9019,46.218],[9.9056,46.2232],[9.9019,46.2269],[9.8916,46.23],[9.895,46.2373],[9.8958,46.2448],[9.9146,46.2562],[9.9336,46.2648],[9.952,46.2705],[9.9683,46.2771],[9.9735,46.2783],[9.9765,46.2764],[9.9747,46.274],[9.9745,46.2722],[9.9755,46.2702],[9.9764,46.2623],[9.9714,46.2475],[9.9612,46.2381]]]}},{"type":"Feature","properties":{"i":"014045","n":"Morbegno"},"geometry":{"type":"Polygon","coordinates":[[[9.6303,46.1506],[9.6287,46.1484],[9.6252,46.1462],[9.6082,46.1436],[9.6015,46.1439],[9.5954,46.1431],[9.5986,46.1253],[9.6032,46.1111],[9.5862,46.1064],[9.583,46.1063],[9.5656,46.1167],[9.566,46.121],[9.5633,46.1309],[9.5576,46.1448],[9.5702,46.1458],[9.5759,46.1505],[9.5832,46.1532],[9.5898,46.1526],[9.6032,46.1548],[9.6208,46.1546],[9.6303,46.1506]]]}},{"type":"Feature","properties":{"i":"014046","n":"Novate Mezzola"},"geometry":{"type":"Polygon","coordinates":[[[9.5829,46.2945],[9.5739,46.2858],[9.571,46.2835],[9.5655,46.2813],[9.5639,46.2792],[9.5634,46.2759],[9.5653,46.2662],[9.5494,46.2415],[9.552,46.2351],[9.5598,46.2246],[9.5591,46.2196],[9.5609,46.2121],[9.5604,46.2077],[9.5642,46.1982],[9.5612,46.1949],[9.5539,46.1931],[9.5463,46.1924],[9.5118,46.1819],[9.5063,46.1816],[9.4957,46.1828],[9.4896,46.1796],[9.4779,46.1791],[9.4723,46.1774],[9.4646,46.1801],[9.4721,46.1837],[9.4739,46.1932],[9.4837,46.1951],[9.487,46.1946],[9.4941,46.1961],[9.5027,46.2006],[9.5079,46.2045],[9.5061,46.2076],[9.5095,46.2131],[9.5099,46.2155],[9.4859,46.2089],[9.4752,46.2068],[9.4612,46.2067],[9.4555,46.2055],[9.4288,46.1957],[9.4408,46.2145],[9.4439,46.2166],[9.4445,46.2201],[9.4411,46.2294],[9.436,46.2375],[9.4316,46.252],[9.4178,46.2595],[9.432,46.2648],[9.4409,46.2663],[9.4481,46.266],[9.4665,46.2633],[9.4705,46.2727],[9.4665,46.2746],[9.4603,46.276],[9.4591,46.2782],[9.466,46.2827],[9.4727,46.2853],[9.4775,46.2854],[9.4878,46.2827],[9.5023,46.2846],[9.5129,46.293],[9.5174,46.2954],[9.5466,46.3001],[9.5542,46.3054],[9.5608,46.3055],[9.5829,46.2945]]]}},{"type":"Feature","properties":{"i":"014047","n":"Pedesina"},"geometry":{"type":"Polygon","coordinates":[[[9.5567,46.0895],[9.5573,46.0823],[9.5525,46.0798],[9.5472,46.0783],[9.5311,46.0762],[9.5021,46.0659],[9.4929,46.0708],[9.5015,46.0842],[9.5094,46.0838],[9.5567,46.0895]]]}},{"type":"Feature","properties":{"i":"014048","n":"Piantedo"},"geometry":{"type":"Polygon","coordinates":[[[9.4281,46.1493],[9.4304,46.1447],[9.435,46.1425],[9.4382,46.138],[9.4388,46.1302],[9.4251,46.1126],[9.4189,46.1001],[9.415,46.0948],[9.4129,46.1194],[9.4141,46.1369],[9.4204,46.1463],[9.4216,46.1495],[9.4281,46.1493]]]}},{"type":"Feature","properties":{"i":"014049","n":"Piateda"},"geometry":{"type":"Polygon","coordinates":[[[9.9632,46.1639],[9.9611,46.1598],[9.9597,46.1493],[9.9605,46.1442],[9.9516,46.1369],[9.9431,46.136],[9.9359,46.1396],[9.9296,46.1408],[9.9286,46.1366],[9.9315,46.1194],[9.9314,46.1121],[9.9353,46.1041],[9.9396,46.0986],[9.9494,46.0981],[9.9631,46.0926],[9.9733,46.087],[9.985,46.0729],[9.9863,46.0705],[9.9847,46.0663],[9.9805,46.0653],[9.9747,46.0652],[9.9576,46.0669],[9.9467,46.0665],[9.936,46.0642],[9.9223,46.0597],[9.91,46.0577],[9.9065,46.0541],[9.9066,46.0495],[9.9081,46.0464],[9.8833,46.0459],[9.8808,46.0468],[9.879,46.0492],[9.8772,46.0501],[9.8723,46.0512],[9.8682,46.0499],[9.8621,46.0463],[9.8551,46.0459],[9.848,46.0467],[9.8489,46.0499],[9.8467,46.0517],[9.8456,46.0543],[9.8504,46.0779],[9.8496,46.0823],[9.8564,46.0937],[9.8619,46.1008],[9.8685,46.105],[9.8704,46.105],[9.8806,46.1104],[9.8902,46.1174],[9.8913,46.1192],[9.8972,46.1208],[9.9052,46.1368],[9.9131,46.1467],[9.9186,46.1511],[9.9183,46.1542],[9.9142,46.1598],[9.9108,46.1614],[9.9159,46.1661],[9.9357,46.1639],[9.9381,46.1661],[9.9577,46.1634],[9.9632,46.1639]]]}},{"type":"Feature","properties":{"i":"014050","n":"Piuro"},"geometry":{"type":"Polygon","coordinates":[[[9.4877,46.3666],[9.466,46.3458],[9.4596,46.3421],[9.4591,46.3409],[9.4592,46.3335],[9.4614,46.3263],[9.4664,46.3233],[9.4702,46.318],[9.4718,46.3106],[9.4826,46.2842],[9.4775,46.2854],[9.4385,46.3037],[9.432,46.3106],[9.4247,46.3157],[9.417,46.3259],[9.409,46.3561],[9.4147,46.3573],[9.4207,46.3602],[9.4273,46.3718],[9.4257,46.3756],[9.4206,46.3805],[9.4234,46.3886],[9.4192,46.4043],[9.4085,46.4131],[9.4043,46.4141],[9.3997,46.4141],[9.4031,46.4182],[9.4021,46.4346],[9.4007,46.4381],[9.3982,46.44],[9.3956,46.4437],[9.4016,46.4577],[9.4035,46.4603],[9.409,46.4667],[9.4128,46.4669],[9.4139,46.4678],[9.4209,46.4744],[9.4241,46.4794],[9.4245,46.4877],[9.4248,46.4895],[9.4261,46.4909],[9.4328,46.4968],[9.4516,46.5002],[9.4534,46.5021],[9.4533,46.5049],[9.4609,46.5074],[9.4593,46.4849],[9.4495,46.4834],[9.4498,46.4795],[9.4615,46.4802],[9.4635,46.4704],[9.4625,46.4672],[9.4578,46.4642],[9.4574,46.4632],[9.4585,46.4414],[9.4537,46.4222],[9.4612,46.4112],[9.4669,46.3981],[9.4677,46.3879],[9.4644,46.3837],[9.4616,46.3763],[9.4642,46.3742],[9.4741,46.3719],[9.4877,46.3666]]]}},{"type":"Feature","properties":{"i":"014051","n":"Poggiridenti"},"geometry":{"type":"Polygon","coordinates":[[[9.9381,46.1661],[9.9357,46.1639],[9.9159,46.1661],[9.9141,46.169],[9.9165,46.1783],[9.9207,46.1806],[9.9326,46.1815],[9.9382,46.173],[9.9381,46.1661]]]}},{"type":"Feature","properties":{"i":"014052","n":"Ponte in Valtellina"},"geometry":{"type":"Polygon","coordinates":[[[9.9786,46.1611],[9.983,46.152],[9.9906,46.1458],[9.995,46.1305],[10.0044,46.129],[10.0195,46.1184],[10.0307,46.1025],[10.0407,46.1005],[10.0479,46.0941],[10.0557,46.0855],[10.0445,46.0848],[10.0327,46.0876],[10.0248,46.0873],[10.0185,46.086],[10.0121,46.0817],[10.0113,46.0799],[10.0111,46.0726],[9.9915,46.0728],[9.9863,46.0705],[9.9733,46.087],[9.9631,46.0926],[9.9494,46.0981],[9.9396,46.0986],[9.9353,46.1041],[9.9314,46.1121],[9.9315,46.1194],[9.9286,46.1366],[9.9296,46.1408],[9.9359,46.1396],[9.9431,46.136],[9.9516,46.1369],[9.9605,46.1442],[9.9597,46.1493],[9.9611,46.1598],[9.9632,46.1639],[9.9625,46.1681],[9.9635,46.172],[9.9642,46.1842],[9.9669,46.1954],[9.9657,46.2066],[9.961,46.2185],[9.9605,46.2232],[9.9634,46.2299],[9.9572,46.2362],[9.9612,46.2381],[9.9723,46.2325],[9.9784,46.2312],[9.9903,46.2307],[9.9974,46.2267],[10.0121,46.2164],[10.0,46.1938],[9.9978,46.1882],[9.997,46.1829],[9.9908,46.1745],[9.9736,46.1636],[9.9742,46.1602],[9.9786,46.1611]]]}},{"type":"Feature","properties":{"i":"014053","n":"Postalesio"},"geometry":{"type":"Polygon","coordinates":[[[9.7907,46.2188],[9.7895,46.2144],[9.789,46.1831],[9.786,46.1728],[9.7847,46.1614],[9.7863,46.157],[9.7748,46.1551],[9.7667,46.1568],[9.7655,46.1573],[9.7668,46.1587],[9.7689,46.1674],[9.7658,46.1773],[9.7655,46.1819],[9.7713,46.2025],[9.7734,46.2075],[9.7732,46.2114],[9.7692,46.2206],[9.7797,46.2223],[9.7841,46.2215],[9.7907,46.2188]]]}},{"type":"Feature","properties":{"i":"014054","n":"Prata Camportaccio"},"geometry":{"type":"Polygon","coordinates":[[[9.4385,46.3037],[9.4775,46.2854],[9.4712,46.285],[9.466,46.2827],[9.4591,46.2782],[9.4603,46.276],[9.4665,46.2746],[9.4705,46.2727],[9.4665,46.2633],[9.4481,46.266],[9.4409,46.2663],[9.432,46.2648],[9.4184,46.2596],[9.4125,46.261],[9.4057,46.2583],[9.3909,46.2685],[9.3899,46.2707],[9.3905,46.2762],[9.3836,46.2917],[9.3837,46.2939],[9.3858,46.3008],[9.3922,46.3083],[9.3955,46.3094],[9.3981,46.3156],[9.4008,46.3158],[9.4088,46.314],[9.4115,46.3105],[9.4154,46.3079],[9.4239,46.3047],[9.432,46.3032],[9.4385,46.3037]]]}},{"type":"Feature","properties":{"i":"014055","n":"Rasura"},"geometry":{"type":"Polygon","coordinates":[[[9.5573,46.1057],[9.5588,46.1006],[9.5567,46.0895],[9.5094,46.0838],[9.5015,46.0842],[9.5037,46.092],[9.5092,46.0915],[9.5129,46.0921],[9.5225,46.098],[9.5538,46.1057],[9.5573,46.1057]]]}},{"type":"Feature","properties":{"i":"014056","n":"Rogolo"},"geometry":{"type":"Polygon","coordinates":[[[9.5037,46.092],[9.5015,46.0842],[9.4929,46.0708],[9.4753,46.0721],[9.4567,46.0774],[9.4646,46.0807],[9.468,46.083],[9.4691,46.0864],[9.4734,46.0881],[9.4794,46.0924],[9.4878,46.1001],[9.4778,46.107],[9.4781,46.111],[9.4825,46.1142],[9.4804,46.1304],[9.4777,46.1374],[9.4802,46.1466],[9.4818,46.1479],[9.4835,46.1484],[9.4874,46.148],[9.4898,46.1405],[9.4915,46.1375],[9.4925,46.1295],[9.4997,46.1199],[9.4989,46.1128],[9.4997,46.1025],[9.5027,46.0986],[9.5037,46.092]]]}},{"type":"Feature","properties":{"i":"014057","n":"Samolaco"},"geometry":{"type":"Polygon","coordinates":[[[9.3899,46.2707],[9.3909,46.2685],[9.4057,46.2583],[9.4131,46.261],[9.4178,46.2595],[9.4316,46.252],[9.436,46.2375],[9.4411,46.2294],[9.4444,46.2209],[9.4446,46.2184],[9.4439,46.2166],[9.4408,46.2145],[9.4244,46.2217],[9.4195,46.2198],[9.4136,46.2154],[9.4002,46.2119],[9.3905,46.2111],[9.3738,46.2131],[9.3581,46.2192],[9.3548,46.2212],[9.3479,46.23],[9.3357,46.2331],[9.3334,46.2348],[9.3171,46.2349],[9.3097,46.2373],[9.31,46.2481],[9.3121,46.2518],[9.3144,46.2535],[9.3409,46.2621],[9.3488,46.2659],[9.3497,46.2671],[9.3496,46.2695],[9.3481,46.2716],[9.3471,46.2756],[9.352,46.2783],[9.3639,46.2755],[9.37,46.2692],[9.3784,46.2665],[9.3865,46.2669],[9.3899,46.2707]]]}},{"type":"Feature","properties":{"i":"014058","n":"San Giacomo Filippo"},"geometry":{"type":"Polygon","coordinates":[[[9.4206,46.3805],[9.4257,46.3756],[9.4273,46.3718],[9.4207,46.3602],[9.4147,46.3573],[9.409,46.3561],[9.4021,46.3533],[9.3951,46.3491],[9.3926,46.3433],[9.3918,46.3347],[9.39,46.3294],[9.3778,46.3308],[9.3752,46.3292],[9.3748,46.3271],[9.3755,46.3264],[9.3801,46.3243],[9.3785,46.3163],[9.3744,46.3119],[9.368,46.3109],[9.3636,46.3121],[9.3535,46.3113],[9.3234,46.3235],[9.3198,46.3242],[9.3152,46.3229],[9.3108,46.3227],[9.3009,46.3257],[9.2939,46.3308],[9.2918,46.335],[9.2924,46.3382],[9.2989,46.3428],[9.2992,46.3438],[9.297,46.3508],[9.2923,46.3562],[9.2841,46.3576],[9.2815,46.3589],[9.2767,46.3694],[9.2765,46.3742],[9.2782,46.3782],[9.2843,46.3861],[9.292,46.3879],[9.3005,46.3872],[9.3111,46.3779],[9.3335,46.3807],[9.3413,46.3834],[9.3462,46.3843],[9.3602,46.3839],[9.3658,46.3799],[9.3907,46.3812],[9.4061,46.3786],[9.4135,46.3791],[9.4206,46.3805]]]}},{"type":"Feature","properties":{"i":"014059","n":"Sernio"},"geometry":{"type":"Polygon","coordinates":[[[10.1902,46.2567],[10.1975,46.2511],[10.2086,46.2319],[10.2337,46.2138],[10.2416,46.2023],[10.229,46.1993],[10.2284,46.1982],[10.2284,46.1922],[10.2266,46.1907],[10.2127,46.2104],[10.2022,46.2228],[10.1937,46.227],[10.1889,46.2338],[10.1868,46.2386],[10.1825,46.2575],[10.1902,46.2567]]]}},{"type":"Feature","properties":{"i":"014060","n":"Sondalo"},"geometry":{"type":"Polygon","coordinates":[[[10.471,46.3547],[10.4643,46.3537],[10.4594,46.352],[10.4328,46.3371],[10.4272,46.3365],[10.4197,46.3337],[10.3984,46.3162],[10.3864,46.3045],[10.3714,46.2936],[10.3576,46.2914],[10.355,46.2918],[10.3451,46.2899],[10.3199,46.3072],[10.3054,46.3197],[10.3004,46.3164],[10.2985,46.313],[10.2899,46.3179],[10.2791,46.3259],[10.2739,46.3325],[10.2721,46.3411],[10.2705,46.3423],[10.2686,46.3457],[10.2647,46.3591],[10.2649,46.36],[10.269,46.3612],[10.2836,46.361],[10.2906,46.3579],[10.2965,46.3602],[10.2961,46.3621],[10.2972,46.3667],[10.3099,46.3701],[10.3164,46.3691],[10.32,46.3694],[10.3246,46.3705],[10.3284,46.3736],[10.3422,46.3695],[10.347,46.369],[10.3545,46.3694],[10.3757,46.3679],[10.39,46.3686],[10.3945,46.3703],[10.4043,46.3779],[10.4115,46.3805],[10.4166,46.3842],[10.4196,46.3878],[10.4331,46.3899],[10.4426,46.386],[10.4509,46.3805],[10.455,46.3792],[10.4582,46.3787],[10.47,46.3798],[10.4723,46.3785],[10.475,46.3736],[10.4755,46.3652],[10.475,46.3607],[10.4714,46.3574],[10.471,46.3547]]]}},{"type":"Feature","properties":{"i":"014061","n":"Sondrio"},"geometry":{"type":"Polygon","coordinates":[[[9.8796,46.1979],[9.8823,46.1907],[9.8789,46.1886],[9.8734,46.1875],[9.8734,46.185],[9.8762,46.1809],[9.8951,46.1714],[9.898,46.1632],[9.891,46.1608],[9.8727,46.1589],[9.8591,46.1588],[9.852,46.1611],[9.8439,46.1621],[9.829,46.1597],[9.8274,46.1939],[9.8243,46.199],[9.8263,46.2009],[9.833,46.2036],[9.8647,46.2028],[9.8699,46.2008],[9.8711,46.2059],[9.8687,46.2115],[9.8705,46.2084],[9.8736,46.1994],[9.8745,46.1986],[9.8796,46.1979]]]}},{"type":"Feature","properties":{"i":"014062","n":"Spriana"},"geometry":{"type":"Polygon","coordinates":[[[9.8916,46.23],[9.9019,46.2269],[9.9049,46.2245],[9.9053,46.2223],[9.9019,46.218],[9.8842,46.2003],[9.8796,46.1979],[9.8745,46.1986],[9.8736,46.1994],[9.8705,46.2084],[9.8643,46.2161],[9.8593,46.2246],[9.8587,46.2258],[9.8593,46.2276],[9.8676,46.2311],[9.8695,46.2308],[9.8752,46.2277],[9.8837,46.2277],[9.8886,46.2284],[9.8916,46.23]]]}},{"type":"Feature","properties":{"i":"014063","n":"Talamona"},"geometry":{"type":"Polygon","coordinates":[[[9.6441,46.0894],[9.6199,46.1022],[9.6104,46.1051],[9.6037,46.1104],[9.5986,46.1253],[9.5954,46.1431],[9.6015,46.1439],[9.6082,46.1436],[9.6252,46.1462],[9.6287,46.1484],[9.6303,46.1506],[9.6357,46.1537],[9.6464,46.1549],[9.6478,46.1531],[9.6465,46.1501],[9.6427,46.1282],[9.6449,46.1248],[9.6499,46.1204],[9.6628,46.1158],[9.6535,46.1059],[9.6496,46.0958],[9.6441,46.0894]]]}},{"type":"Feature","properties":{"i":"014064","n":"Tartano"},"geometry":{"type":"Polygon","coordinates":[[[9.7223,46.104],[9.7253,46.1013],[9.7284,46.0965],[9.7459,46.0819],[9.7461,46.0728],[9.7446,46.0668],[9.7459,46.0628],[9.7431,46.0621],[9.7376,46.0582],[9.7282,46.0605],[9.7216,46.0637],[9.7097,46.064],[9.7084,46.0627],[9.7089,46.0605],[9.7044,46.0573],[9.6886,46.0549],[9.6817,46.0582],[9.6696,46.0607],[9.6435,46.06],[9.6478,46.0787],[9.6456,46.082],[9.6433,46.088],[9.6496,46.0958],[9.6535,46.1059],[9.6628,46.1158],[9.6499,46.1204],[9.6449,46.1248],[9.6427,46.1282],[9.6465,46.1501],[9.6478,46.1531],[9.654,46.1498],[9.6543,46.1466],[9.6616,46.1371],[9.6694,46.133],[9.6744,46.1279],[9.6945,46.1162],[9.7127,46.1071],[9.7223,46.104]]]}},{"type":"Feature","properties":{"i":"014065","n":"Teglio"},"geometry":{"type":"Polygon","coordinates":[[[10.0708,46.2171],[10.0745,46.2124],[10.0745,46.2081],[10.0715,46.1992],[10.0765,46.1914],[10.0929,46.1826],[10.1059,46.1736],[10.1091,46.1722],[10.1216,46.161],[10.1153,46.161],[10.1095,46.159],[10.108,46.1574],[10.1065,46.154],[10.1075,46.1526],[10.116,46.1501],[10.124,46.1409],[10.1255,46.1376],[10.1247,46.1275],[10.128,46.1223],[10.1431,46.1067],[10.1485,46.1056],[10.1573,46.1021],[10.1539,46.0973],[10.1591,46.0928],[10.1748,46.0932],[10.1788,46.0915],[10.1794,46.0895],[10.1786,46.0864],[10.1807,46.0838],[10.185,46.081],[10.1818,46.0799],[10.1754,46.0708],[10.1696,46.057],[10.1467,46.0562],[10.1347,46.0601],[10.1217,46.0593],[10.1061,46.0516],[10.1026,46.0508],[10.0958,46.0555],[10.0925,46.0624],[10.0927,46.0683],[10.1033,46.0812],[10.1041,46.0851],[10.1032,46.0879],[10.1008,46.0899],[10.0959,46.0913],[10.0851,46.0907],[10.0736,46.0881],[10.0688,46.0893],[10.0604,46.0892],[10.0557,46.0855],[10.0479,46.0941],[10.0389,46.1021],[10.0316,46.1122],[10.0302,46.1349],[10.0337,46.1412],[10.0368,46.1446],[10.0365,46.1491],[10.034,46.1542],[10.0301,46.1586],[10.0169,46.1565],[10.0063,46.1575],[10.0089,46.1714],[10.0098,46.1727],[10.0156,46.1742],[10.0274,46.1873],[10.0321,46.2039],[10.0356,46.2101],[10.041,46.2166],[10.0471,46.2206],[10.0497,46.2256],[10.0493,46.2275],[10.0517,46.2275],[10.0587,46.2248],[10.0676,46.2178],[10.0708,46.2171]]]}},{"type":"Feature","properties":{"i":"014066","n":"Tirano"},"geometry":{"type":"Polygon","coordinates":[[[10.1825,46.2575],[10.1868,46.2386],[10.1903,46.2315],[10.1937,46.227],[10.2022,46.2228],[10.2127,46.2104],[10.2266,46.1907],[10.2263,46.1871],[10.1866,46.1796],[10.1813,46.184],[10.1708,46.1832],[10.1588,46.1847],[10.156,46.1857],[10.1498,46.1908],[10.1469,46.202],[10.1518,46.2139],[10.1518,46.2164],[10.1406,46.2259],[10.1347,46.2263],[10.1457,46.2304],[10.1509,46.2397],[10.1745,46.2547],[10.1763,46.2579],[10.1825,46.2575]]]}},{"type":"Feature","properties":{"i":"014067","n":"Torre di Santa Maria"},"geometry":{"type":"Polygon","coordinates":[[[9.7512,46.2681],[9.757,46.2645],[9.7665,46.2609],[9.7746,46.2612],[9.78,46.2637],[9.7803,46.2622],[9.7765,46.2529],[9.7781,46.2493],[9.7916,46.2487],[9.805,46.2508],[9.8159,46.2399],[9.8203,46.2411],[9.8203,46.2429],[9.824,46.2469],[9.8371,46.2533],[9.8477,46.2568],[9.8486,46.2529],[9.8576,46.2514],[9.8719,46.2416],[9.8746,46.2404],[9.895,46.2373],[9.8916,46.23],[9.8886,46.2284],[9.8752,46.2277],[9.8695,46.2308],[9.8676,46.2311],[9.8593,46.2276],[9.8587,46.2258],[9.8593,46.2246],[9.8643,46.2161],[9.8687,46.2115],[9.8711,46.2059],[9.8699,46.2008],[9.8647,46.2028],[9.833,46.2036],[9.827,46.2014],[9.8243,46.199],[9.8224,46.1991],[9.8173,46.2008],[9.8175,46.2083],[9.8166,46.2088],[9.7984,46.2149],[9.7907,46.2188],[9.7819,46.222],[9.7781,46.2224],[9.7692,46.2206],[9.7598,46.2289],[9.7458,46.2372],[9.7361,46.2377],[9.739,46.2414],[9.7387,46.2454],[9.749,46.2617],[9.7512,46.2681]]]}},{"type":"Feature","properties":{"i":"014068","n":"Tovo di Sant'Agata"},"geometry":{"type":"Polygon","coordinates":[[[10.2966,46.2361],[10.2967,46.2309],[10.2947,46.2237],[10.2853,46.2205],[10.2801,46.2171],[10.2788,46.2159],[10.2819,46.2134],[10.2716,46.2111],[10.2644,46.2162],[10.255,46.2265],[10.2428,46.2338],[10.2306,46.2394],[10.2425,46.2524],[10.2477,46.2513],[10.2535,46.2472],[10.2665,46.2431],[10.2966,46.2361]]]}},{"type":"Feature","properties":{"i":"014069","n":"Traona"},"geometry":{"type":"Polygon","coordinates":[[[9.5527,46.1484],[9.5647,46.1454],[9.5576,46.1448],[9.5319,46.1384],[9.5121,46.1411],[9.5049,46.1412],[9.5083,46.1445],[9.5148,46.1546],[9.5195,46.1591],[9.5156,46.183],[9.5172,46.1833],[9.5208,46.1748],[9.5277,46.1661],[9.5296,46.1606],[9.5294,46.1535],[9.5483,46.1476],[9.5527,46.1484]]]}},{"type":"Feature","properties":{"i":"014070","n":"Tresivio"},"geometry":{"type":"Polygon","coordinates":[[[9.9632,46.1639],[9.9577,46.1634],[9.9381,46.1661],[9.9382,46.173],[9.9326,46.1815],[9.9425,46.1959],[9.9458,46.2045],[9.9412,46.2096],[9.9332,46.2212],[9.9386,46.2296],[9.9572,46.2362],[9.9634,46.2299],[9.9605,46.2232],[9.961,46.2185],[9.9657,46.2066],[9.9669,46.1954],[9.9642,46.1842],[9.9635,46.172],[9.9625,46.1681],[9.9632,46.1639]]]}},{"type":"Feature","properties":{"i":"014071","n":"Valdidentro"},"geometry":{"type":"Polygon","coordinates":[[[10.4335,46.5412],[10.4284,46.5397],[10.4261,46.5404],[10.4181,46.539],[10.4086,46.5262],[10.4076,46.521],[10.4057,46.5171],[10.4029,46.5151],[10.3862,46.5109],[10.3727,46.5118],[10.3567,46.5057],[10.3548,46.5024],[10.3598,46.494],[10.3646,46.4892],[10.368,46.4823],[10.3654,46.4781],[10.3589,46.4738],[10.3575,46.4764],[10.3529,46.4774],[10.3478,46.4771],[10.3007,46.4688],[10.2899,46.4649],[10.2952,46.4553],[10.2949,46.4491],[10.2937,46.4463],[10.2983,46.4389],[10.3023,46.4346],[10.305,46.4295],[10.3035,46.4242],[10.291,46.4197],[10.2865,46.4169],[10.2802,46.4072],[10.2802,46.4053],[10.2821,46.4023],[10.2816,46.4018],[10.2759,46.3999],[10.2703,46.401],[10.257,46.4086],[10.2347,46.4153],[10.2262,46.4165],[10.2255,46.4148],[10.2282,46.3985],[10.2272,46.389],[10.2201,46.3849],[10.2127,46.3846],[10.2097,46.3885],[10.2051,46.3894],[10.2003,46.3887],[10.1986,46.3849],[10.1971,46.3834],[10.1897,46.382],[10.1645,46.3857],[10.1589,46.3858],[10.1617,46.3875],[10.1639,46.3909],[10.1623,46.4026],[10.1624,46.4045],[10.1656,46.407],[10.1645,46.4103],[10.1606,46.4158],[10.1569,46.4159],[10.153,46.4143],[10.1483,46.4169],[10.1461,46.424],[10.1431,46.4277],[10.1354,46.4288],[10.1307,46.4319],[10.1329,46.4365],[10.1438,46.443],[10.1488,46.4435],[10.16,46.4465],[10.1611,46.4486],[10.1594,46.4506],[10.1657,46.4561],[10.179,46.4596],[10.1931,46.4645],[10.2042,46.4658],[10.209,46.4687],[10.2032,46.4732],[10.2035,46.4753],[10.2093,46.4852],[10.2118,46.4876],[10.2138,46.4911],[10.2158,46.5022],[10.2164,46.5095],[10.2143,46.5209],[10.2132,46.5388],[10.2024,46.5404],[10.1986,46.5426],[10.1959,46.5458],[10.2023,46.5511],[10.2065,46.5564],[10.2037,46.5613],[10.2013,46.5634],[10.1938,46.5665],[10.1932,46.5673],[10.1938,46.5722],[10.1973,46.5755],[10.2258,46.5914],[10.2423,46.5925],[10.2416,46.5915],[10.244,46.5784],[10.2466,46.5753],[10.2535,46.5718],[10.2599,46.5751],[10.2711,46.5765],[10.2892,46.5677],[10.2943,46.5601],[10.2954,46.5543],[10.2951,46.5513],[10.2957,46.5504],[10.2999,46.5494],[10.3124,46.5469],[10.3251,46.5515],[10.3326,46.5475],[10.3371,46.5434],[10.3396,46.5431],[10.3422,46.5437],[10.348,46.5484],[10.3522,46.5556],[10.3634,46.5556],[10.3856,46.5489],[10.3976,46.5439],[10.4126,46.5503],[10.4193,46.5511],[10.4335,46.5412]]]}},{"type":"Feature","properties":{"i":"014072","n":"Valdisotto"},"geometry":{"type":"Polygon","coordinates":[[[10.3589,46.4738],[10.3578,46.4614],[10.3585,46.4512],[10.3612,46.4477],[10.3625,46.4473],[10.3669,46.4484],[10.3686,46.4504],[10.3703,46.4552],[10.3739,46.4594],[10.3765,46.4577],[10.3829,46.4574],[10.3883,46.459],[10.394,46.4495],[10.3969,46.447],[10.4004,46.4443],[10.4037,46.4445],[10.4084,46.4418],[10.412,46.4355],[10.4096,46.4339],[10.4083,46.4313],[10.4133,46.4225],[10.4054,46.4136],[10.3966,46.402],[10.4196,46.3878],[10.4166,46.3842],[10.4115,46.3805],[10.4043,46.3779],[10.3945,46.3703],[10.39,46.3686],[10.3757,46.3679],[10.3545,46.3694],[10.347,46.369],[10.3422,46.3695],[10.3284,46.3736],[10.3246,46.3705],[10.32,46.3694],[10.3164,46.3691],[10.3099,46.3701],[10.3097,46.373],[10.3115,46.3799],[10.3096,46.3834],[10.3018,46.3877],[10.2965,46.3894],[10.2902,46.3938],[10.2901,46.3966],[10.2844,46.402],[10.2821,46.4023],[10.2802,46.4053],[10.2809,46.4085],[10.2865,46.4169],[10.291,46.4197],[10.3035,46.4242],[10.305,46.4295],[10.3023,46.4346],[10.2983,46.4389],[10.2937,46.4463],[10.2949,46.4491],[10.2952,46.4553],[10.292,46.4615],[10.2896,46.4646],[10.3007,46.4688],[10.3478,46.4771],[10.3529,46.4774],[10.3575,46.4764],[10.3589,46.4738]]]}},{"type":"Feature","properties":{"i":"014073","n":"Valfurva"},"geometry":{"type":"Polygon","coordinates":[[[10.6005,46.4687],[10.6218,46.448],[10.6166,46.4436],[10.6166,46.442],[10.6192,46.4369],[10.6165,46.43],[10.6179,46.4174],[10.6192,46.4144],[10.6282,46.4077],[10.631,46.4023],[10.6108,46.3873],[10.606,46.3792],[10.5981,46.3774],[10.5705,46.3769],[10.567,46.3779],[10.542,46.3609],[10.5439,46.3589],[10.5433,46.3567],[10.54,46.3548],[10.5343,46.3542],[10.533,46.3563],[10.5302,46.3567],[10.5199,46.356],[10.516,46.3465],[10.5137,46.3366],[10.5118,46.3347],[10.4981,46.3348],[10.4955,46.3368],[10.4918,46.3424],[10.4868,46.3466],[10.471,46.3547],[10.4714,46.3574],[10.475,46.3607],[10.4755,46.3652],[10.475,46.3736],[10.4713,46.3793],[10.47,46.3798],[10.4582,46.3787],[10.455,46.3792],[10.4509,46.3805],[10.4426,46.386],[10.4344,46.3896],[10.4316,46.3899],[10.4196,46.3878],[10.3966,46.402],[10.4054,46.4136],[10.4133,46.4225],[10.4083,46.4313],[10.4096,46.4339],[10.412,46.4355],[10.4084,46.4418],[10.4037,46.4445],[10.3987,46.449],[10.3967,46.4588],[10.3927,46.4599],[10.3925,46.4665],[10.395,46.4692],[10.3996,46.4692],[10.4024,46.4716],[10.4161,46.4919],[10.4437,46.4925],[10.4517,46.4948],[10.472,46.4949],[10.4761,46.4955],[10.4823,46.4942],[10.497,46.4974],[10.5305,46.4938],[10.5429,46.4921],[10.555,46.489],[10.5623,46.4818],[10.5761,46.4743],[10.5836,46.4718],[10.5921,46.4709],[10.6005,46.4687]]]}},{"type":"Feature","properties":{"i":"014074","n":"Val Masino"},"geometry":{"type":"Polygon","coordinates":[[[9.7145,46.2931],[9.7173,46.2915],[9.7263,46.2836],[9.7293,46.2788],[9.7371,46.2725],[9.7492,46.2692],[9.7279,46.2526],[9.7234,46.2443],[9.7082,46.2348],[9.6963,46.2244],[9.6899,46.2221],[9.667,46.2199],[9.662,46.216],[9.6669,46.2112],[9.6718,46.2094],[9.6523,46.2071],[9.6395,46.2031],[9.6348,46.2043],[9.6258,46.1956],[9.6255,46.1884],[9.6131,46.1898],[9.6038,46.1977],[9.5851,46.2073],[9.5707,46.2118],[9.5609,46.2121],[9.5591,46.2196],[9.5594,46.2259],[9.552,46.2351],[9.5494,46.2415],[9.5653,46.2662],[9.5634,46.2759],[9.5639,46.2792],[9.5655,46.2813],[9.571,46.2835],[9.5739,46.2858],[9.5829,46.2945],[9.5903,46.295],[9.6099,46.2945],[9.6209,46.2878],[9.6351,46.2862],[9.6419,46.287],[9.647,46.289],[9.6585,46.2953],[9.6722,46.301],[9.6811,46.2986],[9.682,46.2968],[9.6872,46.2943],[9.704,46.2909],[9.7145,46.2931]]]}},{"type":"Feature","properties":{"i":"014075","n":"Verceia"},"geometry":{"type":"Polygon","coordinates":[[[9.4646,46.1801],[9.452,46.1827],[9.444,46.1859],[9.4249,46.1899],[9.4288,46.1957],[9.4555,46.2055],[9.4612,46.2067],[9.4752,46.2068],[9.4859,46.2089],[9.5099,46.2155],[9.5095,46.2131],[9.5061,46.2076],[9.5079,46.2045],[9.5027,46.2006],[9.4941,46.1961],[9.487,46.1946],[9.4837,46.1951],[9.4739,46.1932],[9.4721,46.1837],[9.4646,46.1801]]]}},{"type":"Feature","properties":{"i":"014076","n":"Vervio"},"geometry":{"type":"Polygon","coordinates":[[[10.2425,46.2524],[10.2306,46.2394],[10.2289,46.2388],[10.2262,46.2404],[10.2207,46.2483],[10.2071,46.2557],[10.2002,46.2567],[10.1949,46.2564],[10.1763,46.2579],[10.173,46.2654],[10.1655,46.271],[10.1635,46.2745],[10.17,46.2774],[10.1727,46.2765],[10.1801,46.2768],[10.1898,46.2805],[10.2009,46.2744],[10.2147,46.2692],[10.2446,46.2623],[10.249,46.2582],[10.2425,46.2524]]]}},{"type":"Feature","properties":{"i":"014077","n":"Villa di Chiavenna"},"geometry":{"type":"Polygon","coordinates":[[[9.5494,46.3023],[9.5456,46.2999],[9.5174,46.2954],[9.5129,46.293],[9.5023,46.2846],[9.4878,46.2827],[9.4826,46.2842],[9.4718,46.3106],[9.4702,46.318],[9.4664,46.3233],[9.4614,46.3263],[9.4592,46.3335],[9.4591,46.3409],[9.4596,46.3421],[9.466,46.3458],[9.4877,46.3666],[9.4946,46.365],[9.4987,46.3615],[9.5083,46.35],[9.5115,46.3389],[9.5137,46.3347],[9.5212,46.3251],[9.5366,46.3102],[9.5422,46.3061],[9.5494,46.3023]]]}},{"type":"Feature","properties":{"i":"014078","n":"Villa di Tirano"},"geometry":{"type":"Polygon","coordinates":[[[10.1347,46.2263],[10.1406,46.2259],[10.1518,46.2164],[10.1518,46.2139],[10.1469,46.202],[10.1498,46.1908],[10.156,46.1857],[10.1588,46.1847],[10.1708,46.1832],[10.1813,46.184],[10.1866,46.1796],[10.1799,46.178],[10.1759,46.1671],[10.1716,46.1631],[10.1634,46.1613],[10.1594,46.1595],[10.1355,46.1549],[10.1282,46.1548],[10.1235,46.158],[10.1216,46.161],[10.1091,46.1722],[10.1123,46.1741],[10.1202,46.1764],[10.1257,46.1838],[10.1227,46.1903],[10.121,46.2052],[10.1159,46.2115],[10.1089,46.2173],[10.1023,46.2283],[10.1075,46.2267],[10.124,46.2242],[10.1347,46.2263]]]}}]}
