{"type":"FeatureCollection","fonte":"Confini comunali ISTAT via openpolis/geojson-italy — CC BY 4.0","features":[{"type":"Feature","properties":{"i":"011001","n":"Ameglia"},"geometry":{"type":"Polygon","coordinates":[[[9.9992,44.0509],[9.9941,44.0506],[9.9867,44.0463],[9.9812,44.0381],[9.9778,44.0355],[9.9637,44.0374],[9.9571,44.0413],[9.9495,44.0473],[9.9527,44.0503],[9.9498,44.0543],[9.9415,44.0715],[9.952,44.0761],[9.9674,44.0813],[9.9715,44.0787],[9.9741,44.0739],[9.9881,44.0698],[9.9954,44.0646],[9.9978,44.0589],[9.9992,44.0509]]]}},{"type":"Feature","properties":{"i":"011002","n":"Arcola"},"geometry":{"type":"Polygon","coordinates":[[[9.9352,44.1214],[9.9345,44.1125],[9.9351,44.1104],[9.9393,44.1056],[9.9479,44.1003],[9.9524,44.0957],[9.946,44.0874],[9.9355,44.0894],[9.9315,44.0917],[9.9221,44.0953],[9.92,44.094],[9.9166,44.0886],[9.9144,44.0877],[9.9091,44.0912],[9.906,44.0943],[9.9052,44.0974],[9.9013,44.1009],[9.8918,44.0973],[9.8842,44.1072],[9.8832,44.1122],[9.8848,44.1136],[9.8836,44.1227],[9.8981,44.126],[9.9046,44.1306],[9.9137,44.132],[9.927,44.125],[9.933,44.1211],[9.9352,44.1214]]]}},{"type":"Feature","properties":{"i":"011003","n":"Beverino"},"geometry":{"type":"Polygon","coordinates":[[[9.8172,44.2265],[9.8238,44.2235],[9.8248,44.222],[9.8233,44.2142],[9.8266,44.1974],[9.8231,44.1975],[9.8211,44.194],[9.8133,44.1845],[9.8031,44.1755],[9.7934,44.1746],[9.7731,44.1788],[9.7617,44.1796],[9.7554,44.1745],[9.747,44.1721],[9.7391,44.1649],[9.7147,44.1515],[9.7045,44.1566],[9.7085,44.1596],[9.7134,44.166],[9.7212,44.1704],[9.7265,44.1725],[9.7337,44.1811],[9.7396,44.1939],[9.731,44.2002],[9.7368,44.2039],[9.747,44.2102],[9.7547,44.2137],[9.7667,44.2128],[9.774,44.2093],[9.7838,44.2109],[9.7851,44.2124],[9.7813,44.2171],[9.7808,44.2202],[9.7841,44.2254],[9.7912,44.2286],[9.7967,44.2255],[9.7995,44.2225],[9.8028,44.2212],[9.8139,44.2236],[9.8172,44.2265]]]}},{"type":"Feature","properties":{"i":"011004","n":"Bolano"},"geometry":{"type":"Polygon","coordinates":[[[9.934,44.1966],[9.9224,44.1951],[9.9213,44.1927],[9.9216,44.1898],[9.9205,44.1888],[9.8924,44.168],[9.893,44.1665],[9.8979,44.1636],[9.8825,44.1564],[9.8747,44.1664],[9.8801,44.1694],[9.8767,44.1733],[9.865,44.1807],[9.8716,44.1897],[9.8733,44.1952],[9.8805,44.2001],[9.8914,44.2054],[9.8912,44.2078],[9.9085,44.2098],[9.9082,44.208],[9.9095,44.2043],[9.9145,44.1996],[9.9285,44.1985],[9.934,44.1966]]]}},{"type":"Feature","properties":{"i":"011005","n":"Bonassola"},"geometry":{"type":"Polygon","coordinates":[[[9.6025,44.1727],[9.5906,44.173],[9.5867,44.1753],[9.5838,44.1789],[9.5784,44.1827],[9.5766,44.1813],[9.5737,44.1804],[9.5676,44.1831],[9.5666,44.1843],[9.5688,44.1913],[9.5651,44.1951],[9.5613,44.1949],[9.5616,44.1965],[9.5714,44.2066],[9.5777,44.2054],[9.5839,44.2065],[9.5881,44.2087],[9.5904,44.212],[9.5951,44.216],[9.5949,44.2115],[9.596,44.2077],[9.6015,44.2014],[9.6023,44.1974],[9.6006,44.1769],[9.6025,44.1727]]]}},{"type":"Feature","properties":{"i":"011006","n":"Borghetto di Vara"},"geometry":{"type":"Polygon","coordinates":[[[9.6948,44.242],[9.6952,44.2403],[9.6966,44.2396],[9.7004,44.2408],[9.7085,44.2382],[9.7151,44.2315],[9.7235,44.2246],[9.7241,44.2234],[9.7283,44.2217],[9.734,44.2208],[9.7398,44.2216],[9.7443,44.2225],[9.749,44.2264],[9.7525,44.2254],[9.7553,44.2224],[9.7532,44.2196],[9.7547,44.2137],[9.747,44.2102],[9.7305,44.1998],[9.7291,44.1998],[9.7259,44.2018],[9.7248,44.2033],[9.7163,44.2057],[9.6981,44.2041],[9.6928,44.2022],[9.683,44.1966],[9.6814,44.195],[9.6694,44.1913],[9.6669,44.1924],[9.6663,44.1939],[9.6703,44.1998],[9.6702,44.2052],[9.6612,44.209],[9.6504,44.2064],[9.6489,44.2081],[9.6467,44.2142],[9.6467,44.2209],[9.6476,44.2231],[9.654,44.2281],[9.6603,44.2295],[9.6682,44.2336],[9.6717,44.2358],[9.6781,44.2429],[9.6801,44.2437],[9.6855,44.2452],[9.6948,44.242]]]}},{"type":"Feature","properties":{"i":"011007","n":"Brugnato"},"geometry":{"type":"Polygon","coordinates":[[[9.7463,44.2547],[9.7477,44.2527],[9.7479,44.2504],[9.746,44.2459],[9.747,44.2432],[9.7515,44.2399],[9.7561,44.2376],[9.7615,44.2303],[9.7599,44.2199],[9.7532,44.2196],[9.7553,44.2224],[9.7547,44.2237],[9.7497,44.2264],[9.7427,44.222],[9.734,44.2208],[9.7265,44.2223],[9.7241,44.2234],[9.7235,44.2246],[9.7151,44.2315],[9.7085,44.2382],[9.7004,44.2408],[9.6966,44.2396],[9.6948,44.2413],[9.6948,44.242],[9.7025,44.2457],[9.7148,44.2578],[9.7346,44.2498],[9.7423,44.2522],[9.7463,44.2547]]]}},{"type":"Feature","properties":{"i":"011008","n":"Calice al Cornoviglio"},"geometry":{"type":"Polygon","coordinates":[[[9.8544,44.2681],[9.8561,44.2582],[9.8602,44.2524],[9.86,44.2395],[9.859,44.2374],[9.8567,44.2356],[9.857,44.234],[9.8635,44.2282],[9.8677,44.2275],[9.8754,44.2239],[9.87,44.2175],[9.8641,44.2031],[9.8576,44.1935],[9.8539,44.1962],[9.8438,44.1996],[9.8404,44.1994],[9.8351,44.1973],[9.8266,44.1974],[9.8233,44.2142],[9.8248,44.222],[9.8238,44.2235],[9.8116,44.2288],[9.7992,44.2327],[9.798,44.2349],[9.7999,44.2393],[9.8076,44.2517],[9.8117,44.2661],[9.8107,44.2724],[9.8126,44.2759],[9.8187,44.2801],[9.8232,44.2816],[9.8353,44.2789],[9.8361,44.2765],[9.8441,44.2718],[9.8515,44.2709],[9.8544,44.2681]]]}},{"type":"Feature","properties":{"i":"011009","n":"Carro"},"geometry":{"type":"Polygon","coordinates":[[[9.6408,44.2901],[9.6401,44.2879],[9.6409,44.2857],[9.6428,44.286],[9.6482,44.2842],[9.6589,44.2773],[9.6529,44.2709],[9.6542,44.2687],[9.6585,44.2686],[9.6551,44.2653],[9.6487,44.2616],[9.6456,44.2609],[9.6367,44.2623],[9.6071,44.2512],[9.5923,44.25],[9.5879,44.2513],[9.577,44.2512],[9.5715,44.2534],[9.5735,44.2568],[9.5733,44.2708],[9.5756,44.278],[9.5814,44.2886],[9.5845,44.2906],[9.5864,44.293],[9.5782,44.3013],[9.5732,44.3051],[9.5675,44.307],[9.5687,44.3084],[9.5864,44.3073],[9.5958,44.3083],[9.6078,44.3078],[9.6209,44.3027],[9.6236,44.3034],[9.6267,44.3031],[9.6299,44.3016],[9.6392,44.2929],[9.6408,44.2901]]]}},{"type":"Feature","properties":{"i":"011010","n":"Carrodano"},"geometry":{"type":"Polygon","coordinates":[[[9.6855,44.2452],[9.6781,44.2429],[9.6717,44.2358],[9.6603,44.2295],[9.654,44.2281],[9.6476,44.2231],[9.6467,44.2209],[9.6465,44.2159],[9.6483,44.2104],[9.6463,44.2131],[9.6309,44.2273],[9.6274,44.2275],[9.6243,44.2293],[9.6138,44.2312],[9.5987,44.2371],[9.593,44.2414],[9.5851,44.2459],[9.582,44.2447],[9.577,44.2512],[9.5879,44.2513],[9.5935,44.25],[9.6084,44.2513],[9.6367,44.2623],[9.6456,44.2609],[9.6487,44.2616],[9.6551,44.2653],[9.6585,44.2686],[9.6669,44.2648],[9.6691,44.2578],[9.6698,44.2467],[9.6754,44.2463],[9.6787,44.2484],[9.6806,44.2514],[9.6845,44.2479],[9.6855,44.2452]]]}},{"type":"Feature","properties":{"i":"011011","n":"Castelnuovo Magra"},"geometry":{"type":"Polygon","coordinates":[[[10.0461,44.1155],[10.0427,44.1098],[10.039,44.0961],[10.0239,44.0793],[10.0158,44.0717],[10.0129,44.0674],[10.0074,44.0645],[10.0013,44.0689],[9.9987,44.0668],[9.9933,44.0698],[9.993,44.0736],[9.9944,44.0781],[9.9993,44.0819],[10.003,44.087],[10.0008,44.0891],[9.9933,44.0927],[10.0038,44.1095],[10.0186,44.1192],[10.0318,44.1186],[10.0461,44.1155]]]}},{"type":"Feature","properties":{"i":"011012","n":"Deiva Marina"},"geometry":{"type":"Polygon","coordinates":[[[9.5715,44.2534],[9.577,44.2512],[9.582,44.2447],[9.581,44.2396],[9.5695,44.2273],[9.5676,44.2264],[9.5612,44.2259],[9.5301,44.225],[9.5257,44.2235],[9.5174,44.2142],[9.5113,44.2167],[9.5158,44.2223],[9.5143,44.2262],[9.5197,44.2276],[9.5233,44.2276],[9.5275,44.2431],[9.5309,44.2468],[9.5339,44.253],[9.5414,44.256],[9.5592,44.2573],[9.5715,44.2534]]]}},{"type":"Feature","properties":{"i":"011013","n":"Follo"},"geometry":{"type":"Polygon","coordinates":[[[9.8576,44.1935],[9.865,44.1807],[9.8767,44.1733],[9.8706,44.1673],[9.87,44.1627],[9.8647,44.1572],[9.8601,44.1546],[9.8515,44.1522],[9.8302,44.1501],[9.8204,44.1469],[9.8138,44.1437],[9.8103,44.1433],[9.8081,44.144],[9.8053,44.148],[9.805,44.1526],[9.807,44.1554],[9.8118,44.159],[9.813,44.166],[9.812,44.1683],[9.8085,44.1722],[9.8031,44.1755],[9.8133,44.1845],[9.8211,44.194],[9.8231,44.1975],[9.8351,44.1973],[9.8404,44.1994],[9.8438,44.1996],[9.8539,44.1962],[9.8576,44.1935]]]}},{"type":"Feature","properties":{"i":"011014","n":"Framura"},"geometry":{"type":"Polygon","coordinates":[[[9.6274,44.2275],[9.6213,44.2252],[9.6122,44.2189],[9.5951,44.216],[9.5904,44.212],[9.5881,44.2087],[9.5832,44.2062],[9.5777,44.2054],[9.5714,44.2066],[9.5633,44.1989],[9.5613,44.1949],[9.5521,44.2049],[9.5485,44.2069],[9.5445,44.2073],[9.5393,44.2063],[9.5298,44.2075],[9.527,44.2083],[9.5174,44.2142],[9.5232,44.2213],[9.528,44.2245],[9.5345,44.2254],[9.5612,44.2259],[9.5676,44.2264],[9.5695,44.2273],[9.581,44.2396],[9.582,44.2447],[9.5851,44.2459],[9.593,44.2414],[9.5987,44.2371],[9.6138,44.2312],[9.6243,44.2293],[9.6274,44.2275]]]}},{"type":"Feature","properties":{"i":"011015","n":"La Spezia"},"geometry":{"type":"MultiPolygon","coordinates":[[[[9.8422,44.151],[9.8425,44.1485],[9.8452,44.143],[9.854,44.1361],[9.8567,44.1327],[9.8747,44.1294],[9.8806,44.1271],[9.883,44.1231],[9.884,44.1189],[9.8848,44.1136],[9.8832,44.1122],[9.8842,44.1072],[9.892,44.0972],[9.8892,44.0934],[9.8817,44.0904],[9.8787,44.0878],[9.8706,44.088],[9.8646,44.0927],[9.8508,44.1098],[9.8489,44.11],[9.8475,44.1083],[9.8358,44.1101],[9.826,44.1031],[9.8262,44.1001],[9.8289,44.1005],[9.8213,44.0951],[9.8126,44.1008],[9.8228,44.0897],[9.8244,44.0862],[9.8236,44.0846],[9.8239,44.0827],[9.818,44.0762],[9.8162,44.0731],[9.8165,44.0705],[9.8136,44.0707],[9.8036,44.0658],[9.8032,44.0641],[9.8016,44.0639],[9.7986,44.0644],[9.7949,44.0671],[9.7741,44.0769],[9.7747,44.0791],[9.7734,44.0804],[9.7698,44.0811],[9.7659,44.0833],[9.7695,44.0876],[9.7713,44.0915],[9.766,44.0935],[9.7642,44.0958],[9.7635,44.1],[9.7644,44.106],[9.7715,44.1091],[9.7774,44.1101],[9.7775,44.1203],[9.7836,44.1299],[9.7912,44.1384],[9.7919,44.1386],[9.7944,44.136],[9.796,44.136],[9.8004,44.1384],[9.803,44.1419],[9.8081,44.144],[9.8103,44.1433],[9.8138,44.1437],[9.8204,44.1469],[9.8302,44.1501],[9.8422,44.151]]]]}},{"type":"Feature","properties":{"i":"011016","n":"Lerici"},"geometry":{"type":"Polygon","coordinates":[[[9.9517,44.0947],[9.9674,44.0813],[9.952,44.0761],[9.9415,44.0715],[9.9498,44.0543],[9.9527,44.0503],[9.9495,44.0473],[9.9401,44.0538],[9.9343,44.0562],[9.9201,44.0656],[9.9117,44.0694],[9.9077,44.0693],[9.9098,44.0751],[9.9093,44.0788],[9.9068,44.0814],[9.8972,44.0832],[9.8887,44.081],[9.8811,44.0815],[9.8802,44.0823],[9.8787,44.0878],[9.8817,44.0904],[9.8892,44.0934],[9.8918,44.0973],[9.9013,44.1009],[9.9052,44.0974],[9.906,44.0943],[9.9091,44.0912],[9.9144,44.0877],[9.9166,44.0886],[9.92,44.094],[9.9221,44.0953],[9.9315,44.0917],[9.9355,44.0894],[9.946,44.0874],[9.9517,44.0947]]]}},{"type":"Feature","properties":{"i":"011017","n":"Levanto"},"geometry":{"type":"Polygon","coordinates":[[[9.6483,44.2104],[9.6489,44.2081],[9.6504,44.2064],[9.6612,44.209],[9.6702,44.2052],[9.6703,44.1998],[9.6663,44.1939],[9.6669,44.1924],[9.6694,44.1913],[9.6686,44.1886],[9.6702,44.1841],[9.6843,44.1852],[9.6843,44.1828],[9.6835,44.181],[9.6704,44.1727],[9.6363,44.1586],[9.6287,44.1539],[9.6282,44.1512],[9.6355,44.1373],[9.6355,44.1335],[9.6262,44.1404],[9.6182,44.1489],[9.606,44.1586],[9.6056,44.1622],[9.6101,44.1667],[9.6095,44.1685],[9.6068,44.1709],[9.6025,44.1727],[9.6006,44.1769],[9.6023,44.1974],[9.6015,44.2014],[9.596,44.2077],[9.5949,44.2115],[9.5951,44.216],[9.6122,44.2189],[9.6213,44.2252],[9.6274,44.2275],[9.6309,44.2273],[9.6463,44.2131],[9.6483,44.2104]]]}},{"type":"Feature","properties":{"i":"011018","n":"Maissana"},"geometry":{"type":"Polygon","coordinates":[[[9.5687,44.3084],[9.5675,44.307],[9.5732,44.3051],[9.5782,44.3013],[9.5864,44.293],[9.5845,44.2906],[9.5814,44.2886],[9.5756,44.278],[9.5733,44.2708],[9.5617,44.2779],[9.5553,44.2874],[9.5433,44.2967],[9.5353,44.3002],[9.5274,44.3048],[9.5239,44.3077],[9.5196,44.3154],[9.5051,44.323],[9.4993,44.3269],[9.5051,44.3416],[9.5159,44.3525],[9.5231,44.3619],[9.5537,44.3766],[9.5654,44.3719],[9.5854,44.3616],[9.5907,44.3583],[9.5957,44.3524],[9.5957,44.3479],[9.5935,44.3427],[9.5919,44.3409],[9.5858,44.3436],[9.5788,44.3425],[9.5763,44.3414],[9.5777,44.3392],[9.5766,44.3359],[9.5635,44.333],[9.5616,44.3296],[9.5615,44.3279],[9.5649,44.3246],[9.5689,44.3227],[9.5717,44.3155],[9.5687,44.3084]]]}},{"type":"Feature","properties":{"i":"011019","n":"Monterosso al Mare"},"geometry":{"type":"Polygon","coordinates":[[[9.6728,44.1535],[9.6723,44.15],[9.6711,44.1482],[9.6646,44.1426],[9.6547,44.1456],[9.6441,44.1443],[9.6427,44.1435],[9.6391,44.1369],[9.6355,44.1335],[9.6355,44.1373],[9.6281,44.1517],[9.6287,44.1539],[9.633,44.1571],[9.6663,44.1706],[9.6734,44.1745],[9.6835,44.181],[9.6845,44.1853],[9.6889,44.1848],[9.6925,44.1835],[9.6957,44.1805],[9.6968,44.1766],[9.6935,44.1741],[9.6823,44.1711],[9.6838,44.1643],[9.6793,44.1609],[9.6728,44.1535]]]}},{"type":"Feature","properties":{"i":"011020","n":"Luni"},"geometry":{"type":"Polygon","coordinates":[[[10.0267,44.0566],[10.002,44.0599],[10.0074,44.0645],[10.0129,44.0674],[10.0158,44.0717],[10.0239,44.0793],[10.039,44.0961],[10.0433,44.1112],[10.0461,44.1155],[10.0474,44.1151],[10.0504,44.1106],[10.0536,44.1101],[10.06,44.1058],[10.0688,44.0983],[10.0704,44.0924],[10.06,44.0794],[10.0349,44.0643],[10.029,44.0597],[10.0267,44.0566]]]}},{"type":"Feature","properties":{"i":"011021","n":"Pignone"},"geometry":{"type":"Polygon","coordinates":[[[9.731,44.2002],[9.7396,44.1939],[9.7337,44.1811],[9.7265,44.1725],[9.7212,44.1704],[9.7134,44.166],[9.7085,44.1596],[9.7045,44.1566],[9.694,44.1625],[9.6923,44.1645],[9.6924,44.1654],[9.6901,44.1651],[9.6855,44.1601],[9.6829,44.1557],[9.6833,44.149],[9.6803,44.1487],[9.6728,44.1535],[9.6793,44.1609],[9.6838,44.1643],[9.6823,44.1711],[9.6945,44.1745],[9.6971,44.1772],[9.6957,44.1805],[9.6925,44.1835],[9.6889,44.1848],[9.6856,44.1854],[9.6702,44.1841],[9.6686,44.1886],[9.6694,44.1913],[9.6814,44.195],[9.683,44.1966],[9.6928,44.2022],[9.6981,44.2041],[9.7163,44.2057],[9.7248,44.2033],[9.7291,44.1998],[9.731,44.2002]]]}},{"type":"Feature","properties":{"i":"011022","n":"Portovenere"},"geometry":{"type":"MultiPolygon","coordinates":[[[[9.8514,44.0237],[9.8504,44.0235],[9.8512,44.0245],[9.8514,44.0237]]],[[[9.8484,44.029],[9.8536,44.0275],[9.8537,44.0258],[9.8528,44.0252],[9.849,44.0258],[9.8474,44.029],[9.8484,44.029]]],[[[9.8535,44.0492],[9.8473,44.034],[9.8369,44.0421],[9.8331,44.047],[9.8379,44.0485],[9.8546,44.0512],[9.8535,44.0492]]],[[[9.8583,44.0513],[9.8582,44.0519],[9.8588,44.0516],[9.8583,44.0513]]],[[[9.8032,44.0641],[9.8036,44.0658],[9.8136,44.0707],[9.8165,44.0705],[9.8162,44.0731],[9.818,44.0762],[9.824,44.0828],[9.826,44.0835],[9.8285,44.0798],[9.8351,44.0735],[9.8389,44.0649],[9.8459,44.0687],[9.8467,44.0648],[9.8517,44.0601],[9.8484,44.0583],[9.8461,44.0579],[9.8441,44.0584],[9.8365,44.0513],[9.8327,44.049],[9.8233,44.0571],[9.8174,44.0605],[9.8059,44.0644],[9.8032,44.0641]]]]}},{"type":"Feature","properties":{"i":"011023","n":"Riccò del Golfo di Spezia"},"geometry":{"type":"Polygon","coordinates":[[[9.8031,44.1755],[9.8085,44.1722],[9.812,44.1683],[9.813,44.166],[9.8118,44.159],[9.807,44.1554],[9.805,44.1526],[9.8053,44.148],[9.8081,44.144],[9.803,44.1419],[9.8004,44.1384],[9.7969,44.1363],[9.7944,44.136],[9.7916,44.1386],[9.7884,44.1354],[9.7836,44.1299],[9.7775,44.1203],[9.7776,44.1109],[9.7769,44.1098],[9.7715,44.1091],[9.7644,44.106],[9.7604,44.1107],[9.7492,44.1189],[9.7423,44.1269],[9.7294,44.1285],[9.728,44.1305],[9.7204,44.132],[9.7165,44.1338],[9.7153,44.1357],[9.715,44.1386],[9.7184,44.1434],[9.7184,44.1474],[9.7147,44.1515],[9.7391,44.1649],[9.747,44.1721],[9.7554,44.1745],[9.7606,44.1792],[9.7731,44.1788],[9.7934,44.1746],[9.8031,44.1755]]]}},{"type":"Feature","properties":{"i":"011024","n":"Riomaggiore"},"geometry":{"type":"Polygon","coordinates":[[[9.7644,44.106],[9.7635,44.1],[9.7642,44.0958],[9.766,44.0935],[9.7713,44.0915],[9.7695,44.0876],[9.7659,44.0833],[9.7604,44.0838],[9.7586,44.0862],[9.7588,44.0879],[9.7539,44.0907],[9.7394,44.0917],[9.7387,44.0922],[9.7386,44.0946],[9.7268,44.1095],[9.7257,44.1123],[9.7167,44.1181],[9.7294,44.1285],[9.7423,44.1269],[9.7492,44.1189],[9.7604,44.1107],[9.7644,44.106]]]}},{"type":"Feature","properties":{"i":"011025","n":"Rocchetta di Vara"},"geometry":{"type":"Polygon","coordinates":[[[9.8148,44.2862],[9.8218,44.2813],[9.8187,44.2801],[9.8126,44.2759],[9.8107,44.2724],[9.8117,44.2661],[9.8076,44.2517],[9.7999,44.2393],[9.798,44.2349],[9.7992,44.2327],[9.8172,44.2265],[9.8139,44.2236],[9.8028,44.2212],[9.7995,44.2225],[9.7967,44.2255],[9.7912,44.2286],[9.7858,44.2265],[9.7841,44.2254],[9.7808,44.2202],[9.7813,44.2171],[9.7851,44.2124],[9.7849,44.2116],[9.7828,44.2105],[9.774,44.2093],[9.7667,44.2128],[9.7547,44.2137],[9.7532,44.2196],[9.7599,44.2199],[9.7615,44.2303],[9.7561,44.2376],[9.7515,44.2399],[9.747,44.2432],[9.746,44.2459],[9.7479,44.2504],[9.7477,44.2527],[9.746,44.2551],[9.7469,44.2589],[9.7498,44.2618],[9.7536,44.2624],[9.7568,44.2657],[9.7595,44.2754],[9.7711,44.2798],[9.7747,44.2843],[9.7814,44.2953],[9.7838,44.2968],[9.8064,44.2828],[9.8131,44.2847],[9.8148,44.2862]]]}},{"type":"Feature","properties":{"i":"011026","n":"Santo Stefano di Magra"},"geometry":{"type":"Polygon","coordinates":[[[9.9591,44.1668],[9.9598,44.1646],[9.9594,44.1616],[9.9552,44.1519],[9.9485,44.1413],[9.9427,44.1339],[9.9325,44.1285],[9.9324,44.1367],[9.926,44.1403],[9.9126,44.1389],[9.908,44.143],[9.9084,44.1447],[9.9062,44.1495],[9.8947,44.1621],[9.9069,44.1672],[9.9218,44.17],[9.9337,44.1672],[9.9443,44.1681],[9.9491,44.1677],[9.9547,44.1649],[9.9591,44.1668]]]}},{"type":"Feature","properties":{"i":"011027","n":"Sarzana"},"geometry":{"type":"Polygon","coordinates":[[[9.9933,44.0927],[10.0008,44.0891],[10.003,44.087],[9.9993,44.0819],[9.9944,44.0781],[9.993,44.0736],[9.9933,44.0698],[9.9987,44.0668],[10.0013,44.0689],[10.0074,44.0645],[10.002,44.0599],[10.0267,44.0566],[10.0188,44.0445],[10.0099,44.0488],[9.9992,44.0509],[9.9978,44.0589],[9.9954,44.0646],[9.9881,44.0698],[9.9741,44.0739],[9.9715,44.0787],[9.9674,44.0813],[9.9517,44.0947],[9.9524,44.0957],[9.9483,44.0999],[9.9393,44.1056],[9.9351,44.1104],[9.9345,44.1125],[9.9352,44.1214],[9.9325,44.1285],[9.9427,44.1339],[9.9485,44.1413],[9.9552,44.1519],[9.9594,44.1616],[9.9598,44.1646],[9.9591,44.1668],[9.9608,44.1678],[9.9662,44.1692],[9.9733,44.1671],[9.9785,44.1613],[9.9764,44.1518],[9.9804,44.1451],[9.9773,44.1401],[9.9836,44.1248],[9.9868,44.1224],[9.9931,44.1204],[9.9951,44.1157],[9.9941,44.1058],[9.9891,44.1029],[9.9867,44.0969],[9.9933,44.0927]]]}},{"type":"Feature","properties":{"i":"011028","n":"Sesta Godano"},"geometry":{"type":"Polygon","coordinates":[[[9.7295,44.3283],[9.727,44.3235],[9.7197,44.3141],[9.7188,44.3112],[9.7217,44.3045],[9.7257,44.302],[9.728,44.2964],[9.7261,44.2906],[9.7161,44.2786],[9.7107,44.2681],[9.7103,44.2603],[9.7141,44.2597],[9.7159,44.2585],[9.7117,44.2554],[9.7025,44.2457],[9.6948,44.242],[9.6855,44.2452],[9.6845,44.2479],[9.6806,44.2514],[9.6787,44.2484],[9.6754,44.2463],[9.6698,44.2467],[9.6691,44.2578],[9.6668,44.2651],[9.6585,44.2686],[9.6542,44.2687],[9.6529,44.2699],[9.6532,44.2715],[9.655,44.2724],[9.6589,44.2773],[9.6482,44.2842],[9.6428,44.286],[9.6409,44.2857],[9.6401,44.2865],[9.6408,44.2901],[9.6454,44.2912],[9.6476,44.2975],[9.6472,44.2983],[9.6407,44.2996],[9.6381,44.3029],[9.6379,44.3047],[9.6498,44.3071],[9.6528,44.3087],[9.6549,44.315],[9.6535,44.3216],[9.6458,44.3311],[9.6422,44.3406],[9.6552,44.3491],[9.6587,44.3542],[9.675,44.3647],[9.6867,44.3659],[9.6904,44.3652],[9.7063,44.3662],[9.7111,44.3636],[9.7153,44.3573],[9.727,44.3313],[9.7295,44.3283]]]}},{"type":"Feature","properties":{"i":"011029","n":"Varese Ligure"},"geometry":{"type":"Polygon","coordinates":[[[9.6235,44.4216],[9.6381,44.4138],[9.6425,44.4124],[9.6545,44.4117],[9.663,44.4007],[9.6643,44.3973],[9.6633,44.3953],[9.6713,44.3712],[9.675,44.3647],[9.6587,44.3542],[9.6552,44.3491],[9.6422,44.3406],[9.6458,44.3311],[9.6535,44.3216],[9.6549,44.315],[9.6528,44.3087],[9.6498,44.3071],[9.6379,44.3047],[9.6381,44.3029],[9.6407,44.2996],[9.6472,44.2983],[9.6476,44.2975],[9.6454,44.2912],[9.6408,44.2901],[9.6392,44.2929],[9.6299,44.3016],[9.6267,44.3031],[9.6236,44.3034],[9.6209,44.3027],[9.6078,44.3078],[9.5958,44.3083],[9.5864,44.3073],[9.5687,44.3084],[9.5717,44.3155],[9.5689,44.3227],[9.5649,44.3246],[9.5615,44.3279],[9.5616,44.3296],[9.564,44.3333],[9.5766,44.3359],[9.5777,44.3392],[9.5763,44.3414],[9.5778,44.3422],[9.5858,44.3436],[9.5919,44.3409],[9.5935,44.3427],[9.5957,44.3479],[9.5957,44.3524],[9.589,44.3595],[9.5696,44.3699],[9.5537,44.3766],[9.5239,44.3626],[9.5182,44.3552],[9.4961,44.3668],[9.4943,44.3721],[9.4944,44.3779],[9.4893,44.3831],[9.4848,44.3807],[9.4823,44.3808],[9.4738,44.3846],[9.4719,44.3872],[9.473,44.3898],[9.4723,44.3946],[9.4677,44.4006],[9.4657,44.4016],[9.481,44.4106],[9.483,44.4145],[9.4819,44.4171],[9.4928,44.4233],[9.529,44.4278],[9.5409,44.4258],[9.5474,44.4268],[9.5507,44.428],[9.5548,44.438],[9.5585,44.4387],[9.5741,44.435],[9.5797,44.4319],[9.5825,44.4285],[9.5849,44.4284],[9.592,44.4317],[9.5982,44.4367],[9.6055,44.4357],[9.6067,44.4314],[9.6097,44.4281],[9.613,44.4259],[9.6235,44.4216]]]}},{"type":"Feature","properties":{"i":"011030","n":"Vernazza"},"geometry":{"type":"Polygon","coordinates":[[[9.7294,44.1285],[9.7167,44.1181],[9.7091,44.1189],[9.6962,44.1279],[9.6908,44.1295],[9.6814,44.1356],[9.6681,44.1421],[9.6646,44.1426],[9.6711,44.1482],[9.6723,44.15],[9.6728,44.1535],[9.6803,44.1487],[9.6833,44.149],[9.6829,44.1557],[9.6875,44.1624],[9.6901,44.1651],[9.692,44.1655],[9.694,44.1625],[9.7147,44.1515],[9.7178,44.1486],[9.7184,44.1434],[9.715,44.1386],[9.7153,44.1357],[9.7165,44.1338],[9.7204,44.132],[9.728,44.1305],[9.7294,44.1285]]]}},{"type":"Feature","properties":{"i":"011031","n":"Vezzano Ligure"},"geometry":{"type":"Polygon","coordinates":[[[9.8947,44.1621],[9.9062,44.1495],[9.9084,44.1447],[9.908,44.143],[9.9126,44.1389],[9.926,44.1403],[9.9324,44.1367],[9.9321,44.1298],[9.9352,44.1214],[9.933,44.1211],[9.927,44.125],[9.9137,44.132],[9.9046,44.1306],[9.8981,44.126],[9.8867,44.1238],[9.8832,44.1221],[9.8806,44.1271],[9.8768,44.1287],[9.8567,44.1327],[9.854,44.1361],[9.8452,44.143],[9.8425,44.1485],[9.8422,44.151],[9.8477,44.1514],[9.8563,44.1534],[9.8601,44.1546],[9.8647,44.1572],[9.87,44.1627],[9.8706,44.1673],[9.8767,44.1733],[9.8801,44.1694],[9.8747,44.1664],[9.8825,44.1564],[9.8947,44.1621]]]}},{"type":"Feature","properties":{"i":"011032","n":"Zignago"},"geometry":{"type":"Polygon","coordinates":[[[9.7838,44.2968],[9.7814,44.2953],[9.7747,44.2843],[9.7711,44.2798],[9.7595,44.2754],[9.7568,44.2657],[9.7536,44.2624],[9.7498,44.2618],[9.7469,44.2589],[9.7463,44.2547],[9.7455,44.2536],[9.7346,44.2498],[9.7148,44.2578],[9.7159,44.2587],[9.715,44.2593],[9.7103,44.2603],[9.7107,44.2681],[9.7161,44.2786],[9.7261,44.2906],[9.728,44.2964],[9.7257,44.302],[9.7217,44.3045],[9.7188,44.3112],[9.7197,44.3141],[9.727,44.3235],[9.7295,44.3283],[9.7424,44.3271],[9.7531,44.3227],[9.7583,44.3184],[9.7615,44.3141],[9.7639,44.3095],[9.7642,44.3058],[9.7695,44.3022],[9.773,44.3007],[9.7772,44.3002],[9.7838,44.2968]]]}}]}
