{"type":"FeatureCollection","fonte":"Confini comunali ISTAT via openpolis/geojson-italy — CC BY 4.0","features":[{"type":"Feature","properties":{"i":"089001","n":"Augusta"},"geometry":{"type":"MultiPolygon","coordinates":[[[[15.1829,37.2108],[15.1826,37.209],[15.185,37.1986],[15.1849,37.1955],[15.1904,37.1876],[15.1854,37.1866],[15.1707,37.1858],[15.1522,37.186],[15.1429,37.1848],[15.1366,37.1824],[15.1284,37.1867],[15.1265,37.1893],[15.1276,37.193],[15.1235,37.1955],[15.1242,37.1988],[15.1257,37.2],[15.1454,37.2055],[15.1529,37.2086],[15.1639,37.2094],[15.1722,37.2116],[15.1723,37.2126],[15.1755,37.2138],[15.1829,37.2108]]],[[[15.2051,37.2362],[15.2056,37.2357],[15.2033,37.2355],[15.2045,37.2365],[15.2051,37.2362]]],[[[15.0995,37.2467],[15.1005,37.2459],[15.1009,37.244],[15.0956,37.2456],[15.0955,37.2484],[15.0995,37.2467]]],[[[15.13,37.2761],[15.1323,37.27],[15.1307,37.2671],[15.1227,37.2679],[15.1211,37.2711],[15.1221,37.2761],[15.1291,37.2776],[15.13,37.2761]]],[[[15.1832,37.2158],[15.177,37.2169],[15.1737,37.2199],[15.1587,37.2203],[15.1433,37.2252],[15.129,37.226],[15.1257,37.2292],[15.1209,37.2365],[15.1182,37.2369],[15.1171,37.2417],[15.1188,37.249],[15.1274,37.2543],[15.1321,37.2546],[15.1426,37.2532],[15.1537,37.2541],[15.1461,37.2561],[15.1457,37.2618],[15.1467,37.2713],[15.1489,37.2813],[15.1403,37.2872],[15.1301,37.288],[15.1236,37.284],[15.111,37.2806],[15.0928,37.2696],[15.0832,37.2754],[15.079,37.2766],[15.0533,37.2727],[15.0393,37.2688],[15.0366,37.2695],[15.0326,37.2684],[15.0343,37.2706],[15.0416,37.2768],[15.0477,37.2804],[15.0581,37.293],[15.063,37.3087],[15.0672,37.3178],[15.0758,37.3321],[15.0834,37.3418],[15.0931,37.3447],[15.0944,37.3345],[15.0979,37.3211],[15.101,37.3152],[15.1053,37.3102],[15.1347,37.3095],[15.1389,37.3073],[15.1616,37.2893],[15.1649,37.2891],[15.1669,37.2916],[15.1716,37.2932],[15.1783,37.2911],[15.1841,37.2881],[15.1891,37.2818],[15.1922,37.2816],[15.1948,37.2825],[15.197,37.2874],[15.1974,37.2921],[15.2036,37.2938],[15.2062,37.2934],[15.2097,37.2901],[15.2125,37.2843],[15.2166,37.2784],[15.2249,37.2702],[15.2409,37.2604],[15.2451,37.2482],[15.2556,37.2414],[15.2545,37.2358],[15.2522,37.2336],[15.2472,37.232],[15.2393,37.236],[15.2357,37.2409],[15.2312,37.2429],[15.2279,37.2424],[15.2238,37.2389],[15.2231,37.2343],[15.2254,37.2162],[15.2335,37.1986],[15.2325,37.1984],[15.2253,37.2146],[15.219,37.2196],[15.2166,37.2242],[15.2166,37.2305],[15.218,37.2358],[15.2159,37.2438],[15.2128,37.2466],[15.2059,37.2448],[15.2044,37.2423],[15.1975,37.2354],[15.186,37.2364],[15.1944,37.2287],[15.1949,37.2262],[15.193,37.2206],[15.1832,37.2158]],[[15.152,37.2611],[15.1507,37.2605],[15.1488,37.2578],[15.1528,37.2582],[15.1542,37.261],[15.152,37.2611]]]]}},{"type":"Feature","properties":{"i":"089002","n":"Avola"},"geometry":{"type":"Polygon","coordinates":[[[15.1572,36.9594],[15.1741,36.9564],[15.1843,36.95],[15.1871,36.9505],[15.1905,36.9478],[15.1797,36.9387],[15.1727,36.9245],[15.1633,36.9203],[15.1588,36.9196],[15.1534,36.9145],[15.1423,36.8927],[15.1366,36.8769],[15.132,36.8751],[15.1282,36.8753],[15.1181,36.8786],[15.1105,36.8795],[15.0868,36.8862],[15.0833,36.8863],[15.079,36.8877],[15.0776,36.8902],[15.0781,36.8923],[15.0696,36.9108],[15.0685,36.9172],[15.069,36.9249],[15.076,36.9309],[15.074,36.9339],[15.0706,36.9369],[15.071,36.9443],[15.0777,36.9574],[15.0873,36.9693],[15.0929,36.9731],[15.1292,36.9639],[15.1333,36.9631],[15.1408,36.9638],[15.1572,36.9594]]]}},{"type":"Feature","properties":{"i":"089003","n":"Buccheri"},"geometry":{"type":"Polygon","coordinates":[[[14.913,37.17],[14.9113,37.1643],[14.9185,37.1494],[14.9187,37.1447],[14.9178,37.1429],[14.9039,37.1323],[14.8948,37.1278],[14.887,37.1265],[14.8805,37.128],[14.8686,37.1209],[14.8503,37.1125],[14.848,37.1055],[14.8465,37.1038],[14.8398,37.1042],[14.8374,37.1084],[14.8299,37.1126],[14.8181,37.112],[14.8159,37.1136],[14.8097,37.1113],[14.803,37.1102],[14.795,37.1136],[14.7941,37.1155],[14.7972,37.1211],[14.8012,37.1244],[14.8001,37.1267],[14.7939,37.132],[14.8006,37.1301],[14.8084,37.1261],[14.8189,37.1267],[14.8248,37.128],[14.833,37.1242],[14.8368,37.1248],[14.8435,37.1301],[14.8465,37.1412],[14.846,37.1457],[14.8419,37.1531],[14.8369,37.158],[14.835,37.1632],[14.8383,37.1672],[14.8561,37.1791],[14.8657,37.1827],[14.87,37.1858],[14.8708,37.1893],[14.8715,37.2041],[14.8695,37.2072],[14.8676,37.2079],[14.8693,37.2095],[14.8735,37.211],[14.883,37.2121],[14.8982,37.2185],[14.9,37.221],[14.9059,37.223],[14.9057,37.2177],[14.9007,37.1991],[14.9021,37.1831],[14.9014,37.1796],[14.9032,37.1689],[14.913,37.17]]]}},{"type":"Feature","properties":{"i":"089004","n":"Buscemi"},"geometry":{"type":"Polygon","coordinates":[[[14.887,37.1265],[14.8878,37.122],[14.8907,37.1188],[14.9082,37.1166],[14.9132,37.1116],[14.915,37.1085],[14.9116,37.1065],[14.9076,37.101],[14.9078,37.0987],[14.91,37.0961],[14.9188,37.0957],[14.921,37.0937],[14.9226,37.0911],[14.9262,37.0899],[14.9349,37.0904],[14.9434,37.0923],[14.9476,37.0846],[14.9475,37.0817],[14.9443,37.0797],[14.934,37.0778],[14.9204,37.0775],[14.9019,37.0711],[14.8857,37.069],[14.8787,37.0703],[14.8716,37.0728],[14.8665,37.0766],[14.8592,37.0802],[14.8581,37.0758],[14.858,37.0697],[14.8528,37.0639],[14.8509,37.057],[14.8531,37.0499],[14.8531,37.0353],[14.8401,37.0387],[14.8389,37.0434],[14.8405,37.0462],[14.8379,37.0551],[14.8369,37.0559],[14.8334,37.0525],[14.8317,37.0492],[14.8259,37.0504],[14.8189,37.0534],[14.818,37.0555],[14.8182,37.0597],[14.8226,37.0664],[14.8249,37.0676],[14.8285,37.0679],[14.8332,37.0625],[14.8376,37.0596],[14.8431,37.0607],[14.8365,37.0645],[14.8332,37.0675],[14.8321,37.0712],[14.8198,37.0807],[14.8193,37.0821],[14.8222,37.0896],[14.8213,37.0949],[14.82,37.0981],[14.8182,37.0997],[14.8172,37.1026],[14.8166,37.1097],[14.8181,37.112],[14.8299,37.1126],[14.8374,37.1084],[14.8398,37.1042],[14.8465,37.1038],[14.848,37.1055],[14.8503,37.1125],[14.8686,37.1209],[14.8805,37.128],[14.887,37.1265]]]}},{"type":"Feature","properties":{"i":"089005","n":"Canicattini Bagni"},"geometry":{"type":"Polygon","coordinates":[[[15.0843,37.0584],[15.0926,37.0496],[15.1022,37.046],[15.1079,37.0359],[15.1088,37.0287],[15.1152,37.0272],[15.1046,37.0198],[15.0929,37.0159],[15.0871,37.0174],[15.0765,37.0232],[15.0639,37.0283],[15.0439,37.0289],[15.0408,37.0308],[15.041,37.0387],[15.0418,37.04],[15.0439,37.0409],[15.0612,37.0417],[15.0735,37.038],[15.0755,37.0402],[15.077,37.0455],[15.0763,37.0497],[15.0737,37.0519],[15.0733,37.0533],[15.0747,37.0567],[15.0774,37.0588],[15.0843,37.0584]]]}},{"type":"Feature","properties":{"i":"089006","n":"Carlentini"},"geometry":{"type":"Polygon","coordinates":[[[15.091,37.3586],[15.0931,37.3447],[15.0834,37.3418],[15.0758,37.3321],[15.0672,37.3178],[15.063,37.3087],[15.0581,37.293],[15.0477,37.2804],[15.0416,37.2768],[15.0343,37.2706],[15.0326,37.2684],[15.034,37.2618],[15.0333,37.2542],[15.0316,37.2515],[15.0266,37.2479],[15.0295,37.2372],[15.0373,37.2289],[15.0446,37.2262],[15.0491,37.2258],[15.0549,37.2234],[15.0546,37.2229],[15.0495,37.2192],[15.0401,37.2179],[15.017,37.2045],[15.0161,37.1981],[15.0173,37.1959],[15.0141,37.1905],[15.0022,37.1762],[14.9977,37.173],[14.9972,37.1713],[14.9754,37.1581],[14.9613,37.1523],[14.9583,37.1528],[14.9551,37.1544],[14.9594,37.1674],[14.958,37.171],[14.9484,37.1643],[14.931,37.1571],[14.9216,37.1559],[14.9167,37.158],[14.9113,37.1643],[14.913,37.17],[14.9171,37.1753],[14.9181,37.1872],[14.9249,37.1948],[14.9287,37.207],[14.934,37.2136],[14.9345,37.2171],[14.9345,37.2261],[14.9315,37.232],[14.9263,37.2469],[14.927,37.25],[14.9294,37.2528],[14.9343,37.2574],[14.9435,37.2581],[14.9483,37.2634],[14.9524,37.2744],[14.9644,37.2791],[14.9683,37.2815],[14.9743,37.2806],[14.9814,37.2743],[14.9834,37.2742],[14.9876,37.277],[14.9944,37.2763],[14.9971,37.2747],[15.005,37.2754],[15.0066,37.2763],[15.0076,37.2795],[15.0075,37.2841],[15.0057,37.2874],[15.0034,37.2886],[15.0013,37.2917],[15.0028,37.3081],[15.0081,37.3146],[15.0149,37.32],[15.0156,37.3224],[15.0148,37.3299],[15.0125,37.3319],[15.0089,37.3335],[15.0084,37.3379],[15.013,37.3462],[15.0171,37.3502],[15.0203,37.352],[15.033,37.3644],[15.0324,37.3625],[15.0334,37.3621],[15.0482,37.3632],[15.0762,37.3588],[15.091,37.3586]]]}},{"type":"Feature","properties":{"i":"089007","n":"Cassaro"},"geometry":{"type":"Polygon","coordinates":[[[14.9999,37.0954],[14.9967,37.0921],[14.9909,37.0893],[14.9735,37.0901],[14.9476,37.0846],[14.9434,37.0923],[14.9315,37.09],[14.924,37.0903],[14.9222,37.0914],[14.921,37.0937],[14.9188,37.0957],[14.91,37.0961],[14.9078,37.0987],[14.9076,37.101],[14.913,37.1076],[14.9213,37.1097],[14.9253,37.1115],[14.9371,37.1116],[14.9438,37.1105],[14.9607,37.1152],[14.9653,37.1152],[14.9732,37.1184],[14.9839,37.12],[14.9872,37.1184],[14.9893,37.11],[14.9999,37.0954]]]}},{"type":"Feature","properties":{"i":"089008","n":"Ferla"},"geometry":{"type":"Polygon","coordinates":[[[14.9551,37.1544],[14.9539,37.1505],[14.954,37.1395],[14.9672,37.1183],[14.9671,37.1169],[14.9653,37.1152],[14.9607,37.1152],[14.9438,37.1105],[14.9371,37.1116],[14.9287,37.1118],[14.915,37.1085],[14.9132,37.1116],[14.9082,37.1166],[14.8912,37.1187],[14.8878,37.122],[14.887,37.1265],[14.8948,37.1278],[14.9012,37.1307],[14.9095,37.1363],[14.9183,37.1437],[14.9185,37.1494],[14.9113,37.1643],[14.9167,37.158],[14.9216,37.1559],[14.931,37.1571],[14.9484,37.1643],[14.958,37.171],[14.9594,37.1674],[14.9551,37.1544]]]}},{"type":"Feature","properties":{"i":"089009","n":"Floridia"},"geometry":{"type":"Polygon","coordinates":[[[15.1475,37.098],[15.1521,37.0943],[15.1671,37.0858],[15.1723,37.0805],[15.1727,37.0751],[15.1683,37.067],[15.16,37.0643],[15.1538,37.0639],[15.1294,37.0657],[15.1107,37.0702],[15.0844,37.0709],[15.0834,37.0744],[15.0817,37.076],[15.0743,37.0774],[15.0548,37.0783],[15.0523,37.0791],[15.0402,37.0885],[15.0419,37.0921],[15.0469,37.0959],[15.0548,37.0962],[15.0612,37.0956],[15.0875,37.0847],[15.0931,37.0843],[15.0924,37.0897],[15.1011,37.0947],[15.134,37.0896],[15.1367,37.0909],[15.1424,37.0964],[15.1475,37.098]]]}},{"type":"Feature","properties":{"i":"089010","n":"Francofonte"},"geometry":{"type":"Polygon","coordinates":[[[14.913,37.17],[14.9032,37.1689],[14.9014,37.1796],[14.9021,37.1831],[14.9007,37.1991],[14.9057,37.2177],[14.9059,37.223],[14.9,37.221],[14.8982,37.2185],[14.883,37.2121],[14.8735,37.211],[14.8693,37.2095],[14.8676,37.2079],[14.8662,37.2088],[14.8635,37.2088],[14.8488,37.2008],[14.8267,37.1959],[14.8247,37.1968],[14.8208,37.2072],[14.8035,37.2139],[14.7943,37.2145],[14.786,37.2105],[14.783,37.21],[14.7734,37.2228],[14.773,37.2248],[14.7745,37.2287],[14.7811,37.2298],[14.784,37.236],[14.7906,37.2427],[14.8024,37.2504],[14.8068,37.2522],[14.8085,37.2518],[14.8109,37.2497],[14.8165,37.2479],[14.8249,37.2485],[14.844,37.2528],[14.8652,37.2547],[14.8693,37.251],[14.874,37.2502],[14.9003,37.2555],[14.9053,37.2581],[14.9084,37.2621],[14.9163,37.2681],[14.9228,37.2709],[14.9248,37.267],[14.9233,37.2642],[14.9177,37.2603],[14.9155,37.2604],[14.914,37.2616],[14.9118,37.2607],[14.9128,37.2544],[14.9149,37.2545],[14.9389,37.2616],[14.9434,37.2716],[14.947,37.2737],[14.9524,37.2744],[14.9499,37.2665],[14.9473,37.2618],[14.9435,37.2581],[14.9343,37.2574],[14.927,37.25],[14.9264,37.2464],[14.9315,37.232],[14.9345,37.2261],[14.934,37.2136],[14.9287,37.207],[14.9249,37.1948],[14.9184,37.1879],[14.9171,37.1753],[14.913,37.17]]]}},{"type":"Feature","properties":{"i":"089011","n":"Lentini"},"geometry":{"type":"Polygon","coordinates":[[[14.9358,37.4084],[14.9368,37.4065],[14.9414,37.4053],[14.9532,37.3931],[14.9564,37.3863],[14.9641,37.3823],[14.985,37.3736],[15.0146,37.3692],[15.0227,37.3723],[15.026,37.3785],[15.0326,37.3713],[15.033,37.3644],[15.0203,37.352],[15.0171,37.3502],[15.013,37.3462],[15.0084,37.3379],[15.0089,37.3335],[15.0125,37.3319],[15.0148,37.3299],[15.0156,37.3224],[15.0149,37.32],[15.0081,37.3146],[15.0028,37.3081],[15.0013,37.2917],[15.0034,37.2886],[15.0057,37.2874],[15.0075,37.2841],[15.0076,37.2795],[15.0066,37.2763],[15.005,37.2754],[14.9971,37.2747],[14.9944,37.2763],[14.9876,37.277],[14.9834,37.2742],[14.9814,37.2743],[14.9743,37.2806],[14.9683,37.2815],[14.957,37.2761],[14.9451,37.2728],[14.9429,37.2707],[14.9389,37.2616],[14.9149,37.2545],[14.9128,37.2544],[14.9118,37.2607],[14.914,37.2616],[14.9155,37.2604],[14.9177,37.2603],[14.9233,37.2642],[14.9248,37.267],[14.9228,37.2709],[14.9163,37.2681],[14.9084,37.2621],[14.9053,37.2581],[14.9003,37.2555],[14.8908,37.2532],[14.874,37.2502],[14.8693,37.251],[14.8652,37.2547],[14.844,37.2528],[14.8249,37.2485],[14.8165,37.2479],[14.809,37.2507],[14.8085,37.2518],[14.809,37.2547],[14.8121,37.256],[14.8241,37.2579],[14.838,37.2576],[14.8475,37.26],[14.8565,37.2723],[14.8582,37.277],[14.8559,37.2797],[14.8736,37.2824],[14.8828,37.2863],[14.8817,37.2877],[14.8797,37.2957],[14.8882,37.3053],[14.8922,37.311],[14.8637,37.3178],[14.8416,37.3247],[14.8263,37.3189],[14.8211,37.3162],[14.8193,37.318],[14.8159,37.3183],[14.804,37.3158],[14.7952,37.3198],[14.7906,37.3247],[14.7834,37.3256],[14.7794,37.3245],[14.7786,37.3305],[14.7902,37.3395],[14.8092,37.3499],[14.8179,37.353],[14.8291,37.3546],[14.8384,37.3578],[14.8413,37.3613],[14.839,37.3701],[14.8429,37.3789],[14.8545,37.3835],[14.8684,37.3863],[14.8778,37.3896],[14.8809,37.3916],[14.8875,37.3978],[14.8875,37.4077],[14.8918,37.41],[14.9126,37.412],[14.9258,37.4106],[14.9318,37.4085],[14.9358,37.4084]]]}},{"type":"Feature","properties":{"i":"089012","n":"Melilli"},"geometry":{"type":"MultiPolygon","coordinates":[[[[15.2369,37.1154],[15.2358,37.1092],[15.2337,37.1033],[15.2285,37.1008],[15.2228,37.1004],[15.2155,37.0955],[15.2034,37.097],[15.1899,37.1076],[15.2083,37.113],[15.2243,37.1199],[15.2207,37.1294],[15.2225,37.1273],[15.2301,37.1221],[15.2312,37.1227],[15.2369,37.1154]]],[[[15.152,37.2611],[15.1542,37.261],[15.1528,37.2582],[15.1488,37.2578],[15.1507,37.2605],[15.152,37.2611]]],[[[15.1832,37.2158],[15.1829,37.2108],[15.1755,37.2138],[15.1723,37.2126],[15.1722,37.2116],[15.1639,37.2094],[15.1529,37.2086],[15.1454,37.2055],[15.1257,37.2],[15.1242,37.1988],[15.1235,37.1955],[15.1276,37.193],[15.1265,37.1893],[15.1284,37.1867],[15.1366,37.1824],[15.1429,37.1848],[15.1522,37.186],[15.1707,37.1858],[15.1854,37.1866],[15.1904,37.1876],[15.1918,37.1872],[15.2013,37.1782],[15.1895,37.1756],[15.1844,37.1759],[15.169,37.1726],[15.1514,37.1752],[15.1489,37.1742],[15.1474,37.1708],[15.1481,37.1677],[15.1535,37.166],[15.1515,37.1634],[15.1423,37.1604],[15.1253,37.1574],[15.1182,37.1533],[15.1165,37.1515],[15.1159,37.1442],[15.0988,37.1491],[15.0813,37.1619],[15.0803,37.1739],[15.0835,37.1805],[15.0761,37.1844],[15.0564,37.1797],[15.0524,37.181],[15.0536,37.1834],[15.0516,37.1843],[15.0451,37.1833],[15.0384,37.1812],[15.0341,37.179],[15.0332,37.1771],[15.0275,37.1754],[15.016,37.1751],[15.004,37.1731],[15.0003,37.1713],[14.9977,37.173],[15.0022,37.1762],[15.0141,37.1905],[15.0173,37.1959],[15.0161,37.1981],[15.017,37.2045],[15.0401,37.2179],[15.0495,37.2192],[15.0549,37.2234],[15.0475,37.2263],[15.0446,37.2262],[15.0373,37.2289],[15.0295,37.2372],[15.0266,37.2479],[15.0326,37.2526],[15.034,37.2618],[15.0326,37.2684],[15.0366,37.2695],[15.0393,37.2688],[15.0533,37.2727],[15.079,37.2766],[15.0832,37.2754],[15.0928,37.2696],[15.111,37.2806],[15.1236,37.284],[15.1301,37.288],[15.1403,37.2872],[15.1489,37.2813],[15.1467,37.2713],[15.1457,37.2618],[15.1461,37.2561],[15.1537,37.2541],[15.1426,37.2532],[15.1321,37.2546],[15.1274,37.2543],[15.1188,37.249],[15.1171,37.2417],[15.1182,37.2369],[15.1209,37.2365],[15.1257,37.2292],[15.129,37.226],[15.1433,37.2252],[15.1587,37.2203],[15.1737,37.2199],[15.177,37.2169],[15.1832,37.2158]],[[15.13,37.2761],[15.1291,37.2776],[15.1221,37.2761],[15.1211,37.2711],[15.1227,37.2679],[15.1307,37.2671],[15.1323,37.27],[15.13,37.2761]],[[15.0995,37.2467],[15.0955,37.2484],[15.0956,37.2456],[15.1009,37.244],[15.1005,37.2459],[15.0995,37.2467]]]]}},{"type":"Feature","properties":{"i":"089013","n":"Noto"},"geometry":{"type":"MultiPolygon","coordinates":[[[[15.1056,36.79],[15.1035,36.7923],[15.1046,36.793],[15.1063,36.7926],[15.1056,36.79]]],[[[14.9412,36.8055],[14.9504,36.8079],[14.9536,36.8034],[14.9432,36.7964],[14.9406,36.7982],[14.9401,36.8002],[14.9412,36.8055]]],[[[15.0836,37.0652],[15.0843,37.0584],[15.0774,37.0588],[15.0747,37.0567],[15.0734,37.0542],[15.0737,37.0519],[15.0763,37.0497],[15.077,37.0455],[15.0755,37.0402],[15.0735,37.038],[15.0612,37.0417],[15.0439,37.0409],[15.0418,37.04],[15.041,37.0387],[15.0408,37.0308],[15.0439,37.0289],[15.0639,37.0283],[15.0765,37.0232],[15.0871,37.0174],[15.0929,37.0159],[15.1046,37.0198],[15.1256,37.021],[15.1371,37.0204],[15.1455,37.0171],[15.1516,37.0161],[15.1593,37.0174],[15.1699,37.0144],[15.1776,37.0071],[15.178,37.0037],[15.1726,37.0011],[15.1687,36.9947],[15.1685,36.9853],[15.1716,36.9785],[15.1713,36.9774],[15.165,36.9682],[15.1572,36.9594],[15.1408,36.9638],[15.1333,36.9631],[15.1292,36.9639],[15.0929,36.9731],[15.0873,36.9693],[15.0802,36.9613],[15.071,36.9443],[15.0706,36.9369],[15.074,36.9339],[15.076,36.9309],[15.069,36.9249],[15.0685,36.9172],[15.0696,36.9108],[15.0781,36.8923],[15.0776,36.8902],[15.079,36.8877],[15.0833,36.8863],[15.0868,36.8862],[15.1105,36.8795],[15.1181,36.8786],[15.1282,36.8753],[15.132,36.8751],[15.1366,36.8769],[15.1389,36.8736],[15.1368,36.8663],[15.1315,36.8674],[15.1268,36.8656],[15.1184,36.8588],[15.1124,36.8509],[15.1077,36.8405],[15.1062,36.8346],[15.1087,36.8193],[15.106,36.8064],[15.1017,36.8023],[15.099,36.8028],[15.0955,36.7955],[15.0963,36.7871],[15.0954,36.7763],[15.1001,36.7674],[15.1001,36.7656],[15.1031,36.7579],[15.1111,36.747],[15.1151,36.7444],[15.1195,36.7448],[15.082,36.7328],[15.0805,36.7351],[15.0661,36.738],[15.058,36.7308],[15.0518,36.7222],[15.0466,36.7173],[15.0379,36.7139],[15.0198,36.7115],[15.0073,36.7155],[15.0001,36.7039],[14.9967,36.7089],[14.9989,36.7138],[14.999,36.7202],[14.9975,36.7314],[14.9958,36.7381],[14.9941,36.7435],[14.9883,36.7476],[14.9859,36.7514],[14.9865,36.7548],[14.9902,36.7575],[14.9922,36.7615],[14.9887,36.7765],[14.9852,36.7807],[14.9602,36.7982],[14.9641,36.803],[14.9683,36.8063],[14.972,36.8159],[14.9688,36.8172],[14.9659,36.8199],[14.9658,36.8209],[14.9715,36.8269],[14.9759,36.833],[14.9766,36.836],[14.9749,36.8435],[14.9637,36.845],[14.959,36.848],[14.957,36.8502],[14.9523,36.8521],[14.9463,36.8513],[14.9341,36.848],[14.9292,36.8498],[14.9286,36.8507],[14.9291,36.8525],[14.9386,36.8637],[14.9404,36.8622],[14.944,36.8622],[14.9475,36.864],[14.9491,36.867],[14.9545,36.8713],[14.9596,36.8728],[14.9519,36.8801],[14.9357,36.8988],[14.9372,36.9004],[14.9378,36.9032],[14.9321,36.9146],[14.9251,36.9236],[14.9205,36.9274],[14.9186,36.9355],[14.9111,36.9365],[14.9075,36.9393],[14.8883,36.9641],[14.8859,36.9741],[14.8875,36.9822],[14.8871,36.9885],[14.878,37.0006],[14.875,37.0037],[14.8683,37.0084],[14.8727,37.0114],[14.8779,37.0208],[14.8801,37.0266],[14.8903,37.0368],[14.897,37.0417],[14.9021,37.0442],[14.912,37.0456],[14.9119,37.0426],[14.9125,37.0418],[14.9151,37.0417],[14.925,37.0427],[14.9353,37.0453],[14.9621,37.044],[14.9728,37.0418],[14.9753,37.0408],[14.9805,37.0367],[14.9853,37.036],[14.9887,37.0389],[14.9841,37.0435],[14.9825,37.0509],[14.9848,37.0526],[14.9938,37.056],[14.9985,37.0557],[15.0003,37.0538],[15.0073,37.0512],[15.013,37.0525],[15.0161,37.0543],[15.0143,37.0557],[15.0122,37.0626],[15.0119,37.067],[15.0134,37.0757],[15.0196,37.0762],[15.0257,37.075],[15.0645,37.0624],[15.0763,37.0659],[15.0836,37.0652]]]]}},{"type":"Feature","properties":{"i":"089014","n":"Pachino"},"geometry":{"type":"MultiPolygon","coordinates":[[[[15.1349,36.6916],[15.1304,36.6865],[15.1137,36.688],[15.1025,36.6829],[15.0943,36.6801],[15.0843,36.6865],[15.0784,36.6844],[15.0729,36.6845],[15.0778,36.6806],[15.0692,36.6697],[15.0724,36.6663],[15.0737,36.6557],[15.0704,36.6588],[15.0647,36.6614],[15.0605,36.6624],[15.0571,36.6619],[15.0552,36.665],[15.051,36.6792],[15.0479,36.6836],[15.0423,36.6889],[15.0276,36.6981],[15.0207,36.7012],[15.0086,36.7033],[15.0004,36.7028],[15.0001,36.7039],[15.0073,36.7155],[15.0198,36.7115],[15.0379,36.7139],[15.0466,36.7173],[15.0518,36.7222],[15.058,36.7308],[15.0661,36.738],[15.0805,36.7351],[15.082,36.7328],[15.1195,36.7448],[15.1193,36.7409],[15.1179,36.7413],[15.1165,36.7394],[15.1183,36.734],[15.1208,36.7322],[15.1211,36.714],[15.1232,36.7026],[15.126,36.6984],[15.1321,36.6946],[15.1349,36.6916]]]]}},{"type":"Feature","properties":{"i":"089015","n":"Palazzolo Acreide"},"geometry":{"type":"Polygon","coordinates":[[[15.0717,37.1045],[15.0704,37.1028],[15.072,37.1013],[15.0924,37.0897],[15.0931,37.0843],[15.0875,37.0847],[15.0612,37.0956],[15.0548,37.0962],[15.0469,37.0959],[15.0419,37.0921],[15.0402,37.0885],[15.0523,37.0791],[15.0548,37.0783],[15.0743,37.0774],[15.0828,37.0754],[15.0844,37.0709],[15.0836,37.0652],[15.0763,37.0659],[15.0645,37.0624],[15.0257,37.075],[15.0196,37.0762],[15.0134,37.0757],[15.0119,37.067],[15.0122,37.0626],[15.0143,37.0557],[15.0161,37.0543],[15.013,37.0525],[15.0073,37.0512],[15.0003,37.0538],[14.9985,37.0557],[14.9938,37.056],[14.9848,37.0526],[14.9825,37.0509],[14.9841,37.0435],[14.9887,37.0389],[14.9853,37.036],[14.9805,37.0367],[14.9753,37.0408],[14.9675,37.0434],[14.9353,37.0453],[14.925,37.0427],[14.9151,37.0417],[14.9125,37.0418],[14.9119,37.0426],[14.912,37.0456],[14.9021,37.0442],[14.897,37.0417],[14.8903,37.0368],[14.8801,37.0266],[14.8779,37.0208],[14.8727,37.0114],[14.8683,37.0084],[14.8665,37.0124],[14.8565,37.0228],[14.856,37.0304],[14.8531,37.0353],[14.8531,37.0499],[14.8509,37.057],[14.8528,37.0639],[14.858,37.0697],[14.8581,37.0758],[14.8592,37.0802],[14.8665,37.0766],[14.8716,37.0728],[14.8787,37.0703],[14.8857,37.069],[14.9019,37.0711],[14.9204,37.0775],[14.934,37.0778],[14.9443,37.0797],[14.9475,37.0817],[14.9476,37.0846],[14.9561,37.0859],[14.9668,37.089],[14.9735,37.0901],[14.9909,37.0893],[14.9967,37.0921],[14.9999,37.0954],[15.0122,37.102],[15.0397,37.1119],[15.0582,37.1109],[15.0717,37.1045]]]}},{"type":"Feature","properties":{"i":"089016","n":"Rosolini"},"geometry":{"type":"MultiPolygon","coordinates":[[[[14.9292,36.8498],[14.9341,36.848],[14.9463,36.8513],[14.9523,36.8521],[14.957,36.8502],[14.959,36.848],[14.9637,36.845],[14.9749,36.8435],[14.9766,36.836],[14.9759,36.833],[14.9715,36.8269],[14.9658,36.8209],[14.9659,36.8199],[14.9688,36.8172],[14.972,36.8159],[14.9683,36.8063],[14.9641,36.803],[14.9602,36.7982],[14.9536,36.8034],[14.9504,36.8079],[14.9412,36.8055],[14.9235,36.8138],[14.9127,36.8121],[14.9023,36.814],[14.8948,36.8177],[14.8905,36.8241],[14.8869,36.8248],[14.8823,36.8247],[14.8679,36.8214],[14.8648,36.817],[14.8649,36.8156],[14.8625,36.8159],[14.8601,36.8175],[14.8538,36.828],[14.8571,36.8284],[14.8599,36.8315],[14.865,36.8507],[14.8618,36.8541],[14.861,36.8569],[14.8644,36.8654],[14.8701,36.8705],[14.8862,36.8682],[14.8924,36.8644],[14.8971,36.8591],[14.9216,36.8488],[14.9292,36.8498]]],[[[14.8605,36.9739],[14.858,36.9723],[14.857,36.9666],[14.8592,36.9591],[14.8831,36.938],[14.9033,36.9221],[14.9156,36.9163],[14.9223,36.9117],[14.9346,36.9003],[14.9519,36.8801],[14.9596,36.8728],[14.9545,36.8713],[14.9491,36.867],[14.9468,36.8636],[14.944,36.8622],[14.9404,36.8622],[14.9389,36.8629],[14.9368,36.8663],[14.9208,36.8779],[14.9151,36.8862],[14.908,36.8889],[14.8998,36.8896],[14.8841,36.8988],[14.8816,36.9082],[14.8776,36.9145],[14.8775,36.9194],[14.8785,36.9202],[14.8862,36.9196],[14.8915,36.9207],[14.8966,36.9233],[14.8968,36.9253],[14.8816,36.9355],[14.8727,36.9385],[14.8654,36.9439],[14.8484,36.9473],[14.8428,36.945],[14.841,36.945],[14.8392,36.9465],[14.8405,36.9493],[14.84,36.9593],[14.8394,36.966],[14.837,36.9731],[14.8469,36.9758],[14.8561,36.9756],[14.8605,36.9739]]]]}},{"type":"Feature","properties":{"i":"089017","n":"Siracusa"},"geometry":{"type":"MultiPolygon","coordinates":[[[[15.2635,36.9798],[15.2649,36.9788],[15.2629,36.979],[15.2635,36.9798]]],[[[15.1905,36.9478],[15.1871,36.9505],[15.1843,36.95],[15.1741,36.9564],[15.1572,36.9594],[15.165,36.9682],[15.1713,36.9774],[15.1716,36.9785],[15.1685,36.9853],[15.1687,36.9947],[15.1726,37.0011],[15.178,37.0037],[15.1776,37.0071],[15.1699,37.0144],[15.1593,37.0174],[15.1516,37.0161],[15.1455,37.0171],[15.1371,37.0204],[15.1256,37.021],[15.1046,37.0198],[15.1152,37.0272],[15.1088,37.0287],[15.1079,37.0359],[15.1022,37.046],[15.0926,37.0496],[15.0843,37.0584],[15.0836,37.0652],[15.0844,37.0709],[15.1107,37.0702],[15.1294,37.0657],[15.1538,37.0639],[15.16,37.0643],[15.1679,37.0668],[15.1727,37.0751],[15.1723,37.0805],[15.1671,37.0858],[15.1521,37.0943],[15.1397,37.1044],[15.1592,37.1039],[15.1645,37.1064],[15.1697,37.1073],[15.1769,37.1068],[15.1792,37.11],[15.1802,37.1129],[15.1793,37.1144],[15.1867,37.111],[15.1899,37.1076],[15.2034,37.097],[15.2139,37.0955],[15.2155,37.0955],[15.2228,37.1004],[15.2285,37.1008],[15.2337,37.1033],[15.2358,37.1092],[15.2369,37.1154],[15.2456,37.114],[15.2592,37.11],[15.2599,37.1073],[15.2634,37.1061],[15.277,37.1075],[15.2822,37.1102],[15.2957,37.1067],[15.3007,37.093],[15.3,37.0794],[15.2912,37.069],[15.2903,37.0665],[15.2935,37.0671],[15.2962,37.0655],[15.2981,37.0617],[15.2957,37.0544],[15.2943,37.0544],[15.2915,37.0605],[15.2874,37.0637],[15.2796,37.0656],[15.278,37.0653],[15.274,37.0618],[15.2714,37.0579],[15.2705,37.0542],[15.271,37.0512],[15.2758,37.039],[15.2776,37.0365],[15.2816,37.0335],[15.2882,37.0326],[15.2911,37.0331],[15.2976,37.0412],[15.3031,37.0429],[15.3073,37.0389],[15.3103,37.0373],[15.3115,37.0381],[15.316,37.035],[15.3222,37.0223],[15.3305,37.0165],[15.3349,37.011],[15.3366,37.0071],[15.3363,37.0025],[15.3331,37.0018],[15.3148,37.0037],[15.3129,37.0047],[15.3101,37.0083],[15.3028,37.0153],[15.2981,37.0147],[15.2933,37.0102],[15.2835,37.0059],[15.2805,37.0076],[15.2753,37.0072],[15.2678,37.0025],[15.2646,36.9969],[15.2645,36.9947],[15.269,36.987],[15.2621,36.9812],[15.2566,36.9802],[15.2626,36.9754],[15.2617,36.9743],[15.2573,36.9731],[15.2445,36.9717],[15.239,36.9722],[15.2272,36.9674],[15.2199,36.9624],[15.2161,36.9625],[15.2141,36.9638],[15.2057,36.9588],[15.2064,36.9535],[15.2022,36.9536],[15.1975,36.9526],[15.1905,36.9478]]]]}},{"type":"Feature","properties":{"i":"089018","n":"Solarino"},"geometry":{"type":"Polygon","coordinates":[[[15.1397,37.1044],[15.1475,37.098],[15.1424,37.0964],[15.1367,37.0909],[15.134,37.0896],[15.1011,37.0947],[15.0924,37.0897],[15.0704,37.1028],[15.0717,37.1045],[15.0767,37.1041],[15.0792,37.105],[15.0824,37.1093],[15.0902,37.1138],[15.111,37.1161],[15.1226,37.1157],[15.1274,37.1122],[15.1339,37.1093],[15.1397,37.1044]]]}},{"type":"Feature","properties":{"i":"089019","n":"Sortino"},"geometry":{"type":"Polygon","coordinates":[[[15.1159,37.1442],[15.1206,37.1415],[15.1295,37.1333],[15.1286,37.1302],[15.1266,37.1304],[15.121,37.1268],[15.1201,37.1251],[15.1199,37.1222],[15.1226,37.1157],[15.1098,37.1161],[15.0925,37.1145],[15.0824,37.1093],[15.0799,37.1056],[15.0767,37.1041],[15.0717,37.1045],[15.0582,37.1109],[15.0397,37.1119],[15.0122,37.102],[14.9999,37.0954],[14.9893,37.11],[14.9873,37.1165],[14.9876,37.1177],[14.9865,37.1188],[14.9839,37.12],[14.9732,37.1184],[14.9653,37.1152],[14.9671,37.1169],[14.9672,37.1183],[14.954,37.1395],[14.9539,37.1505],[14.9551,37.1544],[14.9583,37.1528],[14.9613,37.1523],[14.9754,37.1581],[14.9972,37.1713],[14.9977,37.173],[15.0003,37.1713],[15.004,37.1731],[15.016,37.1751],[15.0275,37.1754],[15.0332,37.1771],[15.0341,37.179],[15.0384,37.1812],[15.0451,37.1833],[15.0516,37.1843],[15.0536,37.1834],[15.0524,37.181],[15.0564,37.1797],[15.0761,37.1844],[15.0835,37.1805],[15.0803,37.1739],[15.0813,37.1619],[15.0988,37.1491],[15.1159,37.1442]]]}},{"type":"Feature","properties":{"i":"089020","n":"Portopalo di Capo Passero"},"geometry":{"type":"MultiPolygon","coordinates":[[[[15.0787,36.6456],[15.078,36.6441],[15.0765,36.6454],[15.0787,36.6468],[15.0787,36.6456]]],[[[15.1519,36.6893],[15.1542,36.6889],[15.1515,36.685],[15.1436,36.6815],[15.1433,36.6839],[15.1461,36.6883],[15.1519,36.6893]]],[[[15.0737,36.6557],[15.0724,36.6663],[15.0692,36.6697],[15.0778,36.6806],[15.0729,36.6845],[15.0784,36.6844],[15.0843,36.6865],[15.0943,36.6801],[15.1025,36.6829],[15.1137,36.688],[15.1304,36.6865],[15.1349,36.6916],[15.1356,36.689],[15.1376,36.6871],[15.1384,36.6825],[15.1349,36.6715],[15.132,36.6668],[15.1299,36.6665],[15.1249,36.6691],[15.1275,36.6712],[15.1223,36.6743],[15.1161,36.6748],[15.1124,36.6731],[15.109,36.6694],[15.109,36.6671],[15.1037,36.6624],[15.0798,36.6477],[15.0737,36.6557]]]]}},{"type":"Feature","properties":{"i":"089021","n":"Priolo Gargallo"},"geometry":{"type":"Polygon","coordinates":[[[15.2207,37.1294],[15.2243,37.1199],[15.2083,37.113],[15.1973,37.1094],[15.1899,37.1076],[15.1867,37.111],[15.1793,37.1144],[15.1802,37.1129],[15.1792,37.11],[15.1769,37.1068],[15.1697,37.1073],[15.1645,37.1064],[15.1592,37.1039],[15.1397,37.1044],[15.1339,37.1093],[15.1274,37.1122],[15.1226,37.1157],[15.1199,37.1222],[15.1201,37.1251],[15.121,37.1268],[15.1266,37.1304],[15.1286,37.1302],[15.1295,37.1333],[15.1206,37.1415],[15.1159,37.1442],[15.116,37.1505],[15.1182,37.1533],[15.1253,37.1574],[15.1423,37.1604],[15.1515,37.1634],[15.1535,37.166],[15.1481,37.1677],[15.1474,37.1708],[15.1489,37.1742],[15.1514,37.1752],[15.169,37.1726],[15.1844,37.1759],[15.1895,37.1756],[15.2013,37.1782],[15.2017,37.1713],[15.2,37.1702],[15.1997,37.165],[15.201,37.1611],[15.2063,37.1532],[15.2127,37.15],[15.2211,37.1502],[15.2252,37.1516],[15.2269,37.1531],[15.2262,37.1585],[15.2336,37.1591],[15.2355,37.1581],[15.2441,37.1464],[15.2442,37.1458],[15.2407,37.1458],[15.2381,37.1467],[15.2336,37.149],[15.2316,37.1516],[15.2296,37.1526],[15.2244,37.1507],[15.2201,37.1434],[15.2198,37.135],[15.2207,37.1294]]]}}]}
