{"type":"FeatureCollection","fonte":"Confini comunali ISTAT via openpolis/geojson-italy — CC BY 4.0","features":[{"type":"Feature","properties":{"i":"111082","n":"Seulo"},"geometry":{"type":"Polygon","coordinates":[[[9.2804,39.9174],[9.282,39.9173],[9.2738,39.904],[9.2755,39.891],[9.2776,39.8855],[9.2829,39.879],[9.2831,39.8764],[9.2778,39.8584],[9.2735,39.8513],[9.2619,39.85],[9.2504,39.8445],[9.2462,39.8437],[9.2319,39.8432],[9.2266,39.8414],[9.223,39.8373],[9.2235,39.8356],[9.22,39.8317],[9.2118,39.8241],[9.2092,39.8225],[9.2002,39.8263],[9.1991,39.829],[9.1998,39.8331],[9.1996,39.8396],[9.1976,39.8446],[9.1952,39.8466],[9.1857,39.8493],[9.1851,39.8508],[9.1849,39.8575],[9.1873,39.8657],[9.1904,39.8675],[9.1945,39.8683],[9.1944,39.875],[9.1907,39.8835],[9.1895,39.8901],[9.192,39.894],[9.1995,39.9022],[9.2102,39.9105],[9.213,39.9147],[9.2239,39.9079],[9.2307,39.9083],[9.2314,39.9101],[9.2352,39.913],[9.2452,39.9178],[9.2564,39.9188],[9.2591,39.9173],[9.2598,39.9156],[9.2718,39.9144],[9.2778,39.9149],[9.2804,39.9174]]]}},{"type":"Feature","properties":{"i":"111081","n":"Seui"},"geometry":{"type":"MultiPolygon","coordinates":[[[[9.3987,39.7044],[9.4028,39.6952],[9.4018,39.6862],[9.394,39.6881],[9.3886,39.6929],[9.3844,39.6953],[9.3825,39.6955],[9.3725,39.6937],[9.3654,39.6908],[9.3628,39.6883],[9.3534,39.6882],[9.3491,39.7022],[9.3783,39.7101],[9.3862,39.7148],[9.3934,39.7107],[9.3969,39.7054],[9.3987,39.7044]]],[[[9.3801,39.9176],[9.3831,39.9168],[9.4114,39.8936],[9.4166,39.8859],[9.417,39.8837],[9.4086,39.8691],[9.4059,39.8586],[9.4052,39.8488],[9.3986,39.843],[9.3822,39.8434],[9.3704,39.841],[9.3697,39.8399],[9.3694,39.8361],[9.3706,39.8322],[9.3756,39.832],[9.3785,39.8309],[9.3772,39.8218],[9.3729,39.8179],[9.3615,39.8133],[9.3628,39.8022],[9.3744,39.7917],[9.3847,39.7784],[9.3945,39.7768],[9.3992,39.7683],[9.4048,39.7641],[9.4065,39.76],[9.4057,39.7572],[9.4095,39.7545],[9.4089,39.7504],[9.4079,39.7509],[9.4014,39.7486],[9.3986,39.7455],[9.4019,39.7412],[9.4001,39.7343],[9.3985,39.7334],[9.3968,39.7343],[9.3976,39.7357],[9.3973,39.7366],[9.3948,39.7379],[9.375,39.7481],[9.3659,39.7499],[9.3598,39.7541],[9.3562,39.7638],[9.3537,39.7753],[9.3395,39.7866],[9.3281,39.7923],[9.3163,39.7962],[9.3069,39.8004],[9.298,39.808],[9.2929,39.8072],[9.2854,39.8037],[9.2924,39.8135],[9.2931,39.8211],[9.2922,39.8281],[9.2906,39.8309],[9.2803,39.8415],[9.2729,39.8508],[9.2754,39.8534],[9.2778,39.8584],[9.2831,39.8764],[9.2829,39.879],[9.2776,39.8855],[9.2755,39.891],[9.2738,39.904],[9.282,39.9173],[9.2833,39.9155],[9.2856,39.9145],[9.2944,39.9148],[9.3137,39.9134],[9.3167,39.9108],[9.3247,39.9096],[9.3449,39.9116],[9.3492,39.9108],[9.3499,39.9072],[9.3543,39.9039],[9.3687,39.9055],[9.3767,39.9155],[9.3801,39.9176]]]]}},{"type":"Feature","properties":{"i":"111001","n":"Arbus"},"geometry":{"type":"Polygon","coordinates":[[[8.5026,39.7143],[8.5014,39.7107],[8.5065,39.7064],[8.5126,39.7043],[8.5188,39.6973],[8.5195,39.6938],[8.5213,39.6929],[8.5221,39.6912],[8.5176,39.6831],[8.5155,39.6773],[8.517,39.6719],[8.5185,39.6581],[8.5317,39.6517],[8.5271,39.6335],[8.5322,39.6097],[8.5475,39.5968],[8.5679,39.5909],[8.5684,39.5746],[8.5698,39.5713],[8.5717,39.5701],[8.5722,39.5658],[8.5695,39.5571],[8.5628,39.5571],[8.5525,39.5603],[8.5454,39.569],[8.5375,39.5687],[8.5259,39.5647],[8.5183,39.5592],[8.5178,39.5559],[8.5188,39.554],[8.5223,39.5504],[8.5336,39.5439],[8.5368,39.543],[8.5465,39.5447],[8.5676,39.5535],[8.572,39.5539],[8.5816,39.5527],[8.5838,39.5494],[8.5885,39.5491],[8.5925,39.5504],[8.5966,39.5497],[8.6155,39.5269],[8.6154,39.524],[8.6203,39.5141],[8.6156,39.5074],[8.6093,39.5039],[8.5919,39.4963],[8.5749,39.4917],[8.569,39.489],[8.5652,39.4861],[8.5616,39.4768],[8.5484,39.462],[8.547,39.4587],[8.545,39.4642],[8.5404,39.4673],[8.5351,39.4773],[8.5248,39.4795],[8.496,39.483],[8.4923,39.4801],[8.4892,39.4764],[8.4845,39.4734],[8.4797,39.4715],[8.47,39.47],[8.4515,39.4624],[8.4474,39.4641],[8.4364,39.471],[8.4294,39.4706],[8.415,39.4664],[8.4128,39.4639],[8.4105,39.4565],[8.3927,39.4468],[8.3896,39.4486],[8.3822,39.4558],[8.3844,39.4624],[8.3853,39.4714],[8.3875,39.4758],[8.3974,39.4838],[8.4033,39.4867],[8.4097,39.4928],[8.4334,39.5213],[8.4504,39.5447],[8.4538,39.5517],[8.4552,39.563],[8.463,39.5748],[8.4639,39.5888],[8.4662,39.593],[8.4692,39.5954],[8.4706,39.5989],[8.4709,39.6016],[8.4655,39.6162],[8.4554,39.6203],[8.452,39.6251],[8.4503,39.6335],[8.4519,39.6504],[8.4567,39.6701],[8.4452,39.6762],[8.4448,39.6777],[8.4454,39.6853],[8.4483,39.6859],[8.4514,39.6913],[8.4536,39.6974],[8.4553,39.709],[8.4549,39.7112],[8.4531,39.7124],[8.4485,39.7135],[8.447,39.7175],[8.4494,39.7293],[8.4472,39.7359],[8.4488,39.7415],[8.4455,39.748],[8.4443,39.7539],[8.444,39.7581],[8.4454,39.7593],[8.4512,39.7694],[8.4575,39.7697],[8.4602,39.7682],[8.4657,39.7615],[8.4776,39.7432],[8.4886,39.7298],[8.4977,39.7208],[8.4991,39.7173],[8.4935,39.716],[8.4885,39.7164],[8.4886,39.7156],[8.4934,39.714],[8.5026,39.7143]]]}},{"type":"Feature","properties":{"i":"111005","n":"Barumini"},"geometry":{"type":"Polygon","coordinates":[[[9.0561,39.697],[9.0513,39.6964],[9.0476,39.6895],[9.0479,39.6846],[9.0492,39.6816],[9.0484,39.6716],[9.049,39.6612],[9.0329,39.6673],[9.0217,39.6685],[9.0147,39.6704],[9.0023,39.6768],[8.9951,39.6845],[8.9781,39.6938],[8.9792,39.6978],[8.9876,39.7123],[8.9925,39.725],[9.0098,39.7202],[9.0167,39.7161],[9.0452,39.7034],[9.0561,39.697]]]}},{"type":"Feature","properties":{"i":"111012","n":"Collinas"},"geometry":{"type":"Polygon","coordinates":[[[8.8497,39.6649],[8.8495,39.664],[8.8531,39.663],[8.8581,39.6644],[8.8627,39.6615],[8.868,39.6512],[8.8683,39.6483],[8.8667,39.6451],[8.8594,39.641],[8.8522,39.6328],[8.8498,39.6225],[8.8292,39.6302],[8.8166,39.6338],[8.8104,39.6387],[8.8056,39.6405],[8.7891,39.6396],[8.784,39.6417],[8.7834,39.6436],[8.782,39.6493],[8.7841,39.6539],[8.8022,39.6566],[8.8355,39.6659],[8.8429,39.6641],[8.8497,39.6649]]]}},{"type":"Feature","properties":{"i":"111022","n":"Furtei"},"geometry":{"type":"Polygon","coordinates":[[[8.9665,39.591],[8.9698,39.5881],[8.9704,39.5867],[8.966,39.5793],[8.9595,39.5748],[8.9587,39.5726],[8.9597,39.5667],[8.9615,39.563],[8.963,39.5615],[8.9746,39.5549],[8.9739,39.5524],[8.9745,39.5475],[8.9786,39.5436],[8.9828,39.5342],[8.9828,39.5317],[8.979,39.53],[8.9683,39.5281],[8.9587,39.5238],[8.948,39.5238],[8.9425,39.5259],[8.9263,39.5388],[8.9287,39.5415],[8.9315,39.5569],[8.9282,39.567],[8.9288,39.5848],[8.9316,39.5885],[8.9392,39.5903],[8.9415,39.5916],[8.943,39.5945],[8.943,39.5981],[8.9439,39.5988],[8.9598,39.5923],[8.9665,39.591]]]}},{"type":"Feature","properties":{"i":"111024","n":"Genuri"},"geometry":{"type":"Polygon","coordinates":[[[8.9352,39.7549],[8.9419,39.7439],[8.932,39.7316],[8.9239,39.7252],[8.9203,39.7236],[8.9129,39.7237],[8.9017,39.733],[8.9052,39.7348],[8.9085,39.7387],[8.9139,39.7486],[8.9243,39.7584],[8.9296,39.7571],[8.9324,39.7572],[8.9352,39.7549]]]}},{"type":"Feature","properties":{"i":"111027","n":"Gesturi"},"geometry":{"type":"Polygon","coordinates":[[[9.0019,39.7612],[9.0067,39.7596],[9.0275,39.7596],[9.0359,39.7583],[9.053,39.7583],[9.062,39.7567],[9.0713,39.7525],[9.0736,39.7503],[9.0717,39.7429],[9.069,39.7422],[9.0551,39.7312],[9.0561,39.7262],[9.0615,39.7215],[9.0565,39.7113],[9.0566,39.7096],[9.0588,39.7057],[9.0561,39.697],[9.0452,39.7034],[9.0167,39.7161],[9.0098,39.7202],[8.9925,39.725],[8.993,39.7276],[8.9808,39.7433],[8.9689,39.7476],[8.9556,39.7501],[8.9522,39.753],[8.9466,39.7616],[8.9409,39.7648],[8.9416,39.7663],[8.9408,39.7694],[8.938,39.7721],[8.9358,39.7799],[8.9387,39.7828],[8.953,39.778],[8.9658,39.7772],[8.9786,39.7797],[8.9964,39.7682],[8.9974,39.766],[8.996,39.7634],[8.9974,39.7613],[9.0019,39.7612]]]}},{"type":"Feature","properties":{"i":"111031","n":"Gonnosfanadiga"},"geometry":{"type":"MultiPolygon","coordinates":[[[[8.7374,39.5037],[8.6808,39.4838],[8.6654,39.4759],[8.6649,39.4685],[8.6702,39.4531],[8.655,39.4419],[8.638,39.4355],[8.612,39.4235],[8.6033,39.4251],[8.6006,39.4275],[8.59,39.4318],[8.584,39.4315],[8.58,39.437],[8.5829,39.4434],[8.5822,39.4445],[8.5744,39.4478],[8.5667,39.4487],[8.5626,39.4501],[8.547,39.4587],[8.5484,39.462],[8.5616,39.4768],[8.5652,39.4861],[8.569,39.489],[8.5749,39.4917],[8.5919,39.4963],[8.6093,39.5039],[8.6156,39.5074],[8.6203,39.5141],[8.6257,39.5126],[8.6318,39.5081],[8.6346,39.5074],[8.6373,39.5082],[8.648,39.517],[8.6535,39.5264],[8.6597,39.5301],[8.6658,39.5357],[8.674,39.5491],[8.679,39.5546],[8.6902,39.5634],[8.6926,39.5622],[8.7072,39.5675],[8.7127,39.5485],[8.7262,39.5256],[8.7292,39.5152],[8.7353,39.5111],[8.74,39.5063],[8.7374,39.5037]]],[[[8.5573,39.5944],[8.5472,39.597],[8.5322,39.6097],[8.5271,39.6335],[8.5294,39.6421],[8.5348,39.6434],[8.568,39.6368],[8.5737,39.6296],[8.571,39.6221],[8.5679,39.6093],[8.5637,39.6056],[8.5573,39.5944]]]]}},{"type":"Feature","properties":{"i":"111034","n":"Guspini"},"geometry":{"type":"Polygon","coordinates":[[[8.608,39.6899],[8.6156,39.6777],[8.6238,39.6667],[8.6259,39.6624],[8.6259,39.6592],[8.6278,39.6551],[8.6306,39.6533],[8.644,39.6496],[8.6544,39.6435],[8.6616,39.6413],[8.6723,39.6302],[8.6809,39.6195],[8.6788,39.6153],[8.679,39.6142],[8.6885,39.6085],[8.6877,39.5995],[8.691,39.5794],[8.6902,39.5634],[8.679,39.5546],[8.674,39.5491],[8.6658,39.5357],[8.6597,39.5301],[8.6535,39.5264],[8.648,39.517],[8.6373,39.5082],[8.6346,39.5074],[8.6313,39.5084],[8.6257,39.5126],[8.6203,39.5141],[8.6154,39.524],[8.6155,39.5269],[8.5966,39.5497],[8.5925,39.5504],[8.5885,39.5491],[8.5838,39.5494],[8.5816,39.5527],[8.572,39.5539],[8.5676,39.5535],[8.5465,39.5447],[8.5368,39.543],[8.5336,39.5439],[8.5223,39.5504],[8.5178,39.5556],[8.5183,39.5592],[8.5259,39.5647],[8.5375,39.5687],[8.5454,39.569],[8.5525,39.5603],[8.5628,39.5571],[8.5695,39.5571],[8.5722,39.5658],[8.5717,39.5701],[8.5698,39.5713],[8.5684,39.5746],[8.5679,39.5909],[8.5573,39.5944],[8.5637,39.6056],[8.5679,39.6093],[8.571,39.6221],[8.5737,39.6296],[8.568,39.6368],[8.5348,39.6434],[8.5294,39.6421],[8.5317,39.6517],[8.5185,39.6581],[8.5155,39.6784],[8.522,39.6904],[8.5213,39.6929],[8.539,39.6933],[8.546,39.6942],[8.5493,39.6961],[8.5544,39.6948],[8.5602,39.692],[8.5667,39.6872],[8.5791,39.6875],[8.5902,39.6916],[8.608,39.6899]]]}},{"type":"Feature","properties":{"i":"111037","n":"Las Plassas"},"geometry":{"type":"Polygon","coordinates":[[[9.0141,39.6707],[9.0102,39.6685],[9.0044,39.6674],[8.9948,39.6668],[8.9771,39.6625],[8.9663,39.6588],[8.9671,39.6575],[8.958,39.657],[8.9589,39.6593],[8.9559,39.6685],[8.9601,39.6828],[8.969,39.6896],[8.9781,39.6938],[8.9951,39.6845],[9.0023,39.6768],[9.0141,39.6707]]]}},{"type":"Feature","properties":{"i":"111038","n":"Lunamatrona"},"geometry":{"type":"Polygon","coordinates":[[[8.9027,39.6586],[8.9125,39.6544],[8.9218,39.6484],[8.928,39.6436],[8.9327,39.6381],[8.9353,39.6365],[8.9349,39.6317],[8.9321,39.6243],[8.9228,39.6124],[8.92,39.6101],[8.9025,39.6114],[8.8985,39.6125],[8.8896,39.6228],[8.8842,39.6326],[8.8779,39.6391],[8.868,39.6467],[8.868,39.6512],[8.8627,39.6615],[8.8701,39.6621],[8.8722,39.6607],[8.8815,39.6579],[8.9012,39.6579],[8.9027,39.6586]]]}},{"type":"Feature","properties":{"i":"111052","n":"Pabillonis"},"geometry":{"type":"Polygon","coordinates":[[[8.7431,39.6271],[8.7482,39.6237],[8.7497,39.6188],[8.7447,39.6014],[8.7406,39.5925],[8.742,39.5872],[8.7361,39.5834],[8.719,39.5749],[8.7129,39.5702],[8.7072,39.5675],[8.6926,39.5622],[8.6902,39.5634],[8.691,39.5794],[8.6877,39.5995],[8.6885,39.6085],[8.679,39.6142],[8.6788,39.6153],[8.6809,39.6195],[8.6713,39.6312],[8.684,39.64],[8.6965,39.6454],[8.7046,39.6387],[8.7171,39.6376],[8.7273,39.6394],[8.7298,39.6389],[8.7431,39.6271]]]}},{"type":"Feature","properties":{"i":"111053","n":"Pauli Arbarei"},"geometry":{"type":"Polygon","coordinates":[[[8.9399,39.6782],[8.9465,39.6803],[8.9562,39.6703],[8.9559,39.6685],[8.9589,39.6593],[8.958,39.657],[8.9586,39.6543],[8.9561,39.6496],[8.9349,39.6368],[8.9327,39.6381],[8.928,39.6436],[8.9218,39.6484],[8.9125,39.6544],[8.9027,39.6586],[8.9041,39.6646],[8.9077,39.6707],[8.9092,39.6749],[8.9098,39.6771],[8.9083,39.6783],[8.913,39.6768],[8.9151,39.6777],[8.9153,39.6792],[8.9175,39.6806],[8.9328,39.6766],[8.9368,39.6766],[8.9399,39.6782]]]}},{"type":"Feature","properties":{"i":"111059","n":"Samassi"},"geometry":{"type":"Polygon","coordinates":[[[8.9263,39.5388],[8.923,39.5352],[8.9205,39.5303],[8.9261,39.5222],[8.9323,39.5177],[8.9353,39.5093],[8.9355,39.5041],[8.9427,39.4801],[8.9505,39.4692],[8.9553,39.4657],[8.9424,39.4657],[8.9329,39.464],[8.9236,39.459],[8.9149,39.456],[8.8995,39.4534],[8.8901,39.4492],[8.8844,39.4486],[8.8692,39.4698],[8.86,39.4839],[8.8636,39.4857],[8.8715,39.4788],[8.8744,39.4791],[8.8783,39.4806],[8.8743,39.498],[8.8822,39.5107],[8.8916,39.5151],[8.9,39.5234],[8.9078,39.5329],[8.9109,39.5352],[8.9212,39.5388],[8.9263,39.5388]]]}},{"type":"Feature","properties":{"i":"111062","n":"San Gavino Monreale"},"geometry":{"type":"Polygon","coordinates":[[[8.855,39.5723],[8.8449,39.5516],[8.8392,39.5359],[8.8351,39.5288],[8.8312,39.5283],[8.8243,39.5232],[8.8182,39.5152],[8.8116,39.5134],[8.7523,39.5064],[8.7374,39.5037],[8.74,39.5063],[8.7353,39.5111],[8.7292,39.5152],[8.7262,39.5256],[8.7127,39.5485],[8.7072,39.5675],[8.7129,39.5702],[8.719,39.5749],[8.7361,39.5834],[8.742,39.5872],[8.7406,39.5925],[8.7424,39.5953],[8.7484,39.5956],[8.7651,39.5953],[8.7814,39.5884],[8.7911,39.5832],[8.798,39.583],[8.8042,39.5841],[8.8146,39.5829],[8.8332,39.5777],[8.8446,39.5763],[8.8475,39.5744],[8.8491,39.5712],[8.8519,39.5711],[8.855,39.5723]]]}},{"type":"Feature","properties":{"i":"111067","n":"Sanluri"},"geometry":{"type":"Polygon","coordinates":[[[8.92,39.6101],[8.9321,39.602],[8.9416,39.5977],[8.943,39.5981],[8.9433,39.597],[8.9426,39.5932],[8.9415,39.5916],[8.9392,39.5903],[8.9316,39.5885],[8.9288,39.5848],[8.9282,39.567],[8.9315,39.5569],[8.9287,39.5415],[8.9263,39.5388],[8.9212,39.5388],[8.9101,39.5347],[8.8916,39.5151],[8.8822,39.5107],[8.8743,39.498],[8.8783,39.4806],[8.8744,39.4791],[8.8712,39.4789],[8.8676,39.4829],[8.8636,39.4857],[8.86,39.4839],[8.848,39.4846],[8.8322,39.4823],[8.8242,39.4869],[8.8216,39.4895],[8.8164,39.5026],[8.8147,39.5115],[8.8243,39.5232],[8.8312,39.5283],[8.8351,39.5288],[8.8392,39.5359],[8.8449,39.5516],[8.855,39.5723],[8.8566,39.5781],[8.8694,39.5952],[8.8738,39.5997],[8.88,39.6036],[8.8836,39.6072],[8.8878,39.6093],[8.8952,39.6095],[8.9025,39.6114],[8.92,39.6101]]]}},{"type":"Feature","properties":{"i":"111072","n":"Sardara"},"geometry":{"type":"Polygon","coordinates":[[[8.8498,39.6225],[8.88,39.6036],[8.8738,39.5997],[8.8694,39.5952],[8.8566,39.5781],[8.855,39.5723],[8.8519,39.5711],[8.8491,39.5712],[8.8475,39.5744],[8.8446,39.5763],[8.8332,39.5777],[8.8146,39.5829],[8.8042,39.5841],[8.798,39.583],[8.7911,39.5832],[8.7814,39.5884],[8.7651,39.5953],[8.7424,39.5953],[8.7497,39.6188],[8.7482,39.6237],[8.7432,39.6272],[8.7499,39.6329],[8.7641,39.6358],[8.7709,39.6392],[8.776,39.6427],[8.782,39.6493],[8.784,39.6417],[8.7867,39.6403],[8.7891,39.6396],[8.7978,39.6396],[8.8056,39.6405],[8.8104,39.6387],[8.8166,39.6338],[8.8292,39.6302],[8.8498,39.6225]]]}},{"type":"Feature","properties":{"i":"111073","n":"Segariu"},"geometry":{"type":"Polygon","coordinates":[[[9.0115,39.5867],[9.0126,39.5841],[9.0099,39.5822],[9.0062,39.5772],[9.0027,39.568],[9.0015,39.5591],[8.9997,39.5537],[8.9948,39.5463],[8.9842,39.5364],[8.9828,39.5342],[8.9786,39.5436],[8.9745,39.5475],[8.9739,39.5524],[8.9746,39.5549],[8.963,39.5615],[8.9615,39.563],[8.9597,39.5667],[8.9587,39.5726],[8.9595,39.5748],[8.966,39.5793],[8.9704,39.5867],[8.9698,39.5881],[8.9665,39.591],[8.9719,39.5936],[8.9754,39.5967],[8.9811,39.5977],[9.0031,39.5841],[9.004,39.5838],[9.0115,39.5867]]]}},{"type":"Feature","properties":{"i":"111077","n":"Serramanna"},"geometry":{"type":"Polygon","coordinates":[[[8.86,39.4839],[8.8692,39.4698],[8.8844,39.4486],[8.8901,39.4492],[8.8995,39.4534],[8.9149,39.456],[8.9236,39.459],[8.9329,39.464],[8.9424,39.4657],[8.957,39.4657],[8.9593,39.4612],[8.9693,39.4499],[8.9777,39.4301],[8.9786,39.4259],[8.9782,39.4221],[8.9684,39.4154],[8.9618,39.412],[8.9506,39.4083],[8.9299,39.3996],[8.9083,39.3982],[8.8848,39.3983],[8.8724,39.4004],[8.8372,39.4104],[8.8274,39.4148],[8.8286,39.4177],[8.8315,39.4441],[8.8308,39.4625],[8.8268,39.4784],[8.827,39.4857],[8.8322,39.4823],[8.848,39.4846],[8.86,39.4839]]]}},{"type":"Feature","properties":{"i":"111078","n":"Serrenti"},"geometry":{"type":"Polygon","coordinates":[[[8.9828,39.5317],[8.9991,39.5278],[9.0075,39.5277],[9.0116,39.5172],[9.0096,39.5109],[9.0094,39.5077],[9.0139,39.497],[9.0151,39.4922],[9.0148,39.4864],[9.0109,39.4804],[8.9908,39.4702],[8.9881,39.4681],[8.9719,39.4638],[8.9593,39.4625],[8.957,39.4657],[8.9553,39.4657],[8.9505,39.4692],[8.9427,39.4801],[8.9355,39.5041],[8.9353,39.5093],[8.9323,39.5177],[8.9261,39.5222],[8.9205,39.5303],[8.923,39.5352],[8.9263,39.5388],[8.9425,39.5259],[8.9493,39.5235],[8.9587,39.5238],[8.9683,39.5281],[8.979,39.53],[8.9828,39.5317]]]}},{"type":"Feature","properties":{"i":"111080","n":"Setzu"},"geometry":{"type":"Polygon","coordinates":[[[8.9364,39.7098],[8.9347,39.7091],[8.9296,39.7119],[8.9203,39.7236],[8.9249,39.7259],[8.932,39.7316],[8.9419,39.7439],[8.9352,39.7549],[8.9387,39.7559],[8.9412,39.7576],[8.9409,39.7648],[8.9466,39.7616],[8.9522,39.753],[8.9564,39.7497],[8.9511,39.7428],[8.9526,39.7387],[8.9513,39.7325],[8.9476,39.7238],[8.9425,39.7163],[8.9381,39.7128],[8.9364,39.7098]]]}},{"type":"Feature","properties":{"i":"111083","n":"Siddi"},"geometry":{"type":"Polygon","coordinates":[[[8.9083,39.6783],[8.9098,39.6771],[8.9092,39.6749],[8.9077,39.6707],[8.9041,39.6646],[8.9024,39.658],[8.8815,39.6579],[8.8722,39.6607],[8.8701,39.6621],[8.8627,39.6615],[8.8581,39.6644],[8.8531,39.663],[8.8495,39.664],[8.8506,39.6659],[8.8551,39.6681],[8.8572,39.6687],[8.8584,39.6679],[8.8618,39.6682],[8.8641,39.6738],[8.865,39.6826],[8.8687,39.6874],[8.8766,39.6923],[8.8785,39.6881],[8.8815,39.6856],[8.8858,39.6866],[8.8921,39.6853],[8.8967,39.6822],[8.9083,39.6783]]]}},{"type":"Feature","properties":{"i":"111091","n":"Tuili"},"geometry":{"type":"Polygon","coordinates":[[[8.9781,39.6938],[8.969,39.6896],[8.9601,39.6828],[8.9562,39.6703],[8.9465,39.6803],[8.9388,39.6922],[8.9406,39.6987],[8.9367,39.7082],[8.9366,39.7108],[8.9425,39.7163],[8.9476,39.7238],[8.9513,39.7325],[8.9526,39.7387],[8.9511,39.7428],[8.9564,39.7497],[8.9689,39.7476],[8.9808,39.7433],[8.993,39.7276],[8.9876,39.7123],[8.9792,39.6978],[8.9781,39.6938]]]}},{"type":"Feature","properties":{"i":"111092","n":"Turri"},"geometry":{"type":"Polygon","coordinates":[[[8.9203,39.7236],[8.9296,39.7119],[8.9347,39.7091],[8.9364,39.7098],[8.9406,39.6987],[8.9388,39.6922],[8.9465,39.6803],[8.9399,39.6782],[8.9335,39.6818],[8.9295,39.687],[8.9152,39.6955],[8.9051,39.7029],[8.8936,39.7092],[8.9028,39.7129],[8.9115,39.7206],[8.9129,39.7237],[8.9203,39.7236]]]}},{"type":"Feature","properties":{"i":"111094","n":"Ussaramanna"},"geometry":{"type":"Polygon","coordinates":[[[8.9399,39.6782],[8.9368,39.6766],[8.9328,39.6766],[8.9175,39.6806],[8.9153,39.6792],[8.9151,39.6777],[8.913,39.6768],[8.8967,39.6822],[8.8921,39.6853],[8.8858,39.6866],[8.8815,39.6856],[8.8785,39.6881],[8.8766,39.6923],[8.8787,39.6946],[8.8798,39.7006],[8.888,39.7061],[8.893,39.7078],[8.8936,39.7092],[8.9051,39.7029],[8.9152,39.6955],[8.9295,39.687],[8.9335,39.6818],[8.9399,39.6782]]]}},{"type":"Feature","properties":{"i":"111096","n":"Villacidro"},"geometry":{"type":"Polygon","coordinates":[[[8.8182,39.5152],[8.8146,39.5111],[8.8153,39.5057],[8.8216,39.4895],[8.8242,39.4869],[8.827,39.4857],[8.8268,39.4784],[8.8308,39.4625],[8.8315,39.4441],[8.8286,39.4177],[8.8261,39.4116],[8.8213,39.4074],[8.7993,39.4079],[8.7926,39.407],[8.7876,39.405],[8.7815,39.4049],[8.7736,39.4065],[8.7573,39.405],[8.7343,39.3957],[8.6993,39.375],[8.6958,39.3791],[8.6913,39.382],[8.6783,39.376],[8.6792,39.3781],[8.6761,39.379],[8.6649,39.3785],[8.652,39.3794],[8.6476,39.3801],[8.64,39.383],[8.6374,39.385],[8.636,39.3875],[8.6275,39.4104],[8.617,39.418],[8.6168,39.4256],[8.638,39.4355],[8.655,39.4419],[8.6702,39.4531],[8.6649,39.4685],[8.6652,39.4754],[8.6808,39.4838],[8.7374,39.5037],[8.7523,39.5064],[8.8116,39.5134],[8.8182,39.5152]]]}},{"type":"Feature","properties":{"i":"111097","n":"Villamar"},"geometry":{"type":"Polygon","coordinates":[[[8.9671,39.6575],[8.9776,39.6424],[8.984,39.6383],[9.005,39.6184],[9.0174,39.6178],[9.0261,39.6184],[9.0141,39.5874],[9.004,39.5838],[8.9811,39.5977],[8.9754,39.5967],[8.9719,39.5936],[8.9665,39.591],[8.9598,39.5923],[8.9458,39.5983],[8.9439,39.5988],[8.9419,39.5976],[8.9344,39.6007],[8.92,39.6101],[8.9228,39.6124],[8.9321,39.6243],[8.9349,39.6317],[8.9349,39.6368],[8.9561,39.6496],[8.9586,39.6543],[8.958,39.657],[8.9671,39.6575]]]}},{"type":"Feature","properties":{"i":"111100","n":"Villanovaforru"},"geometry":{"type":"Polygon","coordinates":[[[8.9025,39.6114],[8.8952,39.6095],[8.8878,39.6093],[8.8836,39.6072],[8.88,39.6036],[8.8499,39.6222],[8.8522,39.6328],[8.8594,39.641],[8.8653,39.6441],[8.868,39.6467],[8.8779,39.6391],[8.8842,39.6326],[8.8896,39.6228],[8.8985,39.6125],[8.9025,39.6114]]]}},{"type":"Feature","properties":{"i":"111101","n":"Villanovafranca"},"geometry":{"type":"Polygon","coordinates":[[[9.049,39.6612],[9.047,39.6555],[9.0465,39.6409],[9.0352,39.6263],[9.0261,39.6184],[9.0235,39.6178],[9.005,39.6184],[8.984,39.6383],[8.9776,39.6424],[8.9663,39.6588],[8.9889,39.6656],[9.0074,39.668],[9.0141,39.6707],[9.0217,39.6685],[9.0329,39.6673],[9.049,39.6612]]]}},{"type":"Feature","properties":{"i":"111002","n":"Armungia"},"geometry":{"type":"Polygon","coordinates":[[[9.4877,39.5491],[9.4785,39.5404],[9.4755,39.5396],[9.4744,39.5283],[9.4734,39.5279],[9.4565,39.5246],[9.4514,39.5251],[9.4413,39.5233],[9.429,39.5193],[9.4182,39.5144],[9.4108,39.5141],[9.4019,39.5149],[9.3974,39.5139],[9.3868,39.5113],[9.3568,39.5005],[9.3526,39.4995],[9.3475,39.499],[9.3435,39.5026],[9.3403,39.5079],[9.3399,39.5097],[9.3416,39.514],[9.3494,39.5249],[9.3502,39.5292],[9.3494,39.5334],[9.3497,39.5367],[9.3575,39.5381],[9.3689,39.5381],[9.3791,39.5426],[9.3843,39.5532],[9.3901,39.556],[9.4035,39.5583],[9.4071,39.5617],[9.4257,39.5672],[9.4274,39.5682],[9.4419,39.583],[9.4471,39.5764],[9.452,39.5737],[9.4649,39.5688],[9.4726,39.5585],[9.4877,39.5491]]]}},{"type":"Feature","properties":{"i":"111003","n":"Ballao"},"geometry":{"type":"Polygon","coordinates":[[[9.4419,39.583],[9.4274,39.5682],[9.4257,39.5672],[9.4071,39.5617],[9.4035,39.5583],[9.3901,39.556],[9.3843,39.5532],[9.3791,39.5426],[9.3689,39.5381],[9.3575,39.5381],[9.3378,39.5353],[9.3366,39.5377],[9.3312,39.5603],[9.3212,39.5708],[9.3138,39.5747],[9.3147,39.5777],[9.3304,39.5782],[9.3426,39.5846],[9.3726,39.5841],[9.3869,39.5866],[9.3895,39.5885],[9.3966,39.5994],[9.3973,39.6039],[9.3952,39.6096],[9.3943,39.6099],[9.396,39.6117],[9.4023,39.6146],[9.4167,39.6172],[9.4197,39.6169],[9.4313,39.6091],[9.4268,39.6072],[9.432,39.6021],[9.4371,39.5921],[9.4381,39.5875],[9.4419,39.583]]]}},{"type":"Feature","properties":{"i":"111004","n":"Barrali"},"geometry":{"type":"Polygon","coordinates":[[[9.1375,39.4699],[9.1288,39.4702],[9.1255,39.4693],[9.1192,39.4658],[9.1133,39.4596],[9.0981,39.4593],[9.091,39.4624],[9.08,39.4723],[9.0881,39.4803],[9.0899,39.4838],[9.0916,39.4889],[9.0933,39.4993],[9.1217,39.4841],[9.1245,39.479],[9.136,39.4726],[9.1373,39.4715],[9.1375,39.4699]]]}},{"type":"Feature","properties":{"i":"111007","n":"Burcei"},"geometry":{"type":"Polygon","coordinates":[[[9.4096,39.4243],[9.4106,39.4178],[9.4153,39.4044],[9.4232,39.398],[9.4266,39.3966],[9.4412,39.3957],[9.4469,39.3899],[9.4527,39.382],[9.4516,39.3749],[9.4479,39.3726],[9.4493,39.3695],[9.4565,39.3611],[9.4612,39.3601],[9.4662,39.3602],[9.4703,39.3591],[9.4683,39.3516],[9.459,39.3344],[9.4554,39.323],[9.4467,39.3199],[9.4382,39.3184],[9.4284,39.3106],[9.4276,39.307],[9.4251,39.3064],[9.42,39.3066],[9.414,39.3098],[9.4108,39.3155],[9.4053,39.3174],[9.3987,39.3181],[9.392,39.3148],[9.3755,39.3123],[9.3664,39.3151],[9.3603,39.3195],[9.3475,39.3342],[9.3313,39.3501],[9.3704,39.3961],[9.3687,39.4234],[9.4096,39.4243]]]}},{"type":"Feature","properties":{"i":"111011","n":"Castiadas"},"geometry":{"type":"Polygon","coordinates":[[[9.5269,39.3146],[9.5257,39.3078],[9.5273,39.2925],[9.5364,39.2914],[9.5538,39.2854],[9.5666,39.2845],[9.5701,39.2819],[9.5522,39.2626],[9.5556,39.2507],[9.5606,39.2447],[9.569,39.2418],[9.5715,39.2369],[9.568,39.2241],[9.5687,39.2138],[9.567,39.2083],[9.5646,39.206],[9.5633,39.2013],[9.5631,39.1947],[9.565,39.1891],[9.5704,39.1864],[9.5749,39.1866],[9.5779,39.1844],[9.5791,39.1782],[9.5789,39.1756],[9.5759,39.1727],[9.574,39.172],[9.5704,39.1674],[9.567,39.1572],[9.5684,39.1533],[9.563,39.1539],[9.5541,39.1668],[9.537,39.1836],[9.5298,39.1889],[9.5214,39.189],[9.4932,39.2048],[9.4923,39.2061],[9.4864,39.2071],[9.45,39.2618],[9.4595,39.2705],[9.4719,39.289],[9.4856,39.2967],[9.4893,39.3001],[9.4972,39.3107],[9.5085,39.3185],[9.5222,39.3151],[9.5269,39.3146]]]}},{"type":"Feature","properties":{"i":"111013","n":"Decimoputzu"},"geometry":{"type":"Polygon","coordinates":[[[8.9506,39.3345],[8.9402,39.3252],[8.9287,39.329],[8.9222,39.3282],[8.8743,39.3113],[8.8669,39.3071],[8.8612,39.3147],[8.8525,39.3185],[8.8348,39.3247],[8.8224,39.3266],[8.8372,39.343],[8.8505,39.3518],[8.8481,39.3606],[8.8429,39.3739],[8.8429,39.3755],[8.8456,39.3797],[8.8504,39.3843],[8.8667,39.3756],[8.8777,39.3687],[8.8849,39.363],[8.8953,39.3571],[8.8998,39.3583],[8.9147,39.3571],[8.9203,39.3549],[8.9262,39.3508],[8.9292,39.35],[8.9454,39.3511],[8.9506,39.3345]]]}},{"type":"Feature","properties":{"i":"111014","n":"Dolianova"},"geometry":{"type":"Polygon","coordinates":[[[9.2421,39.46],[9.2406,39.4508],[9.2537,39.4398],[9.269,39.4311],[9.2726,39.4253],[9.2778,39.4203],[9.2807,39.4144],[9.281,39.4132],[9.274,39.4088],[9.2721,39.3923],[9.2666,39.376],[9.2588,39.3666],[9.2496,39.3611],[9.2428,39.3484],[9.2397,39.3467],[9.2309,39.3449],[9.2242,39.3445],[9.2215,39.3426],[9.19,39.351],[9.1866,39.3511],[9.1806,39.3487],[9.1729,39.348],[9.161,39.3505],[9.1585,39.3547],[9.1587,39.3556],[9.1653,39.3632],[9.1659,39.365],[9.1619,39.3704],[9.1701,39.3791],[9.1672,39.3814],[9.1497,39.3791],[9.1373,39.3828],[9.1348,39.3841],[9.1306,39.3918],[9.1484,39.3963],[9.1561,39.4014],[9.1585,39.4018],[9.1631,39.4006],[9.1675,39.3896],[9.1819,39.3929],[9.1891,39.4015],[9.1912,39.4048],[9.191,39.4059],[9.1964,39.413],[9.201,39.4131],[9.2026,39.4124],[9.2127,39.4235],[9.2157,39.4311],[9.2152,39.4394],[9.2135,39.4413],[9.2135,39.4458],[9.2168,39.4552],[9.2203,39.461],[9.2339,39.4679],[9.2404,39.4686],[9.2422,39.4674],[9.2429,39.4642],[9.2421,39.46]]]}},{"type":"Feature","properties":{"i":"111015","n":"Domus de Maria"},"geometry":{"type":"MultiPolygon","coordinates":[[[[8.8658,38.882],[8.8653,38.8813],[8.8636,38.8819],[8.8642,38.8829],[8.8658,38.882]]],[[[8.8913,38.8976],[8.8905,38.8968],[8.8898,38.8982],[8.8913,38.8976]]],[[[8.7835,38.8982],[8.7786,38.9037],[8.7786,38.9089],[8.7818,38.9116],[8.7748,38.9154],[8.7738,38.9209],[8.7703,38.9286],[8.7706,38.9307],[8.7723,38.9347],[8.7738,38.9358],[8.7914,38.9376],[8.7943,38.9372],[8.7968,38.9348],[8.7969,38.9198],[8.7945,38.9136],[8.7861,38.9065],[8.7835,38.8982]]],[[[8.9109,38.9155],[8.9064,38.9084],[8.9027,38.9053],[8.8916,38.8991],[8.8864,38.8972],[8.8608,38.8824],[8.8552,38.8758],[8.8459,38.8764],[8.841,38.8775],[8.8388,38.8804],[8.8397,38.8826],[8.8384,38.8895],[8.8347,38.8973],[8.8358,38.9143],[8.833,38.9253],[8.8273,38.9332],[8.8212,38.9488],[8.8269,38.954],[8.8273,38.9552],[8.8244,38.9651],[8.8227,38.9795],[8.8146,39.005],[8.8156,39.018],[8.8239,39.0369],[8.8295,39.043],[8.8319,39.0474],[8.8487,39.0248],[8.8621,39.0098],[8.8814,38.9856],[8.8868,38.9774],[8.9098,38.9571],[8.9119,38.9522],[8.9111,38.941],[8.9037,38.9242],[8.9059,38.9185],[8.9109,38.9155]]]]}},{"type":"Feature","properties":{"i":"111017","n":"Donori"},"geometry":{"type":"Polygon","coordinates":[[[9.1844,39.4465],[9.185,39.4417],[9.1844,39.434],[9.1808,39.4279],[9.1788,39.4268],[9.1629,39.4202],[9.1549,39.4183],[9.1494,39.4185],[9.1445,39.4211],[9.1361,39.4234],[9.1255,39.4194],[9.1197,39.4156],[9.1166,39.4126],[9.1141,39.4122],[9.1129,39.4148],[9.1077,39.4173],[9.101,39.4234],[9.0895,39.4371],[9.0852,39.4473],[9.0829,39.45],[9.0842,39.4521],[9.0981,39.4593],[9.1138,39.4598],[9.1192,39.4658],[9.1255,39.4693],[9.1288,39.4702],[9.1375,39.4699],[9.1481,39.4656],[9.1608,39.4536],[9.1652,39.4521],[9.1802,39.4507],[9.1832,39.4489],[9.1844,39.4465]]]}},{"type":"Feature","properties":{"i":"111018","n":"Escalaplano"},"geometry":{"type":"Polygon","coordinates":[[[9.4018,39.6862],[9.4023,39.6854],[9.4025,39.6776],[9.4017,39.6738],[9.3974,39.6679],[9.397,39.6603],[9.3981,39.6534],[9.4055,39.6403],[9.4123,39.6329],[9.4182,39.628],[9.4186,39.6228],[9.4167,39.6172],[9.4023,39.6146],[9.3968,39.6123],[9.3945,39.6102],[9.3973,39.6039],[9.3966,39.5994],[9.389,39.5879],[9.3869,39.5866],[9.3726,39.5841],[9.3436,39.5847],[9.3304,39.5782],[9.3147,39.5777],[9.3127,39.5818],[9.3133,39.5834],[9.3129,39.5868],[9.3114,39.5896],[9.3029,39.5938],[9.2986,39.5924],[9.2928,39.5948],[9.2923,39.596],[9.2934,39.6002],[9.2993,39.6045],[9.3018,39.6045],[9.3063,39.6066],[9.312,39.6192],[9.3099,39.6285],[9.3067,39.6321],[9.3034,39.643],[9.3088,39.6525],[9.3103,39.6608],[9.3142,39.6667],[9.3148,39.6711],[9.3103,39.674],[9.3136,39.6759],[9.3212,39.6832],[9.3264,39.6825],[9.3534,39.6882],[9.3628,39.6883],[9.3654,39.6908],[9.3725,39.6937],[9.3814,39.6955],[9.3844,39.6953],[9.3886,39.6929],[9.394,39.6881],[9.4018,39.6862]]]}},{"type":"Feature","properties":{"i":"111019","n":"Escolca"},"geometry":{"type":"MultiPolygon","coordinates":[[[[9.0742,39.6583],[9.0746,39.6563],[9.0675,39.6508],[9.0584,39.6382],[9.0465,39.6409],[9.047,39.6555],[9.0491,39.663],[9.0554,39.66],[9.062,39.6584],[9.0742,39.6583]]],[[[9.1474,39.6775],[9.1373,39.6726],[9.1277,39.6746],[9.1195,39.6752],[9.1099,39.6826],[9.1092,39.6848],[9.1126,39.6943],[9.1143,39.7013],[9.1148,39.7076],[9.1176,39.7123],[9.1265,39.7107],[9.1305,39.7086],[9.1419,39.7],[9.1482,39.6935],[9.1523,39.6851],[9.1526,39.6829],[9.1516,39.6805],[9.1474,39.6775]]]]}},{"type":"Feature","properties":{"i":"111020","n":"Esterzili"},"geometry":{"type":"Polygon","coordinates":[[[9.3968,39.7343],[9.3862,39.7251],[9.3856,39.7176],[9.3862,39.7148],[9.3783,39.7101],[9.3491,39.7022],[9.3534,39.6882],[9.3264,39.6825],[9.3212,39.6832],[9.3136,39.6759],[9.3103,39.674],[9.3078,39.6787],[9.2998,39.6857],[9.2994,39.6886],[9.3004,39.6948],[9.2978,39.7018],[9.2868,39.7135],[9.2747,39.7191],[9.2619,39.7288],[9.2582,39.7279],[9.2515,39.7315],[9.2501,39.7346],[9.2508,39.7371],[9.2502,39.738],[9.2468,39.741],[9.2415,39.7423],[9.2469,39.7447],[9.2565,39.7441],[9.2585,39.7432],[9.258,39.7401],[9.2595,39.7383],[9.262,39.7375],[9.2634,39.7383],[9.265,39.7418],[9.2648,39.748],[9.2578,39.7618],[9.2573,39.7658],[9.2597,39.7669],[9.2626,39.7736],[9.2644,39.7802],[9.264,39.7873],[9.2782,39.7966],[9.2854,39.8037],[9.2929,39.8072],[9.2974,39.8082],[9.2999,39.8069],[9.3069,39.8004],[9.3163,39.7962],[9.3281,39.7923],[9.3395,39.7866],[9.3537,39.7753],[9.3562,39.7638],[9.3598,39.7541],[9.3659,39.7499],[9.375,39.7481],[9.3948,39.7379],[9.3975,39.7363],[9.3968,39.7343]]]}},{"type":"Feature","properties":{"i":"111023","n":"Genoni"},"geometry":{"type":"Polygon","coordinates":[[[9.0418,39.803],[9.0422,39.8003],[9.0395,39.799],[9.0311,39.7924],[9.0261,39.7844],[9.0176,39.7791],[9.0093,39.7687],[9.0071,39.7644],[9.0019,39.7612],[8.9974,39.7613],[8.996,39.7634],[8.9974,39.766],[8.9964,39.7682],[8.9786,39.7797],[8.9658,39.7772],[8.953,39.778],[8.9387,39.7828],[8.9358,39.7795],[8.938,39.7721],[8.9408,39.7694],[8.9416,39.7663],[8.9409,39.7648],[8.9414,39.7585],[8.9397,39.7564],[8.9352,39.7549],[8.9324,39.7572],[8.9296,39.7571],[8.9207,39.7591],[8.9128,39.7674],[8.904,39.7721],[8.896,39.7739],[8.893,39.773],[8.8866,39.7875],[8.8864,39.7924],[8.8895,39.7946],[8.9036,39.7957],[8.9113,39.795],[8.9362,39.7912],[8.9382,39.7903],[8.9406,39.7849],[8.9508,39.7791],[8.9531,39.7786],[8.9549,39.7834],[8.9682,39.7971],[8.9746,39.8026],[8.9854,39.8207],[8.9866,39.8257],[9.0077,39.8277],[9.0097,39.8278],[9.0136,39.8262],[9.0313,39.8153],[9.0297,39.8131],[9.0294,39.8108],[9.0394,39.8058],[9.0418,39.803]]]}},{"type":"Feature","properties":{"i":"111025","n":"Gergei"},"geometry":{"type":"Polygon","coordinates":[[[9.1074,39.7188],[9.102,39.7134],[9.1013,39.7117],[9.1176,39.7123],[9.1148,39.7076],[9.1143,39.7013],[9.1126,39.6943],[9.1091,39.6842],[9.1112,39.6813],[9.1195,39.6752],[9.1114,39.6745],[9.1066,39.6714],[9.1022,39.6697],[9.0938,39.6671],[9.0887,39.6668],[9.0839,39.6654],[9.0815,39.6643],[9.0742,39.6583],[9.062,39.6584],[9.0554,39.66],[9.0491,39.663],[9.0484,39.6716],[9.0492,39.6816],[9.0479,39.6846],[9.0476,39.6895],[9.0513,39.6964],[9.0561,39.697],[9.0588,39.7057],[9.0566,39.7096],[9.0565,39.7113],[9.0615,39.7215],[9.0561,39.7262],[9.0551,39.7312],[9.069,39.7422],[9.0717,39.7429],[9.0723,39.7461],[9.0756,39.7398],[9.079,39.7297],[9.0792,39.7266],[9.0891,39.7225],[9.1025,39.7225],[9.1074,39.7188]]]}},{"type":"Feature","properties":{"i":"111026","n":"Gesico"},"geometry":{"type":"Polygon","coordinates":[[[9.0584,39.6382],[9.0618,39.637],[9.0832,39.6389],[9.102,39.636],[9.1245,39.6265],[9.1293,39.623],[9.1321,39.6192],[9.1375,39.6152],[9.1379,39.6133],[9.1369,39.6089],[9.1303,39.601],[9.1243,39.6018],[9.1196,39.604],[9.0995,39.5997],[9.093,39.5992],[9.0753,39.6035],[9.0696,39.6074],[9.0688,39.6106],[9.0674,39.6123],[9.0631,39.6136],[9.0603,39.6135],[9.046,39.6214],[9.0428,39.6223],[9.0352,39.6263],[9.0465,39.6409],[9.0584,39.6382]]]}},{"type":"Feature","properties":{"i":"111029","n":"Goni"},"geometry":{"type":"Polygon","coordinates":[[[9.3147,39.5777],[9.3138,39.5747],[9.3041,39.5715],[9.3045,39.5671],[9.3061,39.5645],[9.306,39.5631],[9.3017,39.5593],[9.2746,39.5561],[9.2647,39.5539],[9.2493,39.5401],[9.249,39.5443],[9.2504,39.557],[9.2544,39.5637],[9.2575,39.5668],[9.2627,39.5748],[9.2652,39.5818],[9.2699,39.5895],[9.2743,39.5941],[9.2787,39.5972],[9.2851,39.6004],[9.2952,39.6033],[9.2965,39.6029],[9.2932,39.5999],[9.2925,39.5952],[9.2986,39.5924],[9.3029,39.5938],[9.3114,39.5896],[9.3129,39.5868],[9.3133,39.5834],[9.3127,39.5818],[9.3147,39.5777]]]}},{"type":"Feature","properties":{"i":"111032","n":"Guamaggiore"},"geometry":{"type":"Polygon","coordinates":[[[9.0696,39.6074],[9.0795,39.5854],[9.0882,39.5793],[9.0859,39.5539],[9.069,39.5522],[9.0641,39.5534],[9.0575,39.574],[9.0523,39.5838],[9.053,39.5859],[9.0498,39.5936],[9.0413,39.6068],[9.0398,39.614],[9.0428,39.6223],[9.046,39.6214],[9.0603,39.6135],[9.0631,39.6136],[9.0674,39.6123],[9.0688,39.6106],[9.0696,39.6074]]]}},{"type":"Feature","properties":{"i":"111033","n":"Guasila"},"geometry":{"type":"Polygon","coordinates":[[[9.0428,39.6223],[9.0398,39.614],[9.0413,39.6068],[9.0498,39.5936],[9.053,39.5859],[9.0523,39.5838],[9.0575,39.574],[9.0641,39.5534],[9.069,39.5522],[9.0592,39.5363],[9.0563,39.5352],[9.0547,39.5333],[9.0514,39.5265],[9.051,39.5246],[9.0526,39.5244],[9.0393,39.5194],[9.0382,39.522],[9.0335,39.5262],[9.0289,39.5285],[9.0148,39.5294],[9.0003,39.5276],[8.9828,39.5317],[8.9828,39.5342],[8.9842,39.5364],[8.9948,39.5463],[8.9997,39.5537],[9.0015,39.5591],[9.0027,39.568],[9.0062,39.5772],[9.0099,39.5822],[9.0126,39.5841],[9.0115,39.5867],[9.0143,39.5877],[9.0261,39.6184],[9.0352,39.6263],[9.0428,39.6223]]]}},{"type":"Feature","properties":{"i":"111036","n":"Isili"},"geometry":{"type":"Polygon","coordinates":[[[9.1796,39.7499],[9.177,39.7444],[9.1756,39.7376],[9.1722,39.7357],[9.1722,39.7371],[9.1706,39.7378],[9.1655,39.7378],[9.1557,39.7296],[9.1445,39.7234],[9.1331,39.7188],[9.1297,39.7182],[9.1119,39.7201],[9.1076,39.7194],[9.1074,39.7188],[9.1025,39.7225],[9.0891,39.7225],[9.0792,39.7266],[9.079,39.7297],[9.0756,39.7398],[9.0723,39.7461],[9.075,39.7526],[9.0839,39.7634],[9.0841,39.7651],[9.0999,39.7735],[9.1152,39.79],[9.1209,39.7968],[9.1245,39.8027],[9.1304,39.816],[9.1336,39.8275],[9.1322,39.8341],[9.1275,39.8395],[9.1382,39.844],[9.1451,39.8451],[9.1478,39.8446],[9.1638,39.8326],[9.1654,39.8287],[9.1663,39.8252],[9.1633,39.8222],[9.16,39.8138],[9.16,39.8067],[9.1611,39.8015],[9.1585,39.7872],[9.1655,39.7652],[9.167,39.7584],[9.1689,39.7559],[9.1796,39.7499]]]}},{"type":"Feature","properties":{"i":"111039","n":"Mandas"},"geometry":{"type":"Polygon","coordinates":[[[9.1702,39.6669],[9.1739,39.6495],[9.1807,39.6444],[9.1857,39.6441],[9.1872,39.6451],[9.1895,39.6422],[9.1874,39.6403],[9.1843,39.6351],[9.1813,39.6326],[9.1617,39.621],[9.1473,39.6142],[9.144,39.6138],[9.1375,39.6152],[9.1321,39.6192],[9.1293,39.623],[9.1245,39.6265],[9.1013,39.6362],[9.0832,39.6389],[9.0618,39.637],[9.0584,39.6382],[9.0675,39.6508],[9.0746,39.6563],[9.0742,39.6583],[9.0815,39.6643],[9.0878,39.6666],[9.0938,39.6671],[9.1022,39.6697],[9.1066,39.6714],[9.1116,39.6746],[9.1169,39.6753],[9.1245,39.6749],[9.138,39.6725],[9.1474,39.6775],[9.1623,39.6731],[9.1668,39.6686],[9.1702,39.6669]]]}},{"type":"Feature","properties":{"i":"111041","n":"Monastir"},"geometry":{"type":"Polygon","coordinates":[[[9.0635,39.4193],[9.0639,39.4163],[9.0576,39.4071],[9.0561,39.3992],[9.072,39.3735],[9.0763,39.3728],[9.0799,39.3702],[9.0849,39.3565],[9.0788,39.353],[9.0766,39.3525],[9.0715,39.3481],[9.0603,39.3406],[9.0545,39.3466],[9.0538,39.35],[9.0549,39.3533],[9.0521,39.3566],[9.0444,39.3608],[9.038,39.3588],[9.0304,39.3622],[9.0299,39.3651],[9.025,39.3702],[9.0128,39.3775],[9.0093,39.3809],[9.0082,39.3831],[9.0041,39.4019],[9.0027,39.4041],[9.0061,39.4039],[9.0178,39.4087],[9.0284,39.4149],[9.0527,39.4199],[9.0592,39.4204],[9.0635,39.4193]]]}},{"type":"Feature","properties":{"i":"111042","n":"Muravera"},"geometry":{"type":"MultiPolygon","coordinates":[[[[9.6276,39.3085],[9.6281,39.3082],[9.6273,39.3078],[9.6276,39.3085]]],[[[9.6206,39.4132],[9.6151,39.4006],[9.6124,39.397],[9.6078,39.388],[9.6018,39.3711],[9.5977,39.3493],[9.5984,39.3361],[9.6011,39.3258],[9.6063,39.3173],[9.6117,39.3132],[9.6244,39.3069],[9.6273,39.307],[9.6314,39.3043],[9.6339,39.299],[9.6312,39.2956],[9.625,39.2967],[9.6227,39.298],[9.6139,39.2973],[9.6072,39.2943],[9.6024,39.2908],[9.5912,39.2784],[9.5836,39.2674],[9.5733,39.248],[9.5707,39.2411],[9.5704,39.2384],[9.569,39.2418],[9.5606,39.2447],[9.5556,39.2507],[9.5522,39.2626],[9.5701,39.2819],[9.5666,39.2845],[9.5538,39.2854],[9.5364,39.2914],[9.5273,39.2925],[9.5257,39.3078],[9.5269,39.3146],[9.5331,39.327],[9.533,39.3291],[9.5313,39.3305],[9.532,39.3353],[9.5381,39.3413],[9.5451,39.3441],[9.5485,39.3445],[9.5522,39.3423],[9.5555,39.3438],[9.5594,39.3565],[9.5696,39.3605],[9.5674,39.3737],[9.5597,39.393],[9.5563,39.3941],[9.5496,39.3939],[9.5432,39.3977],[9.5419,39.4021],[9.5473,39.4123],[9.5494,39.4188],[9.5512,39.4213],[9.5592,39.4255],[9.5631,39.4262],[9.5658,39.4281],[9.5789,39.4288],[9.584,39.4323],[9.5935,39.4309],[9.6103,39.4253],[9.613,39.4234],[9.6167,39.4176],[9.6206,39.4132]]]]}},{"type":"Feature","properties":{"i":"111045","n":"Nuragus"},"geometry":{"type":"Polygon","coordinates":[[[9.0543,39.801],[9.0541,39.7942],[9.0561,39.7891],[9.0613,39.7808],[9.0683,39.7762],[9.0786,39.7709],[9.0841,39.7651],[9.0839,39.7634],[9.0736,39.7503],[9.0713,39.7525],[9.062,39.7567],[9.053,39.7583],[9.0359,39.7583],[9.0275,39.7596],[9.0067,39.7596],[9.0019,39.7612],[9.0071,39.7644],[9.0093,39.7687],[9.0176,39.7791],[9.0261,39.7844],[9.0311,39.7924],[9.0395,39.799],[9.0422,39.8003],[9.0418,39.803],[9.0543,39.801]]]}},{"type":"Feature","properties":{"i":"111046","n":"Nurallao"},"geometry":{"type":"Polygon","coordinates":[[[9.0841,39.7651],[9.0786,39.7709],[9.0683,39.7762],[9.0613,39.7808],[9.0561,39.7891],[9.0541,39.7942],[9.0546,39.8025],[9.0619,39.8108],[9.0759,39.8169],[9.0832,39.8262],[9.0956,39.8287],[9.1,39.8308],[9.1044,39.837],[9.1065,39.8416],[9.1058,39.8448],[9.1063,39.847],[9.1135,39.8497],[9.1244,39.8423],[9.1297,39.8376],[9.1322,39.8341],[9.1336,39.8275],[9.1304,39.816],[9.1245,39.8027],[9.1209,39.7968],[9.1152,39.79],[9.0999,39.7735],[9.0841,39.7651]]]}},{"type":"Feature","properties":{"i":"111047","n":"Nuraminis"},"geometry":{"type":"Polygon","coordinates":[[[9.0631,39.4476],[9.065,39.4385],[9.0635,39.4193],[9.0592,39.4204],[9.0527,39.4199],[9.0284,39.4149],[9.0178,39.4087],[9.0061,39.4039],[9.0027,39.4041],[8.9917,39.4123],[8.9836,39.4164],[8.9782,39.4221],[8.9786,39.4259],[8.9777,39.4301],[8.9693,39.4499],[8.9593,39.4612],[8.957,39.4657],[8.9593,39.4625],[8.9719,39.4638],[8.9881,39.4681],[8.9908,39.4702],[9.0073,39.4783],[9.0099,39.4758],[9.0152,39.4745],[9.0269,39.4693],[9.0511,39.4511],[9.0581,39.4483],[9.0631,39.4476]]]}},{"type":"Feature","properties":{"i":"111048","n":"Nurri"},"geometry":{"type":"Polygon","coordinates":[[[9.2339,39.7576],[9.2385,39.7527],[9.238,39.748],[9.2395,39.7431],[9.2468,39.741],[9.2502,39.738],[9.2508,39.7371],[9.2501,39.7346],[9.2515,39.7315],[9.2582,39.7279],[9.2619,39.7288],[9.2747,39.7191],[9.2868,39.7135],[9.2904,39.7098],[9.2978,39.7018],[9.2996,39.6977],[9.3005,39.6943],[9.2994,39.6886],[9.2632,39.6983],[9.2528,39.7059],[9.2514,39.7059],[9.2419,39.701],[9.2369,39.6953],[9.2298,39.6843],[9.2224,39.6671],[9.2173,39.6645],[9.2082,39.6663],[9.2008,39.6602],[9.1972,39.6547],[9.194,39.6472],[9.1935,39.6447],[9.1942,39.6422],[9.1895,39.6422],[9.1872,39.6451],[9.1857,39.6441],[9.1807,39.6444],[9.1739,39.6495],[9.1712,39.6612],[9.1702,39.6669],[9.1727,39.671],[9.173,39.6829],[9.1774,39.6892],[9.178,39.6913],[9.1758,39.7048],[9.174,39.7102],[9.1712,39.717],[9.1661,39.7238],[9.1662,39.7261],[9.1722,39.7357],[9.1756,39.7376],[9.177,39.7444],[9.18,39.7507],[9.186,39.7545],[9.2137,39.7615],[9.222,39.7569],[9.2339,39.7576]]]}},{"type":"Feature","properties":{"i":"111050","n":"Orroli"},"geometry":{"type":"Polygon","coordinates":[[[9.2994,39.6886],[9.2998,39.6857],[9.3078,39.6787],[9.3103,39.674],[9.3148,39.6708],[9.3139,39.6661],[9.3103,39.6608],[9.3088,39.6525],[9.3034,39.643],[9.3067,39.6321],[9.3099,39.6285],[9.312,39.6192],[9.3064,39.6068],[9.3051,39.6057],[9.3018,39.6045],[9.2993,39.6045],[9.2965,39.6029],[9.2915,39.6057],[9.2724,39.6124],[9.2644,39.6079],[9.2606,39.6067],[9.2552,39.6072],[9.2491,39.6111],[9.2484,39.6131],[9.2498,39.6138],[9.2497,39.6148],[9.2444,39.6203],[9.2383,39.6234],[9.2174,39.6241],[9.2073,39.6259],[9.2028,39.6283],[9.1987,39.6328],[9.1935,39.6447],[9.1944,39.6483],[9.1993,39.6584],[9.2082,39.6663],[9.2173,39.6645],[9.2224,39.6671],[9.2298,39.6843],[9.2369,39.6953],[9.2419,39.701],[9.2514,39.7059],[9.2528,39.7059],[9.2632,39.6983],[9.2994,39.6886]]]}},{"type":"Feature","properties":{"i":"111051","n":"Ortacesus"},"geometry":{"type":"Polygon","coordinates":[[[9.0859,39.5539],[9.0977,39.5463],[9.109,39.5414],[9.1105,39.5353],[9.1102,39.5317],[9.1079,39.5261],[9.1076,39.5158],[9.1113,39.5119],[9.1172,39.5011],[9.1232,39.4927],[9.1256,39.4922],[9.1217,39.4841],[9.0933,39.4993],[9.0826,39.5024],[9.0782,39.5096],[9.064,39.5177],[9.0589,39.5192],[9.0549,39.5214],[9.0526,39.5244],[9.051,39.5246],[9.0515,39.5271],[9.0547,39.5333],[9.0563,39.5352],[9.0592,39.5363],[9.069,39.5522],[9.0859,39.5539]]]}},{"type":"Feature","properties":{"i":"111055","n":"Pimentel"},"geometry":{"type":"Polygon","coordinates":[[[9.0933,39.4993],[9.0916,39.4889],[9.0899,39.4838],[9.0881,39.4803],[9.08,39.4723],[9.074,39.4761],[9.0632,39.4797],[9.0493,39.4893],[9.0446,39.4962],[9.0435,39.5066],[9.0393,39.5194],[9.0526,39.5244],[9.0549,39.5214],[9.0589,39.5192],[9.064,39.5177],[9.0782,39.5096],[9.0826,39.5024],[9.0933,39.4993]]]}},{"type":"Feature","properties":{"i":"111058","n":"Sadali"},"geometry":{"type":"Polygon","coordinates":[[[9.2729,39.8508],[9.2803,39.8415],[9.2906,39.8309],[9.2922,39.8281],[9.293,39.8236],[9.2929,39.8164],[9.292,39.8126],[9.2868,39.8065],[9.2854,39.8037],[9.2782,39.7966],[9.264,39.7873],[9.2644,39.7802],[9.2626,39.7736],[9.2597,39.7669],[9.2573,39.7658],[9.2578,39.7618],[9.2648,39.748],[9.2649,39.7411],[9.2631,39.738],[9.2609,39.7376],[9.258,39.7401],[9.2585,39.7432],[9.2565,39.7441],[9.2469,39.7447],[9.2415,39.7423],[9.2395,39.7431],[9.238,39.748],[9.2383,39.753],[9.2339,39.7576],[9.2305,39.7626],[9.2274,39.7695],[9.2286,39.7758],[9.2291,39.7845],[9.2262,39.7884],[9.2216,39.8],[9.22,39.8081],[9.2132,39.813],[9.2107,39.8176],[9.2092,39.8225],[9.2118,39.8241],[9.22,39.8317],[9.2235,39.8356],[9.223,39.8373],[9.2266,39.8414],[9.2319,39.8432],[9.2462,39.8437],[9.2504,39.8445],[9.2619,39.85],[9.2706,39.8514],[9.2729,39.8508]]]}},{"type":"Feature","properties":{"i":"111060","n":"Samatzai"},"geometry":{"type":"Polygon","coordinates":[[[9.0393,39.5194],[9.0435,39.5066],[9.0446,39.4962],[9.0502,39.4883],[9.0632,39.4797],[9.074,39.4761],[9.0793,39.473],[9.091,39.4624],[9.0978,39.4589],[9.0842,39.4521],[9.0829,39.45],[9.0839,39.4485],[9.0703,39.4462],[9.0592,39.448],[9.0511,39.4511],[9.0269,39.4693],[9.0152,39.4745],[9.0099,39.4758],[9.0078,39.4775],[9.0073,39.4783],[9.0109,39.4804],[9.0138,39.4843],[9.0148,39.4864],[9.0151,39.4906],[9.0139,39.497],[9.0095,39.507],[9.0096,39.5109],[9.0116,39.5172],[9.0072,39.5281],[9.0148,39.5294],[9.0289,39.5285],[9.0335,39.5262],[9.0382,39.522],[9.0393,39.5194]]]}},{"type":"Feature","properties":{"i":"111061","n":"San Basilio"},"geometry":{"type":"Polygon","coordinates":[[[9.2463,39.5382],[9.2491,39.5355],[9.2525,39.5253],[9.253,39.5109],[9.2527,39.5061],[9.2453,39.4844],[9.2404,39.4875],[9.2325,39.4877],[9.2278,39.4862],[9.2186,39.4891],[9.2124,39.4928],[9.1952,39.4948],[9.1797,39.4945],[9.1663,39.498],[9.1632,39.5004],[9.1673,39.5203],[9.1714,39.5272],[9.1694,39.5458],[9.1757,39.5463],[9.1819,39.5495],[9.1931,39.5535],[9.207,39.5553],[9.2172,39.5512],[9.2294,39.543],[9.2335,39.5413],[9.2463,39.5382]]]}},{"type":"Feature","properties":{"i":"111064","n":"San Nicolò Gerrei"},"geometry":{"type":"Polygon","coordinates":[[[9.3475,39.499],[9.3397,39.4782],[9.3337,39.469],[9.3303,39.4669],[9.3177,39.4559],[9.3168,39.4544],[9.3161,39.449],[9.3035,39.4418],[9.2757,39.4307],[9.2728,39.4287],[9.2726,39.4253],[9.2687,39.4313],[9.2537,39.4398],[9.2406,39.4508],[9.2421,39.46],[9.249,39.4722],[9.2484,39.4825],[9.2453,39.4844],[9.2527,39.5061],[9.2871,39.5075],[9.3034,39.5104],[9.3113,39.5162],[9.3212,39.5219],[9.3299,39.5239],[9.3368,39.527],[9.3378,39.5353],[9.3497,39.5367],[9.3494,39.5334],[9.3502,39.5292],[9.3494,39.5249],[9.3416,39.514],[9.3399,39.5097],[9.3435,39.5026],[9.3475,39.499]]]}},{"type":"Feature","properties":{"i":"111065","n":"San Sperate"},"geometry":{"type":"Polygon","coordinates":[[[9.0093,39.3809],[9.0128,39.3775],[9.025,39.3702],[9.0299,39.3651],[9.0304,39.3622],[9.038,39.3588],[9.0444,39.3608],[9.0521,39.3566],[9.0549,39.3533],[9.0538,39.35],[9.0545,39.3466],[9.0603,39.3406],[9.0554,39.3379],[9.0515,39.3371],[9.0431,39.3373],[9.0344,39.3346],[9.0283,39.3316],[9.027,39.3329],[9.0232,39.3334],[9.0201,39.3306],[9.0062,39.327],[9.0059,39.3282],[9.0024,39.3299],[8.9878,39.3362],[8.9792,39.3427],[8.9754,39.3431],[8.9833,39.3618],[8.9929,39.382],[9.0093,39.3809]]]}},{"type":"Feature","properties":{"i":"111066","n":"San Vito"},"geometry":{"type":"Polygon","coordinates":[[[9.5631,39.4262],[9.5592,39.4255],[9.5508,39.421],[9.5417,39.4011],[9.5432,39.3977],[9.5496,39.3939],[9.5563,39.3941],[9.5597,39.393],[9.5674,39.3737],[9.5696,39.3605],[9.5594,39.3565],[9.5555,39.3438],[9.5522,39.3423],[9.5485,39.3445],[9.5451,39.3441],[9.5381,39.3413],[9.532,39.3353],[9.5313,39.3305],[9.533,39.3291],[9.5331,39.327],[9.5272,39.3148],[9.5222,39.3151],[9.5085,39.3185],[9.4972,39.3107],[9.4893,39.3001],[9.4856,39.2967],[9.4719,39.289],[9.4595,39.2705],[9.45,39.2618],[9.4463,39.268],[9.4449,39.277],[9.4459,39.2818],[9.4432,39.2939],[9.429,39.3026],[9.4277,39.3049],[9.4276,39.3085],[9.4284,39.3106],[9.4384,39.3185],[9.4467,39.3199],[9.4554,39.323],[9.459,39.3344],[9.4683,39.3516],[9.4703,39.3591],[9.4662,39.3602],[9.4612,39.3601],[9.4565,39.3611],[9.4493,39.3695],[9.4479,39.3726],[9.4516,39.3749],[9.4527,39.382],[9.4469,39.3899],[9.4412,39.3957],[9.4266,39.3966],[9.4232,39.398],[9.4153,39.4044],[9.4106,39.4178],[9.4096,39.4243],[9.4243,39.4302],[9.4407,39.439],[9.4412,39.4405],[9.4389,39.4454],[9.4398,39.4485],[9.4512,39.4514],[9.4632,39.4509],[9.4677,39.4516],[9.4732,39.4544],[9.4754,39.4569],[9.4794,39.4633],[9.4763,39.4779],[9.4736,39.4847],[9.4713,39.4875],[9.4713,39.4997],[9.476,39.5089],[9.4791,39.5243],[9.4899,39.5281],[9.5045,39.5307],[9.5139,39.5238],[9.5146,39.5208],[9.5339,39.5156],[9.5384,39.5109],[9.5413,39.5095],[9.5463,39.5087],[9.548,39.51],[9.5602,39.5286],[9.5552,39.5377],[9.5535,39.5393],[9.5536,39.5421],[9.5568,39.5468],[9.5599,39.5464],[9.5794,39.5392],[9.586,39.5339],[9.589,39.5284],[9.5962,39.5241],[9.6047,39.5237],[9.6064,39.5228],[9.6041,39.5169],[9.601,39.5134],[9.5945,39.5101],[9.577,39.504],[9.5636,39.4948],[9.5645,39.4764],[9.5657,39.4697],[9.5589,39.4552],[9.5534,39.4457],[9.5606,39.4282],[9.5631,39.4262]]]}},{"type":"Feature","properties":{"i":"111069","n":"Sant'Andrea Frius"},"geometry":{"type":"Polygon","coordinates":[[[9.2453,39.4844],[9.2484,39.4825],[9.249,39.4722],[9.2421,39.46],[9.2429,39.4642],[9.2422,39.4674],[9.241,39.4685],[9.2339,39.4679],[9.2222,39.4619],[9.2195,39.4641],[9.2127,39.4667],[9.2098,39.4644],[9.2097,39.4625],[9.2035,39.4575],[9.1937,39.4511],[9.1844,39.4465],[9.1832,39.4489],[9.1802,39.4507],[9.1652,39.4521],[9.1608,39.4536],[9.1481,39.4656],[9.1375,39.4699],[9.1373,39.4715],[9.136,39.4726],[9.1245,39.479],[9.1217,39.4841],[9.1256,39.4922],[9.129,39.4887],[9.1324,39.4877],[9.1416,39.4859],[9.1474,39.487],[9.1632,39.5004],[9.1663,39.498],[9.1797,39.4945],[9.1952,39.4948],[9.2124,39.4928],[9.2186,39.4891],[9.2278,39.4862],[9.2325,39.4877],[9.2404,39.4875],[9.2453,39.4844]]]}},{"type":"Feature","properties":{"i":"111074","n":"Selegas"},"geometry":{"type":"Polygon","coordinates":[[[9.1303,39.601],[9.1285,39.5988],[9.1285,39.5925],[9.1309,39.5878],[9.1304,39.5841],[9.1264,39.5775],[9.1234,39.5743],[9.1201,39.5729],[9.1171,39.5689],[9.1127,39.5569],[9.1135,39.5419],[9.109,39.5414],[9.1024,39.5442],[9.0969,39.5468],[9.0859,39.5539],[9.0882,39.5793],[9.0795,39.5854],[9.0696,39.6074],[9.0753,39.6035],[9.093,39.5992],[9.0995,39.5997],[9.1196,39.604],[9.1243,39.6018],[9.1303,39.601]]]}},{"type":"Feature","properties":{"i":"111075","n":"Senorbì"},"geometry":{"type":"Polygon","coordinates":[[[9.1694,39.5458],[9.1714,39.5272],[9.1673,39.5203],[9.1632,39.5004],[9.1467,39.4867],[9.1416,39.4859],[9.1324,39.4877],[9.129,39.4887],[9.1256,39.4922],[9.1232,39.4927],[9.1172,39.5011],[9.1113,39.5119],[9.1076,39.5158],[9.1079,39.5261],[9.1102,39.5317],[9.1105,39.5353],[9.109,39.5414],[9.1135,39.5419],[9.1166,39.5359],[9.1196,39.5355],[9.1242,39.5377],[9.1252,39.5445],[9.1348,39.5533],[9.1388,39.5539],[9.1416,39.5523],[9.1452,39.5521],[9.1538,39.5533],[9.1551,39.5556],[9.1513,39.5597],[9.151,39.563],[9.1521,39.5653],[9.1627,39.579],[9.1681,39.5819],[9.1689,39.5817],[9.1753,39.5714],[9.1772,39.5654],[9.1735,39.5597],[9.1664,39.5553],[9.1612,39.5542],[9.1633,39.5487],[9.1694,39.5458]]]}},{"type":"Feature","properties":{"i":"111076","n":"Serdiana"},"geometry":{"type":"Polygon","coordinates":[[[9.2216,39.4619],[9.2185,39.4587],[9.2135,39.4458],[9.2135,39.4413],[9.2152,39.4394],[9.2157,39.4311],[9.2127,39.4235],[9.2026,39.4124],[9.201,39.4131],[9.1964,39.413],[9.191,39.4059],[9.1912,39.4048],[9.1891,39.4015],[9.1828,39.3935],[9.1675,39.3896],[9.1631,39.4006],[9.1585,39.4018],[9.1561,39.4014],[9.1484,39.3963],[9.1306,39.3918],[9.1348,39.3841],[9.1373,39.3828],[9.1497,39.3791],[9.1672,39.3814],[9.1701,39.3791],[9.1619,39.3704],[9.1561,39.3614],[9.1495,39.36],[9.1424,39.3525],[9.1497,39.3417],[9.1337,39.3329],[9.1188,39.3369],[9.1092,39.342],[9.0991,39.3495],[9.0948,39.3516],[9.0788,39.353],[9.0849,39.3565],[9.0978,39.3672],[9.1095,39.3794],[9.1194,39.3936],[9.1199,39.3966],[9.1181,39.4035],[9.1141,39.4122],[9.1166,39.4126],[9.1197,39.4156],[9.1255,39.4194],[9.1361,39.4234],[9.1445,39.4211],[9.1494,39.4185],[9.1549,39.4183],[9.1629,39.4202],[9.1788,39.4268],[9.1808,39.4279],[9.1844,39.434],[9.185,39.4417],[9.1844,39.4465],[9.1937,39.4511],[9.2062,39.4594],[9.2097,39.4625],[9.2098,39.4644],[9.2122,39.4665],[9.2137,39.4665],[9.2195,39.4641],[9.2216,39.4619]]]}},{"type":"Feature","properties":{"i":"111079","n":"Serri"},"geometry":{"type":"Polygon","coordinates":[[[9.1722,39.7357],[9.1662,39.7261],[9.1661,39.7238],[9.1712,39.717],[9.174,39.7102],[9.1758,39.7048],[9.178,39.6908],[9.173,39.6829],[9.1727,39.671],[9.1702,39.6669],[9.1668,39.6686],[9.1623,39.6731],[9.1474,39.6775],[9.1519,39.6808],[9.1526,39.6829],[9.1523,39.6851],[9.1482,39.6935],[9.1419,39.7],[9.134,39.7064],[9.1265,39.7107],[9.1183,39.7124],[9.1013,39.7117],[9.102,39.7134],[9.1076,39.7194],[9.1119,39.7201],[9.1297,39.7182],[9.1324,39.7186],[9.1445,39.7234],[9.1557,39.7296],[9.1655,39.7378],[9.1706,39.7378],[9.1722,39.7371],[9.1722,39.7357]]]}},{"type":"Feature","properties":{"i":"111084","n":"Siliqua"},"geometry":{"type":"Polygon","coordinates":[[[8.8224,39.3266],[8.8348,39.3247],[8.8466,39.3209],[8.8612,39.3147],[8.8685,39.3048],[8.8732,39.3016],[8.8732,39.299],[8.8599,39.2872],[8.8445,39.2702],[8.8422,39.2617],[8.8426,39.2549],[8.8441,39.252],[8.8482,39.2303],[8.8515,39.2332],[8.8517,39.2353],[8.8606,39.2303],[8.8538,39.2094],[8.855,39.1985],[8.8546,39.1936],[8.8525,39.1903],[8.8547,39.1805],[8.8503,39.1734],[8.8456,39.1715],[8.8422,39.1684],[8.8408,39.1651],[8.8376,39.1479],[8.8263,39.1487],[8.8212,39.1555],[8.8115,39.1653],[8.7708,39.1794],[8.766,39.1861],[8.7582,39.201],[8.7508,39.2235],[8.7483,39.2319],[8.7422,39.2715],[8.7398,39.28],[8.7371,39.2811],[8.7321,39.2808],[8.7297,39.282],[8.7222,39.2834],[8.7211,39.2848],[8.7221,39.2909],[8.7215,39.2963],[8.7164,39.3104],[8.7006,39.3223],[8.7021,39.3364],[8.7049,39.3481],[8.7103,39.3628],[8.7245,39.3531],[8.7413,39.3547],[8.7454,39.3486],[8.7532,39.3433],[8.7773,39.3393],[8.8224,39.3266]]]}},{"type":"Feature","properties":{"i":"111085","n":"Silius"},"geometry":{"type":"Polygon","coordinates":[[[9.3378,39.5353],[9.3368,39.527],[9.3299,39.5239],[9.3212,39.5219],[9.3113,39.5162],[9.3034,39.5104],[9.2871,39.5075],[9.2549,39.506],[9.2527,39.5061],[9.2525,39.5253],[9.2491,39.5355],[9.2463,39.5382],[9.2647,39.5539],[9.2746,39.5561],[9.3017,39.5593],[9.306,39.5631],[9.3061,39.5645],[9.3045,39.5671],[9.3041,39.5715],[9.3138,39.5747],[9.3212,39.5708],[9.3312,39.5603],[9.3366,39.5377],[9.3378,39.5353]]]}},{"type":"Feature","properties":{"i":"111086","n":"Siurgus Donigala"},"geometry":{"type":"Polygon","coordinates":[[[9.1942,39.6422],[9.1987,39.6328],[9.2049,39.6268],[9.2174,39.6241],[9.2383,39.6234],[9.2444,39.6203],[9.2497,39.6148],[9.2498,39.6138],[9.2484,39.6131],[9.2491,39.6111],[9.2552,39.6072],[9.2606,39.6067],[9.2644,39.6079],[9.2724,39.6124],[9.2915,39.6057],[9.2952,39.6033],[9.2826,39.5993],[9.2743,39.5941],[9.2699,39.5895],[9.2652,39.5818],[9.2627,39.5748],[9.2575,39.5668],[9.2544,39.5637],[9.2504,39.557],[9.249,39.5443],[9.2493,39.5401],[9.2463,39.5382],[9.2335,39.5413],[9.2294,39.543],[9.2172,39.5512],[9.207,39.5553],[9.1931,39.5535],[9.1738,39.5457],[9.1694,39.5458],[9.1633,39.5487],[9.1612,39.5542],[9.1664,39.5553],[9.1735,39.5597],[9.1771,39.5647],[9.1764,39.5687],[9.1689,39.5817],[9.1663,39.5822],[9.1628,39.5853],[9.1506,39.6026],[9.1467,39.606],[9.1445,39.6106],[9.144,39.6138],[9.1473,39.6142],[9.1547,39.6172],[9.162,39.6211],[9.1813,39.6326],[9.1843,39.6351],[9.1885,39.6418],[9.1942,39.6422]]]}},{"type":"Feature","properties":{"i":"111087","n":"Soleminis"},"geometry":{"type":"Polygon","coordinates":[[[9.2215,39.3426],[9.2126,39.3349],[9.2041,39.333],[9.1953,39.333],[9.1873,39.3279],[9.185,39.3285],[9.178,39.3333],[9.1686,39.3328],[9.1544,39.3302],[9.1511,39.332],[9.1497,39.3417],[9.1424,39.3525],[9.1495,39.36],[9.1561,39.3614],[9.1619,39.3704],[9.1659,39.365],[9.1653,39.3632],[9.1586,39.3552],[9.1617,39.35],[9.1729,39.348],[9.1806,39.3487],[9.1866,39.3511],[9.19,39.351],[9.2215,39.3426]]]}},{"type":"Feature","properties":{"i":"111088","n":"Suelli"},"geometry":{"type":"Polygon","coordinates":[[[9.144,39.6138],[9.1445,39.6106],[9.1467,39.606],[9.1506,39.6026],[9.1628,39.5853],[9.1675,39.5819],[9.1627,39.579],[9.1521,39.5653],[9.151,39.563],[9.1513,39.5597],[9.1551,39.5556],[9.1538,39.5533],[9.1452,39.5521],[9.1416,39.5523],[9.1388,39.5539],[9.1348,39.5533],[9.1252,39.5445],[9.1242,39.5377],[9.1196,39.5355],[9.1174,39.5354],[9.1135,39.5419],[9.1127,39.5569],[9.1171,39.5689],[9.1201,39.5729],[9.1234,39.5743],[9.1264,39.5775],[9.1304,39.5841],[9.1309,39.5878],[9.1285,39.5925],[9.1285,39.5988],[9.1369,39.6089],[9.1379,39.6133],[9.1375,39.6152],[9.144,39.6138]]]}},{"type":"Feature","properties":{"i":"111093","n":"Ussana"},"geometry":{"type":"Polygon","coordinates":[[[9.0839,39.4485],[9.0852,39.4473],[9.0895,39.4371],[9.101,39.4234],[9.1077,39.4173],[9.1134,39.414],[9.1181,39.4035],[9.1199,39.3966],[9.1194,39.3936],[9.1095,39.3794],[9.0978,39.3672],[9.0849,39.3565],[9.0799,39.3702],[9.0763,39.3728],[9.072,39.3735],[9.0705,39.3753],[9.0654,39.3833],[9.0631,39.3887],[9.0561,39.3992],[9.056,39.4008],[9.0576,39.4071],[9.0642,39.4174],[9.0635,39.4193],[9.065,39.4385],[9.0631,39.4476],[9.0703,39.4462],[9.0839,39.4485]]]}},{"type":"Feature","properties":{"i":"111095","n":"Vallermosa"},"geometry":{"type":"Polygon","coordinates":[[[8.7901,39.4056],[8.7895,39.4005],[8.7834,39.3977],[8.7808,39.3928],[8.7812,39.3914],[8.7897,39.3883],[8.7945,39.3874],[8.8034,39.3824],[8.8135,39.3701],[8.8322,39.3693],[8.843,39.3741],[8.8438,39.3702],[8.8481,39.3606],[8.8505,39.3518],[8.8372,39.343],[8.8224,39.3266],[8.7773,39.3393],[8.7532,39.3433],[8.7454,39.3486],[8.741,39.3548],[8.7245,39.3531],[8.7115,39.3615],[8.7051,39.372],[8.6993,39.375],[8.7343,39.3957],[8.7568,39.4048],[8.7736,39.4065],[8.7815,39.4049],[8.7901,39.4056]]]}},{"type":"Feature","properties":{"i":"111099","n":"Villanova Tulo"},"geometry":{"type":"Polygon","coordinates":[[[9.1656,39.8326],[9.1767,39.8281],[9.193,39.826],[9.2002,39.8263],[9.2092,39.8225],[9.2107,39.8176],[9.2132,39.813],[9.22,39.8081],[9.2216,39.8],[9.2262,39.7884],[9.2291,39.7845],[9.2286,39.7758],[9.2274,39.7695],[9.2305,39.7626],[9.2339,39.7576],[9.222,39.7569],[9.2137,39.7615],[9.186,39.7545],[9.1796,39.7499],[9.1685,39.7562],[9.1659,39.7617],[9.1655,39.7652],[9.1585,39.7872],[9.1611,39.8015],[9.16,39.8067],[9.16,39.8138],[9.1633,39.8222],[9.1663,39.8252],[9.1638,39.8326],[9.1656,39.8326]]]}},{"type":"Feature","properties":{"i":"111103","n":"Villaputzu"},"geometry":{"type":"MultiPolygon","coordinates":[[[[9.6597,39.5246],[9.6592,39.5242],[9.6585,39.5249],[9.6597,39.5246]]],[[[9.5083,39.6281],[9.5072,39.621],[9.5102,39.6097],[9.514,39.6054],[9.52,39.6029],[9.5261,39.6027],[9.5239,39.5995],[9.5238,39.5894],[9.5317,39.5886],[9.5464,39.5829],[9.5456,39.5796],[9.5507,39.5752],[9.5544,39.5736],[9.5645,39.573],[9.574,39.5737],[9.5896,39.5732],[9.5939,39.5738],[9.6037,39.571],[9.6514,39.5492],[9.6488,39.5468],[9.6448,39.5466],[9.6425,39.5456],[9.6399,39.5419],[9.6327,39.5145],[9.632,39.5072],[9.6319,39.5016],[9.6329,39.4978],[9.6361,39.4946],[9.6416,39.4933],[9.644,39.4861],[9.6424,39.4814],[9.6424,39.4776],[9.6455,39.4644],[9.6455,39.4611],[9.6404,39.4519],[9.641,39.4444],[9.6394,39.4391],[9.6341,39.4365],[9.6312,39.4335],[9.6206,39.4132],[9.6167,39.4176],[9.613,39.4234],[9.6103,39.4253],[9.5935,39.4309],[9.584,39.4323],[9.5789,39.4288],[9.5658,39.4281],[9.5631,39.4262],[9.5606,39.4282],[9.5534,39.4457],[9.5589,39.4552],[9.5657,39.4697],[9.5645,39.4764],[9.5638,39.4952],[9.577,39.504],[9.5945,39.5101],[9.601,39.5134],[9.6041,39.5169],[9.6064,39.5228],[9.6047,39.5237],[9.5962,39.5241],[9.589,39.5284],[9.586,39.5339],[9.5794,39.5392],[9.5599,39.5464],[9.5568,39.5468],[9.5536,39.5421],[9.5535,39.5393],[9.5552,39.5377],[9.5602,39.5286],[9.548,39.51],[9.5463,39.5087],[9.5413,39.5095],[9.5384,39.5109],[9.5339,39.5156],[9.5146,39.5208],[9.5139,39.5238],[9.5045,39.5307],[9.4899,39.5281],[9.4791,39.5243],[9.4857,39.5281],[9.4951,39.5352],[9.4965,39.5386],[9.4983,39.5512],[9.4877,39.5491],[9.4726,39.5585],[9.4649,39.5688],[9.452,39.5737],[9.4471,39.5764],[9.4381,39.5875],[9.4371,39.5921],[9.432,39.6021],[9.4268,39.6072],[9.4313,39.6091],[9.4197,39.6169],[9.4167,39.6172],[9.4257,39.6244],[9.4301,39.6255],[9.4409,39.6413],[9.4576,39.6414],[9.4705,39.6348],[9.4729,39.6331],[9.4863,39.6169],[9.49,39.6164],[9.5032,39.6206],[9.5049,39.6217],[9.5057,39.6248],[9.5083,39.6281]]]]}},{"type":"Feature","properties":{"i":"111104","n":"Villasalto"},"geometry":{"type":"Polygon","coordinates":[[[9.4791,39.5243],[9.476,39.5089],[9.4713,39.4997],[9.4713,39.4875],[9.4736,39.4847],[9.4763,39.4779],[9.4794,39.4633],[9.4732,39.4544],[9.468,39.4517],[9.4632,39.4509],[9.4512,39.4514],[9.4398,39.4485],[9.4389,39.4454],[9.4412,39.4405],[9.4407,39.439],[9.4243,39.4302],[9.4096,39.4243],[9.3687,39.4234],[9.2985,39.411],[9.2929,39.411],[9.281,39.4132],[9.2778,39.4203],[9.2726,39.4253],[9.2728,39.4287],[9.2757,39.4307],[9.3035,39.4418],[9.3161,39.449],[9.3168,39.4544],[9.3177,39.4559],[9.3303,39.4669],[9.3337,39.469],[9.3397,39.4782],[9.3475,39.499],[9.3568,39.5005],[9.3868,39.5113],[9.3974,39.5139],[9.4019,39.5149],[9.4108,39.5141],[9.4182,39.5144],[9.429,39.5193],[9.4413,39.5233],[9.4514,39.5251],[9.4565,39.5246],[9.4734,39.5279],[9.4744,39.5283],[9.4755,39.5396],[9.4785,39.5404],[9.4877,39.5491],[9.4983,39.5512],[9.4965,39.5386],[9.4951,39.5352],[9.4857,39.5281],[9.4791,39.5243]]]}},{"type":"Feature","properties":{"i":"111105","n":"Villasimius"},"geometry":{"type":"MultiPolygon","coordinates":[[[[9.537,39.0809],[9.5357,39.0811],[9.5359,39.082],[9.537,39.0809]]],[[[9.5402,39.0833],[9.5395,39.0822],[9.5391,39.0832],[9.5402,39.0833]]],[[[9.5367,39.085],[9.5372,39.0844],[9.536,39.0849],[9.5367,39.085]]],[[[9.5301,39.09],[9.5342,39.0895],[9.5351,39.0883],[9.5353,39.0844],[9.5337,39.0823],[9.5269,39.0846],[9.5291,39.0899],[9.5301,39.09]]],[[[9.6069,39.1443],[9.6083,39.1426],[9.6079,39.1379],[9.6064,39.1342],[9.6048,39.1337],[9.604,39.1348],[9.6039,39.1402],[9.6047,39.1437],[9.6056,39.1446],[9.6069,39.1443]]],[[[9.6035,39.1467],[9.6024,39.1478],[9.6032,39.1487],[9.6051,39.1479],[9.6035,39.1467]]],[[[9.6059,39.1492],[9.6049,39.1484],[9.605,39.1498],[9.6057,39.1501],[9.6059,39.1492]]],[[[9.6055,39.1512],[9.6044,39.1509],[9.6039,39.152],[9.6045,39.1523],[9.6055,39.1512]]],[[[9.5684,39.1533],[9.562,39.1391],[9.5561,39.1334],[9.5412,39.1324],[9.5342,39.1299],[9.5292,39.1268],[9.5211,39.1178],[9.5188,39.1133],[9.5238,39.0947],[9.5163,39.0986],[9.5025,39.1098],[9.5049,39.1147],[9.5087,39.1177],[9.5095,39.1217],[9.5093,39.1247],[9.508,39.1269],[9.5027,39.1312],[9.4838,39.1354],[9.4712,39.1318],[9.4679,39.1302],[9.4678,39.1278],[9.466,39.1268],[9.4621,39.127],[9.455,39.13],[9.4505,39.1291],[9.4491,39.1271],[9.4465,39.1254],[9.4447,39.1253],[9.4422,39.1265],[9.4429,39.1318],[9.4498,39.1414],[9.4587,39.1449],[9.4638,39.1489],[9.4736,39.1598],[9.4768,39.1858],[9.4864,39.2071],[9.4923,39.2061],[9.4932,39.2048],[9.5214,39.189],[9.5298,39.1889],[9.537,39.1836],[9.5541,39.1668],[9.563,39.1539],[9.5684,39.1533]]]]}},{"type":"Feature","properties":{"i":"111106","n":"Villasor"},"geometry":{"type":"Polygon","coordinates":[[[9.0093,39.3809],[8.9929,39.382],[8.9833,39.3618],[8.9754,39.3431],[8.9724,39.3445],[8.9615,39.342],[8.9506,39.3345],[8.9454,39.3511],[8.9292,39.35],[8.9262,39.3508],[8.9203,39.3549],[8.9147,39.3571],[8.8998,39.3583],[8.8953,39.3571],[8.8849,39.363],[8.8777,39.3687],[8.8667,39.3756],[8.8517,39.3839],[8.8504,39.3843],[8.8469,39.3813],[8.8429,39.3755],[8.843,39.3741],[8.8322,39.3693],[8.8135,39.3701],[8.8034,39.3824],[8.7945,39.3874],[8.7897,39.3883],[8.7812,39.3914],[8.7808,39.3928],[8.7834,39.3977],[8.7895,39.4005],[8.7901,39.4056],[8.7919,39.4068],[8.7993,39.4079],[8.8213,39.4074],[8.8261,39.4116],[8.8274,39.4148],[8.8361,39.4108],[8.8476,39.4071],[8.8724,39.4004],[8.8848,39.3983],[8.907,39.3982],[8.9292,39.3995],[8.9506,39.4083],[8.9618,39.412],[8.9684,39.4154],[8.9782,39.4221],[8.9836,39.4164],[8.9917,39.4123],[9.0027,39.4041],[9.0041,39.4019],[9.0082,39.3831],[9.0093,39.3809]]]}},{"type":"Feature","properties":{"i":"111107","n":"Villaspeciosa"},"geometry":{"type":"Polygon","coordinates":[[[8.9402,39.3252],[8.9405,39.3202],[8.9423,39.3166],[8.9409,39.3088],[8.9427,39.3041],[8.909,39.2898],[8.9042,39.289],[8.8945,39.2892],[8.8806,39.2821],[8.8734,39.28],[8.8696,39.2802],[8.8658,39.2785],[8.861,39.2729],[8.8555,39.261],[8.8521,39.2485],[8.8517,39.2337],[8.8482,39.2303],[8.8441,39.252],[8.8426,39.2549],[8.8422,39.2617],[8.8445,39.2702],[8.8599,39.2872],[8.8732,39.299],[8.8732,39.3016],[8.8685,39.3048],[8.8669,39.3071],[8.8743,39.3113],[8.9222,39.3282],[8.9287,39.329],[8.9402,39.3252]]]}},{"type":"Feature","properties":{"i":"111006","n":"Buggerru"},"geometry":{"type":"Polygon","coordinates":[[[8.4804,39.3729],[8.4444,39.3757],[8.4356,39.3752],[8.4179,39.3739],[8.4063,39.3694],[8.3959,39.3677],[8.3823,39.3713],[8.3803,39.3724],[8.3793,39.3739],[8.3803,39.3843],[8.3849,39.3906],[8.3954,39.3992],[8.4042,39.4079],[8.4105,39.4185],[8.4124,39.426],[8.4127,39.4323],[8.4116,39.4395],[8.4109,39.4412],[8.4097,39.4417],[8.4186,39.4431],[8.4209,39.4454],[8.426,39.4479],[8.4328,39.4477],[8.4423,39.4444],[8.4466,39.4394],[8.4532,39.4343],[8.4586,39.4319],[8.4641,39.4261],[8.4645,39.424],[8.4626,39.424],[8.4615,39.4197],[8.4768,39.4127],[8.4741,39.4085],[8.4724,39.4075],[8.4729,39.3963],[8.4749,39.3935],[8.488,39.3874],[8.4891,39.3863],[8.4814,39.3756],[8.4804,39.3729]]]}},{"type":"Feature","properties":{"i":"111008","n":"Calasetta"},"geometry":{"type":"MultiPolygon","coordinates":[[[[8.4262,39.1091],[8.4178,39.0975],[8.4126,39.0857],[8.4073,39.0846],[8.3938,39.0541],[8.3804,39.0373],[8.3776,39.0262],[8.3726,39.0223],[8.3704,39.0217],[8.3639,39.0319],[8.3607,39.0443],[8.3605,39.0504],[8.357,39.0643],[8.3502,39.0759],[8.3498,39.083],[8.351,39.082],[8.3581,39.0875],[8.3507,39.0975],[8.3614,39.1013],[8.3621,39.1092],[8.37,39.1141],[8.3736,39.1115],[8.3779,39.1018],[8.3804,39.0996],[8.3877,39.0994],[8.4052,39.1037],[8.4072,39.1019],[8.4102,39.1021],[8.4232,39.1088],[8.4262,39.1091]]]]}},{"type":"Feature","properties":{"i":"111009","n":"Carbonia"},"geometry":{"type":"Polygon","coordinates":[[[8.5855,39.2128],[8.5943,39.2123],[8.6075,39.1938],[8.6064,39.1892],[8.6039,39.1841],[8.5959,39.1774],[8.5872,39.1618],[8.5837,39.1575],[8.5795,39.1457],[8.5607,39.1393],[8.5508,39.1392],[8.5381,39.1405],[8.5309,39.1353],[8.5227,39.1344],[8.5101,39.1314],[8.5041,39.132],[8.5018,39.1337],[8.494,39.1552],[8.4589,39.1608],[8.4458,39.165],[8.4537,39.1674],[8.4563,39.1697],[8.456,39.182],[8.4499,39.1922],[8.4395,39.2011],[8.4354,39.2096],[8.4516,39.2154],[8.4663,39.222],[8.4656,39.2284],[8.4637,39.2321],[8.4599,39.2356],[8.4573,39.2454],[8.4575,39.2489],[8.4594,39.253],[8.4618,39.2554],[8.4918,39.2557],[8.495,39.2579],[8.4939,39.2605],[8.4957,39.2613],[8.5008,39.2603],[8.5079,39.2567],[8.5226,39.2547],[8.5301,39.2528],[8.5362,39.2628],[8.5401,39.2638],[8.5442,39.2632],[8.5457,39.2729],[8.5453,39.2798],[8.5481,39.2824],[8.5508,39.2829],[8.569,39.2784],[8.5815,39.2771],[8.5833,39.2782],[8.5899,39.2729],[8.5881,39.2673],[8.5794,39.2531],[8.5641,39.246],[8.5615,39.2427],[8.555,39.2292],[8.5524,39.2253],[8.5499,39.2241],[8.5492,39.2219],[8.5498,39.2185],[8.5525,39.2159],[8.5687,39.2122],[8.5725,39.2133],[8.582,39.2138],[8.5855,39.2128]]]}},{"type":"Feature","properties":{"i":"111010","n":"Carloforte"},"geometry":{"type":"MultiPolygon","coordinates":[[[[8.2431,39.1669],[8.2425,39.1661],[8.2414,39.1664],[8.2431,39.1669]]],[[[8.3194,39.1852],[8.3178,39.1857],[8.3181,39.1867],[8.3194,39.1852]]],[[[8.3093,39.1878],[8.3098,39.1869],[8.3064,39.1631],[8.3114,39.1488],[8.3111,39.1475],[8.3087,39.1462],[8.308,39.1435],[8.3094,39.1406],[8.3128,39.1394],[8.308,39.1289],[8.3093,39.1228],[8.3102,39.1129],[8.3061,39.103],[8.2973,39.0969],[8.2898,39.0956],[8.2793,39.0959],[8.2552,39.1039],[8.2479,39.1085],[8.2473,39.1108],[8.2512,39.1138],[8.2549,39.115],[8.2535,39.12],[8.249,39.1259],[8.251,39.1269],[8.2522,39.1291],[8.2506,39.1326],[8.2399,39.1406],[8.2327,39.1428],[8.2261,39.1415],[8.2207,39.1454],[8.2196,39.1478],[8.221,39.1474],[8.2246,39.1532],[8.2266,39.1609],[8.23,39.165],[8.2368,39.1665],[8.2421,39.1641],[8.2446,39.1662],[8.2533,39.1702],[8.257,39.1697],[8.2652,39.175],[8.2675,39.1786],[8.2892,39.181],[8.2914,39.18],[8.2966,39.1793],[8.3029,39.1834],[8.3049,39.1869],[8.3093,39.1878]]],[[[8.3248,39.1917],[8.3247,39.1902],[8.3203,39.189],[8.3172,39.1905],[8.3197,39.1954],[8.3248,39.1917]]]]}},{"type":"Feature","properties":{"i":"111016","n":"Domusnovas"},"geometry":{"type":"Polygon","coordinates":[[[8.6168,39.4256],[8.617,39.418],[8.6275,39.4104],[8.636,39.3875],[8.6382,39.3843],[8.641,39.3824],[8.652,39.3794],[8.6649,39.3785],[8.6761,39.379],[8.6792,39.3781],[8.6783,39.376],[8.6771,39.3772],[8.6742,39.3762],[8.6655,39.3689],[8.6641,39.3675],[8.6637,39.3657],[8.6712,39.3447],[8.6764,39.3377],[8.6813,39.3328],[8.6843,39.317],[8.6795,39.3151],[8.6668,39.3135],[8.6606,39.3059],[8.6486,39.2986],[8.6385,39.3004],[8.6295,39.2999],[8.6242,39.3005],[8.623,39.3054],[8.6205,39.3253],[8.6217,39.3323],[8.6251,39.337],[8.6248,39.3434],[8.6018,39.3439],[8.5869,39.3529],[8.5712,39.3593],[8.566,39.3647],[8.5663,39.3756],[8.5648,39.3919],[8.5664,39.3991],[8.584,39.4315],[8.59,39.4318],[8.6006,39.4275],[8.6029,39.4253],[8.606,39.4243],[8.6114,39.4234],[8.6168,39.4256]]]}},{"type":"Feature","properties":{"i":"111021","n":"Fluminimaggiore"},"geometry":{"type":"Polygon","coordinates":[[[8.547,39.4587],[8.5626,39.4501],[8.5667,39.4487],[8.5752,39.4475],[8.5814,39.445],[8.5829,39.4434],[8.58,39.437],[8.584,39.4315],[8.5664,39.3991],[8.5648,39.3919],[8.5663,39.3756],[8.5577,39.379],[8.5449,39.3749],[8.5271,39.3755],[8.5144,39.3733],[8.4987,39.374],[8.4804,39.3729],[8.4814,39.3756],[8.4889,39.3855],[8.4889,39.3866],[8.4749,39.3935],[8.4735,39.3953],[8.4725,39.3979],[8.4724,39.4075],[8.4741,39.4085],[8.4768,39.4127],[8.4615,39.4197],[8.4626,39.424],[8.4645,39.424],[8.4642,39.4258],[8.4586,39.4319],[8.4532,39.4343],[8.4466,39.4394],[8.4423,39.4444],[8.4328,39.4477],[8.426,39.4479],[8.4209,39.4454],[8.4186,39.4431],[8.4117,39.4417],[8.3927,39.4468],[8.4105,39.4565],[8.4128,39.4639],[8.415,39.4664],[8.4294,39.4706],[8.4364,39.471],[8.4474,39.4641],[8.4515,39.4624],[8.47,39.47],[8.4797,39.4715],[8.4845,39.4734],[8.4892,39.4764],[8.4923,39.4801],[8.496,39.483],[8.5248,39.4795],[8.5351,39.4773],[8.5404,39.4673],[8.545,39.4642],[8.547,39.4587]]]}},{"type":"Feature","properties":{"i":"111028","n":"Giba"},"geometry":{"type":"Polygon","coordinates":[[[8.6336,39.0841],[8.652,39.0841],[8.6564,39.0824],[8.655,39.0809],[8.6533,39.0711],[8.6498,39.0643],[8.6508,39.0589],[8.6545,39.0534],[8.6474,39.0535],[8.6396,39.0551],[8.6361,39.0581],[8.6239,39.0616],[8.608,39.0623],[8.6041,39.0621],[8.6007,39.0608],[8.5974,39.0574],[8.6005,39.0554],[8.5989,39.0482],[8.5925,39.0411],[8.5954,39.0308],[8.5908,39.0236],[8.5862,39.0199],[8.58,39.0257],[8.5761,39.0253],[8.5749,39.0321],[8.569,39.0415],[8.5649,39.0454],[8.5598,39.0469],[8.5498,39.0461],[8.5473,39.0485],[8.5492,39.0525],[8.5639,39.0633],[8.5783,39.0775],[8.5808,39.0841],[8.5821,39.0904],[8.5835,39.0923],[8.5904,39.0898],[8.6056,39.082],[8.614,39.0808],[8.6264,39.082],[8.6317,39.083],[8.6336,39.0841]]]}},{"type":"Feature","properties":{"i":"111030","n":"Gonnesa"},"geometry":{"type":"MultiPolygon","coordinates":[[[[8.4939,39.2605],[8.495,39.2579],[8.4918,39.2557],[8.4618,39.2554],[8.4594,39.253],[8.4575,39.2489],[8.4573,39.2454],[8.4599,39.2356],[8.4637,39.2321],[8.4656,39.2284],[8.4663,39.222],[8.4516,39.2154],[8.4354,39.2096],[8.4239,39.2134],[8.4148,39.2315],[8.4049,39.2414],[8.3942,39.2486],[8.3975,39.2505],[8.4105,39.2637],[8.4149,39.2659],[8.4215,39.2665],[8.4253,39.2695],[8.4272,39.2721],[8.4368,39.2899],[8.4367,39.2922],[8.4341,39.2991],[8.433,39.3079],[8.4459,39.306],[8.4595,39.3023],[8.4687,39.3042],[8.4761,39.2997],[8.4781,39.2974],[8.4895,39.2781],[8.4897,39.2728],[8.4921,39.2639],[8.4939,39.2605]]]]}},{"type":"Feature","properties":{"i":"111035","n":"Iglesias"},"geometry":{"type":"MultiPolygon","coordinates":[[[[8.4001,39.3343],[8.4018,39.334],[8.4005,39.3332],[8.3977,39.3339],[8.3983,39.3348],[8.4001,39.3343]]],[[[8.6242,39.3005],[8.6096,39.2953],[8.6037,39.2898],[8.5942,39.2754],[8.5954,39.2686],[8.6038,39.2422],[8.6041,39.2383],[8.6027,39.2322],[8.6032,39.229],[8.5926,39.2293],[8.5855,39.2128],[8.582,39.2138],[8.5725,39.2133],[8.5687,39.2122],[8.5525,39.2159],[8.5498,39.2185],[8.5494,39.2233],[8.551,39.2251],[8.5524,39.2253],[8.555,39.2292],[8.5615,39.2427],[8.5652,39.2468],[8.5794,39.2531],[8.5881,39.2673],[8.5897,39.2732],[8.5833,39.2782],[8.5815,39.2771],[8.569,39.2784],[8.5508,39.2829],[8.5481,39.2824],[8.5453,39.2798],[8.5457,39.2729],[8.5442,39.2632],[8.5401,39.2638],[8.5362,39.2628],[8.5301,39.2528],[8.5226,39.2547],[8.5079,39.2567],[8.5008,39.2603],[8.4974,39.2611],[8.4957,39.2613],[8.4939,39.2605],[8.4921,39.2639],[8.4897,39.2728],[8.4895,39.2781],[8.4781,39.2974],[8.4761,39.2997],[8.4687,39.3042],[8.4595,39.3023],[8.4459,39.306],[8.433,39.3079],[8.4261,39.3188],[8.4238,39.3207],[8.4198,39.3209],[8.4186,39.322],[8.4179,39.3235],[8.4204,39.3326],[8.4152,39.3361],[8.3996,39.3374],[8.3957,39.3395],[8.3933,39.3426],[8.3956,39.3473],[8.393,39.3498],[8.3872,39.3523],[8.3877,39.3601],[8.389,39.3631],[8.3849,39.3657],[8.3821,39.366],[8.3761,39.3689],[8.3731,39.3745],[8.3759,39.3769],[8.3803,39.3724],[8.3823,39.3713],[8.3959,39.3677],[8.4063,39.3694],[8.4179,39.3739],[8.4356,39.3752],[8.4444,39.3757],[8.4804,39.3729],[8.4987,39.374],[8.5144,39.3733],[8.5271,39.3755],[8.5449,39.3749],[8.5577,39.379],[8.5663,39.3756],[8.566,39.3647],[8.5712,39.3593],[8.5869,39.3529],[8.6018,39.3439],[8.6248,39.3434],[8.6251,39.337],[8.6217,39.3323],[8.6205,39.3253],[8.623,39.3054],[8.6242,39.3005]]],[[[8.6993,39.375],[8.7051,39.372],[8.7098,39.3652],[8.7103,39.3628],[8.7049,39.3481],[8.7021,39.3364],[8.7006,39.3223],[8.698,39.3197],[8.6843,39.317],[8.6813,39.3328],[8.6764,39.3377],[8.6712,39.3447],[8.6637,39.3654],[8.6639,39.3671],[8.6742,39.3762],[8.6771,39.3772],[8.6783,39.376],[8.6913,39.382],[8.6958,39.3791],[8.6993,39.375]]]]}},{"type":"Feature","properties":{"i":"111040","n":"Masainas"},"geometry":{"type":"Polygon","coordinates":[[[8.6474,39.0535],[8.6508,39.0485],[8.6512,39.0451],[8.6526,39.0415],[8.6573,39.0396],[8.6599,39.0395],[8.6588,39.0353],[8.6592,39.0312],[8.6586,39.0291],[8.6569,39.0273],[8.656,39.0273],[8.6548,39.0309],[8.6488,39.0291],[8.6235,39.0281],[8.6208,39.0264],[8.619,39.0187],[8.6173,39.0167],[8.6086,39.0151],[8.5938,39.0096],[8.581,39.009],[8.5725,39.0051],[8.571,39.0034],[8.5661,39.0066],[8.5666,39.01],[8.5749,39.017],[8.5764,39.0218],[8.5761,39.0253],[8.58,39.0257],[8.5862,39.0199],[8.5908,39.0236],[8.5947,39.0297],[8.5954,39.0308],[8.5925,39.0411],[8.5989,39.0482],[8.6005,39.0554],[8.5974,39.0574],[8.6007,39.0608],[8.6041,39.0621],[8.608,39.0623],[8.6239,39.0616],[8.6361,39.0581],[8.6396,39.0551],[8.6474,39.0535]]]}},{"type":"Feature","properties":{"i":"111043","n":"Musei"},"geometry":{"type":"Polygon","coordinates":[[[8.731,39.281],[8.7296,39.2796],[8.724,39.2788],[8.6929,39.2852],[8.6705,39.2816],[8.6574,39.2862],[8.6492,39.2954],[8.6486,39.2986],[8.6606,39.3059],[8.6668,39.3135],[8.6795,39.3151],[8.6843,39.317],[8.698,39.3197],[8.7006,39.3223],[8.7164,39.3104],[8.7215,39.2963],[8.7221,39.2909],[8.7211,39.2848],[8.7222,39.2834],[8.7297,39.282],[8.731,39.281]]]}},{"type":"Feature","properties":{"i":"111044","n":"Narcao"},"geometry":{"type":"Polygon","coordinates":[[[8.7483,39.2319],[8.7582,39.201],[8.7653,39.1882],[8.7593,39.1876],[8.7491,39.1916],[8.7423,39.1917],[8.7384,39.1901],[8.7363,39.1876],[8.737,39.1691],[8.7358,39.1688],[8.7298,39.1719],[8.7281,39.1754],[8.7222,39.1744],[8.7141,39.1669],[8.7097,39.1604],[8.7074,39.1476],[8.6932,39.1291],[8.6745,39.1402],[8.6717,39.1429],[8.6581,39.1461],[8.6506,39.1436],[8.6442,39.1695],[8.6421,39.175],[8.6344,39.1838],[8.6346,39.1922],[8.6291,39.1957],[8.623,39.1973],[8.6085,39.1878],[8.6061,39.1885],[8.6074,39.1941],[8.5943,39.2123],[8.5855,39.2128],[8.5926,39.2293],[8.5943,39.2296],[8.6119,39.2294],[8.6375,39.2313],[8.6392,39.2264],[8.6389,39.2209],[8.6433,39.219],[8.6537,39.2184],[8.6656,39.2189],[8.6902,39.2162],[8.7049,39.2182],[8.7107,39.2171],[8.7318,39.2215],[8.7381,39.2242],[8.7483,39.2319]]]}},{"type":"Feature","properties":{"i":"111049","n":"Nuxis"},"geometry":{"type":"Polygon","coordinates":[[[8.7653,39.1882],[8.7708,39.1794],[8.8115,39.1653],[8.8212,39.1555],[8.8263,39.1487],[8.8263,39.1468],[8.822,39.1412],[8.8202,39.1301],[8.8085,39.1252],[8.8004,39.1188],[8.7929,39.1162],[8.7649,39.116],[8.7434,39.1179],[8.7337,39.1268],[8.7071,39.1251],[8.6943,39.1263],[8.6932,39.1291],[8.7074,39.1476],[8.7097,39.1604],[8.7141,39.1669],[8.7222,39.1744],[8.7276,39.1756],[8.7298,39.1719],[8.7358,39.1688],[8.737,39.1691],[8.7363,39.1876],[8.7382,39.19],[8.7423,39.1917],[8.7491,39.1916],[8.7593,39.1876],[8.7653,39.1882]]]}},{"type":"Feature","properties":{"i":"111054","n":"Perdaxius"},"geometry":{"type":"Polygon","coordinates":[[[8.6506,39.1436],[8.6511,39.1413],[8.6496,39.1398],[8.6382,39.1334],[8.629,39.1308],[8.6243,39.1311],[8.6168,39.1282],[8.6091,39.1314],[8.5919,39.1428],[8.5795,39.1457],[8.5837,39.1575],[8.5872,39.1618],[8.5959,39.1774],[8.6039,39.1841],[8.6061,39.1885],[8.6085,39.1878],[8.6236,39.1973],[8.6291,39.1957],[8.6346,39.1922],[8.6344,39.1838],[8.6421,39.175],[8.6442,39.1695],[8.6506,39.1436]]]}},{"type":"Feature","properties":{"i":"111056","n":"Piscinas"},"geometry":{"type":"Polygon","coordinates":[[[8.6781,39.0935],[8.6801,39.0919],[8.6876,39.0715],[8.6855,39.0657],[8.6803,39.0593],[8.6814,39.0419],[8.6689,39.0419],[8.6625,39.0409],[8.659,39.0394],[8.6532,39.041],[8.6513,39.0446],[8.6508,39.0485],[8.6474,39.0535],[8.6545,39.0534],[8.6508,39.0589],[8.6498,39.0643],[8.6533,39.0711],[8.655,39.0809],[8.6564,39.0824],[8.652,39.0841],[8.6336,39.0841],[8.6358,39.0854],[8.6412,39.0867],[8.6512,39.0926],[8.6551,39.0966],[8.6594,39.0978],[8.6635,39.0978],[8.6781,39.0935]]]}},{"type":"Feature","properties":{"i":"111057","n":"Portoscuso"},"geometry":{"type":"MultiPolygon","coordinates":[[[[8.3696,39.1996],[8.3686,39.1999],[8.3696,39.2002],[8.3696,39.1996]]],[[[8.4354,39.2096],[8.4395,39.2011],[8.4499,39.1922],[8.4558,39.1832],[8.4563,39.1697],[8.4537,39.1674],[8.4458,39.165],[8.434,39.159],[8.4173,39.1713],[8.414,39.1721],[8.4108,39.1692],[8.4094,39.1649],[8.4108,39.1619],[8.4149,39.1568],[8.4174,39.1478],[8.416,39.1475],[8.4114,39.1495],[8.4068,39.1588],[8.4065,39.1635],[8.3987,39.1896],[8.3994,39.1941],[8.3962,39.1989],[8.3923,39.1997],[8.3901,39.1972],[8.3817,39.2019],[8.3719,39.2092],[8.3686,39.2164],[8.367,39.2283],[8.3942,39.2486],[8.4049,39.2414],[8.4148,39.2315],[8.4239,39.2134],[8.4354,39.2096]]]]}},{"type":"Feature","properties":{"i":"111063","n":"San Giovanni Suergiu"},"geometry":{"type":"Polygon","coordinates":[[[8.5498,39.1393],[8.5418,39.1355],[8.5369,39.1174],[8.5457,39.1129],[8.5503,39.1097],[8.5528,39.1068],[8.553,39.0967],[8.5549,39.0947],[8.5671,39.0899],[8.5697,39.09],[8.5731,39.092],[8.5803,39.0942],[8.5882,39.0917],[8.5904,39.0898],[8.5835,39.0923],[8.5821,39.0904],[8.5808,39.0841],[8.5783,39.0775],[8.5639,39.0633],[8.5492,39.0525],[8.5473,39.0492],[8.5477,39.0477],[8.5498,39.0461],[8.5531,39.0463],[8.5494,39.0443],[8.5428,39.0474],[8.535,39.0529],[8.5326,39.0559],[8.5345,39.0568],[8.5307,39.0593],[8.5116,39.0623],[8.5163,39.063],[8.5178,39.0646],[8.5122,39.0698],[8.5175,39.076],[8.5178,39.0813],[8.5172,39.0841],[8.5104,39.0856],[8.5037,39.0854],[8.5015,39.0842],[8.4884,39.0876],[8.4877,39.0888],[8.4846,39.0864],[8.4776,39.0961],[8.4724,39.1122],[8.4665,39.1187],[8.4614,39.1206],[8.4464,39.1174],[8.4398,39.115],[8.4369,39.1208],[8.4346,39.1319],[8.4382,39.1417],[8.4376,39.1536],[8.4365,39.1565],[8.434,39.159],[8.4458,39.165],[8.4589,39.1608],[8.494,39.1552],[8.5014,39.1345],[8.5044,39.132],[8.5101,39.1314],[8.5227,39.1344],[8.5309,39.1353],[8.5381,39.1405],[8.5498,39.1393]]]}},{"type":"Feature","properties":{"i":"111068","n":"Santadi"},"geometry":{"type":"Polygon","coordinates":[[[8.8487,39.0992],[8.8478,39.0968],[8.8496,39.0899],[8.8531,39.0842],[8.8467,39.0716],[8.8319,39.0474],[8.8298,39.0507],[8.8269,39.0529],[8.8225,39.0495],[8.8155,39.0482],[8.8041,39.0503],[8.7865,39.0467],[8.7813,39.0466],[8.7696,39.0487],[8.7405,39.0497],[8.7349,39.0431],[8.7174,39.0351],[8.7141,39.0326],[8.7055,39.0296],[8.6964,39.0289],[8.6953,39.029],[8.6814,39.0419],[8.6803,39.0593],[8.6855,39.0657],[8.6876,39.0715],[8.6801,39.0919],[8.6781,39.0935],[8.7024,39.1258],[8.7071,39.1251],[8.7337,39.1268],[8.7434,39.1179],[8.7649,39.116],[8.7929,39.1162],[8.8004,39.1188],[8.8085,39.1252],[8.8202,39.1301],[8.8222,39.1245],[8.8222,39.1186],[8.823,39.1176],[8.8317,39.1116],[8.8374,39.1104],[8.8487,39.0992]]]}},{"type":"Feature","properties":{"i":"111070","n":"Sant'Anna Arresi"},"geometry":{"type":"Polygon","coordinates":[[[8.656,39.0273],[8.653,39.0251],[8.6532,39.0218],[8.6599,39.0018],[8.6602,38.999],[8.6537,38.9981],[8.6504,38.9989],[8.6395,38.9953],[8.6321,38.9843],[8.628,38.974],[8.6243,38.968],[8.6126,38.9579],[8.6067,38.9619],[8.6034,38.963],[8.6004,38.9628],[8.597,38.9616],[8.5962,38.9595],[8.5941,38.9573],[8.5868,38.9557],[8.5849,38.9599],[8.5856,38.9615],[8.5886,38.9625],[8.5893,38.964],[8.5843,38.9699],[8.578,38.975],[8.5719,38.9887],[8.5661,38.9971],[8.5649,39.0015],[8.5661,39.0066],[8.571,39.0034],[8.5725,39.0051],[8.581,39.009],[8.5938,39.0096],[8.6086,39.0151],[8.6173,39.0167],[8.619,39.0187],[8.6208,39.0264],[8.6235,39.0281],[8.6488,39.0291],[8.6548,39.0309],[8.656,39.0273]]]}},{"type":"Feature","properties":{"i":"111071","n":"Sant'Antioco"},"geometry":{"type":"MultiPolygon","coordinates":[[[[8.4104,38.8632],[8.412,38.8623],[8.4121,38.8606],[8.4085,38.8592],[8.4078,38.861],[8.4083,38.8634],[8.4104,38.8632]]],[[[8.4496,38.9345],[8.4481,38.9351],[8.4481,38.936],[8.4493,38.9391],[8.4502,38.9394],[8.4516,38.9362],[8.4496,38.9345]]],[[[8.4502,38.9408],[8.4498,38.9414],[8.4509,38.942],[8.4502,38.9408]]],[[[8.4378,39.1051],[8.4371,39.1052],[8.4379,39.1058],[8.4384,39.1055],[8.4378,39.1051]]],[[[8.4877,39.0888],[8.4884,39.0876],[8.5015,39.0842],[8.5037,39.0854],[8.5104,39.0856],[8.5172,39.0841],[8.5178,39.0813],[8.5175,39.076],[8.5122,39.0698],[8.5178,39.0646],[8.5163,39.063],[8.5116,39.0623],[8.4951,39.0628],[8.4733,39.058],[8.4683,39.0552],[8.4701,39.0516],[8.4528,39.0247],[8.4498,39.0084],[8.4514,38.9961],[8.4505,38.989],[8.4473,38.9835],[8.4447,38.9825],[8.4418,38.9745],[8.4419,38.9681],[8.4359,38.9628],[8.4303,38.9601],[8.4215,38.9604],[8.4141,38.9553],[8.4081,38.9577],[8.4034,38.9628],[8.4026,38.9662],[8.403,38.9675],[8.3991,38.975],[8.397,38.9759],[8.3944,38.9827],[8.394,38.9868],[8.3913,38.9916],[8.3881,38.9941],[8.3848,38.9993],[8.3836,39.0034],[8.3801,39.0098],[8.3756,39.0132],[8.3709,39.0195],[8.3734,39.0233],[8.3776,39.0262],[8.3804,39.0373],[8.3938,39.0541],[8.4073,39.0846],[8.4126,39.0857],[8.4178,39.0975],[8.4262,39.1091],[8.4307,39.0978],[8.4338,39.0952],[8.442,39.0922],[8.4513,39.0876],[8.4565,39.0837],[8.4572,39.0811],[8.4567,39.0782],[8.4598,39.065],[8.4666,39.0574],[8.4747,39.0592],[8.478,39.0609],[8.4789,39.0625],[8.479,39.0716],[8.4884,39.0846],[8.486,39.0848],[8.4877,39.0888]]]]}},{"type":"Feature","properties":{"i":"111090","n":"Tratalias"},"geometry":{"type":"Polygon","coordinates":[[[8.6168,39.1282],[8.6126,39.1222],[8.5989,39.0964],[8.6002,39.0932],[8.6046,39.0898],[8.6135,39.0865],[8.6179,39.0859],[8.6335,39.0864],[8.6358,39.0854],[8.6317,39.083],[8.614,39.0808],[8.6056,39.082],[8.5904,39.0898],[8.5882,39.0917],[8.5803,39.0942],[8.5731,39.092],[8.5697,39.09],[8.5671,39.0899],[8.5619,39.0917],[8.5549,39.0947],[8.553,39.0967],[8.5528,39.1068],[8.5503,39.1097],[8.5457,39.1129],[8.5369,39.1174],[8.5418,39.1355],[8.5498,39.1393],[8.5613,39.1394],[8.5795,39.1457],[8.5919,39.1428],[8.6091,39.1314],[8.6168,39.1282]]]}},{"type":"Feature","properties":{"i":"111098","n":"Villamassargia"},"geometry":{"type":"Polygon","coordinates":[[[8.6486,39.2986],[8.6492,39.2954],[8.6574,39.2862],[8.6705,39.2816],[8.6929,39.2852],[8.724,39.2788],[8.7296,39.2796],[8.731,39.281],[8.7375,39.2811],[8.7398,39.28],[8.7422,39.2715],[8.7483,39.2319],[8.7381,39.2242],[8.7318,39.2215],[8.7107,39.2171],[8.7049,39.2182],[8.6902,39.2162],[8.6656,39.2189],[8.6537,39.2184],[8.6433,39.219],[8.6389,39.2209],[8.6392,39.2264],[8.6375,39.2313],[8.6032,39.229],[8.6027,39.2322],[8.6041,39.2383],[8.6038,39.2422],[8.5954,39.2686],[8.5942,39.2754],[8.6018,39.2874],[8.6096,39.2953],[8.6226,39.3001],[8.6385,39.3004],[8.6486,39.2986]]]}},{"type":"Feature","properties":{"i":"111102","n":"Villaperuccio"},"geometry":{"type":"Polygon","coordinates":[[[8.6932,39.1291],[8.6943,39.1263],[8.7024,39.1258],[8.6781,39.0935],[8.6635,39.0978],[8.6594,39.0978],[8.6551,39.0966],[8.6512,39.0926],[8.6402,39.0864],[8.6358,39.0854],[8.6335,39.0864],[8.6258,39.0866],[8.6179,39.0859],[8.6135,39.0865],[8.6046,39.0898],[8.6002,39.0932],[8.5989,39.0964],[8.6126,39.1222],[8.6168,39.1282],[8.6243,39.1311],[8.629,39.1308],[8.6382,39.1334],[8.6496,39.1398],[8.6511,39.1413],[8.6506,39.1436],[8.6537,39.1447],[8.6581,39.1461],[8.6717,39.1429],[8.6745,39.1402],[8.6932,39.1291]]]}},{"type":"Feature","properties":{"i":"111089","n":"Teulada"},"geometry":{"type":"MultiPolygon","coordinates":[[[[8.8276,38.882],[8.8273,38.8814],[8.8262,38.8817],[8.8276,38.882]]],[[[8.8138,38.8907],[8.8118,38.8897],[8.8125,38.8925],[8.8136,38.8931],[8.8144,38.8924],[8.8138,38.8907]]],[[[8.7658,38.9141],[8.7649,38.9145],[8.7657,38.9149],[8.7658,38.9141]]],[[[8.7188,38.9158],[8.7191,38.9152],[8.7163,38.9122],[8.7145,38.9131],[8.7142,38.914],[8.7153,38.916],[8.7188,38.9158]]],[[[8.8319,39.0474],[8.8295,39.043],[8.8239,39.0369],[8.8156,39.018],[8.8146,39.005],[8.8227,38.9795],[8.8244,38.9651],[8.8273,38.9552],[8.8269,38.954],[8.8212,38.9488],[8.8273,38.9332],[8.833,38.9253],[8.8358,38.9143],[8.8347,38.8973],[8.8384,38.8895],[8.8397,38.8826],[8.8388,38.8804],[8.8354,38.877],[8.8346,38.8767],[8.829,38.8812],[8.8271,38.884],[8.8278,38.8881],[8.8193,38.8946],[8.812,38.8949],[8.8094,38.8935],[8.807,38.8989],[8.806,38.8997],[8.8028,38.8995],[8.7999,38.8977],[8.7989,38.8947],[8.799,38.8931],[8.8034,38.8848],[8.8018,38.8839],[8.7989,38.8857],[8.7969,38.8905],[8.7937,38.8939],[8.7868,38.8978],[8.7835,38.8982],[8.7861,38.9065],[8.7945,38.9136],[8.7969,38.9198],[8.7968,38.9348],[8.7943,38.9372],[8.7914,38.9376],[8.7744,38.9359],[8.7723,38.9347],[8.7703,38.9286],[8.7738,38.9209],[8.775,38.9149],[8.7744,38.9143],[8.7612,38.9172],[8.7554,38.9205],[8.7203,38.9365],[8.7205,38.9311],[8.7186,38.9261],[8.7156,38.9243],[8.6983,38.9172],[8.6883,38.9145],[8.6816,38.9093],[8.6715,38.9083],[8.6692,38.9097],[8.6663,38.9129],[8.6646,38.9128],[8.6641,38.9089],[8.6703,38.8997],[8.6703,38.8972],[8.6677,38.8951],[8.6646,38.894],[8.6608,38.8948],[8.6573,38.8981],[8.6561,38.8983],[8.6527,38.8972],[8.6497,38.8949],[8.6482,38.8893],[8.6487,38.886],[8.6585,38.8819],[8.6557,38.8767],[8.6566,38.8728],[8.658,38.8706],[8.6553,38.8685],[8.6496,38.8673],[8.6454,38.8641],[8.6401,38.865],[8.6366,38.8679],[8.6466,38.8762],[8.6428,38.8773],[8.6414,38.8794],[8.641,38.8829],[8.648,38.8923],[8.6464,38.8942],[8.6432,38.8956],[8.6354,38.8959],[8.6234,38.8917],[8.6166,38.8911],[8.6104,38.8911],[8.6077,38.8934],[8.6066,38.8996],[8.607,38.9041],[8.6121,38.911],[8.6207,38.9205],[8.6205,38.931],[8.6227,38.9341],[8.6232,38.9369],[8.6223,38.9414],[8.6199,38.947],[8.6126,38.9579],[8.6243,38.968],[8.628,38.974],[8.6321,38.9843],[8.6395,38.9953],[8.6504,38.9989],[8.6537,38.9981],[8.6602,38.999],[8.6599,39.0018],[8.6532,39.0218],[8.653,39.0251],[8.6578,39.0279],[8.6586,39.0291],[8.6593,39.0386],[8.6605,39.04],[8.6689,39.0419],[8.6814,39.0419],[8.6953,39.029],[8.6964,39.0289],[8.7055,39.0296],[8.7141,39.0326],[8.7174,39.0351],[8.7349,39.0431],[8.7405,39.0497],[8.7696,39.0487],[8.7813,39.0466],[8.7865,39.0467],[8.8041,39.0503],[8.8155,39.0482],[8.8225,39.0495],[8.8269,39.0529],[8.8298,39.0507],[8.8319,39.0474]]]]}}]}
