{"type":"FeatureCollection","fonte":"Confini comunali ISTAT via openpolis/geojson-italy — CC BY 4.0","features":[{"type":"Feature","properties":{"i":"073001","n":"Avetrana"},"geometry":{"type":"Polygon","coordinates":[[[17.7983,40.3796],[17.7995,40.3749],[17.7998,40.3683],[17.7992,40.3535],[17.793,40.3396],[17.792,40.3367],[17.7927,40.336],[17.7896,40.3329],[17.7843,40.3301],[17.7811,40.3243],[17.7834,40.3212],[17.7856,40.3156],[17.7851,40.3105],[17.7737,40.3118],[17.768,40.3116],[17.7615,40.3152],[17.757,40.3165],[17.7509,40.315],[17.7299,40.3136],[17.7228,40.3141],[17.6979,40.3181],[17.695,40.3208],[17.6945,40.3294],[17.6955,40.3308],[17.7031,40.3339],[17.7043,40.3379],[17.7043,40.3434],[17.7024,40.3453],[17.686,40.3451],[17.686,40.3716],[17.69,40.3829],[17.6989,40.3857],[17.7108,40.3861],[17.7224,40.389],[17.7286,40.3916],[17.7334,40.3915],[17.7504,40.3945],[17.7682,40.3959],[17.7715,40.397],[17.7714,40.3931],[17.7776,40.3882],[17.7896,40.3914],[17.792,40.3905],[17.7977,40.3846],[17.7983,40.3796]]]}},{"type":"Feature","properties":{"i":"073002","n":"Carosino"},"geometry":{"type":"Polygon","coordinates":[[[17.4262,40.4766],[17.4255,40.4737],[17.4275,40.4708],[17.4314,40.4618],[17.4309,40.4539],[17.4061,40.4586],[17.3983,40.4584],[17.3937,40.4593],[17.3903,40.4615],[17.3874,40.4675],[17.3909,40.4829],[17.394,40.4846],[17.3978,40.4835],[17.4105,40.4934],[17.4133,40.4933],[17.4156,40.4916],[17.4263,40.4811],[17.4262,40.4766]]]}},{"type":"Feature","properties":{"i":"073003","n":"Castellaneta"},"geometry":{"type":"Polygon","coordinates":[[[16.9307,40.7129],[16.933,40.7119],[16.9298,40.7097],[16.9303,40.7026],[16.935,40.6943],[16.9414,40.6766],[16.932,40.6723],[16.9303,40.6667],[16.9349,40.6597],[16.9345,40.6503],[16.9329,40.6443],[16.9364,40.6343],[16.9435,40.63],[16.9448,40.6227],[16.9456,40.6092],[16.9451,40.6048],[16.9463,40.5949],[16.9523,40.5859],[16.9575,40.576],[16.9606,40.5727],[16.9591,40.5546],[16.9574,40.5475],[16.9542,40.5407],[16.9477,40.5295],[16.9377,40.5243],[16.9331,40.5194],[16.9322,40.5171],[16.9371,40.512],[16.9506,40.5036],[16.9541,40.503],[16.9627,40.5034],[16.9719,40.4982],[16.9931,40.4938],[16.9668,40.48],[16.9461,40.4677],[16.9236,40.4523],[16.9098,40.4414],[16.9085,40.4422],[16.9034,40.4503],[16.8993,40.4597],[16.8941,40.4647],[16.8896,40.468],[16.875,40.4742],[16.8601,40.4825],[16.8491,40.4958],[16.8346,40.5105],[16.83,40.5119],[16.8097,40.5273],[16.829,40.5355],[16.8447,40.5439],[16.8507,40.5462],[16.8564,40.55],[16.8614,40.5548],[16.8626,40.558],[16.8618,40.5589],[16.8367,40.5608],[16.8338,40.5618],[16.828,40.5686],[16.8263,40.5716],[16.8266,40.5736],[16.8317,40.575],[16.8392,40.5796],[16.8501,40.5793],[16.8554,40.5797],[16.8576,40.5809],[16.8683,40.6002],[16.8727,40.6116],[16.8629,40.6222],[16.8615,40.6278],[16.8646,40.6324],[16.8549,40.6407],[16.8533,40.6452],[16.851,40.6542],[16.8566,40.6589],[16.8564,40.6598],[16.8473,40.664],[16.8401,40.6644],[16.8362,40.6668],[16.8375,40.6688],[16.8421,40.6713],[16.8452,40.6701],[16.8472,40.6708],[16.8473,40.674],[16.8299,40.6792],[16.8313,40.687],[16.8354,40.6915],[16.8341,40.6932],[16.8208,40.6862],[16.8139,40.6931],[16.8218,40.6939],[16.8186,40.6993],[16.818,40.7062],[16.8344,40.7095],[16.8421,40.7128],[16.8456,40.7156],[16.8471,40.719],[16.8489,40.7205],[16.8559,40.7236],[16.8639,40.7215],[16.8673,40.7182],[16.8707,40.7115],[16.8751,40.7165],[16.8924,40.7151],[16.8993,40.712],[16.8997,40.7077],[16.9041,40.7066],[16.9119,40.7071],[16.9307,40.7129]]]}},{"type":"Feature","properties":{"i":"073004","n":"Crispiano"},"geometry":{"type":"Polygon","coordinates":[[[17.4104,40.599],[17.4011,40.5946],[17.3799,40.603],[17.3633,40.6067],[17.3443,40.6037],[17.3338,40.604],[17.3258,40.6064],[17.3202,40.6033],[17.3209,40.6011],[17.3268,40.5949],[17.3275,40.5918],[17.3233,40.589],[17.3186,40.5842],[17.3284,40.5668],[17.3304,40.561],[17.3227,40.5548],[17.3221,40.5534],[17.3152,40.551],[17.3006,40.5596],[17.3003,40.5619],[17.3036,40.5629],[17.304,40.5637],[17.3007,40.5665],[17.2962,40.5682],[17.2883,40.5702],[17.2728,40.5694],[17.2502,40.5755],[17.244,40.5784],[17.2268,40.5817],[17.2046,40.5813],[17.1959,40.577],[17.1744,40.5719],[17.1609,40.5735],[17.1564,40.5733],[17.1554,40.5766],[17.1614,40.5917],[17.1613,40.5947],[17.1656,40.6008],[17.1789,40.6061],[17.1791,40.6117],[17.1789,40.6124],[17.1765,40.6125],[17.1743,40.6102],[17.1664,40.6112],[17.1572,40.6138],[17.1563,40.6165],[17.1561,40.6232],[17.159,40.6248],[17.1617,40.6242],[17.1618,40.6221],[17.1632,40.6213],[17.1668,40.6224],[17.1691,40.6213],[17.1728,40.6186],[17.1727,40.6139],[17.1745,40.6133],[17.1755,40.6138],[17.1786,40.6197],[17.1789,40.6225],[17.173,40.6241],[17.1582,40.626],[17.1543,40.6286],[17.1542,40.6395],[17.1741,40.6451],[17.1752,40.6416],[17.1786,40.6413],[17.1822,40.6447],[17.181,40.6491],[17.1817,40.6515],[17.183,40.6531],[17.1849,40.6538],[17.1871,40.6535],[17.1953,40.6488],[17.2006,40.6437],[17.2077,40.6391],[17.2235,40.6372],[17.2275,40.6339],[17.2364,40.6343],[17.24,40.6355],[17.2449,40.6385],[17.2449,40.6406],[17.2435,40.6427],[17.2393,40.645],[17.2396,40.6465],[17.2426,40.6502],[17.2519,40.6516],[17.2595,40.6506],[17.264,40.6495],[17.2767,40.6428],[17.2779,40.6374],[17.2797,40.6355],[17.2908,40.6292],[17.2948,40.6287],[17.2979,40.6194],[17.3116,40.6175],[17.3195,40.6112],[17.3251,40.6098],[17.3344,40.6172],[17.3446,40.613],[17.3721,40.6114],[17.3806,40.6157],[17.3867,40.6199],[17.3946,40.6208],[17.4083,40.6188],[17.4139,40.6146],[17.4151,40.6051],[17.4169,40.602],[17.4143,40.5998],[17.4104,40.599]],[[17.1677,40.6276],[17.1689,40.6277],[17.1702,40.6296],[17.1678,40.6304],[17.1677,40.6276]],[[17.1739,40.6272],[17.1742,40.6242],[17.1756,40.6237],[17.1766,40.6264],[17.1756,40.6277],[17.1739,40.6272]],[[17.1666,40.615],[17.1666,40.6161],[17.1655,40.616],[17.1655,40.6148],[17.1666,40.615]],[[17.1692,40.6154],[17.1705,40.6155],[17.1708,40.6174],[17.169,40.6194],[17.1648,40.6197],[17.1646,40.6189],[17.1692,40.6154]]]}},{"type":"Feature","properties":{"i":"073005","n":"Faggiano"},"geometry":{"type":"MultiPolygon","coordinates":[[[[17.3579,40.3968],[17.3545,40.3966],[17.3536,40.404],[17.3543,40.4083],[17.3605,40.4099],[17.3647,40.41],[17.3647,40.408],[17.3579,40.3968]]],[[[17.3756,40.4386],[17.3784,40.4351],[17.3792,40.433],[17.3789,40.4308],[17.3877,40.4322],[17.3925,40.4294],[17.3947,40.4262],[17.3946,40.4211],[17.3973,40.4163],[17.3998,40.4138],[17.4057,40.4109],[17.4093,40.4069],[17.408,40.4008],[17.4087,40.3932],[17.4123,40.3912],[17.412,40.3863],[17.4085,40.3822],[17.4025,40.3812],[17.3821,40.3798],[17.3824,40.382],[17.3847,40.3865],[17.3877,40.3888],[17.3811,40.3935],[17.3739,40.396],[17.3689,40.3962],[17.369,40.3988],[17.3667,40.402],[17.3655,40.4058],[17.3652,40.408],[17.3677,40.4094],[17.3716,40.4159],[17.3714,40.4214],[17.3662,40.426],[17.3584,40.4286],[17.3531,40.429],[17.3487,40.4282],[17.3438,40.4342],[17.3402,40.4435],[17.3419,40.4464],[17.3432,40.4459],[17.3464,40.4479],[17.361,40.4474],[17.3704,40.4458],[17.3756,40.4386]]]]}},{"type":"Feature","properties":{"i":"073006","n":"Fragagnano"},"geometry":{"type":"Polygon","coordinates":[[[17.4704,40.4568],[17.4744,40.4556],[17.4829,40.4559],[17.491,40.453],[17.494,40.4499],[17.4956,40.4471],[17.496,40.4435],[17.4954,40.4401],[17.5012,40.4336],[17.507,40.4291],[17.5078,40.4262],[17.5044,40.4115],[17.5004,40.4039],[17.4849,40.3975],[17.477,40.4073],[17.4704,40.4132],[17.4629,40.4129],[17.4591,40.4138],[17.4546,40.4227],[17.455,40.4377],[17.4507,40.4431],[17.4464,40.4506],[17.448,40.4524],[17.4542,40.4549],[17.4565,40.4566],[17.4566,40.4588],[17.4526,40.4611],[17.4595,40.4611],[17.4704,40.4568]]]}},{"type":"Feature","properties":{"i":"073007","n":"Ginosa"},"geometry":{"type":"Polygon","coordinates":[[[16.8266,40.5736],[16.8263,40.5716],[16.828,40.5686],[16.8338,40.5618],[16.8367,40.5608],[16.8618,40.5589],[16.8626,40.5587],[16.8623,40.5562],[16.8564,40.55],[16.8507,40.5462],[16.8447,40.5439],[16.829,40.5355],[16.8097,40.5273],[16.83,40.5119],[16.8346,40.5105],[16.8491,40.4958],[16.8601,40.4825],[16.875,40.4742],[16.8896,40.468],[16.8941,40.4647],[16.8993,40.4597],[16.9034,40.4503],[16.9085,40.4422],[16.9098,40.4414],[16.9012,40.4345],[16.8839,40.4173],[16.8706,40.4032],[16.8672,40.3979],[16.8614,40.3999],[16.8589,40.4038],[16.8534,40.4037],[16.8466,40.4078],[16.8375,40.4116],[16.8337,40.4124],[16.8288,40.4161],[16.8164,40.4292],[16.8102,40.433],[16.8083,40.4479],[16.8046,40.4554],[16.8028,40.4574],[16.7945,40.4611],[16.7855,40.4629],[16.7621,40.4624],[16.7583,40.463],[16.7552,40.464],[16.7567,40.4676],[16.7541,40.4701],[16.7495,40.4652],[16.7437,40.4647],[16.7356,40.4679],[16.7328,40.4716],[16.7206,40.4792],[16.7196,40.4814],[16.7319,40.4962],[16.7362,40.5022],[16.7372,40.5051],[16.7363,40.5108],[16.7348,40.5124],[16.7311,40.5126],[16.7243,40.5146],[16.7167,40.5236],[16.7176,40.5262],[16.7225,40.5335],[16.7216,40.5372],[16.7145,40.545],[16.7057,40.5502],[16.7057,40.5544],[16.7078,40.5646],[16.7137,40.5765],[16.7158,40.5872],[16.7118,40.5928],[16.7208,40.5961],[16.7283,40.6014],[16.7362,40.6013],[16.7424,40.604],[16.7526,40.6016],[16.7536,40.598],[16.7595,40.596],[16.763,40.5959],[16.7688,40.5942],[16.785,40.582],[16.7854,40.5755],[16.7865,40.5738],[16.7892,40.572],[16.8129,40.5739],[16.8229,40.5764],[16.8255,40.5752],[16.8266,40.5736]]]}},{"type":"Feature","properties":{"i":"073008","n":"Grottaglie"},"geometry":{"type":"MultiPolygon","coordinates":[[[[17.453,40.5677],[17.4513,40.5682],[17.4533,40.5816],[17.4575,40.581],[17.453,40.5677]]],[[[17.4104,40.599],[17.415,40.5979],[17.4156,40.597],[17.414,40.5913],[17.4092,40.5868],[17.4162,40.5827],[17.4218,40.5812],[17.4273,40.5813],[17.4317,40.5798],[17.4327,40.5768],[17.442,40.5709],[17.4417,40.5703],[17.4436,40.5679],[17.4465,40.5662],[17.4517,40.5652],[17.4483,40.5542],[17.4522,40.5426],[17.4609,40.5334],[17.4648,40.5221],[17.4714,40.5107],[17.4796,40.5034],[17.487,40.4846],[17.487,40.4822],[17.4837,40.4799],[17.4859,40.4722],[17.4798,40.4672],[17.4728,40.4653],[17.4717,40.464],[17.4595,40.4611],[17.451,40.4613],[17.4505,40.4649],[17.4519,40.4652],[17.4523,40.4687],[17.447,40.4763],[17.439,40.4807],[17.4348,40.4811],[17.433,40.4811],[17.4325,40.4785],[17.4294,40.4767],[17.4262,40.4766],[17.4263,40.4811],[17.4156,40.4916],[17.4133,40.4933],[17.4105,40.4934],[17.4093,40.4923],[17.4082,40.4958],[17.4053,40.4989],[17.3966,40.502],[17.3992,40.5079],[17.3979,40.5104],[17.393,40.5119],[17.3893,40.5106],[17.3777,40.5122],[17.3715,40.5144],[17.3626,40.515],[17.36,40.5144],[17.3594,40.5131],[17.3579,40.5131],[17.3543,40.514],[17.3472,40.5198],[17.3483,40.525],[17.3494,40.5263],[17.353,40.5291],[17.3598,40.5292],[17.3628,40.5317],[17.3665,40.536],[17.3669,40.5376],[17.3703,40.5408],[17.3783,40.5456],[17.3814,40.5458],[17.3823,40.5496],[17.3788,40.5538],[17.3718,40.5581],[17.3551,40.5592],[17.354,40.5641],[17.3581,40.5652],[17.3604,40.5646],[17.3615,40.5632],[17.3677,40.5651],[17.3632,40.5759],[17.3597,40.5773],[17.3535,40.5775],[17.3519,40.5811],[17.352,40.5878],[17.3492,40.5913],[17.3474,40.592],[17.3378,40.5906],[17.3321,40.5906],[17.3275,40.5918],[17.3268,40.5949],[17.3209,40.6011],[17.3202,40.6033],[17.3258,40.6064],[17.3338,40.604],[17.3443,40.6037],[17.3624,40.6068],[17.3799,40.603],[17.4011,40.5946],[17.4104,40.599]],[[17.365,40.5251],[17.358,40.5222],[17.3524,40.521],[17.356,40.5186],[17.3606,40.5176],[17.3667,40.5207],[17.3694,40.5258],[17.365,40.5251]]]]}},{"type":"Feature","properties":{"i":"073009","n":"Laterza"},"geometry":{"type":"Polygon","coordinates":[[[16.8139,40.6931],[16.8208,40.6862],[16.8341,40.6932],[16.8354,40.6915],[16.8313,40.687],[16.8299,40.6792],[16.8473,40.674],[16.8477,40.672],[16.8472,40.6708],[16.8452,40.6701],[16.8421,40.6713],[16.8375,40.6688],[16.8362,40.6668],[16.8401,40.6644],[16.8473,40.664],[16.8564,40.6598],[16.8566,40.6589],[16.851,40.6542],[16.8533,40.6452],[16.8549,40.6407],[16.8646,40.6324],[16.8615,40.6278],[16.8629,40.6222],[16.8727,40.6116],[16.8683,40.6002],[16.8576,40.5809],[16.8554,40.5797],[16.8501,40.5793],[16.8392,40.5796],[16.8317,40.575],[16.8266,40.5736],[16.8255,40.5752],[16.8229,40.5764],[16.8129,40.5739],[16.7892,40.572],[16.7865,40.5738],[16.7854,40.5755],[16.785,40.582],[16.7676,40.5948],[16.7595,40.596],[16.7536,40.598],[16.7526,40.6016],[16.7424,40.604],[16.7376,40.6017],[16.7347,40.6011],[16.7266,40.6014],[16.724,40.6024],[16.7142,40.6143],[16.7119,40.6203],[16.7101,40.6302],[16.7133,40.6421],[16.7257,40.6776],[16.7272,40.6884],[16.7171,40.6895],[16.7091,40.693],[16.6966,40.7021],[16.6969,40.7034],[16.7018,40.7085],[16.7045,40.7112],[16.7078,40.7084],[16.7087,40.7054],[16.7249,40.7138],[16.7302,40.7114],[16.7351,40.711],[16.7489,40.7177],[16.7796,40.7291],[16.7868,40.7333],[16.7977,40.7047],[16.8001,40.695],[16.8086,40.692],[16.8139,40.6931]]]}},{"type":"Feature","properties":{"i":"073010","n":"Leporano"},"geometry":{"type":"Polygon","coordinates":[[[17.3433,40.3903],[17.3421,40.3795],[17.3448,40.377],[17.3462,40.3743],[17.3453,40.3711],[17.3427,40.3691],[17.3385,40.3674],[17.3401,40.3617],[17.3243,40.3617],[17.3084,40.3693],[17.2961,40.3789],[17.2849,40.38],[17.2834,40.384],[17.289,40.3978],[17.294,40.3976],[17.301,40.3958],[17.3064,40.3959],[17.3153,40.3971],[17.3199,40.399],[17.3245,40.3961],[17.3311,40.3954],[17.3322,40.3963],[17.332,40.4001],[17.3291,40.4031],[17.3301,40.4095],[17.3313,40.4096],[17.3346,40.4096],[17.3354,40.399],[17.3347,40.3927],[17.3317,40.393],[17.332,40.3917],[17.3327,40.3905],[17.3433,40.3903]]]}},{"type":"Feature","properties":{"i":"073011","n":"Lizzano"},"geometry":{"type":"Polygon","coordinates":[[[17.4849,40.3975],[17.4915,40.3869],[17.4877,40.3854],[17.4779,40.3715],[17.4766,40.3607],[17.4732,40.3487],[17.4716,40.3385],[17.4746,40.3353],[17.4747,40.3304],[17.4714,40.3257],[17.4691,40.3146],[17.4604,40.3161],[17.458,40.317],[17.4528,40.3237],[17.4485,40.3273],[17.4428,40.3298],[17.4322,40.3314],[17.4316,40.337],[17.4335,40.3483],[17.4365,40.3497],[17.4394,40.3595],[17.4345,40.3662],[17.4119,40.3682],[17.4094,40.3705],[17.4091,40.377],[17.4122,40.3834],[17.4144,40.3843],[17.4161,40.387],[17.4202,40.4073],[17.4299,40.4129],[17.4459,40.4195],[17.4556,40.4209],[17.4591,40.4138],[17.4629,40.4129],[17.4704,40.4132],[17.477,40.4073],[17.4849,40.3975]]]}},{"type":"Feature","properties":{"i":"073012","n":"Manduria"},"geometry":{"type":"Polygon","coordinates":[[[17.6826,40.4408],[17.6821,40.4378],[17.6838,40.4307],[17.6934,40.4123],[17.7127,40.4082],[17.7187,40.4054],[17.7294,40.3946],[17.7286,40.3916],[17.7224,40.389],[17.7107,40.3861],[17.6989,40.3857],[17.69,40.3829],[17.686,40.3716],[17.686,40.3451],[17.7024,40.3453],[17.7043,40.3434],[17.7043,40.3379],[17.7031,40.3339],[17.6955,40.3308],[17.6945,40.3294],[17.695,40.3208],[17.6979,40.3181],[17.7284,40.3137],[17.7509,40.315],[17.757,40.3165],[17.7605,40.3157],[17.768,40.3116],[17.7639,40.2961],[17.7584,40.2978],[17.7563,40.2969],[17.7431,40.295],[17.7399,40.2959],[17.7355,40.2988],[17.723,40.3007],[17.6813,40.3045],[17.657,40.3042],[17.6101,40.3005],[17.61,40.3061],[17.6069,40.3246],[17.6041,40.3325],[17.5937,40.3389],[17.585,40.3403],[17.5636,40.3499],[17.5643,40.352],[17.5609,40.3537],[17.5593,40.3567],[17.5614,40.3723],[17.5632,40.3766],[17.5678,40.3791],[17.5748,40.3914],[17.5762,40.3996],[17.5748,40.4047],[17.5663,40.4068],[17.5672,40.4127],[17.5696,40.4163],[17.5769,40.4231],[17.5648,40.4282],[17.5482,40.437],[17.5464,40.4384],[17.5468,40.4435],[17.5428,40.4445],[17.5421,40.4453],[17.5496,40.4465],[17.554,40.4451],[17.5571,40.4417],[17.5592,40.4375],[17.561,40.4369],[17.5643,40.4376],[17.5654,40.443],[17.573,40.442],[17.5773,40.4385],[17.5902,40.4494],[17.5824,40.4564],[17.5838,40.4602],[17.5976,40.4599],[17.6018,40.4623],[17.6127,40.4623],[17.6271,40.4619],[17.6351,40.4599],[17.6384,40.4571],[17.6379,40.4533],[17.6466,40.451],[17.6521,40.4511],[17.6724,40.4395],[17.6759,40.4394],[17.676,40.4413],[17.6768,40.4422],[17.6826,40.4408]]]}},{"type":"Feature","properties":{"i":"073013","n":"Martina Franca"},"geometry":{"type":"Polygon","coordinates":[[[17.3017,40.8021],[17.304,40.7972],[17.3057,40.7952],[17.3087,40.7939],[17.3104,40.7904],[17.3074,40.7875],[17.3017,40.7846],[17.2951,40.7849],[17.2945,40.7857],[17.2959,40.7886],[17.2915,40.7888],[17.2888,40.787],[17.2891,40.7821],[17.3011,40.7745],[17.3011,40.7725],[17.2929,40.7741],[17.2835,40.7737],[17.2822,40.7724],[17.283,40.7676],[17.29,40.7624],[17.2986,40.7541],[17.3015,40.7491],[17.3068,40.7446],[17.3157,40.7409],[17.3206,40.7414],[17.323,40.7436],[17.3329,40.7405],[17.3356,40.7378],[17.3403,40.7393],[17.341,40.7429],[17.3507,40.7489],[17.3536,40.7486],[17.3509,40.7474],[17.3502,40.7456],[17.3494,40.7359],[17.3498,40.7329],[17.366,40.7283],[17.3746,40.7229],[17.3799,40.7237],[17.3869,40.721],[17.3899,40.7171],[17.3916,40.7065],[17.3968,40.695],[17.4045,40.6885],[17.414,40.6843],[17.422,40.689],[17.4243,40.6889],[17.4261,40.6878],[17.4266,40.6846],[17.4257,40.6825],[17.4246,40.6812],[17.4236,40.6817],[17.4188,40.6776],[17.4275,40.6327],[17.4308,40.6289],[17.4374,40.6245],[17.4536,40.6209],[17.4642,40.6161],[17.4669,40.6135],[17.4734,40.6106],[17.4747,40.6002],[17.4733,40.5958],[17.4645,40.5902],[17.4575,40.581],[17.4474,40.5835],[17.4435,40.5837],[17.4353,40.5821],[17.4317,40.5798],[17.4273,40.5813],[17.4302,40.5903],[17.4271,40.5913],[17.414,40.5913],[17.4155,40.5976],[17.4104,40.599],[17.4143,40.5998],[17.4169,40.602],[17.4151,40.6051],[17.4139,40.6146],[17.4083,40.6188],[17.3946,40.6208],[17.3867,40.6199],[17.3806,40.6157],[17.3721,40.6114],[17.3446,40.613],[17.3344,40.6172],[17.3251,40.6098],[17.3195,40.6112],[17.3116,40.6175],[17.2979,40.6194],[17.2948,40.6287],[17.2908,40.6292],[17.2797,40.6355],[17.2779,40.6374],[17.2767,40.6428],[17.264,40.6495],[17.2519,40.6516],[17.2429,40.6504],[17.2396,40.6465],[17.2393,40.645],[17.2443,40.6417],[17.2452,40.6395],[17.2443,40.6377],[17.2364,40.6343],[17.2275,40.6339],[17.2235,40.6372],[17.2077,40.6391],[17.2006,40.6437],[17.1953,40.6488],[17.1871,40.6535],[17.1849,40.6538],[17.1861,40.6565],[17.1826,40.6603],[17.1812,40.6594],[17.1814,40.6569],[17.1808,40.6567],[17.1785,40.6571],[17.1733,40.6598],[17.173,40.6628],[17.1759,40.6706],[17.1777,40.6747],[17.1824,40.6803],[17.1765,40.6842],[17.1863,40.685],[17.1853,40.6889],[17.1813,40.6973],[17.1774,40.6999],[17.1721,40.7008],[17.1681,40.7035],[17.1658,40.7074],[17.1659,40.7093],[17.1682,40.717],[17.1714,40.7227],[17.1767,40.7286],[17.1859,40.7418],[17.1917,40.7521],[17.2033,40.76],[17.2043,40.757],[17.2115,40.7607],[17.2146,40.7613],[17.2178,40.7608],[17.2236,40.7577],[17.2278,40.7573],[17.231,40.7581],[17.2461,40.7656],[17.248,40.7656],[17.2509,40.7706],[17.2511,40.775],[17.2435,40.7989],[17.2508,40.8002],[17.2862,40.7976],[17.2873,40.8011],[17.2976,40.8002],[17.3017,40.8021]],[[17.2905,40.7893],[17.2918,40.7907],[17.2901,40.7911],[17.2896,40.7895],[17.2905,40.7893]],[[17.2993,40.7868],[17.2997,40.7885],[17.2986,40.789],[17.2971,40.7878],[17.2993,40.7868]],[[17.2829,40.7783],[17.2826,40.7809],[17.2801,40.78],[17.2806,40.7784],[17.2829,40.7783]]]}},{"type":"Feature","properties":{"i":"073014","n":"Maruggio"},"geometry":{"type":"Polygon","coordinates":[[[17.5609,40.3537],[17.5643,40.352],[17.5636,40.3499],[17.585,40.3403],[17.5937,40.3389],[17.6041,40.3325],[17.6069,40.3246],[17.61,40.3061],[17.6101,40.3005],[17.5479,40.2972],[17.5224,40.2947],[17.5089,40.2947],[17.5042,40.2967],[17.5036,40.3025],[17.5052,40.3049],[17.5053,40.3065],[17.5021,40.312],[17.5018,40.3142],[17.5041,40.3253],[17.5066,40.326],[17.509,40.3307],[17.5101,40.3363],[17.5103,40.3434],[17.532,40.3549],[17.5396,40.357],[17.544,40.3598],[17.55,40.3588],[17.5609,40.3537]]]}},{"type":"Feature","properties":{"i":"073015","n":"Massafra"},"geometry":{"type":"MultiPolygon","coordinates":[[[[17.1666,40.615],[17.1655,40.6148],[17.1655,40.616],[17.1666,40.6161],[17.1666,40.615]]],[[[17.1692,40.6154],[17.1646,40.6189],[17.1648,40.6197],[17.169,40.6194],[17.1708,40.6174],[17.1705,40.6155],[17.1692,40.6154]]],[[[17.1739,40.6272],[17.1756,40.6277],[17.1766,40.6264],[17.1756,40.6237],[17.1742,40.6242],[17.1739,40.6272]]],[[[17.1677,40.6276],[17.1678,40.6304],[17.1702,40.6296],[17.1689,40.6277],[17.1677,40.6276]]],[[[17.1849,40.6538],[17.183,40.6531],[17.1817,40.6515],[17.181,40.6491],[17.1822,40.6447],[17.1786,40.6413],[17.1752,40.6416],[17.1741,40.6451],[17.1542,40.6395],[17.1543,40.6286],[17.1582,40.626],[17.173,40.6241],[17.1789,40.6225],[17.1786,40.6197],[17.1755,40.6138],[17.1745,40.6133],[17.1727,40.6139],[17.1728,40.6186],[17.1668,40.6224],[17.1632,40.6213],[17.1618,40.6221],[17.1617,40.6242],[17.159,40.6248],[17.1561,40.6232],[17.1563,40.6165],[17.1572,40.6138],[17.1664,40.6112],[17.1743,40.6102],[17.1759,40.6123],[17.1789,40.6124],[17.1789,40.6061],[17.1656,40.6008],[17.1613,40.5947],[17.1614,40.5917],[17.1554,40.5766],[17.1564,40.5733],[17.1516,40.5664],[17.1529,40.5641],[17.1529,40.56],[17.1496,40.5549],[17.146,40.5521],[17.1417,40.5521],[17.1416,40.5499],[17.1372,40.5447],[17.1342,40.5475],[17.1249,40.5377],[17.1356,40.5342],[17.1312,40.5244],[17.127,40.5177],[17.113,40.5198],[17.0943,40.5202],[17.0744,40.5186],[17.0612,40.5159],[17.0564,40.5336],[17.0544,40.5378],[17.0535,40.5386],[17.0517,40.5386],[17.0507,40.5429],[17.0517,40.5547],[17.0655,40.5698],[17.0691,40.5812],[17.0703,40.6009],[17.0694,40.6028],[17.0714,40.6222],[17.0753,40.6279],[17.0849,40.6375],[17.0887,40.6397],[17.0962,40.6543],[17.0997,40.6574],[17.1044,40.6601],[17.1116,40.668],[17.1189,40.6697],[17.1211,40.6683],[17.1298,40.6762],[17.1353,40.6793],[17.157,40.6837],[17.1673,40.6849],[17.1765,40.6842],[17.1823,40.6807],[17.1777,40.6747],[17.173,40.6624],[17.174,40.6591],[17.1786,40.6571],[17.1814,40.6569],[17.1816,40.6599],[17.1837,40.6596],[17.1861,40.6565],[17.1849,40.6538]]]]}},{"type":"Feature","properties":{"i":"073016","n":"Monteiasi"},"geometry":{"type":"Polygon","coordinates":[[[17.4093,40.4923],[17.3978,40.4835],[17.394,40.4846],[17.3918,40.4838],[17.388,40.4903],[17.3796,40.4924],[17.3751,40.4948],[17.3716,40.4983],[17.3508,40.4953],[17.348,40.4974],[17.3492,40.5],[17.3541,40.5027],[17.3543,40.514],[17.3586,40.5131],[17.36,40.5134],[17.36,40.5144],[17.3626,40.515],[17.3715,40.5144],[17.3777,40.5122],[17.3893,40.5106],[17.393,40.5119],[17.3979,40.5104],[17.3992,40.5079],[17.3966,40.502],[17.4053,40.4989],[17.4082,40.4958],[17.4093,40.4923]]]}},{"type":"Feature","properties":{"i":"073017","n":"Montemesola"},"geometry":{"type":"Polygon","coordinates":[[[17.3557,40.5587],[17.3295,40.5315],[17.3161,40.5349],[17.3146,40.5388],[17.3158,40.5493],[17.3152,40.551],[17.3221,40.5534],[17.3227,40.5548],[17.3304,40.561],[17.3284,40.5668],[17.3186,40.5842],[17.3233,40.589],[17.3275,40.5918],[17.3321,40.5906],[17.3378,40.5906],[17.3474,40.592],[17.3492,40.5913],[17.352,40.5878],[17.3519,40.5811],[17.3535,40.5775],[17.3597,40.5773],[17.3632,40.5759],[17.3677,40.5651],[17.3615,40.5632],[17.3604,40.5646],[17.3581,40.5652],[17.354,40.5641],[17.3543,40.5605],[17.3557,40.5587]]]}},{"type":"Feature","properties":{"i":"073018","n":"Monteparano"},"geometry":{"type":"Polygon","coordinates":[[[17.4309,40.4539],[17.4255,40.4458],[17.4173,40.4407],[17.4133,40.4389],[17.4111,40.4391],[17.4022,40.4412],[17.4018,40.4432],[17.4031,40.4454],[17.4032,40.4546],[17.3997,40.4562],[17.3995,40.4583],[17.4061,40.4586],[17.4309,40.4539]]]}},{"type":"Feature","properties":{"i":"073019","n":"Mottola"},"geometry":{"type":"Polygon","coordinates":[[[17.2031,40.7609],[17.2033,40.76],[17.1917,40.7521],[17.1859,40.7418],[17.1767,40.7286],[17.1714,40.7227],[17.1682,40.717],[17.1659,40.7093],[17.1658,40.7074],[17.1681,40.7035],[17.1721,40.7008],[17.1774,40.6999],[17.1813,40.6973],[17.1853,40.6889],[17.1863,40.685],[17.1765,40.6842],[17.1655,40.6848],[17.1399,40.6807],[17.1353,40.6793],[17.1298,40.6762],[17.1211,40.6683],[17.1189,40.6697],[17.1116,40.668],[17.1044,40.6601],[17.0997,40.6574],[17.0962,40.6543],[17.0887,40.6397],[17.0849,40.6375],[17.0753,40.6279],[17.0718,40.6229],[17.0694,40.6028],[17.0383,40.6048],[17.0213,40.6033],[17.0083,40.6031],[16.9948,40.6045],[16.9876,40.6037],[16.9863,40.6069],[16.9836,40.6208],[16.981,40.6242],[16.9668,40.6279],[16.956,40.6266],[16.9435,40.63],[16.9364,40.6343],[16.9329,40.6443],[16.9345,40.6503],[16.9349,40.6597],[16.9303,40.6667],[16.932,40.6723],[16.9414,40.6766],[16.935,40.6943],[16.9303,40.7026],[16.9298,40.7097],[16.933,40.7119],[16.9307,40.7129],[16.9303,40.7156],[16.9231,40.726],[16.9233,40.7291],[16.9259,40.7368],[16.9287,40.7387],[16.9375,40.7416],[16.947,40.7432],[16.9715,40.7413],[17.0059,40.7546],[17.0155,40.7598],[17.0185,40.7559],[17.0189,40.75],[17.0046,40.7346],[17.0009,40.7324],[17.0009,40.7314],[17.0122,40.723],[17.0226,40.7131],[17.0337,40.7121],[17.0503,40.7166],[17.0555,40.719],[17.063,40.7211],[17.0857,40.7192],[17.0881,40.7171],[17.0869,40.7109],[17.0892,40.7102],[17.0965,40.7088],[17.0983,40.7119],[17.1017,40.7145],[17.113,40.7135],[17.1168,40.7109],[17.1162,40.7082],[17.1249,40.7071],[17.1485,40.7099],[17.1501,40.7123],[17.1512,40.7221],[17.157,40.7416],[17.1599,40.7438],[17.2006,40.7614],[17.2031,40.7609]]]}},{"type":"Feature","properties":{"i":"073020","n":"Palagianello"},"geometry":{"type":"Polygon","coordinates":[[[16.9876,40.6037],[16.9888,40.6002],[16.9887,40.5932],[16.9906,40.5829],[16.995,40.571],[16.9972,40.5512],[16.9932,40.5309],[16.9909,40.5272],[16.969,40.5171],[16.9571,40.5104],[16.9573,40.5031],[16.9506,40.5036],[16.9371,40.512],[16.9321,40.5177],[16.9377,40.5243],[16.9477,40.5295],[16.9574,40.5475],[16.9597,40.5583],[16.9606,40.5727],[16.9575,40.576],[16.9523,40.5859],[16.9463,40.5949],[16.9451,40.6048],[16.9456,40.6092],[16.9448,40.6227],[16.9435,40.63],[16.956,40.6266],[16.9668,40.6279],[16.981,40.6242],[16.9836,40.6208],[16.9863,40.6069],[16.9876,40.6037]]]}},{"type":"Feature","properties":{"i":"073021","n":"Palagiano"},"geometry":{"type":"Polygon","coordinates":[[[17.0694,40.6028],[17.0703,40.601],[17.0697,40.5854],[17.0691,40.5812],[17.0659,40.5709],[17.0528,40.5566],[17.0509,40.5504],[17.0507,40.5429],[17.0517,40.5386],[17.0535,40.5386],[17.0544,40.5378],[17.0564,40.5336],[17.0612,40.5159],[17.0432,40.512],[17.0259,40.5069],[16.9931,40.4938],[16.9719,40.4982],[16.9627,40.5034],[16.9573,40.5031],[16.9571,40.5104],[16.969,40.5171],[16.9909,40.5272],[16.9932,40.5309],[16.9972,40.5512],[16.995,40.571],[16.9906,40.5829],[16.9887,40.5932],[16.9888,40.6002],[16.9876,40.6037],[16.9948,40.6045],[17.0083,40.6031],[17.0213,40.6033],[17.0383,40.6048],[17.0694,40.6028]]]}},{"type":"Feature","properties":{"i":"073022","n":"Pulsano"},"geometry":{"type":"Polygon","coordinates":[[[17.3545,40.3966],[17.3553,40.3947],[17.3564,40.3969],[17.3609,40.3952],[17.3615,40.3895],[17.3694,40.3895],[17.3646,40.3964],[17.3739,40.396],[17.3811,40.3935],[17.3877,40.3888],[17.3847,40.3865],[17.3824,40.382],[17.3818,40.3736],[17.3864,40.3623],[17.3924,40.3547],[17.3862,40.3373],[17.3783,40.3467],[17.3755,40.3481],[17.3704,40.3482],[17.3654,40.3494],[17.3608,40.3526],[17.3498,40.3544],[17.3424,40.3595],[17.3396,40.3627],[17.3385,40.3674],[17.3427,40.3691],[17.3453,40.3711],[17.3462,40.3743],[17.3448,40.377],[17.3421,40.3795],[17.3433,40.3903],[17.3472,40.3903],[17.3484,40.391],[17.3488,40.3965],[17.3457,40.3967],[17.3463,40.4069],[17.3536,40.404],[17.3545,40.3966]]]}},{"type":"Feature","properties":{"i":"073023","n":"Roccaforzata"},"geometry":{"type":"Polygon","coordinates":[[[17.4255,40.4458],[17.4269,40.4436],[17.4255,40.4403],[17.4343,40.4366],[17.4348,40.434],[17.4331,40.4301],[17.4263,40.4311],[17.425,40.4351],[17.4235,40.4357],[17.4183,40.4357],[17.4102,40.4294],[17.4034,40.432],[17.4024,40.4265],[17.3966,40.4243],[17.3961,40.4283],[17.3941,40.4322],[17.3922,40.4326],[17.3895,40.4313],[17.3877,40.4322],[17.3789,40.4308],[17.3792,40.433],[17.3784,40.4351],[17.3756,40.4386],[17.3791,40.4411],[17.3998,40.4474],[17.3997,40.4562],[17.4032,40.4546],[17.4031,40.4454],[17.4018,40.4432],[17.4022,40.4412],[17.4133,40.4389],[17.4255,40.4458]]]}},{"type":"Feature","properties":{"i":"073024","n":"San Giorgio Ionico"},"geometry":{"type":"Polygon","coordinates":[[[17.3918,40.4838],[17.3909,40.4829],[17.3874,40.4675],[17.3907,40.4611],[17.3937,40.4593],[17.3995,40.4583],[17.3998,40.4474],[17.3791,40.4411],[17.3756,40.4386],[17.3704,40.4458],[17.361,40.4474],[17.344,40.4477],[17.3411,40.4486],[17.3417,40.4543],[17.3402,40.4623],[17.3371,40.465],[17.3332,40.47],[17.3328,40.4751],[17.3346,40.4765],[17.3366,40.4763],[17.3457,40.4796],[17.3529,40.4857],[17.3528,40.4905],[17.3489,40.4932],[17.3508,40.4953],[17.3716,40.4983],[17.3751,40.4948],[17.3796,40.4924],[17.388,40.4903],[17.3918,40.4838]]]}},{"type":"Feature","properties":{"i":"073025","n":"San Marzano di San Giuseppe"},"geometry":{"type":"Polygon","coordinates":[[[17.5433,40.4406],[17.54,40.4361],[17.5269,40.426],[17.5183,40.4281],[17.507,40.4291],[17.5012,40.4336],[17.4954,40.4401],[17.496,40.4435],[17.4956,40.4471],[17.494,40.4499],[17.491,40.453],[17.4829,40.4559],[17.4744,40.4556],[17.4704,40.4568],[17.4717,40.4643],[17.4728,40.4653],[17.4798,40.4672],[17.4859,40.4722],[17.4837,40.4799],[17.487,40.4822],[17.4997,40.4797],[17.5103,40.4788],[17.5192,40.4715],[17.5202,40.4681],[17.5199,40.4606],[17.5239,40.4548],[17.5323,40.4477],[17.5433,40.4406]]]}},{"type":"Feature","properties":{"i":"073026","n":"Sava"},"geometry":{"type":"Polygon","coordinates":[[[17.5609,40.3537],[17.55,40.3588],[17.544,40.3598],[17.5396,40.357],[17.5329,40.3631],[17.527,40.3655],[17.5242,40.3646],[17.519,40.3717],[17.5036,40.3767],[17.4947,40.3806],[17.4849,40.3975],[17.5004,40.4039],[17.5044,40.4115],[17.508,40.4249],[17.5075,40.4295],[17.5183,40.4281],[17.5269,40.426],[17.54,40.4361],[17.5433,40.4406],[17.5482,40.437],[17.5648,40.4282],[17.5769,40.4231],[17.5696,40.4163],[17.5672,40.4127],[17.5663,40.4068],[17.5748,40.4047],[17.5762,40.3996],[17.5748,40.3914],[17.5678,40.3791],[17.5632,40.3766],[17.5614,40.3723],[17.5593,40.3567],[17.5609,40.3537]]]}},{"type":"Feature","properties":{"i":"073027","n":"Taranto"},"geometry":{"type":"MultiPolygon","coordinates":[[[[17.3545,40.3966],[17.3564,40.3969],[17.3553,40.3947],[17.3545,40.3966]]],[[[17.1772,40.4391],[17.1784,40.4386],[17.1785,40.4373],[17.1746,40.4383],[17.1734,40.44],[17.1746,40.4407],[17.1772,40.4391]]],[[[17.1606,40.4538],[17.1638,40.4496],[17.167,40.4481],[17.1572,40.4447],[17.1535,40.4449],[17.1433,40.4505],[17.1459,40.4508],[17.1592,40.4555],[17.1606,40.4538]]],[[[17.4595,40.4611],[17.4717,40.464],[17.4704,40.4568],[17.4595,40.4611]]],[[[17.4526,40.4611],[17.4566,40.4588],[17.4565,40.4566],[17.4542,40.4549],[17.448,40.4524],[17.4464,40.4506],[17.4507,40.4431],[17.455,40.4377],[17.4544,40.4268],[17.4546,40.4227],[17.4556,40.4209],[17.4431,40.4187],[17.4254,40.4107],[17.4202,40.4073],[17.4161,40.387],[17.4144,40.3843],[17.4122,40.3834],[17.4091,40.377],[17.4094,40.3705],[17.4119,40.3682],[17.4345,40.3662],[17.4394,40.3595],[17.4365,40.3497],[17.4335,40.3483],[17.4316,40.337],[17.4322,40.3314],[17.4239,40.3326],[17.4021,40.3317],[17.3937,40.333],[17.3904,40.3374],[17.388,40.3379],[17.3862,40.3373],[17.3924,40.3547],[17.3864,40.3623],[17.3818,40.3736],[17.3821,40.3798],[17.4025,40.3812],[17.4085,40.3822],[17.412,40.3863],[17.4123,40.3912],[17.4087,40.3932],[17.408,40.4008],[17.4093,40.4069],[17.4057,40.4109],[17.3978,40.4156],[17.3946,40.4211],[17.3944,40.4268],[17.3925,40.4294],[17.3895,40.4313],[17.3922,40.4326],[17.3941,40.4322],[17.3961,40.4283],[17.3966,40.4243],[17.4024,40.4265],[17.4034,40.432],[17.4102,40.4294],[17.4183,40.4357],[17.4235,40.4357],[17.425,40.4351],[17.4263,40.4311],[17.4331,40.4301],[17.4348,40.434],[17.4343,40.4366],[17.4255,40.4403],[17.4269,40.4436],[17.4255,40.4458],[17.4309,40.4539],[17.4314,40.4618],[17.4254,40.4742],[17.4262,40.4766],[17.4294,40.4767],[17.4325,40.4785],[17.433,40.4811],[17.439,40.4807],[17.447,40.4763],[17.4523,40.4687],[17.4519,40.4652],[17.4505,40.4649],[17.4503,40.4631],[17.451,40.4613],[17.4526,40.4611]]],[[[17.365,40.5251],[17.3694,40.5258],[17.3667,40.5207],[17.3606,40.5176],[17.356,40.5186],[17.3524,40.521],[17.358,40.5222],[17.365,40.5251]]],[[[17.3543,40.514],[17.3541,40.5027],[17.3492,40.5],[17.348,40.4974],[17.3508,40.4953],[17.3489,40.4936],[17.349,40.4928],[17.3528,40.4905],[17.3529,40.4857],[17.3457,40.4796],[17.3366,40.4763],[17.3335,40.476],[17.3328,40.4751],[17.3328,40.4718],[17.3332,40.47],[17.3361,40.4661],[17.3402,40.4623],[17.3417,40.4543],[17.3411,40.4486],[17.344,40.4477],[17.3464,40.4479],[17.3432,40.4459],[17.3419,40.4464],[17.3402,40.4435],[17.3414,40.4393],[17.3452,40.4322],[17.3487,40.4282],[17.3531,40.429],[17.3584,40.4286],[17.3662,40.426],[17.3714,40.4214],[17.3716,40.4159],[17.3677,40.4094],[17.3652,40.408],[17.3667,40.402],[17.369,40.3988],[17.3689,40.3962],[17.3646,40.3964],[17.3647,40.3958],[17.3679,40.3925],[17.3694,40.3895],[17.3615,40.3895],[17.3609,40.3952],[17.3579,40.3968],[17.3647,40.408],[17.3647,40.41],[17.3605,40.4099],[17.3543,40.4083],[17.3536,40.404],[17.3463,40.4069],[17.3457,40.3967],[17.3488,40.3965],[17.3484,40.391],[17.3472,40.3903],[17.3327,40.3905],[17.3317,40.393],[17.3347,40.3927],[17.3354,40.3956],[17.3346,40.4096],[17.3313,40.4096],[17.3301,40.4095],[17.3291,40.4031],[17.332,40.4001],[17.3322,40.3963],[17.3311,40.3954],[17.3245,40.3961],[17.3199,40.399],[17.3153,40.3971],[17.3064,40.3959],[17.301,40.3958],[17.294,40.3976],[17.289,40.3978],[17.2834,40.384],[17.2849,40.38],[17.279,40.3797],[17.2761,40.3856],[17.2352,40.4014],[17.2228,40.4089],[17.2058,40.4085],[17.2025,40.4138],[17.2089,40.4211],[17.2117,40.4229],[17.2203,40.4243],[17.224,40.4244],[17.2269,40.4235],[17.2305,40.424],[17.2335,40.4252],[17.2411,40.4305],[17.2504,40.4425],[17.2513,40.4481],[17.2505,40.4549],[17.2492,40.4588],[17.2469,40.4618],[17.2354,40.4718],[17.2317,40.4736],[17.2266,40.4795],[17.2147,40.4786],[17.2109,40.4771],[17.1921,40.477],[17.1852,40.4797],[17.1819,40.4818],[17.1826,40.485],[17.182,40.4912],[17.1806,40.4932],[17.1771,40.49],[17.166,40.5009],[17.1571,40.4949],[17.1551,40.4966],[17.1655,40.5039],[17.1626,40.5061],[17.147,40.4951],[17.1447,40.4949],[17.1493,40.5052],[17.1493,40.5068],[17.1458,40.5099],[17.1367,40.5147],[17.127,40.5177],[17.1312,40.5244],[17.1356,40.5342],[17.1249,40.5377],[17.1342,40.5475],[17.1372,40.5447],[17.1377,40.5449],[17.1416,40.5499],[17.1417,40.5521],[17.1476,40.546],[17.1817,40.5187],[17.1905,40.5187],[17.2023,40.5225],[17.2087,40.5221],[17.2136,40.5258],[17.2115,40.5292],[17.2103,40.5344],[17.2168,40.536],[17.2228,40.5239],[17.2271,40.518],[17.2403,40.521],[17.2446,40.5257],[17.2464,40.532],[17.246,40.5358],[17.2466,40.5372],[17.2545,40.5376],[17.2609,40.5358],[17.2665,40.5333],[17.275,40.5322],[17.2801,40.5374],[17.2826,40.5386],[17.2925,40.54],[17.3,40.5382],[17.3146,40.5388],[17.3161,40.5349],[17.3295,40.5315],[17.3557,40.5587],[17.3718,40.5581],[17.3788,40.5538],[17.382,40.55],[17.3814,40.5458],[17.3783,40.5456],[17.3703,40.5408],[17.3669,40.5376],[17.3665,40.536],[17.3628,40.5317],[17.3598,40.5292],[17.353,40.5291],[17.3494,40.5263],[17.3483,40.525],[17.3472,40.5198],[17.3543,40.514]]],[[[17.453,40.5677],[17.4517,40.5652],[17.4465,40.5662],[17.4436,40.5679],[17.4417,40.5703],[17.442,40.5709],[17.4327,40.5768],[17.4317,40.5798],[17.4353,40.5821],[17.4435,40.5837],[17.4474,40.5835],[17.4533,40.5816],[17.4513,40.5682],[17.453,40.5677]]],[[[17.4273,40.5813],[17.4218,40.5812],[17.4162,40.5827],[17.4092,40.5868],[17.414,40.5913],[17.4284,40.5911],[17.4302,40.5903],[17.4273,40.5813]]]]}},{"type":"Feature","properties":{"i":"073028","n":"Torricella"},"geometry":{"type":"Polygon","coordinates":[[[17.5396,40.357],[17.532,40.3549],[17.5103,40.3434],[17.5101,40.3363],[17.509,40.3307],[17.5066,40.326],[17.5041,40.3253],[17.502,40.3154],[17.5019,40.3126],[17.5053,40.3065],[17.5052,40.3049],[17.5036,40.3025],[17.4948,40.31],[17.4867,40.3119],[17.4691,40.3146],[17.4714,40.3257],[17.4747,40.3304],[17.4746,40.3353],[17.4716,40.3385],[17.4732,40.3487],[17.4766,40.3607],[17.4779,40.3715],[17.4877,40.3854],[17.4915,40.3869],[17.4955,40.38],[17.519,40.3717],[17.5242,40.3646],[17.527,40.3655],[17.5329,40.3631],[17.5396,40.357]]]}},{"type":"Feature","properties":{"i":"073029","n":"Statte"},"geometry":{"type":"Polygon","coordinates":[[[17.3152,40.551],[17.3158,40.5493],[17.3144,40.5387],[17.3,40.5382],[17.2925,40.54],[17.2826,40.5386],[17.2801,40.5374],[17.275,40.5322],[17.2665,40.5333],[17.2609,40.5358],[17.2545,40.5376],[17.2466,40.5372],[17.246,40.5358],[17.2464,40.532],[17.2446,40.5257],[17.2403,40.521],[17.2271,40.518],[17.2228,40.5239],[17.2168,40.536],[17.2103,40.5344],[17.2115,40.5292],[17.2136,40.5258],[17.2087,40.5221],[17.2023,40.5225],[17.1905,40.5187],[17.1817,40.5187],[17.1476,40.546],[17.1417,40.5521],[17.146,40.5521],[17.1496,40.5549],[17.1529,40.56],[17.1529,40.5641],[17.1516,40.5664],[17.1564,40.5733],[17.1609,40.5735],[17.1744,40.5719],[17.1959,40.577],[17.2031,40.5809],[17.2131,40.5819],[17.2268,40.5817],[17.244,40.5784],[17.2502,40.5755],[17.2728,40.5694],[17.2883,40.5702],[17.2962,40.5682],[17.3007,40.5665],[17.304,40.5637],[17.3036,40.5629],[17.3003,40.5619],[17.3006,40.5596],[17.3152,40.551]]]}}]}
