{"type":"FeatureCollection","fonte":"Confini comunali ISTAT via openpolis/geojson-italy — CC BY 4.0","features":[{"type":"Feature","properties":{"i":"067001","n":"Alba Adriatica"},"geometry":{"type":"Polygon","coordinates":[[[13.9324,42.838],[13.9404,42.8143],[13.9318,42.813],[13.9227,42.8157],[13.9196,42.8177],[13.9149,42.8182],[13.9092,42.8185],[13.8982,42.8174],[13.8564,42.8044],[13.8552,42.8076],[13.8575,42.812],[13.8597,42.8132],[13.8855,42.8195],[13.8931,42.8287],[13.9082,42.8324],[13.924,42.8386],[13.9324,42.838]]]}},{"type":"Feature","properties":{"i":"067002","n":"Ancarano"},"geometry":{"type":"Polygon","coordinates":[[[13.7695,42.8589],[13.7686,42.8572],[13.7685,42.8524],[13.7754,42.8479],[13.774,42.8443],[13.7691,42.8365],[13.758,42.8236],[13.751,42.8136],[13.7471,42.8141],[13.7437,42.8172],[13.7366,42.8268],[13.7277,42.8314],[13.7248,42.8352],[13.7223,42.8415],[13.7215,42.8485],[13.7222,42.8546],[13.7266,42.8556],[13.7417,42.8558],[13.7573,42.8588],[13.7695,42.8589]]]}},{"type":"Feature","properties":{"i":"067003","n":"Arsita"},"geometry":{"type":"Polygon","coordinates":[[[13.8106,42.4929],[13.8071,42.4835],[13.8059,42.4741],[13.792,42.4622],[13.7911,42.4602],[13.7926,42.4553],[13.79,42.4517],[13.772,42.4379],[13.7676,42.4279],[13.7674,42.4249],[13.7653,42.4201],[13.7618,42.4221],[13.7615,42.4247],[13.7591,42.4284],[13.751,42.4328],[13.7454,42.435],[13.733,42.438],[13.7268,42.4412],[13.7429,42.4489],[13.7465,42.4532],[13.753,42.4706],[13.7608,42.4835],[13.7624,42.4844],[13.7645,42.4879],[13.7647,42.5007],[13.7666,42.5076],[13.7713,42.5136],[13.7766,42.5156],[13.7855,42.5162],[13.7956,42.5159],[13.8006,42.5138],[13.804,42.5085],[13.8129,42.5047],[13.8144,42.5029],[13.8141,42.5009],[13.8118,42.4995],[13.8106,42.4977],[13.8106,42.4929]]]}},{"type":"Feature","properties":{"i":"067004","n":"Atri"},"geometry":{"type":"Polygon","coordinates":[[[14.0078,42.6443],[14.007,42.6362],[14.0073,42.6243],[14.0091,42.6194],[14.0133,42.6188],[14.0204,42.6161],[14.0215,42.6144],[14.0147,42.6116],[14.0017,42.6085],[14.0,42.6074],[14.0048,42.5958],[14.0104,42.5882],[14.0205,42.5796],[14.0389,42.5792],[14.0585,42.5744],[14.0671,42.5742],[14.0623,42.571],[14.0579,42.5655],[14.0575,42.5633],[14.0605,42.5594],[14.0661,42.5582],[14.0667,42.5445],[14.0616,42.5343],[14.0582,42.5308],[14.0433,42.5347],[14.0315,42.5346],[13.9991,42.5407],[13.996,42.5401],[13.99,42.5419],[13.9758,42.5529],[13.9602,42.5591],[13.9437,42.5562],[13.9338,42.5527],[13.9325,42.5594],[13.9219,42.5744],[13.9166,42.5793],[13.9064,42.5804],[13.9032,42.5935],[13.8981,42.6008],[13.8976,42.6189],[13.9077,42.6227],[13.9161,42.6247],[13.9211,42.6238],[13.9247,42.6246],[13.9328,42.6244],[13.9682,42.6269],[13.9762,42.6319],[14.0057,42.6444],[14.0078,42.6443]]]}},{"type":"Feature","properties":{"i":"067005","n":"Basciano"},"geometry":{"type":"Polygon","coordinates":[[[13.7508,42.6122],[13.7498,42.6071],[13.7539,42.5988],[13.7529,42.592],[13.7565,42.5833],[13.7525,42.5638],[13.7547,42.5572],[13.7576,42.5536],[13.7561,42.5534],[13.7473,42.5539],[13.74,42.5556],[13.7322,42.5582],[13.7236,42.5643],[13.7201,42.5655],[13.7213,42.5695],[13.7202,42.5717],[13.7261,42.5812],[13.7267,42.586],[13.7244,42.5886],[13.7198,42.5902],[13.7127,42.5899],[13.7112,42.5914],[13.7122,42.5946],[13.7139,42.5961],[13.7111,42.5991],[13.7072,42.5992],[13.7065,42.6003],[13.7075,42.6069],[13.7158,42.614],[13.7181,42.6151],[13.7268,42.6168],[13.7336,42.6165],[13.7508,42.6122]]]}},{"type":"Feature","properties":{"i":"067006","n":"Bellante"},"geometry":{"type":"Polygon","coordinates":[[[13.8612,42.7041],[13.8512,42.702],[13.8394,42.7015],[13.835,42.7023],[13.8271,42.7015],[13.8107,42.7112],[13.7947,42.7154],[13.7909,42.7171],[13.783,42.7162],[13.7788,42.7142],[13.7734,42.7148],[13.7712,42.7184],[13.7738,42.7211],[13.7746,42.7236],[13.7724,42.7341],[13.7556,42.7362],[13.7536,42.7377],[13.7511,42.7416],[13.7522,42.7466],[13.7505,42.7547],[13.7534,42.758],[13.7657,42.7601],[13.7779,42.7646],[13.7882,42.7728],[13.7969,42.7727],[13.812,42.7709],[13.8167,42.7718],[13.824,42.7763],[13.8294,42.7825],[13.8321,42.7834],[13.8495,42.7749],[13.8541,42.7712],[13.8488,42.7632],[13.8423,42.7576],[13.8419,42.7564],[13.8425,42.7528],[13.8488,42.7466],[13.8521,42.74],[13.8519,42.7389],[13.851,42.737],[13.8492,42.7362],[13.8479,42.7376],[13.8446,42.7374],[13.841,42.7358],[13.8411,42.734],[13.8433,42.7271],[13.8581,42.714],[13.8631,42.7062],[13.8633,42.7051],[13.8612,42.7041]]]}},{"type":"Feature","properties":{"i":"067007","n":"Bisenti"},"geometry":{"type":"Polygon","coordinates":[[[13.8064,42.5584],[13.8109,42.5581],[13.8179,42.5548],[13.8186,42.5524],[13.8274,42.5459],[13.8367,42.5335],[13.8412,42.5205],[13.8417,42.5129],[13.837,42.5061],[13.8378,42.4979],[13.8331,42.4938],[13.8193,42.4918],[13.8148,42.4918],[13.8106,42.4929],[13.8106,42.4977],[13.8118,42.4995],[13.8141,42.5009],[13.8144,42.5029],[13.8129,42.5047],[13.804,42.5085],[13.8006,42.5138],[13.7956,42.5159],[13.7855,42.5162],[13.7766,42.5156],[13.7713,42.5136],[13.7697,42.5163],[13.7673,42.5235],[13.757,42.5259],[13.7598,42.5283],[13.7654,42.5363],[13.7661,42.5492],[13.8006,42.5583],[13.8033,42.5568],[13.8064,42.5584]]]}},{"type":"Feature","properties":{"i":"067008","n":"Campli"},"geometry":{"type":"Polygon","coordinates":[[[13.7586,42.7863],[13.7621,42.7853],[13.7758,42.775],[13.7835,42.7731],[13.7894,42.773],[13.7882,42.7728],[13.7779,42.7646],[13.7657,42.7601],[13.7534,42.758],[13.7505,42.7547],[13.7522,42.7466],[13.7511,42.7416],[13.7536,42.7377],[13.7556,42.7362],[13.7724,42.7341],[13.7743,42.7225],[13.7738,42.7211],[13.7691,42.716],[13.7667,42.7148],[13.7638,42.7135],[13.7592,42.7136],[13.7534,42.7173],[13.7468,42.7153],[13.7447,42.7138],[13.7357,42.7142],[13.724,42.7125],[13.7114,42.7083],[13.698,42.7076],[13.6917,42.7047],[13.6804,42.7027],[13.6695,42.7065],[13.6578,42.7074],[13.6512,42.7037],[13.6534,42.7014],[13.6508,42.6973],[13.6385,42.6972],[13.6312,42.6949],[13.6291,42.6967],[13.6284,42.6985],[13.6288,42.7],[13.6258,42.7056],[13.6191,42.704],[13.6094,42.6995],[13.6086,42.702],[13.6017,42.7118],[13.601,42.7155],[13.6048,42.723],[13.6058,42.7276],[13.6074,42.7296],[13.6103,42.7302],[13.6176,42.7344],[13.6417,42.7434],[13.6565,42.7449],[13.662,42.7435],[13.6625,42.7416],[13.6677,42.7407],[13.6775,42.7436],[13.6805,42.7468],[13.6801,42.7479],[13.6841,42.7544],[13.7131,42.766],[13.7171,42.7687],[13.7216,42.7738],[13.7406,42.7745],[13.7477,42.7828],[13.7558,42.7867],[13.7576,42.787],[13.7586,42.7863]]]}},{"type":"Feature","properties":{"i":"067009","n":"Canzano"},"geometry":{"type":"Polygon","coordinates":[[[13.836,42.6215],[13.8116,42.6225],[13.8075,42.6223],[13.8047,42.6212],[13.8026,42.6223],[13.7917,42.6322],[13.7861,42.6418],[13.785,42.6461],[13.7849,42.6551],[13.7871,42.6619],[13.7927,42.6652],[13.7935,42.6672],[13.7927,42.6725],[13.7897,42.6748],[13.7845,42.6767],[13.7747,42.6793],[13.7744,42.6806],[13.7754,42.6829],[13.7791,42.6867],[13.7866,42.6878],[13.7972,42.6918],[13.7976,42.6862],[13.8015,42.677],[13.8065,42.6734],[13.808,42.6699],[13.8076,42.6643],[13.8051,42.6607],[13.8055,42.6594],[13.8077,42.656],[13.8253,42.6446],[13.8288,42.6411],[13.8307,42.6381],[13.8322,42.6338],[13.832,42.6308],[13.8346,42.6226],[13.836,42.6215]]]}},{"type":"Feature","properties":{"i":"067010","n":"Castel Castagna"},"geometry":{"type":"Polygon","coordinates":[[[13.7576,42.5536],[13.7631,42.5559],[13.7661,42.5492],[13.7661,42.5469],[13.7654,42.5363],[13.7598,42.5283],[13.757,42.5259],[13.7456,42.5282],[13.7126,42.5215],[13.7085,42.5213],[13.7057,42.5252],[13.6944,42.537],[13.702,42.5422],[13.7111,42.559],[13.7185,42.5623],[13.7201,42.5655],[13.7236,42.5643],[13.7322,42.5582],[13.74,42.5556],[13.7473,42.5539],[13.7576,42.5536]]]}},{"type":"Feature","properties":{"i":"067011","n":"Castellalto"},"geometry":{"type":"Polygon","coordinates":[[[13.8749,42.6987],[13.8717,42.6964],[13.8569,42.678],[13.8478,42.6762],[13.8467,42.6734],[13.8474,42.6678],[13.8526,42.6598],[13.8601,42.6456],[13.8706,42.6185],[13.86,42.6202],[13.8429,42.6196],[13.836,42.6215],[13.8346,42.6226],[13.832,42.6308],[13.8322,42.6338],[13.8307,42.6381],[13.8288,42.6411],[13.8253,42.6446],[13.8077,42.656],[13.8055,42.6594],[13.8051,42.6607],[13.8076,42.6643],[13.808,42.6699],[13.8065,42.6734],[13.8015,42.677],[13.7976,42.6862],[13.7972,42.6918],[13.8048,42.6929],[13.8286,42.702],[13.8512,42.702],[13.8612,42.7041],[13.8749,42.6987]]]}},{"type":"Feature","properties":{"i":"067012","n":"Castelli"},"geometry":{"type":"Polygon","coordinates":[[[13.7713,42.5136],[13.7666,42.5076],[13.7647,42.5007],[13.7645,42.4879],[13.7624,42.4844],[13.7608,42.4835],[13.753,42.4706],[13.7465,42.4532],[13.7429,42.4489],[13.7268,42.4412],[13.723,42.4427],[13.708,42.4428],[13.7034,42.4437],[13.6831,42.4424],[13.6808,42.4489],[13.6814,42.4514],[13.6856,42.4614],[13.6887,42.4638],[13.6899,42.4704],[13.6985,42.491],[13.6945,42.5003],[13.6873,42.5096],[13.6882,42.5118],[13.6933,42.515],[13.7085,42.5213],[13.7126,42.5215],[13.7456,42.5282],[13.7667,42.524],[13.7713,42.5136]]]}},{"type":"Feature","properties":{"i":"067013","n":"Castiglione Messer Raimondo"},"geometry":{"type":"Polygon","coordinates":[[[13.8551,42.5513],[13.8663,42.5402],[13.8825,42.537],[13.8917,42.5381],[13.8972,42.5396],[13.8996,42.5387],[13.9051,42.5258],[13.9107,42.5226],[13.9189,42.5193],[13.9211,42.5163],[13.9221,42.5137],[13.9189,42.5083],[13.9149,42.5066],[13.9108,42.5064],[13.8959,42.5118],[13.893,42.5121],[13.8846,42.5092],[13.8818,42.5054],[13.8808,42.5025],[13.8819,42.4942],[13.8841,42.4894],[13.8834,42.4893],[13.8598,42.4879],[13.8446,42.4942],[13.8422,42.4962],[13.8378,42.4979],[13.837,42.5061],[13.8417,42.5129],[13.8412,42.5205],[13.8367,42.5335],[13.8274,42.5459],[13.8311,42.5468],[13.8351,42.5506],[13.8371,42.5551],[13.8401,42.5574],[13.8516,42.5511],[13.8551,42.5513]]]}},{"type":"Feature","properties":{"i":"067014","n":"Castilenti"},"geometry":{"type":"Polygon","coordinates":[[[13.99,42.5419],[13.9733,42.5328],[13.9666,42.5324],[13.9557,42.5343],[13.9519,42.5293],[13.9542,42.5186],[13.9589,42.5101],[13.9579,42.5054],[13.9502,42.506],[13.9448,42.5076],[13.9271,42.5146],[13.9221,42.5137],[13.9189,42.5193],[13.9107,42.5226],[13.9051,42.5258],[13.8996,42.5387],[13.9064,42.5434],[13.9123,42.5503],[13.9185,42.5528],[13.9338,42.5527],[13.9437,42.5562],[13.9602,42.5591],[13.9758,42.5529],[13.99,42.5419]]]}},{"type":"Feature","properties":{"i":"067015","n":"Cellino Attanasio"},"geometry":{"type":"Polygon","coordinates":[[[13.8976,42.6189],[13.8981,42.6008],[13.9032,42.5935],[13.9064,42.5804],[13.9121,42.5796],[13.9141,42.5774],[13.9133,42.576],[13.9102,42.5742],[13.8916,42.5698],[13.8573,42.5655],[13.8547,42.5625],[13.8544,42.5535],[13.8551,42.5513],[13.8516,42.5511],[13.8401,42.5574],[13.8371,42.5551],[13.8351,42.5506],[13.8294,42.546],[13.8274,42.5459],[13.8217,42.5497],[13.8186,42.5524],[13.8179,42.5548],[13.8109,42.5581],[13.8064,42.5584],[13.8085,42.5634],[13.8116,42.5659],[13.8276,42.5745],[13.8247,42.5765],[13.8042,42.58],[13.8087,42.5989],[13.8107,42.6036],[13.8139,42.6065],[13.8155,42.6069],[13.8234,42.6046],[13.8279,42.6023],[13.8325,42.596],[13.8397,42.5937],[13.8429,42.595],[13.8456,42.5981],[13.8386,42.614],[13.84,42.6208],[13.8429,42.6196],[13.86,42.6202],[13.879,42.6174],[13.8937,42.6208],[13.8954,42.6206],[13.8976,42.6189]]]}},{"type":"Feature","properties":{"i":"067016","n":"Cermignano"},"geometry":{"type":"Polygon","coordinates":[[[13.836,42.6215],[13.84,42.6208],[13.8386,42.614],[13.8456,42.5981],[13.8446,42.5964],[13.8402,42.5938],[13.8371,42.5942],[13.8316,42.5967],[13.8279,42.6023],[13.8208,42.6057],[13.815,42.607],[13.8107,42.6036],[13.8096,42.6011],[13.8042,42.58],[13.8247,42.5765],[13.8276,42.5745],[13.8116,42.5659],[13.8085,42.5634],[13.8064,42.5584],[13.805,42.5574],[13.8033,42.5568],[13.8006,42.5583],[13.7661,42.5492],[13.7631,42.5559],[13.7652,42.5574],[13.7626,42.5646],[13.7617,42.5701],[13.7909,42.568],[13.788,42.574],[13.7842,42.5759],[13.7818,42.5761],[13.7763,42.5993],[13.7771,42.6063],[13.7753,42.6111],[13.7783,42.6131],[13.7979,42.6186],[13.8075,42.6223],[13.836,42.6215]]]}},{"type":"Feature","properties":{"i":"067017","n":"Civitella del Tronto"},"geometry":{"type":"Polygon","coordinates":[[[13.7561,42.8014],[13.7563,42.8001],[13.7593,42.7956],[13.7595,42.7902],[13.7586,42.7863],[13.7576,42.787],[13.7558,42.7867],[13.7477,42.7828],[13.7406,42.7745],[13.7216,42.7738],[13.7171,42.7687],[13.7131,42.766],[13.6841,42.7544],[13.6801,42.7479],[13.6805,42.7468],[13.6775,42.7436],[13.6677,42.7407],[13.6625,42.7416],[13.662,42.7435],[13.6565,42.7449],[13.6417,42.7434],[13.6176,42.7344],[13.6103,42.7302],[13.6108,42.7443],[13.607,42.7542],[13.5972,42.7676],[13.5901,42.7739],[13.5851,42.7818],[13.5752,42.794],[13.5737,42.7975],[13.5747,42.8008],[13.5888,42.8072],[13.5949,42.8061],[13.6001,42.8063],[13.6132,42.8103],[13.6167,42.8121],[13.621,42.8157],[13.6244,42.8165],[13.6284,42.815],[13.6272,42.8124],[13.6288,42.8069],[13.6355,42.8033],[13.6414,42.803],[13.6636,42.8071],[13.6602,42.804],[13.66,42.797],[13.6614,42.795],[13.6657,42.7924],[13.6698,42.7933],[13.6821,42.7989],[13.6906,42.808],[13.6971,42.813],[13.701,42.814],[13.7084,42.8131],[13.7115,42.81],[13.7126,42.8062],[13.7145,42.8043],[13.7234,42.804],[13.7354,42.8055],[13.7561,42.8014]]]}},{"type":"Feature","properties":{"i":"067018","n":"Colledara"},"geometry":{"type":"Polygon","coordinates":[[[13.7201,42.5655],[13.7185,42.5623],[13.7111,42.559],[13.7056,42.548],[13.702,42.5422],[13.7001,42.5405],[13.6944,42.537],[13.6901,42.539],[13.6862,42.5381],[13.6692,42.531],[13.6644,42.5279],[13.6592,42.5207],[13.6584,42.5185],[13.6559,42.5165],[13.646,42.5142],[13.645,42.5152],[13.6439,42.5172],[13.6472,42.5232],[13.6465,42.5245],[13.6487,42.5328],[13.6525,42.5403],[13.6606,42.5499],[13.6639,42.5521],[13.6707,42.5519],[13.6861,42.5533],[13.6867,42.5542],[13.6847,42.5653],[13.6919,42.5681],[13.7033,42.5751],[13.7083,42.5841],[13.7127,42.5899],[13.7198,42.5902],[13.7232,42.5892],[13.7269,42.5854],[13.7261,42.5812],[13.7202,42.5717],[13.7213,42.5695],[13.7201,42.5655]]]}},{"type":"Feature","properties":{"i":"067019","n":"Colonnella"},"geometry":{"type":"Polygon","coordinates":[[[13.8838,42.8919],[13.8841,42.8889],[13.8856,42.8866],[13.8926,42.8829],[13.8982,42.8717],[13.901,42.8622],[13.8993,42.8612],[13.8986,42.8595],[13.9016,42.8513],[13.9047,42.8478],[13.9068,42.8418],[13.9055,42.8384],[13.906,42.8349],[13.907,42.8329],[13.9082,42.8324],[13.8983,42.8298],[13.8981,42.8341],[13.8733,42.8437],[13.8648,42.8502],[13.8457,42.8611],[13.8448,42.8652],[13.8348,42.8817],[13.8391,42.8832],[13.8566,42.8846],[13.8744,42.8888],[13.8805,42.8918],[13.8838,42.8919]]]}},{"type":"Feature","properties":{"i":"067020","n":"Controguerra"},"geometry":{"type":"Polygon","coordinates":[[[13.8627,42.8514],[13.8619,42.8496],[13.8584,42.8476],[13.8454,42.847],[13.8387,42.8482],[13.8253,42.8464],[13.8225,42.8447],[13.8185,42.8359],[13.8181,42.8321],[13.8119,42.8311],[13.796,42.8313],[13.7938,42.8345],[13.7883,42.8369],[13.7786,42.8404],[13.7718,42.8415],[13.774,42.8443],[13.7754,42.8479],[13.7685,42.8524],[13.7686,42.8572],[13.7695,42.8589],[13.778,42.8604],[13.804,42.8687],[13.8118,42.8727],[13.8131,42.8753],[13.8176,42.8783],[13.8348,42.8817],[13.8448,42.8652],[13.8457,42.8611],[13.8627,42.8514]]]}},{"type":"Feature","properties":{"i":"067021","n":"Corropoli"},"geometry":{"type":"Polygon","coordinates":[[[13.8983,42.8298],[13.8931,42.8287],[13.8855,42.8195],[13.8597,42.8132],[13.8575,42.812],[13.8552,42.8076],[13.8564,42.8044],[13.8489,42.7988],[13.8488,42.7947],[13.8471,42.7933],[13.8384,42.7977],[13.8344,42.8029],[13.8318,42.8138],[13.8252,42.8254],[13.8234,42.8272],[13.8199,42.8281],[13.818,42.8304],[13.8185,42.8359],[13.8227,42.845],[13.8248,42.8461],[13.8387,42.8482],[13.8454,42.847],[13.8584,42.8476],[13.8619,42.8496],[13.8627,42.8514],[13.8733,42.8437],[13.8981,42.8341],[13.8983,42.8298]]]}},{"type":"Feature","properties":{"i":"067022","n":"Cortino"},"geometry":{"type":"Polygon","coordinates":[[[13.5435,42.6496],[13.5433,42.6481],[13.5448,42.6471],[13.5838,42.6308],[13.5833,42.6258],[13.5859,42.6189],[13.5858,42.6163],[13.5832,42.6143],[13.5814,42.6075],[13.5645,42.6048],[13.5638,42.6074],[13.5617,42.6095],[13.5534,42.6124],[13.5497,42.6106],[13.5431,42.6055],[13.5357,42.6055],[13.5246,42.611],[13.5152,42.6088],[13.5105,42.6088],[13.5047,42.605],[13.5044,42.6006],[13.5015,42.5986],[13.5002,42.5987],[13.4904,42.6017],[13.4892,42.6055],[13.488,42.6066],[13.4782,42.6064],[13.4681,42.6044],[13.4618,42.6066],[13.4546,42.6109],[13.4424,42.615],[13.4387,42.6153],[13.4236,42.6131],[13.4194,42.6135],[13.4177,42.6142],[13.4145,42.6186],[13.4056,42.623],[13.3947,42.6217],[13.3976,42.6229],[13.4054,42.6283],[13.4091,42.6361],[13.4094,42.6402],[13.4083,42.6429],[13.4342,42.6469],[13.4465,42.6473],[13.4614,42.6425],[13.4777,42.6424],[13.4911,42.6528],[13.5014,42.6637],[13.5092,42.6641],[13.5193,42.6608],[13.5234,42.6594],[13.527,42.6565],[13.541,42.6535],[13.5435,42.6496]]]}},{"type":"Feature","properties":{"i":"067023","n":"Crognaleto"},"geometry":{"type":"Polygon","coordinates":[[[13.5645,42.6048],[13.5661,42.5907],[13.5673,42.5862],[13.57,42.582],[13.5771,42.5749],[13.5775,42.5726],[13.5744,42.5719],[13.5738,42.5688],[13.5587,42.556],[13.5569,42.5538],[13.5497,42.5545],[13.5437,42.5574],[13.536,42.5627],[13.5334,42.5637],[13.5301,42.5636],[13.5208,42.5535],[13.5201,42.552],[13.5206,42.5513],[13.5115,42.5395],[13.5028,42.5362],[13.4867,42.5351],[13.4834,42.5325],[13.4789,42.5231],[13.4835,42.5169],[13.4797,42.5093],[13.4792,42.5045],[13.4848,42.4895],[13.485,42.4847],[13.4834,42.4823],[13.4756,42.4831],[13.472,42.4859],[13.4521,42.4966],[13.4484,42.5038],[13.4346,42.5146],[13.4261,42.519],[13.4097,42.5382],[13.4023,42.5616],[13.4041,42.5723],[13.3966,42.5805],[13.3943,42.5878],[13.394,42.5913],[13.391,42.5933],[13.3892,42.6023],[13.3904,42.6085],[13.3928,42.6107],[13.3954,42.618],[13.3947,42.6217],[13.4056,42.623],[13.4145,42.6186],[13.4177,42.6142],[13.4194,42.6135],[13.4236,42.6131],[13.4387,42.6153],[13.4424,42.615],[13.4546,42.6109],[13.4618,42.6066],[13.4681,42.6044],[13.4782,42.6064],[13.488,42.6066],[13.4892,42.6055],[13.4904,42.6017],[13.5002,42.5987],[13.5015,42.5986],[13.5044,42.6006],[13.5047,42.605],[13.5105,42.6088],[13.5152,42.6088],[13.5246,42.611],[13.5357,42.6055],[13.5417,42.6052],[13.5438,42.6058],[13.5497,42.6106],[13.5534,42.6124],[13.5617,42.6095],[13.5638,42.6074],[13.5645,42.6048]]]}},{"type":"Feature","properties":{"i":"067024","n":"Fano Adriano"},"geometry":{"type":"Polygon","coordinates":[[[13.5947,42.5317],[13.5936,42.5281],[13.5947,42.5241],[13.5994,42.5195],[13.5883,42.5089],[13.5822,42.5092],[13.577,42.5124],[13.5628,42.5283],[13.5583,42.538],[13.5502,42.55],[13.5477,42.5517],[13.5462,42.5481],[13.5399,42.5428],[13.5302,42.5426],[13.5243,42.5397],[13.5161,42.5293],[13.5134,42.514],[13.5128,42.5042],[13.5093,42.4935],[13.509,42.489],[13.5116,42.4743],[13.5132,42.4723],[13.5021,42.4751],[13.4834,42.4823],[13.485,42.4847],[13.4848,42.4895],[13.4792,42.5045],[13.4797,42.5093],[13.4835,42.5169],[13.4789,42.5231],[13.483,42.5319],[13.4867,42.5351],[13.5028,42.5362],[13.5115,42.5395],[13.5206,42.5513],[13.5201,42.552],[13.5208,42.5535],[13.5301,42.5636],[13.5334,42.5637],[13.536,42.5627],[13.5437,42.5574],[13.5497,42.5545],[13.5569,42.5538],[13.5587,42.556],[13.5738,42.5688],[13.5744,42.5719],[13.5781,42.5653],[13.5864,42.5459],[13.5883,42.5385],[13.5947,42.5317]]]}},{"type":"Feature","properties":{"i":"067025","n":"Giulianova"},"geometry":{"type":"Polygon","coordinates":[[[13.9802,42.7399],[13.9695,42.7301],[13.9414,42.7111],[13.9308,42.7077],[13.9253,42.7072],[13.9242,42.7073],[13.9203,42.7118],[13.9188,42.722],[13.9125,42.7282],[13.9055,42.7325],[13.9042,42.7346],[13.9023,42.7406],[13.9019,42.7465],[13.9043,42.7502],[13.9133,42.7535],[13.9333,42.7586],[13.9461,42.7668],[13.9503,42.7716],[13.9429,42.779],[13.9555,42.7817],[13.964,42.7653],[13.9738,42.7512],[13.9802,42.7399]]]}},{"type":"Feature","properties":{"i":"067026","n":"Isola del Gran Sasso d'Italia"},"geometry":{"type":"Polygon","coordinates":[[[13.7085,42.5213],[13.6933,42.515],[13.6876,42.5112],[13.6873,42.5096],[13.6945,42.5003],[13.6985,42.491],[13.6899,42.4704],[13.6887,42.4638],[13.6856,42.4614],[13.6814,42.4514],[13.6808,42.4489],[13.6831,42.4424],[13.676,42.4388],[13.6653,42.4383],[13.6532,42.441],[13.6442,42.4432],[13.6355,42.4474],[13.6237,42.4504],[13.5971,42.4533],[13.5896,42.4528],[13.5699,42.4549],[13.5669,42.4578],[13.5641,42.4625],[13.5653,42.4681],[13.5689,42.471],[13.5678,42.4806],[13.5666,42.4843],[13.5671,42.485],[13.5698,42.4893],[13.5843,42.5054],[13.6016,42.5215],[13.6065,42.523],[13.619,42.5248],[13.6318,42.522],[13.6449,42.5259],[13.6473,42.5236],[13.6439,42.5172],[13.646,42.5142],[13.6491,42.5147],[13.6559,42.5165],[13.6584,42.5185],[13.6592,42.5207],[13.6665,42.5296],[13.6862,42.5381],[13.6901,42.539],[13.6944,42.537],[13.6968,42.5347],[13.7085,42.5213]]]}},{"type":"Feature","properties":{"i":"067027","n":"Montefino"},"geometry":{"type":"Polygon","coordinates":[[[13.9338,42.5527],[13.9185,42.5528],[13.9123,42.5503],[13.9064,42.5434],[13.8996,42.5387],[13.8972,42.5396],[13.8917,42.5381],[13.8825,42.537],[13.8663,42.5402],[13.8603,42.5455],[13.8551,42.5513],[13.8544,42.5535],[13.8547,42.5625],[13.8573,42.5655],[13.8627,42.5666],[13.8916,42.5698],[13.9044,42.5725],[13.9102,42.5742],[13.9133,42.576],[13.9141,42.5774],[13.9121,42.5796],[13.9166,42.5793],[13.9219,42.5744],[13.9325,42.5594],[13.9338,42.5527]]]}},{"type":"Feature","properties":{"i":"067028","n":"Montorio al Vomano"},"geometry":{"type":"Polygon","coordinates":[[[13.7111,42.5991],[13.7139,42.5961],[13.7122,42.5946],[13.7112,42.5914],[13.7127,42.5899],[13.7083,42.5841],[13.7033,42.5751],[13.6919,42.5681],[13.6857,42.5654],[13.6832,42.5656],[13.6713,42.5699],[13.67,42.5747],[13.6728,42.5795],[13.6732,42.5832],[13.6724,42.5839],[13.663,42.5809],[13.6497,42.5741],[13.6359,42.5647],[13.6365,42.5618],[13.6334,42.56],[13.6242,42.557],[13.6208,42.5571],[13.6082,42.5657],[13.6051,42.5703],[13.6005,42.5623],[13.5976,42.5371],[13.5947,42.5317],[13.5883,42.5385],[13.5864,42.5459],[13.5781,42.5653],[13.5744,42.5719],[13.5775,42.5726],[13.5771,42.5749],[13.57,42.582],[13.5673,42.5862],[13.5661,42.5907],[13.5645,42.6048],[13.5899,42.6094],[13.6171,42.6106],[13.6206,42.6121],[13.6243,42.6161],[13.6329,42.6192],[13.6471,42.6141],[13.653,42.6114],[13.6577,42.608],[13.6875,42.595],[13.7068,42.5966],[13.7111,42.5991]]]}},{"type":"Feature","properties":{"i":"067029","n":"Morro d'Oro"},"geometry":{"type":"Polygon","coordinates":[[[13.9731,42.63],[13.9682,42.6269],[13.9328,42.6244],[13.9247,42.6246],[13.9211,42.6238],[13.9209,42.6258],[13.9165,42.6354],[13.911,42.6402],[13.9039,42.6492],[13.9067,42.6611],[13.9073,42.6791],[13.9107,42.6846],[13.9165,42.6894],[13.9192,42.6906],[13.9266,42.6893],[13.9285,42.6929],[13.9404,42.6858],[13.9439,42.6846],[13.9505,42.6854],[13.9572,42.6846],[13.961,42.6775],[13.9588,42.6726],[13.9545,42.6689],[13.9538,42.6669],[13.9535,42.6634],[13.9559,42.6512],[13.9608,42.642],[13.9714,42.6324],[13.9731,42.63]]]}},{"type":"Feature","properties":{"i":"067030","n":"Mosciano Sant'Angelo"},"geometry":{"type":"Polygon","coordinates":[[[13.9429,42.779],[13.9503,42.7716],[13.9461,42.7668],[13.9333,42.7586],[13.9133,42.7535],[13.9043,42.7502],[13.9019,42.7465],[13.9023,42.7406],[13.9042,42.7346],[13.9055,42.7325],[13.9125,42.7282],[13.9188,42.722],[13.9203,42.7118],[13.9242,42.7073],[13.889,42.6979],[13.8782,42.6974],[13.8612,42.7041],[13.8633,42.7051],[13.8631,42.7062],[13.8572,42.7152],[13.8545,42.7167],[13.8431,42.7274],[13.841,42.7358],[13.8446,42.7374],[13.8479,42.7376],[13.8492,42.7362],[13.8498,42.7364],[13.8512,42.7372],[13.8521,42.74],[13.8488,42.7466],[13.8425,42.7528],[13.8419,42.7565],[13.8488,42.7632],[13.8541,42.7712],[13.8575,42.7727],[13.8782,42.773],[13.8947,42.7756],[13.9004,42.7752],[13.9097,42.7823],[13.9251,42.7804],[13.9344,42.7779],[13.9412,42.7794],[13.9429,42.779]]]}},{"type":"Feature","properties":{"i":"067031","n":"Nereto"},"geometry":{"type":"Polygon","coordinates":[[[13.834,42.8054],[13.8295,42.8078],[13.7998,42.8068],[13.7954,42.809],[13.7936,42.8136],[13.7944,42.8177],[13.7974,42.8217],[13.7974,42.828],[13.796,42.8313],[13.8119,42.8311],[13.8181,42.8321],[13.8181,42.8299],[13.8192,42.8286],[13.8234,42.8272],[13.8252,42.8254],[13.8318,42.8138],[13.834,42.8054]]]}},{"type":"Feature","properties":{"i":"067032","n":"Notaresco"},"geometry":{"type":"Polygon","coordinates":[[[13.9285,42.6929],[13.9266,42.6893],[13.9192,42.6906],[13.9165,42.6894],[13.9107,42.6846],[13.9077,42.6799],[13.9067,42.6611],[13.9039,42.6492],[13.911,42.6402],[13.9165,42.6354],[13.9209,42.6258],[13.9211,42.6238],[13.9161,42.6247],[13.9077,42.6227],[13.8986,42.619],[13.8946,42.6208],[13.879,42.6174],[13.8706,42.6185],[13.8601,42.6456],[13.8526,42.6598],[13.8474,42.6678],[13.8467,42.6734],[13.8478,42.6762],[13.8569,42.678],[13.8717,42.6964],[13.8749,42.6987],[13.8782,42.6974],[13.889,42.6979],[13.9192,42.7057],[13.9188,42.7005],[13.9198,42.6977],[13.9285,42.6929]]]}},{"type":"Feature","properties":{"i":"067033","n":"Penna Sant'Andrea"},"geometry":{"type":"Polygon","coordinates":[[[13.7753,42.6111],[13.7771,42.6063],[13.7763,42.5993],[13.7818,42.5761],[13.7842,42.5759],[13.788,42.574],[13.7909,42.568],[13.7623,42.5705],[13.7614,42.5692],[13.7652,42.5574],[13.7576,42.5536],[13.7547,42.5572],[13.7525,42.5638],[13.7565,42.5833],[13.7529,42.592],[13.7539,42.5988],[13.7498,42.6071],[13.7508,42.6122],[13.7662,42.6082],[13.7704,42.6083],[13.7753,42.6111]]]}},{"type":"Feature","properties":{"i":"067034","n":"Pietracamela"},"geometry":{"type":"Polygon","coordinates":[[[13.5883,42.5089],[13.5749,42.4953],[13.5698,42.4893],[13.5666,42.4843],[13.5678,42.4806],[13.5689,42.471],[13.5653,42.4681],[13.5639,42.4639],[13.5669,42.4578],[13.5663,42.4585],[13.5617,42.4584],[13.5582,42.4541],[13.5577,42.4516],[13.5521,42.448],[13.5463,42.4474],[13.531,42.4487],[13.5252,42.45],[13.5247,42.4507],[13.5272,42.4636],[13.5265,42.4708],[13.5257,42.4724],[13.5132,42.4723],[13.5116,42.4743],[13.509,42.489],[13.5093,42.4935],[13.5128,42.5042],[13.5134,42.514],[13.5161,42.5293],[13.5243,42.5397],[13.5302,42.5426],[13.5399,42.5428],[13.5462,42.5481],[13.547,42.5508],[13.5484,42.5515],[13.5502,42.55],[13.5583,42.538],[13.5628,42.5283],[13.5721,42.5175],[13.577,42.5124],[13.5812,42.5097],[13.5839,42.5088],[13.5883,42.5089]]]}},{"type":"Feature","properties":{"i":"067035","n":"Pineto"},"geometry":{"type":"Polygon","coordinates":[[[14.0958,42.579],[14.0877,42.5764],[14.079,42.5778],[14.0686,42.5759],[14.0671,42.5742],[14.0585,42.5744],[14.0389,42.5792],[14.0205,42.5796],[14.0104,42.5882],[14.0048,42.5958],[14.0001,42.606],[14.0,42.6074],[14.0017,42.6085],[14.0091,42.6098],[14.0215,42.6144],[14.0204,42.6161],[14.0133,42.6188],[14.0091,42.6194],[14.0073,42.6243],[14.007,42.6362],[14.0078,42.6443],[14.0283,42.6494],[14.0387,42.6546],[14.0626,42.6174],[14.0797,42.5965],[14.0877,42.5874],[14.0938,42.5819],[14.0958,42.579]]]}},{"type":"Feature","properties":{"i":"067036","n":"Rocca Santa Maria"},"geometry":{"type":"Polygon","coordinates":[[[13.5783,42.7135],[13.5751,42.7109],[13.5724,42.7071],[13.5623,42.6804],[13.5573,42.6769],[13.556,42.6709],[13.557,42.6693],[13.56,42.6677],[13.5571,42.6613],[13.5488,42.6517],[13.5442,42.6498],[13.5435,42.6496],[13.541,42.6535],[13.527,42.6565],[13.5234,42.6594],[13.507,42.6643],[13.5014,42.6637],[13.4911,42.6528],[13.4777,42.6424],[13.4614,42.6425],[13.4465,42.6473],[13.4342,42.6469],[13.4083,42.6429],[13.3824,42.6496],[13.3768,42.6499],[13.3858,42.6612],[13.3919,42.6626],[13.4001,42.6631],[13.4065,42.6649],[13.4122,42.6684],[13.4225,42.6723],[13.4295,42.6732],[13.442,42.6708],[13.4497,42.6708],[13.4569,42.6718],[13.4529,42.6794],[13.4524,42.6867],[13.4594,42.6885],[13.4675,42.6875],[13.4818,42.6872],[13.5033,42.6931],[13.5181,42.7001],[13.5215,42.7031],[13.5241,42.7043],[13.5306,42.7066],[13.5449,42.7084],[13.5469,42.7127],[13.546,42.7186],[13.5522,42.7204],[13.5711,42.719],[13.5751,42.7173],[13.5783,42.7135]]]}},{"type":"Feature","properties":{"i":"067037","n":"Roseto degli Abruzzi"},"geometry":{"type":"Polygon","coordinates":[[[14.0385,42.6545],[14.0283,42.6494],[14.0167,42.6461],[14.0057,42.6444],[13.9731,42.63],[13.9714,42.6324],[13.9608,42.642],[13.9559,42.6512],[13.9535,42.6634],[13.9538,42.6669],[13.9545,42.6689],[13.9588,42.6726],[13.961,42.6775],[13.9572,42.6846],[13.9505,42.6854],[13.9439,42.6846],[13.9404,42.6858],[13.9198,42.6977],[13.9188,42.7005],[13.9192,42.7057],[13.9242,42.7073],[13.9308,42.7077],[13.9414,42.7111],[13.9695,42.7301],[13.9802,42.7399],[13.9924,42.7144],[14.0024,42.6986],[14.0259,42.6678],[14.0385,42.6545]]]}},{"type":"Feature","properties":{"i":"067038","n":"Sant'Egidio alla Vibrata"},"geometry":{"type":"Polygon","coordinates":[[[13.751,42.8136],[13.7585,42.8096],[13.7561,42.8014],[13.7354,42.8055],[13.7234,42.804],[13.7145,42.8043],[13.7126,42.8062],[13.7115,42.81],[13.7084,42.8131],[13.701,42.814],[13.6971,42.813],[13.6906,42.808],[13.6821,42.7989],[13.6698,42.7933],[13.6657,42.7924],[13.6614,42.795],[13.66,42.797],[13.6602,42.804],[13.6663,42.8103],[13.6765,42.8151],[13.6993,42.8226],[13.7013,42.8278],[13.7109,42.8434],[13.7099,42.8445],[13.7063,42.8456],[13.7066,42.8493],[13.7222,42.8546],[13.7215,42.8485],[13.7223,42.8415],[13.7248,42.8352],[13.7277,42.8314],[13.7366,42.8268],[13.7437,42.8172],[13.7471,42.8141],[13.751,42.8136]]]}},{"type":"Feature","properties":{"i":"067039","n":"Sant'Omero"},"geometry":{"type":"Polygon","coordinates":[[[13.834,42.8054],[13.8344,42.8029],[13.8384,42.7977],[13.8467,42.7933],[13.8488,42.7947],[13.8489,42.7988],[13.8549,42.7999],[13.8577,42.7993],[13.8583,42.7983],[13.8672,42.7938],[13.8711,42.7942],[13.8871,42.7918],[13.9097,42.7823],[13.9004,42.7752],[13.8947,42.7756],[13.8782,42.773],[13.8575,42.7727],[13.8541,42.7712],[13.8495,42.7749],[13.8321,42.7834],[13.8294,42.7825],[13.8223,42.775],[13.8139,42.7709],[13.7969,42.7727],[13.7835,42.7731],[13.7758,42.775],[13.7621,42.7853],[13.7586,42.7863],[13.7595,42.7902],[13.7593,42.7956],[13.7563,42.8001],[13.7561,42.8014],[13.7585,42.8096],[13.7646,42.8076],[13.7854,42.8067],[13.7919,42.8074],[13.7954,42.809],[13.7998,42.8068],[13.8295,42.8078],[13.834,42.8054]]]}},{"type":"Feature","properties":{"i":"067040","n":"Silvi"},"geometry":{"type":"Polygon","coordinates":[[[14.1463,42.5306],[14.1408,42.5302],[14.1295,42.5271],[14.1204,42.53],[14.0987,42.533],[14.0914,42.5383],[14.0899,42.5413],[14.087,42.5432],[14.0835,42.5435],[14.0749,42.5418],[14.0718,42.5424],[14.0667,42.5445],[14.0661,42.5582],[14.0605,42.5594],[14.0575,42.5633],[14.0579,42.5655],[14.0623,42.571],[14.0671,42.5742],[14.0686,42.5759],[14.079,42.5778],[14.0877,42.5764],[14.0958,42.579],[14.1094,42.5632],[14.1225,42.5505],[14.1463,42.5306]]]}},{"type":"Feature","properties":{"i":"067041","n":"Teramo"},"geometry":{"type":"Polygon","coordinates":[[[13.8271,42.7015],[13.8048,42.6929],[13.7972,42.6918],[13.7854,42.6875],[13.7791,42.6867],[13.7745,42.6814],[13.7744,42.6798],[13.7754,42.6788],[13.7845,42.6767],[13.7897,42.6748],[13.7927,42.6725],[13.7935,42.6672],[13.7927,42.6652],[13.7871,42.6619],[13.7852,42.6573],[13.785,42.6461],[13.7861,42.6418],[13.7913,42.6328],[13.8026,42.6223],[13.8047,42.6212],[13.7783,42.6131],[13.7704,42.6083],[13.7662,42.6082],[13.7336,42.6165],[13.7268,42.6168],[13.7181,42.6151],[13.7158,42.614],[13.7075,42.6069],[13.7066,42.5996],[13.7111,42.5991],[13.7108,42.5985],[13.7068,42.5966],[13.6875,42.595],[13.6577,42.608],[13.653,42.6114],[13.6471,42.6141],[13.6329,42.6192],[13.6243,42.6161],[13.6206,42.6121],[13.6171,42.6106],[13.5948,42.6099],[13.5867,42.6091],[13.5814,42.6075],[13.5832,42.6143],[13.5858,42.6163],[13.5859,42.6189],[13.5833,42.6258],[13.5838,42.6308],[13.5849,42.6326],[13.5898,42.6353],[13.6212,42.6347],[13.6348,42.6334],[13.6461,42.6412],[13.6505,42.6454],[13.6745,42.6523],[13.6758,42.652],[13.6745,42.6589],[13.6726,42.6622],[13.6666,42.6668],[13.663,42.6665],[13.6589,42.6639],[13.6497,42.665],[13.6403,42.6715],[13.6354,42.6791],[13.6264,42.685],[13.6053,42.6968],[13.6062,42.6979],[13.6191,42.704],[13.6258,42.7056],[13.6288,42.7],[13.6284,42.6985],[13.6291,42.6967],[13.6312,42.6949],[13.6385,42.6972],[13.6508,42.6973],[13.6534,42.7014],[13.6512,42.7037],[13.6573,42.7073],[13.6695,42.7065],[13.6804,42.7027],[13.6917,42.7047],[13.698,42.7076],[13.7114,42.7083],[13.724,42.7125],[13.7357,42.7142],[13.7447,42.7138],[13.7468,42.7153],[13.7534,42.7173],[13.7592,42.7136],[13.7638,42.7135],[13.7691,42.716],[13.7712,42.7184],[13.7734,42.7148],[13.7788,42.7142],[13.783,42.7162],[13.7901,42.7173],[13.7947,42.7154],[13.8099,42.7115],[13.8173,42.7078],[13.8271,42.7015]]]}},{"type":"Feature","properties":{"i":"067042","n":"Torano Nuovo"},"geometry":{"type":"Polygon","coordinates":[[[13.796,42.8313],[13.7974,42.828],[13.7974,42.8217],[13.7944,42.8177],[13.7936,42.8136],[13.7954,42.809],[13.7919,42.8074],[13.7854,42.8067],[13.7646,42.8076],[13.7585,42.8096],[13.751,42.8136],[13.758,42.8236],[13.7691,42.8365],[13.7718,42.8415],[13.7786,42.8404],[13.7883,42.8369],[13.7938,42.8345],[13.796,42.8313]]]}},{"type":"Feature","properties":{"i":"067043","n":"Torricella Sicura"},"geometry":{"type":"Polygon","coordinates":[[[13.6094,42.6995],[13.6053,42.6968],[13.6264,42.685],[13.6354,42.6791],[13.6403,42.6715],[13.6497,42.665],[13.6589,42.6639],[13.663,42.6665],[13.6666,42.6668],[13.6726,42.6622],[13.6745,42.6589],[13.6757,42.6518],[13.6745,42.6523],[13.6505,42.6454],[13.6461,42.6412],[13.6348,42.6334],[13.6212,42.6347],[13.5898,42.6353],[13.5849,42.6326],[13.5838,42.6308],[13.5433,42.6481],[13.5435,42.6496],[13.5494,42.6523],[13.5571,42.6613],[13.56,42.6677],[13.557,42.6693],[13.556,42.6709],[13.5573,42.6769],[13.5623,42.6804],[13.5724,42.7071],[13.5751,42.7109],[13.5783,42.7135],[13.5919,42.7149],[13.593,42.7164],[13.5951,42.7173],[13.6032,42.7192],[13.6013,42.7165],[13.6011,42.7133],[13.6039,42.7077],[13.6086,42.702],[13.6094,42.6995]]]}},{"type":"Feature","properties":{"i":"067044","n":"Tortoreto"},"geometry":{"type":"Polygon","coordinates":[[[13.9404,42.8143],[13.9507,42.7899],[13.9555,42.7817],[13.9344,42.7779],[13.9251,42.7804],[13.9097,42.7823],[13.8871,42.7918],[13.8711,42.7942],[13.8672,42.7938],[13.8583,42.7983],[13.8577,42.7993],[13.8549,42.7999],[13.8489,42.7988],[13.8564,42.8044],[13.8982,42.8174],[13.9092,42.8185],[13.9149,42.8182],[13.9196,42.8177],[13.9227,42.8157],[13.9318,42.813],[13.9404,42.8143]]]}},{"type":"Feature","properties":{"i":"067045","n":"Tossicia"},"geometry":{"type":"Polygon","coordinates":[[[13.6847,42.5653],[13.6867,42.5538],[13.677,42.5522],[13.6632,42.552],[13.6608,42.5501],[13.6525,42.5403],[13.6487,42.5328],[13.6465,42.5245],[13.6449,42.5259],[13.6318,42.522],[13.619,42.5248],[13.6065,42.523],[13.6016,42.5215],[13.5994,42.5195],[13.5947,42.5241],[13.5936,42.5281],[13.5947,42.5317],[13.5976,42.5371],[13.6005,42.5623],[13.6051,42.5703],[13.6082,42.5657],[13.6208,42.5571],[13.6242,42.557],[13.6334,42.56],[13.6365,42.5618],[13.6359,42.5647],[13.6497,42.5741],[13.663,42.5809],[13.6724,42.5839],[13.6732,42.5832],[13.6728,42.5795],[13.67,42.5747],[13.6713,42.5699],[13.6847,42.5653]]]}},{"type":"Feature","properties":{"i":"067046","n":"Valle Castellana"},"geometry":{"type":"Polygon","coordinates":[[[13.5747,42.8008],[13.5737,42.7975],[13.5748,42.7947],[13.5851,42.7818],[13.5901,42.7739],[13.5972,42.7676],[13.607,42.7542],[13.6108,42.7443],[13.6103,42.7302],[13.6074,42.7296],[13.6064,42.7286],[13.6032,42.7192],[13.5951,42.7173],[13.593,42.7164],[13.5919,42.7149],[13.5783,42.7135],[13.5751,42.7173],[13.5711,42.719],[13.5522,42.7204],[13.546,42.7186],[13.5469,42.7127],[13.5449,42.7084],[13.5306,42.7066],[13.5241,42.7043],[13.5215,42.7031],[13.5181,42.7001],[13.5033,42.6931],[13.4818,42.6872],[13.4675,42.6875],[13.4594,42.6885],[13.4524,42.6867],[13.4529,42.6794],[13.4569,42.6718],[13.4497,42.6708],[13.442,42.6708],[13.4295,42.6732],[13.4225,42.6723],[13.4122,42.6684],[13.4065,42.6649],[13.4001,42.6631],[13.3919,42.6626],[13.3858,42.6612],[13.3768,42.6499],[13.3726,42.6494],[13.3686,42.6517],[13.3603,42.6591],[13.3559,42.6651],[13.3488,42.6686],[13.3509,42.6824],[13.3589,42.6958],[13.3641,42.6931],[13.3702,42.6935],[13.3801,42.6914],[13.39,42.6872],[13.3978,42.689],[13.4081,42.6963],[13.4274,42.7064],[13.4287,42.7062],[13.4318,42.7035],[13.4338,42.7004],[13.437,42.6989],[13.4404,42.7021],[13.4403,42.7049],[13.4381,42.7079],[13.4375,42.7128],[13.438,42.7175],[13.441,42.7253],[13.4476,42.7318],[13.4521,42.7339],[13.4625,42.7346],[13.4699,42.733],[13.4824,42.7321],[13.4882,42.7338],[13.4934,42.7366],[13.4983,42.7415],[13.5022,42.7467],[13.504,42.7505],[13.5022,42.7634],[13.5023,42.771],[13.5042,42.7747],[13.5068,42.7763],[13.5169,42.7895],[13.5193,42.7914],[13.5297,42.796],[13.5317,42.8011],[13.533,42.8071],[13.533,42.8133],[13.5345,42.8167],[13.5436,42.8169],[13.5456,42.8159],[13.5532,42.8056],[13.555,42.8044],[13.5747,42.8008]]]}},{"type":"Feature","properties":{"i":"067047","n":"Martinsicuro"},"geometry":{"type":"Polygon","coordinates":[[[13.9324,42.838],[13.924,42.8386],[13.9082,42.8324],[13.907,42.8329],[13.9055,42.8384],[13.9068,42.8418],[13.9047,42.8478],[13.9016,42.8513],[13.8986,42.8595],[13.8993,42.8612],[13.901,42.8622],[13.8982,42.8717],[13.8926,42.8829],[13.8856,42.8866],[13.8841,42.8889],[13.8838,42.8919],[13.8908,42.8915],[13.9087,42.8948],[13.9162,42.8946],[13.921,42.8924],[13.9207,42.8878],[13.9222,42.8791],[13.9268,42.8633],[13.9302,42.8439],[13.9324,42.838]]]}}]}
