{"type":"FeatureCollection","fonte":"Confini comunali ISTAT via openpolis/geojson-italy — CC BY 4.0","features":[{"type":"Feature","properties":{"i":"081001","n":"Alcamo"},"geometry":{"type":"Polygon","coordinates":[[[12.9835,38.0358],[12.9828,38.0272],[12.9845,38.0206],[12.9873,38.0169],[12.9974,38.0132],[13.0014,38.0098],[13.0047,38.0029],[13.0023,37.9978],[13.0038,37.9919],[13.0188,37.9832],[13.0268,37.9775],[13.0253,37.9701],[13.0272,37.9664],[13.0319,37.9691],[13.0371,37.9705],[13.0404,37.9689],[13.0464,37.9613],[13.0536,37.9586],[13.0445,37.9552],[13.0421,37.9478],[13.0459,37.9412],[13.0458,37.9385],[13.0448,37.9332],[13.0405,37.923],[13.0446,37.9185],[13.0469,37.9174],[13.0374,37.9132],[13.0306,37.9069],[13.0162,37.9011],[13.0004,37.9059],[12.9994,37.9086],[12.9951,37.9117],[12.9947,37.9076],[12.9976,37.9009],[12.9928,37.8974],[12.9857,37.9007],[12.9756,37.8988],[12.9675,37.8991],[12.9664,37.9006],[12.9592,37.9006],[12.9554,37.8974],[12.946,37.9012],[12.9414,37.9044],[12.9415,37.9151],[12.9397,37.9187],[12.9375,37.92],[12.9313,37.921],[12.9235,37.9249],[12.9245,37.9297],[12.926,37.9316],[12.929,37.9331],[12.932,37.9376],[12.9266,37.9455],[12.9174,37.9634],[12.9173,37.9722],[12.9209,37.9762],[12.9234,37.9834],[12.9229,37.9856],[12.9192,37.9894],[12.9153,37.9953],[12.9091,38.0011],[12.9044,38.0035],[12.9036,38.0058],[12.9056,38.0106],[12.903,38.0126],[12.898,38.0147],[12.8993,38.0169],[12.9079,38.0251],[12.9183,38.0261],[12.944,38.0307],[12.9618,38.0351],[12.9771,38.0403],[12.9835,38.0358]]]}},{"type":"Feature","properties":{"i":"081002","n":"Buseto Palizzolo"},"geometry":{"type":"Polygon","coordinates":[[[12.7216,38.0415],[12.7184,38.0392],[12.7217,38.0333],[12.7299,38.0246],[12.7356,38.0224],[12.7398,38.0217],[12.746,38.0218],[12.7505,38.0232],[12.755,38.014],[12.7561,38.0064],[12.7611,37.9992],[12.766,37.9985],[12.7817,37.9924],[12.7833,37.9888],[12.7827,37.9853],[12.8046,37.981],[12.8034,37.9688],[12.8042,37.9656],[12.8114,37.9506],[12.8087,37.9489],[12.8042,37.9477],[12.784,37.9439],[12.773,37.943],[12.7691,37.9434],[12.76,37.9462],[12.7343,37.9509],[12.7274,37.9547],[12.7329,37.9581],[12.7291,37.962],[12.7118,37.9702],[12.6969,37.9804],[12.6825,37.9851],[12.6861,37.9911],[12.687,37.9973],[12.686,37.9987],[12.6764,38.0],[12.6655,38.0029],[12.6658,38.0128],[12.6721,38.0215],[12.6732,38.0265],[12.6789,38.0253],[12.6811,38.0236],[12.6873,38.0247],[12.6847,38.038],[12.6884,38.0409],[12.7036,38.0424],[12.7153,38.0407],[12.7216,38.0415]]]}},{"type":"Feature","properties":{"i":"081003","n":"Calatafimi-Segesta"},"geometry":{"type":"Polygon","coordinates":[[[12.9414,37.9057],[12.9386,37.9042],[12.9344,37.8977],[12.9366,37.8922],[12.9311,37.8853],[12.9365,37.8825],[12.948,37.8816],[12.9504,37.8773],[12.9507,37.8713],[12.9523,37.8686],[12.9558,37.8688],[12.9573,37.8675],[12.9586,37.8648],[12.9559,37.8598],[12.9521,37.856],[12.9473,37.8538],[12.9421,37.8436],[12.9377,37.8374],[12.934,37.835],[12.9253,37.8341],[12.9147,37.83],[12.9097,37.827],[12.9018,37.8272],[12.8958,37.8261],[12.8793,37.8211],[12.8713,37.8251],[12.8655,37.8251],[12.8614,37.8293],[12.8606,37.8322],[12.8559,37.839],[12.8537,37.8435],[12.8535,37.8453],[12.8576,37.8503],[12.8616,37.869],[12.8596,37.8691],[12.848,37.8756],[12.8449,37.8757],[12.8422,37.8732],[12.8417,37.8719],[12.8295,37.8707],[12.8223,37.8739],[12.82,37.8768],[12.8158,37.8785],[12.812,37.8783],[12.811,37.8862],[12.8112,37.8912],[12.8101,37.893],[12.8049,37.8996],[12.8007,37.9006],[12.7971,37.9067],[12.793,37.9089],[12.7878,37.9153],[12.7907,37.9256],[12.7901,37.9376],[12.784,37.9439],[12.8042,37.9477],[12.8087,37.9489],[12.8114,37.9506],[12.8121,37.9493],[12.8152,37.9493],[12.8347,37.9519],[12.8571,37.9593],[12.8652,37.9605],[12.8803,37.9613],[12.8841,37.9626],[12.8885,37.9656],[12.8903,37.9673],[12.8907,37.9693],[12.894,37.9725],[12.8998,37.9736],[12.9097,37.9783],[12.9153,37.9842],[12.9154,37.9854],[12.922,37.9864],[12.9229,37.9856],[12.9234,37.9834],[12.9209,37.9762],[12.9173,37.9722],[12.9174,37.9634],[12.9266,37.9455],[12.932,37.9376],[12.929,37.9331],[12.926,37.9316],[12.9245,37.9297],[12.9232,37.9256],[12.9239,37.9244],[12.9271,37.9227],[12.9397,37.9187],[12.9415,37.9151],[12.9414,37.9057]]]}},{"type":"Feature","properties":{"i":"081004","n":"Campobello di Mazara"},"geometry":{"type":"Polygon","coordinates":[[[12.7648,37.5788],[12.7271,37.5696],[12.6794,37.5595],[12.6735,37.56],[12.6628,37.5662],[12.6559,37.5749],[12.6537,37.5753],[12.6852,37.6181],[12.6878,37.6265],[12.6909,37.6332],[12.7075,37.6389],[12.7251,37.6477],[12.7291,37.6523],[12.7303,37.6564],[12.7389,37.6602],[12.7487,37.6625],[12.7711,37.634],[12.772,37.6286],[12.7636,37.6258],[12.7535,37.6192],[12.7471,37.6131],[12.7456,37.6092],[12.7515,37.5977],[12.7648,37.5788]]]}},{"type":"Feature","properties":{"i":"081005","n":"Castellammare del Golfo"},"geometry":{"type":"Polygon","coordinates":[[[12.811,38.0813],[12.8141,38.0797],[12.8218,38.0728],[12.8271,38.0663],[12.8529,38.052],[12.8542,38.0502],[12.8591,38.0484],[12.8635,38.0517],[12.8687,38.0507],[12.8716,38.0424],[12.8707,38.04],[12.8712,38.0371],[12.8735,38.0346],[12.8812,38.0295],[12.8927,38.0244],[12.9079,38.0251],[12.8993,38.0169],[12.898,38.0147],[12.903,38.0126],[12.9056,38.0106],[12.9036,38.0058],[12.9044,38.0035],[12.9091,38.0011],[12.9153,37.9953],[12.922,37.9864],[12.9154,37.9854],[12.9153,37.9842],[12.9097,37.9783],[12.8998,37.9736],[12.894,37.9725],[12.8907,37.9693],[12.8903,37.9673],[12.8885,37.9656],[12.8827,37.9621],[12.8803,37.9613],[12.8652,37.9605],[12.8571,37.9593],[12.8347,37.9519],[12.8189,37.9495],[12.8121,37.9493],[12.8042,37.9656],[12.8034,37.9688],[12.8046,37.981],[12.7827,37.9853],[12.7833,37.9888],[12.7817,37.9924],[12.766,37.9985],[12.7611,37.9992],[12.7561,38.0064],[12.755,38.014],[12.7505,38.0232],[12.746,38.0218],[12.7398,38.0217],[12.7356,38.0224],[12.7299,38.0246],[12.7217,38.0333],[12.7184,38.0392],[12.7216,38.0415],[12.729,38.0515],[12.7374,38.0537],[12.7535,38.0555],[12.7585,38.0538],[12.76,38.0511],[12.7569,38.0466],[12.7556,38.0424],[12.7555,38.0402],[12.7561,38.0398],[12.776,38.0368],[12.7848,38.0384],[12.7927,38.0408],[12.7945,38.0426],[12.8058,38.045],[12.8107,38.0488],[12.8115,38.0536],[12.8091,38.0573],[12.8058,38.0586],[12.7995,38.0554],[12.7985,38.0561],[12.7976,38.0581],[12.7973,38.0646],[12.7945,38.0779],[12.8001,38.0821],[12.8041,38.0827],[12.807,38.0814],[12.811,38.0813]]]}},{"type":"Feature","properties":{"i":"081006","n":"Castelvetrano"},"geometry":{"type":"Polygon","coordinates":[[[12.8391,37.7358],[12.8383,37.7319],[12.8354,37.7262],[12.8373,37.7187],[12.8413,37.7145],[12.8411,37.71],[12.8397,37.7093],[12.8334,37.7088],[12.8311,37.7058],[12.8295,37.7002],[12.8313,37.6917],[12.8312,37.6882],[12.8291,37.6825],[12.8312,37.6777],[12.8383,37.6792],[12.8399,37.6812],[12.8392,37.6831],[12.8406,37.6859],[12.8622,37.6893],[12.8804,37.689],[12.8775,37.6795],[12.8794,37.6768],[12.8892,37.6727],[12.9065,37.6681],[12.9015,37.664],[12.8979,37.6638],[12.8932,37.662],[12.8932,37.661],[12.8947,37.6608],[12.8978,37.6562],[12.8917,37.6494],[12.8885,37.6471],[12.8871,37.6432],[12.8902,37.6406],[12.9014,37.6424],[12.9134,37.6461],[12.9169,37.6448],[12.9162,37.6386],[12.9104,37.6291],[12.9083,37.6197],[12.9058,37.6051],[12.9074,37.5951],[12.9048,37.5885],[12.8965,37.5771],[12.8868,37.5778],[12.8689,37.5816],[12.8546,37.5828],[12.8461,37.5814],[12.827,37.582],[12.7823,37.5809],[12.7648,37.5788],[12.7515,37.5977],[12.7456,37.6092],[12.7471,37.6131],[12.7535,37.6192],[12.7636,37.6258],[12.772,37.6286],[12.7711,37.634],[12.7539,37.6553],[12.7487,37.6625],[12.7459,37.6682],[12.7353,37.6724],[12.7333,37.674],[12.7282,37.6813],[12.7307,37.6818],[12.7319,37.6868],[12.7188,37.6893],[12.7157,37.6938],[12.717,37.6961],[12.7255,37.7014],[12.7341,37.7118],[12.7351,37.7178],[12.7438,37.7173],[12.7494,37.714],[12.7521,37.7136],[12.7587,37.717],[12.76,37.7256],[12.7599,37.7393],[12.7563,37.7437],[12.767,37.7526],[12.773,37.7508],[12.7745,37.7489],[12.7739,37.7486],[12.7742,37.746],[12.7775,37.7415],[12.7922,37.7414],[12.7956,37.7434],[12.7959,37.7469],[12.8009,37.748],[12.8121,37.7477],[12.8211,37.7463],[12.8346,37.742],[12.8365,37.738],[12.8391,37.7358]]]}},{"type":"Feature","properties":{"i":"081007","n":"Custonaci"},"geometry":{"type":"Polygon","coordinates":[[[12.7112,38.1097],[12.718,38.108],[12.7234,38.1051],[12.7409,38.0926],[12.7506,38.0905],[12.7551,38.0839],[12.7553,38.0815],[12.7541,38.0794],[12.7606,38.0757],[12.7719,38.0743],[12.7836,38.0708],[12.7893,38.0662],[12.7919,38.0623],[12.7926,38.0598],[12.7976,38.0581],[12.799,38.0555],[12.8058,38.0586],[12.8091,38.0573],[12.8115,38.0536],[12.8107,38.0488],[12.8052,38.0447],[12.7945,38.0426],[12.7919,38.0405],[12.776,38.0368],[12.7555,38.0402],[12.7569,38.0466],[12.76,38.0511],[12.7585,38.0538],[12.7535,38.0555],[12.7374,38.0537],[12.729,38.0515],[12.7216,38.0415],[12.7153,38.0407],[12.7036,38.0424],[12.6884,38.0409],[12.6847,38.038],[12.6832,38.0418],[12.6683,38.0413],[12.6679,38.0424],[12.6694,38.0466],[12.673,38.0464],[12.6705,38.052],[12.6617,38.0583],[12.6518,38.0686],[12.6449,38.0786],[12.6501,38.0857],[12.6533,38.0882],[12.6601,38.0914],[12.6629,38.0945],[12.6622,38.0972],[12.6594,38.0987],[12.6574,38.103],[12.6572,38.1084],[12.6611,38.112],[12.6714,38.1141],[12.6775,38.114],[12.6806,38.113],[12.681,38.1099],[12.689,38.1056],[12.7002,38.1054],[12.7112,38.1097]]]}},{"type":"Feature","properties":{"i":"081008","n":"Erice"},"geometry":{"type":"MultiPolygon","coordinates":[[[[12.5891,38.0664],[12.5895,38.0632],[12.5923,38.059],[12.5993,38.0555],[12.5993,38.0494],[12.6033,38.0412],[12.5999,38.036],[12.5965,38.0328],[12.5944,38.035],[12.5901,38.0329],[12.5876,38.0306],[12.5865,38.0282],[12.5869,38.0233],[12.5916,38.0221],[12.5979,38.0222],[12.6011,38.0167],[12.6026,38.0098],[12.6141,38.0125],[12.6216,38.0122],[12.6274,37.9988],[12.6406,37.9988],[12.643,37.9936],[12.6485,37.9908],[12.652,37.9901],[12.6787,37.9891],[12.6825,37.9851],[12.6969,37.9804],[12.7118,37.9702],[12.7291,37.962],[12.7329,37.9581],[12.7274,37.9547],[12.7221,37.9568],[12.716,37.958],[12.6812,37.9593],[12.6712,37.9623],[12.6679,37.9624],[12.6651,37.9658],[12.6548,37.971],[12.6418,37.9812],[12.6381,37.9853],[12.6237,37.9953],[12.6156,37.9981],[12.5969,38.0028],[12.5889,38.0067],[12.5836,38.0113],[12.5808,38.0126],[12.5464,38.0172],[12.5438,38.0226],[12.538,38.0276],[12.5334,38.0346],[12.5522,38.0498],[12.5603,38.0647],[12.5697,38.0689],[12.5777,38.0704],[12.5858,38.067],[12.5891,38.0664]]]]}},{"type":"Feature","properties":{"i":"081009","n":"Favignana"},"geometry":{"type":"MultiPolygon","coordinates":[[[[12.2985,37.9116],[12.2982,37.9128],[12.2992,37.9122],[12.2985,37.9116]]],[[[12.2905,37.9149],[12.2907,37.9143],[12.289,37.9136],[12.2905,37.9149]]],[[[12.302,37.9162],[12.3041,37.9147],[12.3021,37.9136],[12.3008,37.914],[12.3005,37.915],[12.302,37.9162]]],[[[12.3081,37.9557],[12.3084,37.9525],[12.311,37.9496],[12.3171,37.9362],[12.323,37.9312],[12.3264,37.9317],[12.329,37.9338],[12.3376,37.936],[12.3444,37.9366],[12.3492,37.9345],[12.3498,37.931],[12.3558,37.9255],[12.3613,37.9227],[12.3663,37.9239],[12.3692,37.9224],[12.3706,37.9185],[12.3662,37.9065],[12.3579,37.9063],[12.3507,37.9073],[12.3373,37.9198],[12.3254,37.9198],[12.3219,37.9181],[12.3207,37.9192],[12.3089,37.9193],[12.2877,37.9154],[12.2815,37.9196],[12.2795,37.9238],[12.2794,37.9298],[12.2736,37.9353],[12.2733,37.9372],[12.2779,37.9448],[12.2813,37.9458],[12.2852,37.9447],[12.2863,37.9428],[12.2898,37.943],[12.2959,37.946],[12.3081,37.9557]]],[[[12.0632,37.9933],[12.0648,37.9928],[12.0649,37.9914],[12.0616,37.9881],[12.0646,37.9795],[12.0778,37.9617],[12.0816,37.9514],[12.0853,37.9496],[12.0911,37.9493],[12.0918,37.9489],[12.0914,37.9476],[12.083,37.9457],[12.0757,37.9494],[12.0548,37.9531],[12.0498,37.9553],[12.0451,37.96],[12.0421,37.9701],[12.0338,37.9886],[12.0326,37.9896],[12.0305,37.9875],[12.0292,37.9877],[12.0282,37.9911],[12.0298,37.9931],[12.0382,37.993],[12.0606,37.9903],[12.0621,37.9932],[12.0632,37.9933]]],[[[12.3277,37.9871],[12.3296,37.9863],[12.3279,37.9863],[12.3277,37.9871]]],[[[12.4247,37.99],[12.4269,37.9894],[12.426,37.9877],[12.4235,37.9887],[12.4236,37.9901],[12.4247,37.99]]],[[[12.4171,37.9878],[12.4154,37.9883],[12.4113,37.9923],[12.4171,37.9878]]],[[[12.3357,38.0204],[12.3421,38.0042],[12.3515,37.9953],[12.3525,37.9926],[12.3514,37.9889],[12.3383,37.9848],[12.33,37.9869],[12.3273,37.989],[12.3235,37.9939],[12.3202,38.0012],[12.3222,38.0074],[12.3248,38.0088],[12.3288,38.0089],[12.333,38.0202],[12.3357,38.0204]]]]}},{"type":"Feature","properties":{"i":"081010","n":"Gibellina"},"geometry":{"type":"MultiPolygon","coordinates":[[[[12.8811,37.8022],[12.8839,37.8015],[12.8814,37.8014],[12.8811,37.8022]]],[[[12.887,37.8188],[12.8859,37.8201],[12.8901,37.8207],[12.8903,37.8196],[12.887,37.8188]]],[[[12.8814,37.8026],[12.8755,37.8022],[12.8714,37.8034],[12.8657,37.8088],[12.8659,37.8157],[12.8682,37.8189],[12.871,37.8194],[12.8746,37.8216],[12.8712,37.8195],[12.8777,37.8069],[12.8814,37.8026]]],[[[13.0139,37.8197],[13.018,37.8076],[13.019,37.7965],[13.0178,37.7958],[13.0068,37.7958],[12.9925,37.7978],[12.9875,37.7971],[12.9772,37.781],[12.9635,37.7818],[12.9509,37.7931],[12.9449,37.7929],[12.9383,37.782],[12.9373,37.7727],[12.9321,37.7694],[12.9299,37.7702],[12.9294,37.773],[12.9247,37.7833],[12.9129,37.7931],[12.9076,37.7988],[12.9037,37.8123],[12.9005,37.8192],[12.8996,37.8254],[12.9018,37.8272],[12.9097,37.827],[12.9147,37.83],[12.9253,37.8341],[12.934,37.835],[12.9377,37.8374],[12.9429,37.8449],[12.9445,37.844],[12.9453,37.8396],[12.9469,37.8388],[12.9635,37.8359],[12.9684,37.8301],[12.9707,37.8238],[12.9815,37.8235],[13.0139,37.8197]]]]}},{"type":"Feature","properties":{"i":"081011","n":"Marsala"},"geometry":{"type":"MultiPolygon","coordinates":[[[[12.4569,37.8625],[12.4563,37.8629],[12.457,37.863],[12.4569,37.8625]]],[[[12.4712,37.8703],[12.4722,37.869],[12.4717,37.8659],[12.4679,37.8636],[12.4651,37.8641],[12.4646,37.8693],[12.4694,37.8707],[12.4712,37.8703]]],[[[12.4553,37.8874],[12.4574,37.8862],[12.4577,37.8848],[12.4652,37.8796],[12.4652,37.8786],[12.4631,37.8788],[12.4585,37.8818],[12.4553,37.8874]]],[[[12.4554,37.9049],[12.4551,37.8994],[12.4535,37.898],[12.4477,37.8955],[12.4485,37.885],[12.4518,37.8737],[12.4495,37.8706],[12.4485,37.8661],[12.4499,37.8567],[12.4518,37.8529],[12.4508,37.8484],[12.4472,37.8441],[12.4465,37.8441],[12.4455,37.8449],[12.4435,37.852],[12.4368,37.8809],[12.4306,37.8899],[12.4293,37.8928],[12.4294,37.8951],[12.431,37.8965],[12.4378,37.8962],[12.4446,37.8979],[12.4489,37.8998],[12.4554,37.9049]]],[[[12.6035,37.87],[12.6046,37.8712],[12.6062,37.8716],[12.6204,37.8688],[12.6273,37.8638],[12.6162,37.8578],[12.6103,37.8563],[12.6101,37.8547],[12.6117,37.8516],[12.6184,37.8444],[12.6286,37.8444],[12.6297,37.8401],[12.657,37.8404],[12.6586,37.8421],[12.6678,37.8421],[12.6758,37.8375],[12.6874,37.8264],[12.6838,37.8224],[12.6854,37.8165],[12.6875,37.8139],[12.6884,37.8108],[12.6876,37.8049],[12.6932,37.7864],[12.6938,37.7822],[12.693,37.7733],[12.6861,37.7717],[12.679,37.7723],[12.674,37.776],[12.6694,37.7863],[12.6726,37.7922],[12.6722,37.8005],[12.6701,37.8013],[12.6542,37.8021],[12.6409,37.801],[12.6341,37.7996],[12.6116,37.8029],[12.6043,37.8025],[12.6008,37.798],[12.5992,37.7912],[12.5988,37.7861],[12.5901,37.7809],[12.5741,37.7802],[12.5608,37.7823],[12.562,37.7781],[12.5656,37.7751],[12.5703,37.7741],[12.5741,37.7723],[12.5725,37.7589],[12.5697,37.7526],[12.5642,37.7461],[12.5535,37.7377],[12.5415,37.7267],[12.5236,37.714],[12.494,37.738],[12.4789,37.7337],[12.4758,37.7336],[12.4724,37.7357],[12.4721,37.7412],[12.4701,37.747],[12.4615,37.7576],[12.4544,37.7729],[12.4504,37.7788],[12.4434,37.7878],[12.4337,37.7939],[12.4323,37.7926],[12.4313,37.7933],[12.4254,37.8013],[12.4255,37.8031],[12.4275,37.805],[12.4327,37.8071],[12.4388,37.8125],[12.441,37.8158],[12.44,37.8122],[12.442,37.8104],[12.4583,37.8146],[12.4617,37.8173],[12.468,37.8279],[12.4687,37.8361],[12.467,37.8403],[12.4646,37.8415],[12.4647,37.8475],[12.4668,37.8489],[12.4714,37.8497],[12.4751,37.8581],[12.4861,37.8746],[12.4854,37.8776],[12.4824,37.8816],[12.4741,37.8845],[12.4668,37.8918],[12.4661,37.8936],[12.4684,37.8974],[12.4649,37.9023],[12.4623,37.9022],[12.4586,37.908],[12.4702,37.9209],[12.4736,37.9267],[12.4794,37.9318],[12.4841,37.9322],[12.4873,37.934],[12.4906,37.9345],[12.4925,37.9329],[12.493,37.9301],[12.4913,37.9273],[12.4868,37.9265],[12.484,37.9223],[12.4865,37.9134],[12.4862,37.9102],[12.4841,37.9087],[12.4822,37.905],[12.4827,37.904],[12.5034,37.8945],[12.5094,37.8877],[12.5095,37.8862],[12.5143,37.8834],[12.5171,37.8825],[12.5439,37.8812],[12.5478,37.8801],[12.5515,37.878],[12.5567,37.8731],[12.5685,37.86],[12.5754,37.8566],[12.5758,37.8574],[12.5877,37.8592],[12.5972,37.8643],[12.6035,37.87]]]]}},{"type":"Feature","properties":{"i":"081012","n":"Mazara del Vallo"},"geometry":{"type":"Polygon","coordinates":[[[12.693,37.7733],[12.6941,37.7724],[12.705,37.7769],[12.7075,37.775],[12.7152,37.7629],[12.724,37.7445],[12.7288,37.7412],[12.7322,37.7397],[12.7338,37.7398],[12.7365,37.7413],[12.7422,37.7427],[12.7563,37.7437],[12.7594,37.7403],[12.76,37.7256],[12.7587,37.717],[12.7521,37.7136],[12.7494,37.714],[12.7438,37.7173],[12.7351,37.7178],[12.7341,37.7118],[12.7255,37.7014],[12.717,37.6961],[12.7157,37.6938],[12.7188,37.6893],[12.7319,37.6868],[12.7307,37.6818],[12.7282,37.6813],[12.7299,37.6787],[12.7346,37.6728],[12.7459,37.6682],[12.7487,37.6625],[12.7389,37.6602],[12.7303,37.6564],[12.7291,37.6523],[12.7251,37.6477],[12.7075,37.6389],[12.6909,37.6332],[12.6878,37.6265],[12.6852,37.6181],[12.6537,37.5753],[12.6492,37.5781],[12.6432,37.5868],[12.6276,37.604],[12.6193,37.6177],[12.6149,37.6298],[12.6141,37.6347],[12.6038,37.6423],[12.5958,37.6472],[12.5866,37.6501],[12.5833,37.651],[12.5786,37.65],[12.5758,37.6535],[12.5677,37.6603],[12.5595,37.6628],[12.5533,37.6633],[12.5426,37.6617],[12.535,37.658],[12.5177,37.6608],[12.518,37.6623],[12.5255,37.6712],[12.5232,37.6753],[12.5271,37.6796],[12.529,37.6785],[12.5331,37.683],[12.536,37.6869],[12.5354,37.6897],[12.5372,37.6927],[12.5457,37.7026],[12.5486,37.7004],[12.5574,37.7113],[12.5665,37.72],[12.588,37.7063],[12.5974,37.7108],[12.6046,37.7175],[12.5702,37.7413],[12.5653,37.7435],[12.5616,37.7438],[12.5697,37.7526],[12.5722,37.7582],[12.5741,37.7723],[12.5703,37.7741],[12.5656,37.7751],[12.562,37.7781],[12.5608,37.7823],[12.5741,37.7802],[12.5901,37.7809],[12.5988,37.7861],[12.5992,37.7912],[12.6008,37.798],[12.6043,37.8025],[12.6116,37.8029],[12.6341,37.7996],[12.6516,37.8019],[12.6662,37.8019],[12.6722,37.8005],[12.6726,37.7922],[12.6694,37.7863],[12.674,37.776],[12.679,37.7723],[12.6861,37.7717],[12.693,37.7733]]]}},{"type":"Feature","properties":{"i":"081013","n":"Paceco"},"geometry":{"type":"Polygon","coordinates":[[[12.6381,37.9853],[12.6418,37.9812],[12.6548,37.971],[12.6651,37.9658],[12.6679,37.9624],[12.6681,37.9603],[12.6671,37.9592],[12.6474,37.957],[12.6224,37.9385],[12.6168,37.935],[12.6115,37.9332],[12.6135,37.9301],[12.6305,37.9219],[12.6371,37.9172],[12.639,37.9139],[12.6357,37.9061],[12.6298,37.903],[12.6221,37.9007],[12.6163,37.894],[12.6102,37.8944],[12.6024,37.8988],[12.6006,37.9096],[12.6014,37.9135],[12.6059,37.9147],[12.6018,37.9228],[12.5864,37.9447],[12.5815,37.9488],[12.5586,37.9543],[12.5499,37.9605],[12.5452,37.9652],[12.5446,37.9672],[12.5405,37.97],[12.5384,37.9706],[12.5297,37.971],[12.5241,37.9703],[12.5156,37.9665],[12.5043,37.9647],[12.4985,37.9661],[12.4962,37.9741],[12.4938,37.9778],[12.4944,37.984],[12.5053,37.9936],[12.5066,37.9941],[12.515,37.9949],[12.5207,37.9918],[12.5397,37.9852],[12.5415,37.9852],[12.5579,37.9958],[12.563,37.9928],[12.5629,37.9887],[12.5731,37.9871],[12.5783,37.9881],[12.6065,37.9658],[12.6125,37.9644],[12.6156,37.966],[12.6156,37.9682],[12.6273,37.9798],[12.6353,37.9795],[12.6381,37.9853]]]}},{"type":"Feature","properties":{"i":"081014","n":"Pantelleria"},"geometry":{"type":"MultiPolygon","coordinates":[[[[12.0522,36.7986],[12.0517,36.7989],[12.0524,36.7993],[12.0522,36.7986]]],[[[11.9546,36.8394],[11.9734,36.8349],[11.9771,36.832],[11.9799,36.8265],[11.9893,36.8228],[11.9947,36.8218],[12.0039,36.8217],[12.006,36.8246],[12.0112,36.8258],[12.0133,36.8252],[12.0375,36.804],[12.046,36.8014],[12.0496,36.7976],[12.0531,36.7906],[12.0554,36.7755],[12.0551,36.7631],[12.052,36.7566],[12.0473,36.7498],[12.0293,36.7369],[12.0234,36.7343],[12.0139,36.7355],[12.01,36.7347],[11.9929,36.7374],[11.9901,36.7404],[11.9823,36.7445],[11.9721,36.7637],[11.9687,36.7667],[11.9624,36.7683],[11.9561,36.772],[11.9554,36.7764],[11.9511,36.7837],[11.9416,36.792],[11.9279,36.8007],[11.9266,36.8032],[11.9274,36.8202],[11.9284,36.8253],[11.9355,36.8334],[11.9356,36.8322],[11.9423,36.8309],[11.9435,36.832],[11.9441,36.8337],[11.9435,36.8353],[11.9447,36.8363],[11.9546,36.8394]]]]}},{"type":"Feature","properties":{"i":"081015","n":"Partanna"},"geometry":{"type":"Polygon","coordinates":[[[12.9303,37.767],[12.9346,37.7665],[12.9401,37.7645],[12.9482,37.7546],[12.9531,37.7395],[12.957,37.7322],[12.9611,37.7281],[12.9586,37.7268],[12.957,37.7249],[12.9586,37.7201],[12.9486,37.7161],[12.9427,37.7122],[12.9422,37.7071],[12.9375,37.7015],[12.9325,37.6993],[12.9178,37.6893],[12.9153,37.6822],[12.9143,37.6752],[12.9106,37.672],[12.9068,37.6718],[12.906,37.6699],[12.9065,37.6681],[12.8892,37.6727],[12.8794,37.6768],[12.8775,37.6795],[12.8804,37.689],[12.8622,37.6893],[12.8406,37.6859],[12.8392,37.6831],[12.8399,37.6812],[12.8383,37.6792],[12.8312,37.6777],[12.8291,37.6825],[12.8312,37.6882],[12.8313,37.6917],[12.8295,37.7002],[12.8311,37.7058],[12.8334,37.7088],[12.8406,37.7096],[12.8414,37.7132],[12.8408,37.7154],[12.8373,37.7187],[12.8354,37.7262],[12.8383,37.7319],[12.8391,37.7358],[12.852,37.7577],[12.8614,37.7652],[12.8658,37.7677],[12.8748,37.7467],[12.8782,37.744],[12.8798,37.7449],[12.8821,37.7485],[12.8818,37.7506],[12.8836,37.7523],[12.8882,37.7548],[12.897,37.757],[12.9036,37.7597],[12.9099,37.765],[12.9195,37.7671],[12.9273,37.7655],[12.9303,37.767]]]}},{"type":"Feature","properties":{"i":"081016","n":"Poggioreale"},"geometry":{"type":"Polygon","coordinates":[[[13.0941,37.7775],[13.0975,37.7752],[13.1001,37.771],[13.098,37.7699],[13.0814,37.7672],[13.0754,37.7629],[13.0623,37.757],[13.058,37.7579],[13.0547,37.7645],[13.0524,37.765],[13.0501,37.7638],[13.0488,37.7597],[13.0467,37.757],[13.0425,37.7545],[13.0394,37.7533],[13.0302,37.7526],[13.0279,37.7541],[13.026,37.7568],[13.0284,37.7625],[13.0283,37.7649],[13.0255,37.7681],[13.0198,37.7713],[13.0179,37.7757],[13.0167,37.7858],[13.0151,37.787],[13.0137,37.7903],[13.0134,37.7961],[13.0178,37.7958],[13.019,37.7965],[13.018,37.8076],[13.0139,37.8197],[13.025,37.8187],[13.0346,37.8157],[13.0513,37.8146],[13.0557,37.8107],[13.0586,37.8105],[13.066,37.8151],[13.0796,37.8186],[13.0849,37.8149],[13.0901,37.8161],[13.0915,37.8174],[13.0967,37.8161],[13.0983,37.8135],[13.0939,37.8081],[13.0879,37.8048],[13.081,37.8031],[13.0754,37.7921],[13.075,37.7886],[13.0781,37.7845],[13.0816,37.7823],[13.0841,37.7815],[13.0858,37.7825],[13.0906,37.781],[13.0941,37.7775]]]}},{"type":"Feature","properties":{"i":"081017","n":"Salaparuta"},"geometry":{"type":"Polygon","coordinates":[[[13.0134,37.7961],[13.0137,37.7903],[13.0151,37.787],[13.0167,37.7858],[13.0186,37.7738],[13.0198,37.7713],[13.0255,37.7681],[13.0283,37.7649],[13.0284,37.7625],[13.026,37.7568],[13.0279,37.7541],[13.0143,37.7485],[13.0121,37.7426],[13.0098,37.7417],[13.0079,37.7392],[13.0057,37.7378],[13.0006,37.736],[12.9969,37.7355],[12.9971,37.7394],[12.9944,37.7419],[12.9929,37.7422],[12.9894,37.7405],[12.99,37.7388],[12.9874,37.7344],[12.9611,37.7281],[12.957,37.7322],[12.9531,37.7395],[12.9482,37.7546],[12.9401,37.7645],[12.9346,37.7665],[12.9303,37.767],[12.9299,37.7702],[12.9321,37.7694],[12.9337,37.7699],[12.9373,37.7727],[12.9383,37.782],[12.9449,37.7929],[12.9509,37.7931],[12.9635,37.7818],[12.9772,37.781],[12.9875,37.7971],[12.9925,37.7978],[13.0068,37.7958],[13.0134,37.7961]]]}},{"type":"Feature","properties":{"i":"081018","n":"Salemi"},"geometry":{"type":"MultiPolygon","coordinates":[[[[12.813,37.8785],[12.8121,37.8685],[12.8088,37.8599],[12.8121,37.8591],[12.8355,37.8589],[12.8389,37.8572],[12.8417,37.8519],[12.8481,37.8448],[12.8559,37.839],[12.8606,37.8322],[12.8614,37.8293],[12.8655,37.8251],[12.8713,37.8251],[12.8768,37.8221],[12.8682,37.8189],[12.8659,37.8157],[12.8592,37.8102],[12.8657,37.8088],[12.8714,37.8034],[12.8683,37.8011],[12.8584,37.8015],[12.8554,37.8006],[12.8511,37.7959],[12.8536,37.7925],[12.8295,37.7914],[12.821,37.7868],[12.8143,37.7856],[12.8101,37.7839],[12.8045,37.78],[12.8007,37.7749],[12.7948,37.7704],[12.783,37.7639],[12.7668,37.7573],[12.762,37.7515],[12.762,37.7482],[12.7555,37.7432],[12.7474,37.7434],[12.7422,37.7427],[12.7322,37.7397],[12.7279,37.7417],[12.724,37.7445],[12.7152,37.7629],[12.7075,37.775],[12.705,37.7769],[12.6941,37.7724],[12.693,37.7733],[12.6938,37.7822],[12.6932,37.7864],[12.6876,37.8049],[12.6884,37.8108],[12.6875,37.8139],[12.6854,37.8165],[12.6838,37.8224],[12.6874,37.8264],[12.6758,37.8375],[12.6659,37.8427],[12.6693,37.8454],[12.6844,37.8445],[12.6992,37.8457],[12.6988,37.8573],[12.696,37.862],[12.6931,37.864],[12.7047,37.8779],[12.7089,37.8793],[12.7148,37.8754],[12.7198,37.8709],[12.7248,37.8702],[12.731,37.8756],[12.7391,37.8856],[12.7623,37.8945],[12.7769,37.8955],[12.7828,37.8947],[12.7853,37.8936],[12.796,37.8966],[12.8007,37.9006],[12.8049,37.8996],[12.8112,37.8912],[12.811,37.8862],[12.812,37.8783],[12.813,37.8785]]]]}},{"type":"Feature","properties":{"i":"081019","n":"Santa Ninfa"},"geometry":{"type":"MultiPolygon","coordinates":[[[[12.8657,37.8088],[12.8592,37.8102],[12.8659,37.8157],[12.8657,37.8088]]],[[[12.8682,37.8189],[12.8737,37.8212],[12.871,37.8194],[12.8682,37.8189]]],[[[12.8811,37.8022],[12.8814,37.8014],[12.8839,37.8015],[12.8811,37.8022],[12.8777,37.8069],[12.8712,37.8195],[12.8768,37.8221],[12.8793,37.8211],[12.8958,37.8261],[12.9018,37.8272],[12.8996,37.8254],[12.9005,37.8192],[12.9037,37.8123],[12.9071,37.7997],[12.9129,37.7931],[12.9247,37.7833],[12.9297,37.7723],[12.9303,37.767],[12.9273,37.7655],[12.9195,37.7671],[12.9099,37.765],[12.9036,37.7597],[12.897,37.757],[12.8882,37.7548],[12.8836,37.7523],[12.8818,37.7506],[12.8821,37.7485],[12.8798,37.7449],[12.8782,37.744],[12.8748,37.7467],[12.8658,37.7677],[12.8614,37.7652],[12.852,37.7577],[12.8391,37.7358],[12.8365,37.738],[12.8346,37.742],[12.8211,37.7463],[12.8121,37.7477],[12.8002,37.7479],[12.7959,37.7469],[12.7956,37.7434],[12.7922,37.7414],[12.784,37.7412],[12.7775,37.7415],[12.7742,37.746],[12.7739,37.7486],[12.7745,37.7489],[12.773,37.7508],[12.7711,37.7516],[12.767,37.7526],[12.762,37.7482],[12.762,37.7515],[12.7668,37.7573],[12.783,37.7639],[12.7948,37.7704],[12.8007,37.7749],[12.8045,37.78],[12.8101,37.7839],[12.8143,37.7856],[12.821,37.7868],[12.8295,37.7914],[12.8536,37.7925],[12.8511,37.7959],[12.8554,37.8006],[12.8584,37.8015],[12.8683,37.8011],[12.8714,37.8034],[12.8755,37.8022],[12.8811,37.8022]],[[12.887,37.8188],[12.8903,37.8196],[12.8901,37.8207],[12.8859,37.8201],[12.887,37.8188]]]]}},{"type":"Feature","properties":{"i":"081020","n":"San Vito Lo Capo"},"geometry":{"type":"Polygon","coordinates":[[[12.811,38.0813],[12.807,38.0814],[12.8041,38.0827],[12.8001,38.0821],[12.7945,38.0779],[12.7973,38.0646],[12.7976,38.0581],[12.7964,38.0584],[12.7926,38.0598],[12.7919,38.0623],[12.7893,38.0662],[12.7836,38.0708],[12.7719,38.0743],[12.7606,38.0757],[12.7541,38.0794],[12.7553,38.0815],[12.7551,38.0839],[12.7506,38.0905],[12.7409,38.0926],[12.7234,38.1051],[12.718,38.108],[12.7112,38.1097],[12.7115,38.1111],[12.7225,38.1211],[12.7288,38.1252],[12.7289,38.1266],[12.7264,38.1298],[12.7358,38.1367],[12.7374,38.1394],[12.7373,38.1414],[12.7361,38.1434],[12.7307,38.1489],[12.7178,38.1686],[12.7164,38.1717],[12.7157,38.1771],[12.7189,38.1821],[12.7268,38.1878],[12.73,38.1893],[12.733,38.1896],[12.7343,38.1892],[12.7345,38.1865],[12.7327,38.1826],[12.7321,38.1825],[12.7317,38.1802],[12.7355,38.1771],[12.7386,38.1759],[12.7439,38.1758],[12.766,38.1802],[12.7681,38.1796],[12.7708,38.1746],[12.7717,38.1693],[12.7684,38.1663],[12.7674,38.1643],[12.7671,38.1589],[12.7684,38.1544],[12.7712,38.1504],[12.7797,38.1504],[12.7868,38.1393],[12.7909,38.1347],[12.7894,38.1264],[12.7901,38.1119],[12.7979,38.1006],[12.8044,38.0935],[12.8048,38.0901],[12.811,38.0813]]]}},{"type":"Feature","properties":{"i":"081021","n":"Trapani"},"geometry":{"type":"MultiPolygon","coordinates":[[[[12.7274,37.9547],[12.7343,37.9509],[12.76,37.9462],[12.7691,37.9434],[12.773,37.943],[12.784,37.9439],[12.7901,37.9376],[12.7907,37.9256],[12.7878,37.9153],[12.793,37.9089],[12.7971,37.9067],[12.8007,37.9006],[12.796,37.8966],[12.7894,37.8944],[12.7853,37.8936],[12.7828,37.8947],[12.7769,37.8955],[12.7623,37.8945],[12.7391,37.8856],[12.731,37.8756],[12.7244,37.8701],[12.7198,37.8709],[12.7148,37.8754],[12.7089,37.8793],[12.7053,37.8783],[12.6931,37.864],[12.696,37.862],[12.6988,37.8573],[12.6992,37.8457],[12.6844,37.8445],[12.6693,37.8454],[12.6662,37.8424],[12.6586,37.8421],[12.657,37.8404],[12.64,37.8399],[12.6297,37.8401],[12.6286,37.8444],[12.6184,37.8444],[12.6164,37.8461],[12.6117,37.8516],[12.6101,37.8547],[12.6103,37.8563],[12.6162,37.8578],[12.6273,37.8638],[12.6204,37.8688],[12.6062,37.8716],[12.6046,37.8712],[12.6035,37.87],[12.6032,37.8724],[12.6042,37.8744],[12.6077,37.876],[12.6127,37.8802],[12.6155,37.8901],[12.614,37.8932],[12.6128,37.894],[12.6163,37.894],[12.6221,37.9007],[12.6298,37.903],[12.6357,37.9061],[12.6391,37.9132],[12.6371,37.9172],[12.6305,37.9219],[12.6135,37.9301],[12.6115,37.9332],[12.6168,37.935],[12.6224,37.9385],[12.6474,37.957],[12.6671,37.9592],[12.6681,37.9603],[12.6679,37.9624],[12.6712,37.9623],[12.6812,37.9593],[12.716,37.958],[12.7221,37.9568],[12.7274,37.9547]]],[[[12.4961,38.0121],[12.4974,38.0092],[12.4974,38.005],[12.4973,38.0092],[12.4963,38.0112],[12.4942,38.0116],[12.4961,38.0121]]],[[[12.6381,37.9853],[12.6353,37.9795],[12.6273,37.9798],[12.6156,37.9682],[12.6156,37.966],[12.6125,37.9644],[12.6065,37.9658],[12.5783,37.9881],[12.5731,37.9871],[12.5629,37.9887],[12.563,37.9928],[12.5579,37.9958],[12.5415,37.9852],[12.5397,37.9852],[12.5207,37.9918],[12.515,37.9949],[12.5066,37.9941],[12.5104,38.01],[12.5199,38.0093],[12.5199,38.0139],[12.5124,38.0133],[12.501,38.0145],[12.497,38.0139],[12.4927,38.0158],[12.4995,38.0179],[12.5066,38.0167],[12.5121,38.0182],[12.5238,38.0253],[12.5277,38.0292],[12.5281,38.0314],[12.5334,38.0346],[12.538,38.0276],[12.5438,38.0226],[12.5464,38.0172],[12.5808,38.0126],[12.5836,38.0113],[12.5889,38.0067],[12.5969,38.0028],[12.6156,37.9981],[12.6237,37.9953],[12.6381,37.9853]]]]}},{"type":"Feature","properties":{"i":"081022","n":"Valderice"},"geometry":{"type":"Polygon","coordinates":[[[12.6847,38.038],[12.6873,38.0247],[12.6811,38.0236],[12.6789,38.0253],[12.6732,38.0265],[12.6721,38.0215],[12.6658,38.0128],[12.6655,38.0029],[12.6764,38.0],[12.686,37.9987],[12.687,37.9973],[12.6861,37.9911],[12.6839,37.9866],[12.6825,37.9851],[12.6787,37.9891],[12.6588,37.9903],[12.6551,37.9898],[12.6485,37.9908],[12.643,37.9936],[12.6406,37.9988],[12.6274,37.9988],[12.6216,38.0122],[12.6141,38.0125],[12.6026,38.0098],[12.6011,38.0167],[12.5979,38.0222],[12.5916,38.0221],[12.5869,38.0233],[12.5865,38.0282],[12.5876,38.0306],[12.5901,38.0329],[12.5944,38.035],[12.5965,38.0328],[12.5999,38.036],[12.6033,38.0412],[12.5993,38.0494],[12.5993,38.0555],[12.5923,38.059],[12.5895,38.0632],[12.5891,38.0664],[12.6002,38.0651],[12.6132,38.0669],[12.6305,38.0718],[12.6449,38.0786],[12.6518,38.0686],[12.6617,38.0583],[12.6705,38.052],[12.673,38.0464],[12.6694,38.0466],[12.6679,38.0424],[12.6683,38.0413],[12.6832,38.0418],[12.6847,38.038]]]}},{"type":"Feature","properties":{"i":"081023","n":"Vita"},"geometry":{"type":"Polygon","coordinates":[[[12.8559,37.839],[12.8482,37.8448],[12.8417,37.8519],[12.8389,37.8572],[12.8355,37.8589],[12.8121,37.8591],[12.8088,37.8599],[12.8121,37.8685],[12.813,37.8785],[12.8158,37.8785],[12.82,37.8768],[12.8223,37.8739],[12.8295,37.8707],[12.8417,37.8719],[12.8422,37.8732],[12.8449,37.8757],[12.848,37.8756],[12.8596,37.8691],[12.8616,37.869],[12.8576,37.8503],[12.8535,37.8453],[12.8559,37.839]]]}},{"type":"Feature","properties":{"i":"081024","n":"Petrosino"},"geometry":{"type":"MultiPolygon","coordinates":[[[[12.518,37.6623],[12.5172,37.6658],[12.5013,37.6746],[12.4982,37.6776],[12.494,37.685],[12.4899,37.6901],[12.4768,37.6983],[12.4705,37.7049],[12.4714,37.7061],[12.4719,37.7154],[12.4694,37.7206],[12.4724,37.7357],[12.4758,37.7336],[12.4789,37.7337],[12.494,37.738],[12.5236,37.714],[12.5397,37.7252],[12.5535,37.7377],[12.5609,37.7433],[12.5641,37.7437],[12.5713,37.7406],[12.6046,37.7175],[12.5974,37.7108],[12.588,37.7063],[12.5665,37.72],[12.5574,37.7113],[12.5486,37.7004],[12.5457,37.7026],[12.5372,37.6927],[12.5354,37.6897],[12.536,37.6869],[12.5331,37.683],[12.529,37.6785],[12.5271,37.6796],[12.5232,37.6753],[12.5255,37.6712],[12.518,37.6623]]]]}}]}
