{"type":"FeatureCollection","fonte":"Confini comunali ISTAT via openpolis/geojson-italy — CC BY 4.0","features":[{"type":"Feature","properties":{"i":"055001","n":"Acquasparta"},"geometry":{"type":"Polygon","coordinates":[[[12.6249,42.6735],[12.6238,42.6702],[12.6064,42.6412],[12.6007,42.6412],[12.5845,42.6433],[12.5681,42.6424],[12.5612,42.6436],[12.544,42.6477],[12.5398,42.6499],[12.5396,42.653],[12.5411,42.6548],[12.5335,42.6587],[12.5283,42.6574],[12.5204,42.6615],[12.5199,42.6628],[12.5235,42.6673],[12.5234,42.669],[12.5118,42.6742],[12.4826,42.691],[12.4768,42.6997],[12.4791,42.7032],[12.4765,42.7073],[12.4737,42.708],[12.464,42.7045],[12.4625,42.7047],[12.4741,42.7157],[12.4815,42.7204],[12.4893,42.7268],[12.4909,42.7313],[12.4932,42.7347],[12.5058,42.7309],[12.5119,42.7325],[12.5152,42.7291],[12.5156,42.7248],[12.5137,42.7239],[12.5139,42.7212],[12.5154,42.7188],[12.5321,42.7112],[12.537,42.7115],[12.544,42.7157],[12.5635,42.7156],[12.5737,42.7139],[12.5805,42.7193],[12.5771,42.7358],[12.577,42.7399],[12.5838,42.7454],[12.5846,42.7491],[12.591,42.7488],[12.5986,42.7458],[12.6031,42.7423],[12.6043,42.7392],[12.6039,42.7329],[12.6049,42.7304],[12.6079,42.7259],[12.6126,42.7212],[12.6272,42.7197],[12.6236,42.7106],[12.6196,42.7084],[12.6169,42.7075],[12.6111,42.7079],[12.6051,42.7096],[12.5922,42.7112],[12.5871,42.7101],[12.5799,42.7055],[12.581,42.6982],[12.5836,42.6886],[12.5848,42.6882],[12.5898,42.6893],[12.6084,42.6949],[12.6133,42.6944],[12.6148,42.6925],[12.6164,42.6879],[12.6164,42.6812],[12.6222,42.6735],[12.6249,42.6735]]]}},{"type":"Feature","properties":{"i":"055002","n":"Allerona"},"geometry":{"type":"Polygon","coordinates":[[[11.9333,42.8693],[11.9345,42.865],[11.9369,42.8627],[11.9429,42.8623],[11.9468,42.8633],[11.9479,42.8599],[11.9586,42.8491],[11.9712,42.8425],[11.9853,42.8428],[12.0014,42.8447],[12.0077,42.8432],[12.0107,42.8408],[12.0144,42.84],[12.0111,42.8338],[12.0111,42.832],[12.0175,42.8205],[12.021,42.8184],[12.0274,42.8195],[12.0309,42.818],[12.0344,42.8111],[12.0401,42.8049],[12.0435,42.8031],[12.0461,42.8005],[12.0494,42.7884],[12.061,42.7827],[12.0624,42.7809],[12.0651,42.7715],[12.0632,42.7708],[12.0593,42.7744],[12.0558,42.7762],[12.0505,42.7774],[12.048,42.7767],[12.0464,42.7792],[12.0322,42.7853],[12.0158,42.7867],[12.0116,42.7814],[12.0039,42.776],[11.9977,42.7751],[11.9944,42.773],[11.9936,42.7706],[11.9947,42.767],[11.9927,42.7659],[11.9795,42.7646],[11.9654,42.7671],[11.9625,42.7689],[11.9606,42.7712],[11.9496,42.7761],[11.9331,42.778],[11.9285,42.78],[11.9253,42.7838],[11.9195,42.7991],[11.9138,42.8099],[11.9082,42.8162],[11.9061,42.8239],[11.9056,42.8296],[11.9039,42.8322],[11.8991,42.8325],[11.895,42.8347],[11.8919,42.8429],[11.9092,42.8491],[11.9149,42.8522],[11.92,42.8568],[11.926,42.8672],[11.9305,42.8697],[11.9333,42.8693]]]}},{"type":"Feature","properties":{"i":"055003","n":"Alviano"},"geometry":{"type":"Polygon","coordinates":[[[12.3444,42.6152],[12.3424,42.6093],[12.3403,42.6118],[12.3344,42.6134],[12.3238,42.6069],[12.3218,42.6049],[12.318,42.5972],[12.3191,42.5877],[12.3121,42.5864],[12.303,42.5829],[12.2944,42.5774],[12.2832,42.572],[12.2671,42.5612],[12.266,42.5599],[12.2664,42.5594],[12.2616,42.5607],[12.2515,42.5667],[12.2422,42.5695],[12.2387,42.572],[12.2401,42.5751],[12.2359,42.5833],[12.2439,42.5977],[12.2476,42.5967],[12.2586,42.6028],[12.273,42.6033],[12.2876,42.6027],[12.3059,42.6052],[12.3124,42.6078],[12.3135,42.6106],[12.3207,42.6181],[12.3444,42.6152]]]}},{"type":"Feature","properties":{"i":"055004","n":"Amelia"},"geometry":{"type":"Polygon","coordinates":[[[12.4738,42.6005],[12.4666,42.589],[12.4631,42.5773],[12.4652,42.5732],[12.4737,42.5632],[12.479,42.5549],[12.4643,42.5417],[12.4618,42.5369],[12.4614,42.535],[12.464,42.5219],[12.4626,42.5175],[12.4482,42.5107],[12.4444,42.508],[12.4431,42.5056],[12.444,42.5028],[12.443,42.4981],[12.438,42.4913],[12.4313,42.4867],[12.4278,42.4869],[12.4214,42.4925],[12.4018,42.4991],[12.3951,42.4991],[12.3902,42.4982],[12.3875,42.5001],[12.3798,42.5031],[12.3731,42.5026],[12.3698,42.506],[12.3664,42.5133],[12.3633,42.5172],[12.3573,42.5187],[12.3445,42.5258],[12.3361,42.5261],[12.3295,42.5252],[12.3165,42.5258],[12.3149,42.5246],[12.3088,42.525],[12.3106,42.5353],[12.3118,42.5375],[12.3171,42.5385],[12.3272,42.5423],[12.3332,42.5513],[12.3382,42.5571],[12.3399,42.5586],[12.3504,42.5626],[12.3539,42.5667],[12.3459,42.584],[12.3401,42.5917],[12.3374,42.5941],[12.3364,42.5966],[12.3363,42.5977],[12.3424,42.6093],[12.3468,42.624],[12.3504,42.6249],[12.3545,42.6229],[12.3658,42.6166],[12.3816,42.6043],[12.3889,42.6002],[12.3955,42.5977],[12.3982,42.603],[12.3955,42.609],[12.3969,42.618],[12.4006,42.6224],[12.4051,42.626],[12.4083,42.6269],[12.4111,42.6301],[12.417,42.6248],[12.4263,42.6183],[12.4403,42.6145],[12.4521,42.6134],[12.4621,42.6155],[12.4731,42.6091],[12.4746,42.6032],[12.4738,42.6005]]]}},{"type":"Feature","properties":{"i":"055005","n":"Arrone"},"geometry":{"type":"Polygon","coordinates":[[[12.8275,42.5863],[12.8252,42.584],[12.825,42.5827],[12.8264,42.5782],[12.8364,42.5686],[12.845,42.5667],[12.8505,42.5675],[12.8636,42.5583],[12.8577,42.5561],[12.8438,42.5489],[12.8307,42.5401],[12.8211,42.5365],[12.818,42.5329],[12.8086,42.5359],[12.7955,42.5339],[12.7856,42.5335],[12.7838,42.5338],[12.7836,42.5428],[12.7869,42.5519],[12.784,42.5581],[12.7726,42.5607],[12.7682,42.5596],[12.7612,42.5545],[12.7517,42.5639],[12.7442,42.574],[12.742,42.5773],[12.7409,42.5827],[12.7392,42.5849],[12.7364,42.5917],[12.7443,42.5926],[12.7501,42.5909],[12.7554,42.5876],[12.7605,42.5827],[12.7714,42.5924],[12.7738,42.6007],[12.7809,42.6045],[12.7844,42.6008],[12.7915,42.5969],[12.7964,42.5955],[12.8151,42.5946],[12.8275,42.5863]]]}},{"type":"Feature","properties":{"i":"055006","n":"Attigliano"},"geometry":{"type":"MultiPolygon","coordinates":[[[[12.303,42.4913],[12.2999,42.4875],[12.2892,42.4945],[12.303,42.4913]]],[[[12.3106,42.5353],[12.3088,42.525],[12.3149,42.5246],[12.3114,42.5158],[12.3023,42.5142],[12.3002,42.5124],[12.2991,42.5082],[12.3005,42.5036],[12.2898,42.509],[12.2859,42.5092],[12.2792,42.5065],[12.275,42.509],[12.2744,42.5122],[12.2755,42.516],[12.2835,42.5175],[12.2826,42.5227],[12.2744,42.5241],[12.269,42.5295],[12.2662,42.5361],[12.2693,42.5366],[12.2733,42.539],[12.2735,42.5405],[12.2776,42.5416],[12.2916,42.5423],[12.3106,42.5353]]]]}},{"type":"Feature","properties":{"i":"055007","n":"Baschi"},"geometry":{"type":"Polygon","coordinates":[[[12.3687,42.6869],[12.3614,42.6905],[12.3541,42.6955],[12.3496,42.6973],[12.3445,42.696],[12.3294,42.6851],[12.3274,42.6845],[12.3242,42.6884],[12.3128,42.6873],[12.302,42.6907],[12.2914,42.6909],[12.2808,42.6889],[12.2719,42.6836],[12.2685,42.6826],[12.2622,42.6825],[12.2593,42.6839],[12.26,42.6843],[12.2599,42.6874],[12.2562,42.6868],[12.2492,42.6796],[12.2491,42.6727],[12.2527,42.6665],[12.2491,42.6598],[12.2466,42.6578],[12.2412,42.6567],[12.2345,42.6515],[12.2234,42.657],[12.2171,42.6624],[12.2093,42.6737],[12.2092,42.686],[12.2085,42.6882],[12.2024,42.6928],[12.1958,42.6945],[12.1954,42.6952],[12.1959,42.6971],[12.1972,42.698],[12.2021,42.6997],[12.2076,42.6975],[12.2119,42.6977],[12.2188,42.699],[12.2295,42.704],[12.2365,42.7047],[12.2409,42.703],[12.2493,42.706],[12.2543,42.7133],[12.2521,42.7221],[12.2505,42.7244],[12.2521,42.7338],[12.2574,42.7381],[12.266,42.7395],[12.2809,42.7367],[12.2968,42.7374],[12.302,42.7351],[12.3045,42.7326],[12.3069,42.732],[12.311,42.7339],[12.3156,42.7408],[12.3183,42.7415],[12.3206,42.7434],[12.3236,42.7466],[12.3246,42.7503],[12.3326,42.7509],[12.3344,42.7478],[12.3426,42.7388],[12.3488,42.7349],[12.3598,42.7192],[12.3706,42.7128],[12.3727,42.7129],[12.3745,42.7106],[12.3753,42.7068],[12.373,42.7036],[12.3691,42.701],[12.3711,42.6918],[12.3687,42.6869]]]}},{"type":"Feature","properties":{"i":"055008","n":"Calvi dell'Umbria"},"geometry":{"type":"Polygon","coordinates":[[[12.611,42.428],[12.6141,42.4251],[12.6149,42.4145],[12.6059,42.4078],[12.6061,42.4035],[12.5964,42.4],[12.575,42.3876],[12.5663,42.3835],[12.5597,42.3818],[12.5522,42.3818],[12.546,42.3795],[12.538,42.3744],[12.53,42.3642],[12.5261,42.3642],[12.5189,42.3675],[12.5141,42.3777],[12.5131,42.3845],[12.5134,42.3928],[12.5182,42.3973],[12.5166,42.3992],[12.5111,42.4036],[12.5012,42.4017],[12.494,42.3981],[12.4893,42.3979],[12.4814,42.4042],[12.4958,42.4162],[12.5031,42.4257],[12.5142,42.4269],[12.5206,42.4252],[12.5277,42.4278],[12.5319,42.4307],[12.5394,42.4326],[12.5562,42.4272],[12.5827,42.4297],[12.5916,42.4341],[12.5962,42.4352],[12.611,42.428]]]}},{"type":"Feature","properties":{"i":"055009","n":"Castel Giorgio"},"geometry":{"type":"Polygon","coordinates":[[[11.9849,42.7366],[11.9822,42.7303],[11.9895,42.7242],[11.995,42.7218],[11.9995,42.7218],[12.0011,42.7265],[12.0034,42.7295],[12.0142,42.7257],[12.0171,42.7243],[12.0185,42.7174],[12.0266,42.7106],[12.0281,42.7049],[12.0273,42.6965],[12.0192,42.6844],[12.0199,42.6796],[12.0219,42.6779],[12.0245,42.6734],[12.0141,42.6658],[12.0077,42.6623],[11.978,42.6755],[11.9413,42.6833],[11.9488,42.696],[11.9316,42.701],[11.9262,42.7039],[11.9302,42.7126],[11.9394,42.718],[11.9454,42.7253],[11.9491,42.7274],[11.9521,42.7266],[11.9606,42.7282],[11.9699,42.7387],[11.9741,42.7352],[11.9849,42.7366]]]}},{"type":"Feature","properties":{"i":"055010","n":"Castel Viscardo"},"geometry":{"type":"Polygon","coordinates":[[[12.048,42.7767],[12.0448,42.7722],[12.0488,42.7652],[12.0476,42.7562],[12.0456,42.7552],[12.0443,42.7534],[12.0475,42.7452],[12.053,42.7384],[12.0548,42.7351],[12.0228,42.7336],[12.0175,42.7353],[12.013,42.738],[11.994,42.7442],[11.9896,42.7419],[11.9849,42.7366],[11.9741,42.7352],[11.9699,42.7387],[11.9783,42.7515],[11.9795,42.7646],[11.9927,42.7659],[11.9947,42.767],[11.9936,42.7706],[11.9944,42.773],[11.9977,42.7751],[12.0039,42.776],[12.0116,42.7814],[12.0158,42.7867],[12.0322,42.7853],[12.0464,42.7792],[12.048,42.7767]]]}},{"type":"Feature","properties":{"i":"055011","n":"Fabro"},"geometry":{"type":"MultiPolygon","coordinates":[[[[12.0714,42.8745],[12.0678,42.8691],[12.0618,42.8655],[12.0588,42.8653],[12.0506,42.8689],[12.0418,42.869],[12.0377,42.8674],[12.0304,42.8629],[12.0291,42.8617],[12.0249,42.8519],[12.0249,42.8471],[12.0182,42.8387],[12.0107,42.8408],[12.0077,42.8432],[12.0014,42.8447],[11.9853,42.8428],[11.9712,42.8425],[11.9586,42.8491],[11.9479,42.8599],[11.9468,42.8633],[11.9584,42.8635],[11.9743,42.8686],[11.9881,42.871],[12.0149,42.88],[12.0301,42.8813],[12.0309,42.8803],[12.0364,42.879],[12.0461,42.881],[12.054,42.8837],[12.0609,42.8893],[12.067,42.8956],[12.0694,42.8948],[12.0701,42.8928],[12.0728,42.8771],[12.0714,42.8745]]],[[[11.9586,42.8743],[11.9588,42.8916],[11.9521,42.901],[11.9521,42.9032],[11.9581,42.9162],[11.9667,42.9121],[11.9984,42.9093],[11.989,42.8964],[11.9854,42.8926],[11.9832,42.8911],[11.9747,42.8898],[11.9663,42.8834],[11.9586,42.8743]]]]}},{"type":"Feature","properties":{"i":"055012","n":"Ferentillo"},"geometry":{"type":"Polygon","coordinates":[[[12.8895,42.6409],[12.8923,42.6355],[12.8888,42.6302],[12.8854,42.6283],[12.8843,42.6249],[12.8877,42.619],[12.8913,42.6169],[12.8963,42.6164],[12.8805,42.6093],[12.8806,42.6077],[12.8753,42.6079],[12.8657,42.6059],[12.8618,42.6029],[12.8591,42.5994],[12.8489,42.5943],[12.8456,42.5941],[12.8432,42.5961],[12.8407,42.5955],[12.8275,42.5863],[12.8151,42.5946],[12.7964,42.5955],[12.7904,42.5973],[12.7844,42.6008],[12.7809,42.6045],[12.7812,42.606],[12.7693,42.6102],[12.7632,42.6181],[12.7587,42.6222],[12.7517,42.6191],[12.7489,42.6141],[12.7453,42.6108],[12.7352,42.6092],[12.7363,42.6113],[12.7336,42.6193],[12.7338,42.6241],[12.7518,42.6341],[12.7633,42.636],[12.7751,42.636],[12.7855,42.647],[12.7866,42.6583],[12.7918,42.662],[12.7959,42.6613],[12.7999,42.6577],[12.8081,42.6569],[12.8281,42.671],[12.8613,42.6651],[12.8692,42.6541],[12.8763,42.6482],[12.8895,42.6409]]]}},{"type":"Feature","properties":{"i":"055013","n":"Ficulle"},"geometry":{"type":"Polygon","coordinates":[[[12.1299,42.8212],[12.13,42.8129],[12.132,42.8056],[12.1312,42.8026],[12.1272,42.8002],[12.1027,42.8019],[12.0946,42.8041],[12.094,42.8034],[12.0912,42.7963],[12.092,42.7933],[12.0922,42.7858],[12.0846,42.7827],[12.0839,42.7751],[12.0883,42.7636],[12.0883,42.761],[12.0874,42.7594],[12.0833,42.7575],[12.0706,42.7625],[12.0674,42.7657],[12.0632,42.7708],[12.0651,42.7715],[12.0624,42.7809],[12.061,42.7827],[12.0494,42.7884],[12.0461,42.8005],[12.0435,42.8031],[12.0401,42.8049],[12.0344,42.8111],[12.0309,42.818],[12.0274,42.8195],[12.021,42.8184],[12.0175,42.8205],[12.0111,42.832],[12.0111,42.8338],[12.0144,42.84],[12.0182,42.8387],[12.0249,42.8471],[12.0249,42.8519],[12.0291,42.8617],[12.0377,42.8674],[12.0418,42.869],[12.0506,42.8689],[12.0588,42.8653],[12.0618,42.8655],[12.0678,42.8691],[12.0714,42.8745],[12.082,42.8753],[12.0826,42.8743],[12.0883,42.8715],[12.093,42.8617],[12.0955,42.8538],[12.094,42.8479],[12.0961,42.8447],[12.1052,42.8348],[12.1091,42.8319],[12.1131,42.8301],[12.1164,42.8301],[12.1245,42.8274],[12.1255,42.8241],[12.1299,42.8212]]]}},{"type":"Feature","properties":{"i":"055014","n":"Giove"},"geometry":{"type":"Polygon","coordinates":[[[12.3573,42.5187],[12.3602,42.5135],[12.3604,42.5117],[12.3563,42.5051],[12.3502,42.499],[12.3352,42.4901],[12.3245,42.4949],[12.3158,42.4882],[12.2999,42.4875],[12.3074,42.4973],[12.3068,42.4984],[12.3034,42.4995],[12.2995,42.5054],[12.2991,42.5082],[12.3002,42.5124],[12.3023,42.5142],[12.3114,42.5158],[12.3149,42.5246],[12.3165,42.5258],[12.3295,42.5252],[12.3361,42.5261],[12.3445,42.5258],[12.3573,42.5187]]]}},{"type":"Feature","properties":{"i":"055015","n":"Guardea"},"geometry":{"type":"MultiPolygon","coordinates":[[[[12.3871,42.6382],[12.3885,42.6369],[12.3974,42.6333],[12.4111,42.6301],[12.4083,42.6269],[12.4051,42.626],[12.4006,42.6224],[12.3969,42.618],[12.3955,42.609],[12.3982,42.603],[12.3955,42.5977],[12.3889,42.6002],[12.3816,42.6043],[12.3658,42.6166],[12.3504,42.6249],[12.3687,42.6281],[12.3734,42.6303],[12.3791,42.6355],[12.3842,42.6383],[12.3871,42.6382]]],[[[12.337,42.6485],[12.3358,42.6449],[12.3439,42.6308],[12.3468,42.624],[12.3444,42.6152],[12.3207,42.6181],[12.3135,42.6106],[12.3124,42.6078],[12.3059,42.6052],[12.2876,42.6027],[12.273,42.6033],[12.2582,42.6027],[12.2476,42.5967],[12.2461,42.6009],[12.2391,42.607],[12.2333,42.6082],[12.2292,42.6104],[12.2303,42.6134],[12.236,42.6214],[12.2387,42.6228],[12.2396,42.6231],[12.2393,42.622],[12.244,42.6227],[12.2529,42.6253],[12.2745,42.6343],[12.2801,42.6353],[12.2935,42.6406],[12.3027,42.6421],[12.3053,42.6388],[12.3118,42.6414],[12.318,42.6478],[12.3351,42.6494],[12.337,42.6485]]]]}},{"type":"Feature","properties":{"i":"055016","n":"Lugnano in Teverina"},"geometry":{"type":"Polygon","coordinates":[[[12.3106,42.5353],[12.2916,42.5423],[12.2786,42.5416],[12.2777,42.546],[12.279,42.5488],[12.2788,42.5509],[12.275,42.5599],[12.266,42.5599],[12.2832,42.572],[12.2944,42.5774],[12.303,42.5829],[12.3121,42.5864],[12.3191,42.5877],[12.318,42.5972],[12.3218,42.6049],[12.3238,42.6069],[12.334,42.6133],[12.3403,42.6118],[12.3424,42.6093],[12.3363,42.5977],[12.3364,42.5966],[12.3374,42.5941],[12.3401,42.5917],[12.3459,42.584],[12.3539,42.5667],[12.3504,42.5626],[12.3399,42.5586],[12.3382,42.5571],[12.3332,42.5513],[12.3272,42.5423],[12.3171,42.5385],[12.3121,42.5377],[12.3106,42.5353]]]}},{"type":"Feature","properties":{"i":"055017","n":"Montecastrilli"},"geometry":{"type":"Polygon","coordinates":[[[12.4768,42.6997],[12.4826,42.691],[12.5118,42.6742],[12.5234,42.669],[12.5235,42.6673],[12.5199,42.6628],[12.5204,42.6615],[12.5283,42.6574],[12.5335,42.6587],[12.5411,42.6548],[12.5396,42.653],[12.5398,42.6499],[12.544,42.6477],[12.5432,42.6406],[12.5395,42.6353],[12.5389,42.6303],[12.5287,42.6324],[12.5189,42.6322],[12.517,42.629],[12.5173,42.6272],[12.5156,42.6198],[12.505,42.6064],[12.4911,42.6013],[12.4738,42.6005],[12.4746,42.6032],[12.4731,42.6091],[12.4621,42.6155],[12.4521,42.6134],[12.4403,42.6145],[12.4263,42.6183],[12.417,42.6248],[12.4111,42.6301],[12.3974,42.6333],[12.3885,42.6369],[12.3871,42.6382],[12.3857,42.6441],[12.3828,42.6495],[12.3809,42.6517],[12.3786,42.6521],[12.3776,42.6563],[12.3785,42.6578],[12.3824,42.66],[12.3947,42.6621],[12.4054,42.6614],[12.4065,42.66],[12.407,42.6565],[12.4098,42.6496],[12.4142,42.6431],[12.4249,42.6325],[12.4265,42.6321],[12.4288,42.6339],[12.4339,42.6322],[12.4406,42.6251],[12.4423,42.6267],[12.4428,42.6361],[12.4394,42.6413],[12.4394,42.6455],[12.4413,42.6499],[12.4507,42.6594],[12.4665,42.6598],[12.4766,42.6671],[12.4724,42.6803],[12.4674,42.6845],[12.4718,42.6984],[12.4753,42.6999],[12.4768,42.6997]]]}},{"type":"Feature","properties":{"i":"055018","n":"Montecchio"},"geometry":{"type":"Polygon","coordinates":[[[12.3687,42.6869],[12.3756,42.6841],[12.3841,42.678],[12.3668,42.6733],[12.3612,42.6738],[12.3488,42.6674],[12.3398,42.6616],[12.3396,42.6552],[12.3423,42.6505],[12.3374,42.6483],[12.3351,42.6494],[12.318,42.6478],[12.3118,42.6414],[12.3053,42.6388],[12.3027,42.6421],[12.2935,42.6406],[12.2801,42.6353],[12.2745,42.6343],[12.2529,42.6253],[12.2393,42.622],[12.2433,42.6281],[12.2487,42.6287],[12.2501,42.6303],[12.2507,42.6332],[12.2418,42.6446],[12.2378,42.6491],[12.2345,42.6515],[12.2412,42.6567],[12.2466,42.6578],[12.2491,42.6598],[12.2527,42.6665],[12.2491,42.6727],[12.2492,42.6796],[12.2562,42.6868],[12.2599,42.6874],[12.26,42.6843],[12.2593,42.6839],[12.2622,42.6825],[12.2685,42.6826],[12.2719,42.6836],[12.2808,42.6889],[12.2914,42.6909],[12.302,42.6907],[12.3128,42.6873],[12.3242,42.6884],[12.3274,42.6845],[12.3294,42.6851],[12.3445,42.696],[12.3496,42.6973],[12.3541,42.6955],[12.3614,42.6905],[12.3687,42.6869]]]}},{"type":"Feature","properties":{"i":"055019","n":"Montefranco"},"geometry":{"type":"Polygon","coordinates":[[[12.7809,42.6045],[12.7738,42.6007],[12.7714,42.5924],[12.7605,42.5827],[12.7554,42.5876],[12.7498,42.591],[12.7448,42.5926],[12.7364,42.5917],[12.7318,42.5921],[12.7294,42.5932],[12.729,42.5956],[12.7262,42.5989],[12.7253,42.6021],[12.7266,42.6044],[12.7325,42.6082],[12.7453,42.6108],[12.7489,42.6141],[12.7517,42.6191],[12.7582,42.6222],[12.7632,42.6181],[12.7693,42.6102],[12.7792,42.6072],[12.7815,42.6057],[12.7809,42.6045]]]}},{"type":"Feature","properties":{"i":"055020","n":"Montegabbione"},"geometry":{"type":"Polygon","coordinates":[[[12.1725,42.9335],[12.1729,42.9288],[12.1771,42.9166],[12.1658,42.8965],[12.1645,42.8847],[12.1649,42.8805],[12.151,42.8781],[12.1361,42.8773],[12.1373,42.8819],[12.1343,42.8858],[12.1212,42.8937],[12.1089,42.8916],[12.1003,42.8826],[12.0978,42.8809],[12.0897,42.8806],[12.083,42.8771],[12.082,42.8753],[12.0714,42.8745],[12.0728,42.8771],[12.0701,42.8928],[12.0694,42.8948],[12.067,42.8956],[12.0683,42.9],[12.0686,42.9131],[12.0707,42.924],[12.0727,42.9308],[12.0859,42.9409],[12.1019,42.9414],[12.1142,42.9404],[12.1307,42.9409],[12.1399,42.9355],[12.1426,42.9349],[12.1451,42.9355],[12.1472,42.9374],[12.1517,42.9385],[12.1725,42.9335]]]}},{"type":"Feature","properties":{"i":"055021","n":"Monteleone d'Orvieto"},"geometry":{"type":"Polygon","coordinates":[[[12.0859,42.9409],[12.0727,42.9308],[12.0686,42.9131],[12.0683,42.9],[12.067,42.8956],[12.0609,42.8893],[12.054,42.8837],[12.0461,42.881],[12.0346,42.8791],[12.0191,42.8861],[12.0098,42.8924],[12.0139,42.8979],[12.0075,42.9026],[12.0047,42.9073],[12.01,42.9104],[12.0154,42.9089],[12.022,42.9151],[12.0276,42.9241],[12.031,42.9274],[12.0383,42.9322],[12.0451,42.9337],[12.0498,42.9359],[12.0508,42.9408],[12.0615,42.9342],[12.0772,42.9394],[12.0859,42.9409]]]}},{"type":"Feature","properties":{"i":"055022","n":"Narni"},"geometry":{"type":"Polygon","coordinates":[[[12.5679,42.5755],[12.5686,42.5742],[12.5745,42.5729],[12.5696,42.5696],[12.5598,42.5655],[12.5627,42.5596],[12.582,42.557],[12.5903,42.5369],[12.5886,42.5307],[12.6086,42.5157],[12.6102,42.5117],[12.613,42.5095],[12.6118,42.5047],[12.6074,42.5013],[12.614,42.492],[12.6147,42.4905],[12.6142,42.4889],[12.6136,42.4868],[12.6031,42.4736],[12.5996,42.4654],[12.597,42.4554],[12.5844,42.4452],[12.5795,42.4467],[12.5771,42.4488],[12.5565,42.4566],[12.5451,42.4607],[12.542,42.461],[12.5394,42.4583],[12.539,42.4526],[12.5339,42.4457],[12.5189,42.4369],[12.5039,42.4307],[12.5018,42.4244],[12.4916,42.4294],[12.477,42.4425],[12.4662,42.4442],[12.4593,42.4419],[12.4552,42.4385],[12.4543,42.4367],[12.4543,42.4269],[12.4512,42.4242],[12.4489,42.4237],[12.4446,42.4257],[12.439,42.4264],[12.4207,42.4216],[12.417,42.4224],[12.4137,42.4256],[12.413,42.4269],[12.4135,42.428],[12.4177,42.4316],[12.4195,42.4365],[12.4191,42.4388],[12.4176,42.441],[12.4139,42.4424],[12.4127,42.4526],[12.4137,42.4552],[12.4179,42.4585],[12.4246,42.4569],[12.4283,42.457],[12.4304,42.458],[12.4276,42.4652],[12.4124,42.4676],[12.4137,42.4791],[12.4245,42.4839],[12.4278,42.4869],[12.4313,42.4867],[12.438,42.4913],[12.443,42.4981],[12.444,42.5028],[12.4431,42.5056],[12.4436,42.5072],[12.4482,42.5107],[12.4622,42.517],[12.464,42.5219],[12.4614,42.535],[12.4618,42.5369],[12.4643,42.5417],[12.479,42.5549],[12.4737,42.5632],[12.4652,42.5732],[12.4631,42.5773],[12.4666,42.589],[12.4738,42.6005],[12.4876,42.6008],[12.5032,42.5914],[12.5317,42.5836],[12.5419,42.584],[12.5479,42.5772],[12.5576,42.5748],[12.5679,42.5755]]]}},{"type":"Feature","properties":{"i":"055023","n":"Orvieto"},"geometry":{"type":"Polygon","coordinates":[[[12.2908,42.7812],[12.292,42.7773],[12.2912,42.7674],[12.2973,42.7489],[12.3109,42.7457],[12.3156,42.7408],[12.311,42.7339],[12.3069,42.732],[12.3045,42.7326],[12.302,42.7351],[12.2968,42.7374],[12.2809,42.7367],[12.266,42.7395],[12.2593,42.7387],[12.2574,42.7381],[12.2521,42.7338],[12.2505,42.7244],[12.2521,42.7221],[12.2543,42.7133],[12.2493,42.706],[12.2409,42.703],[12.2365,42.7047],[12.2295,42.704],[12.2188,42.699],[12.2119,42.6977],[12.2076,42.6975],[12.2021,42.6997],[12.1972,42.698],[12.1959,42.6971],[12.1954,42.6952],[12.1958,42.6945],[12.2024,42.6928],[12.208,42.6889],[12.2092,42.686],[12.2093,42.6737],[12.2171,42.6624],[12.2234,42.657],[12.2311,42.6534],[12.2378,42.6491],[12.2418,42.6446],[12.2506,42.6335],[12.2501,42.6303],[12.2487,42.6287],[12.2433,42.6281],[12.2388,42.6316],[12.2257,42.6355],[12.228,42.6381],[12.2269,42.6435],[12.2089,42.6562],[12.2043,42.6605],[12.1973,42.6638],[12.1858,42.6663],[12.1759,42.6728],[12.1668,42.676],[12.1609,42.6767],[12.1487,42.6658],[12.1462,42.6589],[12.1408,42.6563],[12.1323,42.6617],[12.13,42.6599],[12.1262,42.6548],[12.1253,42.6499],[12.1241,42.6493],[12.1179,42.6506],[12.1084,42.6604],[12.1067,42.6647],[12.105,42.6661],[12.1054,42.6684],[12.1088,42.6697],[12.1128,42.676],[12.116,42.6865],[12.1095,42.6968],[12.1054,42.701],[12.0999,42.7048],[12.0988,42.7023],[12.0956,42.7007],[12.0816,42.7031],[12.0792,42.7017],[12.0701,42.6892],[12.0705,42.6875],[12.0716,42.6875],[12.0772,42.6904],[12.0796,42.6899],[12.0811,42.6849],[12.0788,42.6732],[12.0737,42.6567],[12.0705,42.6544],[12.0667,42.6529],[12.0481,42.6494],[12.0397,42.649],[12.03,42.6432],[12.0299,42.6502],[12.0183,42.6558],[12.0071,42.6625],[12.0141,42.6658],[12.0245,42.6734],[12.0219,42.6779],[12.0199,42.6796],[12.0192,42.6844],[12.0273,42.6965],[12.0281,42.7049],[12.0266,42.7106],[12.0185,42.7174],[12.0171,42.7243],[12.0142,42.7257],[12.0031,42.7294],[12.0011,42.7265],[11.9995,42.7218],[11.995,42.7218],[11.9895,42.7242],[11.9821,42.7307],[11.9844,42.7361],[11.9896,42.7419],[11.994,42.7442],[12.013,42.738],[12.0175,42.7353],[12.0228,42.7336],[12.0548,42.7351],[12.053,42.7384],[12.0475,42.7452],[12.0443,42.7534],[12.0456,42.7552],[12.0476,42.7562],[12.0488,42.7652],[12.0448,42.7722],[12.0487,42.777],[12.0505,42.7774],[12.0558,42.7762],[12.0593,42.7744],[12.0632,42.7708],[12.0706,42.7625],[12.0833,42.7575],[12.0851,42.7579],[12.0883,42.761],[12.0883,42.7636],[12.0839,42.7751],[12.0846,42.7827],[12.0922,42.7858],[12.092,42.7933],[12.0912,42.7963],[12.0946,42.8041],[12.1027,42.8019],[12.1272,42.8002],[12.1312,42.8026],[12.14,42.8033],[12.1512,42.809],[12.1573,42.8143],[12.1692,42.8156],[12.1734,42.8152],[12.1851,42.8123],[12.2097,42.8083],[12.2097,42.8065],[12.2069,42.8012],[12.203,42.7982],[12.2013,42.794],[12.2071,42.7933],[12.2105,42.7959],[12.2108,42.799],[12.2118,42.8001],[12.2292,42.8126],[12.2383,42.8142],[12.2513,42.8131],[12.2571,42.8092],[12.261,42.8016],[12.2667,42.7952],[12.2689,42.7964],[12.2727,42.7921],[12.2649,42.7849],[12.2908,42.7812]]]}},{"type":"Feature","properties":{"i":"055024","n":"Otricoli"},"geometry":{"type":"MultiPolygon","coordinates":[[[[12.5018,42.4244],[12.5007,42.422],[12.4932,42.4138],[12.4814,42.4042],[12.4743,42.4023],[12.4704,42.3999],[12.4663,42.3949],[12.4596,42.3978],[12.4509,42.3966],[12.4447,42.3988],[12.4499,42.4008],[12.4586,42.4066],[12.4604,42.4163],[12.4656,42.4186],[12.4673,42.4204],[12.4672,42.4238],[12.4636,42.4291],[12.4598,42.4292],[12.4543,42.4269],[12.4543,42.4367],[12.4566,42.44],[12.4593,42.4419],[12.4662,42.4442],[12.477,42.4425],[12.4916,42.4294],[12.5018,42.4244]]],[[[12.5875,42.4473],[12.5931,42.4408],[12.5962,42.4352],[12.5916,42.4341],[12.5827,42.4297],[12.5562,42.4272],[12.5394,42.4326],[12.5319,42.4307],[12.5277,42.4278],[12.5206,42.4252],[12.5136,42.4269],[12.5042,42.4259],[12.5021,42.4249],[12.5039,42.4307],[12.5189,42.4369],[12.5339,42.4457],[12.539,42.4526],[12.5394,42.4583],[12.542,42.461],[12.5451,42.4607],[12.5565,42.4566],[12.5771,42.4488],[12.5795,42.4467],[12.5844,42.4452],[12.5875,42.4473]]]]}},{"type":"Feature","properties":{"i":"055025","n":"Parrano"},"geometry":{"type":"Polygon","coordinates":[[[12.1649,42.8805],[12.1713,42.8836],[12.1797,42.88],[12.1868,42.8631],[12.1874,42.8566],[12.186,42.8533],[12.1826,42.8504],[12.1777,42.8416],[12.1674,42.8445],[12.161,42.8397],[12.142,42.8372],[12.1383,42.8358],[12.1363,42.8333],[12.1356,42.8278],[12.1369,42.827],[12.1343,42.8232],[12.1299,42.8212],[12.1255,42.8241],[12.1245,42.8274],[12.1164,42.8301],[12.1131,42.8301],[12.1091,42.8319],[12.1052,42.8348],[12.0961,42.8447],[12.094,42.8479],[12.0955,42.8538],[12.093,42.8617],[12.0883,42.8715],[12.0826,42.8743],[12.082,42.8753],[12.083,42.8771],[12.0897,42.8806],[12.0978,42.8809],[12.1003,42.8826],[12.1089,42.8916],[12.1212,42.8937],[12.1343,42.8858],[12.1373,42.8819],[12.1361,42.8773],[12.151,42.8781],[12.1649,42.8805]]]}},{"type":"Feature","properties":{"i":"055026","n":"Penna in Teverina"},"geometry":{"type":"Polygon","coordinates":[[[12.3902,42.4982],[12.3853,42.4892],[12.3634,42.4774],[12.3512,42.4737],[12.3472,42.4786],[12.3459,42.4822],[12.3352,42.4901],[12.3502,42.499],[12.3563,42.5051],[12.3604,42.5117],[12.3602,42.5135],[12.3573,42.5187],[12.3633,42.5172],[12.3664,42.5133],[12.3698,42.506],[12.3731,42.5026],[12.3798,42.5031],[12.3875,42.5001],[12.3902,42.4982]]]}},{"type":"Feature","properties":{"i":"055027","n":"Polino"},"geometry":{"type":"Polygon","coordinates":[[[12.8806,42.6077],[12.8801,42.6024],[12.8816,42.5983],[12.8869,42.5877],[12.8942,42.5776],[12.8927,42.5635],[12.8887,42.5638],[12.8759,42.5612],[12.8717,42.5611],[12.8636,42.5583],[12.8505,42.5675],[12.845,42.5667],[12.8364,42.5686],[12.8271,42.5769],[12.825,42.5821],[12.8252,42.584],[12.8338,42.5913],[12.8394,42.5948],[12.8432,42.5961],[12.8456,42.5941],[12.8489,42.5943],[12.8591,42.5994],[12.8618,42.6029],[12.8657,42.6059],[12.8753,42.6079],[12.8806,42.6077]]]}},{"type":"Feature","properties":{"i":"055028","n":"Porano"},"geometry":{"type":"Polygon","coordinates":[[[12.1067,42.6647],[12.0945,42.6555],[12.0737,42.6567],[12.0788,42.6732],[12.0811,42.6849],[12.0796,42.6899],[12.0772,42.6904],[12.0716,42.6875],[12.0705,42.6875],[12.0701,42.6888],[12.0792,42.7017],[12.0816,42.7031],[12.0956,42.7007],[12.0988,42.7023],[12.0999,42.7048],[12.1054,42.701],[12.1095,42.6968],[12.116,42.6865],[12.1128,42.676],[12.1088,42.6697],[12.1054,42.6684],[12.105,42.6661],[12.1067,42.6647]]]}},{"type":"Feature","properties":{"i":"055029","n":"San Gemini"},"geometry":{"type":"Polygon","coordinates":[[[12.5679,42.5755],[12.5576,42.5748],[12.5479,42.5772],[12.5419,42.584],[12.5317,42.5836],[12.5032,42.5914],[12.4876,42.6008],[12.4911,42.6013],[12.505,42.6064],[12.5073,42.6085],[12.5097,42.6131],[12.5156,42.6198],[12.5173,42.6272],[12.517,42.629],[12.5189,42.6322],[12.5287,42.6324],[12.5389,42.6303],[12.5395,42.6353],[12.5432,42.6406],[12.5557,42.6378],[12.5646,42.6318],[12.5658,42.6293],[12.5628,42.6151],[12.5662,42.6051],[12.5693,42.5915],[12.5678,42.586],[12.5665,42.5852],[12.5655,42.5824],[12.5664,42.5768],[12.5679,42.5755]]]}},{"type":"Feature","properties":{"i":"055030","n":"San Venanzo"},"geometry":{"type":"Polygon","coordinates":[[[12.2055,42.9336],[12.2062,42.9309],[12.2049,42.9279],[12.2126,42.924],[12.2257,42.9286],[12.2289,42.9272],[12.2287,42.9259],[12.2332,42.9214],[12.2509,42.9219],[12.2537,42.9185],[12.2585,42.9169],[12.2608,42.9177],[12.2626,42.921],[12.267,42.9249],[12.2718,42.9232],[12.2764,42.9196],[12.2819,42.9209],[12.2879,42.9204],[12.2924,42.9154],[12.2968,42.9148],[12.3176,42.9158],[12.3205,42.9147],[12.3209,42.9135],[12.3181,42.9063],[12.3142,42.9017],[12.3073,42.8976],[12.3042,42.8938],[12.3057,42.889],[12.3086,42.8876],[12.3142,42.8873],[12.32,42.8912],[12.3246,42.8912],[12.3306,42.8896],[12.3279,42.8863],[12.3276,42.8825],[12.3295,42.8779],[12.3294,42.8761],[12.3273,42.8695],[12.3227,42.8629],[12.3231,42.8596],[12.326,42.8564],[12.3273,42.8504],[12.3221,42.8387],[12.3145,42.8344],[12.3116,42.8283],[12.3093,42.8219],[12.3066,42.8087],[12.2999,42.7959],[12.3019,42.7897],[12.3007,42.7815],[12.2908,42.7812],[12.2649,42.7849],[12.2727,42.7921],[12.2689,42.7964],[12.2667,42.7952],[12.261,42.8016],[12.2571,42.8092],[12.2513,42.8131],[12.2383,42.8142],[12.2292,42.8126],[12.2118,42.8001],[12.2108,42.799],[12.2105,42.7959],[12.2071,42.7933],[12.2013,42.794],[12.203,42.7982],[12.2069,42.8012],[12.2097,42.8065],[12.2097,42.8083],[12.1851,42.8123],[12.1734,42.8152],[12.1692,42.8156],[12.1573,42.8143],[12.1512,42.809],[12.14,42.8033],[12.1312,42.8026],[12.132,42.8056],[12.13,42.8129],[12.1299,42.8212],[12.1343,42.8232],[12.1369,42.827],[12.1356,42.8278],[12.1363,42.8333],[12.1383,42.8358],[12.142,42.8372],[12.161,42.8397],[12.1674,42.8445],[12.1777,42.8416],[12.1806,42.8476],[12.184,42.8521],[12.186,42.8533],[12.1874,42.8566],[12.1868,42.8631],[12.1853,42.8678],[12.1797,42.88],[12.1713,42.8836],[12.1649,42.8805],[12.1645,42.8847],[12.1658,42.8965],[12.1771,42.9166],[12.1729,42.9288],[12.1725,42.9335],[12.1874,42.9385],[12.193,42.9382],[12.2021,42.936],[12.2055,42.9336]]]}},{"type":"Feature","properties":{"i":"055031","n":"Stroncone"},"geometry":{"type":"Polygon","coordinates":[[[12.7111,42.5008],[12.7168,42.49],[12.7204,42.4855],[12.7332,42.4779],[12.7416,42.4705],[12.7308,42.4659],[12.7265,42.463],[12.7247,42.4604],[12.715,42.46],[12.7106,42.4635],[12.7028,42.4609],[12.701,42.4573],[12.6985,42.4546],[12.6906,42.4494],[12.6727,42.4421],[12.666,42.441],[12.6558,42.4418],[12.6495,42.4433],[12.6503,42.4473],[12.6456,42.4519],[12.6422,42.4538],[12.6427,42.4645],[12.6411,42.4678],[12.6358,42.469],[12.6214,42.4687],[12.6141,42.4645],[12.619,42.4611],[12.6195,42.4519],[12.6138,42.4378],[12.611,42.428],[12.5962,42.4352],[12.5931,42.4408],[12.5875,42.4473],[12.597,42.4554],[12.5996,42.4654],[12.6031,42.4736],[12.6136,42.4868],[12.6146,42.4908],[12.6074,42.5013],[12.6118,42.5047],[12.613,42.5095],[12.6199,42.5073],[12.6222,42.5082],[12.6303,42.5173],[12.6316,42.521],[12.6387,42.5247],[12.6498,42.5259],[12.6536,42.5254],[12.6706,42.5195],[12.6835,42.5199],[12.691,42.5193],[12.7049,42.51],[12.7063,42.5068],[12.7111,42.5008]]]}},{"type":"Feature","properties":{"i":"055032","n":"Terni"},"geometry":{"type":"Polygon","coordinates":[[[12.7262,42.5989],[12.729,42.5956],[12.7294,42.5932],[12.7318,42.5921],[12.7364,42.5917],[12.7392,42.5849],[12.7409,42.5827],[12.742,42.5773],[12.7442,42.574],[12.7517,42.5639],[12.7612,42.5545],[12.7682,42.5596],[12.7726,42.5607],[12.784,42.5581],[12.7869,42.5519],[12.7836,42.5428],[12.7837,42.5327],[12.7732,42.5313],[12.7706,42.5251],[12.7736,42.5198],[12.7735,42.5131],[12.7652,42.5118],[12.7512,42.5112],[12.7458,42.5079],[12.745,42.5091],[12.7276,42.5091],[12.7208,42.5042],[12.7111,42.5008],[12.7063,42.5068],[12.7049,42.51],[12.691,42.5193],[12.6835,42.5199],[12.6706,42.5195],[12.6536,42.5254],[12.6498,42.5259],[12.6387,42.5247],[12.6316,42.521],[12.6303,42.5173],[12.6265,42.5127],[12.6222,42.5082],[12.6199,42.5073],[12.613,42.5095],[12.6102,42.5117],[12.6086,42.5157],[12.5886,42.5307],[12.5903,42.5369],[12.582,42.557],[12.5627,42.5596],[12.561,42.5623],[12.5598,42.5655],[12.5696,42.5696],[12.5745,42.5729],[12.5686,42.5742],[12.5664,42.5768],[12.5657,42.5834],[12.5678,42.586],[12.5693,42.5915],[12.5662,42.6051],[12.5628,42.6151],[12.5658,42.6293],[12.5646,42.6318],[12.5557,42.6378],[12.5432,42.6406],[12.544,42.6477],[12.5681,42.6424],[12.5845,42.6433],[12.6007,42.6412],[12.6064,42.6412],[12.6238,42.6702],[12.6249,42.6735],[12.6278,42.6732],[12.6319,42.6758],[12.6391,42.6749],[12.64,42.6731],[12.6399,42.6691],[12.6594,42.6606],[12.6689,42.6521],[12.6756,42.6439],[12.6836,42.6437],[12.6903,42.642],[12.698,42.6372],[12.7121,42.6212],[12.7145,42.6169],[12.7194,42.5975],[12.7204,42.5969],[12.7231,42.597],[12.7262,42.5989]]]}},{"type":"Feature","properties":{"i":"055033","n":"Avigliano Umbro"},"geometry":{"type":"Polygon","coordinates":[[[12.4768,42.6997],[12.4753,42.6999],[12.4718,42.6984],[12.4674,42.6845],[12.4724,42.6803],[12.4766,42.6671],[12.4665,42.6598],[12.4507,42.6594],[12.4413,42.6499],[12.4394,42.6455],[12.4394,42.6413],[12.4428,42.6361],[12.4423,42.6267],[12.4406,42.6251],[12.4339,42.6322],[12.4288,42.6339],[12.4265,42.6321],[12.4249,42.6325],[12.4142,42.6431],[12.4098,42.6496],[12.407,42.6565],[12.4065,42.66],[12.4054,42.6614],[12.3947,42.6621],[12.3882,42.6613],[12.3824,42.66],[12.3785,42.6578],[12.3776,42.6563],[12.3786,42.6521],[12.3809,42.6517],[12.3828,42.6495],[12.3857,42.6441],[12.3871,42.6382],[12.3842,42.6383],[12.3791,42.6355],[12.3734,42.6303],[12.3687,42.6281],[12.3468,42.624],[12.3439,42.6308],[12.3358,42.6449],[12.337,42.6485],[12.3423,42.6505],[12.3396,42.6552],[12.3398,42.6616],[12.3488,42.6674],[12.3612,42.6738],[12.3668,42.6733],[12.3841,42.678],[12.3854,42.674],[12.3866,42.6733],[12.3964,42.6767],[12.3993,42.6843],[12.3984,42.6899],[12.3995,42.6954],[12.4016,42.6995],[12.4041,42.7006],[12.4108,42.7014],[12.4147,42.7006],[12.4138,42.6969],[12.4149,42.6857],[12.4156,42.6807],[12.4171,42.6804],[12.4398,42.6943],[12.4501,42.7023],[12.4603,42.705],[12.464,42.7045],[12.4745,42.7081],[12.4765,42.7073],[12.4791,42.7032],[12.4768,42.6997]]]}}]}
