{"type":"FeatureCollection","fonte":"Confini comunali ISTAT via openpolis/geojson-italy — CC BY 4.0","features":[{"type":"Feature","properties":{"i":"032001","n":"Duino Aurisina"},"geometry":{"type":"Polygon","coordinates":[[[13.5963,45.8079],[13.6033,45.8042],[13.6107,45.8028],[13.6233,45.7982],[13.6373,45.7982],[13.6565,45.8001],[13.6705,45.7982],[13.6877,45.7892],[13.7046,45.7771],[13.7212,45.7692],[13.7121,45.7637],[13.7085,45.7597],[13.7071,45.7545],[13.7142,45.7498],[13.7115,45.7457],[13.7062,45.7425],[13.7044,45.7339],[13.7006,45.7325],[13.6986,45.7325],[13.6794,45.7444],[13.6757,45.7459],[13.6738,45.7462],[13.6684,45.7416],[13.6436,45.7563],[13.631,45.7681],[13.6162,45.771],[13.599,45.7728],[13.5833,45.7798],[13.5809,45.7818],[13.5798,45.7871],[13.5771,45.793],[13.5808,45.7965],[13.5838,45.7968],[13.5848,45.7976],[13.5834,45.8011],[13.5963,45.8079]]]}},{"type":"Feature","properties":{"i":"032002","n":"Monrupino"},"geometry":{"type":"Polygon","coordinates":[[[13.8326,45.6896],[13.8254,45.6959],[13.8126,45.7007],[13.8009,45.7046],[13.7971,45.7043],[13.7879,45.7056],[13.7886,45.7083],[13.7747,45.7169],[13.7734,45.7187],[13.7738,45.7196],[13.7893,45.7461],[13.7963,45.7427],[13.7998,45.7397],[13.8039,45.7312],[13.8113,45.7228],[13.8271,45.7143],[13.8337,45.7072],[13.8349,45.7008],[13.8339,45.6967],[13.832,45.6953],[13.831,45.6927],[13.8326,45.6896]]]}},{"type":"Feature","properties":{"i":"032003","n":"Muggia"},"geometry":{"type":"Polygon","coordinates":[[[13.8074,45.6069],[13.8087,45.607],[13.8089,45.6048],[13.8099,45.604],[13.8137,45.6032],[13.8139,45.5947],[13.8153,45.59],[13.8217,45.5817],[13.8105,45.5809],[13.7822,45.5838],[13.746,45.5978],[13.7231,45.5948],[13.7198,45.6005],[13.7195,45.6029],[13.7201,45.6058],[13.7311,45.6088],[13.7395,45.6096],[13.7568,45.6081],[13.7729,45.6045],[13.7794,45.5996],[13.7834,45.5987],[13.7856,45.5989],[13.7939,45.6029],[13.796,45.6041],[13.7974,45.6066],[13.8027,45.609],[13.8045,45.6094],[13.8074,45.6069]]]}},{"type":"Feature","properties":{"i":"032004","n":"San Dorligo della Valle"},"geometry":{"type":"Polygon","coordinates":[[[13.8217,45.5817],[13.8153,45.59],[13.8139,45.5947],[13.8137,45.6032],[13.8099,45.604],[13.8089,45.6048],[13.8087,45.607],[13.8166,45.6078],[13.8316,45.6167],[13.843,45.6326],[13.8448,45.6312],[13.8525,45.6284],[13.8722,45.6285],[13.8857,45.6357],[13.8984,45.6435],[13.9031,45.6426],[13.9189,45.6336],[13.9181,45.6311],[13.9069,45.6251],[13.8815,45.613],[13.8741,45.6104],[13.8683,45.6051],[13.8616,45.5956],[13.8528,45.5915],[13.8494,45.5848],[13.8387,45.5825],[13.8217,45.5817]]]}},{"type":"Feature","properties":{"i":"032005","n":"Sgonico"},"geometry":{"type":"Polygon","coordinates":[[[13.7893,45.7461],[13.7734,45.7187],[13.7747,45.7169],[13.7886,45.7083],[13.7879,45.7056],[13.7792,45.7062],[13.7756,45.7034],[13.7686,45.7002],[13.7418,45.7072],[13.7222,45.7189],[13.7068,45.7271],[13.6986,45.7325],[13.7006,45.7325],[13.7044,45.7339],[13.7062,45.7425],[13.7115,45.7457],[13.7142,45.7498],[13.7071,45.7545],[13.7085,45.7597],[13.7121,45.7637],[13.7212,45.7692],[13.73,45.7666],[13.7371,45.7617],[13.736,45.7616],[13.7359,45.7596],[13.7463,45.7552],[13.7554,45.7555],[13.7655,45.7522],[13.7692,45.7502],[13.7744,45.7488],[13.7836,45.7482],[13.7893,45.7461]]]}},{"type":"Feature","properties":{"i":"032006","n":"Trieste"},"geometry":{"type":"MultiPolygon","coordinates":[[[[13.7582,45.6631],[13.762,45.6562],[13.7569,45.6641],[13.7582,45.6631]]],[[[13.6986,45.7325],[13.7068,45.7271],[13.7222,45.7189],[13.7418,45.7072],[13.7686,45.7002],[13.7756,45.7034],[13.7792,45.7062],[13.7971,45.7043],[13.8009,45.7046],[13.8254,45.6959],[13.8355,45.6861],[13.8449,45.6806],[13.8592,45.6648],[13.8792,45.652],[13.8913,45.6459],[13.8984,45.6435],[13.8857,45.6357],[13.8722,45.6285],[13.8525,45.6284],[13.8448,45.6312],[13.843,45.6326],[13.8322,45.6172],[13.8166,45.6078],[13.8074,45.6069],[13.8047,45.6096],[13.8076,45.6126],[13.797,45.6111],[13.7839,45.613],[13.7762,45.6193],[13.7738,45.6238],[13.7739,45.6298],[13.7782,45.6312],[13.7767,45.6339],[13.7666,45.6369],[13.766,45.6305],[13.7568,45.6279],[13.7549,45.6312],[13.7592,45.6324],[13.7561,45.6363],[13.7473,45.6395],[13.7487,45.644],[13.7547,45.65],[13.76,45.6467],[13.7693,45.653],[13.7649,45.6603],[13.7625,45.6596],[13.7603,45.6634],[13.753,45.6775],[13.754,45.6781],[13.7534,45.6805],[13.7336,45.6961],[13.7223,45.7006],[13.7184,45.7015],[13.712,45.7053],[13.7133,45.7063],[13.7137,45.7079],[13.7121,45.7103],[13.7015,45.7174],[13.677,45.737],[13.6684,45.7416],[13.6738,45.7462],[13.6757,45.7459],[13.6794,45.7444],[13.6986,45.7325]]]]}}]}
