{"type":"FeatureCollection","fonte":"Confini comunali ISTAT via openpolis/geojson-italy — CC BY 4.0","features":[{"type":"Feature","properties":{"i":"026001","n":"Altivole"},"geometry":{"type":"Polygon","coordinates":[[[11.9791,45.7664],[11.9817,45.7587],[11.9929,45.7504],[11.9949,45.7475],[11.9976,45.7399],[11.9984,45.7323],[11.988,45.7309],[11.9736,45.7266],[11.9618,45.7257],[11.9586,45.7269],[11.9581,45.7295],[11.9597,45.7336],[11.9548,45.74],[11.9415,45.7382],[11.9388,45.7417],[11.9263,45.7455],[11.909,45.7462],[11.896,45.7483],[11.8919,45.7557],[11.9005,45.7566],[11.9011,45.7605],[11.9048,45.7647],[11.9146,45.7677],[11.9174,45.7678],[11.9182,45.765],[11.9219,45.7608],[11.9334,45.7575],[11.9394,45.7585],[11.9484,45.7613],[11.9452,45.7705],[11.9661,45.7726],[11.9675,45.7646],[11.9791,45.7664]]]}},{"type":"Feature","properties":{"i":"026002","n":"Arcade"},"geometry":{"type":"Polygon","coordinates":[[[12.2396,45.7948],[12.2413,45.7922],[12.2411,45.7868],[12.2401,45.7866],[12.24,45.7851],[12.2408,45.7769],[12.2443,45.7675],[12.2407,45.7678],[12.2418,45.7647],[12.2326,45.7653],[12.2266,45.7681],[12.2274,45.7699],[12.2188,45.7717],[12.2103,45.7713],[12.2044,45.7775],[12.2025,45.7805],[12.2036,45.7821],[12.2062,45.7817],[12.2058,45.7854],[12.2029,45.7898],[12.2029,45.7913],[12.2061,45.7957],[12.212,45.7958],[12.2202,45.7945],[12.2396,45.7948]]]}},{"type":"Feature","properties":{"i":"026003","n":"Asolo"},"geometry":{"type":"Polygon","coordinates":[[[11.9138,45.8153],[11.9268,45.8188],[11.9295,45.8185],[11.9319,45.817],[11.9325,45.8145],[11.9294,45.8039],[11.9266,45.8019],[11.9259,45.7986],[11.9293,45.7941],[11.9349,45.7918],[11.943,45.7764],[11.9484,45.7613],[11.9394,45.7585],[11.9334,45.7575],[11.9219,45.7608],[11.9182,45.765],[11.9174,45.7678],[11.9146,45.7677],[11.9048,45.7647],[11.9011,45.7605],[11.9005,45.7566],[11.8919,45.7557],[11.8793,45.7563],[11.8792,45.7574],[11.8815,45.7609],[11.8909,45.7696],[11.8937,45.7747],[11.8944,45.7761],[11.8949,45.7879],[11.8961,45.7928],[11.8932,45.7969],[11.8849,45.7968],[11.8763,45.803],[11.8754,45.8189],[11.8783,45.821],[11.8833,45.8224],[11.8935,45.8233],[11.8959,45.8196],[11.9012,45.8163],[11.9094,45.8142],[11.9138,45.8153]]]}},{"type":"Feature","properties":{"i":"026004","n":"Borso del Grappa"},"geometry":{"type":"Polygon","coordinates":[[[11.819,45.8065],[11.8049,45.807],[11.8032,45.7999],[11.7912,45.7997],[11.7828,45.7936],[11.7792,45.7919],[11.7625,45.8048],[11.7528,45.8158],[11.7505,45.8205],[11.7503,45.8233],[11.7537,45.8304],[11.7576,45.8333],[11.759,45.8371],[11.759,45.8394],[11.7574,45.8428],[11.7558,45.8444],[11.7458,45.8479],[11.744,45.8501],[11.7427,45.8549],[11.7462,45.8565],[11.7543,45.8569],[11.7601,45.8577],[11.762,45.8587],[11.7666,45.8693],[11.7702,45.8681],[11.7777,45.8682],[11.7912,45.8712],[11.7992,45.872],[11.8042,45.8565],[11.7953,45.8511],[11.7945,45.8491],[11.7976,45.8451],[11.8062,45.8424],[11.8197,45.8276],[11.8225,45.8203],[11.822,45.8161],[11.819,45.8065]]]}},{"type":"Feature","properties":{"i":"026005","n":"Breda di Piave"},"geometry":{"type":"Polygon","coordinates":[[[12.4179,45.7193],[12.4173,45.7163],[12.4152,45.7155],[12.4111,45.7174],[12.4096,45.7106],[12.4131,45.7103],[12.4161,45.7051],[12.4153,45.7036],[12.4113,45.7008],[12.3852,45.714],[12.3772,45.7162],[12.3739,45.7118],[12.365,45.7064],[12.3574,45.6938],[12.3537,45.6921],[12.3424,45.6968],[12.3404,45.6996],[12.3424,45.7003],[12.3427,45.7026],[12.3387,45.7122],[12.337,45.7138],[12.328,45.7094],[12.3193,45.6981],[12.3114,45.6983],[12.3033,45.7068],[12.3026,45.7102],[12.3056,45.7167],[12.3113,45.7204],[12.3135,45.7238],[12.313,45.7252],[12.3175,45.7296],[12.3215,45.7321],[12.3291,45.7349],[12.348,45.7359],[12.3771,45.7283],[12.3879,45.7365],[12.3956,45.7413],[12.4179,45.7193]]]}},{"type":"Feature","properties":{"i":"026006","n":"Caerano di San Marco"},"geometry":{"type":"Polygon","coordinates":[[[12.0106,45.8071],[12.0122,45.8032],[12.0204,45.7935],[12.0181,45.7839],[12.014,45.7778],[12.0074,45.7737],[11.9976,45.7643],[11.9944,45.7568],[11.9929,45.7504],[11.9817,45.7587],[11.9791,45.7664],[11.9798,45.7787],[11.9789,45.7863],[11.9793,45.7905],[11.9945,45.8029],[12.0015,45.8073],[12.0106,45.8071]]]}},{"type":"Feature","properties":{"i":"026007","n":"Cappella Maggiore"},"geometry":{"type":"Polygon","coordinates":[[[12.3683,45.9886],[12.3717,45.9861],[12.3752,45.9815],[12.3768,45.9768],[12.3751,45.9661],[12.3746,45.9651],[12.3602,45.9587],[12.3562,45.9615],[12.347,45.9629],[12.3404,45.9665],[12.3352,45.9679],[12.3235,45.9757],[12.3209,45.9801],[12.321,45.9851],[12.3263,45.9894],[12.327,45.996],[12.3227,46.0002],[12.327,46.0018],[12.3321,46.0015],[12.3344,46.0003],[12.3407,45.9931],[12.3432,45.9885],[12.3432,45.9858],[12.3471,45.9818],[12.3529,45.9814],[12.3555,45.9822],[12.361,45.9877],[12.3683,45.9886]]]}},{"type":"Feature","properties":{"i":"026008","n":"Carbonera"},"geometry":{"type":"Polygon","coordinates":[[[12.3104,45.7201],[12.3056,45.7167],[12.3026,45.7102],[12.3033,45.7068],[12.3114,45.6983],[12.3193,45.6981],[12.328,45.7094],[12.337,45.7138],[12.3387,45.7122],[12.3427,45.7026],[12.3424,45.7003],[12.3407,45.6992],[12.3378,45.7012],[12.3358,45.7012],[12.33,45.6978],[12.3274,45.6928],[12.3282,45.6899],[12.3325,45.6841],[12.3269,45.676],[12.3253,45.6755],[12.3178,45.6754],[12.3057,45.6723],[12.3025,45.6769],[12.3003,45.677],[12.2969,45.6725],[12.2902,45.6696],[12.286,45.6687],[12.2779,45.6709],[12.2769,45.6748],[12.2789,45.677],[12.2766,45.6818],[12.2747,45.6899],[12.276,45.6993],[12.2858,45.7017],[12.289,45.7081],[12.2874,45.7106],[12.2838,45.736],[12.2841,45.7387],[12.2877,45.7464],[12.2876,45.749],[12.2883,45.7491],[12.2989,45.7295],[12.3016,45.7259],[12.3068,45.724],[12.3104,45.7201]]]}},{"type":"Feature","properties":{"i":"026009","n":"Casale sul Sile"},"geometry":{"type":"Polygon","coordinates":[[[12.3584,45.6064],[12.3599,45.6034],[12.3576,45.6007],[12.3502,45.5972],[12.3493,45.5945],[12.3524,45.5879],[12.3434,45.5744],[12.3368,45.576],[12.3288,45.5797],[12.3288,45.5827],[12.2973,45.5912],[12.2903,45.5963],[12.2862,45.5984],[12.2795,45.5975],[12.2712,45.5909],[12.2676,45.5902],[12.2656,45.6087],[12.2748,45.6106],[12.2759,45.6129],[12.2732,45.6257],[12.2738,45.6279],[12.2877,45.6241],[12.3038,45.6214],[12.3,45.6261],[12.2954,45.6287],[12.3011,45.6363],[12.3053,45.637],[12.3123,45.6359],[12.3212,45.6334],[12.3214,45.6314],[12.3309,45.6254],[12.338,45.6132],[12.3458,45.6066],[12.3488,45.6057],[12.3584,45.6064]]]}},{"type":"Feature","properties":{"i":"026010","n":"Casier"},"geometry":{"type":"Polygon","coordinates":[[[12.3053,45.637],[12.3011,45.6363],[12.2954,45.6287],[12.3,45.6261],[12.3038,45.6214],[12.2877,45.6241],[12.2738,45.6279],[12.2732,45.6257],[12.2759,45.6129],[12.2748,45.6106],[12.2656,45.6087],[12.2601,45.6064],[12.2561,45.6068],[12.2483,45.6118],[12.2396,45.611],[12.2412,45.6244],[12.2453,45.6367],[12.2444,45.6402],[12.2412,45.6434],[12.2414,45.6455],[12.2655,45.64],[12.2721,45.6352],[12.2801,45.64],[12.2816,45.6435],[12.2919,45.648],[12.295,45.6478],[12.3018,45.6454],[12.3022,45.6446],[12.3013,45.6443],[12.3051,45.6408],[12.3074,45.6398],[12.3053,45.637]]]}},{"type":"Feature","properties":{"i":"026011","n":"Castelcucco"},"geometry":{"type":"Polygon","coordinates":[[[11.9063,45.8415],[11.9043,45.8396],[11.9055,45.8359],[11.914,45.8289],[11.917,45.8252],[11.9176,45.8225],[11.9177,45.8178],[11.9138,45.8153],[11.9094,45.8142],[11.9012,45.8163],[11.8959,45.8196],[11.8935,45.8233],[11.8833,45.8224],[11.8783,45.821],[11.8754,45.8189],[11.8726,45.8235],[11.8688,45.8271],[11.8642,45.8294],[11.8636,45.8316],[11.8652,45.8357],[11.8696,45.8402],[11.8808,45.8443],[11.8908,45.8447],[11.9063,45.8415]]]}},{"type":"Feature","properties":{"i":"026012","n":"Castelfranco Veneto"},"geometry":{"type":"Polygon","coordinates":[[[11.9951,45.6639],[11.9744,45.6606],[11.9672,45.6532],[11.9662,45.6513],[11.9654,45.6472],[11.9659,45.6427],[11.9683,45.6404],[11.9647,45.6411],[11.9508,45.6494],[11.9321,45.6485],[11.9275,45.6391],[11.9266,45.6214],[11.9276,45.619],[11.9227,45.6212],[11.918,45.6215],[11.9171,45.6185],[11.9133,45.6192],[11.9116,45.6204],[11.9079,45.6254],[11.9,45.628],[11.898,45.6263],[11.9005,45.6231],[11.9017,45.6176],[11.8981,45.6131],[11.8917,45.6226],[11.8894,45.6318],[11.8936,45.6332],[11.8836,45.6606],[11.8744,45.6658],[11.8681,45.6666],[11.868,45.6687],[11.8848,45.672],[11.8898,45.6772],[11.8914,45.6812],[11.9018,45.6846],[11.9099,45.6902],[11.9058,45.6963],[11.9072,45.6985],[11.9171,45.6986],[11.9228,45.6977],[11.9257,45.6956],[11.9275,45.6912],[11.9298,45.6883],[11.9371,45.6894],[11.9419,45.6972],[11.9432,45.7062],[11.9533,45.7079],[11.9653,45.7021],[11.9824,45.6983],[11.9931,45.6945],[11.9943,45.6888],[11.9924,45.6878],[11.9919,45.685],[11.9967,45.6692],[11.9969,45.6654],[11.9965,45.6644],[11.9951,45.6639]]]}},{"type":"Feature","properties":{"i":"026013","n":"Castello di Godego"},"geometry":{"type":"Polygon","coordinates":[[[11.9079,45.6986],[11.9066,45.6981],[11.9058,45.6963],[11.9099,45.6902],[11.9018,45.6846],[11.8914,45.6812],[11.8898,45.6772],[11.8848,45.672],[11.868,45.6687],[11.8419,45.6833],[11.8393,45.683],[11.8352,45.6994],[11.8357,45.7006],[11.8839,45.708],[11.8956,45.7125],[11.9033,45.7134],[11.9077,45.7084],[11.9085,45.7002],[11.9079,45.6986]]]}},{"type":"Feature","properties":{"i":"026014","n":"Cavaso del Tomba"},"geometry":{"type":"Polygon","coordinates":[[[11.9133,45.8892],[11.9146,45.8871],[11.9223,45.8812],[11.9292,45.8735],[11.9338,45.8642],[11.9329,45.8606],[11.937,45.8581],[11.933,45.8549],[11.9345,45.8499],[11.9344,45.843],[11.9309,45.839],[11.9281,45.8393],[11.9158,45.8434],[11.9091,45.8426],[11.9063,45.8415],[11.8908,45.8447],[11.8947,45.8478],[11.8934,45.8528],[11.8891,45.8569],[11.8747,45.8673],[11.8692,45.8807],[11.8796,45.882],[11.9003,45.8892],[11.9133,45.8892]]]}},{"type":"Feature","properties":{"i":"026015","n":"Cessalto"},"geometry":{"type":"Polygon","coordinates":[[[12.6644,45.739],[12.6717,45.7366],[12.6724,45.7287],[12.6708,45.7168],[12.6756,45.7135],[12.6766,45.7138],[12.6786,45.718],[12.6818,45.7178],[12.6844,45.7157],[12.685,45.713],[12.6772,45.7052],[12.6692,45.7055],[12.6604,45.7089],[12.655,45.708],[12.6452,45.7016],[12.6225,45.6957],[12.6172,45.6958],[12.609,45.6884],[12.6064,45.683],[12.6025,45.6801],[12.5931,45.6891],[12.5814,45.6935],[12.5752,45.6972],[12.5762,45.7047],[12.5661,45.709],[12.5719,45.7133],[12.5852,45.7145],[12.6024,45.7085],[12.6028,45.7118],[12.5972,45.7173],[12.598,45.7225],[12.6004,45.7274],[12.6064,45.7299],[12.6084,45.7357],[12.6426,45.737],[12.6438,45.7249],[12.6558,45.7304],[12.6604,45.7363],[12.659,45.7369],[12.6598,45.7383],[12.6618,45.7394],[12.6644,45.739]]]}},{"type":"Feature","properties":{"i":"026016","n":"Chiarano"},"geometry":{"type":"Polygon","coordinates":[[[12.5915,45.7495],[12.597,45.7484],[12.6108,45.7424],[12.6064,45.7299],[12.6004,45.7274],[12.598,45.7225],[12.5972,45.7173],[12.6028,45.7118],[12.6024,45.7085],[12.5852,45.7145],[12.5719,45.7133],[12.5661,45.709],[12.5591,45.7127],[12.5451,45.7173],[12.5424,45.7199],[12.5414,45.7234],[12.5393,45.7251],[12.5325,45.7246],[12.5282,45.7313],[12.5277,45.739],[12.5283,45.7414],[12.5312,45.7449],[12.5325,45.7432],[12.5355,45.7416],[12.5419,45.7409],[12.5473,45.7451],[12.5455,45.7479],[12.5448,45.7511],[12.5462,45.7551],[12.5503,45.7548],[12.5514,45.7541],[12.5501,45.7467],[12.5542,45.743],[12.5607,45.7416],[12.5662,45.7429],[12.5743,45.7462],[12.5894,45.7476],[12.5915,45.7495]]]}},{"type":"Feature","properties":{"i":"026017","n":"Cimadolmo"},"geometry":{"type":"Polygon","coordinates":[[[12.3478,45.803],[12.3509,45.7976],[12.365,45.7931],[12.3685,45.7894],[12.3694,45.7871],[12.3693,45.7849],[12.3739,45.7784],[12.3811,45.7727],[12.3891,45.7683],[12.3977,45.7596],[12.4004,45.7552],[12.3843,45.7526],[12.3565,45.7592],[12.3231,45.7856],[12.3206,45.7827],[12.3135,45.788],[12.3185,45.8011],[12.3164,45.803],[12.3182,45.8047],[12.3225,45.8036],[12.3454,45.8022],[12.3478,45.803]]]}},{"type":"Feature","properties":{"i":"026018","n":"Cison di Valmarino"},"geometry":{"type":"Polygon","coordinates":[[[12.2001,45.9761],[12.2015,45.9689],[12.1966,45.9678],[12.1881,45.9621],[12.1832,45.956],[12.1906,45.9397],[12.179,45.9394],[12.1682,45.9369],[12.1584,45.9479],[12.1489,45.9504],[12.1375,45.955],[12.1342,45.9761],[12.1342,45.9812],[12.1371,45.9842],[12.1396,45.9894],[12.14,45.9924],[12.1381,45.9958],[12.1394,45.9998],[12.1456,46.0028],[12.1538,46.0013],[12.1636,46.0046],[12.1682,46.0083],[12.1669,46.0136],[12.1776,46.0143],[12.1887,46.0088],[12.191,46.0057],[12.1909,46.0046],[12.1854,45.9996],[12.1869,45.9942],[12.2001,45.9761]]]}},{"type":"Feature","properties":{"i":"026019","n":"Codognè"},"geometry":{"type":"Polygon","coordinates":[[[12.4554,45.8851],[12.4602,45.8838],[12.4633,45.8819],[12.4673,45.875],[12.4726,45.8681],[12.4706,45.8652],[12.4651,45.866],[12.4669,45.8608],[12.4671,45.8547],[12.4652,45.8512],[12.4627,45.8505],[12.452,45.8521],[12.4388,45.8591],[12.437,45.8587],[12.4352,45.8516],[12.4339,45.8502],[12.4301,45.8514],[12.429,45.8528],[12.4218,45.8541],[12.4207,45.8536],[12.4193,45.8511],[12.4026,45.8531],[12.4006,45.857],[12.4012,45.8572],[12.3998,45.8585],[12.3847,45.8579],[12.374,45.8643],[12.3756,45.8666],[12.3755,45.8677],[12.3718,45.87],[12.3749,45.872],[12.3893,45.8744],[12.3965,45.8733],[12.4069,45.8699],[12.41,45.8701],[12.4121,45.8758],[12.4118,45.8768],[12.4091,45.8788],[12.4093,45.8835],[12.4286,45.8929],[12.4554,45.8851]]]}},{"type":"Feature","properties":{"i":"026020","n":"Colle Umberto"},"geometry":{"type":"Polygon","coordinates":[[[12.3602,45.9587],[12.3639,45.9568],[12.3721,45.9559],[12.3763,45.9545],[12.3717,45.9411],[12.3757,45.9308],[12.3754,45.9256],[12.3728,45.9275],[12.361,45.931],[12.3591,45.933],[12.3517,45.9302],[12.3492,45.9275],[12.3293,45.9261],[12.3288,45.9252],[12.3255,45.924],[12.3229,45.9256],[12.3218,45.9324],[12.3234,45.947],[12.3342,45.9534],[12.3328,45.9565],[12.3364,45.9619],[12.3408,45.9638],[12.3404,45.9665],[12.347,45.9629],[12.3562,45.9615],[12.3602,45.9587]]]}},{"type":"Feature","properties":{"i":"026021","n":"Conegliano"},"geometry":{"type":"Polygon","coordinates":[[[12.3229,45.9256],[12.3251,45.9116],[12.3157,45.9059],[12.3235,45.8938],[12.3231,45.8898],[12.3187,45.8847],[12.3162,45.8781],[12.3323,45.8675],[12.333,45.8646],[12.3317,45.8625],[12.327,45.8602],[12.3098,45.8635],[12.3026,45.8666],[12.2899,45.867],[12.2736,45.8651],[12.2569,45.8698],[12.2586,45.8744],[12.2548,45.8823],[12.2491,45.8906],[12.2484,45.8934],[12.2484,45.9032],[12.2493,45.904],[12.254,45.9055],[12.2726,45.9075],[12.2946,45.9001],[12.2958,45.9011],[12.295,45.9063],[12.293,45.9104],[12.284,45.9186],[12.2779,45.9191],[12.277,45.9199],[12.2767,45.9223],[12.2793,45.9242],[12.2794,45.9284],[12.2779,45.9361],[12.2913,45.9432],[12.3009,45.9467],[12.3028,45.9463],[12.3088,45.9423],[12.3189,45.9442],[12.3234,45.947],[12.3218,45.9324],[12.3229,45.9256]]]}},{"type":"Feature","properties":{"i":"026022","n":"Cordignano"},"geometry":{"type":"Polygon","coordinates":[[[12.4557,45.9461],[12.4566,45.9423],[12.4639,45.9368],[12.4669,45.932],[12.479,45.9269],[12.4828,45.9257],[12.4863,45.9258],[12.4738,45.9129],[12.4708,45.9129],[12.4605,45.9168],[12.4445,45.9352],[12.4413,45.9375],[12.4339,45.9396],[12.429,45.9398],[12.4257,45.939],[12.4096,45.9399],[12.4024,45.9351],[12.399,45.9357],[12.3863,45.9345],[12.3757,45.9308],[12.3717,45.9411],[12.3763,45.9545],[12.3721,45.9559],[12.3639,45.9568],[12.3602,45.9587],[12.3746,45.9651],[12.3887,45.9593],[12.392,45.9607],[12.4077,45.9736],[12.4113,45.9795],[12.4087,45.9858],[12.4093,45.9911],[12.4121,46.0013],[12.4149,46.02],[12.4182,46.0148],[12.418,46.0119],[12.4188,46.0086],[12.4268,45.9964],[12.4271,45.9847],[12.4257,45.9667],[12.4227,45.9558],[12.4258,45.9474],[12.434,45.9453],[12.4529,45.9471],[12.4557,45.9461]]]}},{"type":"Feature","properties":{"i":"026023","n":"Cornuda"},"geometry":{"type":"Polygon","coordinates":[[[12.0237,45.841],[12.0289,45.8381],[12.0314,45.835],[12.0326,45.8313],[12.0287,45.83],[12.0222,45.8308],[12.0125,45.83],[12.0101,45.8272],[12.0115,45.819],[12.0174,45.8113],[12.0106,45.8071],[12.0015,45.8073],[11.9961,45.8121],[11.9902,45.8212],[11.9757,45.8348],[11.9695,45.8314],[11.9662,45.8316],[11.965,45.8325],[11.9616,45.8373],[11.9588,45.8462],[11.9675,45.8498],[11.9728,45.8482],[11.9789,45.8444],[11.9912,45.846],[11.9933,45.848],[11.9982,45.8497],[12.0037,45.8468],[12.0071,45.8421],[12.0181,45.8425],[12.0237,45.841]]]}},{"type":"Feature","properties":{"i":"026025","n":"Crocetta del Montello"},"geometry":{"type":"Polygon","coordinates":[[[12.0758,45.8519],[12.0916,45.8456],[12.104,45.8352],[12.1096,45.8361],[12.108,45.823],[12.0945,45.8181],[12.0876,45.8127],[12.0697,45.8108],[12.0538,45.8109],[12.0531,45.8061],[12.0405,45.8064],[12.0383,45.808],[12.0389,45.8126],[12.0333,45.8131],[12.0221,45.8105],[12.0189,45.8106],[12.017,45.8116],[12.0117,45.8185],[12.01,45.8251],[12.0101,45.8272],[12.0125,45.83],[12.0222,45.8308],[12.0287,45.83],[12.0326,45.8313],[12.0314,45.835],[12.0289,45.8381],[12.0237,45.841],[12.0546,45.8517],[12.0758,45.8519]]]}},{"type":"Feature","properties":{"i":"026026","n":"Farra di Soligo"},"geometry":{"type":"Polygon","coordinates":[[[12.1376,45.9297],[12.1451,45.9281],[12.1552,45.9218],[12.1578,45.9195],[12.1568,45.9181],[12.1608,45.9149],[12.1628,45.9144],[12.1654,45.9152],[12.1673,45.9145],[12.1696,45.9107],[12.1532,45.8953],[12.1481,45.8895],[12.1484,45.8858],[12.1456,45.8838],[12.1375,45.8859],[12.1282,45.8869],[12.1154,45.8854],[12.112,45.8848],[12.1084,45.8826],[12.1074,45.8815],[12.1071,45.8785],[12.1014,45.8802],[12.0978,45.8794],[12.098,45.8778],[12.0913,45.8772],[12.0764,45.881],[12.0719,45.8834],[12.069,45.8877],[12.0626,45.8919],[12.0574,45.8924],[12.0547,45.894],[12.0619,45.896],[12.0778,45.905],[12.0848,45.9061],[12.0982,45.9115],[12.102,45.9146],[12.1019,45.9169],[12.1141,45.9233],[12.1222,45.9289],[12.1376,45.9297]]]}},{"type":"Feature","properties":{"i":"026027","n":"Follina"},"geometry":{"type":"Polygon","coordinates":[[[12.1394,45.9998],[12.1381,45.9958],[12.14,45.9924],[12.1396,45.9894],[12.1371,45.9842],[12.1342,45.9812],[12.1342,45.9761],[12.1375,45.955],[12.1489,45.9504],[12.1584,45.9479],[12.1682,45.9369],[12.1684,45.9342],[12.1657,45.9264],[12.1578,45.9195],[12.1451,45.9281],[12.1376,45.9297],[12.1282,45.9419],[12.1111,45.945],[12.106,45.9534],[12.1041,45.9591],[12.1058,45.9619],[12.1041,45.9663],[12.0944,45.9715],[12.0909,45.9756],[12.0925,45.9802],[12.0941,45.982],[12.1033,45.989],[12.1054,45.9926],[12.1032,45.9976],[12.1098,46.0028],[12.1201,46.0036],[12.1394,45.9998]]]}},{"type":"Feature","properties":{"i":"026028","n":"Fontanelle"},"geometry":{"type":"Polygon","coordinates":[[[12.4874,45.8568],[12.4862,45.8533],[12.4899,45.8473],[12.4907,45.8347],[12.4877,45.8218],[12.493,45.8189],[12.4973,45.8179],[12.4987,45.8148],[12.4947,45.8155],[12.4893,45.813],[12.4874,45.8054],[12.4905,45.8031],[12.4899,45.7988],[12.4842,45.7968],[12.4808,45.794],[12.4814,45.7905],[12.4809,45.7896],[12.4705,45.7855],[12.4682,45.7862],[12.4688,45.7888],[12.4682,45.7906],[12.4637,45.7912],[12.4573,45.7876],[12.458,45.7862],[12.4601,45.7851],[12.4607,45.7827],[12.458,45.7824],[12.452,45.7868],[12.448,45.7928],[12.4347,45.8043],[12.4356,45.8056],[12.4183,45.8102],[12.4139,45.8221],[12.4131,45.8257],[12.4137,45.8278],[12.4306,45.835],[12.4357,45.8386],[12.4349,45.8486],[12.4324,45.8497],[12.4193,45.8511],[12.4207,45.8536],[12.4218,45.8541],[12.4277,45.8532],[12.4301,45.8514],[12.4339,45.8502],[12.4352,45.8516],[12.437,45.8587],[12.4388,45.8591],[12.4528,45.8518],[12.461,45.8505],[12.4639,45.8508],[12.4657,45.8518],[12.4674,45.8565],[12.4667,45.8619],[12.4651,45.866],[12.4675,45.8661],[12.4732,45.8645],[12.4874,45.8568]]]}},{"type":"Feature","properties":{"i":"026029","n":"Fonte"},"geometry":{"type":"Polygon","coordinates":[[[11.8793,45.7563],[11.8688,45.7554],[11.8648,45.7636],[11.8633,45.7714],[11.8594,45.7804],[11.8546,45.79],[11.8491,45.7969],[11.8454,45.8057],[11.8459,45.8071],[11.8517,45.8096],[11.866,45.8121],[11.8752,45.8158],[11.8763,45.803],[11.8849,45.7968],[11.8932,45.7969],[11.8957,45.7942],[11.8944,45.7761],[11.8915,45.7703],[11.8815,45.7609],[11.8792,45.7574],[11.8793,45.7563]]]}},{"type":"Feature","properties":{"i":"026030","n":"Fregona"},"geometry":{"type":"Polygon","coordinates":[[[12.4007,46.058],[12.4034,46.0457],[12.4013,46.0426],[12.399,46.0414],[12.4144,46.028],[12.4164,46.0219],[12.4149,46.02],[12.4117,46.0189],[12.3968,46.0224],[12.3834,46.0146],[12.3677,46.0089],[12.3662,46.0044],[12.366,46.0014],[12.3683,45.9886],[12.361,45.9877],[12.3555,45.9822],[12.3529,45.9814],[12.3471,45.9818],[12.3432,45.9858],[12.3432,45.9885],[12.3407,45.9931],[12.3344,46.0003],[12.3321,46.0015],[12.3279,46.0019],[12.3227,46.0002],[12.3197,46.0036],[12.3096,46.0104],[12.3092,46.0147],[12.3097,46.0169],[12.3172,46.0219],[12.3215,46.0261],[12.327,46.0322],[12.327,46.0352],[12.3316,46.0406],[12.3433,46.0508],[12.3502,46.0544],[12.3556,46.0591],[12.3608,46.0665],[12.3619,46.0716],[12.3659,46.0753],[12.3915,46.0713],[12.387,46.0635],[12.399,46.0624],[12.4007,46.058]]]}},{"type":"Feature","properties":{"i":"026031","n":"Gaiarine"},"geometry":{"type":"Polygon","coordinates":[[[12.5232,45.9031],[12.5181,45.8999],[12.5114,45.8985],[12.5083,45.897],[12.5231,45.8861],[12.5273,45.8849],[12.5326,45.8803],[12.5348,45.8748],[12.5355,45.8693],[12.5331,45.8672],[12.5311,45.8631],[12.5319,45.8611],[12.531,45.8564],[12.5254,45.8548],[12.5126,45.856],[12.5038,45.858],[12.49,45.8566],[12.4858,45.8575],[12.4769,45.8627],[12.4706,45.8652],[12.4726,45.8681],[12.4673,45.875],[12.4633,45.8819],[12.4602,45.8838],[12.4554,45.8851],[12.4619,45.8913],[12.4667,45.8915],[12.4717,45.8952],[12.4703,45.8978],[12.4718,45.9004],[12.4785,45.9068],[12.4802,45.9066],[12.4839,45.9084],[12.4841,45.909],[12.4797,45.9114],[12.4738,45.9129],[12.4863,45.9258],[12.5001,45.9254],[12.5052,45.9234],[12.5079,45.9199],[12.5057,45.916],[12.5097,45.9094],[12.5158,45.9041],[12.5185,45.9046],[12.5232,45.9031]]]}},{"type":"Feature","properties":{"i":"026032","n":"Giavera del Montello"},"geometry":{"type":"Polygon","coordinates":[[[12.2029,45.7898],[12.2064,45.7834],[12.2062,45.7817],[12.2036,45.7821],[12.2025,45.7805],[12.2044,45.7775],[12.2103,45.7713],[12.2071,45.7697],[12.19,45.7688],[12.1872,45.7659],[12.1863,45.7621],[12.1806,45.7606],[12.1769,45.7628],[12.1658,45.7751],[12.159,45.7885],[12.1513,45.7955],[12.1495,45.7987],[12.1495,45.8036],[12.1358,45.8052],[12.1364,45.8288],[12.1296,45.8299],[12.1228,45.8338],[12.1229,45.8407],[12.134,45.8471],[12.1371,45.8418],[12.1372,45.8336],[12.1453,45.8335],[12.1498,45.8256],[12.1526,45.8236],[12.1636,45.8186],[12.1682,45.8147],[12.1704,45.808],[12.175,45.8059],[12.1819,45.7999],[12.1856,45.791],[12.1971,45.7894],[12.2029,45.7898]]]}},{"type":"Feature","properties":{"i":"026033","n":"Godega di Sant'Urbano"},"geometry":{"type":"Polygon","coordinates":[[[12.4703,45.8978],[12.4717,45.8952],[12.4667,45.8915],[12.4619,45.8913],[12.4554,45.8851],[12.4286,45.8929],[12.4093,45.8835],[12.4091,45.8788],[12.4034,45.882],[12.3898,45.8929],[12.3894,45.8974],[12.3908,45.901],[12.3817,45.9075],[12.3733,45.9168],[12.3727,45.9196],[12.3745,45.921],[12.3757,45.9308],[12.3863,45.9345],[12.399,45.9357],[12.4024,45.9351],[12.4063,45.9373],[12.4092,45.9352],[12.4164,45.9253],[12.4329,45.9177],[12.4653,45.8973],[12.4703,45.8978]]]}},{"type":"Feature","properties":{"i":"026034","n":"Gorgo al Monticano"},"geometry":{"type":"Polygon","coordinates":[[[12.5974,45.8221],[12.598,45.819],[12.6034,45.8078],[12.6003,45.8049],[12.5915,45.8024],[12.5917,45.8003],[12.5976,45.796],[12.5961,45.7943],[12.5894,45.7917],[12.5865,45.7937],[12.5789,45.7916],[12.5777,45.7876],[12.5836,45.7811],[12.5867,45.7761],[12.5848,45.7745],[12.5839,45.7653],[12.5805,45.7637],[12.5763,45.7656],[12.5728,45.7611],[12.5765,45.7588],[12.5806,45.7577],[12.5843,45.7557],[12.5915,45.7495],[12.5894,45.7476],[12.5743,45.7462],[12.5662,45.7429],[12.5607,45.7416],[12.5542,45.743],[12.5501,45.7467],[12.5514,45.7541],[12.5503,45.7548],[12.5462,45.7551],[12.5439,45.7567],[12.5427,45.7594],[12.5426,45.7642],[12.5507,45.7731],[12.5364,45.7782],[12.5338,45.7849],[12.5341,45.7874],[12.5318,45.7931],[12.5289,45.7969],[12.5302,45.7982],[12.5349,45.7997],[12.5411,45.8041],[12.5517,45.8024],[12.5581,45.8038],[12.563,45.8065],[12.565,45.808],[12.5685,45.8131],[12.5704,45.8225],[12.5729,45.8244],[12.5766,45.8251],[12.5824,45.8233],[12.588,45.8151],[12.5933,45.8151],[12.5953,45.816],[12.5953,45.8174],[12.5922,45.8199],[12.5974,45.8221]]]}},{"type":"Feature","properties":{"i":"026035","n":"Istrana"},"geometry":{"type":"Polygon","coordinates":[[[12.1088,45.709],[12.1114,45.7041],[12.1118,45.6895],[12.1141,45.682],[12.1178,45.6797],[12.1192,45.677],[12.1172,45.6724],[12.1169,45.669],[12.1149,45.6683],[12.0983,45.6509],[12.0909,45.6451],[12.0799,45.6442],[12.0665,45.6375],[12.0603,45.6383],[12.0636,45.6416],[12.0623,45.6436],[12.062,45.6469],[12.0628,45.6643],[12.0719,45.6743],[12.0755,45.6807],[12.0721,45.6833],[12.0717,45.6897],[12.0722,45.6926],[12.0761,45.6941],[12.0757,45.6995],[12.069,45.7168],[12.0687,45.7198],[12.0895,45.7243],[12.0977,45.7163],[12.1088,45.709]]]}},{"type":"Feature","properties":{"i":"026036","n":"Loria"},"geometry":{"type":"Polygon","coordinates":[[[11.8805,45.7076],[11.8357,45.7006],[11.8352,45.6994],[11.841,45.6771],[11.8229,45.6864],[11.818,45.6898],[11.8155,45.6942],[11.8155,45.696],[11.824,45.7066],[11.8141,45.7434],[11.8323,45.7405],[11.8481,45.7438],[11.8579,45.7478],[11.8583,45.7447],[11.8663,45.7438],[11.8713,45.7448],[11.8769,45.7442],[11.8784,45.7353],[11.8772,45.7328],[11.8769,45.7276],[11.8781,45.7148],[11.8805,45.71],[11.8805,45.7076]]]}},{"type":"Feature","properties":{"i":"026037","n":"Mansuè"},"geometry":{"type":"Polygon","coordinates":[[[12.5038,45.858],[12.5016,45.856],[12.5014,45.854],[12.5116,45.848],[12.5182,45.849],[12.5206,45.8504],[12.5319,45.8482],[12.5499,45.8395],[12.5534,45.8363],[12.5546,45.8294],[12.5593,45.8259],[12.5625,45.8263],[12.5645,45.8292],[12.5642,45.8318],[12.5668,45.8309],[12.5688,45.8271],[12.5729,45.8244],[12.5704,45.8225],[12.5685,45.8131],[12.565,45.808],[12.5581,45.8038],[12.5517,45.8024],[12.5411,45.8041],[12.5349,45.7997],[12.5302,45.7982],[12.5289,45.7969],[12.5255,45.8003],[12.5231,45.7998],[12.5181,45.7968],[12.5161,45.7971],[12.5125,45.8022],[12.5151,45.8054],[12.5115,45.81],[12.4987,45.8148],[12.4973,45.8179],[12.493,45.8189],[12.4877,45.8218],[12.4907,45.8347],[12.4899,45.8473],[12.4862,45.8533],[12.4874,45.8568],[12.5038,45.858]]]}},{"type":"Feature","properties":{"i":"026038","n":"Mareno di Piave"},"geometry":{"type":"Polygon","coordinates":[[[12.374,45.8643],[12.3863,45.857],[12.3812,45.8524],[12.3744,45.8489],[12.3726,45.8464],[12.3704,45.8407],[12.3625,45.8328],[12.3454,45.8224],[12.336,45.8208],[12.3202,45.804],[12.3182,45.8047],[12.3164,45.803],[12.3185,45.8011],[12.3134,45.788],[12.3046,45.7981],[12.3076,45.8065],[12.298,45.8156],[12.2975,45.8201],[12.2976,45.8308],[12.2987,45.8337],[12.3009,45.8375],[12.3058,45.837],[12.3117,45.8493],[12.3135,45.8631],[12.327,45.8602],[12.3291,45.8608],[12.3317,45.8625],[12.333,45.8646],[12.3323,45.8675],[12.3263,45.8712],[12.3285,45.872],[12.3365,45.8692],[12.3424,45.8645],[12.3542,45.8597],[12.3668,45.8596],[12.374,45.8643]]]}},{"type":"Feature","properties":{"i":"026039","n":"Maser"},"geometry":{"type":"Polygon","coordinates":[[[12.0015,45.8073],[11.9945,45.8029],[11.9793,45.7905],[11.9789,45.7863],[11.9798,45.7787],[11.9791,45.7664],[11.9731,45.765],[11.9675,45.7646],[11.9661,45.7726],[11.9452,45.7705],[11.9419,45.7788],[11.9349,45.7918],[11.9293,45.7941],[11.9259,45.7986],[11.9266,45.8019],[11.9294,45.8039],[11.9325,45.8145],[11.9319,45.817],[11.9331,45.8181],[11.9369,45.8199],[11.9392,45.8196],[11.9386,45.8183],[11.9409,45.8169],[11.9434,45.8176],[11.9512,45.8215],[11.955,45.8257],[11.965,45.8325],[11.9662,45.8316],[11.9695,45.8314],[11.9757,45.8348],[11.9902,45.8212],[11.9961,45.8121],[12.0015,45.8073]]]}},{"type":"Feature","properties":{"i":"026040","n":"Maserada sul Piave"},"geometry":{"type":"Polygon","coordinates":[[[12.3843,45.7526],[12.3956,45.7413],[12.3879,45.7365],[12.3771,45.7283],[12.348,45.7359],[12.3291,45.7349],[12.3215,45.7321],[12.3175,45.7296],[12.313,45.7252],[12.3135,45.7238],[12.3104,45.7201],[12.3068,45.724],[12.3016,45.7259],[12.2989,45.7295],[12.2883,45.7491],[12.2974,45.7524],[12.2943,45.7559],[12.3,45.7627],[12.3069,45.7675],[12.3231,45.7856],[12.3565,45.7592],[12.3843,45.7526]]]}},{"type":"Feature","properties":{"i":"026041","n":"Meduna di Livenza"},"geometry":{"type":"Polygon","coordinates":[[[12.654,45.8095],[12.6528,45.8064],[12.6497,45.8035],[12.6496,45.8022],[12.6583,45.7968],[12.6617,45.7937],[12.6617,45.7924],[12.6567,45.7913],[12.6484,45.7944],[12.6399,45.7867],[12.6346,45.784],[12.6286,45.7829],[12.6262,45.7865],[12.6272,45.7906],[12.6346,45.792],[12.6312,45.7987],[12.6208,45.7983],[12.6146,45.8001],[12.6109,45.8048],[12.6069,45.8041],[12.5996,45.7978],[12.5969,45.7965],[12.5917,45.8003],[12.5915,45.8024],[12.6003,45.8049],[12.6034,45.8078],[12.598,45.819],[12.5944,45.8308],[12.6057,45.8382],[12.6113,45.8327],[12.624,45.8288],[12.6315,45.8248],[12.6376,45.8181],[12.6415,45.8197],[12.6466,45.8205],[12.6475,45.8198],[12.6507,45.8116],[12.654,45.8095]]]}},{"type":"Feature","properties":{"i":"026042","n":"Miane"},"geometry":{"type":"Polygon","coordinates":[[[12.1376,45.9297],[12.1222,45.9289],[12.1141,45.9233],[12.1019,45.9169],[12.102,45.9146],[12.0982,45.9115],[12.0848,45.9061],[12.0778,45.905],[12.0761,45.9059],[12.0756,45.9082],[12.0769,45.911],[12.0769,45.9139],[12.0663,45.9243],[12.0546,45.9313],[12.0451,45.9456],[12.0391,45.9568],[12.0399,45.9577],[12.0493,45.9612],[12.0508,45.9638],[12.0528,45.9651],[12.0593,45.9621],[12.0713,45.9681],[12.0783,45.9727],[12.077,45.9753],[12.079,45.9768],[12.0941,45.982],[12.092,45.9792],[12.0911,45.9748],[12.0944,45.9715],[12.1041,45.9663],[12.1058,45.9619],[12.1041,45.9591],[12.106,45.9534],[12.1111,45.945],[12.1282,45.9419],[12.1376,45.9297]]]}},{"type":"Feature","properties":{"i":"026043","n":"Mogliano Veneto"},"geometry":{"type":"Polygon","coordinates":[[[12.1913,45.5985],[12.1981,45.5947],[12.2042,45.5925],[12.2174,45.59],[12.2244,45.5873],[12.228,45.5815],[12.2309,45.5789],[12.2373,45.5771],[12.2412,45.5805],[12.2413,45.5836],[12.2397,45.5866],[12.2377,45.5879],[12.2382,45.5916],[12.2535,45.5878],[12.2635,45.5878],[12.2676,45.5902],[12.2712,45.5909],[12.2795,45.5975],[12.2862,45.5984],[12.2903,45.5963],[12.2973,45.5912],[12.3288,45.5827],[12.3288,45.5797],[12.3368,45.576],[12.3434,45.5744],[12.3353,45.5618],[12.3252,45.5669],[12.3213,45.5703],[12.3074,45.5733],[12.2957,45.5747],[12.2925,45.5709],[12.2882,45.5689],[12.2792,45.5668],[12.2751,45.5624],[12.2746,45.5573],[12.2765,45.5555],[12.2804,45.555],[12.2809,45.5529],[12.2802,45.5453],[12.2762,45.545],[12.276,45.5443],[12.2761,45.5413],[12.2787,45.536],[12.2797,45.5358],[12.2773,45.536],[12.251,45.531],[12.2455,45.5308],[12.2432,45.5317],[12.2395,45.5364],[12.2372,45.5378],[12.2302,45.5388],[12.2216,45.5385],[12.2162,45.5374],[12.2077,45.5406],[12.2044,45.5432],[12.2039,45.5485],[12.2066,45.5501],[12.2123,45.5645],[12.21,45.5705],[12.2022,45.5716],[12.1939,45.5741],[12.1914,45.5778],[12.1912,45.5835],[12.1861,45.5851],[12.184,45.585],[12.1817,45.5876],[12.1815,45.5942],[12.1826,45.6047],[12.1839,45.6052],[12.1855,45.6045],[12.1864,45.6007],[12.1913,45.5985]]]}},{"type":"Feature","properties":{"i":"026044","n":"Monastier di Treviso"},"geometry":{"type":"Polygon","coordinates":[[[12.4641,45.6843],[12.4612,45.6784],[12.4644,45.6666],[12.4748,45.6621],[12.4814,45.661],[12.487,45.6571],[12.4881,45.6517],[12.4846,45.6423],[12.4857,45.6396],[12.4815,45.6407],[12.451,45.6391],[12.4473,45.6383],[12.4377,45.6397],[12.4304,45.6448],[12.4182,45.6456],[12.4132,45.6433],[12.4049,45.6425],[12.4021,45.6439],[12.3951,45.6511],[12.3936,45.6542],[12.3934,45.6586],[12.3994,45.6641],[12.4006,45.6666],[12.3989,45.6683],[12.4043,45.6722],[12.4293,45.6717],[12.4345,45.6793],[12.4347,45.6847],[12.442,45.6873],[12.4552,45.6891],[12.4641,45.6843]]]}},{"type":"Feature","properties":{"i":"026045","n":"Monfumo"},"geometry":{"type":"Polygon","coordinates":[[[11.9588,45.8462],[11.9616,45.8373],[11.965,45.8325],[11.955,45.8257],[11.9512,45.8215],[11.9409,45.8169],[11.9386,45.8183],[11.9392,45.8196],[11.9369,45.8199],[11.9319,45.817],[11.9295,45.8185],[11.9268,45.8188],[11.9138,45.8153],[11.9177,45.8178],[11.917,45.8252],[11.914,45.8289],[11.9061,45.8351],[11.9043,45.8392],[11.9063,45.8415],[11.9091,45.8426],[11.9158,45.8434],[11.9281,45.8393],[11.9314,45.8392],[11.9344,45.843],[11.9345,45.8499],[11.933,45.8549],[11.937,45.8581],[11.9372,45.8509],[11.9505,45.8518],[11.9565,45.8498],[11.9588,45.8462]]]}},{"type":"Feature","properties":{"i":"026046","n":"Montebelluna"},"geometry":{"type":"Polygon","coordinates":[[[12.0976,45.7553],[12.0955,45.7544],[12.0888,45.7548],[12.0855,45.7576],[12.0476,45.7417],[12.0433,45.727],[12.0396,45.7271],[12.0359,45.7256],[12.0277,45.7315],[12.0104,45.7333],[11.9984,45.7323],[11.9986,45.7355],[11.997,45.7423],[11.9949,45.7475],[11.9929,45.7504],[11.9944,45.7568],[11.9976,45.7643],[12.0074,45.7737],[12.014,45.7778],[12.0181,45.7839],[12.0204,45.7935],[12.0122,45.8032],[12.0106,45.8071],[12.0174,45.8113],[12.0209,45.8103],[12.0337,45.8132],[12.0389,45.8126],[12.0383,45.808],[12.0405,45.8064],[12.0464,45.8061],[12.0531,45.8061],[12.0538,45.8109],[12.0697,45.8108],[12.0876,45.8127],[12.0875,45.8043],[12.0848,45.7993],[12.0802,45.7949],[12.08,45.7852],[12.0812,45.7853],[12.0839,45.78],[12.0871,45.772],[12.0895,45.7616],[12.0976,45.7553]]]}},{"type":"Feature","properties":{"i":"026047","n":"Morgano"},"geometry":{"type":"Polygon","coordinates":[[[12.1314,45.6599],[12.1287,45.658],[12.1242,45.645],[12.1213,45.64],[12.1199,45.6312],[12.1195,45.6322],[12.1183,45.6325],[12.1139,45.6259],[12.0961,45.6275],[12.0921,45.6266],[12.0864,45.6234],[12.0808,45.6237],[12.0788,45.6254],[12.0777,45.6274],[12.0775,45.6307],[12.0742,45.6417],[12.0824,45.6447],[12.0909,45.6451],[12.0983,45.6509],[12.1149,45.6683],[12.1169,45.669],[12.119,45.6661],[12.1219,45.6643],[12.1275,45.6635],[12.1308,45.6612],[12.1314,45.6599]]]}},{"type":"Feature","properties":{"i":"026048","n":"Moriago della Battaglia"},"geometry":{"type":"Polygon","coordinates":[[[12.1071,45.8785],[12.1143,45.8758],[12.1148,45.8677],[12.1129,45.8549],[12.1176,45.8378],[12.1046,45.8351],[12.0916,45.8456],[12.0758,45.8519],[12.0753,45.855],[12.0682,45.8679],[12.0651,45.8775],[12.0682,45.8827],[12.0719,45.8834],[12.0764,45.881],[12.0888,45.8775],[12.0923,45.8771],[12.098,45.8778],[12.0978,45.8794],[12.1014,45.8802],[12.1071,45.8785]]]}},{"type":"Feature","properties":{"i":"026049","n":"Motta di Livenza"},"geometry":{"type":"Polygon","coordinates":[[[12.6567,45.7913],[12.6558,45.7873],[12.656,45.7781],[12.6626,45.7737],[12.6657,45.7669],[12.662,45.755],[12.6536,45.7517],[12.6466,45.7474],[12.6561,45.7411],[12.6592,45.7414],[12.6625,45.7433],[12.6635,45.7491],[12.6695,45.746],[12.6705,45.744],[12.6644,45.739],[12.6618,45.7394],[12.6598,45.7383],[12.659,45.7369],[12.6604,45.7363],[12.6558,45.7304],[12.6466,45.726],[12.6438,45.7249],[12.6426,45.737],[12.6084,45.7357],[12.6108,45.7424],[12.597,45.7484],[12.5907,45.7497],[12.5843,45.7557],[12.5806,45.7577],[12.5765,45.7588],[12.5728,45.7611],[12.5763,45.7656],[12.5805,45.7637],[12.5839,45.7653],[12.5848,45.7745],[12.5867,45.7761],[12.5836,45.7811],[12.5777,45.7876],[12.5789,45.7916],[12.5865,45.7937],[12.5894,45.7917],[12.5947,45.7936],[12.5975,45.7953],[12.5969,45.7965],[12.5996,45.7978],[12.6069,45.8041],[12.6109,45.8048],[12.6146,45.8001],[12.6208,45.7983],[12.6312,45.7987],[12.6346,45.792],[12.6272,45.7906],[12.6262,45.7865],[12.6286,45.7829],[12.6346,45.784],[12.6399,45.7867],[12.6484,45.7944],[12.6567,45.7913]]]}},{"type":"Feature","properties":{"i":"026050","n":"Nervesa della Battaglia"},"geometry":{"type":"Polygon","coordinates":[[[12.1786,45.851],[12.202,45.8351],[12.2122,45.8255],[12.2333,45.8207],[12.2493,45.8153],[12.2535,45.8153],[12.2796,45.8073],[12.2445,45.7974],[12.2396,45.7948],[12.2202,45.7945],[12.212,45.7958],[12.2061,45.7957],[12.2029,45.7913],[12.2029,45.7898],[12.1971,45.7894],[12.1856,45.791],[12.1819,45.7999],[12.175,45.8059],[12.1704,45.808],[12.1682,45.8147],[12.1636,45.8186],[12.1526,45.8236],[12.1498,45.8256],[12.1453,45.8335],[12.1372,45.8336],[12.1371,45.8418],[12.134,45.8471],[12.1549,45.8537],[12.1672,45.8543],[12.1786,45.851]]]}},{"type":"Feature","properties":{"i":"026051","n":"Oderzo"},"geometry":{"type":"Polygon","coordinates":[[[12.4987,45.8148],[12.5115,45.81],[12.5151,45.8054],[12.5125,45.8022],[12.5161,45.7971],[12.5181,45.7968],[12.5238,45.8],[12.5255,45.8003],[12.5267,45.7997],[12.5318,45.7931],[12.5341,45.7874],[12.5338,45.7849],[12.5364,45.7782],[12.5507,45.7731],[12.5426,45.7642],[12.5427,45.7594],[12.5439,45.7567],[12.5462,45.7551],[12.5448,45.7511],[12.5455,45.7479],[12.5473,45.7451],[12.5419,45.7409],[12.5355,45.7416],[12.5325,45.7432],[12.5312,45.7449],[12.5257,45.746],[12.5136,45.7452],[12.4974,45.7468],[12.4836,45.7435],[12.4805,45.7417],[12.4707,45.7402],[12.4712,45.7458],[12.4571,45.7518],[12.4443,45.7614],[12.4351,45.7601],[12.4456,45.7686],[12.4532,45.7807],[12.452,45.7827],[12.4455,45.7844],[12.4477,45.7902],[12.4491,45.7909],[12.4535,45.7855],[12.4589,45.7823],[12.4607,45.7827],[12.4601,45.7851],[12.458,45.7862],[12.4573,45.7876],[12.4637,45.7912],[12.4682,45.7906],[12.4688,45.7888],[12.4682,45.7862],[12.4705,45.7855],[12.4797,45.789],[12.4813,45.79],[12.4808,45.794],[12.4842,45.7968],[12.4899,45.7988],[12.4905,45.8031],[12.4874,45.8054],[12.4893,45.813],[12.4947,45.8155],[12.4987,45.8148]]]}},{"type":"Feature","properties":{"i":"026052","n":"Ormelle"},"geometry":{"type":"Polygon","coordinates":[[[12.4491,45.7909],[12.4473,45.7897],[12.4455,45.7844],[12.452,45.7827],[12.4532,45.7807],[12.4456,45.7686],[12.4351,45.7601],[12.4332,45.7595],[12.4376,45.7487],[12.4202,45.7451],[12.4135,45.7446],[12.417,45.7371],[12.4164,45.7335],[12.3956,45.7413],[12.3843,45.7526],[12.4,45.7549],[12.3999,45.7568],[12.3989,45.7579],[12.4087,45.7594],[12.4106,45.7615],[12.4107,45.7722],[12.4136,45.7829],[12.4189,45.7882],[12.419,45.8004],[12.4171,45.807],[12.4148,45.809],[12.4155,45.81],[12.4183,45.8102],[12.4356,45.8056],[12.4347,45.8043],[12.448,45.7928],[12.4491,45.7909]]]}},{"type":"Feature","properties":{"i":"026053","n":"Orsago"},"geometry":{"type":"Polygon","coordinates":[[[12.4738,45.9129],[12.4797,45.9114],[12.4841,45.909],[12.4839,45.9084],[12.4802,45.9066],[12.4785,45.9068],[12.4718,45.9004],[12.4703,45.8978],[12.4653,45.8973],[12.4329,45.9177],[12.4164,45.9253],[12.4092,45.9352],[12.4063,45.9373],[12.4096,45.9399],[12.4257,45.939],[12.4329,45.9398],[12.4404,45.9379],[12.4445,45.9352],[12.4605,45.9168],[12.4708,45.9129],[12.4738,45.9129]]]}},{"type":"Feature","properties":{"i":"026055","n":"Paese"},"geometry":{"type":"Polygon","coordinates":[[[12.1473,45.7401],[12.1512,45.7355],[12.1662,45.7259],[12.1688,45.7229],[12.168,45.7203],[12.1659,45.718],[12.1667,45.7145],[12.1685,45.711],[12.1735,45.7072],[12.1889,45.699],[12.1932,45.6952],[12.1942,45.6898],[12.1942,45.6873],[12.1837,45.6771],[12.1836,45.6748],[12.1865,45.6726],[12.1861,45.6718],[12.1824,45.669],[12.1768,45.6697],[12.1725,45.669],[12.1708,45.6667],[12.1635,45.6616],[12.1518,45.6575],[12.1486,45.6575],[12.1396,45.6598],[12.1345,45.662],[12.1313,45.6607],[12.1314,45.6599],[12.1308,45.6612],[12.1275,45.6635],[12.1219,45.6643],[12.119,45.6661],[12.1169,45.669],[12.1172,45.6724],[12.1192,45.677],[12.1178,45.6797],[12.1141,45.682],[12.1118,45.6895],[12.1114,45.7041],[12.1088,45.709],[12.1191,45.7133],[12.1274,45.7154],[12.1315,45.7195],[12.1375,45.7277],[12.1354,45.7336],[12.1307,45.7363],[12.1303,45.7432],[12.1327,45.7437],[12.135,45.7421],[12.1445,45.7417],[12.1473,45.7401]]]}},{"type":"Feature","properties":{"i":"026056","n":"Pederobba"},"geometry":{"type":"Polygon","coordinates":[[[12.0276,45.8589],[12.0348,45.8562],[12.0367,45.8453],[12.0237,45.841],[12.0181,45.8425],[12.0071,45.8421],[12.0037,45.8468],[11.9982,45.8497],[11.9933,45.848],[11.9912,45.846],[11.9789,45.8444],[11.977,45.8461],[11.9697,45.8496],[11.9675,45.8498],[11.9588,45.8462],[11.9565,45.8498],[11.9505,45.8518],[11.9372,45.8509],[11.937,45.8581],[11.9329,45.8606],[11.9338,45.8642],[11.9311,45.8705],[11.9223,45.8812],[11.9146,45.8871],[11.9133,45.8892],[11.9327,45.8936],[11.94,45.893],[11.9492,45.8953],[11.9505,45.8919],[11.961,45.885],[11.9706,45.8804],[11.9791,45.8771],[11.9821,45.877],[11.9899,45.8733],[12.0111,45.8605],[12.013,45.8597],[12.0232,45.8585],[12.0276,45.8589]]]}},{"type":"Feature","properties":{"i":"026057","n":"Pieve di Soligo"},"geometry":{"type":"Polygon","coordinates":[[[12.1906,45.9397],[12.1912,45.9376],[12.1979,45.9288],[12.2004,45.9228],[12.1999,45.9186],[12.1956,45.9068],[12.1969,45.9],[12.1943,45.8979],[12.1961,45.8968],[12.1913,45.8871],[12.1925,45.881],[12.189,45.8733],[12.1828,45.8639],[12.1819,45.8669],[12.184,45.8719],[12.1838,45.8748],[12.1828,45.877],[12.1797,45.8807],[12.1774,45.8804],[12.1746,45.8787],[12.1677,45.8762],[12.1646,45.8767],[12.1484,45.8858],[12.1481,45.8895],[12.1532,45.8953],[12.1697,45.9101],[12.1673,45.9145],[12.1654,45.9152],[12.1617,45.9145],[12.1568,45.9181],[12.1657,45.9264],[12.1684,45.9342],[12.1682,45.9369],[12.179,45.9394],[12.1906,45.9397]]]}},{"type":"Feature","properties":{"i":"026058","n":"Ponte di Piave"},"geometry":{"type":"Polygon","coordinates":[[[12.5312,45.7449],[12.5283,45.7414],[12.5277,45.739],[12.528,45.7321],[12.5325,45.7246],[12.53,45.7206],[12.5341,45.7196],[12.5376,45.7165],[12.535,45.7111],[12.5259,45.7166],[12.5202,45.7174],[12.5177,45.7161],[12.4929,45.727],[12.4887,45.722],[12.4806,45.7202],[12.474,45.723],[12.4711,45.7233],[12.4672,45.7175],[12.4739,45.7121],[12.474,45.7093],[12.4704,45.7064],[12.4679,45.7081],[12.4621,45.7048],[12.458,45.7082],[12.4516,45.7116],[12.4355,45.7136],[12.4201,45.7195],[12.4179,45.7193],[12.3956,45.7413],[12.4164,45.7335],[12.417,45.7371],[12.4135,45.7446],[12.4202,45.7451],[12.4376,45.7487],[12.4332,45.7595],[12.4443,45.7614],[12.4571,45.7518],[12.4712,45.7458],[12.4707,45.7402],[12.4805,45.7417],[12.4836,45.7435],[12.4974,45.7468],[12.5136,45.7452],[12.5257,45.746],[12.5312,45.7449]]]}},{"type":"Feature","properties":{"i":"026059","n":"Ponzano Veneto"},"geometry":{"type":"Polygon","coordinates":[[[12.2093,45.7367],[12.2144,45.7388],[12.2197,45.7381],[12.2295,45.7305],[12.2348,45.7207],[12.2388,45.71],[12.2388,45.7075],[12.238,45.7059],[12.2006,45.7014],[12.1889,45.699],[12.1735,45.7072],[12.1685,45.711],[12.1667,45.7145],[12.1659,45.718],[12.168,45.7203],[12.1688,45.7229],[12.1662,45.7259],[12.1512,45.7355],[12.1473,45.7401],[12.1589,45.7439],[12.174,45.7422],[12.1845,45.7425],[12.1982,45.7375],[12.2095,45.7362],[12.2093,45.7367]]]}},{"type":"Feature","properties":{"i":"026060","n":"Portobuffolè"},"geometry":{"type":"Polygon","coordinates":[[[12.5496,45.8607],[12.5571,45.8472],[12.5573,45.843],[12.5544,45.8401],[12.5529,45.8395],[12.5499,45.8395],[12.5319,45.8482],[12.5206,45.8504],[12.5182,45.849],[12.5116,45.848],[12.5014,45.854],[12.5016,45.856],[12.5038,45.858],[12.5221,45.8548],[12.5254,45.8548],[12.531,45.8564],[12.5319,45.8611],[12.5311,45.8631],[12.5449,45.8626],[12.5496,45.8607]]]}},{"type":"Feature","properties":{"i":"026061","n":"Possagno"},"geometry":{"type":"Polygon","coordinates":[[[11.8692,45.8807],[11.8747,45.8673],[11.8891,45.8569],[11.8934,45.8528],[11.8947,45.8478],[11.8908,45.8447],[11.8808,45.8443],[11.8696,45.8402],[11.8607,45.8455],[11.8568,45.8495],[11.8568,45.8569],[11.8552,45.8613],[11.8496,45.8663],[11.8433,45.8805],[11.8295,45.8839],[11.8279,45.8857],[11.8357,45.8961],[11.8382,45.9015],[11.8455,45.8922],[11.8496,45.8843],[11.8606,45.8836],[11.8692,45.8807]]]}},{"type":"Feature","properties":{"i":"026062","n":"Povegliano"},"geometry":{"type":"Polygon","coordinates":[[[12.2266,45.7681],[12.2247,45.763],[12.2257,45.7611],[12.2294,45.7633],[12.2299,45.7594],[12.2136,45.7553],[12.2109,45.7526],[12.2077,45.7393],[12.2095,45.7362],[12.1982,45.7375],[12.1845,45.7425],[12.174,45.7422],[12.1589,45.7439],[12.1559,45.7462],[12.1524,45.7535],[12.1681,45.7621],[12.1769,45.7628],[12.1806,45.7606],[12.1863,45.7621],[12.1872,45.7659],[12.19,45.7688],[12.2071,45.7697],[12.2103,45.7713],[12.218,45.7719],[12.2274,45.7699],[12.2266,45.7681]]]}},{"type":"Feature","properties":{"i":"026063","n":"Preganziol"},"geometry":{"type":"Polygon","coordinates":[[[12.2656,45.6087],[12.2676,45.5902],[12.2635,45.5878],[12.2535,45.5878],[12.2382,45.5916],[12.2377,45.5879],[12.2397,45.5866],[12.2413,45.5836],[12.2412,45.5805],[12.2373,45.5771],[12.2309,45.5789],[12.228,45.5815],[12.2244,45.5873],[12.2174,45.59],[12.2042,45.5925],[12.1981,45.5947],[12.1913,45.5985],[12.1913,45.614],[12.1951,45.6142],[12.1962,45.6303],[12.1996,45.632],[12.2094,45.627],[12.2132,45.6267],[12.2218,45.6319],[12.2272,45.6319],[12.2329,45.6331],[12.2387,45.6384],[12.2412,45.6434],[12.2444,45.6402],[12.2453,45.6367],[12.2412,45.6244],[12.2396,45.611],[12.2483,45.6118],[12.2567,45.6066],[12.2601,45.6064],[12.2656,45.6087]]]}},{"type":"Feature","properties":{"i":"026064","n":"Quinto di Treviso"},"geometry":{"type":"Polygon","coordinates":[[[12.1824,45.669],[12.1878,45.6683],[12.1905,45.666],[12.1871,45.6605],[12.184,45.6507],[12.1731,45.6399],[12.1703,45.6309],[12.1707,45.6298],[12.1771,45.6266],[12.1808,45.6191],[12.1816,45.6144],[12.1785,45.6145],[12.1739,45.6173],[12.1736,45.6198],[12.172,45.6214],[12.1688,45.6219],[12.1643,45.622],[12.1644,45.6188],[12.1537,45.6171],[12.1466,45.6204],[12.1422,45.6277],[12.1298,45.6312],[12.1199,45.6312],[12.1213,45.64],[12.1242,45.645],[12.1287,45.658],[12.1319,45.6611],[12.1345,45.662],[12.1396,45.6598],[12.1486,45.6575],[12.1518,45.6575],[12.1635,45.6616],[12.1708,45.6667],[12.1725,45.669],[12.1768,45.6697],[12.1824,45.669]]]}},{"type":"Feature","properties":{"i":"026065","n":"Refrontolo"},"geometry":{"type":"Polygon","coordinates":[[[12.2334,45.9401],[12.2307,45.9323],[12.2233,45.9186],[12.2234,45.9081],[12.2244,45.8934],[12.2359,45.8792],[12.2285,45.8795],[12.2191,45.8859],[12.2169,45.8932],[12.2089,45.8987],[12.2066,45.899],[12.1943,45.8979],[12.1969,45.9],[12.1956,45.9068],[12.1999,45.9186],[12.2004,45.9228],[12.1979,45.9288],[12.1912,45.9376],[12.1901,45.9406],[12.2076,45.944],[12.2161,45.9428],[12.2246,45.9391],[12.2334,45.9401]]]}},{"type":"Feature","properties":{"i":"026066","n":"Resana"},"geometry":{"type":"Polygon","coordinates":[[[11.9951,45.6639],[11.9969,45.6568],[12.0035,45.6505],[12.0159,45.6461],[12.0063,45.6408],[12.0041,45.6335],[12.0041,45.6275],[12.0058,45.6245],[12.0053,45.6224],[11.9865,45.6232],[11.966,45.6127],[11.9652,45.6079],[11.952,45.6124],[11.9423,45.6131],[11.9327,45.6155],[11.9276,45.619],[11.9266,45.6214],[11.9275,45.6391],[11.9321,45.6485],[11.9508,45.6494],[11.9647,45.6411],[11.9683,45.6404],[11.9659,45.6427],[11.9654,45.6472],[11.9662,45.6513],[11.9672,45.6532],[11.9744,45.6606],[11.9951,45.6639]]]}},{"type":"Feature","properties":{"i":"026067","n":"Revine Lago"},"geometry":{"type":"Polygon","coordinates":[[[12.2571,45.9868],[12.248,45.9934],[12.246,45.9933],[12.2309,45.9887],[12.2224,45.984],[12.2001,45.9761],[12.1882,45.9918],[12.1854,45.9996],[12.1909,46.0046],[12.2073,46.0092],[12.2167,46.0127],[12.2247,46.0141],[12.2253,46.013],[12.2262,46.0131],[12.2344,46.0184],[12.2385,46.0231],[12.248,46.0281],[12.251,46.0277],[12.2501,46.0264],[12.2505,46.0252],[12.2581,46.0111],[12.2641,46.0021],[12.2716,45.9934],[12.2571,45.9868]]]}},{"type":"Feature","properties":{"i":"026068","n":"Riese Pio X"},"geometry":{"type":"Polygon","coordinates":[[[11.8793,45.7563],[11.8919,45.7557],[11.896,45.7483],[11.909,45.7462],[11.9263,45.7455],[11.9388,45.7417],[11.9415,45.7382],[11.9548,45.74],[11.9597,45.7336],[11.9581,45.7295],[11.9586,45.7269],[11.9542,45.7264],[11.9493,45.7146],[11.95,45.7117],[11.9533,45.7079],[11.9432,45.7062],[11.9419,45.6972],[11.9371,45.6894],[11.9298,45.6883],[11.9275,45.6912],[11.9257,45.6956],[11.9228,45.6977],[11.9171,45.6986],[11.9079,45.6986],[11.9085,45.7002],[11.9077,45.7084],[11.9033,45.7134],[11.8956,45.7125],[11.8886,45.7094],[11.8805,45.7076],[11.8805,45.71],[11.8781,45.7148],[11.8769,45.7276],[11.8772,45.7328],[11.8784,45.7353],[11.8769,45.7442],[11.8713,45.7448],[11.8663,45.7438],[11.8583,45.7447],[11.8578,45.749],[11.86,45.752],[11.8675,45.7555],[11.8793,45.7563]]]}},{"type":"Feature","properties":{"i":"026069","n":"Roncade"},"geometry":{"type":"Polygon","coordinates":[[[12.4006,45.6666],[12.3994,45.6641],[12.3934,45.6586],[12.3936,45.6542],[12.3951,45.6511],[12.4021,45.6439],[12.4063,45.6423],[12.4132,45.6433],[12.4182,45.6456],[12.4304,45.6448],[12.4377,45.6397],[12.4371,45.632],[12.4353,45.6271],[12.4283,45.6275],[12.4254,45.6248],[12.4238,45.6222],[12.424,45.6208],[12.4286,45.6158],[12.4374,45.6092],[12.4427,45.6043],[12.4442,45.6017],[12.4379,45.5919],[12.4438,45.579],[12.4531,45.5718],[12.4437,45.5629],[12.4363,45.5613],[12.4257,45.5617],[12.4183,45.565],[12.3918,45.5692],[12.3876,45.569],[12.3845,45.5715],[12.382,45.5765],[12.3804,45.578],[12.3695,45.5835],[12.3658,45.5833],[12.3556,45.5894],[12.3524,45.5879],[12.3515,45.5888],[12.3494,45.5954],[12.3502,45.5972],[12.3576,45.6007],[12.3599,45.6034],[12.3584,45.6064],[12.3618,45.6078],[12.3589,45.611],[12.3588,45.6124],[12.3613,45.6178],[12.3631,45.618],[12.3648,45.6194],[12.3657,45.6213],[12.3659,45.6276],[12.3597,45.6301],[12.3574,45.6302],[12.3582,45.6337],[12.36,45.6373],[12.3659,45.6388],[12.3661,45.6405],[12.3651,45.6417],[12.3613,45.6425],[12.3576,45.641],[12.3526,45.6369],[12.342,45.6384],[12.3322,45.6581],[12.3387,45.6613],[12.3497,45.6615],[12.3594,45.6632],[12.3668,45.6604],[12.3762,45.6623],[12.3883,45.6694],[12.3958,45.6671],[12.4006,45.6666]]]}},{"type":"Feature","properties":{"i":"026070","n":"Salgareda"},"geometry":{"type":"Polygon","coordinates":[[[12.5325,45.7246],[12.5393,45.7251],[12.5414,45.7234],[12.5424,45.7199],[12.5451,45.7173],[12.5591,45.7127],[12.5661,45.709],[12.5756,45.7054],[12.5765,45.7035],[12.5752,45.6972],[12.5659,45.6906],[12.5596,45.6878],[12.5553,45.6846],[12.5338,45.6792],[12.5217,45.6803],[12.522,45.6831],[12.5204,45.6865],[12.5181,45.6886],[12.5095,45.689],[12.504,45.6876],[12.4899,45.6903],[12.4621,45.7048],[12.4679,45.7081],[12.4704,45.7064],[12.474,45.7093],[12.4739,45.7121],[12.4672,45.7175],[12.4711,45.7233],[12.474,45.723],[12.4806,45.7202],[12.4887,45.722],[12.4929,45.727],[12.5177,45.7161],[12.5202,45.7174],[12.5259,45.7166],[12.535,45.7111],[12.5378,45.716],[12.5341,45.7196],[12.53,45.7206],[12.5325,45.7246]]]}},{"type":"Feature","properties":{"i":"026071","n":"San Biagio di Callalta"},"geometry":{"type":"Polygon","coordinates":[[[12.4179,45.7193],[12.4201,45.7195],[12.4355,45.7136],[12.4516,45.7116],[12.458,45.7082],[12.4621,45.7048],[12.4742,45.6986],[12.4641,45.6843],[12.4579,45.6882],[12.4539,45.6892],[12.442,45.6873],[12.4347,45.6847],[12.4345,45.6793],[12.4293,45.6717],[12.4043,45.6722],[12.3989,45.6683],[12.4006,45.6666],[12.3958,45.6671],[12.3883,45.6694],[12.3762,45.6623],[12.3668,45.6604],[12.3594,45.6632],[12.3497,45.6615],[12.3379,45.6611],[12.3322,45.6581],[12.3354,45.6529],[12.336,45.6496],[12.3333,45.6455],[12.3249,45.6452],[12.3198,45.6464],[12.3164,45.6484],[12.3147,45.6504],[12.3151,45.6518],[12.3233,45.6565],[12.319,45.6622],[12.3141,45.6669],[12.3111,45.6654],[12.309,45.6659],[12.3057,45.6723],[12.3178,45.6754],[12.3269,45.676],[12.3325,45.6841],[12.3274,45.6913],[12.3285,45.6957],[12.33,45.6978],[12.3358,45.7012],[12.3378,45.7012],[12.3399,45.7001],[12.3424,45.6968],[12.3546,45.6922],[12.3574,45.6938],[12.365,45.7064],[12.3739,45.7118],[12.3772,45.7162],[12.3852,45.714],[12.4113,45.7008],[12.4153,45.7036],[12.4161,45.7051],[12.4131,45.7103],[12.4096,45.7106],[12.4111,45.7174],[12.4152,45.7155],[12.4173,45.7163],[12.4179,45.7193]]]}},{"type":"Feature","properties":{"i":"026072","n":"San Fior"},"geometry":{"type":"Polygon","coordinates":[[[12.3754,45.9256],[12.3745,45.921],[12.3727,45.9196],[12.3733,45.9168],[12.3817,45.9075],[12.3908,45.901],[12.3894,45.8974],[12.3898,45.8929],[12.4034,45.882],[12.4118,45.8768],[12.4118,45.8737],[12.41,45.8701],[12.4069,45.8699],[12.393,45.8741],[12.3873,45.8785],[12.3806,45.8797],[12.3774,45.8855],[12.3738,45.8957],[12.3684,45.9014],[12.3616,45.9034],[12.3585,45.8978],[12.3585,45.8961],[12.3542,45.8958],[12.3432,45.8979],[12.3341,45.9018],[12.3251,45.9116],[12.3229,45.9256],[12.3255,45.924],[12.3288,45.9252],[12.3293,45.9261],[12.3492,45.9275],[12.3517,45.9302],[12.3591,45.933],[12.361,45.931],[12.3728,45.9275],[12.3754,45.9256]]]}},{"type":"Feature","properties":{"i":"026073","n":"San Pietro di Feletto"},"geometry":{"type":"Polygon","coordinates":[[[12.2464,45.9377],[12.259,45.9279],[12.2659,45.9199],[12.2749,45.9132],[12.277,45.9146],[12.2779,45.9191],[12.284,45.9186],[12.293,45.9104],[12.295,45.9063],[12.2959,45.9017],[12.2946,45.9001],[12.2726,45.9075],[12.254,45.9055],[12.2493,45.904],[12.2484,45.9032],[12.2484,45.8934],[12.2491,45.8906],[12.2548,45.8823],[12.2586,45.8744],[12.2557,45.8682],[12.2532,45.8677],[12.2477,45.8712],[12.2403,45.8775],[12.2359,45.8792],[12.2244,45.8934],[12.2233,45.9186],[12.2307,45.9323],[12.2334,45.9401],[12.2464,45.9377]]]}},{"type":"Feature","properties":{"i":"026074","n":"San Polo di Piave"},"geometry":{"type":"Polygon","coordinates":[[[12.4176,45.8117],[12.4183,45.8102],[12.4155,45.81],[12.4148,45.809],[12.4171,45.807],[12.419,45.8004],[12.4189,45.7882],[12.4136,45.7829],[12.4107,45.7722],[12.4106,45.7615],[12.4087,45.7594],[12.403,45.7582],[12.3989,45.7579],[12.3891,45.7683],[12.3811,45.7727],[12.3739,45.7784],[12.3693,45.7849],[12.3694,45.7871],[12.3685,45.7894],[12.365,45.7931],[12.3509,45.7976],[12.3478,45.803],[12.3513,45.8016],[12.3585,45.8015],[12.3615,45.8024],[12.3768,45.8147],[12.379,45.8176],[12.4006,45.8188],[12.4032,45.8146],[12.4118,45.8118],[12.4176,45.8117]]]}},{"type":"Feature","properties":{"i":"026075","n":"Santa Lucia di Piave"},"geometry":{"type":"Polygon","coordinates":[[[12.3135,45.8625],[12.3126,45.8596],[12.3117,45.8493],[12.3058,45.837],[12.3009,45.8375],[12.2987,45.8337],[12.2976,45.8308],[12.2975,45.8201],[12.298,45.8156],[12.3076,45.8065],[12.3046,45.7981],[12.3135,45.7879],[12.2821,45.7921],[12.2768,45.8035],[12.2796,45.8073],[12.2775,45.814],[12.2794,45.8192],[12.2786,45.834],[12.2781,45.8356],[12.2703,45.8375],[12.2662,45.8434],[12.2646,45.847],[12.2716,45.8632],[12.2736,45.8651],[12.2922,45.8671],[12.3026,45.8666],[12.3135,45.8625]]]}},{"type":"Feature","properties":{"i":"026076","n":"San Vendemiano"},"geometry":{"type":"Polygon","coordinates":[[[12.393,45.8741],[12.3893,45.8744],[12.373,45.8713],[12.3718,45.87],[12.3755,45.8677],[12.3756,45.8666],[12.374,45.8643],[12.3668,45.8596],[12.3553,45.8595],[12.3479,45.8618],[12.3411,45.8654],[12.3365,45.8692],[12.3285,45.872],[12.3263,45.8712],[12.3162,45.8781],[12.3187,45.8847],[12.323,45.8895],[12.3235,45.8938],[12.3157,45.9059],[12.3251,45.9116],[12.3341,45.9018],[12.3432,45.8979],[12.3542,45.8958],[12.3585,45.8961],[12.3585,45.8978],[12.3616,45.9034],[12.3684,45.9014],[12.3738,45.8957],[12.3801,45.8801],[12.3873,45.8785],[12.393,45.8741]]]}},{"type":"Feature","properties":{"i":"026077","n":"San Zenone degli Ezzelini"},"geometry":{"type":"Polygon","coordinates":[[[11.8688,45.7554],[11.8675,45.7555],[11.86,45.752],[11.8578,45.749],[11.8579,45.7478],[11.8564,45.7466],[11.8371,45.741],[11.8312,45.7405],[11.8312,45.7422],[11.835,45.7477],[11.8303,45.7615],[11.8237,45.7727],[11.8184,45.7872],[11.8045,45.7978],[11.8032,45.7999],[11.8049,45.807],[11.819,45.8065],[11.8231,45.8054],[11.8411,45.8062],[11.8459,45.8071],[11.8454,45.8057],[11.8491,45.7969],[11.8546,45.79],[11.8594,45.7804],[11.8633,45.7714],[11.8648,45.7636],[11.8688,45.7554]]]}},{"type":"Feature","properties":{"i":"026078","n":"Sarmede"},"geometry":{"type":"Polygon","coordinates":[[[12.4149,46.02],[12.4121,46.0013],[12.4093,45.9911],[12.4087,45.9858],[12.4113,45.9795],[12.4077,45.9736],[12.392,45.9607],[12.3887,45.9593],[12.3746,45.9651],[12.377,45.976],[12.3752,45.9815],[12.3717,45.9861],[12.3683,45.9886],[12.366,46.0014],[12.3662,46.0044],[12.3677,46.0089],[12.3834,46.0146],[12.3968,46.0224],[12.4117,46.0189],[12.4149,46.02]]]}},{"type":"Feature","properties":{"i":"026079","n":"Segusino"},"geometry":{"type":"Polygon","coordinates":[[[11.9505,45.8958],[11.9479,45.9048],[11.9459,45.9081],[11.9452,45.916],[11.9513,45.9402],[11.9515,45.9476],[11.9616,45.9547],[11.9846,45.9607],[11.9937,45.9641],[11.9996,45.9677],[12.0028,45.9666],[12.007,45.959],[12.0066,45.9545],[12.0054,45.9532],[12.0018,45.9522],[11.9923,45.9464],[11.9846,45.9405],[11.9783,45.925],[11.9779,45.9204],[11.9826,45.9138],[11.9741,45.9052],[11.9675,45.9044],[11.9649,45.9053],[11.9505,45.8958]]]}},{"type":"Feature","properties":{"i":"026080","n":"Sernaglia della Battaglia"},"geometry":{"type":"Polygon","coordinates":[[[12.1484,45.8858],[12.163,45.8774],[12.1663,45.8762],[12.1726,45.8779],[12.1785,45.8808],[12.1803,45.8801],[12.183,45.8767],[12.1841,45.8725],[12.1819,45.8669],[12.1828,45.8639],[12.1814,45.8608],[12.1814,45.857],[12.1786,45.851],[12.1672,45.8543],[12.1549,45.8537],[12.134,45.8471],[12.1176,45.8378],[12.1129,45.8549],[12.1148,45.8677],[12.1143,45.8758],[12.1071,45.8785],[12.1074,45.8815],[12.112,45.8848],[12.1282,45.8869],[12.1375,45.8859],[12.1451,45.8837],[12.1484,45.8858]]]}},{"type":"Feature","properties":{"i":"026081","n":"Silea"},"geometry":{"type":"Polygon","coordinates":[[[12.3057,45.6723],[12.309,45.6659],[12.3111,45.6654],[12.3141,45.6669],[12.3225,45.658],[12.3233,45.6565],[12.3151,45.6518],[12.3147,45.6504],[12.3164,45.6484],[12.3198,45.6464],[12.3249,45.6452],[12.3333,45.6455],[12.336,45.6496],[12.342,45.6384],[12.3526,45.6369],[12.3576,45.641],[12.3602,45.6421],[12.362,45.6425],[12.3656,45.6415],[12.3665,45.6394],[12.3659,45.6388],[12.36,45.6373],[12.3574,45.6302],[12.365,45.6285],[12.3662,45.6269],[12.3656,45.6207],[12.3631,45.618],[12.3613,45.6178],[12.3588,45.6124],[12.3589,45.611],[12.3618,45.6078],[12.3555,45.6061],[12.3488,45.6057],[12.3458,45.6066],[12.338,45.6132],[12.3309,45.6254],[12.3214,45.6314],[12.3212,45.6334],[12.3123,45.6359],[12.3053,45.637],[12.3074,45.6398],[12.3051,45.6408],[12.3013,45.6443],[12.3022,45.6446],[12.3018,45.6454],[12.295,45.6478],[12.2919,45.648],[12.2839,45.6444],[12.2822,45.6467],[12.2806,45.6511],[12.2818,45.6548],[12.2871,45.6575],[12.2874,45.659],[12.2838,45.6676],[12.2791,45.671],[12.286,45.6687],[12.2902,45.6696],[12.2969,45.6725],[12.3003,45.677],[12.3025,45.6769],[12.3057,45.6723]]]}},{"type":"Feature","properties":{"i":"026082","n":"Spresiano"},"geometry":{"type":"Polygon","coordinates":[[[12.3134,45.788],[12.3206,45.7827],[12.3069,45.7675],[12.3,45.7627],[12.2943,45.7559],[12.2974,45.7524],[12.2898,45.7492],[12.2876,45.749],[12.2752,45.7514],[12.2708,45.7508],[12.2622,45.7465],[12.2573,45.7455],[12.2542,45.7467],[12.2527,45.755],[12.2443,45.7675],[12.2422,45.7727],[12.2408,45.7769],[12.2399,45.7837],[12.2401,45.7866],[12.2411,45.7868],[12.2413,45.7922],[12.2396,45.7948],[12.2445,45.7974],[12.2796,45.8073],[12.2768,45.8035],[12.2821,45.7921],[12.3134,45.788]]]}},{"type":"Feature","properties":{"i":"026083","n":"Susegana"},"geometry":{"type":"Polygon","coordinates":[[[12.2359,45.8792],[12.2403,45.8775],[12.2477,45.8712],[12.2532,45.8677],[12.2557,45.8682],[12.2569,45.8698],[12.2736,45.8651],[12.2716,45.8632],[12.2646,45.847],[12.2662,45.8434],[12.2703,45.8375],[12.2781,45.8356],[12.2794,45.8192],[12.2775,45.814],[12.2796,45.8073],[12.2535,45.8153],[12.2493,45.8153],[12.2333,45.8207],[12.2122,45.8255],[12.202,45.8351],[12.1786,45.851],[12.1814,45.857],[12.1814,45.8608],[12.1828,45.8639],[12.189,45.8733],[12.1925,45.881],[12.1913,45.8871],[12.1961,45.8968],[12.1943,45.8979],[12.2066,45.899],[12.2089,45.8987],[12.2169,45.8932],[12.2191,45.8859],[12.2285,45.8795],[12.2359,45.8792]]]}},{"type":"Feature","properties":{"i":"026084","n":"Tarzo"},"geometry":{"type":"Polygon","coordinates":[[[12.2571,45.9868],[12.2562,45.9851],[12.2566,45.9788],[12.2592,45.9769],[12.259,45.9674],[12.2525,45.9634],[12.253,45.9542],[12.2518,45.9488],[12.2494,45.947],[12.2441,45.9405],[12.2464,45.9377],[12.2334,45.9401],[12.2246,45.9391],[12.2161,45.9428],[12.2076,45.944],[12.1901,45.9406],[12.1832,45.956],[12.1881,45.9621],[12.1966,45.9678],[12.2015,45.9689],[12.2001,45.9761],[12.2224,45.984],[12.2309,45.9887],[12.246,45.9933],[12.248,45.9934],[12.2571,45.9868]]]}},{"type":"Feature","properties":{"i":"026085","n":"Trevignano"},"geometry":{"type":"Polygon","coordinates":[[[12.1327,45.7437],[12.1303,45.7432],[12.1307,45.7363],[12.1354,45.7336],[12.1375,45.7277],[12.1315,45.7195],[12.1274,45.7154],[12.1191,45.7133],[12.1088,45.709],[12.0977,45.7163],[12.0895,45.7243],[12.0687,45.7198],[12.069,45.7168],[12.0549,45.7186],[12.044,45.7212],[12.0433,45.727],[12.0476,45.7417],[12.0855,45.7576],[12.0888,45.7548],[12.0955,45.7544],[12.1043,45.7583],[12.1119,45.7515],[12.1166,45.7539],[12.1207,45.7576],[12.136,45.7477],[12.1327,45.7437]]]}},{"type":"Feature","properties":{"i":"026086","n":"Treviso"},"geometry":{"type":"Polygon","coordinates":[[[12.237,45.7058],[12.2416,45.7037],[12.2404,45.7018],[12.2435,45.6936],[12.2551,45.6865],[12.2589,45.693],[12.2611,45.7023],[12.2754,45.6971],[12.2747,45.6899],[12.2766,45.6818],[12.2789,45.677],[12.2769,45.6748],[12.2779,45.6709],[12.2791,45.671],[12.2838,45.6676],[12.2874,45.659],[12.2871,45.6575],[12.2818,45.6548],[12.2806,45.6511],[12.2822,45.6467],[12.2839,45.6444],[12.2816,45.6435],[12.2801,45.64],[12.2721,45.6352],[12.2655,45.64],[12.2535,45.6422],[12.2511,45.6437],[12.2423,45.6458],[12.2414,45.6455],[12.241,45.6421],[12.2387,45.6384],[12.2329,45.6331],[12.2272,45.6319],[12.2218,45.6319],[12.2132,45.6267],[12.2117,45.6266],[12.2094,45.627],[12.1996,45.632],[12.1967,45.6305],[12.1954,45.6236],[12.1951,45.6142],[12.1816,45.6144],[12.1808,45.6191],[12.1771,45.6266],[12.1707,45.6298],[12.1703,45.6309],[12.1731,45.6399],[12.184,45.6507],[12.1871,45.6605],[12.1905,45.666],[12.1878,45.6683],[12.1824,45.669],[12.1865,45.6726],[12.1836,45.6748],[12.1837,45.6771],[12.1942,45.6873],[12.194,45.6928],[12.1932,45.6952],[12.1889,45.699],[12.2006,45.7014],[12.237,45.7058]]]}},{"type":"Feature","properties":{"i":"026087","n":"Valdobbiadene"},"geometry":{"type":"Polygon","coordinates":[[[12.0493,45.9612],[12.0399,45.9577],[12.0391,45.9568],[12.0406,45.9537],[12.0451,45.9456],[12.0546,45.9313],[12.0663,45.9243],[12.0769,45.9139],[12.0769,45.911],[12.0756,45.9082],[12.0761,45.9059],[12.0778,45.905],[12.06,45.8952],[12.0557,45.894],[12.0507,45.8939],[12.041,45.892],[12.0349,45.8901],[12.0307,45.8821],[12.0339,45.8758],[12.035,45.8756],[12.0349,45.8704],[12.0286,45.8628],[12.0274,45.8585],[12.0195,45.8588],[12.0111,45.8605],[11.9899,45.8733],[11.9821,45.877],[11.9783,45.8774],[11.9647,45.883],[11.9502,45.8924],[11.9492,45.8953],[11.9599,45.9025],[11.9649,45.9053],[11.9675,45.9044],[11.9741,45.9052],[11.9826,45.9138],[11.9779,45.9204],[11.9783,45.925],[11.9846,45.9405],[11.9923,45.9464],[12.0018,45.9522],[12.0054,45.9532],[12.0066,45.9545],[12.0072,45.958],[12.0028,45.9666],[12.0037,45.9681],[12.0111,45.9671],[12.0122,45.9649],[12.0189,45.9621],[12.0217,45.9638],[12.0233,45.9707],[12.0305,45.9736],[12.0327,45.9736],[12.0397,45.9692],[12.0493,45.9612]]]}},{"type":"Feature","properties":{"i":"026088","n":"Vazzola"},"geometry":{"type":"Polygon","coordinates":[[[12.4193,45.8511],[12.4324,45.8497],[12.4349,45.8486],[12.4357,45.8386],[12.4306,45.835],[12.4137,45.8278],[12.4131,45.8257],[12.4139,45.8221],[12.4176,45.8117],[12.4118,45.8118],[12.4032,45.8146],[12.4006,45.8188],[12.379,45.8176],[12.3768,45.8147],[12.3635,45.8039],[12.3591,45.8016],[12.3513,45.8016],[12.3478,45.803],[12.3454,45.8022],[12.3202,45.804],[12.336,45.8208],[12.3454,45.8224],[12.3625,45.8328],[12.3704,45.8407],[12.3726,45.8464],[12.3744,45.8489],[12.3812,45.8524],[12.3863,45.857],[12.3847,45.8579],[12.3998,45.8585],[12.4012,45.8572],[12.4006,45.857],[12.4026,45.8531],[12.4193,45.8511]]]}},{"type":"Feature","properties":{"i":"026089","n":"Vedelago"},"geometry":{"type":"Polygon","coordinates":[[[12.0433,45.727],[12.044,45.7212],[12.0549,45.7186],[12.069,45.7168],[12.0757,45.6995],[12.0761,45.6941],[12.0722,45.6926],[12.0717,45.6897],[12.0721,45.6833],[12.0755,45.6807],[12.0719,45.6743],[12.0628,45.6643],[12.062,45.6469],[12.0623,45.6436],[12.0636,45.6416],[12.0603,45.6383],[12.0499,45.6453],[12.0344,45.6468],[12.0159,45.6461],[12.0035,45.6505],[11.9969,45.6568],[11.9952,45.6618],[11.9951,45.6639],[11.9965,45.6644],[11.9969,45.6654],[11.9967,45.6692],[11.9919,45.685],[11.9924,45.6878],[11.9943,45.6888],[11.9931,45.6945],[11.9824,45.6983],[11.9637,45.7028],[11.9516,45.7092],[11.95,45.7117],[11.9493,45.7146],[11.9542,45.7264],[11.9586,45.7269],[11.9638,45.7256],[11.9736,45.7266],[11.988,45.7309],[11.9984,45.7323],[12.0104,45.7333],[12.0277,45.7315],[12.0359,45.7256],[12.0396,45.7271],[12.0433,45.727]]]}},{"type":"Feature","properties":{"i":"026090","n":"Vidor"},"geometry":{"type":"Polygon","coordinates":[[[12.0547,45.894],[12.0574,45.8924],[12.0626,45.8919],[12.069,45.8877],[12.0719,45.8834],[12.0682,45.8827],[12.0651,45.8775],[12.0682,45.8679],[12.0753,45.855],[12.0758,45.8519],[12.0546,45.8517],[12.0367,45.8453],[12.0348,45.8562],[12.0276,45.8589],[12.0286,45.8628],[12.0349,45.8704],[12.035,45.8756],[12.0339,45.8758],[12.0307,45.8821],[12.0349,45.8901],[12.041,45.892],[12.0547,45.894]]]}},{"type":"Feature","properties":{"i":"026091","n":"Villorba"},"geometry":{"type":"Polygon","coordinates":[[[12.2443,45.7675],[12.2527,45.755],[12.2542,45.7467],[12.2573,45.7455],[12.2622,45.7465],[12.2708,45.7508],[12.2752,45.7514],[12.2876,45.749],[12.2879,45.7478],[12.2841,45.7387],[12.2838,45.736],[12.2874,45.7106],[12.289,45.7081],[12.2858,45.7017],[12.276,45.6993],[12.2754,45.6971],[12.2611,45.7023],[12.2589,45.693],[12.2551,45.6865],[12.2435,45.6936],[12.2404,45.7018],[12.2416,45.7037],[12.237,45.7058],[12.238,45.7059],[12.2388,45.7071],[12.2388,45.71],[12.2348,45.7207],[12.2295,45.7305],[12.2197,45.7381],[12.2144,45.7388],[12.2093,45.7367],[12.2077,45.7393],[12.2109,45.7526],[12.2136,45.7553],[12.2299,45.7594],[12.2294,45.7633],[12.2257,45.7611],[12.2247,45.763],[12.2266,45.7681],[12.2326,45.7653],[12.2418,45.7647],[12.2407,45.7678],[12.2443,45.7675]]]}},{"type":"Feature","properties":{"i":"026092","n":"Vittorio Veneto"},"geometry":{"type":"Polygon","coordinates":[[[12.3619,46.0716],[12.3608,46.0665],[12.3556,46.0591],[12.3502,46.0544],[12.3433,46.0508],[12.3316,46.0406],[12.327,46.0352],[12.327,46.0322],[12.3172,46.0219],[12.3097,46.0169],[12.3092,46.0147],[12.3099,46.0101],[12.3197,46.0036],[12.327,45.996],[12.3263,45.9894],[12.321,45.9851],[12.3209,45.9801],[12.3219,45.9776],[12.3235,45.9757],[12.3352,45.9679],[12.3404,45.9665],[12.3408,45.9638],[12.3364,45.9619],[12.3328,45.9565],[12.3342,45.9534],[12.3189,45.9442],[12.3088,45.9423],[12.3028,45.9463],[12.3009,45.9467],[12.2913,45.9432],[12.2779,45.9361],[12.2794,45.9284],[12.2793,45.9242],[12.2766,45.922],[12.2779,45.9191],[12.277,45.9146],[12.2749,45.9132],[12.2659,45.9199],[12.259,45.9279],[12.2464,45.9377],[12.2441,45.9405],[12.2494,45.947],[12.2518,45.9488],[12.253,45.9542],[12.2525,45.9634],[12.259,45.9674],[12.2592,45.9769],[12.2566,45.9788],[12.2562,45.9851],[12.2571,45.9868],[12.2716,45.9934],[12.2641,46.0021],[12.2581,46.0111],[12.2505,46.0252],[12.2501,46.0264],[12.251,46.0277],[12.2527,46.0273],[12.2545,46.028],[12.253,46.0328],[12.2534,46.0347],[12.2549,46.0365],[12.2702,46.0419],[12.2786,46.0477],[12.2862,46.0584],[12.3028,46.0763],[12.3095,46.0779],[12.3128,46.08],[12.3224,46.0822],[12.3285,46.0821],[12.3485,46.0792],[12.3619,46.0716]]]}},{"type":"Feature","properties":{"i":"026093","n":"Volpago del Montello"},"geometry":{"type":"Polygon","coordinates":[[[12.1769,45.7628],[12.1719,45.7628],[12.1664,45.7615],[12.1524,45.7535],[12.1559,45.7462],[12.1589,45.7439],[12.1473,45.7401],[12.1445,45.7417],[12.135,45.7421],[12.1327,45.7437],[12.136,45.7477],[12.1207,45.7576],[12.1166,45.7539],[12.1119,45.7515],[12.1043,45.7583],[12.0976,45.7554],[12.0895,45.7616],[12.0871,45.772],[12.0839,45.78],[12.0812,45.7853],[12.08,45.7852],[12.0802,45.7949],[12.0848,45.7993],[12.0875,45.8043],[12.0876,45.8127],[12.0945,45.8181],[12.108,45.823],[12.1096,45.8361],[12.1176,45.8378],[12.1229,45.8407],[12.1228,45.8338],[12.1296,45.8299],[12.1364,45.8288],[12.1358,45.8052],[12.1495,45.8036],[12.1495,45.7987],[12.1513,45.7955],[12.159,45.7885],[12.1658,45.7751],[12.1769,45.7628]]]}},{"type":"Feature","properties":{"i":"026094","n":"Zenson di Piave"},"geometry":{"type":"Polygon","coordinates":[[[12.504,45.6876],[12.5054,45.6849],[12.5051,45.6838],[12.4994,45.6797],[12.4953,45.6757],[12.4946,45.674],[12.4974,45.6702],[12.5049,45.6654],[12.4981,45.6652],[12.4871,45.6615],[12.487,45.6571],[12.4814,45.661],[12.4748,45.6621],[12.4644,45.6666],[12.4612,45.6784],[12.4641,45.6843],[12.4742,45.6986],[12.4899,45.6903],[12.504,45.6876]]]}},{"type":"Feature","properties":{"i":"026095","n":"Zero Branco"},"geometry":{"type":"Polygon","coordinates":[[[12.1199,45.6312],[12.1298,45.6312],[12.1422,45.6277],[12.1466,45.6204],[12.1537,45.6171],[12.1644,45.6188],[12.1643,45.622],[12.1688,45.6219],[12.172,45.6214],[12.1736,45.6198],[12.1739,45.6173],[12.1785,45.6145],[12.1913,45.614],[12.1913,45.5985],[12.1864,45.6007],[12.1855,45.6045],[12.1836,45.6052],[12.1825,45.6039],[12.1814,45.5883],[12.184,45.585],[12.1853,45.5849],[12.1844,45.5826],[12.1754,45.5791],[12.1665,45.574],[12.1617,45.5774],[12.1624,45.5814],[12.1612,45.5845],[12.1535,45.5861],[12.1501,45.5849],[12.1452,45.5883],[12.1463,45.5909],[12.1449,45.5952],[12.1297,45.5962],[12.1247,45.5977],[12.1231,45.6],[12.1235,45.6055],[12.1215,45.6097],[12.113,45.614],[12.1084,45.6143],[12.1082,45.6085],[12.1098,45.6038],[12.0991,45.6039],[12.0925,45.5983],[12.0873,45.5997],[12.086,45.6057],[12.0873,45.609],[12.0869,45.6171],[12.083,45.6184],[12.0868,45.6235],[12.0921,45.6266],[12.0961,45.6275],[12.1139,45.6259],[12.1183,45.6325],[12.1195,45.6322],[12.1199,45.6312]]]}},{"type":"Feature","properties":{"i":"026096","n":"Pieve del Grappa"},"geometry":{"type":"Polygon","coordinates":[[[11.8382,45.9015],[11.8357,45.8961],[11.8279,45.8857],[11.8295,45.8839],[11.8433,45.8805],[11.8496,45.8663],[11.8552,45.8613],[11.8568,45.8569],[11.8568,45.8495],[11.8607,45.8455],[11.8696,45.8402],[11.8652,45.8357],[11.8636,45.8316],[11.8642,45.8294],[11.8688,45.8271],[11.8744,45.8214],[11.8754,45.8189],[11.8752,45.8158],[11.866,45.8121],[11.8517,45.8096],[11.8459,45.8071],[11.8411,45.8062],[11.8231,45.8054],[11.819,45.8065],[11.822,45.8161],[11.8225,45.8203],[11.8197,45.8276],[11.8062,45.8424],[11.7976,45.8451],[11.7945,45.8491],[11.7953,45.8511],[11.8042,45.8565],[11.7992,45.872],[11.7996,45.8806],[11.8107,45.8887],[11.8253,45.9081],[11.829,45.9076],[11.8349,45.9025],[11.8382,45.9015]]]}}]}
