{"type":"FeatureCollection","fonte":"Confini comunali ISTAT via openpolis/geojson-italy — CC BY 4.0","features":[{"type":"Feature","properties":{"i":"012001","n":"Agra"},"geometry":{"type":"Polygon","coordinates":[[[8.7642,46.031],[8.7502,46.0303],[8.75,46.0374],[8.7516,46.0402],[8.7659,46.0451],[8.768,46.0469],[8.7781,46.0394],[8.7789,46.035],[8.7777,46.0296],[8.777,46.0279],[8.7642,46.031]]]}},{"type":"Feature","properties":{"i":"012002","n":"Albizzate"},"geometry":{"type":"Polygon","coordinates":[[[8.8142,45.7297],[8.8121,45.7283],[8.8057,45.7178],[8.8042,45.714],[8.8044,45.711],[8.7979,45.716],[8.7863,45.718],[8.786,45.7255],[8.7901,45.7316],[8.7963,45.7329],[8.802,45.7352],[8.8051,45.7387],[8.8056,45.7416],[8.8111,45.7402],[8.8103,45.7385],[8.8102,45.7344],[8.8142,45.7297]]]}},{"type":"Feature","properties":{"i":"012003","n":"Angera"},"geometry":{"type":"Polygon","coordinates":[[[8.6261,45.7937],[8.6261,45.7908],[8.6296,45.7905],[8.6407,45.7786],[8.6456,45.7772],[8.641,45.7713],[8.6409,45.7652],[8.6368,45.7664],[8.6116,45.7811],[8.6081,45.7803],[8.6073,45.7768],[8.6066,45.7761],[8.6035,45.7764],[8.6019,45.7724],[8.6014,45.7623],[8.6028,45.7612],[8.6013,45.7555],[8.5979,45.7561],[8.5927,45.7554],[8.5824,45.7492],[8.5651,45.7664],[8.5563,45.7741],[8.5523,45.7881],[8.5679,45.7884],[8.5736,45.7903],[8.5834,45.7893],[8.5913,45.7872],[8.5957,45.7872],[8.6016,45.7928],[8.6038,45.7887],[8.6107,45.7904],[8.6103,45.792],[8.6261,45.7937]]]}},{"type":"Feature","properties":{"i":"012004","n":"Arcisate"},"geometry":{"type":"Polygon","coordinates":[[[8.8895,45.868],[8.8898,45.8605],[8.8953,45.8456],[8.8835,45.8359],[8.8836,45.8306],[8.8766,45.8296],[8.8702,45.8301],[8.8688,45.829],[8.8685,45.8264],[8.8666,45.8279],[8.8645,45.8365],[8.8645,45.8395],[8.8571,45.8521],[8.8521,45.8635],[8.8406,45.8694],[8.8389,45.8719],[8.8446,45.8841],[8.8508,45.8821],[8.8532,45.8801],[8.8548,45.8777],[8.8549,45.875],[8.8645,45.8643],[8.8715,45.8641],[8.8761,45.8694],[8.8832,45.8718],[8.8872,45.8702],[8.8895,45.868]]]}},{"type":"Feature","properties":{"i":"012005","n":"Arsago Seprio"},"geometry":{"type":"Polygon","coordinates":[[[8.7469,45.7109],[8.7433,45.7101],[8.741,45.7062],[8.7419,45.7034],[8.7443,45.7036],[8.7494,45.6972],[8.752,45.691],[8.7631,45.6852],[8.7554,45.6792],[8.754,45.6758],[8.7479,45.6778],[8.7403,45.6781],[8.7337,45.6774],[8.729,45.6756],[8.7272,45.6773],[8.7241,45.6868],[8.7236,45.6918],[8.7212,45.6969],[8.7102,45.7075],[8.7109,45.7101],[8.7143,45.7138],[8.7245,45.7221],[8.7409,45.7119],[8.7469,45.7109]]]}},{"type":"Feature","properties":{"i":"012006","n":"Azzate"},"geometry":{"type":"Polygon","coordinates":[[[8.7916,45.7988],[8.8031,45.7835],[8.8056,45.7766],[8.8064,45.7713],[8.7999,45.7723],[8.7944,45.7719],[8.7859,45.7665],[8.7776,45.7575],[8.7741,45.7629],[8.7833,45.7708],[8.7835,45.7769],[8.7818,45.7783],[8.7813,45.7799],[8.7837,45.7826],[8.7829,45.785],[8.784,45.7983],[8.7916,45.7988]]]}},{"type":"Feature","properties":{"i":"012007","n":"Azzio"},"geometry":{"type":"Polygon","coordinates":[[[8.7214,45.8894],[8.7186,45.8871],[8.7032,45.8797],[8.6965,45.8816],[8.6987,45.8847],[8.6978,45.8905],[8.695,45.8918],[8.7155,45.8981],[8.7125,45.895],[8.7132,45.8913],[8.7172,45.8897],[8.7214,45.8894]]]}},{"type":"Feature","properties":{"i":"012008","n":"Barasso"},"geometry":{"type":"Polygon","coordinates":[[[8.7663,45.8686],[8.7656,45.8501],[8.7644,45.8434],[8.7591,45.8346],[8.7578,45.8309],[8.7522,45.8297],[8.745,45.8334],[8.7479,45.8341],[8.7507,45.8359],[8.7499,45.8397],[8.7504,45.8472],[8.7536,45.8538],[8.7558,45.8613],[8.7538,45.8698],[8.7663,45.8686]]]}},{"type":"Feature","properties":{"i":"012010","n":"Bedero Valcuvia"},"geometry":{"type":"Polygon","coordinates":[[[8.8064,45.9174],[8.8081,45.9156],[8.8097,45.9107],[8.8086,45.9089],[8.8058,45.909],[8.8014,45.9059],[8.8027,45.8986],[8.793,45.9009],[8.7881,45.9087],[8.7903,45.9087],[8.7905,45.9093],[8.7903,45.9114],[8.7887,45.914],[8.7966,45.9218],[8.8019,45.922],[8.8064,45.9174]]]}},{"type":"Feature","properties":{"i":"012011","n":"Besano"},"geometry":{"type":"Polygon","coordinates":[[[8.9241,45.8991],[8.9222,45.8949],[8.9228,45.8941],[8.914,45.8948],[8.9071,45.8923],[8.9043,45.8901],[8.8935,45.8776],[8.89,45.8726],[8.8847,45.8788],[8.8832,45.8869],[8.8893,45.8945],[8.8973,45.8993],[8.8996,45.8961],[8.9088,45.8945],[8.9127,45.8961],[8.9162,45.8997],[8.9191,45.9012],[8.9216,45.901],[8.9241,45.8991]]]}},{"type":"Feature","properties":{"i":"012012","n":"Besnate"},"geometry":{"type":"Polygon","coordinates":[[[8.7794,45.7123],[8.7779,45.7093],[8.781,45.6981],[8.7789,45.6952],[8.7797,45.6924],[8.7771,45.689],[8.7631,45.6852],[8.752,45.691],[8.7494,45.6972],[8.7443,45.7036],[8.7419,45.7034],[8.741,45.7062],[8.7433,45.7101],[8.7469,45.7109],[8.7556,45.7178],[8.7568,45.7155],[8.7592,45.7147],[8.7794,45.7123]]]}},{"type":"Feature","properties":{"i":"012013","n":"Besozzo"},"geometry":{"type":"Polygon","coordinates":[[[8.6679,45.8678],[8.6708,45.863],[8.6751,45.8583],[8.6845,45.8534],[8.6871,45.8537],[8.692,45.8511],[8.6943,45.8455],[8.6975,45.8447],[8.6819,45.8358],[8.6724,45.8344],[8.6661,45.8372],[8.6647,45.8391],[8.6607,45.8398],[8.6571,45.839],[8.6499,45.8338],[8.6445,45.8381],[8.6378,45.8414],[8.6287,45.8409],[8.6255,45.8398],[8.6123,45.8387],[8.5951,45.8385],[8.5946,45.8448],[8.6201,45.8448],[8.6376,45.8468],[8.6419,45.8523],[8.6396,45.8591],[8.6359,45.8628],[8.638,45.8671],[8.6437,45.8673],[8.6528,45.8657],[8.6638,45.8684],[8.6679,45.8678]]]}},{"type":"Feature","properties":{"i":"012014","n":"Biandronno"},"geometry":{"type":"Polygon","coordinates":[[[8.7391,45.8156],[8.7407,45.8119],[8.7147,45.7979],[8.7127,45.7948],[8.7006,45.7961],[8.701,45.798],[8.6993,45.8031],[8.696,45.81],[8.6924,45.8143],[8.7046,45.8292],[8.7169,45.8343],[8.7391,45.8156]]]}},{"type":"Feature","properties":{"i":"012015","n":"Bisuschio"},"geometry":{"type":"Polygon","coordinates":[[[8.8832,45.8869],[8.8847,45.8788],[8.89,45.8726],[8.8895,45.868],[8.8872,45.8702],[8.8832,45.8718],[8.8761,45.8694],[8.8726,45.8647],[8.8692,45.8638],[8.8639,45.8647],[8.8549,45.875],[8.8548,45.8777],[8.8539,45.8793],[8.8508,45.8821],[8.8471,45.8829],[8.8476,45.8864],[8.852,45.8956],[8.855,45.8963],[8.8671,45.8923],[8.876,45.8881],[8.8832,45.8869]]]}},{"type":"Feature","properties":{"i":"012016","n":"Bodio Lomnago"},"geometry":{"type":"Polygon","coordinates":[[[8.7615,45.7834],[8.7614,45.7799],[8.7586,45.7774],[8.7562,45.7765],[8.7465,45.7754],[8.7445,45.7759],[8.7414,45.7788],[8.7437,45.7865],[8.7435,45.7886],[8.7405,45.7899],[8.7471,45.8008],[8.7522,45.8053],[8.7623,45.8019],[8.7584,45.7935],[8.7602,45.7913],[8.7615,45.7834]]]}},{"type":"Feature","properties":{"i":"012017","n":"Brebbia"},"geometry":{"type":"Polygon","coordinates":[[[8.6711,45.8351],[8.6665,45.8284],[8.659,45.8223],[8.6586,45.8208],[8.6403,45.8155],[8.6355,45.8277],[8.6352,45.8305],[8.6319,45.8333],[8.5952,45.8336],[8.5951,45.8385],[8.6123,45.8387],[8.6255,45.8398],[8.6287,45.8409],[8.6378,45.8414],[8.6445,45.8381],[8.6499,45.8338],[8.6571,45.839],[8.6607,45.8398],[8.6647,45.8391],[8.6661,45.8372],[8.6711,45.8351]]]}},{"type":"Feature","properties":{"i":"012019","n":"Brenta"},"geometry":{"type":"Polygon","coordinates":[[[8.6893,45.9225],[8.6895,45.9151],[8.701,45.8932],[8.695,45.8918],[8.6812,45.8908],[8.6806,45.9019],[8.6794,45.9097],[8.6773,45.9171],[8.6752,45.9206],[8.677,45.9241],[8.6893,45.9225]]]}},{"type":"Feature","properties":{"i":"012020","n":"Brezzo di Bedero"},"geometry":{"type":"Polygon","coordinates":[[[8.7476,45.9691],[8.7463,45.9696],[8.7381,45.9686],[8.7329,45.9655],[8.7318,45.9647],[8.731,45.9593],[8.7271,45.9553],[8.7253,45.9585],[8.7271,45.9602],[8.7285,45.9632],[8.7273,45.9642],[8.7228,45.9663],[8.7163,45.9653],[8.7043,45.9693],[8.7022,45.9709],[8.7012,45.9733],[8.6823,45.9869],[8.7007,45.9999],[8.7145,45.9879],[8.7245,45.9849],[8.732,45.9842],[8.7436,45.9771],[8.7471,45.9728],[8.7476,45.9691]]]}},{"type":"Feature","properties":{"i":"012021","n":"Brinzio"},"geometry":{"type":"Polygon","coordinates":[[[8.8172,45.8881],[8.8113,45.8826],[8.8038,45.8839],[8.7972,45.8812],[8.7927,45.8781],[8.7924,45.8771],[8.7938,45.876],[8.7839,45.8712],[8.7767,45.8734],[8.78,45.8769],[8.7791,45.8861],[8.7785,45.8897],[8.7765,45.8929],[8.7728,45.8952],[8.7867,45.9006],[8.793,45.9009],[8.8027,45.8986],[8.8086,45.8951],[8.8172,45.8881]]]}},{"type":"Feature","properties":{"i":"012022","n":"Brissago-Valtravaglia"},"geometry":{"type":"Polygon","coordinates":[[[8.7476,45.9691],[8.748,45.9684],[8.7539,45.968],[8.7573,45.9625],[8.7492,45.9577],[8.7494,45.9535],[8.7506,45.9519],[8.7514,45.948],[8.7506,45.9461],[8.7494,45.945],[8.744,45.9439],[8.7353,45.9404],[8.7342,45.9392],[8.7314,45.9299],[8.7263,45.9308],[8.7274,45.9348],[8.72,45.9446],[8.7195,45.9484],[8.7259,45.95],[8.7304,45.9521],[8.7288,45.9568],[8.731,45.9593],[8.7318,45.9647],[8.7329,45.9655],[8.7381,45.9686],[8.7463,45.9696],[8.7476,45.9691]]]}},{"type":"Feature","properties":{"i":"012023","n":"Brunello"},"geometry":{"type":"Polygon","coordinates":[[[8.8063,45.771],[8.8107,45.7705],[8.8127,45.7667],[8.8124,45.7648],[8.8029,45.7663],[8.7976,45.7596],[8.7947,45.7595],[8.7925,45.7605],[8.7859,45.7665],[8.7944,45.7719],[8.7999,45.7723],[8.8063,45.771]]]}},{"type":"Feature","properties":{"i":"012024","n":"Brusimpiano"},"geometry":{"type":"Polygon","coordinates":[[[8.8983,45.9253],[8.8925,45.9211],[8.8909,45.921],[8.8896,45.9217],[8.8843,45.9288],[8.878,45.9351],[8.8723,45.9324],[8.8621,45.9296],[8.8619,45.9341],[8.8682,45.9385],[8.8746,45.9412],[8.8708,45.9457],[8.8728,45.9479],[8.883,45.9531],[8.8829,45.9566],[8.8943,45.9585],[8.8965,45.9547],[8.8987,45.9452],[8.8927,45.9351],[8.8926,45.9328],[8.894,45.93],[8.8983,45.9253]]]}},{"type":"Feature","properties":{"i":"012025","n":"Buguggiate"},"geometry":{"type":"Polygon","coordinates":[[[8.8205,45.785],[8.8176,45.7828],[8.8157,45.7769],[8.8132,45.7729],[8.8107,45.7705],[8.8063,45.771],[8.8064,45.7734],[8.8031,45.7835],[8.7916,45.7988],[8.7964,45.7977],[8.8069,45.7904],[8.818,45.7851],[8.8205,45.785]]]}},{"type":"Feature","properties":{"i":"012026","n":"Busto Arsizio"},"geometry":{"type":"Polygon","coordinates":[[[8.8516,45.6422],[8.8541,45.6382],[8.8586,45.6338],[8.8589,45.6261],[8.8671,45.6224],[8.8685,45.6198],[8.8795,45.6167],[8.8801,45.6124],[8.8738,45.6033],[8.8641,45.5949],[8.8678,45.592],[8.8718,45.5865],[8.8736,45.5814],[8.8723,45.5783],[8.866,45.5759],[8.843,45.5713],[8.837,45.5685],[8.8347,45.5779],[8.8283,45.5824],[8.8199,45.5832],[8.8119,45.5908],[8.8111,45.5939],[8.8056,45.6035],[8.8049,45.6076],[8.8057,45.6125],[8.8128,45.6205],[8.8184,45.6281],[8.8199,45.6309],[8.8192,45.6313],[8.8252,45.6385],[8.8298,45.6406],[8.8322,45.6408],[8.8349,45.6394],[8.8399,45.6403],[8.8457,45.6427],[8.8516,45.6422]]]}},{"type":"Feature","properties":{"i":"012027","n":"Cadegliano-Viconago"},"geometry":{"type":"Polygon","coordinates":[[[8.8477,45.9751],[8.8457,45.9743],[8.8449,45.971],[8.8462,45.9677],[8.8512,45.9603],[8.8543,45.9514],[8.8604,45.9432],[8.8547,45.9403],[8.8422,45.9513],[8.8028,45.9676],[8.8068,45.9678],[8.8101,45.97],[8.8104,45.9773],[8.8094,45.9814],[8.8182,45.9826],[8.8211,45.9875],[8.8313,45.988],[8.8397,45.9834],[8.8477,45.9751]]]}},{"type":"Feature","properties":{"i":"012029","n":"Cairate"},"geometry":{"type":"Polygon","coordinates":[[[8.8686,45.7039],[8.875,45.698],[8.877,45.6937],[8.8826,45.6913],[8.8883,45.6899],[8.8915,45.6911],[8.8963,45.6802],[8.8884,45.6781],[8.8816,45.6796],[8.8684,45.6806],[8.856,45.6799],[8.8509,45.6776],[8.8459,45.6705],[8.8467,45.6669],[8.8434,45.668],[8.834,45.6848],[8.8326,45.6985],[8.8334,45.7053],[8.8379,45.7026],[8.8436,45.7019],[8.8537,45.707],[8.856,45.7057],[8.8553,45.704],[8.8587,45.7027],[8.8686,45.7039]]]}},{"type":"Feature","properties":{"i":"012030","n":"Cantello"},"geometry":{"type":"Polygon","coordinates":[[[8.8953,45.8456],[8.9042,45.8419],[8.9154,45.8435],[8.9124,45.8303],[8.9095,45.8296],[8.9082,45.8186],[8.907,45.8154],[8.897,45.8129],[8.8901,45.81],[8.885,45.8093],[8.8846,45.8104],[8.8798,45.8118],[8.8678,45.8144],[8.8688,45.829],[8.8709,45.8303],[8.8766,45.8296],[8.8836,45.8306],[8.8835,45.8359],[8.8953,45.8456]]]}},{"type":"Feature","properties":{"i":"012031","n":"Caravate"},"geometry":{"type":"Polygon","coordinates":[[[8.6681,45.8889],[8.6692,45.8873],[8.6699,45.8787],[8.6678,45.8733],[8.6646,45.8716],[8.6638,45.8684],[8.6528,45.8657],[8.6437,45.8673],[8.638,45.8671],[8.6387,45.8743],[8.6415,45.8796],[8.6414,45.8813],[8.6392,45.8849],[8.6439,45.8869],[8.6498,45.8867],[8.6599,45.8886],[8.6681,45.8889]]]}},{"type":"Feature","properties":{"i":"012032","n":"Cardano al Campo"},"geometry":{"type":"Polygon","coordinates":[[[8.7873,45.6396],[8.7832,45.6363],[8.7667,45.6342],[8.7459,45.6351],[8.7306,45.6337],[8.7235,45.6448],[8.7413,45.6503],[8.7489,45.6557],[8.7554,45.6571],[8.7641,45.6603],[8.7753,45.6558],[8.7801,45.6516],[8.7817,45.643],[8.7839,45.6407],[8.7873,45.6396]]]}},{"type":"Feature","properties":{"i":"012033","n":"Carnago"},"geometry":{"type":"Polygon","coordinates":[[[8.8532,45.731],[8.853,45.7158],[8.8512,45.7058],[8.8501,45.7047],[8.8436,45.7019],[8.8397,45.7021],[8.8334,45.7053],[8.829,45.7059],[8.8238,45.709],[8.8265,45.7131],[8.827,45.7154],[8.8244,45.726],[8.8234,45.7276],[8.8201,45.7293],[8.8345,45.7286],[8.8453,45.7308],[8.8464,45.7317],[8.8466,45.7332],[8.8448,45.7349],[8.8532,45.731]]]}},{"type":"Feature","properties":{"i":"012034","n":"Caronno Pertusella"},"geometry":{"type":"Polygon","coordinates":[[[9.0581,45.6095],[9.0613,45.6077],[9.0604,45.6002],[9.0652,45.5973],[9.066,45.5958],[9.063,45.5804],[9.0577,45.5813],[9.0508,45.5806],[9.0495,45.5775],[9.0373,45.5824],[9.0257,45.5885],[9.028,45.5927],[9.0277,45.6005],[9.0267,45.6044],[9.0315,45.6094],[9.0451,45.6112],[9.0493,45.6106],[9.0519,45.6089],[9.0576,45.6088],[9.0581,45.6095]]]}},{"type":"Feature","properties":{"i":"012035","n":"Caronno Varesino"},"geometry":{"type":"Polygon","coordinates":[[[8.8472,45.7503],[8.8443,45.7471],[8.8441,45.738],[8.8448,45.7349],[8.8466,45.7332],[8.8464,45.7317],[8.8453,45.7308],[8.8345,45.7286],[8.8142,45.7297],[8.8102,45.7344],[8.8103,45.7385],[8.8111,45.7402],[8.8144,45.7403],[8.8215,45.7444],[8.8244,45.7514],[8.8325,45.7535],[8.8458,45.752],[8.8472,45.7503]]]}},{"type":"Feature","properties":{"i":"012036","n":"Casale Litta"},"geometry":{"type":"Polygon","coordinates":[[[8.742,45.778],[8.7445,45.7759],[8.7476,45.7716],[8.7546,45.7677],[8.7568,45.7644],[8.752,45.7614],[8.7402,45.7493],[8.737,45.7441],[8.7353,45.7375],[8.7318,45.7383],[8.7186,45.7489],[8.7135,45.7617],[8.7152,45.7706],[8.7109,45.7761],[8.7112,45.7805],[8.7121,45.7841],[8.7223,45.7836],[8.7349,45.7805],[8.7381,45.7782],[8.742,45.778]]]}},{"type":"Feature","properties":{"i":"012037","n":"Casalzuigno"},"geometry":{"type":"Polygon","coordinates":[[[8.7214,45.9223],[8.7258,45.9194],[8.7212,45.9132],[8.7197,45.9034],[8.7174,45.8992],[8.701,45.8932],[8.6895,45.9151],[8.6893,45.9225],[8.6939,45.9221],[8.6994,45.9232],[8.7085,45.9281],[8.715,45.9306],[8.7225,45.9288],[8.7214,45.9223]]]}},{"type":"Feature","properties":{"i":"012038","n":"Casciago"},"geometry":{"type":"Polygon","coordinates":[[[8.755,45.8211],[8.7529,45.8248],[8.7501,45.8269],[8.7512,45.8292],[8.7578,45.8309],[8.7697,45.8297],[8.7764,45.8336],[8.7749,45.8361],[8.7751,45.8457],[8.7791,45.8451],[8.789,45.8352],[8.7887,45.8289],[8.7861,45.8224],[8.7838,45.8205],[8.7689,45.8202],[8.762,45.8225],[8.755,45.8211]]]}},{"type":"Feature","properties":{"i":"012039","n":"Casorate Sempione"},"geometry":{"type":"Polygon","coordinates":[[[8.754,45.6758],[8.759,45.6715],[8.7642,45.6639],[8.7648,45.6624],[8.7641,45.6603],[8.7554,45.6571],[8.7489,45.6557],[8.7413,45.6503],[8.729,45.6467],[8.7251,45.665],[8.7296,45.67],[8.729,45.6756],[8.7337,45.6774],[8.7403,45.6781],[8.7479,45.6778],[8.754,45.6758]]]}},{"type":"Feature","properties":{"i":"012040","n":"Cassano Magnago"},"geometry":{"type":"Polygon","coordinates":[[[8.8467,45.6669],[8.846,45.6637],[8.848,45.6572],[8.8488,45.6471],[8.8457,45.6427],[8.8399,45.6403],[8.8349,45.6394],[8.8322,45.6408],[8.8258,45.6486],[8.8081,45.6751],[8.8066,45.6846],[8.8142,45.6887],[8.8192,45.6887],[8.8206,45.6897],[8.8258,45.6943],[8.8281,45.6987],[8.829,45.7059],[8.8334,45.7053],[8.8326,45.6985],[8.8343,45.6838],[8.8434,45.668],[8.8467,45.6669]]]}},{"type":"Feature","properties":{"i":"012041","n":"Cassano Valcuvia"},"geometry":{"type":"Polygon","coordinates":[[[8.7724,45.9422],[8.7783,45.9367],[8.775,45.9291],[8.7645,45.9204],[8.7573,45.9247],[8.7453,45.9266],[8.7428,45.9285],[8.7484,45.9302],[8.7499,45.9316],[8.7501,45.9347],[8.7517,45.9382],[8.7551,45.9403],[8.7724,45.9422]]]}},{"type":"Feature","properties":{"i":"012042","n":"Castellanza"},"geometry":{"type":"Polygon","coordinates":[[[8.9324,45.6265],[8.9367,45.6235],[8.9259,45.6195],[8.9155,45.6074],[8.9116,45.6063],[8.8997,45.6054],[8.8799,45.5982],[8.8738,45.5942],[8.8678,45.592],[8.8641,45.5949],[8.8738,45.6033],[8.8801,45.6124],[8.8795,45.6167],[8.8865,45.6147],[8.89,45.6146],[8.8956,45.616],[8.8962,45.6172],[8.8944,45.6204],[8.8965,45.6213],[8.9129,45.6214],[8.9324,45.6265]]]}},{"type":"Feature","properties":{"i":"012043","n":"Castello Cabiaglio"},"geometry":{"type":"Polygon","coordinates":[[[8.7773,45.9024],[8.7728,45.8952],[8.7765,45.8929],[8.7785,45.8897],[8.7797,45.8763],[8.7734,45.8698],[8.7663,45.8686],[8.7538,45.8698],[8.7549,45.8768],[8.7532,45.8822],[8.7469,45.8874],[8.7428,45.8888],[8.7434,45.8911],[8.7524,45.896],[8.7582,45.8974],[8.7692,45.9032],[8.7721,45.9036],[8.7773,45.9024]]]}},{"type":"Feature","properties":{"i":"012044","n":"Castelseprio"},"geometry":{"type":"Polygon","coordinates":[[[8.8731,45.7208],[8.8724,45.7137],[8.8672,45.7076],[8.8686,45.7039],[8.8587,45.7027],[8.8553,45.704],[8.856,45.7057],[8.8555,45.7062],[8.8537,45.707],[8.8513,45.7062],[8.853,45.7158],[8.8537,45.7334],[8.8551,45.7336],[8.8633,45.7307],[8.8651,45.7232],[8.8668,45.722],[8.8731,45.7208]]]}},{"type":"Feature","properties":{"i":"012045","n":"Castelveccana"},"geometry":{"type":"Polygon","coordinates":[[[8.715,45.9306],[8.7085,45.9281],[8.7005,45.9236],[8.6939,45.9221],[8.677,45.9241],[8.6702,45.9274],[8.652,45.9267],[8.6402,45.9222],[8.6333,45.9278],[8.6169,45.9384],[8.6541,45.9661],[8.6682,45.9569],[8.6869,45.9555],[8.6895,45.9536],[8.6929,45.9465],[8.7037,45.9403],[8.7112,45.9326],[8.715,45.9306]]]}},{"type":"Feature","properties":{"i":"012046","n":"Castiglione Olona"},"geometry":{"type":"Polygon","coordinates":[[[8.868,45.7667],[8.8686,45.7658],[8.879,45.7626],[8.881,45.7594],[8.8819,45.7549],[8.8862,45.7553],[8.8869,45.7541],[8.8865,45.752],[8.8824,45.7467],[8.8788,45.7364],[8.8668,45.7433],[8.8596,45.7461],[8.8494,45.7485],[8.8472,45.7503],[8.8494,45.7539],[8.8475,45.7613],[8.8485,45.7642],[8.8503,45.7662],[8.8541,45.7682],[8.856,45.7713],[8.868,45.7667]]]}},{"type":"Feature","properties":{"i":"012047","n":"Castronno"},"geometry":{"type":"Polygon","coordinates":[[[8.8124,45.7648],[8.8182,45.7551],[8.8244,45.7514],[8.8215,45.7444],[8.8144,45.7403],[8.8111,45.7402],[8.8056,45.7416],[8.8009,45.7524],[8.8004,45.7574],[8.7976,45.7596],[8.8029,45.7663],[8.8124,45.7648]]]}},{"type":"Feature","properties":{"i":"012048","n":"Cavaria con Premezzo"},"geometry":{"type":"Polygon","coordinates":[[[8.8079,45.6996],[8.8123,45.6955],[8.8126,45.6916],[8.8142,45.6887],[8.8066,45.6846],[8.8049,45.6844],[8.8025,45.6857],[8.8,45.6883],[8.7971,45.6895],[8.7771,45.689],[8.7797,45.6924],[8.7789,45.6941],[8.7792,45.6962],[8.7821,45.7001],[8.7845,45.7017],[8.8003,45.6989],[8.8079,45.6996]]]}},{"type":"Feature","properties":{"i":"012049","n":"Cazzago Brabbia"},"geometry":{"type":"Polygon","coordinates":[[[8.7405,45.7899],[8.7385,45.7913],[8.7335,45.7924],[8.7138,45.7917],[8.7127,45.7948],[8.7147,45.7979],[8.7407,45.8119],[8.7522,45.8053],[8.7471,45.8008],[8.7405,45.7899]]]}},{"type":"Feature","properties":{"i":"012050","n":"Cislago"},"geometry":{"type":"Polygon","coordinates":[[[8.9851,45.6705],[8.9847,45.6681],[8.9858,45.6624],[8.9842,45.6533],[8.9819,45.6521],[8.9783,45.6482],[8.9812,45.6455],[8.972,45.6375],[8.962,45.6354],[8.9565,45.6335],[8.9399,45.6426],[8.9384,45.6452],[8.9376,45.6489],[8.9401,45.6503],[8.9347,45.6529],[8.9479,45.6609],[8.9508,45.6606],[8.9558,45.6617],[8.9663,45.6655],[8.9746,45.6748],[8.9778,45.6798],[8.9839,45.6754],[8.9851,45.6705]]]}},{"type":"Feature","properties":{"i":"012051","n":"Cittiglio"},"geometry":{"type":"Polygon","coordinates":[[[8.677,45.9241],[8.6752,45.9206],[8.6773,45.9171],[8.6794,45.9097],[8.6806,45.9019],[8.6812,45.8908],[8.6681,45.8889],[8.6599,45.8886],[8.6498,45.8867],[8.6439,45.8869],[8.6423,45.9026],[8.6468,45.9207],[8.6462,45.9245],[8.652,45.9267],[8.6702,45.9274],[8.677,45.9241]]]}},{"type":"Feature","properties":{"i":"012052","n":"Clivio"},"geometry":{"type":"Polygon","coordinates":[[[8.9154,45.8435],[8.9042,45.8419],[8.9053,45.8456],[8.9179,45.8582],[8.9184,45.8619],[8.9201,45.8641],[8.9232,45.8657],[8.929,45.8662],[8.9331,45.8678],[8.9341,45.8701],[8.9417,45.8699],[8.9386,45.8634],[8.9304,45.8585],[8.9154,45.8435]]]}},{"type":"Feature","properties":{"i":"012053","n":"Cocquio-Trevisago"},"geometry":{"type":"Polygon","coordinates":[[[8.7032,45.8797],[8.7018,45.8763],[8.7031,45.8754],[8.7207,45.8712],[8.7297,45.8719],[8.7354,45.8738],[8.7375,45.8728],[8.7237,45.8662],[8.7048,45.8522],[8.6943,45.8455],[8.6925,45.8508],[8.6871,45.8537],[8.6845,45.8534],[8.6751,45.8583],[8.6708,45.863],[8.6679,45.8678],[8.6763,45.8738],[8.6833,45.8774],[8.6965,45.8816],[8.7032,45.8797]]]}},{"type":"Feature","properties":{"i":"012054","n":"Comabbio"},"geometry":{"type":"Polygon","coordinates":[[[8.6928,45.7748],[8.6948,45.7683],[8.6914,45.7616],[8.6784,45.76],[8.6707,45.7632],[8.6663,45.7662],[8.6621,45.7676],[8.6627,45.7754],[8.6698,45.7774],[8.6682,45.7849],[8.6739,45.7883],[8.6808,45.7893],[8.6816,45.7874],[8.6808,45.7797],[8.6816,45.7735],[8.6852,45.7732],[8.6928,45.7748]]]}},{"type":"Feature","properties":{"i":"012055","n":"Comerio"},"geometry":{"type":"Polygon","coordinates":[[[8.7538,45.8698],[8.7558,45.8613],[8.7536,45.8538],[8.7504,45.8472],[8.7499,45.8397],[8.7507,45.8359],[8.7479,45.8341],[8.745,45.8334],[8.739,45.8344],[8.7307,45.8421],[8.7325,45.8521],[8.7385,45.8683],[8.74,45.8718],[8.7538,45.8698]]]}},{"type":"Feature","properties":{"i":"012056","n":"Cremenaga"},"geometry":{"type":"Polygon","coordinates":[[[8.8211,45.9875],[8.8182,45.9826],[8.8094,45.9814],[8.8104,45.9773],[8.8102,45.9706],[8.8068,45.9678],[8.8031,45.9681],[8.7984,45.9761],[8.7916,45.9784],[8.7879,45.9782],[8.7784,45.9815],[8.7784,45.9849],[8.7861,45.9893],[8.7897,45.9883],[8.7921,45.989],[8.7925,45.9916],[8.7937,45.992],[8.8083,45.9905],[8.8165,45.9891],[8.8211,45.9875]]]}},{"type":"Feature","properties":{"i":"012057","n":"Crosio della Valle"},"geometry":{"type":"Polygon","coordinates":[[[8.7741,45.7629],[8.7776,45.7575],[8.7748,45.7554],[8.7744,45.7541],[8.7663,45.7554],[8.7625,45.7577],[8.752,45.7614],[8.7598,45.7662],[8.768,45.7653],[8.7741,45.7629]]]}},{"type":"Feature","properties":{"i":"012058","n":"Cuasso al Monte"},"geometry":{"type":"Polygon","coordinates":[[[8.8925,45.9211],[8.8952,45.9202],[8.8978,45.9176],[8.8977,45.9146],[8.8893,45.8975],[8.8893,45.8945],[8.8832,45.8869],[8.876,45.8881],[8.8671,45.8923],[8.855,45.8963],[8.852,45.8956],[8.8476,45.8864],[8.8471,45.8829],[8.8446,45.8841],[8.8382,45.8946],[8.838,45.9016],[8.8398,45.9086],[8.8448,45.912],[8.85,45.9187],[8.8513,45.9214],[8.8526,45.9282],[8.865,45.9301],[8.878,45.9351],[8.8843,45.9288],[8.8896,45.9217],[8.8925,45.9211]]]}},{"type":"Feature","properties":{"i":"012059","n":"Cugliate-Fabiasco"},"geometry":{"type":"Polygon","coordinates":[[[8.8513,45.9214],[8.85,45.9187],[8.837,45.9202],[8.8295,45.9263],[8.8296,45.9271],[8.8277,45.9293],[8.8223,45.9298],[8.8194,45.929],[8.818,45.9388],[8.8012,45.9475],[8.7933,45.9507],[8.7975,45.9547],[8.7953,45.9562],[8.7949,45.9576],[8.8055,45.9606],[8.806,45.9655],[8.8028,45.9676],[8.8144,45.9633],[8.8152,45.9597],[8.8285,45.9445],[8.8272,45.9429],[8.8297,45.9373],[8.8363,45.9278],[8.8513,45.9214]]]}},{"type":"Feature","properties":{"i":"012060","n":"Cunardo"},"geometry":{"type":"Polygon","coordinates":[[[8.8194,45.929],[8.8171,45.926],[8.8152,45.9202],[8.8064,45.9174],[8.7969,45.9256],[8.7984,45.9269],[8.7957,45.9333],[8.7844,45.9364],[8.7831,45.9387],[8.7825,45.9428],[8.784,45.9454],[8.7895,45.949],[8.7933,45.9507],[8.7961,45.9499],[8.818,45.9388],[8.8194,45.929]]]}},{"type":"Feature","properties":{"i":"012061","n":"Curiglia con Monteviasco"},"geometry":{"type":"Polygon","coordinates":[[[8.8471,46.0758],[8.8521,46.0755],[8.854,46.0691],[8.8545,46.0616],[8.8443,46.0485],[8.8344,46.0513],[8.8309,46.0473],[8.8305,46.0458],[8.8352,46.0437],[8.8323,46.0405],[8.8299,46.0416],[8.8248,46.0468],[8.8172,46.0512],[8.8133,46.0523],[8.802,46.0529],[8.7981,46.0552],[8.7977,46.058],[8.8004,46.0598],[8.798,46.0617],[8.806,46.0649],[8.8131,46.07],[8.8146,46.0722],[8.8148,46.0742],[8.8101,46.078],[8.8211,46.0772],[8.8296,46.0749],[8.8435,46.0745],[8.8471,46.0758]]]}},{"type":"Feature","properties":{"i":"012062","n":"Cuveglio"},"geometry":{"type":"Polygon","coordinates":[[[8.7773,45.9024],[8.7707,45.9036],[8.766,45.9019],[8.7582,45.8974],[8.7524,45.896],[8.7488,45.9005],[8.7455,45.9014],[8.7357,45.9015],[8.7174,45.8992],[8.7197,45.9034],[8.7212,45.9132],[8.7258,45.9194],[8.7214,45.9223],[8.7273,45.9216],[8.733,45.919],[8.7359,45.9157],[8.7356,45.9122],[8.7373,45.9103],[8.7417,45.9101],[8.7435,45.9109],[8.7476,45.9159],[8.7434,45.9203],[8.7431,45.9233],[8.7439,45.926],[8.7453,45.9266],[8.7523,45.9259],[8.7558,45.9169],[8.7626,45.9098],[8.7756,45.9081],[8.7786,45.9048],[8.7788,45.9037],[8.7773,45.9024]]]}},{"type":"Feature","properties":{"i":"012063","n":"Cuvio"},"geometry":{"type":"Polygon","coordinates":[[[8.7524,45.896],[8.7434,45.8911],[8.7428,45.8888],[8.7469,45.8874],[8.7532,45.8822],[8.7549,45.8768],[8.7538,45.8698],[8.74,45.8718],[8.7354,45.8738],[8.7358,45.8856],[8.7343,45.8881],[8.7322,45.8892],[8.7272,45.89],[8.7172,45.8897],[8.7132,45.8913],[8.7124,45.8946],[8.7155,45.8981],[8.7174,45.8992],[8.7357,45.9015],[8.7455,45.9014],[8.7488,45.9005],[8.7524,45.896]]]}},{"type":"Feature","properties":{"i":"012064","n":"Daverio"},"geometry":{"type":"Polygon","coordinates":[[[8.7837,45.7826],[8.7813,45.7799],[8.7818,45.7783],[8.7835,45.7769],[8.7833,45.7708],[8.7741,45.7629],[8.768,45.7653],[8.7598,45.7662],[8.7568,45.7644],[8.7546,45.7677],[8.7476,45.7716],[8.7445,45.7759],[8.7474,45.7753],[8.7586,45.7774],[8.7614,45.7799],[8.7615,45.7834],[8.7697,45.7796],[8.7803,45.7827],[8.7837,45.7826]]]}},{"type":"Feature","properties":{"i":"012065","n":"Dumenza"},"geometry":{"type":"Polygon","coordinates":[[[8.8299,46.0416],[8.828,46.0333],[8.827,46.032],[8.8197,46.0253],[8.8059,46.0216],[8.7972,46.012],[8.7921,46.005],[8.7902,46.0001],[8.7825,46.0008],[8.7797,46.002],[8.7792,46.0036],[8.7802,46.0056],[8.7731,46.0116],[8.7667,46.0237],[8.7657,46.0274],[8.7659,46.0296],[8.7642,46.031],[8.777,46.0279],[8.7789,46.035],[8.7781,46.0394],[8.7706,46.0453],[8.7662,46.0474],[8.7669,46.0494],[8.7793,46.0531],[8.7892,46.0595],[8.7974,46.0617],[8.8004,46.0598],[8.7977,46.058],[8.7981,46.0552],[8.802,46.0529],[8.8133,46.0523],[8.8172,46.0512],[8.8248,46.0468],[8.8299,46.0416]]]}},{"type":"Feature","properties":{"i":"012066","n":"Duno"},"geometry":{"type":"Polygon","coordinates":[[[8.7314,45.9299],[8.7428,45.9285],[8.7453,45.9266],[8.7439,45.926],[8.7431,45.9233],[8.7434,45.9203],[8.7476,45.9159],[8.7427,45.9104],[8.7373,45.9103],[8.7356,45.9122],[8.7359,45.9157],[8.733,45.919],[8.7273,45.9216],[8.7214,45.9223],[8.7225,45.9288],[8.7263,45.9308],[8.7314,45.9299]]]}},{"type":"Feature","properties":{"i":"012067","n":"Fagnano Olona"},"geometry":{"type":"Polygon","coordinates":[[[8.8963,45.6802],[8.8987,45.6767],[8.8947,45.6774],[8.8841,45.6749],[8.8869,45.6595],[8.8813,45.6592],[8.8634,45.6554],[8.8569,45.6525],[8.8542,45.646],[8.8516,45.6422],[8.8457,45.6427],[8.8488,45.6471],[8.848,45.6572],[8.846,45.6637],[8.8467,45.6669],[8.8459,45.6705],[8.8509,45.6776],[8.856,45.6799],[8.8684,45.6806],[8.8816,45.6796],[8.8884,45.6781],[8.8963,45.6802]]]}},{"type":"Feature","properties":{"i":"012068","n":"Ferno"},"geometry":{"type":"Polygon","coordinates":[[[8.774,45.6063],[8.7678,45.6064],[8.7418,45.6113],[8.7361,45.6112],[8.7219,45.6138],[8.719,45.6149],[8.7177,45.6173],[8.7092,45.6175],[8.7067,45.6298],[8.7074,45.6307],[8.7134,45.6322],[8.7265,45.6341],[8.7278,45.6318],[8.7341,45.6277],[8.7456,45.6231],[8.7537,45.6214],[8.7572,45.6227],[8.7665,45.62],[8.7769,45.6083],[8.774,45.6063]]]}},{"type":"Feature","properties":{"i":"012069","n":"Ferrera di Varese"},"geometry":{"type":"Polygon","coordinates":[[[8.7863,45.9358],[8.7957,45.9333],[8.7984,45.9269],[8.7978,45.9257],[8.7781,45.9267],[8.775,45.9291],[8.7783,45.9367],[8.7863,45.9358]]]}},{"type":"Feature","properties":{"i":"012070","n":"Gallarate"},"geometry":{"type":"Polygon","coordinates":[[[8.8066,45.6846],[8.8081,45.6751],[8.8258,45.6486],[8.8322,45.6408],[8.8288,45.6404],[8.8252,45.6385],[8.8192,45.6313],[8.7918,45.6426],[8.7873,45.6396],[8.7839,45.6407],[8.7817,45.643],[8.7801,45.6516],[8.7753,45.6558],[8.7641,45.6603],[8.7648,45.6624],[8.7642,45.6639],[8.759,45.6715],[8.754,45.6758],[8.7554,45.6792],[8.7631,45.6852],[8.7771,45.689],[8.7971,45.6895],[8.8,45.6883],[8.8025,45.6857],[8.8049,45.6844],[8.8066,45.6846]]]}},{"type":"Feature","properties":{"i":"012071","n":"Galliate Lombardo"},"geometry":{"type":"Polygon","coordinates":[[[8.7837,45.7826],[8.7803,45.7827],[8.7697,45.7796],[8.7615,45.7834],[8.7602,45.7913],[8.7584,45.7935],[8.7623,45.8019],[8.7724,45.7992],[8.784,45.7983],[8.7829,45.785],[8.7837,45.7826]]]}},{"type":"Feature","properties":{"i":"012072","n":"Gavirate"},"geometry":{"type":"Polygon","coordinates":[[[8.745,45.8334],[8.7522,45.8297],[8.7504,45.8282],[8.7501,45.8269],[8.7529,45.8248],[8.755,45.8211],[8.7391,45.8156],[8.7169,45.8343],[8.706,45.8343],[8.7019,45.8351],[8.6975,45.8447],[8.6943,45.8455],[8.7048,45.8522],[8.7237,45.8662],[8.7375,45.8728],[8.74,45.8718],[8.7325,45.8521],[8.7307,45.8421],[8.739,45.8344],[8.745,45.8334]]]}},{"type":"Feature","properties":{"i":"012073","n":"Gazzada Schianno"},"geometry":{"type":"Polygon","coordinates":[[[8.851,45.7794],[8.8531,45.7726],[8.8291,45.7733],[8.8258,45.7713],[8.8127,45.7667],[8.8107,45.7705],[8.8157,45.7769],[8.8176,45.7828],[8.8205,45.785],[8.8203,45.7843],[8.8223,45.7837],[8.8256,45.7854],[8.8316,45.7928],[8.8376,45.7911],[8.8421,45.786],[8.851,45.7794]]]}},{"type":"Feature","properties":{"i":"012074","n":"Gemonio"},"geometry":{"type":"Polygon","coordinates":[[[8.6965,45.8816],[8.6833,45.8774],[8.6763,45.8738],[8.6679,45.8678],[8.6638,45.8684],[8.6646,45.8716],[8.6678,45.8733],[8.6699,45.8787],[8.6692,45.8873],[8.6681,45.8889],[8.695,45.8918],[8.6978,45.8905],[8.6987,45.8847],[8.6965,45.8816]]]}},{"type":"Feature","properties":{"i":"012075","n":"Gerenzano"},"geometry":{"type":"Polygon","coordinates":[[[9.0205,45.6459],[9.0255,45.6488],[9.027,45.6489],[9.0284,45.6457],[9.0282,45.6432],[9.0205,45.6432],[9.0169,45.6416],[9.017,45.6311],[9.0177,45.6271],[9.0168,45.6266],[9.0127,45.6262],[9.0049,45.6278],[8.994,45.628],[8.9885,45.6241],[8.9762,45.6174],[8.975,45.6182],[8.9734,45.618],[8.9672,45.6282],[8.9559,45.6251],[8.9546,45.6255],[8.9536,45.6287],[8.9539,45.6301],[8.9574,45.6316],[8.9565,45.6335],[8.962,45.6354],[8.972,45.6375],[8.9836,45.648],[8.9858,45.6491],[9.0026,45.6457],[9.0126,45.6445],[9.0182,45.644],[9.0201,45.6448],[9.0205,45.6459]]]}},{"type":"Feature","properties":{"i":"012076","n":"Germignaga"},"geometry":{"type":"Polygon","coordinates":[[[8.7535,45.9693],[8.7539,45.968],[8.748,45.9684],[8.7475,45.9718],[8.7455,45.9755],[8.732,45.9842],[8.7245,45.9849],[8.7145,45.9879],[8.7007,45.9999],[8.7124,46.0068],[8.7266,45.9967],[8.736,45.9921],[8.7437,45.9856],[8.7441,45.9828],[8.7482,45.9727],[8.7508,45.9683],[8.7535,45.9693]]]}},{"type":"Feature","properties":{"i":"012077","n":"Golasecca"},"geometry":{"type":"Polygon","coordinates":[[[8.6711,45.7109],[8.688,45.7001],[8.6827,45.6944],[8.6802,45.6924],[8.6757,45.6913],[8.6645,45.6815],[8.6543,45.682],[8.6414,45.6872],[8.6461,45.6927],[8.6544,45.7079],[8.6542,45.712],[8.6591,45.713],[8.6649,45.7128],[8.6711,45.7109]]]}},{"type":"Feature","properties":{"i":"012078","n":"Gorla Maggiore"},"geometry":{"type":"Polygon","coordinates":[[[8.8987,45.6767],[8.9077,45.6748],[8.9092,45.6716],[8.9117,45.6708],[8.9174,45.6709],[8.9219,45.6701],[8.9227,45.6626],[8.9091,45.6584],[8.8916,45.6549],[8.8869,45.6595],[8.8841,45.6749],[8.8947,45.6774],[8.8987,45.6767]]]}},{"type":"Feature","properties":{"i":"012079","n":"Gorla Minore"},"geometry":{"type":"Polygon","coordinates":[[[8.935,45.6524],[8.9401,45.6503],[8.9376,45.6489],[8.9384,45.6452],[8.9399,45.6426],[8.9365,45.6415],[8.9239,45.6401],[8.9129,45.6361],[8.8979,45.6353],[8.8946,45.6361],[8.8928,45.6433],[8.8928,45.652],[8.8916,45.6549],[8.9091,45.6584],[8.9227,45.6626],[8.9292,45.6531],[8.9319,45.6512],[8.935,45.6524]]]}},{"type":"Feature","properties":{"i":"012080","n":"Gornate Olona"},"geometry":{"type":"Polygon","coordinates":[[[8.8788,45.7364],[8.8791,45.7283],[8.8731,45.7208],[8.8668,45.722],[8.8651,45.7232],[8.8633,45.7307],[8.8551,45.7336],[8.8537,45.7334],[8.8532,45.731],[8.8448,45.7349],[8.8441,45.738],[8.8443,45.7471],[8.8472,45.7503],[8.8494,45.7485],[8.8596,45.7461],[8.8668,45.7433],[8.8788,45.7364]]]}},{"type":"Feature","properties":{"i":"012081","n":"Grantola"},"geometry":{"type":"Polygon","coordinates":[[[8.7933,45.9507],[8.784,45.9454],[8.7827,45.9432],[8.7831,45.9387],[8.7844,45.9364],[8.7863,45.9358],[8.7783,45.9367],[8.77,45.9451],[8.7683,45.9504],[8.7688,45.9517],[8.7859,45.9527],[8.7975,45.9547],[8.7933,45.9507]]]}},{"type":"Feature","properties":{"i":"012082","n":"Inarzo"},"geometry":{"type":"Polygon","coordinates":[[[8.7405,45.7899],[8.7435,45.7886],[8.7437,45.7865],[8.7415,45.7797],[8.742,45.778],[8.7381,45.7782],[8.7349,45.7805],[8.7224,45.7836],[8.7121,45.7841],[8.7138,45.7917],[8.7335,45.7924],[8.7385,45.7913],[8.7405,45.7899]]]}},{"type":"Feature","properties":{"i":"012083","n":"Induno Olona"},"geometry":{"type":"Polygon","coordinates":[[[8.8389,45.8719],[8.8406,45.8694],[8.8521,45.8635],[8.8571,45.8521],[8.8645,45.8395],[8.8613,45.8368],[8.8384,45.835],[8.8249,45.8408],[8.8211,45.8444],[8.8233,45.8558],[8.8181,45.8607],[8.8153,45.8611],[8.8131,45.8675],[8.8152,45.8717],[8.8156,45.8759],[8.8148,45.8781],[8.8113,45.8826],[8.8172,45.8881],[8.8257,45.8829],[8.8298,45.875],[8.832,45.8727],[8.8359,45.8717],[8.8389,45.8719]]]}},{"type":"Feature","properties":{"i":"012084","n":"Ispra"},"geometry":{"type":"Polygon","coordinates":[[[8.6403,45.8155],[8.6403,45.8138],[8.6428,45.8103],[8.6427,45.8083],[8.6301,45.8041],[8.6265,45.798],[8.6261,45.7937],[8.6103,45.792],[8.6107,45.7904],[8.6038,45.7887],[8.6016,45.7928],[8.5964,45.7961],[8.5801,45.8129],[8.5879,45.8189],[8.592,45.8244],[8.5952,45.8336],[8.6319,45.8333],[8.6352,45.8305],[8.6355,45.8277],[8.6403,45.8155]]]}},{"type":"Feature","properties":{"i":"012085","n":"Jerago con Orago"},"geometry":{"type":"Polygon","coordinates":[[[8.8044,45.711],[8.8096,45.7083],[8.8079,45.6996],[8.8003,45.6989],[8.7845,45.7017],[8.7821,45.7001],[8.781,45.6981],[8.7779,45.7093],[8.7794,45.7123],[8.7863,45.718],[8.7979,45.716],[8.8044,45.711]]]}},{"type":"Feature","properties":{"i":"012086","n":"Lavena Ponte Tresa"},"geometry":{"type":"Polygon","coordinates":[[[8.8829,45.9566],[8.883,45.9531],[8.8728,45.9479],[8.8706,45.9453],[8.8604,45.9432],[8.8543,45.9514],[8.8512,45.9603],[8.8462,45.9677],[8.8449,45.971],[8.8457,45.9743],[8.8477,45.9751],[8.8495,45.973],[8.8679,45.9607],[8.8789,45.956],[8.8829,45.9566]]]}},{"type":"Feature","properties":{"i":"012087","n":"Laveno-Mombello"},"geometry":{"type":"Polygon","coordinates":[[[8.6462,45.9245],[8.6468,45.9207],[8.6423,45.9026],[8.6439,45.8869],[8.6392,45.8849],[8.6333,45.8885],[8.632,45.8886],[8.6291,45.8868],[8.6264,45.8839],[8.6251,45.8807],[8.6065,45.8877],[8.5701,45.8913],[8.5716,45.9013],[8.574,45.9038],[8.5949,45.9225],[8.6169,45.9384],[8.6333,45.9278],[8.6402,45.9222],[8.6462,45.9245]]]}},{"type":"Feature","properties":{"i":"012088","n":"Leggiuno"},"geometry":{"type":"Polygon","coordinates":[[[8.6251,45.8807],[8.625,45.8757],[8.6292,45.8695],[8.6338,45.866],[8.638,45.8671],[8.6359,45.8628],[8.6332,45.8643],[8.6303,45.8632],[8.6256,45.8585],[8.6155,45.8537],[8.5923,45.8524],[8.5869,45.8604],[8.5767,45.8799],[8.5717,45.887],[8.5701,45.8913],[8.6065,45.8877],[8.6251,45.8807]]]}},{"type":"Feature","properties":{"i":"012089","n":"Lonate Ceppino"},"geometry":{"type":"Polygon","coordinates":[[[8.883,45.7274],[8.8808,45.724],[8.8837,45.7228],[8.8914,45.6995],[8.8935,45.6958],[8.8937,45.6928],[8.8924,45.6914],[8.8883,45.6899],[8.8826,45.6913],[8.877,45.6937],[8.875,45.698],[8.8681,45.7044],[8.8671,45.707],[8.8679,45.7088],[8.8724,45.7137],[8.8731,45.7208],[8.8791,45.7283],[8.883,45.7274]]]}},{"type":"Feature","properties":{"i":"012090","n":"Lonate Pozzolo"},"geometry":{"type":"Polygon","coordinates":[[[8.7092,45.6175],[8.7177,45.6173],[8.719,45.6149],[8.7238,45.6134],[8.7361,45.6112],[8.7418,45.6113],[8.7678,45.6064],[8.774,45.6063],[8.7862,45.6024],[8.786,45.5982],[8.7823,45.5865],[8.7764,45.5872],[8.7685,45.5829],[8.7671,45.5781],[8.7646,45.5764],[8.7477,45.5723],[8.7495,45.5668],[8.7404,45.5625],[8.7392,45.5602],[8.7302,45.561],[8.7243,45.5661],[8.7235,45.5692],[8.7189,45.5693],[8.7179,45.5656],[8.7143,45.5622],[8.7069,45.5583],[8.7055,45.5692],[8.6966,45.5744],[8.6933,45.5778],[8.6938,45.5798],[8.696,45.5824],[8.7044,45.5883],[8.7048,45.5942],[8.7031,45.6001],[8.7001,45.604],[8.6991,45.6027],[8.6993,45.6017],[8.6953,45.6025],[8.6921,45.6039],[8.6887,45.6078],[8.6939,45.6096],[8.6972,45.6087],[8.7076,45.6151],[8.7092,45.6175]]]}},{"type":"Feature","properties":{"i":"012091","n":"Lozza"},"geometry":{"type":"Polygon","coordinates":[[[8.8678,45.7831],[8.8695,45.7808],[8.8719,45.7712],[8.8713,45.7695],[8.868,45.7667],[8.8531,45.7726],[8.851,45.7794],[8.8594,45.7792],[8.8653,45.7825],[8.8661,45.7839],[8.8678,45.7831]]]}},{"type":"Feature","properties":{"i":"012092","n":"Luino"},"geometry":{"type":"Polygon","coordinates":[[[8.7642,46.031],[8.7659,46.0296],[8.7657,46.0274],[8.7667,46.0237],[8.7731,46.0116],[8.7802,46.0056],[8.7792,46.0036],[8.7797,46.002],[8.7825,46.0008],[8.7902,46.0001],[8.7861,45.9893],[8.7784,45.9849],[8.7621,45.9832],[8.7579,45.9793],[8.757,45.971],[8.7508,45.9683],[8.7454,45.9793],[8.7437,45.9856],[8.736,45.9921],[8.7266,45.9967],[8.7124,46.0068],[8.7208,46.0123],[8.7264,46.018],[8.7289,46.0234],[8.729,46.0268],[8.748,46.0277],[8.7503,46.0293],[8.7502,46.0303],[8.7642,46.031]]]}},{"type":"Feature","properties":{"i":"012093","n":"Luvinate"},"geometry":{"type":"Polygon","coordinates":[[[8.7751,45.8457],[8.7749,45.8361],[8.7764,45.8336],[8.7697,45.8297],[8.7578,45.8309],[8.7591,45.8346],[8.7644,45.8434],[8.7653,45.8467],[8.7663,45.8686],[8.7734,45.8698],[8.7776,45.8684],[8.7768,45.86],[8.7748,45.8507],[8.7751,45.8457]]]}},{"type":"Feature","properties":{"i":"012096","n":"Malnate"},"geometry":{"type":"Polygon","coordinates":[[[8.897,45.8129],[8.9028,45.7969],[8.9087,45.7933],[8.9004,45.7848],[8.8994,45.7862],[8.8915,45.7869],[8.8739,45.7828],[8.869,45.7829],[8.8564,45.788],[8.8562,45.7889],[8.8583,45.7917],[8.8633,45.7953],[8.8669,45.7968],[8.8684,45.8003],[8.8644,45.8057],[8.8687,45.8098],[8.8678,45.8144],[8.8798,45.8118],[8.8846,45.8104],[8.885,45.8093],[8.8901,45.81],[8.897,45.8129]]]}},{"type":"Feature","properties":{"i":"012097","n":"Marchirolo"},"geometry":{"type":"Polygon","coordinates":[[[8.8547,45.9403],[8.852,45.939],[8.8496,45.9361],[8.8495,45.9304],[8.8526,45.9282],[8.8513,45.9214],[8.8363,45.9278],[8.8297,45.9373],[8.8272,45.9429],[8.8285,45.9445],[8.8152,45.9597],[8.8144,45.9633],[8.8211,45.9595],[8.8422,45.9513],[8.8547,45.9403]]]}},{"type":"Feature","properties":{"i":"012098","n":"Marnate"},"geometry":{"type":"Polygon","coordinates":[[[8.9365,45.6415],[8.937,45.6396],[8.9307,45.6363],[8.9296,45.6346],[8.9303,45.631],[8.9324,45.6265],[8.9129,45.6214],[8.8999,45.6217],[8.8944,45.6204],[8.8949,45.6287],[8.892,45.6325],[8.8946,45.6361],[8.8979,45.6353],[8.9129,45.6361],[8.9206,45.6392],[8.9268,45.6407],[8.9365,45.6415]]]}},{"type":"Feature","properties":{"i":"012099","n":"Marzio"},"geometry":{"type":"Polygon","coordinates":[[[8.8621,45.9296],[8.8526,45.9282],[8.8505,45.9293],[8.8495,45.9304],[8.8496,45.9361],[8.852,45.939],[8.8604,45.9432],[8.8706,45.9453],[8.872,45.9445],[8.8746,45.9412],[8.8682,45.9385],[8.8619,45.9341],[8.8621,45.9296]]]}},{"type":"Feature","properties":{"i":"012100","n":"Masciago Primo"},"geometry":{"type":"Polygon","coordinates":[[[8.7969,45.9256],[8.8019,45.922],[8.7966,45.9218],[8.7887,45.914],[8.7905,45.9106],[8.7903,45.9087],[8.7881,45.9087],[8.7813,45.9135],[8.7771,45.9204],[8.7786,45.9229],[8.7781,45.9267],[8.7969,45.9256]]]}},{"type":"Feature","properties":{"i":"012101","n":"Mercallo"},"geometry":{"type":"Polygon","coordinates":[[[8.6914,45.7616],[8.679,45.7481],[8.6771,45.7433],[8.6783,45.7388],[8.6726,45.7362],[8.6635,45.738],[8.6545,45.749],[8.6554,45.755],[8.6621,45.7676],[8.6663,45.7662],[8.6707,45.7632],[8.6784,45.76],[8.6914,45.7616]]]}},{"type":"Feature","properties":{"i":"012102","n":"Mesenzana"},"geometry":{"type":"Polygon","coordinates":[[[8.7688,45.9516],[8.7683,45.9504],[8.77,45.9451],[8.7724,45.9422],[8.7551,45.9403],[8.7517,45.9382],[8.7501,45.9347],[8.7499,45.9316],[8.7468,45.9296],[8.7428,45.9285],[8.7314,45.9299],[8.7342,45.9392],[8.7353,45.9404],[8.744,45.9439],[8.7494,45.945],[8.7506,45.9461],[8.7514,45.948],[8.7506,45.9519],[8.7494,45.9535],[8.7492,45.9577],[8.7552,45.9615],[8.7573,45.9625],[8.7591,45.9599],[8.7692,45.9541],[8.7688,45.9516]]]}},{"type":"Feature","properties":{"i":"012103","n":"Montegrino Valtravaglia"},"geometry":{"type":"Polygon","coordinates":[[[8.8031,45.9681],[8.8028,45.9676],[8.806,45.9655],[8.8055,45.9606],[8.7949,45.9576],[8.7953,45.9562],[8.7975,45.9547],[8.7859,45.9527],[8.7688,45.9516],[8.7692,45.9541],[8.7591,45.9599],[8.7535,45.9693],[8.757,45.971],[8.7579,45.9793],[8.7621,45.9832],[8.7784,45.9849],[8.7784,45.9815],[8.7879,45.9782],[8.7916,45.9784],[8.7984,45.9761],[8.8031,45.9681]]]}},{"type":"Feature","properties":{"i":"012104","n":"Monvalle"},"geometry":{"type":"Polygon","coordinates":[[[8.5946,45.8448],[8.5923,45.8524],[8.6164,45.854],[8.6256,45.8585],[8.6303,45.8632],[8.6332,45.8643],[8.6359,45.8628],[8.6396,45.8591],[8.6419,45.8523],[8.6376,45.8468],[8.6326,45.8459],[8.6201,45.8448],[8.5946,45.8448]]]}},{"type":"Feature","properties":{"i":"012105","n":"Morazzone"},"geometry":{"type":"Polygon","coordinates":[[[8.8531,45.7726],[8.856,45.7713],[8.8541,45.7682],[8.8503,45.7662],[8.8485,45.7642],[8.8475,45.7613],[8.8494,45.7539],[8.8472,45.7503],[8.8458,45.752],[8.8325,45.7535],[8.8244,45.7514],[8.8182,45.7551],[8.8123,45.7642],[8.8127,45.7667],[8.8258,45.7713],[8.8291,45.7733],[8.8531,45.7726]]]}},{"type":"Feature","properties":{"i":"012106","n":"Mornago"},"geometry":{"type":"Polygon","coordinates":[[[8.7748,45.7554],[8.7775,45.7463],[8.7698,45.7394],[8.7612,45.728],[8.7567,45.7256],[8.7556,45.7178],[8.7469,45.7109],[8.7409,45.7119],[8.7245,45.7221],[8.7308,45.7336],[8.7331,45.734],[8.7365,45.7363],[8.7353,45.7375],[8.7355,45.7394],[8.737,45.7441],[8.7402,45.7493],[8.752,45.7614],[8.7557,45.7605],[8.7683,45.7548],[8.7744,45.7541],[8.7748,45.7554]]]}},{"type":"Feature","properties":{"i":"012107","n":"Oggiona con Santo Stefano"},"geometry":{"type":"Polygon","coordinates":[[[8.8238,45.709],[8.829,45.7059],[8.8281,45.6987],[8.8258,45.6943],[8.8192,45.6887],[8.8142,45.6887],[8.8126,45.6916],[8.8123,45.6955],[8.8079,45.6996],[8.8096,45.7083],[8.8238,45.709]]]}},{"type":"Feature","properties":{"i":"012108","n":"Olgiate Olona"},"geometry":{"type":"Polygon","coordinates":[[[8.8928,45.6433],[8.8946,45.6361],[8.892,45.6325],[8.8949,45.6287],[8.8944,45.6204],[8.8962,45.6172],[8.8951,45.6158],[8.8881,45.6144],[8.8685,45.6198],[8.8671,45.6224],[8.8589,45.6261],[8.8586,45.6338],[8.8541,45.6382],[8.8516,45.6422],[8.8521,45.6431],[8.8568,45.6412],[8.8626,45.6402],[8.8891,45.6422],[8.8928,45.6433]]]}},{"type":"Feature","properties":{"i":"012109","n":"Origgio"},"geometry":{"type":"Polygon","coordinates":[[[9.0306,45.6085],[9.0267,45.6044],[9.0277,45.6005],[9.028,45.5927],[9.0228,45.5845],[9.0029,45.5762],[9.0021,45.5742],[8.9835,45.5911],[9.0156,45.6087],[9.0195,45.61],[9.0306,45.6085]]]}},{"type":"Feature","properties":{"i":"012110","n":"Orino"},"geometry":{"type":"Polygon","coordinates":[[[8.7354,45.8738],[8.7297,45.8719],[8.7207,45.8712],[8.7031,45.8754],[8.7018,45.8763],[8.7032,45.8797],[8.7186,45.8871],[8.7218,45.8898],[8.7272,45.89],[8.7334,45.8886],[8.7358,45.8856],[8.7354,45.8738]]]}},{"type":"Feature","properties":{"i":"012113","n":"Porto Ceresio"},"geometry":{"type":"Polygon","coordinates":[[[8.9241,45.8991],[8.9216,45.901],[8.9191,45.9012],[8.9162,45.8997],[8.9127,45.8961],[8.9088,45.8945],[8.8996,45.8961],[8.8973,45.8993],[8.8893,45.8945],[8.8893,45.8975],[8.8964,45.9111],[8.8979,45.9155],[8.8978,45.9176],[8.8958,45.9198],[8.8925,45.9211],[8.8983,45.9253],[8.9044,45.9215],[8.9134,45.9175],[8.9246,45.9059],[8.9255,45.9027],[8.9241,45.8991]]]}},{"type":"Feature","properties":{"i":"012114","n":"Porto Valtravaglia"},"geometry":{"type":"Polygon","coordinates":[[[8.7288,45.9568],[8.7304,45.9521],[8.7259,45.95],[8.7195,45.9484],[8.72,45.9446],[8.7274,45.9348],[8.7263,45.9308],[8.7225,45.9288],[8.715,45.9306],[8.7112,45.9326],[8.7037,45.9403],[8.6929,45.9465],[8.6895,45.9536],[8.6869,45.9555],[8.6682,45.9569],[8.6541,45.9661],[8.6823,45.9869],[8.7012,45.9733],[8.7022,45.9709],[8.7043,45.9693],[8.7163,45.9653],[8.7228,45.9663],[8.7273,45.9642],[8.7285,45.9632],[8.7271,45.9602],[8.7253,45.9585],[8.7271,45.9553],[8.7288,45.9568]]]}},{"type":"Feature","properties":{"i":"012115","n":"Rancio Valcuvia"},"geometry":{"type":"Polygon","coordinates":[[[8.7781,45.9267],[8.7786,45.9229],[8.7771,45.9204],[8.7813,45.9135],[8.7874,45.9097],[8.793,45.9009],[8.7867,45.9006],[8.7728,45.8952],[8.7788,45.9037],[8.7783,45.9052],[8.7747,45.9085],[8.7626,45.9098],[8.7558,45.9169],[8.7523,45.9259],[8.7573,45.9247],[8.7645,45.9204],[8.775,45.9291],[8.7781,45.9267]]]}},{"type":"Feature","properties":{"i":"012116","n":"Ranco"},"geometry":{"type":"Polygon","coordinates":[[[8.6016,45.7928],[8.5957,45.7872],[8.5913,45.7872],[8.5834,45.7893],[8.5736,45.7903],[8.5679,45.7884],[8.5523,45.7881],[8.5548,45.7981],[8.5583,45.8036],[8.5635,45.8072],[8.5801,45.8129],[8.5964,45.7961],[8.6016,45.7928]]]}},{"type":"Feature","properties":{"i":"012117","n":"Saltrio"},"geometry":{"type":"Polygon","coordinates":[[[8.9184,45.8619],[8.9166,45.862],[8.9163,45.8628],[8.9161,45.8784],[8.917,45.883],[8.9211,45.8891],[8.9243,45.8921],[8.9273,45.8916],[8.9322,45.8847],[8.9338,45.8798],[8.9348,45.8714],[8.9331,45.8678],[8.929,45.8662],[8.9232,45.8657],[8.9201,45.8641],[8.9184,45.8619]]]}},{"type":"Feature","properties":{"i":"012118","n":"Samarate"},"geometry":{"type":"Polygon","coordinates":[[[8.8192,45.6313],[8.8199,45.6309],[8.8184,45.6281],[8.8128,45.6205],[8.8057,45.6125],[8.8049,45.6069],[8.8064,45.6017],[8.7862,45.6024],[8.774,45.6063],[8.7769,45.6083],[8.7665,45.62],[8.7572,45.6227],[8.7537,45.6214],[8.7456,45.6231],[8.7341,45.6277],[8.7278,45.6318],[8.7265,45.6341],[8.7303,45.6344],[8.7306,45.6337],[8.7459,45.6351],[8.7667,45.6342],[8.7832,45.6363],[8.7918,45.6426],[8.8192,45.6313]]]}},{"type":"Feature","properties":{"i":"012119","n":"Saronno"},"geometry":{"type":"Polygon","coordinates":[[[9.0557,45.6465],[9.0548,45.6451],[9.0579,45.6423],[9.0625,45.6411],[9.0617,45.6368],[9.0573,45.6366],[9.0518,45.6334],[9.0532,45.6152],[9.0545,45.6129],[9.0577,45.6128],[9.0581,45.6095],[9.0576,45.6088],[9.0519,45.6089],[9.0493,45.6106],[9.0451,45.6112],[9.0346,45.6101],[9.0315,45.6094],[9.0306,45.6085],[9.0195,45.61],[9.0127,45.6262],[9.0177,45.6271],[9.017,45.6311],[9.0169,45.6416],[9.0205,45.6432],[9.0361,45.6425],[9.0433,45.6431],[9.0557,45.6465]]]}},{"type":"Feature","properties":{"i":"012120","n":"Sesto Calende"},"geometry":{"type":"Polygon","coordinates":[[[8.6627,45.7754],[8.6621,45.7676],[8.6554,45.755],[8.6545,45.749],[8.6635,45.738],[8.6726,45.7362],[8.6783,45.718],[8.6711,45.7109],[8.6649,45.7128],[8.6591,45.713],[8.6542,45.712],[8.6488,45.7196],[8.6429,45.7232],[8.6346,45.7228],[8.6001,45.7269],[8.5946,45.7298],[8.5919,45.7323],[8.5875,45.7412],[8.5824,45.7492],[8.5927,45.7554],[8.5979,45.7561],[8.6002,45.7559],[8.612,45.749],[8.6228,45.7498],[8.6273,45.7484],[8.6363,45.7535],[8.6417,45.7626],[8.6406,45.7674],[8.641,45.7713],[8.6459,45.7775],[8.6563,45.7774],[8.6627,45.7754]]]}},{"type":"Feature","properties":{"i":"012121","n":"Solbiate Arno"},"geometry":{"type":"Polygon","coordinates":[[[8.8238,45.709],[8.8096,45.7083],[8.8044,45.711],[8.8042,45.714],[8.8057,45.7178],[8.8131,45.7293],[8.8201,45.7293],[8.8234,45.7276],[8.8244,45.726],[8.827,45.7154],[8.8265,45.7131],[8.8238,45.709]]]}},{"type":"Feature","properties":{"i":"012122","n":"Solbiate Olona"},"geometry":{"type":"Polygon","coordinates":[[[8.8916,45.6549],[8.8928,45.652],[8.8928,45.6433],[8.8891,45.6422],[8.8626,45.6402],[8.8568,45.6412],[8.8521,45.6431],[8.8542,45.646],[8.8569,45.6525],[8.8634,45.6554],[8.8813,45.6592],[8.8869,45.6595],[8.8916,45.6549]]]}},{"type":"Feature","properties":{"i":"012123","n":"Somma Lombardo"},"geometry":{"type":"Polygon","coordinates":[[[8.729,45.6756],[8.7296,45.67],[8.7251,45.665],[8.729,45.6467],[8.7235,45.6448],[8.7303,45.6344],[8.7185,45.6332],[8.7074,45.6307],[8.7067,45.6298],[8.703,45.6299],[8.7014,45.6336],[8.7047,45.6341],[8.7043,45.6371],[8.6999,45.6368],[8.6939,45.635],[8.6881,45.6319],[8.6852,45.6344],[8.6882,45.637],[8.688,45.6417],[8.682,45.65],[8.6724,45.658],[8.6698,45.6614],[8.6702,45.6642],[8.6724,45.6663],[8.6804,45.668],[8.682,45.6694],[8.6827,45.6708],[8.681,45.6766],[8.6751,45.6776],[8.6681,45.6751],[8.6637,45.6745],[8.6434,45.6755],[8.6408,45.6768],[8.6404,45.6842],[8.6414,45.6872],[8.6543,45.682],[8.6645,45.6815],[8.6757,45.6913],[8.6802,45.6924],[8.688,45.7001],[8.6931,45.7001],[8.695,45.7018],[8.7076,45.7052],[8.7102,45.7075],[8.7212,45.6969],[8.7236,45.6918],[8.7241,45.6868],[8.7272,45.6773],[8.729,45.6756]]]}},{"type":"Feature","properties":{"i":"012124","n":"Sumirago"},"geometry":{"type":"Polygon","coordinates":[[[8.7976,45.7596],[8.8004,45.7574],[8.8009,45.7524],[8.8056,45.7416],[8.8051,45.7387],[8.802,45.7352],[8.7963,45.7329],[8.7901,45.7316],[8.786,45.7255],[8.7863,45.718],[8.7794,45.7123],[8.7568,45.7155],[8.7556,45.7178],[8.7567,45.7256],[8.7612,45.728],[8.7698,45.7394],[8.7775,45.7463],[8.7748,45.7554],[8.7859,45.7665],[8.7925,45.7605],[8.7947,45.7595],[8.7976,45.7596]]]}},{"type":"Feature","properties":{"i":"012125","n":"Taino"},"geometry":{"type":"Polygon","coordinates":[[[8.6409,45.7652],[8.6415,45.7618],[8.6361,45.7531],[8.6273,45.7484],[8.6228,45.7498],[8.612,45.749],[8.6007,45.7553],[8.6028,45.7612],[8.6014,45.7623],[8.6019,45.7724],[8.6035,45.7764],[8.6066,45.7761],[8.6073,45.7768],[8.6081,45.7803],[8.6116,45.7811],[8.6368,45.7664],[8.6409,45.7652]]]}},{"type":"Feature","properties":{"i":"012126","n":"Ternate"},"geometry":{"type":"Polygon","coordinates":[[[8.7127,45.7948],[8.7138,45.7917],[8.7126,45.7852],[8.7027,45.7817],[8.7002,45.7798],[8.6991,45.776],[8.6852,45.7732],[8.6816,45.7735],[8.6808,45.7797],[8.6816,45.7874],[8.6808,45.7893],[8.6841,45.7901],[8.6907,45.7952],[8.6907,45.7966],[8.6938,45.7978],[8.7006,45.7961],[8.7127,45.7948]]]}},{"type":"Feature","properties":{"i":"012127","n":"Tradate"},"geometry":{"type":"Polygon","coordinates":[[[8.93,45.7475],[8.9427,45.745],[8.9412,45.7443],[8.9393,45.7395],[8.9395,45.7372],[8.9437,45.7341],[8.9477,45.7331],[8.9509,45.7255],[8.9506,45.7207],[8.9515,45.7147],[8.9508,45.7125],[8.9474,45.7078],[8.9479,45.7066],[8.9402,45.7106],[8.9312,45.7065],[8.9319,45.6969],[8.9151,45.6887],[8.9055,45.6856],[8.8947,45.6846],[8.8915,45.6911],[8.8937,45.6928],[8.8935,45.6958],[8.8914,45.6995],[8.8837,45.7228],[8.8808,45.724],[8.883,45.7274],[8.8949,45.724],[8.9056,45.7272],[8.9202,45.7368],[8.9219,45.7399],[8.9234,45.7457],[8.9271,45.7477],[8.93,45.7475]]]}},{"type":"Feature","properties":{"i":"012128","n":"Travedona-Monate"},"geometry":{"type":"Polygon","coordinates":[[[8.6924,45.8143],[8.696,45.81],[8.6993,45.8031],[8.701,45.798],[8.7006,45.7961],[8.6938,45.7978],[8.6907,45.7966],[8.6907,45.7952],[8.6841,45.7901],[8.6739,45.7883],[8.6534,45.7993],[8.6471,45.8085],[8.6459,45.8115],[8.6462,45.8131],[8.6448,45.814],[8.6403,45.8138],[8.6403,45.8155],[8.6586,45.8208],[8.6631,45.8204],[8.6748,45.8138],[8.6861,45.8121],[8.6912,45.8128],[8.6924,45.8143]]]}},{"type":"Feature","properties":{"i":"012129","n":"Tronzano Lago Maggiore"},"geometry":{"type":"Polygon","coordinates":[[[8.714,46.066],[8.7106,46.0742],[8.7057,46.0814],[8.7056,46.0851],[8.7079,46.0908],[8.7184,46.1019],[8.736,46.0967],[8.7517,46.0993],[8.7544,46.0972],[8.7613,46.0848],[8.7589,46.0819],[8.7472,46.0776],[8.7382,46.073],[8.7274,46.0689],[8.714,46.066]]]}},{"type":"Feature","properties":{"i":"012130","n":"Uboldo"},"geometry":{"type":"Polygon","coordinates":[[[9.0127,45.6262],[9.0195,45.61],[9.0156,45.6087],[8.9747,45.5867],[8.971,45.5909],[8.9703,45.5929],[8.9697,45.5983],[8.9707,45.6044],[8.9673,45.6083],[8.9782,45.6146],[8.9739,45.618],[8.9762,45.6174],[8.9782,45.6182],[8.994,45.628],[9.0049,45.6278],[9.0127,45.6262]]]}},{"type":"Feature","properties":{"i":"012131","n":"Valganna"},"geometry":{"type":"Polygon","coordinates":[[[8.85,45.9187],[8.8448,45.912],[8.8398,45.9086],[8.8386,45.9046],[8.838,45.8951],[8.8446,45.8841],[8.8389,45.8719],[8.8359,45.8717],[8.832,45.8727],[8.8298,45.875],[8.8257,45.8829],[8.8027,45.8986],[8.8014,45.9059],[8.8058,45.909],[8.8086,45.9089],[8.8097,45.9107],[8.8081,45.9156],[8.8064,45.9174],[8.8152,45.9202],[8.8171,45.926],[8.8194,45.929],[8.8223,45.9298],[8.8277,45.9293],[8.8296,45.9271],[8.8295,45.9263],[8.837,45.9202],[8.85,45.9187]]]}},{"type":"Feature","properties":{"i":"012132","n":"Varano Borghi"},"geometry":{"type":"Polygon","coordinates":[[[8.7145,45.7661],[8.7127,45.7654],[8.7085,45.7608],[8.7001,45.7602],[8.6914,45.7616],[8.6948,45.7683],[8.6928,45.7748],[8.6991,45.776],[8.7002,45.7798],[8.7027,45.7817],[8.7126,45.7852],[8.7109,45.7761],[8.7151,45.7711],[8.7145,45.7661]]]}},{"type":"Feature","properties":{"i":"012133","n":"Varese"},"geometry":{"type":"Polygon","coordinates":[[[8.8113,45.8826],[8.8148,45.8781],[8.8156,45.8759],[8.8152,45.8717],[8.8131,45.8675],[8.8153,45.8611],[8.8181,45.8607],[8.8233,45.8558],[8.8211,45.8444],[8.8223,45.8428],[8.8249,45.8408],[8.8384,45.835],[8.8613,45.8368],[8.8645,45.8395],[8.8645,45.8365],[8.8666,45.8279],[8.8685,45.8264],[8.8678,45.8144],[8.8688,45.81],[8.8678,45.8083],[8.8644,45.8057],[8.8684,45.8003],[8.8669,45.7968],[8.8633,45.7953],[8.8592,45.7925],[8.8562,45.7889],[8.8564,45.788],[8.8661,45.7839],[8.8653,45.7825],[8.8594,45.7792],[8.851,45.7794],[8.8421,45.786],[8.8376,45.7911],[8.8316,45.7928],[8.8256,45.7854],[8.8218,45.7837],[8.8202,45.7844],[8.8205,45.785],[8.818,45.7851],[8.8069,45.7904],[8.7964,45.7977],[8.7916,45.7988],[8.7814,45.7983],[8.7694,45.7997],[8.7522,45.8053],[8.7407,45.8119],[8.7391,45.8156],[8.7569,45.8215],[8.762,45.8225],[8.7689,45.8202],[8.7825,45.8202],[8.7861,45.8223],[8.7887,45.8289],[8.789,45.8352],[8.7791,45.8451],[8.7751,45.8457],[8.7748,45.8507],[8.7768,45.86],[8.7776,45.8684],[8.7734,45.8698],[8.7767,45.8734],[8.7839,45.8712],[8.7938,45.876],[8.7924,45.8774],[8.7943,45.8796],[8.8038,45.8839],[8.8113,45.8826]]]}},{"type":"Feature","properties":{"i":"012134","n":"Vedano Olona"},"geometry":{"type":"Polygon","coordinates":[[[8.9004,45.7848],[8.9033,45.7826],[8.9075,45.7765],[8.9061,45.7684],[8.9042,45.7681],[8.891,45.761],[8.8883,45.7588],[8.8862,45.7553],[8.8819,45.7549],[8.881,45.7594],[8.879,45.7626],[8.8686,45.7658],[8.868,45.7667],[8.8713,45.7695],[8.8719,45.7712],[8.8695,45.7808],[8.8678,45.7831],[8.8739,45.7828],[8.8915,45.7869],[8.8994,45.7862],[8.9004,45.7848]]]}},{"type":"Feature","properties":{"i":"012136","n":"Venegono Inferiore"},"geometry":{"type":"Polygon","coordinates":[[[8.9293,45.7543],[8.93,45.7475],[8.9271,45.7477],[8.9234,45.7457],[8.9219,45.7399],[8.9202,45.7368],[8.9056,45.7272],[8.8949,45.724],[8.8791,45.7283],[8.8788,45.7364],[8.8803,45.7421],[8.8832,45.7401],[8.898,45.7419],[8.9182,45.7457],[8.9195,45.7516],[8.9217,45.7551],[8.9293,45.7543]]]}},{"type":"Feature","properties":{"i":"012137","n":"Venegono Superiore"},"geometry":{"type":"Polygon","coordinates":[[[8.9217,45.7551],[8.9195,45.7516],[8.9182,45.7457],[8.898,45.7419],[8.8832,45.7401],[8.8803,45.7421],[8.8824,45.7467],[8.8865,45.752],[8.8869,45.7541],[8.8862,45.7553],[8.8883,45.7588],[8.891,45.761],[8.9042,45.7681],[8.9138,45.7694],[8.9146,45.7689],[8.9221,45.7605],[8.9217,45.7551]]]}},{"type":"Feature","properties":{"i":"012138","n":"Vergiate"},"geometry":{"type":"Polygon","coordinates":[[[8.7353,45.7375],[8.7365,45.7363],[8.7331,45.734],[8.7308,45.7336],[8.7245,45.7221],[8.7143,45.7138],[8.7109,45.7101],[8.709,45.7059],[8.7076,45.7052],[8.695,45.7018],[8.6931,45.7001],[8.6891,45.6997],[8.6711,45.7109],[8.6783,45.718],[8.6726,45.7362],[8.6783,45.7388],[8.6771,45.7433],[8.679,45.7481],[8.6914,45.7616],[8.7001,45.7602],[8.7085,45.7608],[8.7127,45.7654],[8.7145,45.7661],[8.7135,45.7617],[8.7186,45.7489],[8.7318,45.7383],[8.7353,45.7375]]]}},{"type":"Feature","properties":{"i":"012139","n":"Viggiù"},"geometry":{"type":"Polygon","coordinates":[[[8.9222,45.8949],[8.9231,45.8946],[8.9243,45.8921],[8.9211,45.8891],[8.917,45.883],[8.9162,45.8794],[8.9163,45.8628],[8.9166,45.862],[8.9184,45.8619],[8.9179,45.8582],[8.9053,45.8456],[8.9042,45.8419],[8.8953,45.8456],[8.8898,45.8605],[8.8895,45.868],[8.8907,45.8743],[8.9043,45.8901],[8.9071,45.8923],[8.914,45.8948],[8.9218,45.8939],[8.9228,45.8941],[8.9222,45.8949]]]}},{"type":"Feature","properties":{"i":"012140","n":"Vizzola Ticino"},"geometry":{"type":"Polygon","coordinates":[[[8.6852,45.6344],[8.6881,45.6319],[8.6939,45.635],[8.6999,45.6368],[8.7043,45.6371],[8.7047,45.6341],[8.7014,45.6336],[8.7014,45.6329],[8.703,45.6299],[8.7067,45.6298],[8.7092,45.6175],[8.7076,45.6151],[8.6972,45.6087],[8.6939,45.6096],[8.6899,45.6123],[8.6856,45.6176],[8.6821,45.6203],[8.678,45.6215],[8.6642,45.6211],[8.6629,45.6226],[8.6655,45.6278],[8.6659,45.6303],[8.6593,45.6369],[8.6591,45.6389],[8.6604,45.6419],[8.6617,45.6426],[8.6671,45.6428],[8.6709,45.6415],[8.6722,45.6402],[8.6735,45.6368],[8.677,45.6341],[8.6803,45.6335],[8.6852,45.6344]]]}},{"type":"Feature","properties":{"i":"012141","n":"Sangiano"},"geometry":{"type":"Polygon","coordinates":[[[8.6392,45.8849],[8.6414,45.8813],[8.6415,45.8796],[8.6387,45.8743],[8.638,45.8671],[8.6338,45.866],[8.6292,45.8695],[8.6253,45.8748],[8.6247,45.8775],[8.6251,45.8818],[8.6291,45.8868],[8.632,45.8886],[8.6333,45.8885],[8.6392,45.8849]]]}},{"type":"Feature","properties":{"i":"012142","n":"Maccagno con Pino e Veddasca"},"geometry":{"type":"Polygon","coordinates":[[[8.8471,46.0758],[8.8435,46.0745],[8.8296,46.0749],[8.8211,46.0772],[8.8101,46.078],[8.8148,46.0742],[8.8146,46.0722],[8.8131,46.07],[8.806,46.0649],[8.8007,46.0624],[8.791,46.0601],[8.7793,46.0531],[8.7669,46.0494],[8.7662,46.0474],[8.768,46.0469],[8.7659,46.0451],[8.7516,46.0402],[8.7496,46.0356],[8.7503,46.0293],[8.748,46.0277],[8.729,46.0268],[8.7275,46.0324],[8.7224,46.0381],[8.7206,46.041],[8.7176,46.0514],[8.7156,46.0623],[8.714,46.066],[8.7274,46.0689],[8.7382,46.073],[8.7472,46.0776],[8.7589,46.0819],[8.7613,46.0848],[8.7544,46.0972],[8.7517,46.0993],[8.736,46.0967],[8.7184,46.1019],[8.7246,46.1102],[8.7427,46.1221],[8.7568,46.1038],[8.7593,46.1021],[8.7834,46.0939],[8.8004,46.0953],[8.8061,46.1009],[8.8078,46.1004],[8.8153,46.0973],[8.8327,46.0835],[8.8387,46.0811],[8.8471,46.0758]]]}},{"type":"Feature","properties":{"i":"012143","n":"Cadrezzate con Osmate"},"geometry":{"type":"Polygon","coordinates":[[[8.6739,45.7883],[8.6682,45.7849],[8.6698,45.7774],[8.6627,45.7754],[8.6563,45.7774],[8.6467,45.7779],[8.6456,45.7772],[8.6407,45.7786],[8.6296,45.7905],[8.6261,45.7908],[8.6262,45.7971],[8.6301,45.8041],[8.6427,45.8083],[8.6428,45.8103],[8.6403,45.8138],[8.6448,45.814],[8.6462,45.8131],[8.6459,45.8115],[8.6471,45.8085],[8.6534,45.7993],[8.6739,45.7883]]]}}]}
