{"type":"FeatureCollection","fonte":"Confini comunali ISTAT via openpolis/geojson-italy — CC BY 4.0","features":[{"type":"Feature","properties":{"i":"103001","n":"Antrona Schieranco"},"geometry":{"type":"Polygon","coordinates":[[[8.1081,46.1116],[8.1216,46.1033],[8.1426,46.0962],[8.1474,46.0931],[8.149,46.0883],[8.153,46.0836],[8.1557,46.0779],[8.1565,46.0729],[8.156,46.0683],[8.1589,46.0653],[8.1653,46.061],[8.165,46.0536],[8.16,46.0434],[8.1542,46.0353],[8.1429,46.0246],[8.1359,46.0256],[8.1223,46.0256],[8.1097,46.0283],[8.1055,46.0274],[8.0907,46.0127],[8.081,46.0106],[8.0714,46.0056],[8.062,46.0027],[8.0555,46.002],[8.0337,46.0028],[8.0122,46.0119],[8.0148,46.0288],[8.014,46.0326],[8.0214,46.0386],[8.0305,46.0417],[8.0332,46.0471],[8.0261,46.0598],[8.0224,46.0697],[8.0232,46.0753],[8.0259,46.0783],[8.0298,46.0854],[8.0328,46.0976],[8.037,46.1004],[8.0457,46.1007],[8.0594,46.1032],[8.0705,46.1063],[8.084,46.1058],[8.1081,46.1116]]]}},{"type":"Feature","properties":{"i":"103002","n":"Anzola d'Ossola"},"geometry":{"type":"Polygon","coordinates":[[[8.3648,45.985],[8.3539,45.9613],[8.3548,45.9584],[8.3545,45.956],[8.3528,45.9537],[8.3471,45.9493],[8.3317,45.9484],[8.323,45.9487],[8.3139,45.9524],[8.3096,45.9558],[8.3165,45.9623],[8.3285,45.977],[8.3322,45.986],[8.3312,45.9899],[8.3317,45.9925],[8.3449,45.9945],[8.3616,45.9941],[8.363,45.9902],[8.3636,45.9853],[8.3648,45.985]]]}},{"type":"Feature","properties":{"i":"103003","n":"Arizzano"},"geometry":{"type":"Polygon","coordinates":[[[8.591,45.9632],[8.591,45.96],[8.5886,45.9503],[8.589,45.9485],[8.5703,45.9506],[8.5729,45.9598],[8.5801,45.9582],[8.5841,45.9586],[8.5875,45.9599],[8.5836,45.9635],[8.584,45.9651],[8.591,45.9632]]]}},{"type":"Feature","properties":{"i":"103004","n":"Arola"},"geometry":{"type":"Polygon","coordinates":[[[8.3699,45.8079],[8.3605,45.8048],[8.3301,45.8069],[8.3223,45.8091],[8.3292,45.8299],[8.3343,45.829],[8.3536,45.823],[8.3625,45.8222],[8.3678,45.8164],[8.3662,45.8099],[8.3699,45.8079]]]}},{"type":"Feature","properties":{"i":"103005","n":"Aurano"},"geometry":{"type":"Polygon","coordinates":[[[8.626,46.0246],[8.6225,46.0248],[8.6162,46.0208],[8.6158,46.0195],[8.6181,46.0153],[8.6114,46.002],[8.6047,45.9981],[8.6025,45.9997],[8.5871,45.9943],[8.5846,45.9943],[8.5833,45.9975],[8.5846,46.0057],[8.5799,46.0132],[8.565,46.0253],[8.5578,46.0263],[8.5383,46.02],[8.5343,46.0248],[8.5324,46.0315],[8.5358,46.045],[8.5605,46.0448],[8.5662,46.0467],[8.5741,46.0448],[8.5925,46.0376],[8.5984,46.0329],[8.6011,46.0326],[8.6069,46.0349],[8.612,46.0342],[8.619,46.0311],[8.6228,46.0283],[8.626,46.0246]]]}},{"type":"Feature","properties":{"i":"103006","n":"Baceno"},"geometry":{"type":"Polygon","coordinates":[[[8.3433,46.3581],[8.3385,46.3516],[8.3408,46.3376],[8.3107,46.324],[8.2983,46.314],[8.293,46.3047],[8.2872,46.3035],[8.273,46.3038],[8.2757,46.2953],[8.2779,46.2918],[8.2944,46.2838],[8.3025,46.2867],[8.3146,46.2888],[8.3204,46.2887],[8.3224,46.2848],[8.325,46.2745],[8.3252,46.2665],[8.3238,46.2597],[8.3238,46.2553],[8.3291,46.2516],[8.3316,46.2481],[8.3302,46.2471],[8.3115,46.2527],[8.2995,46.2571],[8.2817,46.2542],[8.2705,46.2571],[8.2697,46.2581],[8.2779,46.2674],[8.2778,46.272],[8.2765,46.2739],[8.2663,46.2731],[8.2584,46.2767],[8.2517,46.2801],[8.2565,46.2858],[8.2397,46.2925],[8.2334,46.2924],[8.2264,46.29],[8.2199,46.2863],[8.2125,46.2846],[8.2044,46.2911],[8.2047,46.295],[8.204,46.2969],[8.1962,46.3024],[8.1988,46.3023],[8.2032,46.3043],[8.2117,46.3106],[8.2126,46.3143],[8.2255,46.3351],[8.2351,46.3403],[8.2387,46.3402],[8.2498,46.3423],[8.2577,46.3456],[8.2611,46.3479],[8.2655,46.3529],[8.2649,46.3569],[8.2609,46.3605],[8.2634,46.3637],[8.2729,46.3667],[8.2848,46.3651],[8.292,46.3698],[8.3145,46.381],[8.3164,46.3843],[8.3187,46.3863],[8.3223,46.3851],[8.3224,46.383],[8.3299,46.3752],[8.3404,46.3695],[8.3433,46.3581]]]}},{"type":"Feature","properties":{"i":"103007","n":"Bannio Anzino"},"geometry":{"type":"Polygon","coordinates":[[[8.1922,45.9504],[8.1799,45.9484],[8.16,45.9362],[8.154,45.9338],[8.117,45.9313],[8.1142,45.9319],[8.1057,45.9297],[8.0976,45.924],[8.0885,45.9226],[8.086,45.9224],[8.0756,45.9296],[8.065,45.9351],[8.0715,45.9388],[8.0863,45.9496],[8.0969,45.9539],[8.1099,45.9551],[8.1209,45.9609],[8.1224,45.9629],[8.1233,45.9659],[8.122,45.9692],[8.1156,45.9783],[8.1183,45.9809],[8.1286,45.9848],[8.1322,45.9873],[8.1319,45.9917],[8.1305,45.993],[8.1342,45.9967],[8.1373,45.9976],[8.1557,45.9923],[8.1578,45.9862],[8.1598,45.9845],[8.1641,45.9827],[8.1891,45.9799],[8.1868,45.9747],[8.1861,45.9671],[8.1918,45.9586],[8.1927,45.9557],[8.1922,45.9504]]]}},{"type":"Feature","properties":{"i":"103008","n":"Baveno"},"geometry":{"type":"Polygon","coordinates":[[[8.5347,45.9186],[8.515,45.9021],[8.5194,45.898],[8.5129,45.8934],[8.5078,45.8978],[8.5033,45.8997],[8.4981,45.8992],[8.4932,45.8961],[8.4818,45.8984],[8.4755,45.904],[8.4648,45.9095],[8.4591,45.9103],[8.4599,45.9153],[8.4578,45.9172],[8.4556,45.9216],[8.4565,45.9258],[8.4736,45.9275],[8.4756,45.9322],[8.4786,45.9354],[8.4906,45.9359],[8.5347,45.9186]]]}},{"type":"Feature","properties":{"i":"103009","n":"Bee"},"geometry":{"type":"Polygon","coordinates":[[[8.5911,45.9692],[8.591,45.9632],[8.584,45.9651],[8.5836,45.9635],[8.5875,45.9599],[8.5801,45.9582],[8.5729,45.9598],[8.5668,45.9647],[8.5655,45.9685],[8.5657,45.9703],[8.5679,45.9737],[8.5771,45.9809],[8.5828,45.9807],[8.5904,45.9724],[8.5911,45.9692]]]}},{"type":"Feature","properties":{"i":"103010","n":"Belgirate"},"geometry":{"type":"Polygon","coordinates":[[[8.5923,45.8524],[8.5946,45.8448],[8.5951,45.8385],[8.5952,45.8336],[8.5938,45.8282],[8.5781,45.8336],[8.5689,45.8341],[8.5618,45.8376],[8.563,45.8409],[8.5634,45.8457],[8.5603,45.8518],[8.5685,45.8595],[8.578,45.8606],[8.5869,45.8604],[8.5923,45.8524]]]}},{"type":"Feature","properties":{"i":"103011","n":"Beura-Cardezza"},"geometry":{"type":"Polygon","coordinates":[[[8.3785,46.0533],[8.3786,46.0492],[8.3774,46.0448],[8.3731,46.0379],[8.3672,46.0365],[8.353,46.0388],[8.3471,46.0356],[8.3464,46.0325],[8.3414,46.031],[8.3254,46.0351],[8.3216,46.0378],[8.2863,46.0415],[8.2709,46.0424],[8.2701,46.0479],[8.2792,46.0587],[8.2873,46.0663],[8.2883,46.0685],[8.289,46.0793],[8.2918,46.0836],[8.3068,46.0928],[8.3087,46.0903],[8.3236,46.082],[8.3255,46.077],[8.3304,46.0706],[8.3391,46.0686],[8.3464,46.064],[8.3463,46.062],[8.3451,46.0609],[8.3362,46.0566],[8.3437,46.0536],[8.3491,46.0536],[8.3527,46.0538],[8.3556,46.0575],[8.3584,46.0577],[8.3785,46.0533]]]}},{"type":"Feature","properties":{"i":"103012","n":"Bognanco"},"geometry":{"type":"Polygon","coordinates":[[[8.2187,46.0938],[8.2145,46.0962],[8.2046,46.0965],[8.1917,46.1022],[8.1857,46.0992],[8.1729,46.0953],[8.1593,46.0953],[8.1474,46.0931],[8.1426,46.0962],[8.1216,46.1033],[8.1081,46.1116],[8.1124,46.1162],[8.115,46.1303],[8.1264,46.1355],[8.1352,46.1369],[8.1416,46.1361],[8.1503,46.1413],[8.1541,46.1478],[8.1533,46.1524],[8.1501,46.1566],[8.1495,46.1593],[8.1501,46.1625],[8.1511,46.1651],[8.1616,46.1752],[8.1648,46.1768],[8.1703,46.1763],[8.1792,46.1773],[8.1874,46.1808],[8.1962,46.1792],[8.1979,46.1743],[8.2035,46.1685],[8.2061,46.1634],[8.2106,46.151],[8.2068,46.1485],[8.2078,46.1399],[8.2103,46.134],[8.2155,46.1257],[8.2184,46.1245],[8.2291,46.1226],[8.2384,46.1223],[8.2499,46.1199],[8.2436,46.1086],[8.2304,46.0997],[8.2187,46.0938]]]}},{"type":"Feature","properties":{"i":"103013","n":"Brovello-Carpugnino"},"geometry":{"type":"Polygon","coordinates":[[[8.5512,45.8516],[8.5451,45.8472],[8.5411,45.8385],[8.5337,45.8401],[8.5286,45.8402],[8.5242,45.8391],[8.5199,45.836],[8.5168,45.8354],[8.5062,45.8347],[8.498,45.8331],[8.495,45.8346],[8.4982,45.8473],[8.5065,45.8485],[8.519,45.8488],[8.5259,45.8471],[8.528,45.8512],[8.5282,45.8536],[8.5306,45.8591],[8.5344,45.8612],[8.5353,45.8628],[8.5324,45.872],[8.5435,45.8687],[8.5471,45.8687],[8.5489,45.8674],[8.5506,45.8599],[8.5503,45.8554],[8.5512,45.8516]]]}},{"type":"Feature","properties":{"i":"103014","n":"Calasca-Castiglione"},"geometry":{"type":"Polygon","coordinates":[[[8.225,46.0377],[8.2289,46.0343],[8.232,46.0285],[8.2321,46.0258],[8.2297,46.0116],[8.2274,46.0075],[8.2212,46.0006],[8.2214,45.9969],[8.2342,45.9874],[8.2367,45.9813],[8.2359,45.9731],[8.2374,45.9552],[8.231,45.9539],[8.2182,45.9545],[8.2159,45.9518],[8.2161,45.9491],[8.2131,45.9461],[8.209,45.945],[8.1922,45.9504],[8.1927,45.9557],[8.1918,45.9586],[8.1861,45.9671],[8.1868,45.9747],[8.1891,45.9799],[8.1641,45.9827],[8.1598,45.9845],[8.1578,45.9862],[8.1557,45.9923],[8.1373,45.9976],[8.1357,46.0014],[8.1323,46.0029],[8.0967,46.0063],[8.0907,46.0127],[8.105,46.0271],[8.1079,46.0281],[8.1223,46.0256],[8.1359,46.0256],[8.1477,46.0241],[8.1591,46.0246],[8.1888,46.0308],[8.1918,46.0324],[8.1933,46.0352],[8.2017,46.0371],[8.2235,46.0385],[8.225,46.0377]]]}},{"type":"Feature","properties":{"i":"103015","n":"Cambiasca"},"geometry":{"type":"Polygon","coordinates":[[[8.565,45.9769],[8.5498,45.9633],[8.5488,45.9597],[8.5501,45.9576],[8.5491,45.9569],[8.5416,45.9591],[8.5259,45.9663],[8.5251,45.9707],[8.5233,45.9731],[8.5306,45.9732],[8.5405,45.9785],[8.5461,45.9801],[8.5473,45.9763],[8.5504,45.9745],[8.5564,45.9745],[8.565,45.9769]]]}},{"type":"Feature","properties":{"i":"103016","n":"Cannero Riviera"},"geometry":{"type":"Polygon","coordinates":[[[8.6982,46.0269],[8.7148,46.0082],[8.7007,45.9999],[8.6906,45.9928],[8.6605,46.0073],[8.6605,46.0085],[8.6552,46.0121],[8.6433,46.0138],[8.6369,46.0159],[8.6259,46.0245],[8.6347,46.0279],[8.6468,46.0304],[8.6581,46.0266],[8.6683,46.0258],[8.69,46.0252],[8.695,46.0257],[8.6982,46.0269]]]}},{"type":"Feature","properties":{"i":"103017","n":"Cannobio"},"geometry":{"type":"Polygon","coordinates":[[[8.7148,46.098],[8.7079,46.0908],[8.7056,46.0851],[8.7055,46.0819],[8.7116,46.0723],[8.7156,46.0623],[8.7176,46.0514],[8.7206,46.041],[8.7224,46.0381],[8.7275,46.0324],[8.7291,46.0263],[8.7289,46.0234],[8.7264,46.018],[8.7221,46.0134],[8.7148,46.0082],[8.6982,46.0269],[8.7027,46.0305],[8.7037,46.035],[8.7023,46.0415],[8.6986,46.0447],[8.6907,46.0477],[8.6865,46.0482],[8.6806,46.045],[8.6803,46.0431],[8.6734,46.0423],[8.6405,46.0469],[8.6304,46.0474],[8.627,46.0455],[8.6177,46.0482],[8.6155,46.0498],[8.6027,46.0528],[8.5973,46.0518],[8.5988,46.0557],[8.5933,46.0576],[8.601,46.0719],[8.6081,46.0709],[8.6158,46.0683],[8.624,46.0669],[8.6463,46.0661],[8.6496,46.0681],[8.6474,46.0745],[8.6443,46.0801],[8.6401,46.0834],[8.6351,46.0941],[8.6368,46.0975],[8.6408,46.102],[8.6414,46.1059],[8.6404,46.1103],[8.6428,46.1174],[8.6477,46.1232],[8.6598,46.1121],[8.681,46.107],[8.6891,46.1018],[8.7035,46.1006],[8.7148,46.098]]]}},{"type":"Feature","properties":{"i":"103018","n":"Caprezzo"},"geometry":{"type":"Polygon","coordinates":[[[8.5702,45.9815],[8.565,45.9769],[8.5555,45.9744],[8.5501,45.9747],[8.5473,45.9763],[8.5461,45.9818],[8.5384,45.9878],[8.5371,45.9908],[8.537,45.9944],[8.5354,45.9964],[8.5301,46.0014],[8.5237,46.005],[8.5402,46.0125],[8.5459,46.0084],[8.5577,45.9962],[8.57,45.9893],[8.571,45.9875],[8.5702,45.9815]]]}},{"type":"Feature","properties":{"i":"103019","n":"Casale Corte Cerro"},"geometry":{"type":"Polygon","coordinates":[[[8.422,45.9008],[8.417,45.9019],[8.3987,45.9025],[8.3881,45.9036],[8.3888,45.9119],[8.3826,45.9159],[8.3858,45.9201],[8.3871,45.9241],[8.3877,45.9302],[8.3857,45.9327],[8.4035,45.9469],[8.4125,45.9464],[8.417,45.943],[8.417,45.9379],[8.4191,45.929],[8.4243,45.9251],[8.4293,45.9184],[8.4283,45.9128],[8.4218,45.9051],[8.422,45.9008]]]}},{"type":"Feature","properties":{"i":"103021","n":"Ceppo Morelli"},"geometry":{"type":"Polygon","coordinates":[[[8.0122,46.0119],[8.0337,46.0028],[8.0555,46.002],[8.0633,46.003],[8.0739,46.0021],[8.0787,46.0004],[8.0849,45.9956],[8.09,45.9902],[8.0965,45.9804],[8.1001,45.9736],[8.0933,45.9732],[8.0936,45.9645],[8.0982,45.9601],[8.0969,45.9539],[8.0853,45.9492],[8.0715,45.9388],[8.065,45.9351],[8.0577,45.9358],[8.0478,45.9349],[8.0443,45.9363],[8.0453,45.9386],[8.0447,45.9402],[8.0363,45.9538],[8.0332,45.9566],[8.0315,45.9655],[8.0349,45.9677],[8.0363,45.9698],[8.037,45.9717],[8.0356,45.9744],[8.0226,45.9762],[8.006,45.9829],[7.9983,45.9897],[7.9963,45.9925],[7.9882,45.9963],[7.9934,45.9997],[7.998,46.0066],[8.006,46.0117],[8.0122,46.0119]]]}},{"type":"Feature","properties":{"i":"103022","n":"Cesara"},"geometry":{"type":"Polygon","coordinates":[[[8.3774,45.8385],[8.3754,45.8285],[8.3778,45.8213],[8.3821,45.8126],[8.3799,45.8093],[8.3752,45.8058],[8.3662,45.8099],[8.3678,45.8164],[8.3625,45.8222],[8.3536,45.823],[8.3343,45.829],[8.3292,45.8299],[8.3227,45.8328],[8.3211,45.837],[8.3237,45.8402],[8.3315,45.8419],[8.3357,45.844],[8.3358,45.8455],[8.3347,45.8468],[8.3515,45.8507],[8.3594,45.8506],[8.3642,45.8491],[8.3725,45.842],[8.3739,45.8382],[8.3747,45.8377],[8.3774,45.8385]]]}},{"type":"Feature","properties":{"i":"103023","n":"Cossogno"},"geometry":{"type":"Polygon","coordinates":[[[8.5112,46.0514],[8.5086,46.0465],[8.5082,46.0429],[8.5044,46.0362],[8.4967,46.0317],[8.4932,46.027],[8.4937,46.0228],[8.4989,46.0102],[8.4999,46.0019],[8.5015,45.9987],[8.5106,45.9979],[8.5192,46.0003],[8.5143,45.9907],[8.5093,45.9777],[8.5098,45.9759],[8.5154,45.9738],[8.5198,45.9734],[8.5197,45.9617],[8.5038,45.9588],[8.501,45.9592],[8.4981,45.9663],[8.4899,45.974],[8.4826,45.977],[8.4814,45.9795],[8.4815,45.9859],[8.4828,45.9893],[8.4817,45.9931],[8.4768,45.9975],[8.4742,45.9986],[8.453,46.0027],[8.449,46.0046],[8.443,46.0095],[8.4406,46.0121],[8.4423,46.0133],[8.4436,46.0202],[8.4376,46.0257],[8.4295,46.0292],[8.4273,46.0292],[8.4195,46.0351],[8.4227,46.0394],[8.423,46.0418],[8.4225,46.0429],[8.4173,46.0468],[8.422,46.0565],[8.4233,46.0566],[8.4281,46.0555],[8.4294,46.0531],[8.4295,46.051],[8.4319,46.0477],[8.4371,46.0435],[8.4394,46.0431],[8.4532,46.0446],[8.4597,46.0473],[8.4595,46.0497],[8.4643,46.0539],[8.4842,46.0606],[8.4896,46.0606],[8.4989,46.0585],[8.5078,46.0528],[8.5112,46.0514]]]}},{"type":"Feature","properties":{"i":"103024","n":"Craveggia"},"geometry":{"type":"Polygon","coordinates":[[[8.5457,46.1962],[8.5442,46.196],[8.5376,46.1896],[8.5377,46.186],[8.5334,46.1644],[8.5374,46.1613],[8.5428,46.1542],[8.5446,46.1486],[8.5439,46.1468],[8.5357,46.1409],[8.5307,46.1398],[8.5123,46.1382],[8.5085,46.139],[8.5076,46.1409],[8.5015,46.1413],[8.4975,46.1407],[8.4886,46.1347],[8.4885,46.1321],[8.481,46.1231],[8.4673,46.1197],[8.4613,46.1214],[8.4668,46.1218],[8.4707,46.125],[8.4748,46.1335],[8.4745,46.136],[8.4754,46.1397],[8.4798,46.1546],[8.4802,46.1711],[8.5008,46.178],[8.5051,46.1889],[8.5088,46.1925],[8.5169,46.1982],[8.5195,46.1986],[8.5139,46.2005],[8.508,46.2048],[8.4939,46.2082],[8.4916,46.2094],[8.4924,46.2137],[8.4901,46.2179],[8.4672,46.2282],[8.4666,46.2306],[8.4688,46.2335],[8.4773,46.2306],[8.4862,46.2302],[8.4933,46.2288],[8.5045,46.2248],[8.5326,46.2171],[8.5355,46.2066],[8.5395,46.1995],[8.5407,46.1977],[8.5457,46.1962]]]}},{"type":"Feature","properties":{"i":"103025","n":"Crevoladossola"},"geometry":{"type":"Polygon","coordinates":[[[8.3407,46.2019],[8.3422,46.2019],[8.3423,46.2012],[8.3404,46.1928],[8.3297,46.19],[8.328,46.1846],[8.3301,46.1797],[8.3288,46.1782],[8.3231,46.1742],[8.3139,46.1713],[8.3112,46.1684],[8.3109,46.1649],[8.3128,46.1542],[8.3068,46.1407],[8.3017,46.133],[8.2822,46.1261],[8.2716,46.1254],[8.2633,46.139],[8.2518,46.1434],[8.2498,46.1432],[8.2465,46.1446],[8.2385,46.1488],[8.2296,46.1561],[8.2301,46.162],[8.2336,46.1673],[8.2337,46.1681],[8.2324,46.1691],[8.2277,46.1703],[8.2221,46.1687],[8.2038,46.1755],[8.1962,46.1792],[8.2148,46.1849],[8.2223,46.1802],[8.2253,46.1797],[8.2277,46.1803],[8.2362,46.1775],[8.2399,46.1739],[8.2451,46.1743],[8.2479,46.1755],[8.252,46.1783],[8.2517,46.1789],[8.2568,46.1808],[8.2671,46.1808],[8.2785,46.1692],[8.2856,46.1683],[8.2834,46.1712],[8.282,46.1768],[8.2858,46.1936],[8.2911,46.2017],[8.3064,46.1976],[8.3074,46.1953],[8.3193,46.1943],[8.3207,46.1949],[8.3211,46.1973],[8.3244,46.2006],[8.3291,46.2018],[8.3352,46.2008],[8.3407,46.2019]]]}},{"type":"Feature","properties":{"i":"103026","n":"Crodo"},"geometry":{"type":"Polygon","coordinates":[[[8.3316,46.2481],[8.3562,46.2496],[8.3709,46.2516],[8.3857,46.2511],[8.388,46.2502],[8.3895,46.2478],[8.387,46.2438],[8.3821,46.2409],[8.3626,46.2255],[8.3489,46.2194],[8.3401,46.2113],[8.3356,46.202],[8.3407,46.2019],[8.3352,46.2008],[8.3291,46.2018],[8.3244,46.2006],[8.3211,46.1973],[8.3207,46.1949],[8.3193,46.1943],[8.3074,46.1953],[8.3064,46.1976],[8.2911,46.2017],[8.2841,46.2211],[8.2819,46.2246],[8.2768,46.2304],[8.2637,46.2416],[8.2602,46.2458],[8.2537,46.2583],[8.2383,46.2646],[8.2352,46.2652],[8.2323,46.2654],[8.2183,46.2625],[8.2132,46.2659],[8.2109,46.2723],[8.2025,46.2739],[8.1953,46.2733],[8.1944,46.2759],[8.1938,46.2818],[8.1945,46.2845],[8.2044,46.2911],[8.2133,46.2845],[8.2221,46.2871],[8.2264,46.29],[8.2334,46.2924],[8.2397,46.2925],[8.2565,46.2858],[8.2517,46.2801],[8.2547,46.2785],[8.2663,46.2731],[8.2766,46.2738],[8.2778,46.272],[8.2779,46.2674],[8.2697,46.2581],[8.2705,46.2571],[8.2817,46.2542],[8.2995,46.2571],[8.3115,46.2527],[8.3302,46.2471],[8.3316,46.2481]]]}},{"type":"Feature","properties":{"i":"103028","n":"Domodossola"},"geometry":{"type":"Polygon","coordinates":[[[8.3017,46.133],[8.3017,46.1247],[8.3063,46.1128],[8.3062,46.1093],[8.3046,46.1046],[8.3031,46.0951],[8.3068,46.0928],[8.2918,46.0836],[8.2747,46.0915],[8.2553,46.0938],[8.239,46.0912],[8.234,46.0884],[8.2327,46.0855],[8.2306,46.0881],[8.225,46.0924],[8.2187,46.0938],[8.2304,46.0997],[8.2436,46.1086],[8.2499,46.1199],[8.2384,46.1223],[8.2291,46.1226],[8.2184,46.1245],[8.2155,46.1257],[8.2103,46.134],[8.2078,46.1399],[8.2068,46.1485],[8.2106,46.151],[8.2065,46.1627],[8.2035,46.1685],[8.1979,46.1743],[8.1963,46.179],[8.2221,46.1687],[8.2277,46.1703],[8.2324,46.1691],[8.2337,46.1681],[8.2336,46.1673],[8.2301,46.162],[8.2296,46.1561],[8.2385,46.1488],[8.2465,46.1446],[8.2498,46.1432],[8.2518,46.1434],[8.2633,46.139],[8.2716,46.1254],[8.2822,46.1261],[8.3017,46.133]]]}},{"type":"Feature","properties":{"i":"103029","n":"Druogno"},"geometry":{"type":"Polygon","coordinates":[[[8.4128,46.0949],[8.4085,46.0937],[8.406,46.0943],[8.4007,46.0988],[8.3988,46.1008],[8.3973,46.1081],[8.3885,46.1138],[8.3797,46.1241],[8.3755,46.1272],[8.375,46.1329],[8.3804,46.1348],[8.381,46.136],[8.3811,46.1396],[8.3801,46.1433],[8.3821,46.1471],[8.3888,46.1546],[8.4013,46.1631],[8.4063,46.1656],[8.4284,46.1697],[8.4322,46.1693],[8.4327,46.1685],[8.4322,46.1632],[8.4297,46.1587],[8.4339,46.1521],[8.4388,46.1372],[8.4425,46.1292],[8.4444,46.1222],[8.4454,46.1148],[8.4441,46.11],[8.4418,46.1076],[8.4346,46.1041],[8.4204,46.1005],[8.413,46.0968],[8.4128,46.0949]]]}},{"type":"Feature","properties":{"i":"103031","n":"Formazza"},"geometry":{"type":"Polygon","coordinates":[[[8.444,46.3196],[8.428,46.3239],[8.4111,46.3299],[8.4014,46.3306],[8.3989,46.3316],[8.4038,46.3382],[8.4066,46.3395],[8.4073,46.3421],[8.4024,46.3581],[8.3963,46.3617],[8.3931,46.3611],[8.385,46.3622],[8.3803,46.3649],[8.3793,46.367],[8.3764,46.3683],[8.3612,46.3648],[8.3571,46.3601],[8.3478,46.3577],[8.3433,46.3581],[8.3404,46.3695],[8.3299,46.3752],[8.3224,46.383],[8.3221,46.3853],[8.3187,46.3863],[8.3142,46.3896],[8.3172,46.3946],[8.3169,46.3972],[8.3104,46.4028],[8.3062,46.4027],[8.2941,46.4055],[8.2907,46.4075],[8.2906,46.4087],[8.2991,46.4167],[8.3023,46.4233],[8.306,46.4256],[8.3094,46.4242],[8.3136,46.4239],[8.3225,46.4255],[8.3304,46.4286],[8.3394,46.4328],[8.3529,46.4432],[8.3562,46.4475],[8.3645,46.4511],[8.3743,46.4532],[8.3799,46.4509],[8.3915,46.4519],[8.4045,46.4572],[8.4373,46.4643],[8.4455,46.4637],[8.4487,46.4625],[8.4624,46.4483],[8.4658,46.4435],[8.4644,46.4402],[8.4607,46.4381],[8.4576,46.4256],[8.4577,46.4224],[8.4591,46.42],[8.4638,46.4175],[8.4685,46.4116],[8.4666,46.4089],[8.4675,46.3996],[8.4634,46.3843],[8.467,46.3741],[8.4686,46.3649],[8.462,46.3532],[8.4652,46.3341],[8.4552,46.3237],[8.4497,46.3208],[8.444,46.3196]]]}},{"type":"Feature","properties":{"i":"103032","n":"Germagno"},"geometry":{"type":"Polygon","coordinates":[[[8.3881,45.9036],[8.3924,45.8962],[8.3975,45.8917],[8.3959,45.8882],[8.3849,45.8857],[8.3751,45.8986],[8.3785,45.9011],[8.3792,45.9028],[8.3798,45.9081],[8.3785,45.9143],[8.3826,45.9159],[8.3888,45.9119],[8.3881,45.9036]]]}},{"type":"Feature","properties":{"i":"103033","n":"Ghiffa"},"geometry":{"type":"Polygon","coordinates":[[[8.6541,45.9661],[8.6087,45.9325],[8.5933,45.9425],[8.5905,45.9475],[8.589,45.9485],[8.5891,45.9528],[8.591,45.96],[8.5911,45.9692],[8.5927,45.9703],[8.5991,45.9718],[8.5997,45.9711],[8.5995,45.9672],[8.6006,45.966],[8.6039,45.9659],[8.6088,45.9675],[8.6155,45.9724],[8.6188,45.9768],[8.6196,45.9784],[8.6195,45.9831],[8.6236,45.9834],[8.6248,45.9816],[8.6316,45.9779],[8.6353,45.9773],[8.6541,45.9661]]]}},{"type":"Feature","properties":{"i":"103034","n":"Gignese"},"geometry":{"type":"Polygon","coordinates":[[[8.5324,45.872],[8.5353,45.8628],[8.5344,45.8612],[8.5306,45.8591],[8.5282,45.8536],[8.528,45.8512],[8.5259,45.8471],[8.519,45.8488],[8.5065,45.8485],[8.4982,45.8473],[8.491,45.8495],[8.4752,45.8562],[8.4732,45.8638],[8.4597,45.8729],[8.4558,45.8792],[8.4574,45.8818],[8.4598,45.8825],[8.4806,45.88],[8.4958,45.8743],[8.5119,45.8738],[8.5228,45.878],[8.5297,45.8746],[8.5324,45.872]]]}},{"type":"Feature","properties":{"i":"103035","n":"Gravellona Toce"},"geometry":{"type":"Polygon","coordinates":[[[8.4428,45.936],[8.4487,45.9353],[8.455,45.9314],[8.456,45.9299],[8.4565,45.9258],[8.4556,45.9216],[8.4578,45.9172],[8.4599,45.9153],[8.458,45.9035],[8.4591,45.8964],[8.4583,45.8946],[8.4537,45.8917],[8.4465,45.8915],[8.4229,45.8981],[8.4218,45.9051],[8.4283,45.9128],[8.4293,45.9184],[8.4243,45.9251],[8.4191,45.929],[8.417,45.9379],[8.417,45.943],[8.4125,45.9464],[8.4035,45.9469],[8.4048,45.9481],[8.4234,45.955],[8.4271,45.9526],[8.4267,45.9491],[8.4246,45.9481],[8.4236,45.9465],[8.4232,45.9428],[8.4249,45.9403],[8.4296,45.9388],[8.4378,45.9379],[8.4428,45.936]]]}},{"type":"Feature","properties":{"i":"103036","n":"Gurro"},"geometry":{"type":"Polygon","coordinates":[[[8.5304,46.0603],[8.5241,46.0606],[8.5209,46.0622],[8.5123,46.0689],[8.5135,46.0772],[8.5182,46.0844],[8.5203,46.0864],[8.5293,46.0912],[8.5584,46.095],[8.572,46.0938],[8.5811,46.0943],[8.5927,46.0911],[8.5908,46.0887],[8.5836,46.0826],[8.5756,46.0782],[8.5708,46.0782],[8.5552,46.0747],[8.5486,46.0696],[8.536,46.064],[8.5304,46.0603]]]}},{"type":"Feature","properties":{"i":"103037","n":"Intragna"},"geometry":{"type":"Polygon","coordinates":[[[8.5846,45.9943],[8.5811,45.9908],[8.5767,45.9889],[8.5746,45.9833],[8.5702,45.9815],[8.571,45.9875],[8.57,45.9893],[8.5577,45.9962],[8.5459,46.0084],[8.5402,46.0125],[8.5319,46.0084],[8.5358,46.0124],[8.5369,46.017],[8.5367,46.0193],[8.5317,46.0274],[8.5324,46.0315],[8.5343,46.0248],[8.5383,46.02],[8.5578,46.0263],[8.565,46.0253],[8.5799,46.0132],[8.5846,46.0057],[8.5833,45.9975],[8.5846,45.9943]]]}},{"type":"Feature","properties":{"i":"103038","n":"Loreglia"},"geometry":{"type":"Polygon","coordinates":[[[8.3857,45.9327],[8.3877,45.9299],[8.387,45.9233],[8.3849,45.9183],[8.3826,45.9159],[8.3785,45.9143],[8.3798,45.907],[8.3792,45.9028],[8.377,45.8997],[8.3751,45.8986],[8.3678,45.9024],[8.3578,45.9037],[8.3556,45.9047],[8.3577,45.9073],[8.3566,45.9192],[8.3511,45.9324],[8.3486,45.9454],[8.3779,45.9348],[8.3827,45.9343],[8.3857,45.9327]]]}},{"type":"Feature","properties":{"i":"103039","n":"Macugnaga"},"geometry":{"type":"Polygon","coordinates":[[[7.9882,45.9963],[7.9963,45.9925],[7.9983,45.9897],[8.006,45.9829],[8.0226,45.9762],[8.0356,45.9744],[8.037,45.9717],[8.0363,45.9698],[8.0349,45.9677],[8.0315,45.9655],[8.0332,45.9566],[8.0363,45.9538],[8.0447,45.9402],[8.0453,45.9386],[8.0443,45.9363],[8.0378,45.9323],[8.0282,45.93],[8.022,45.9296],[8.012,45.9261],[8.0012,45.9195],[7.9976,45.9164],[7.9968,45.9144],[7.9897,45.9133],[7.974,45.9046],[7.9623,45.9008],[7.9426,45.9078],[7.9392,45.9126],[7.9307,45.9183],[7.9229,45.9212],[7.9092,45.925],[7.8823,45.9274],[7.878,45.9274],[7.877,45.9264],[7.8687,45.937],[7.8702,45.9467],[7.8769,45.9549],[7.879,45.9626],[7.8789,45.9702],[7.8778,45.9723],[7.8781,45.9734],[7.8803,45.9747],[7.889,45.9771],[7.8947,45.9809],[7.9022,45.9885],[7.9064,45.9941],[7.9217,45.9969],[7.9545,45.997],[7.971,45.9985],[7.9816,45.9984],[7.9882,45.9963]]]}},{"type":"Feature","properties":{"i":"103040","n":"Madonna del Sasso"},"geometry":{"type":"Polygon","coordinates":[[[8.3699,45.8079],[8.3752,45.8058],[8.3732,45.8021],[8.377,45.7971],[8.3748,45.7842],[8.3679,45.7839],[8.3606,45.7768],[8.3494,45.7721],[8.3458,45.7716],[8.3432,45.7749],[8.3363,45.7762],[8.3348,45.7738],[8.3182,45.7669],[8.3172,45.7678],[8.3169,45.7693],[8.3192,45.7738],[8.3202,45.7784],[8.318,45.7818],[8.3205,45.7899],[8.3172,45.7924],[8.317,45.7963],[8.3202,45.8056],[8.3223,45.8091],[8.3301,45.8069],[8.3605,45.8048],[8.3699,45.8079]]]}},{"type":"Feature","properties":{"i":"103041","n":"Malesco"},"geometry":{"type":"Polygon","coordinates":[[[8.5213,46.1392],[8.5189,46.1346],[8.5191,46.1305],[8.5219,46.1265],[8.5238,46.1263],[8.5291,46.1205],[8.5219,46.1094],[8.5434,46.1132],[8.5563,46.1179],[8.5595,46.1176],[8.5613,46.1125],[8.5518,46.107],[8.5449,46.105],[8.5415,46.106],[8.5379,46.1055],[8.5238,46.1011],[8.4987,46.0732],[8.495,46.0718],[8.4874,46.0668],[8.4834,46.0605],[8.4643,46.0539],[8.4595,46.0497],[8.4597,46.0473],[8.4532,46.0446],[8.4394,46.0431],[8.4371,46.0435],[8.4319,46.0477],[8.4295,46.051],[8.4294,46.0531],[8.4281,46.0555],[8.422,46.0565],[8.4209,46.0574],[8.4209,46.0595],[8.4242,46.0632],[8.4209,46.0702],[8.4242,46.0737],[8.4369,46.0752],[8.4545,46.0755],[8.4587,46.0774],[8.4674,46.1072],[8.4722,46.1171],[8.4661,46.1172],[8.4626,46.1196],[8.4613,46.1214],[8.4673,46.1197],[8.481,46.1231],[8.4885,46.1321],[8.4886,46.1347],[8.4975,46.1407],[8.5015,46.1413],[8.5076,46.1409],[8.5085,46.139],[8.5123,46.1382],[8.5183,46.1383],[8.5213,46.1392]]]}},{"type":"Feature","properties":{"i":"103042","n":"Masera"},"geometry":{"type":"Polygon","coordinates":[[[8.4284,46.1697],[8.4063,46.1656],[8.4013,46.1631],[8.3888,46.1546],[8.3806,46.1453],[8.3801,46.1433],[8.3811,46.1396],[8.381,46.136],[8.3804,46.1348],[8.3613,46.1264],[8.3557,46.1248],[8.3414,46.1264],[8.3375,46.1272],[8.331,46.1334],[8.3266,46.1334],[8.3257,46.133],[8.322,46.1268],[8.3114,46.1161],[8.3094,46.1155],[8.3052,46.1163],[8.3017,46.1247],[8.3017,46.133],[8.3068,46.1407],[8.3228,46.1479],[8.3355,46.1513],[8.3537,46.1559],[8.3701,46.157],[8.3771,46.1586],[8.4055,46.175],[8.4114,46.18],[8.4155,46.1749],[8.4202,46.1708],[8.4284,46.1697]]]}},{"type":"Feature","properties":{"i":"103043","n":"Massiola"},"geometry":{"type":"Polygon","coordinates":[[[8.3317,45.9484],[8.3236,45.9357],[8.3233,45.9169],[8.3291,45.9147],[8.3303,45.9131],[8.3293,45.9101],[8.3177,45.9087],[8.3144,45.9093],[8.2972,45.9175],[8.2962,45.9185],[8.2953,45.9212],[8.2963,45.9277],[8.3008,45.9334],[8.3087,45.9373],[8.3097,45.9435],[8.3066,45.95],[8.3084,45.9565],[8.3139,45.9524],[8.323,45.9487],[8.3317,45.9484]]]}},{"type":"Feature","properties":{"i":"103044","n":"Mergozzo"},"geometry":{"type":"Polygon","coordinates":[[[8.4693,45.9602],[8.473,45.957],[8.475,45.9499],[8.4692,45.9431],[8.4667,45.9413],[8.4521,45.9375],[8.445,45.9372],[8.4428,45.936],[8.4378,45.9379],[8.4296,45.9388],[8.4249,45.9403],[8.4232,45.9428],[8.4236,45.9465],[8.4246,45.9481],[8.4267,45.9491],[8.4271,45.9526],[8.4234,45.955],[8.4235,45.957],[8.4273,45.9594],[8.4348,45.9597],[8.4308,45.9669],[8.4207,45.9753],[8.4152,45.9754],[8.4107,45.9839],[8.4108,45.9868],[8.4082,45.989],[8.3999,45.9914],[8.3876,45.9875],[8.3875,45.9937],[8.3918,45.9998],[8.4019,46.0222],[8.4045,46.0246],[8.4075,46.0199],[8.4131,46.0156],[8.439,45.9891],[8.4439,45.9879],[8.4513,45.9875],[8.459,45.9826],[8.4601,45.9802],[8.4575,45.9723],[8.4699,45.9683],[8.4764,45.9638],[8.4693,45.9602]]]}},{"type":"Feature","properties":{"i":"103045","n":"Miazzina"},"geometry":{"type":"Polygon","coordinates":[[[8.5304,46.0603],[8.5358,46.045],[8.5317,46.0274],[8.5367,46.0193],[8.5369,46.017],[8.5362,46.0132],[8.5339,46.01],[8.5319,46.0084],[8.5237,46.005],[8.5301,46.0014],[8.5354,45.9964],[8.537,45.9944],[8.5371,45.9908],[8.5384,45.9878],[8.5461,45.9818],[8.5461,45.9801],[8.5405,45.9785],[8.5306,45.9732],[8.5166,45.9735],[8.5098,45.9759],[8.5093,45.9777],[8.5143,45.9907],[8.5192,46.0003],[8.5106,45.9979],[8.5015,45.9987],[8.4999,46.0019],[8.4989,46.0102],[8.4937,46.0228],[8.4932,46.027],[8.4967,46.0317],[8.5044,46.0362],[8.5082,46.0429],[8.5094,46.0483],[8.5173,46.0592],[8.5209,46.0622],[8.5241,46.0606],[8.5304,46.0603]]]}},{"type":"Feature","properties":{"i":"103046","n":"Montecrestese"},"geometry":{"type":"Polygon","coordinates":[[[8.4443,46.2495],[8.4383,46.2468],[8.4358,46.2446],[8.4345,46.2385],[8.4441,46.2305],[8.4443,46.2258],[8.4394,46.2218],[8.4339,46.2199],[8.4286,46.2197],[8.4273,46.2174],[8.4281,46.2155],[8.4345,46.2105],[8.4504,46.2021],[8.4507,46.201],[8.4481,46.1956],[8.4405,46.1962],[8.417,46.1919],[8.4158,46.1901],[8.4148,46.1839],[8.4097,46.1781],[8.3771,46.1586],[8.3701,46.157],[8.3537,46.1559],[8.3355,46.1513],[8.3228,46.1479],[8.3068,46.1407],[8.3128,46.1542],[8.3109,46.1649],[8.3112,46.1684],[8.3139,46.1713],[8.3231,46.1742],[8.3288,46.1782],[8.3301,46.1797],[8.328,46.1846],[8.3297,46.19],[8.3404,46.1928],[8.3422,46.2019],[8.3356,46.202],[8.3401,46.2113],[8.3489,46.2194],[8.3626,46.2255],[8.3821,46.2409],[8.387,46.2438],[8.3893,46.2469],[8.3884,46.2498],[8.3851,46.2512],[8.3911,46.2636],[8.3913,46.2668],[8.4002,46.286],[8.4183,46.299],[8.4277,46.2984],[8.4309,46.2946],[8.4343,46.288],[8.4387,46.2832],[8.4429,46.2803],[8.4495,46.274],[8.4562,46.2635],[8.4489,46.261],[8.4427,46.2539],[8.4431,46.2508],[8.4443,46.2495]]]}},{"type":"Feature","properties":{"i":"103047","n":"Montescheno"},"geometry":{"type":"Polygon","coordinates":[[[8.2187,46.0938],[8.225,46.0924],[8.2306,46.0881],[8.2342,46.0834],[8.2351,46.0805],[8.2326,46.0718],[8.2352,46.0657],[8.2343,46.0645],[8.2285,46.0639],[8.2249,46.0614],[8.2186,46.0611],[8.2109,46.0578],[8.2084,46.055],[8.2034,46.054],[8.1993,46.0541],[8.189,46.0638],[8.1879,46.0657],[8.1809,46.0695],[8.1751,46.0704],[8.1635,46.07],[8.156,46.0705],[8.1565,46.0729],[8.1557,46.0779],[8.153,46.0836],[8.149,46.0883],[8.1474,46.0931],[8.1593,46.0953],[8.1729,46.0953],[8.1857,46.0992],[8.1917,46.1022],[8.2046,46.0965],[8.2145,46.0962],[8.2187,46.0938]]]}},{"type":"Feature","properties":{"i":"103048","n":"Nonio"},"geometry":{"type":"Polygon","coordinates":[[[8.3993,45.8543],[8.3928,45.8395],[8.3774,45.8385],[8.3747,45.8377],[8.3725,45.842],[8.3644,45.849],[8.3618,45.8501],[8.3505,45.8507],[8.3347,45.8468],[8.3317,45.849],[8.3282,45.8556],[8.3205,45.8552],[8.3186,45.8559],[8.3171,45.8595],[8.3395,45.8604],[8.3436,45.8628],[8.3439,45.8651],[8.348,45.8652],[8.3551,45.8638],[8.3602,45.8588],[8.3741,45.8601],[8.3818,45.8628],[8.3927,45.8612],[8.3993,45.8543]]]}},{"type":"Feature","properties":{"i":"103049","n":"Oggebbio"},"geometry":{"type":"Polygon","coordinates":[[[8.6906,45.9928],[8.6541,45.9661],[8.6353,45.9773],[8.6316,45.9779],[8.6248,45.9816],[8.6236,45.9834],[8.6195,45.9831],[8.6202,45.99],[8.6021,45.9936],[8.6023,45.9956],[8.6043,45.9978],[8.6114,46.002],[8.6147,46.0077],[8.6181,46.0153],[8.6158,46.0195],[8.6162,46.0208],[8.6225,46.0248],[8.6237,46.0249],[8.6256,46.0247],[8.6369,46.0159],[8.6433,46.0138],[8.6552,46.0121],[8.6605,46.0085],[8.6605,46.0073],[8.6906,45.9928]]]}},{"type":"Feature","properties":{"i":"103050","n":"Omegna"},"geometry":{"type":"Polygon","coordinates":[[[8.422,45.9008],[8.4229,45.8981],[8.4465,45.8915],[8.4507,45.8918],[8.4464,45.8849],[8.4495,45.8804],[8.4558,45.8792],[8.4574,45.8766],[8.4559,45.8735],[8.4543,45.8663],[8.4492,45.8558],[8.4356,45.8443],[8.4212,45.8364],[8.4201,45.8325],[8.4208,45.8298],[8.4111,45.8302],[8.4092,45.8314],[8.4055,45.8475],[8.3927,45.8612],[8.3818,45.8628],[8.3747,45.8603],[8.3659,45.8593],[8.3814,45.8728],[8.3847,45.8788],[8.3808,45.8837],[8.3849,45.8857],[8.3959,45.8882],[8.3975,45.8917],[8.3924,45.8962],[8.3881,45.9036],[8.3987,45.9025],[8.417,45.9019],[8.422,45.9008]]]}},{"type":"Feature","properties":{"i":"103051","n":"Ornavasso"},"geometry":{"type":"Polygon","coordinates":[[[8.4234,45.955],[8.4046,45.948],[8.3857,45.9327],[8.3827,45.9343],[8.3779,45.9348],[8.3486,45.9454],[8.3471,45.9493],[8.3528,45.9537],[8.3545,45.956],[8.3548,45.9584],[8.3539,45.9613],[8.3648,45.985],[8.3758,45.987],[8.3833,45.9867],[8.3999,45.9914],[8.409,45.9886],[8.4108,45.9868],[8.4107,45.9839],[8.4152,45.9754],[8.4207,45.9753],[8.4308,45.9669],[8.4348,45.9597],[8.4272,45.9593],[8.4235,45.957],[8.4234,45.955]]]}},{"type":"Feature","properties":{"i":"103052","n":"Pallanzeno"},"geometry":{"type":"Polygon","coordinates":[[[8.2701,46.0479],[8.2709,46.0424],[8.2696,46.0362],[8.2568,46.0374],[8.2371,46.0336],[8.2328,46.034],[8.2235,46.0385],[8.2348,46.0458],[8.236,46.0452],[8.2388,46.0455],[8.2445,46.0489],[8.2582,46.0511],[8.2701,46.0479]]]}},{"type":"Feature","properties":{"i":"103053","n":"Piedimulera"},"geometry":{"type":"Polygon","coordinates":[[[8.2696,46.0362],[8.2752,46.0247],[8.2762,46.0211],[8.2712,46.0221],[8.2619,46.0224],[8.2451,46.0189],[8.2401,46.0079],[8.2387,46.0027],[8.2357,45.9999],[8.2302,46.0005],[8.2269,46.007],[8.2297,46.0116],[8.232,46.0247],[8.232,46.0285],[8.2289,46.0343],[8.225,46.0377],[8.2328,46.034],[8.2371,46.0336],[8.2568,46.0374],[8.2696,46.0362]]]}},{"type":"Feature","properties":{"i":"103054","n":"Pieve Vergonte"},"geometry":{"type":"Polygon","coordinates":[[[8.2762,46.0211],[8.2834,46.0053],[8.2898,45.9986],[8.3089,45.9943],[8.3106,45.9951],[8.321,45.9921],[8.3317,45.9925],[8.3312,45.9899],[8.3322,45.986],[8.3285,45.977],[8.3165,45.9623],[8.3096,45.9558],[8.3084,45.9565],[8.2955,45.9537],[8.2859,45.9534],[8.2744,45.9571],[8.2647,45.954],[8.2472,45.9528],[8.2374,45.9552],[8.2359,45.9731],[8.2367,45.9813],[8.2342,45.9874],[8.2214,45.9969],[8.2212,46.0006],[8.2269,46.007],[8.2306,46.0002],[8.2365,46.0002],[8.2387,46.0027],[8.2401,46.0079],[8.2451,46.0189],[8.2619,46.0224],[8.2712,46.0221],[8.2762,46.0211]]]}},{"type":"Feature","properties":{"i":"103055","n":"Premeno"},"geometry":{"type":"Polygon","coordinates":[[[8.6047,45.9981],[8.6023,45.9956],[8.6021,45.9936],[8.6202,45.99],[8.6205,45.9889],[8.6194,45.9777],[8.6155,45.9724],[8.6088,45.9675],[8.6039,45.9659],[8.6006,45.966],[8.5995,45.9672],[8.5997,45.9711],[8.5991,45.9718],[8.5927,45.9703],[8.5911,45.9692],[8.5904,45.9724],[8.5828,45.9807],[8.5804,45.9809],[8.5746,45.9833],[8.5767,45.9889],[8.5811,45.9908],[8.5846,45.9943],[8.5871,45.9943],[8.6025,45.9997],[8.6047,45.9981]]]}},{"type":"Feature","properties":{"i":"103056","n":"Premia"},"geometry":{"type":"Polygon","coordinates":[[[8.444,46.3196],[8.4413,46.3154],[8.4401,46.3048],[8.4291,46.3004],[8.4277,46.2984],[8.4183,46.299],[8.4002,46.286],[8.3913,46.2668],[8.3911,46.2636],[8.3851,46.2512],[8.3709,46.2516],[8.3562,46.2496],[8.3316,46.2481],[8.3291,46.2516],[8.3238,46.2553],[8.3238,46.2597],[8.3252,46.2665],[8.325,46.2745],[8.3224,46.2848],[8.3204,46.2887],[8.3146,46.2888],[8.3025,46.2867],[8.2944,46.2838],[8.2779,46.2918],[8.2757,46.2953],[8.273,46.3038],[8.2872,46.3035],[8.293,46.3047],[8.2983,46.314],[8.3107,46.324],[8.3408,46.3376],[8.3385,46.3516],[8.3433,46.3581],[8.3478,46.3577],[8.3571,46.3601],[8.3612,46.3648],[8.3764,46.3683],[8.3793,46.367],[8.3803,46.3649],[8.385,46.3622],[8.3931,46.3611],[8.3963,46.3617],[8.4024,46.3581],[8.4072,46.3413],[8.4065,46.3394],[8.4038,46.3382],[8.3989,46.3316],[8.4014,46.3306],[8.4111,46.3299],[8.428,46.3239],[8.444,46.3196]]]}},{"type":"Feature","properties":{"i":"103057","n":"Premosello-Chiovenda"},"geometry":{"type":"Polygon","coordinates":[[[8.4173,46.0468],[8.4196,46.0446],[8.4025,46.0368],[8.3939,46.0301],[8.3939,46.0285],[8.3985,46.0246],[8.4045,46.0246],[8.4011,46.0211],[8.3918,45.9998],[8.3875,45.9937],[8.3876,45.9875],[8.3801,45.9865],[8.3758,45.987],[8.3648,45.985],[8.3636,45.9853],[8.363,45.9902],[8.3616,45.9941],[8.3449,45.9945],[8.3287,45.9921],[8.322,45.992],[8.3106,45.9951],[8.3122,45.9991],[8.3121,46.0031],[8.3141,46.0127],[8.3275,46.0305],[8.3317,46.034],[8.3397,46.031],[8.3422,46.031],[8.3464,46.0325],[8.3471,46.0356],[8.353,46.0388],[8.3672,46.0365],[8.3731,46.0379],[8.3774,46.0448],[8.3786,46.0492],[8.3785,46.0533],[8.3799,46.0538],[8.3849,46.0534],[8.3985,46.0487],[8.4114,46.0468],[8.4173,46.0468]]]}},{"type":"Feature","properties":{"i":"103058","n":"Quarna Sopra"},"geometry":{"type":"Polygon","coordinates":[[[8.3556,45.9047],[8.3578,45.9037],[8.3678,45.9024],[8.3751,45.8986],[8.3849,45.8857],[8.3808,45.8837],[8.3847,45.8788],[8.3814,45.8728],[8.3726,45.8655],[8.3711,45.8699],[8.347,45.8851],[8.342,45.8915],[8.3409,45.8915],[8.3392,45.8945],[8.3385,45.9033],[8.3409,45.9062],[8.3469,45.9083],[8.3487,45.9078],[8.3496,45.905],[8.3556,45.9047]]]}},{"type":"Feature","properties":{"i":"103059","n":"Quarna Sotto"},"geometry":{"type":"Polygon","coordinates":[[[8.3409,45.8915],[8.342,45.8915],[8.347,45.8851],[8.3711,45.8699],[8.3726,45.8655],[8.3659,45.8593],[8.3622,45.8588],[8.359,45.8596],[8.3571,45.8624],[8.3551,45.8638],[8.348,45.8652],[8.3439,45.8651],[8.3436,45.8628],[8.3395,45.8604],[8.3171,45.8595],[8.3167,45.8635],[8.3157,45.8653],[8.3022,45.8703],[8.2937,45.8705],[8.2951,45.8801],[8.2971,45.8811],[8.303,45.8869],[8.3022,45.8883],[8.2959,45.8899],[8.2967,45.8951],[8.2981,45.8971],[8.3108,45.8988],[8.3189,45.9048],[8.3235,45.9028],[8.3181,45.8942],[8.3192,45.8923],[8.3232,45.8904],[8.3266,45.8899],[8.3387,45.8902],[8.3409,45.8915]]]}},{"type":"Feature","properties":{"i":"103060","n":"Re"},"geometry":{"type":"Polygon","coordinates":[[[8.5457,46.1962],[8.5519,46.1928],[8.5637,46.1839],[8.5684,46.1782],[8.5737,46.1644],[8.5771,46.1619],[8.58,46.1618],[8.5991,46.1555],[8.6024,46.1536],[8.5996,46.1498],[8.5924,46.1458],[8.5931,46.1436],[8.5948,46.1422],[8.6096,46.1326],[8.6109,46.1245],[8.6042,46.1223],[8.5806,46.1192],[8.5635,46.1196],[8.5567,46.1181],[8.5512,46.1158],[8.5478,46.1202],[8.5434,46.1208],[8.5408,46.1227],[8.539,46.1254],[8.5389,46.1283],[8.5456,46.1366],[8.5476,46.1464],[8.5513,46.1472],[8.5549,46.1524],[8.5528,46.1606],[8.5432,46.1639],[8.5334,46.1644],[8.5377,46.186],[8.5376,46.1896],[8.5442,46.196],[8.5457,46.1962]]]}},{"type":"Feature","properties":{"i":"103061","n":"San Bernardino Verbano"},"geometry":{"type":"Polygon","coordinates":[[[8.5197,45.9617],[8.5225,45.9578],[8.5339,45.9536],[8.5373,45.9512],[8.5356,45.9502],[8.5207,45.9471],[8.4992,45.9462],[8.4922,45.9478],[8.4757,45.9561],[8.4693,45.9602],[8.4763,45.9635],[8.4761,45.9641],[8.4699,45.9683],[8.4575,45.9723],[8.4601,45.9802],[8.459,45.9826],[8.4513,45.9875],[8.4439,45.9879],[8.4386,45.9894],[8.4131,46.0156],[8.4075,46.0199],[8.4045,46.0246],[8.3985,46.0246],[8.3939,46.0285],[8.3939,46.0301],[8.4025,46.0368],[8.4196,46.0446],[8.4225,46.0429],[8.423,46.0418],[8.4227,46.0394],[8.4195,46.0351],[8.4273,46.0292],[8.4295,46.0292],[8.4376,46.0257],[8.4436,46.0202],[8.4423,46.0133],[8.4406,46.0121],[8.443,46.0095],[8.449,46.0046],[8.453,46.0027],[8.4742,45.9986],[8.4768,45.9975],[8.4817,45.9931],[8.4828,45.9893],[8.4815,45.9859],[8.4814,45.9795],[8.4826,45.977],[8.4895,45.9743],[8.4925,45.9718],[8.4981,45.9663],[8.5013,45.9588],[8.5107,45.9597],[8.5197,45.9617]]]}},{"type":"Feature","properties":{"i":"103062","n":"Santa Maria Maggiore"},"geometry":{"type":"Polygon","coordinates":[[[8.4688,46.2335],[8.4666,46.2306],[8.4672,46.2282],[8.4901,46.2179],[8.4924,46.2137],[8.4914,46.2097],[8.4939,46.2082],[8.4914,46.2069],[8.4822,46.199],[8.4826,46.1869],[8.4731,46.1887],[8.4695,46.1883],[8.467,46.1861],[8.4636,46.1812],[8.4635,46.1785],[8.4492,46.1675],[8.4515,46.1652],[8.4585,46.1534],[8.4588,46.1506],[8.4566,46.1482],[8.4577,46.1447],[8.4594,46.1426],[8.4664,46.1378],[8.4745,46.136],[8.4748,46.1335],[8.4707,46.125],[8.4668,46.1218],[8.4613,46.1214],[8.4626,46.1196],[8.4661,46.1172],[8.4722,46.1171],[8.4674,46.1072],[8.4587,46.0774],[8.4545,46.0755],[8.4369,46.0752],[8.4243,46.0738],[8.4199,46.0697],[8.4143,46.0723],[8.4208,46.089],[8.4128,46.0949],[8.413,46.0968],[8.4204,46.1005],[8.4346,46.1041],[8.4418,46.1076],[8.4441,46.11],[8.4454,46.1148],[8.4444,46.1222],[8.4425,46.1292],[8.4388,46.1372],[8.4339,46.1521],[8.4297,46.1587],[8.4322,46.1632],[8.4327,46.1685],[8.4322,46.1693],[8.4202,46.1708],[8.4155,46.1749],[8.4114,46.18],[8.4148,46.1839],[8.4158,46.1901],[8.417,46.1919],[8.4405,46.1962],[8.4481,46.1956],[8.4507,46.201],[8.4501,46.2024],[8.4466,46.2045],[8.4345,46.2105],[8.4281,46.2155],[8.4273,46.2174],[8.4286,46.2197],[8.4339,46.2199],[8.4394,46.2218],[8.4443,46.2258],[8.4441,46.2305],[8.4345,46.2385],[8.4354,46.2439],[8.4366,46.2454],[8.4443,46.2495],[8.4637,46.2447],[8.4651,46.2439],[8.466,46.2419],[8.4662,46.2371],[8.4688,46.2335]]]}},{"type":"Feature","properties":{"i":"103064","n":"Stresa"},"geometry":{"type":"Polygon","coordinates":[[[8.5701,45.8913],[8.5717,45.887],[8.5767,45.8799],[8.5869,45.8604],[8.578,45.8606],[8.5685,45.8595],[8.5603,45.8518],[8.5512,45.8516],[8.5503,45.8554],[8.5506,45.8599],[8.5498,45.865],[8.5482,45.8679],[8.5471,45.8687],[8.5435,45.8687],[8.5362,45.8704],[8.5324,45.872],[8.5297,45.8746],[8.5228,45.878],[8.5119,45.8738],[8.4958,45.8743],[8.4806,45.88],[8.4598,45.8825],[8.4574,45.8818],[8.4558,45.8792],[8.451,45.8799],[8.4487,45.8811],[8.4464,45.8849],[8.4507,45.8918],[8.4537,45.8917],[8.4587,45.895],[8.4592,45.899],[8.458,45.9035],[8.4591,45.9103],[8.4648,45.9095],[8.4755,45.904],[8.4818,45.8984],[8.4932,45.8961],[8.4981,45.8992],[8.5033,45.8997],[8.5078,45.8978],[8.5129,45.8934],[8.5194,45.898],[8.515,45.9021],[8.5347,45.9186],[8.5716,45.9013],[8.5701,45.8913]]]}},{"type":"Feature","properties":{"i":"103065","n":"Toceno"},"geometry":{"type":"Polygon","coordinates":[[[8.4745,46.136],[8.4664,46.1378],[8.4594,46.1426],[8.4577,46.1447],[8.4566,46.1482],[8.4588,46.1506],[8.4585,46.1534],[8.4515,46.1652],[8.4492,46.1675],[8.4635,46.1785],[8.4636,46.1812],[8.467,46.1861],[8.4695,46.1883],[8.4731,46.1887],[8.4826,46.1869],[8.4822,46.199],[8.4914,46.2069],[8.4939,46.2082],[8.508,46.2048],[8.5139,46.2005],[8.5195,46.1986],[8.5169,46.1982],[8.5088,46.1925],[8.5051,46.1889],[8.5008,46.178],[8.4802,46.1711],[8.4798,46.1546],[8.4745,46.136]]]}},{"type":"Feature","properties":{"i":"103066","n":"Trarego Viggiona"},"geometry":{"type":"Polygon","coordinates":[[[8.5973,46.0518],[8.6027,46.0528],[8.6155,46.0498],[8.6177,46.0482],[8.627,46.0455],[8.6304,46.0474],[8.6405,46.0469],[8.6734,46.0423],[8.6803,46.0431],[8.6806,46.045],[8.6865,46.0482],[8.6907,46.0477],[8.6986,46.0447],[8.7023,46.0415],[8.7037,46.035],[8.7027,46.0305],[8.6982,46.0269],[8.6939,46.0255],[8.6581,46.0266],[8.6468,46.0304],[8.6347,46.0279],[8.626,46.0246],[8.6228,46.0283],[8.619,46.0311],[8.612,46.0342],[8.6069,46.0349],[8.6011,46.0326],[8.5984,46.0329],[8.5925,46.0376],[8.5741,46.0448],[8.5662,46.0467],[8.5752,46.0503],[8.5892,46.0527],[8.5973,46.0518]]]}},{"type":"Feature","properties":{"i":"103067","n":"Trasquera"},"geometry":{"type":"Polygon","coordinates":[[[8.2148,46.1849],[8.1962,46.1792],[8.1874,46.1808],[8.1792,46.1773],[8.1703,46.1763],[8.1648,46.1768],[8.1655,46.1823],[8.1584,46.1884],[8.1517,46.1974],[8.1479,46.2076],[8.1417,46.2184],[8.139,46.2261],[8.1439,46.229],[8.149,46.2354],[8.1494,46.2491],[8.1524,46.2609],[8.1608,46.2592],[8.1676,46.2521],[8.1935,46.2445],[8.1976,46.2426],[8.2164,46.2306],[8.2307,46.2192],[8.2332,46.2153],[8.2352,46.2059],[8.2181,46.2052],[8.1994,46.207],[8.1961,46.2056],[8.2035,46.1976],[8.2167,46.1883],[8.2166,46.186],[8.2148,46.1849]]]}},{"type":"Feature","properties":{"i":"103068","n":"Trontano"},"geometry":{"type":"Polygon","coordinates":[[[8.375,46.1329],[8.3755,46.1272],[8.3797,46.1241],[8.3885,46.1138],[8.3973,46.1081],[8.3988,46.1008],[8.4007,46.0988],[8.406,46.0943],[8.4085,46.0937],[8.4128,46.0949],[8.4208,46.089],[8.4143,46.0721],[8.4199,46.0697],[8.4209,46.07],[8.4242,46.0632],[8.4209,46.0595],[8.4209,46.0574],[8.422,46.0565],[8.4173,46.0468],[8.4114,46.0468],[8.3985,46.0487],[8.3849,46.0534],[8.3785,46.0533],[8.3584,46.0577],[8.3556,46.0575],[8.3527,46.0538],[8.3491,46.0536],[8.3437,46.0536],[8.3362,46.0566],[8.3451,46.0609],[8.3463,46.062],[8.3464,46.064],[8.3391,46.0686],[8.3304,46.0706],[8.3255,46.077],[8.3236,46.082],[8.3087,46.0903],[8.3068,46.0928],[8.3031,46.0951],[8.3046,46.1046],[8.3062,46.1093],[8.3063,46.1128],[8.3052,46.1163],[8.3094,46.1155],[8.3114,46.1161],[8.322,46.1268],[8.3259,46.1331],[8.331,46.1334],[8.3375,46.1272],[8.3557,46.1248],[8.3613,46.1264],[8.375,46.1329]]]}},{"type":"Feature","properties":{"i":"103069","n":"Valstrona"},"geometry":{"type":"Polygon","coordinates":[[[8.3084,45.9565],[8.3066,45.95],[8.3097,45.9435],[8.3087,45.9373],[8.3008,45.9334],[8.2964,45.9279],[8.2954,45.9199],[8.2972,45.9175],[8.3144,45.9093],[8.3177,45.9087],[8.3293,45.9101],[8.3303,45.9131],[8.3291,45.9147],[8.3233,45.9169],[8.3236,45.9357],[8.3317,45.9484],[8.3471,45.9493],[8.3486,45.9454],[8.3511,45.9324],[8.3566,45.9192],[8.3577,45.9073],[8.3556,45.9047],[8.3523,45.9045],[8.3492,45.9052],[8.3487,45.9078],[8.3461,45.9083],[8.3395,45.905],[8.3385,45.9033],[8.3389,45.897],[8.3392,45.8945],[8.3409,45.8915],[8.3387,45.8902],[8.3266,45.8899],[8.3232,45.8904],[8.3192,45.8923],[8.3181,45.8942],[8.3235,45.9028],[8.3189,45.9048],[8.3108,45.8988],[8.2981,45.8971],[8.2967,45.8951],[8.2959,45.8899],[8.2909,45.8898],[8.2856,45.8915],[8.2788,45.8949],[8.2737,45.8995],[8.2724,45.9026],[8.2664,45.9073],[8.239,45.911],[8.2382,45.913],[8.2296,45.9207],[8.2185,45.9225],[8.2145,45.924],[8.2041,45.9364],[8.2044,45.9387],[8.2064,45.9421],[8.209,45.945],[8.2131,45.9461],[8.2161,45.9491],[8.2159,45.9518],[8.217,45.9538],[8.2185,45.9545],[8.231,45.9539],[8.2374,45.9552],[8.2489,45.9528],[8.2647,45.954],[8.2744,45.9571],[8.2859,45.9534],[8.2955,45.9537],[8.3084,45.9565]]]}},{"type":"Feature","properties":{"i":"103070","n":"Vanzone con San Carlo"},"geometry":{"type":"Polygon","coordinates":[[[8.1373,45.9976],[8.1342,45.9967],[8.1305,45.993],[8.1319,45.9917],[8.1322,45.9873],[8.1286,45.9848],[8.1183,45.9809],[8.1156,45.9783],[8.122,45.9692],[8.1233,45.9659],[8.1211,45.9611],[8.1099,45.9551],[8.0969,45.9539],[8.0982,45.9601],[8.0936,45.9645],[8.0933,45.9732],[8.1001,45.9736],[8.0965,45.9804],[8.09,45.9902],[8.0849,45.9956],[8.0767,46.0015],[8.0633,46.003],[8.0714,46.0056],[8.081,46.0106],[8.0902,46.0127],[8.0954,46.0084],[8.0967,46.0063],[8.1323,46.0029],[8.1357,46.0014],[8.1373,45.9976]]]}},{"type":"Feature","properties":{"i":"103071","n":"Varzo"},"geometry":{"type":"Polygon","coordinates":[[[8.2044,46.2911],[8.1945,46.2845],[8.1938,46.2818],[8.1944,46.2759],[8.1953,46.2733],[8.2025,46.2739],[8.2109,46.2723],[8.2132,46.2659],[8.2183,46.2625],[8.2323,46.2654],[8.2352,46.2652],[8.2383,46.2646],[8.2537,46.2583],[8.2602,46.2458],[8.2637,46.2416],[8.2768,46.2304],[8.2819,46.2246],[8.2841,46.2211],[8.2911,46.2017],[8.2858,46.1936],[8.282,46.1768],[8.2834,46.1712],[8.2856,46.1683],[8.2785,46.1692],[8.2671,46.1808],[8.2568,46.1808],[8.2517,46.1789],[8.252,46.1783],[8.2479,46.1755],[8.2451,46.1743],[8.2399,46.1739],[8.2362,46.1775],[8.2277,46.1803],[8.2253,46.1797],[8.2223,46.1802],[8.2153,46.1842],[8.2148,46.1849],[8.2166,46.186],[8.2167,46.1883],[8.2035,46.1976],[8.1961,46.2056],[8.1994,46.207],[8.2181,46.2052],[8.2352,46.2059],[8.2332,46.2153],[8.2307,46.2192],[8.2229,46.2258],[8.1951,46.2438],[8.1676,46.2521],[8.1608,46.2592],[8.1524,46.2609],[8.1494,46.2491],[8.149,46.2354],[8.1439,46.229],[8.139,46.2261],[8.1353,46.2263],[8.125,46.2296],[8.1174,46.2365],[8.1075,46.2499],[8.0876,46.2541],[8.0817,46.2577],[8.0804,46.2608],[8.1038,46.2766],[8.1118,46.2805],[8.1178,46.2858],[8.1211,46.292],[8.1377,46.3016],[8.1422,46.3025],[8.1458,46.302],[8.1564,46.2976],[8.1636,46.2964],[8.1792,46.2977],[8.1853,46.3006],[8.1944,46.3032],[8.204,46.2969],[8.2047,46.295],[8.2044,46.2911]]]}},{"type":"Feature","properties":{"i":"103072","n":"Verbania"},"geometry":{"type":"Polygon","coordinates":[[[8.5233,45.9731],[8.5251,45.9707],[8.5259,45.9663],[8.5439,45.9582],[8.5491,45.9569],[8.5501,45.9576],[8.5488,45.9597],[8.5579,45.9537],[8.5687,45.9509],[8.5898,45.9483],[8.5933,45.9425],[8.6087,45.9325],[8.5949,45.9225],[8.5716,45.9013],[8.5347,45.9186],[8.4906,45.9359],[8.4786,45.9354],[8.4756,45.9322],[8.4736,45.9275],[8.4565,45.9258],[8.456,45.9299],[8.455,45.9314],[8.4487,45.9353],[8.4428,45.936],[8.445,45.9372],[8.4521,45.9375],[8.4634,45.9402],[8.4689,45.9429],[8.475,45.9499],[8.473,45.957],[8.4693,45.9602],[8.4858,45.9508],[8.4922,45.9478],[8.4992,45.9462],[8.5207,45.9471],[8.5356,45.9502],[8.5373,45.9512],[8.5339,45.9536],[8.5225,45.9578],[8.5213,45.9591],[8.5197,45.9617],[8.5198,45.9734],[8.5233,45.9731]]]}},{"type":"Feature","properties":{"i":"103074","n":"Vignone"},"geometry":{"type":"Polygon","coordinates":[[[8.5804,45.9809],[8.5758,45.9804],[8.5679,45.9737],[8.5657,45.9703],[8.5655,45.9685],[8.5668,45.9647],[8.5729,45.9598],[8.5703,45.9506],[8.5579,45.9537],[8.5488,45.9597],[8.5498,45.9633],[8.5702,45.9815],[8.5746,45.9833],[8.5804,45.9809]]]}},{"type":"Feature","properties":{"i":"103075","n":"Villadossola"},"geometry":{"type":"Polygon","coordinates":[[[8.2918,46.0836],[8.289,46.0793],[8.2883,46.0685],[8.2873,46.0663],[8.2792,46.0587],[8.2701,46.0479],[8.2582,46.0511],[8.2445,46.0489],[8.2388,46.0455],[8.236,46.0452],[8.2348,46.0458],[8.2368,46.0478],[8.2361,46.0506],[8.2325,46.0555],[8.2279,46.0586],[8.2285,46.0639],[8.2343,46.0645],[8.2352,46.0657],[8.2326,46.0718],[8.2351,46.0805],[8.2327,46.0855],[8.234,46.0884],[8.239,46.0912],[8.2553,46.0938],[8.267,46.0927],[8.2747,46.0915],[8.2918,46.0836]]]}},{"type":"Feature","properties":{"i":"103076","n":"Villette"},"geometry":{"type":"Polygon","coordinates":[[[8.5512,46.1158],[8.5434,46.1132],[8.5219,46.1094],[8.5291,46.1205],[8.5238,46.1263],[8.5219,46.1265],[8.5191,46.1305],[8.5187,46.1334],[8.5199,46.1372],[8.5213,46.1392],[8.5307,46.1398],[8.5357,46.1409],[8.5446,46.1479],[8.5428,46.1542],[8.5374,46.1613],[8.5334,46.1644],[8.5432,46.1639],[8.5528,46.1606],[8.5549,46.1524],[8.5513,46.1472],[8.5476,46.1464],[8.5456,46.1366],[8.5389,46.1283],[8.539,46.1254],[8.5408,46.1227],[8.5434,46.1208],[8.5478,46.1202],[8.5512,46.1158]]]}},{"type":"Feature","properties":{"i":"103077","n":"Vogogna"},"geometry":{"type":"Polygon","coordinates":[[[8.3317,46.034],[8.3275,46.0305],[8.3141,46.0127],[8.3116,45.9969],[8.3107,45.9952],[8.3089,45.9943],[8.2889,45.9993],[8.2834,46.0053],[8.2696,46.0362],[8.2709,46.0424],[8.2863,46.0415],[8.3216,46.0378],[8.3254,46.0351],[8.3317,46.034]]]}},{"type":"Feature","properties":{"i":"103078","n":"Borgomezzavalle"},"geometry":{"type":"Polygon","coordinates":[[[8.2285,46.0639],[8.2279,46.0586],[8.2325,46.0555],[8.2365,46.0499],[8.2368,46.0478],[8.2235,46.0385],[8.2053,46.0375],[8.1964,46.036],[8.1933,46.0352],[8.1918,46.0324],[8.1888,46.0308],[8.1591,46.0246],[8.1477,46.0241],[8.1429,46.0246],[8.1542,46.0353],[8.16,46.0434],[8.1651,46.0539],[8.165,46.0616],[8.1571,46.067],[8.156,46.0683],[8.156,46.0705],[8.1635,46.07],[8.1751,46.0704],[8.1809,46.0695],[8.1879,46.0657],[8.189,46.0638],[8.1993,46.0541],[8.2084,46.055],[8.213,46.0589],[8.2186,46.0611],[8.2249,46.0614],[8.2285,46.0639]]]}},{"type":"Feature","properties":{"i":"103079","n":"Valle Cannobina"},"geometry":{"type":"Polygon","coordinates":[[[8.6477,46.1232],[8.6428,46.1174],[8.6404,46.1103],[8.6414,46.1059],[8.6408,46.102],[8.6368,46.0975],[8.6351,46.0941],[8.6401,46.0834],[8.6443,46.0801],[8.6474,46.0745],[8.6496,46.0681],[8.6463,46.0661],[8.624,46.0669],[8.6158,46.0683],[8.6081,46.0709],[8.601,46.0719],[8.5933,46.0581],[8.5988,46.0557],[8.5973,46.0518],[8.5892,46.0527],[8.5772,46.0507],[8.5605,46.0448],[8.5358,46.045],[8.5304,46.0603],[8.5318,46.0616],[8.5481,46.0692],[8.5552,46.0747],[8.5708,46.0782],[8.5756,46.0782],[8.5836,46.0826],[8.5908,46.0887],[8.5927,46.0911],[8.5811,46.0943],[8.572,46.0938],[8.5584,46.095],[8.5293,46.0912],[8.5203,46.0864],[8.5135,46.0772],[8.5123,46.0689],[8.5209,46.0622],[8.5173,46.0592],[8.5112,46.0514],[8.5078,46.0528],[8.4989,46.0585],[8.4896,46.0606],[8.4834,46.0605],[8.4874,46.0668],[8.495,46.0718],[8.4987,46.0732],[8.5238,46.1011],[8.5379,46.1055],[8.5415,46.106],[8.5449,46.105],[8.5518,46.107],[8.5613,46.1125],[8.5595,46.1176],[8.5567,46.1181],[8.5635,46.1196],[8.5823,46.1193],[8.6042,46.1223],[8.6109,46.1245],[8.6119,46.1215],[8.6477,46.1232]]]}}]}
