{"type":"FeatureCollection","fonte":"Confini comunali ISTAT via openpolis/geojson-italy — CC BY 4.0","features":[{"type":"Feature","properties":{"i":"027001","n":"Annone Veneto"},"geometry":{"type":"Polygon","coordinates":[[[12.7312,45.7617],[12.727,45.7554],[12.727,45.7531],[12.7346,45.7419],[12.7445,45.7331],[12.7476,45.7282],[12.7294,45.7212],[12.7262,45.7208],[12.7226,45.7221],[12.7063,45.737],[12.7049,45.7479],[12.7084,45.7552],[12.7069,45.759],[12.7041,45.7616],[12.6943,45.7615],[12.6897,45.7596],[12.6874,45.757],[12.6805,45.7539],[12.6775,45.7562],[12.6762,45.7613],[12.6681,45.7627],[12.6641,45.7616],[12.6657,45.7669],[12.6626,45.7737],[12.656,45.7781],[12.6558,45.7873],[12.6567,45.7913],[12.6617,45.7924],[12.6697,45.7908],[12.674,45.792],[12.695,45.8063],[12.7014,45.7973],[12.7057,45.7944],[12.7091,45.7936],[12.7142,45.791],[12.7132,45.788],[12.7062,45.785],[12.7035,45.7844],[12.6984,45.7856],[12.6931,45.7847],[12.6926,45.783],[12.6939,45.7815],[12.6959,45.7809],[12.6994,45.7819],[12.7134,45.7732],[12.7174,45.7745],[12.723,45.78],[12.7262,45.7779],[12.7288,45.7613],[12.7312,45.7617]]]}},{"type":"Feature","properties":{"i":"027002","n":"Campagna Lupia"},"geometry":{"type":"Polygon","coordinates":[[[12.2543,45.3424],[12.2433,45.3256],[12.2271,45.3124],[12.2205,45.3061],[12.2175,45.3006],[12.2094,45.2961],[12.19,45.2971],[12.187,45.3013],[12.1854,45.3022],[12.1484,45.3016],[12.137,45.2995],[12.1237,45.3016],[12.114,45.305],[12.1103,45.3079],[12.1027,45.3174],[12.0977,45.3205],[12.1246,45.3294],[12.1251,45.3301],[12.1131,45.3358],[12.0966,45.342],[12.0864,45.347],[12.0796,45.3524],[12.0779,45.3572],[12.0842,45.3647],[12.092,45.3626],[12.0988,45.3621],[12.111,45.3625],[12.1199,45.365],[12.1237,45.3699],[12.1229,45.3872],[12.1198,45.3937],[12.1236,45.3916],[12.1295,45.3979],[12.1301,45.4017],[12.1355,45.4005],[12.1426,45.3975],[12.1567,45.3721],[12.1694,45.3727],[12.1987,45.3698],[12.2233,45.3655],[12.2543,45.3424]]]}},{"type":"Feature","properties":{"i":"027003","n":"Campolongo Maggiore"},"geometry":{"type":"Polygon","coordinates":[[[12.0562,45.3566],[12.0659,45.3566],[12.0655,45.354],[12.0621,45.3504],[12.0641,45.349],[12.0754,45.353],[12.0796,45.3524],[12.0842,45.3484],[12.0889,45.3457],[12.1251,45.3301],[12.1246,45.3294],[12.1027,45.3223],[12.0929,45.3298],[12.0864,45.3319],[12.0791,45.3321],[12.0716,45.3263],[12.0684,45.3215],[12.0626,45.3217],[12.0554,45.3196],[12.0482,45.3129],[12.0348,45.3142],[12.0214,45.3222],[12.0181,45.3268],[12.0153,45.3324],[12.0166,45.3388],[12.0134,45.3431],[12.0224,45.3482],[12.0304,45.3558],[12.0347,45.3573],[12.0424,45.3548],[12.052,45.3569],[12.0562,45.3566]]]}},{"type":"Feature","properties":{"i":"027004","n":"Camponogara"},"geometry":{"type":"Polygon","coordinates":[[[12.1198,45.3937],[12.1229,45.3872],[12.1237,45.3699],[12.1199,45.365],[12.111,45.3625],[12.0988,45.3621],[12.092,45.3626],[12.0842,45.3647],[12.0779,45.3572],[12.0796,45.3524],[12.0754,45.353],[12.0651,45.3491],[12.0621,45.3504],[12.0655,45.354],[12.0659,45.3566],[12.0562,45.3566],[12.0577,45.3594],[12.0616,45.3727],[12.0624,45.3814],[12.056,45.3899],[12.0574,45.3951],[12.0575,45.4004],[12.0828,45.4037],[12.0846,45.4028],[12.0837,45.4015],[12.0869,45.3993],[12.0952,45.3956],[12.1047,45.3938],[12.1099,45.3956],[12.116,45.3959],[12.1177,45.3955],[12.1198,45.3937]]]}},{"type":"Feature","properties":{"i":"027005","n":"Caorle"},"geometry":{"type":"MultiPolygon","coordinates":[[[[12.8073,45.5998],[12.8009,45.6021],[12.7935,45.6025],[12.7709,45.5994],[12.7669,45.5981],[12.7658,45.5969],[12.7649,45.5932],[12.7635,45.591],[12.7593,45.5876],[12.7413,45.5881],[12.7434,45.591],[12.7494,45.5967],[12.7531,45.5977],[12.7519,45.6102],[12.7552,45.6156],[12.7558,45.6248],[12.7539,45.6347],[12.7483,45.6372],[12.7511,45.6411],[12.7696,45.6602],[12.7666,45.6618],[12.7675,45.665],[12.7717,45.6661],[12.7823,45.6669],[12.7818,45.6618],[12.798,45.657],[12.7995,45.6508],[12.7977,45.6495],[12.7931,45.6493],[12.7906,45.6479],[12.7899,45.6456],[12.7905,45.6403],[12.8096,45.6331],[12.8122,45.6352],[12.8223,45.6347],[12.8256,45.63],[12.8234,45.6237],[12.8209,45.6224],[12.8215,45.6155],[12.82,45.6117],[12.8094,45.6149],[12.8074,45.6138],[12.806,45.6098],[12.8067,45.6079],[12.813,45.6028],[12.8122,45.6017],[12.8073,45.5998]]],[[[12.9748,45.7147],[12.9755,45.7114],[12.9735,45.7045],[12.9712,45.6996],[12.9631,45.6871],[12.96,45.6852],[12.9516,45.6839],[12.9503,45.6816],[12.9509,45.6799],[12.9547,45.6757],[12.9575,45.6743],[12.9623,45.6701],[12.967,45.6645],[12.9712,45.6608],[12.9791,45.6577],[12.9779,45.6519],[12.9741,45.6447],[12.9767,45.6425],[12.9876,45.6378],[12.9822,45.6303],[12.9782,45.6265],[12.9604,45.6217],[12.9407,45.618],[12.9171,45.6116],[12.915,45.612],[12.9127,45.6142],[12.9087,45.6128],[12.893,45.6009],[12.8668,45.5883],[12.8425,45.5794],[12.788,45.5566],[12.7871,45.5573],[12.787,45.5586],[12.7941,45.5698],[12.806,45.5797],[12.8167,45.5924],[12.8145,45.5954],[12.8124,45.6004],[12.8139,45.6022],[12.8138,45.6034],[12.807,45.6089],[12.807,45.6114],[12.808,45.6133],[12.8097,45.6137],[12.8221,45.6107],[12.8238,45.6123],[12.822,45.622],[12.8271,45.6237],[12.8278,45.63],[12.8226,45.6385],[12.8213,45.639],[12.8123,45.6372],[12.8095,45.6338],[12.8068,45.6384],[12.8064,45.6437],[12.8107,45.6472],[12.8139,45.6483],[12.8177,45.6461],[12.8214,45.6454],[12.8342,45.6491],[12.8381,45.6515],[12.8369,45.6528],[12.8475,45.6592],[12.8512,45.6606],[12.8523,45.6601],[12.8569,45.6621],[12.8516,45.6715],[12.8399,45.6741],[12.8253,45.6748],[12.8243,45.6762],[12.8265,45.685],[12.8283,45.6885],[12.8329,45.69],[12.9151,45.6907],[12.9143,45.6919],[12.9183,45.6971],[12.9259,45.7007],[12.9316,45.7068],[12.9361,45.71],[12.9395,45.71],[12.9412,45.7087],[12.9422,45.7058],[12.9458,45.7047],[12.9537,45.7073],[12.9603,45.7123],[12.9618,45.7156],[12.9667,45.7178],[12.9731,45.7185],[12.9744,45.7178],[12.9748,45.7147]]]]}},{"type":"Feature","properties":{"i":"027006","n":"Cavarzere"},"geometry":{"type":"Polygon","coordinates":[[[12.2153,45.1045],[12.2027,45.1051],[12.1959,45.0995],[12.188,45.0891],[12.1801,45.0885],[12.1747,45.0913],[12.1744,45.0923],[12.1678,45.094],[12.1599,45.0841],[12.1595,45.0819],[12.1604,45.0798],[12.157,45.0722],[12.1539,45.0718],[12.1478,45.0686],[12.1465,45.0619],[12.1484,45.0583],[12.1481,45.0576],[12.1397,45.0559],[12.1365,45.0563],[12.1198,45.0597],[12.1141,45.062],[12.09,45.077],[12.0477,45.1054],[12.0476,45.1078],[12.0496,45.1127],[12.0468,45.1154],[12.0286,45.1185],[12.0255,45.1196],[12.0295,45.1253],[12.035,45.1287],[12.0398,45.1297],[12.0407,45.1333],[12.023,45.1386],[12.0057,45.1403],[11.9926,45.1394],[11.9688,45.134],[11.9619,45.1493],[11.9663,45.1504],[11.9694,45.1494],[11.9834,45.1556],[11.983,45.1628],[11.9996,45.1614],[12.0022,45.1546],[12.003,45.154],[12.0095,45.1536],[12.0106,45.1537],[12.0111,45.157],[12.0143,45.1624],[12.0277,45.1627],[12.0375,45.1619],[12.043,45.1599],[12.0906,45.1632],[12.1311,45.1565],[12.1393,45.1566],[12.1515,45.1516],[12.1576,45.147],[12.1641,45.1496],[12.1726,45.1555],[12.1769,45.1602],[12.176,45.1628],[12.1803,45.1667],[12.1881,45.1676],[12.1998,45.1662],[12.2065,45.1665],[12.2339,45.1708],[12.2361,45.1706],[12.2371,45.1702],[12.2365,45.1684],[12.2308,45.1553],[12.231,45.142],[12.2324,45.137],[12.2294,45.1278],[12.2124,45.1079],[12.2125,45.1065],[12.2153,45.1045]]]}},{"type":"Feature","properties":{"i":"027007","n":"Ceggia"},"geometry":{"type":"Polygon","coordinates":[[[12.6772,45.7052],[12.686,45.6986],[12.6742,45.675],[12.6729,45.6672],[12.6703,45.6579],[12.6604,45.6581],[12.6561,45.6558],[12.647,45.6574],[12.6482,45.6637],[12.6394,45.6674],[12.6288,45.6707],[12.6168,45.6725],[12.6127,45.6703],[12.6008,45.679],[12.6064,45.683],[12.609,45.6884],[12.6172,45.6958],[12.6225,45.6957],[12.6452,45.7016],[12.655,45.708],[12.6604,45.7089],[12.6692,45.7055],[12.6772,45.7052]]]}},{"type":"Feature","properties":{"i":"027008","n":"Chioggia"},"geometry":{"type":"Polygon","coordinates":[[[12.3139,45.2311],[12.3137,45.2285],[12.3046,45.2292],[12.3021,45.2251],[12.3002,45.2166],[12.3011,45.2095],[12.306,45.1953],[12.3088,45.1905],[12.3131,45.1856],[12.3197,45.181],[12.3296,45.1681],[12.3324,45.1628],[12.3125,45.1447],[12.3093,45.1438],[12.2985,45.1433],[12.2882,45.1445],[12.2827,45.1434],[12.2808,45.1413],[12.2803,45.1391],[12.2854,45.1294],[12.2848,45.1266],[12.2834,45.1249],[12.278,45.1215],[12.26,45.1131],[12.2396,45.1066],[12.2153,45.1045],[12.2121,45.1071],[12.2294,45.1278],[12.2324,45.137],[12.231,45.142],[12.2308,45.1553],[12.2371,45.1702],[12.2339,45.1708],[12.202,45.1662],[12.1881,45.1676],[12.1808,45.1669],[12.176,45.1628],[12.1534,45.1942],[12.1839,45.1951],[12.185,45.1964],[12.1837,45.1973],[12.1788,45.1966],[12.1711,45.1988],[12.1714,45.2007],[12.1647,45.2049],[12.1547,45.2076],[12.1538,45.2082],[12.1537,45.2138],[12.1548,45.2218],[12.1573,45.2255],[12.1684,45.2263],[12.1817,45.2298],[12.1933,45.2338],[12.1953,45.2368],[12.1955,45.2374],[12.1934,45.2398],[12.1928,45.2433],[12.2014,45.2591],[12.2062,45.2731],[12.1998,45.2808],[12.1911,45.285],[12.1897,45.2882],[12.19,45.2971],[12.2094,45.2961],[12.2175,45.3006],[12.2205,45.3061],[12.2271,45.3124],[12.2362,45.3192],[12.2422,45.3188],[12.2479,45.3195],[12.2513,45.3236],[12.2552,45.3259],[12.2657,45.3293],[12.2716,45.3306],[12.2959,45.3323],[12.2996,45.3075],[12.2876,45.2508],[12.2802,45.2506],[12.2753,45.2364],[12.2909,45.2327],[12.3139,45.2311]]]}},{"type":"Feature","properties":{"i":"027009","n":"Cinto Caomaggiore"},"geometry":{"type":"Polygon","coordinates":[[[12.8019,45.8229],[12.8096,45.8145],[12.8101,45.8075],[12.8033,45.7976],[12.8025,45.7948],[12.7966,45.8006],[12.784,45.7961],[12.7773,45.7925],[12.7712,45.7912],[12.7574,45.7965],[12.7566,45.8041],[12.7596,45.8049],[12.7616,45.8031],[12.7652,45.8054],[12.7638,45.8108],[12.7615,45.8137],[12.7601,45.8233],[12.7585,45.825],[12.7517,45.8279],[12.7494,45.8267],[12.7512,45.8249],[12.7499,45.8227],[12.7438,45.8271],[12.7508,45.8318],[12.7668,45.847],[12.7661,45.8475],[12.7689,45.8498],[12.7798,45.8544],[12.7818,45.854],[12.7895,45.8488],[12.8004,45.846],[12.8039,45.8442],[12.804,45.8424],[12.8024,45.8409],[12.7991,45.8332],[12.8019,45.8229]]]}},{"type":"Feature","properties":{"i":"027010","n":"Cona"},"geometry":{"type":"Polygon","coordinates":[[[12.1534,45.1942],[12.176,45.1628],[12.1769,45.1602],[12.1726,45.1555],[12.1641,45.1496],[12.1576,45.147],[12.1515,45.1516],[12.1393,45.1566],[12.1311,45.1565],[12.0906,45.1632],[12.043,45.1599],[12.0375,45.1619],[12.0277,45.1627],[12.0143,45.1624],[12.0111,45.157],[12.0106,45.1537],[12.003,45.154],[11.9996,45.1614],[11.9766,45.1626],[11.9735,45.1801],[11.9778,45.1871],[12.0303,45.1946],[12.123,45.2104],[12.1357,45.2039],[12.1458,45.1967],[12.1534,45.1942]]]}},{"type":"Feature","properties":{"i":"027011","n":"Concordia Sagittaria"},"geometry":{"type":"Polygon","coordinates":[[[12.9209,45.6988],[12.9183,45.6971],[12.9143,45.6919],[12.9151,45.6907],[12.8329,45.69],[12.8277,45.688],[12.8185,45.6898],[12.815,45.6887],[12.8134,45.6872],[12.8154,45.682],[12.8117,45.6772],[12.8077,45.6753],[12.8005,45.678],[12.7978,45.6834],[12.7935,45.6853],[12.7824,45.6958],[12.7807,45.6983],[12.7797,45.7037],[12.7812,45.7102],[12.7769,45.7157],[12.757,45.7208],[12.755,45.7234],[12.7593,45.7281],[12.7699,45.7291],[12.7776,45.732],[12.78,45.7347],[12.7904,45.7543],[12.8171,45.7603],[12.8178,45.765],[12.8195,45.7677],[12.8252,45.7674],[12.8282,45.7658],[12.8451,45.7634],[12.8489,45.7633],[12.8539,45.7644],[12.8541,45.7653],[12.8577,45.7649],[12.8639,45.7613],[12.8625,45.7396],[12.8654,45.7286],[12.8683,45.728],[12.8758,45.7311],[12.8859,45.7284],[12.889,45.7268],[12.8901,45.7206],[12.888,45.7175],[12.8875,45.7108],[12.8952,45.7067],[12.9038,45.7042],[12.9128,45.7055],[12.9168,45.7033],[12.9209,45.6988]]]}},{"type":"Feature","properties":{"i":"027012","n":"Dolo"},"geometry":{"type":"Polygon","coordinates":[[[12.0875,45.4348],[12.0919,45.4369],[12.0945,45.4372],[12.0947,45.4341],[12.1013,45.432],[12.1169,45.4297],[12.1193,45.4286],[12.1248,45.423],[12.1307,45.4073],[12.1295,45.3979],[12.1236,45.3916],[12.116,45.3959],[12.1099,45.3956],[12.1047,45.3938],[12.0952,45.3956],[12.0869,45.3993],[12.0837,45.4015],[12.0846,45.4028],[12.0828,45.4037],[12.0575,45.4004],[12.0533,45.4009],[12.0522,45.4041],[12.0536,45.4065],[12.0751,45.4112],[12.0752,45.4149],[12.0731,45.4188],[12.072,45.4203],[12.0629,45.4191],[12.0588,45.4265],[12.0562,45.4278],[12.0516,45.4281],[12.0466,45.4265],[12.0431,45.4268],[12.0405,45.429],[12.0414,45.4341],[12.0359,45.4343],[12.038,45.4461],[12.0423,45.4504],[12.0647,45.4488],[12.0668,45.4472],[12.0685,45.4433],[12.0694,45.4312],[12.0826,45.4316],[12.0875,45.4348]]]}},{"type":"Feature","properties":{"i":"027013","n":"Eraclea"},"geometry":{"type":"Polygon","coordinates":[[[12.7494,45.5967],[12.7434,45.591],[12.7413,45.5881],[12.7593,45.5876],[12.7635,45.591],[12.7649,45.5932],[12.7658,45.5969],[12.7688,45.599],[12.7935,45.6025],[12.8009,45.6021],[12.8073,45.5998],[12.8065,45.5972],[12.8167,45.5924],[12.806,45.5797],[12.7941,45.5698],[12.787,45.5586],[12.7867,45.5578],[12.788,45.5566],[12.7618,45.5426],[12.7497,45.54],[12.7302,45.5324],[12.7265,45.5329],[12.7233,45.5357],[12.7281,45.5437],[12.7282,45.5504],[12.7254,45.5538],[12.7131,45.5571],[12.6906,45.5711],[12.6804,45.5741],[12.6765,45.5731],[12.674,45.5736],[12.6599,45.5785],[12.6346,45.5887],[12.6374,45.5922],[12.6401,45.5934],[12.6422,45.5933],[12.6472,45.5982],[12.6409,45.6036],[12.6372,45.612],[12.6392,45.6182],[12.6492,45.6314],[12.659,45.6393],[12.6633,45.6382],[12.6672,45.6399],[12.673,45.6408],[12.6935,45.6381],[12.698,45.6408],[12.7051,45.6504],[12.713,45.6496],[12.7299,45.65],[12.7478,45.6357],[12.7545,45.6235],[12.7533,45.6145],[12.7508,45.6096],[12.7477,45.6055],[12.7441,45.6039],[12.7432,45.6025],[12.7436,45.6008],[12.7473,45.5965],[12.7494,45.5967]]]}},{"type":"Feature","properties":{"i":"027014","n":"Fiesso d'Artico"},"geometry":{"type":"Polygon","coordinates":[[[12.0629,45.4191],[12.0541,45.4135],[12.0519,45.4128],[12.0423,45.4136],[12.0378,45.416],[12.0337,45.4162],[12.0239,45.4156],[12.0149,45.4116],[12.0098,45.4111],[12.0097,45.4174],[12.0125,45.4231],[12.0194,45.4296],[12.0359,45.4343],[12.0414,45.4341],[12.0405,45.429],[12.0431,45.4268],[12.0466,45.4265],[12.0537,45.4281],[12.0581,45.4271],[12.0629,45.4191]]]}},{"type":"Feature","properties":{"i":"027015","n":"Fossalta di Piave"},"geometry":{"type":"Polygon","coordinates":[[[12.5238,45.6495],[12.526,45.6468],[12.5366,45.6458],[12.5371,45.6445],[12.5363,45.6423],[12.5356,45.6415],[12.5308,45.6431],[12.5191,45.6417],[12.5155,45.64],[12.5137,45.6371],[12.514,45.634],[12.5153,45.6318],[12.5089,45.6238],[12.5045,45.625],[12.5039,45.6274],[12.5005,45.6324],[12.494,45.6388],[12.4887,45.6398],[12.4857,45.6396],[12.4848,45.6412],[12.4846,45.6423],[12.4881,45.6517],[12.487,45.6571],[12.4871,45.6615],[12.4981,45.6652],[12.5049,45.6654],[12.5081,45.6641],[12.51,45.6645],[12.5113,45.6661],[12.517,45.6658],[12.528,45.6593],[12.5286,45.6573],[12.5267,45.6558],[12.5133,45.6526],[12.5137,45.6512],[12.5187,45.6473],[12.5238,45.6495]]]}},{"type":"Feature","properties":{"i":"027016","n":"Fossalta di Portogruaro"},"geometry":{"type":"Polygon","coordinates":[[[12.9419,45.8203],[12.9362,45.7914],[12.9588,45.7616],[12.9674,45.7531],[12.9692,45.7425],[12.959,45.7549],[12.9443,45.7708],[12.9456,45.7681],[12.9369,45.7662],[12.9299,45.7677],[12.9181,45.7659],[12.9129,45.7642],[12.9078,45.7619],[12.9007,45.7559],[12.9025,45.7518],[12.9066,45.7483],[12.9159,45.7369],[12.9135,45.7357],[12.909,45.7362],[12.8856,45.7402],[12.8874,45.7454],[12.8938,45.7532],[12.8848,45.7616],[12.8772,45.7841],[12.8775,45.791],[12.8785,45.793],[12.8726,45.7966],[12.8668,45.7987],[12.8621,45.8022],[12.866,45.8051],[12.8675,45.8086],[12.8724,45.8121],[12.8782,45.8085],[12.8799,45.8052],[12.8837,45.8017],[12.892,45.8035],[12.9054,45.8091],[12.9164,45.808],[12.9301,45.8137],[12.9311,45.8145],[12.9295,45.8174],[12.9419,45.8203]]]}},{"type":"Feature","properties":{"i":"027017","n":"Fossò"},"geometry":{"type":"Polygon","coordinates":[[[12.0533,45.4009],[12.0575,45.4004],[12.0574,45.3951],[12.056,45.3899],[12.0624,45.3814],[12.0616,45.3727],[12.057,45.3576],[12.0562,45.3566],[12.052,45.3569],[12.0424,45.3548],[12.0347,45.3573],[12.0309,45.3606],[12.0248,45.3635],[12.0265,45.3673],[12.0291,45.3677],[12.0329,45.3736],[12.0327,45.3843],[12.0359,45.3912],[12.0404,45.3949],[12.0412,45.397],[12.0407,45.4045],[12.0426,45.4049],[12.0464,45.4005],[12.0533,45.4009]]]}},{"type":"Feature","properties":{"i":"027018","n":"Gruaro"},"geometry":{"type":"Polygon","coordinates":[[[12.8772,45.8432],[12.859,45.8208],[12.8576,45.8101],[12.8527,45.8131],[12.8457,45.8129],[12.8351,45.8101],[12.8276,45.8067],[12.8144,45.7927],[12.8071,45.7892],[12.8029,45.7933],[12.8025,45.7948],[12.8033,45.7976],[12.8099,45.8065],[12.81,45.8127],[12.8096,45.8145],[12.8019,45.8229],[12.8086,45.8202],[12.8181,45.824],[12.8188,45.825],[12.8189,45.8337],[12.8219,45.8357],[12.8291,45.8364],[12.8325,45.8383],[12.8376,45.8413],[12.8369,45.845],[12.8435,45.8478],[12.8612,45.8506],[12.8725,45.8484],[12.876,45.8464],[12.8772,45.8432]]]}},{"type":"Feature","properties":{"i":"027019","n":"Jesolo"},"geometry":{"type":"Polygon","coordinates":[[[12.7618,45.5426],[12.7194,45.5255],[12.6969,45.5202],[12.6323,45.4986],[12.61,45.4902],[12.5844,45.4787],[12.5819,45.481],[12.5855,45.4837],[12.5836,45.488],[12.5774,45.4919],[12.5594,45.4847],[12.5559,45.485],[12.5526,45.4862],[12.5544,45.4912],[12.5532,45.4939],[12.547,45.4985],[12.5393,45.5001],[12.5332,45.4987],[12.5299,45.4992],[12.5271,45.5006],[12.533,45.5038],[12.5335,45.5063],[12.5317,45.5083],[12.5324,45.5128],[12.5362,45.5131],[12.539,45.5124],[12.5487,45.515],[12.5808,45.5303],[12.5857,45.5382],[12.5912,45.541],[12.5965,45.5453],[12.5992,45.5451],[12.5994,45.5471],[12.5984,45.5481],[12.5797,45.5528],[12.5764,45.5552],[12.6038,45.5786],[12.6147,45.5716],[12.6203,45.5819],[12.6253,45.589],[12.6286,45.5915],[12.6599,45.5785],[12.674,45.5736],[12.6765,45.5731],[12.6804,45.5741],[12.6906,45.5711],[12.7131,45.5571],[12.7254,45.5538],[12.7282,45.5504],[12.7281,45.5437],[12.7232,45.5361],[12.7241,45.5344],[12.7269,45.5327],[12.7318,45.5326],[12.7497,45.54],[12.7618,45.5426]]]}},{"type":"Feature","properties":{"i":"027020","n":"Marcon"},"geometry":{"type":"Polygon","coordinates":[[[12.3353,45.5618],[12.3503,45.5625],[12.3599,45.5615],[12.3715,45.5587],[12.3784,45.5554],[12.3823,45.5526],[12.3844,45.548],[12.3778,45.5425],[12.3774,45.5391],[12.3792,45.537],[12.3643,45.5332],[12.3217,45.5329],[12.3227,45.5364],[12.3173,45.5393],[12.2972,45.5442],[12.2909,45.5376],[12.2878,45.5366],[12.287,45.5378],[12.2871,45.5412],[12.2863,45.5431],[12.2823,45.5431],[12.2797,45.5358],[12.2787,45.536],[12.2761,45.5413],[12.2762,45.545],[12.2802,45.5453],[12.2809,45.5529],[12.2804,45.555],[12.2765,45.5555],[12.2746,45.5573],[12.2751,45.5624],[12.2792,45.5668],[12.2882,45.5689],[12.2925,45.5709],[12.2957,45.5747],[12.3074,45.5733],[12.3213,45.5703],[12.3252,45.5669],[12.3353,45.5618]]]}},{"type":"Feature","properties":{"i":"027021","n":"Martellago"},"geometry":{"type":"Polygon","coordinates":[[[12.1809,45.5488],[12.1811,45.5458],[12.1796,45.5406],[12.1734,45.5369],[12.1688,45.5311],[12.1828,45.5259],[12.1936,45.5197],[12.197,45.519],[12.1973,45.5144],[12.1907,45.5066],[12.1818,45.5099],[12.1803,45.5073],[12.1789,45.507],[12.1757,45.5078],[12.1679,45.5071],[12.1524,45.5129],[12.1488,45.5159],[12.1434,45.5125],[12.1382,45.5065],[12.1345,45.5078],[12.1369,45.5104],[12.1388,45.5145],[12.1373,45.5151],[12.1303,45.5109],[12.1292,45.5116],[12.1362,45.5177],[12.1421,45.5216],[12.1426,45.5332],[12.1389,45.5489],[12.1295,45.5541],[12.1256,45.5552],[12.1271,45.5671],[12.1321,45.5666],[12.1439,45.5602],[12.1508,45.5584],[12.1525,45.5634],[12.1649,45.5714],[12.1673,45.5713],[12.1689,45.57],[12.1689,45.5689],[12.1651,45.5525],[12.1731,45.5466],[12.1767,45.5465],[12.1765,45.5484],[12.1796,45.5508],[12.1809,45.5488]]]}},{"type":"Feature","properties":{"i":"027022","n":"Meolo"},"geometry":{"type":"Polygon","coordinates":[[[12.4857,45.6396],[12.4887,45.6398],[12.494,45.6388],[12.5005,45.6324],[12.5039,45.6274],[12.5044,45.6254],[12.5001,45.6251],[12.4977,45.6227],[12.4877,45.6079],[12.4798,45.5983],[12.4531,45.5718],[12.4438,45.579],[12.4379,45.5919],[12.4438,45.6006],[12.4439,45.6023],[12.4427,45.6043],[12.4374,45.6092],[12.4286,45.6158],[12.424,45.6208],[12.4243,45.6232],[12.4283,45.6275],[12.4353,45.6271],[12.4371,45.632],[12.4377,45.6397],[12.4473,45.6383],[12.451,45.6391],[12.4815,45.6407],[12.4857,45.6396]]]}},{"type":"Feature","properties":{"i":"027023","n":"Mira"},"geometry":{"type":"Polygon","coordinates":[[[12.178,45.4678],[12.1832,45.4647],[12.182,45.458],[12.1804,45.4569],[12.1793,45.4532],[12.1847,45.4491],[12.1883,45.4492],[12.1921,45.4465],[12.1949,45.4414],[12.2006,45.4378],[12.2175,45.4304],[12.2267,45.4279],[12.2421,45.4269],[12.2531,45.4203],[12.2595,45.4142],[12.2475,45.3961],[12.2619,45.3961],[12.266,45.3925],[12.2656,45.3602],[12.2543,45.3424],[12.2233,45.3655],[12.1987,45.3698],[12.1694,45.3727],[12.1567,45.3721],[12.1426,45.3975],[12.1355,45.4005],[12.1301,45.4017],[12.1307,45.4073],[12.1248,45.423],[12.1193,45.4286],[12.1149,45.4302],[12.0975,45.4329],[12.0947,45.4341],[12.0945,45.4372],[12.0919,45.4369],[12.0875,45.4348],[12.0861,45.44],[12.091,45.4448],[12.1214,45.4462],[12.1175,45.4478],[12.1121,45.4564],[12.1099,45.4643],[12.1172,45.4669],[12.124,45.465],[12.13,45.479],[12.1277,45.48],[12.1445,45.4759],[12.1513,45.4719],[12.1609,45.4691],[12.1682,45.471],[12.1767,45.4692],[12.178,45.4678]]]}},{"type":"Feature","properties":{"i":"027024","n":"Mirano"},"geometry":{"type":"Polygon","coordinates":[[[12.1292,45.5116],[12.1332,45.5087],[12.1368,45.5022],[12.1353,45.4949],[12.125,45.482],[12.13,45.479],[12.1281,45.4732],[12.124,45.465],[12.1172,45.4669],[12.1099,45.4643],[12.1121,45.4564],[12.1175,45.4478],[12.1214,45.4462],[12.095,45.4452],[12.0938,45.4473],[12.0847,45.4511],[12.0753,45.45],[12.0693,45.4503],[12.0602,45.4544],[12.056,45.4612],[12.0533,45.4672],[12.0537,45.4682],[12.0449,45.4699],[12.0495,45.482],[12.0344,45.4916],[12.0368,45.4977],[12.0506,45.5088],[12.0598,45.5058],[12.066,45.5209],[12.0728,45.5193],[12.0772,45.5311],[12.0787,45.5308],[12.078,45.5291],[12.0803,45.5241],[12.0967,45.5179],[12.0968,45.5147],[12.1075,45.5131],[12.1149,45.5142],[12.1254,45.5132],[12.1292,45.5116]]]}},{"type":"Feature","properties":{"i":"027025","n":"Musile di Piave"},"geometry":{"type":"Polygon","coordinates":[[[12.5764,45.5552],[12.5797,45.5528],[12.5984,45.5481],[12.5994,45.5471],[12.5992,45.5451],[12.5732,45.5516],[12.5599,45.5676],[12.5483,45.578],[12.5038,45.5692],[12.5044,45.5703],[12.5037,45.572],[12.4959,45.5763],[12.492,45.5768],[12.4819,45.5726],[12.4763,45.5693],[12.468,45.5668],[12.4642,45.5701],[12.464,45.572],[12.4626,45.5736],[12.4578,45.5765],[12.4798,45.5983],[12.5001,45.6251],[12.5044,45.6254],[12.508,45.6237],[12.5094,45.6243],[12.5153,45.6318],[12.514,45.634],[12.5137,45.6371],[12.5147,45.6394],[12.5191,45.6417],[12.5308,45.6431],[12.5356,45.6415],[12.533,45.6399],[12.5278,45.6385],[12.5264,45.6374],[12.5266,45.6351],[12.5316,45.6341],[12.5366,45.6343],[12.5521,45.6318],[12.56,45.6274],[12.5687,45.6244],[12.5712,45.6218],[12.5725,45.6172],[12.5729,45.6106],[12.5721,45.604],[12.577,45.6],[12.5757,45.5967],[12.5654,45.5894],[12.5505,45.5862],[12.5501,45.5845],[12.5533,45.5774],[12.5687,45.5626],[12.5727,45.556],[12.5752,45.5549],[12.5764,45.5552]]]}},{"type":"Feature","properties":{"i":"027026","n":"Noale"},"geometry":{"type":"Polygon","coordinates":[[[12.0722,45.5777],[12.0727,45.5769],[12.0815,45.5764],[12.0902,45.5746],[12.1004,45.5697],[12.1041,45.5616],[12.1089,45.5552],[12.1115,45.5555],[12.1128,45.5511],[12.1116,45.5448],[12.1039,45.5416],[12.0963,45.5407],[12.0901,45.5417],[12.0818,45.5458],[12.0764,45.5458],[12.0763,45.538],[12.0771,45.5371],[12.0821,45.5361],[12.0814,45.5332],[12.0787,45.5308],[12.0738,45.5321],[12.0646,45.5311],[12.0612,45.5293],[12.0487,45.5293],[12.0398,45.5308],[12.0331,45.5345],[12.0314,45.5363],[12.0314,45.5413],[12.0334,45.5627],[12.034,45.5657],[12.0383,45.5712],[12.0564,45.5724],[12.0614,45.5774],[12.0722,45.5777]]]}},{"type":"Feature","properties":{"i":"027027","n":"Noventa di Piave"},"geometry":{"type":"Polygon","coordinates":[[[12.5238,45.6495],[12.5187,45.6473],[12.5137,45.6512],[12.5133,45.6526],[12.5267,45.6558],[12.5286,45.6573],[12.528,45.6593],[12.517,45.6658],[12.5113,45.6661],[12.5092,45.6642],[12.5063,45.6645],[12.4974,45.6702],[12.4948,45.6734],[12.4946,45.6748],[12.4953,45.6757],[12.5004,45.6805],[12.5051,45.6838],[12.5054,45.6849],[12.504,45.6876],[12.5095,45.689],[12.5181,45.6886],[12.5204,45.6865],[12.522,45.6831],[12.5217,45.6803],[12.5338,45.6792],[12.5553,45.6846],[12.5596,45.6878],[12.5659,45.6906],[12.5923,45.6728],[12.5904,45.6709],[12.5962,45.6648],[12.6009,45.663],[12.5879,45.6557],[12.5814,45.659],[12.5727,45.6711],[12.5725,45.6739],[12.5663,45.6773],[12.5609,45.6736],[12.5585,45.6708],[12.5607,45.6674],[12.5492,45.6589],[12.5403,45.6531],[12.5264,45.6511],[12.5238,45.6495]]]}},{"type":"Feature","properties":{"i":"027028","n":"Pianiga"},"geometry":{"type":"Polygon","coordinates":[[[11.9901,45.4735],[12.0245,45.4671],[12.0253,45.4672],[12.0276,45.4731],[12.0537,45.4682],[12.0533,45.4672],[12.056,45.4612],[12.0602,45.4544],[12.0693,45.4503],[12.0753,45.45],[12.0847,45.4511],[12.0938,45.4473],[12.095,45.4452],[12.0905,45.4446],[12.0861,45.44],[12.0875,45.4348],[12.0826,45.4316],[12.0694,45.4312],[12.0685,45.4433],[12.0668,45.4472],[12.0647,45.4488],[12.0423,45.4504],[12.038,45.4461],[12.0359,45.4343],[12.0194,45.4296],[12.0237,45.4409],[12.0259,45.444],[12.027,45.4471],[12.0263,45.4485],[12.0178,45.4516],[12.0149,45.4486],[12.0095,45.4471],[12.0044,45.4474],[11.9982,45.4505],[11.9829,45.4524],[11.9795,45.4543],[11.9783,45.4565],[11.9773,45.4642],[11.9787,45.4692],[11.9815,45.4749],[11.9901,45.4735]]]}},{"type":"Feature","properties":{"i":"027029","n":"Portogruaro"},"geometry":{"type":"Polygon","coordinates":[[[12.8576,45.8101],[12.866,45.8051],[12.8621,45.8022],[12.8668,45.7987],[12.8726,45.7966],[12.8785,45.793],[12.8775,45.791],[12.8772,45.7841],[12.8848,45.7616],[12.8938,45.7532],[12.8874,45.7454],[12.8856,45.7402],[12.909,45.7362],[12.9135,45.7357],[12.9159,45.7369],[12.9066,45.7483],[12.9025,45.7518],[12.9007,45.7559],[12.9078,45.7619],[12.9129,45.7642],[12.9181,45.7659],[12.9299,45.7677],[12.9369,45.7662],[12.9456,45.7681],[12.9443,45.7708],[12.959,45.7549],[12.9721,45.7391],[12.9711,45.7294],[12.9742,45.7257],[12.9813,45.7211],[12.9793,45.7151],[12.9748,45.7147],[12.9744,45.7178],[12.9731,45.7185],[12.9667,45.7178],[12.9618,45.7156],[12.9603,45.7123],[12.9537,45.7073],[12.9458,45.7047],[12.9422,45.7058],[12.9412,45.7087],[12.9373,45.7104],[12.9316,45.7068],[12.9259,45.7007],[12.9209,45.6988],[12.9168,45.7033],[12.9128,45.7055],[12.9043,45.7041],[12.8952,45.7067],[12.8875,45.7108],[12.888,45.7175],[12.8901,45.7206],[12.889,45.7268],[12.8859,45.7284],[12.8758,45.7311],[12.8683,45.728],[12.8654,45.7286],[12.8625,45.7396],[12.8639,45.7613],[12.8577,45.7649],[12.8541,45.7653],[12.8539,45.7644],[12.8489,45.7633],[12.8451,45.7634],[12.8282,45.7658],[12.8252,45.7674],[12.8195,45.7677],[12.8178,45.765],[12.8171,45.7603],[12.7904,45.7543],[12.78,45.7347],[12.7776,45.732],[12.7699,45.7291],[12.7593,45.7281],[12.7566,45.7251],[12.7476,45.7282],[12.7445,45.7331],[12.7346,45.7419],[12.7266,45.7539],[12.7312,45.7617],[12.7321,45.7649],[12.7362,45.7689],[12.7407,45.7686],[12.744,45.7701],[12.7481,45.7752],[12.7458,45.7791],[12.7402,45.7832],[12.7436,45.7912],[12.7527,45.7951],[12.7574,45.7965],[12.7712,45.7912],[12.7773,45.7925],[12.784,45.7961],[12.7966,45.8006],[12.8071,45.7892],[12.8144,45.7927],[12.8276,45.8067],[12.8351,45.8101],[12.8457,45.8129],[12.8527,45.8131],[12.8576,45.8101]]]}},{"type":"Feature","properties":{"i":"027030","n":"Pramaggiore"},"geometry":{"type":"Polygon","coordinates":[[[12.7438,45.8271],[12.7499,45.8227],[12.7512,45.8249],[12.7494,45.8267],[12.7517,45.8279],[12.7585,45.825],[12.7601,45.8233],[12.7615,45.8137],[12.7638,45.8108],[12.7652,45.8054],[12.7616,45.8031],[12.7596,45.8049],[12.7566,45.8041],[12.7574,45.7965],[12.7436,45.7912],[12.7402,45.7832],[12.7458,45.7791],[12.7481,45.7752],[12.744,45.7701],[12.7407,45.7686],[12.7362,45.7689],[12.7321,45.7649],[12.7312,45.7617],[12.7288,45.7613],[12.7262,45.7779],[12.723,45.78],[12.7174,45.7745],[12.7134,45.7732],[12.6994,45.7819],[12.6959,45.7809],[12.6939,45.7815],[12.6924,45.7837],[12.6931,45.7847],[12.6984,45.7856],[12.7035,45.7844],[12.7062,45.785],[12.7132,45.788],[12.7142,45.791],[12.7091,45.7936],[12.7057,45.7944],[12.6997,45.7991],[12.695,45.8063],[12.6996,45.8113],[12.7125,45.8208],[12.73,45.8373],[12.7324,45.8366],[12.7343,45.835],[12.7389,45.8294],[12.7429,45.8266],[12.7438,45.8271]]]}},{"type":"Feature","properties":{"i":"027031","n":"Quarto d'Altino"},"geometry":{"type":"Polygon","coordinates":[[[12.4531,45.5718],[12.4578,45.5765],[12.4626,45.5736],[12.464,45.572],[12.4642,45.5701],[12.468,45.5668],[12.4695,45.5669],[12.4763,45.5693],[12.4872,45.575],[12.4931,45.5769],[12.4959,45.5763],[12.5037,45.572],[12.5044,45.5703],[12.5038,45.5692],[12.4733,45.5625],[12.4595,45.5535],[12.4583,45.5489],[12.4527,45.5448],[12.4327,45.5428],[12.4201,45.5434],[12.4149,45.545],[12.4101,45.5417],[12.4096,45.5385],[12.4104,45.5361],[12.4042,45.5352],[12.3956,45.5402],[12.3895,45.5408],[12.3792,45.537],[12.3774,45.5391],[12.3778,45.5425],[12.3844,45.548],[12.3823,45.5526],[12.3784,45.5554],[12.3715,45.5587],[12.3599,45.5615],[12.3503,45.5625],[12.3353,45.5618],[12.3524,45.5879],[12.3556,45.5894],[12.3658,45.5833],[12.3695,45.5835],[12.3804,45.578],[12.382,45.5765],[12.3845,45.5715],[12.3876,45.569],[12.3918,45.5692],[12.4183,45.565],[12.4257,45.5617],[12.4363,45.5613],[12.4437,45.5629],[12.4531,45.5718]]]}},{"type":"Feature","properties":{"i":"027032","n":"Salzano"},"geometry":{"type":"Polygon","coordinates":[[[12.1256,45.5552],[12.1295,45.5541],[12.1389,45.5489],[12.1426,45.5332],[12.1421,45.5216],[12.1362,45.5177],[12.1292,45.5116],[12.1254,45.5132],[12.1149,45.5142],[12.1075,45.5131],[12.0968,45.5147],[12.0967,45.5179],[12.0798,45.5246],[12.0781,45.5297],[12.0814,45.5332],[12.0821,45.5361],[12.0771,45.5371],[12.0763,45.538],[12.0764,45.5458],[12.0818,45.5458],[12.0901,45.5417],[12.0957,45.5407],[12.1039,45.5416],[12.1116,45.5448],[12.1128,45.5511],[12.1115,45.5555],[12.1122,45.5572],[12.1208,45.5571],[12.1256,45.5552]]]}},{"type":"Feature","properties":{"i":"027033","n":"San Donà di Piave"},"geometry":{"type":"Polygon","coordinates":[[[12.6025,45.6801],[12.6008,45.679],[12.6127,45.6703],[12.6168,45.6725],[12.6288,45.6707],[12.6394,45.6674],[12.6482,45.6637],[12.647,45.6574],[12.6561,45.6558],[12.6604,45.6581],[12.6592,45.6534],[12.6566,45.6495],[12.6555,45.6491],[12.6534,45.6422],[12.659,45.6393],[12.6482,45.6303],[12.6392,45.6182],[12.6372,45.612],[12.6409,45.6036],[12.6472,45.5982],[12.6422,45.5933],[12.6401,45.5934],[12.6374,45.5922],[12.6346,45.5887],[12.6286,45.5915],[12.6276,45.5911],[12.6203,45.5819],[12.6147,45.5716],[12.6038,45.5786],[12.5764,45.5552],[12.5752,45.5549],[12.5727,45.556],[12.5687,45.5626],[12.5525,45.5783],[12.5501,45.5845],[12.5505,45.5862],[12.5654,45.5894],[12.5757,45.5967],[12.577,45.6],[12.5721,45.604],[12.5729,45.6106],[12.5725,45.6172],[12.5712,45.6218],[12.5687,45.6244],[12.56,45.6274],[12.5521,45.6318],[12.5366,45.6343],[12.5316,45.6341],[12.5266,45.6351],[12.5264,45.6374],[12.5352,45.641],[12.5366,45.643],[12.537,45.6451],[12.5358,45.6461],[12.526,45.6468],[12.5238,45.6495],[12.5264,45.6511],[12.5403,45.6531],[12.5492,45.6589],[12.5607,45.6674],[12.5585,45.6708],[12.5609,45.6736],[12.5663,45.6773],[12.5725,45.6739],[12.5727,45.6711],[12.5814,45.659],[12.5879,45.6557],[12.6009,45.663],[12.5962,45.6648],[12.5904,45.6709],[12.5923,45.6728],[12.5659,45.6906],[12.5752,45.6972],[12.5814,45.6935],[12.5931,45.6891],[12.6025,45.6801]]]}},{"type":"Feature","properties":{"i":"027034","n":"San Michele al Tagliamento"},"geometry":{"type":"Polygon","coordinates":[[[12.979,45.834],[12.9709,45.8287],[12.9742,45.8234],[12.977,45.8237],[12.9803,45.8271],[12.9821,45.8273],[12.9814,45.8249],[12.9739,45.8227],[12.9733,45.8203],[12.9781,45.8186],[12.9866,45.8184],[12.9932,45.815],[12.9934,45.8142],[12.9916,45.8103],[12.9884,45.8087],[12.9852,45.8105],[12.9835,45.8149],[12.9814,45.8151],[12.9779,45.8137],[12.9747,45.808],[12.9808,45.7975],[12.9868,45.7975],[12.9879,45.8009],[12.9896,45.8015],[12.9913,45.8],[12.9917,45.7978],[12.9875,45.795],[12.9789,45.7928],[12.9778,45.7879],[12.9889,45.7763],[13.0061,45.7659],[13.0059,45.7607],[13.0019,45.7573],[13.0012,45.7493],[13.0025,45.7475],[13.0067,45.7448],[13.0153,45.742],[13.0161,45.7359],[13.009,45.7323],[13.008,45.731],[13.0075,45.7276],[13.0083,45.7249],[13.0121,45.7236],[13.015,45.7245],[13.0162,45.7261],[13.0164,45.7306],[13.0265,45.7368],[13.0292,45.7362],[13.0302,45.7253],[13.0385,45.7172],[13.0406,45.706],[13.0393,45.7012],[13.0365,45.7009],[13.0368,45.6994],[13.045,45.6938],[13.0468,45.6939],[13.0478,45.6963],[13.0498,45.697],[13.0523,45.6964],[13.0532,45.6945],[13.0519,45.6907],[13.0496,45.6878],[13.0439,45.6872],[13.0436,45.6855],[13.0444,45.6843],[13.0516,45.6796],[13.056,45.6777],[13.0603,45.6796],[13.0635,45.6784],[13.0669,45.6709],[13.0619,45.6629],[13.062,45.6595],[13.0634,45.6568],[13.0654,45.6556],[13.0756,45.6593],[13.08,45.6591],[13.0837,45.6577],[13.0846,45.6566],[13.0833,45.6551],[13.0834,45.6503],[13.0935,45.6477],[13.1017,45.6427],[13.1022,45.6415],[13.1016,45.6388],[13.0977,45.6353],[13.0634,45.631],[13.0282,45.6294],[13.0022,45.6274],[12.981,45.6234],[12.9764,45.6237],[12.9761,45.6249],[12.9822,45.6303],[12.9876,45.6378],[12.9767,45.6425],[12.9741,45.6447],[12.9779,45.6519],[12.9791,45.6577],[12.9712,45.6608],[12.967,45.6645],[12.9623,45.6701],[12.9575,45.6743],[12.9547,45.6757],[12.9509,45.6799],[12.9503,45.6816],[12.9516,45.6839],[12.96,45.6852],[12.9631,45.6871],[12.9712,45.6996],[12.9735,45.7045],[12.9755,45.7114],[12.9748,45.7147],[12.9793,45.7151],[12.9813,45.7211],[12.9742,45.7257],[12.9711,45.7294],[12.9721,45.7391],[12.9692,45.7425],[12.9674,45.7531],[12.9588,45.7616],[12.9362,45.7921],[12.9419,45.8203],[12.9521,45.8222],[12.9521,45.8283],[12.951,45.8292],[12.951,45.8311],[12.952,45.8435],[12.9578,45.8474],[12.9614,45.8469],[12.9663,45.8408],[12.9769,45.8345],[12.979,45.834]]]}},{"type":"Feature","properties":{"i":"027035","n":"Santa Maria di Sala"},"geometry":{"type":"Polygon","coordinates":[[[12.0331,45.5345],[12.0398,45.5308],[12.0487,45.5293],[12.0612,45.5293],[12.0646,45.5311],[12.07,45.5319],[12.0738,45.5321],[12.0772,45.5311],[12.0728,45.5193],[12.066,45.5209],[12.0598,45.5058],[12.0506,45.5088],[12.0368,45.4977],[12.0344,45.4916],[12.0495,45.482],[12.0449,45.4699],[12.0275,45.4731],[12.0253,45.4672],[12.0245,45.4671],[11.9901,45.4735],[12.004,45.5103],[11.9951,45.512],[11.9973,45.518],[12.0019,45.5175],[12.008,45.532],[12.0134,45.5309],[12.0184,45.5287],[12.023,45.5247],[12.0248,45.521],[12.0263,45.5202],[12.0315,45.5351],[12.0331,45.5345]]]}},{"type":"Feature","properties":{"i":"027036","n":"San Stino di Livenza"},"geometry":{"type":"Polygon","coordinates":[[[12.7476,45.7282],[12.7566,45.7251],[12.755,45.7234],[12.757,45.7208],[12.7769,45.7157],[12.7812,45.7102],[12.7797,45.7038],[12.7807,45.6983],[12.7824,45.6958],[12.7935,45.6853],[12.7978,45.6834],[12.8005,45.678],[12.8065,45.6756],[12.8089,45.6754],[12.8117,45.6772],[12.8154,45.682],[12.8155,45.6831],[12.8134,45.6861],[12.8134,45.6872],[12.815,45.6887],[12.8185,45.6898],[12.8264,45.6886],[12.8277,45.688],[12.8243,45.6762],[12.8253,45.6748],[12.8399,45.6741],[12.8516,45.6715],[12.8566,45.6634],[12.8569,45.6621],[12.8523,45.6601],[12.8512,45.6606],[12.8475,45.6592],[12.8369,45.6528],[12.8381,45.6515],[12.835,45.6494],[12.8214,45.6454],[12.8177,45.6461],[12.8139,45.6483],[12.8107,45.6472],[12.8064,45.6437],[12.8068,45.6384],[12.8095,45.6338],[12.8123,45.6372],[12.8221,45.6389],[12.8278,45.63],[12.8271,45.6237],[12.823,45.6226],[12.8218,45.6212],[12.8237,45.6131],[12.8233,45.6113],[12.8211,45.6107],[12.8097,45.6137],[12.808,45.6133],[12.807,45.6114],[12.807,45.6089],[12.8081,45.6073],[12.8138,45.6034],[12.8139,45.6022],[12.8124,45.6004],[12.8145,45.5954],[12.8167,45.5924],[12.8065,45.5972],[12.8073,45.5998],[12.8122,45.6017],[12.813,45.6028],[12.8071,45.6071],[12.8061,45.6105],[12.8074,45.6138],[12.8094,45.6149],[12.82,45.6117],[12.8215,45.6155],[12.8209,45.6224],[12.8234,45.6237],[12.8256,45.63],[12.8223,45.6347],[12.8122,45.6352],[12.8096,45.6331],[12.7905,45.6403],[12.7899,45.6456],[12.7906,45.6479],[12.7931,45.6493],[12.7977,45.6495],[12.7995,45.6508],[12.798,45.657],[12.7818,45.6618],[12.7823,45.6669],[12.7686,45.6655],[12.7669,45.6641],[12.7666,45.6618],[12.7564,45.6633],[12.7516,45.6664],[12.7435,45.6825],[12.7344,45.683],[12.7081,45.6915],[12.7048,45.6901],[12.7037,45.6914],[12.7039,45.694],[12.7056,45.6974],[12.7093,45.7002],[12.71,45.7012],[12.7095,45.7019],[12.691,45.709],[12.685,45.713],[12.6844,45.7157],[12.6818,45.7178],[12.6786,45.718],[12.6762,45.7136],[12.6708,45.7168],[12.6724,45.7287],[12.6717,45.7366],[12.6644,45.739],[12.6702,45.7434],[12.67,45.7455],[12.6635,45.7491],[12.6625,45.7433],[12.6592,45.7414],[12.6561,45.7411],[12.6466,45.7474],[12.6536,45.7517],[12.662,45.755],[12.6641,45.7616],[12.6681,45.7627],[12.6762,45.7613],[12.6775,45.7562],[12.6805,45.7539],[12.6874,45.757],[12.6897,45.7596],[12.6943,45.7615],[12.7041,45.7616],[12.7069,45.759],[12.7084,45.7552],[12.7049,45.7479],[12.7061,45.7375],[12.7226,45.7221],[12.7262,45.7208],[12.7294,45.7212],[12.7476,45.7282]]]}},{"type":"Feature","properties":{"i":"027037","n":"Scorzè"},"geometry":{"type":"Polygon","coordinates":[[[12.1853,45.5849],[12.1912,45.5835],[12.1914,45.5778],[12.1939,45.5741],[12.2022,45.5716],[12.21,45.5705],[12.2123,45.5645],[12.2121,45.5627],[12.2066,45.5501],[12.2039,45.5485],[12.2006,45.5473],[12.192,45.5488],[12.1918,45.5508],[12.1906,45.5525],[12.1824,45.5531],[12.1812,45.5531],[12.1809,45.5488],[12.1796,45.5508],[12.1765,45.5484],[12.1767,45.5465],[12.1731,45.5466],[12.1715,45.5474],[12.1651,45.5525],[12.1689,45.5689],[12.1689,45.57],[12.1673,45.5713],[12.1649,45.5714],[12.1525,45.5634],[12.1508,45.5584],[12.1439,45.5602],[12.1321,45.5666],[12.1282,45.5674],[12.1268,45.5666],[12.1256,45.5552],[12.1208,45.5571],[12.1128,45.5573],[12.1115,45.5555],[12.1089,45.5552],[12.1041,45.5616],[12.1004,45.5697],[12.0902,45.5746],[12.0815,45.5764],[12.0727,45.5769],[12.0722,45.5777],[12.0724,45.5814],[12.0836,45.582],[12.089,45.5883],[12.0922,45.5944],[12.0925,45.5983],[12.0991,45.6039],[12.1098,45.6038],[12.1082,45.6085],[12.1084,45.6143],[12.113,45.614],[12.1215,45.6097],[12.1235,45.6055],[12.1231,45.6],[12.1247,45.5977],[12.1297,45.5962],[12.1449,45.5952],[12.1463,45.5909],[12.1452,45.5883],[12.1501,45.5849],[12.1535,45.5861],[12.1612,45.5845],[12.1624,45.5814],[12.1617,45.5774],[12.1665,45.574],[12.1754,45.5791],[12.1844,45.5826],[12.1853,45.5849]]]}},{"type":"Feature","properties":{"i":"027038","n":"Spinea"},"geometry":{"type":"Polygon","coordinates":[[[12.1757,45.5078],[12.1718,45.504],[12.174,45.4938],[12.1781,45.4915],[12.1813,45.4881],[12.1814,45.4861],[12.178,45.4678],[12.1767,45.4692],[12.1682,45.471],[12.1609,45.4691],[12.1513,45.4719],[12.1445,45.4759],[12.1276,45.48],[12.125,45.4819],[12.1353,45.4949],[12.1368,45.5022],[12.1332,45.5087],[12.1303,45.5109],[12.1373,45.5151],[12.1388,45.5145],[12.1383,45.5126],[12.1345,45.5078],[12.1368,45.5067],[12.1382,45.5065],[12.1434,45.5125],[12.1488,45.5159],[12.1524,45.5129],[12.1679,45.5071],[12.1757,45.5078]]]}},{"type":"Feature","properties":{"i":"027039","n":"Stra"},"geometry":{"type":"Polygon","coordinates":[[[12.0135,45.4242],[12.0097,45.4174],[12.0098,45.4111],[12.0149,45.4116],[12.0239,45.4156],[12.0337,45.4162],[12.0378,45.416],[12.0423,45.4136],[12.0519,45.4128],[12.0541,45.4135],[12.0629,45.4191],[12.072,45.4203],[12.0752,45.4149],[12.0751,45.4112],[12.0536,45.4065],[12.0522,45.4041],[12.0533,45.4009],[12.0523,45.4006],[12.0459,45.4007],[12.0426,45.4049],[12.0416,45.4048],[12.0314,45.3992],[12.02,45.3966],[12.0101,45.4006],[12.0077,45.4063],[12.0085,45.4078],[12.0028,45.4084],[11.9947,45.4151],[11.996,45.4226],[11.9981,45.4241],[12.0054,45.4251],[12.0135,45.4242]]]}},{"type":"Feature","properties":{"i":"027040","n":"Teglio Veneto"},"geometry":{"type":"Polygon","coordinates":[[[12.9205,45.8313],[12.9236,45.8273],[12.9246,45.8241],[12.9311,45.8145],[12.9254,45.8114],[12.9164,45.808],[12.9054,45.8091],[12.892,45.8035],[12.8837,45.8017],[12.8799,45.8052],[12.8782,45.8085],[12.8739,45.8117],[12.8724,45.8121],[12.8675,45.8086],[12.866,45.8051],[12.8576,45.8101],[12.859,45.8208],[12.8697,45.8338],[12.8901,45.8205],[12.8931,45.8197],[12.9003,45.8243],[12.902,45.8271],[12.9078,45.8291],[12.9153,45.8249],[12.9205,45.8313]]]}},{"type":"Feature","properties":{"i":"027041","n":"Torre di Mosto"},"geometry":{"type":"Polygon","coordinates":[[[12.7666,45.6618],[12.7696,45.6602],[12.7511,45.6411],[12.7483,45.6372],[12.7539,45.6347],[12.7558,45.6239],[12.755,45.6147],[12.7533,45.6133],[12.7519,45.6102],[12.7531,45.5977],[12.7494,45.5967],[12.7473,45.5965],[12.7436,45.6008],[12.7432,45.6025],[12.7441,45.6039],[12.7477,45.6055],[12.7531,45.6141],[12.7543,45.6243],[12.7478,45.6357],[12.7299,45.65],[12.713,45.6496],[12.7051,45.6504],[12.698,45.6408],[12.6935,45.6381],[12.673,45.6408],[12.6617,45.6382],[12.6534,45.6422],[12.6555,45.6491],[12.6566,45.6495],[12.6592,45.6534],[12.6604,45.6581],[12.6693,45.6577],[12.6706,45.6583],[12.6742,45.675],[12.686,45.6986],[12.6772,45.7052],[12.685,45.713],[12.691,45.709],[12.7095,45.7019],[12.71,45.7012],[12.7093,45.7002],[12.7056,45.6974],[12.7039,45.694],[12.7037,45.6914],[12.7048,45.6901],[12.7081,45.6915],[12.7344,45.683],[12.7435,45.6825],[12.7516,45.6664],[12.7564,45.6633],[12.7666,45.6618]]]}},{"type":"Feature","properties":{"i":"027042","n":"Venezia"},"geometry":{"type":"Polygon","coordinates":[[[12.5271,45.5006],[12.5257,45.5022],[12.5085,45.5036],[12.5075,45.5034],[12.5046,45.4986],[12.5018,45.4976],[12.4983,45.4971],[12.4863,45.4996],[12.4777,45.4894],[12.4783,45.4877],[12.4777,45.4846],[12.472,45.4783],[12.4658,45.4744],[12.4528,45.4736],[12.4457,45.471],[12.4405,45.4618],[12.4375,45.4581],[12.427,45.4498],[12.4219,45.4443],[12.4201,45.4409],[12.42,45.4388],[12.4227,45.4336],[12.4273,45.4289],[12.4362,45.4225],[12.428,45.4185],[12.4242,45.4194],[12.4128,45.4264],[12.402,45.4287],[12.3946,45.4253],[12.3788,45.4139],[12.3634,45.3989],[12.3607,45.396],[12.3385,45.3643],[12.3309,45.351],[12.3298,45.3451],[12.3304,45.3372],[12.3428,45.3338],[12.3357,45.3313],[12.3302,45.3313],[12.333,45.327],[12.3248,45.3288],[12.32,45.3204],[12.3057,45.2822],[12.298,45.2456],[12.3006,45.2369],[12.3048,45.2348],[12.3144,45.2343],[12.3149,45.2337],[12.3139,45.2311],[12.2909,45.2327],[12.2753,45.2364],[12.2802,45.2506],[12.2876,45.2508],[12.2996,45.3075],[12.2959,45.3323],[12.2716,45.3306],[12.2657,45.3293],[12.2552,45.3259],[12.2513,45.3236],[12.2479,45.3195],[12.2422,45.3188],[12.2362,45.3192],[12.2433,45.3256],[12.2656,45.3602],[12.266,45.3925],[12.2619,45.3961],[12.2475,45.3961],[12.2595,45.4142],[12.2531,45.4203],[12.2421,45.4269],[12.2267,45.4279],[12.2175,45.4304],[12.2006,45.4378],[12.1949,45.4414],[12.1921,45.4465],[12.1883,45.4492],[12.1847,45.4491],[12.1793,45.4532],[12.1804,45.4569],[12.182,45.458],[12.1832,45.4647],[12.178,45.4678],[12.1813,45.4881],[12.1766,45.4928],[12.174,45.4938],[12.1718,45.504],[12.1757,45.5078],[12.1803,45.5073],[12.1818,45.5099],[12.1907,45.5066],[12.1973,45.5144],[12.197,45.519],[12.1936,45.5197],[12.1828,45.5259],[12.1688,45.5311],[12.1734,45.5369],[12.1796,45.5406],[12.1811,45.5458],[12.1812,45.5531],[12.1906,45.5525],[12.1918,45.5508],[12.192,45.5488],[12.2006,45.5473],[12.2039,45.5485],[12.2044,45.5432],[12.2077,45.5406],[12.2162,45.5374],[12.2216,45.5385],[12.2302,45.5388],[12.2372,45.5378],[12.2395,45.5364],[12.2432,45.5317],[12.2455,45.5308],[12.251,45.531],[12.2773,45.536],[12.2797,45.5358],[12.2821,45.5429],[12.2835,45.5435],[12.2863,45.5431],[12.2871,45.5412],[12.287,45.5378],[12.2878,45.5366],[12.2909,45.5376],[12.2972,45.5442],[12.3173,45.5393],[12.3227,45.5364],[12.3217,45.5329],[12.3643,45.5332],[12.3792,45.537],[12.3895,45.5408],[12.3956,45.5402],[12.4042,45.5352],[12.4104,45.5361],[12.4096,45.5385],[12.4101,45.5417],[12.4149,45.545],[12.4201,45.5434],[12.4327,45.5428],[12.4527,45.5448],[12.4583,45.5489],[12.4595,45.5535],[12.4733,45.5625],[12.4762,45.5634],[12.5483,45.578],[12.5599,45.5676],[12.5732,45.5516],[12.5965,45.5453],[12.5912,45.541],[12.5857,45.5382],[12.5808,45.5303],[12.5487,45.515],[12.539,45.5124],[12.5362,45.5131],[12.5324,45.5128],[12.5317,45.5083],[12.5335,45.5063],[12.533,45.5038],[12.5271,45.5006]]]}},{"type":"Feature","properties":{"i":"027043","n":"Vigonovo"},"geometry":{"type":"Polygon","coordinates":[[[12.0407,45.4041],[12.0412,45.397],[12.0404,45.3949],[12.0359,45.3912],[12.0327,45.3843],[12.0329,45.3736],[12.0291,45.3677],[12.0275,45.367],[12.0121,45.3704],[12.0008,45.3768],[11.9973,45.3776],[11.9928,45.3809],[11.9948,45.3852],[11.9915,45.3939],[11.9877,45.3959],[11.9816,45.3961],[11.9753,45.3981],[11.9751,45.4015],[11.9794,45.4076],[11.9841,45.4084],[12.006,45.4084],[12.0085,45.4078],[12.0077,45.4063],[12.0101,45.4006],[12.02,45.3966],[12.0314,45.3992],[12.0407,45.4041]]]}},{"type":"Feature","properties":{"i":"027044","n":"Cavallino-Treporti"},"geometry":{"type":"Polygon","coordinates":[[[12.5271,45.5006],[12.5299,45.4992],[12.5332,45.4987],[12.5393,45.5001],[12.547,45.4985],[12.5532,45.4939],[12.5544,45.4912],[12.5526,45.4862],[12.5559,45.485],[12.5594,45.4847],[12.5774,45.4919],[12.5836,45.488],[12.5855,45.4837],[12.5819,45.481],[12.5844,45.4787],[12.5774,45.4776],[12.5608,45.4731],[12.5181,45.4587],[12.4675,45.4448],[12.4552,45.4396],[12.4482,45.4353],[12.435,45.4248],[12.4362,45.4225],[12.4273,45.4289],[12.4227,45.4336],[12.42,45.4388],[12.4201,45.4409],[12.4219,45.4443],[12.427,45.4498],[12.4375,45.4581],[12.4405,45.4618],[12.4452,45.4706],[12.4528,45.4736],[12.4636,45.4739],[12.4682,45.4754],[12.472,45.4783],[12.4777,45.4846],[12.4783,45.4877],[12.4777,45.4894],[12.4863,45.4996],[12.4983,45.4971],[12.5018,45.4976],[12.5046,45.4986],[12.5075,45.5034],[12.5085,45.5036],[12.5257,45.5022],[12.5271,45.5006]]]}}]}
