{"type":"FeatureCollection","fonte":"Confini comunali ISTAT via openpolis/geojson-italy — CC BY 4.0","features":[{"type":"Feature","properties":{"i":"024001","n":"Agugliaro"},"geometry":{"type":"Polygon","coordinates":[[[11.6123,45.3254],[11.6145,45.3173],[11.6104,45.3146],[11.6041,45.3183],[11.5961,45.3162],[11.5883,45.313],[11.5812,45.303],[11.5803,45.2974],[11.5729,45.2993],[11.5678,45.306],[11.5579,45.3105],[11.5526,45.3105],[11.558,45.3284],[11.5617,45.3353],[11.5663,45.3405],[11.5641,45.3523],[11.6017,45.3358],[11.6104,45.3284],[11.6123,45.3254]]]}},{"type":"Feature","properties":{"i":"024002","n":"Albettone"},"geometry":{"type":"Polygon","coordinates":[[[11.6157,45.388],[11.6115,45.3743],[11.6156,45.3666],[11.6209,45.3614],[11.6231,45.3612],[11.6245,45.3601],[11.6274,45.3564],[11.6263,45.3502],[11.6253,45.3501],[11.6251,45.3459],[11.6232,45.3441],[11.6204,45.3434],[11.6169,45.3365],[11.6187,45.3349],[11.6199,45.331],[11.618,45.327],[11.6163,45.3257],[11.6123,45.3254],[11.6104,45.3284],[11.6017,45.3358],[11.5638,45.3523],[11.5649,45.3656],[11.5644,45.3691],[11.5661,45.373],[11.569,45.373],[11.5752,45.3769],[11.5825,45.3799],[11.589,45.3813],[11.5956,45.3857],[11.6075,45.3884],[11.6157,45.388]]]}},{"type":"Feature","properties":{"i":"024003","n":"Alonte"},"geometry":{"type":"Polygon","coordinates":[[[11.4505,45.3774],[11.4545,45.3697],[11.4544,45.3639],[11.4534,45.361],[11.4502,45.3572],[11.4456,45.3495],[11.4451,45.3468],[11.4397,45.3431],[11.433,45.3399],[11.4276,45.3392],[11.4266,45.3424],[11.4236,45.3433],[11.4173,45.3502],[11.4186,45.3557],[11.4073,45.3675],[11.4058,45.3714],[11.4104,45.3753],[11.4151,45.3748],[11.4231,45.3765],[11.4271,45.3815],[11.4363,45.3805],[11.4505,45.3774]]]}},{"type":"Feature","properties":{"i":"024004","n":"Altavilla Vicentina"},"geometry":{"type":"Polygon","coordinates":[[[11.491,45.5242],[11.4941,45.5208],[11.4965,45.5156],[11.5032,45.5133],[11.5098,45.5152],[11.5063,45.5096],[11.5046,45.4958],[11.5018,45.4902],[11.4852,45.4812],[11.473,45.4863],[11.4563,45.4897],[11.4579,45.4908],[11.4577,45.4929],[11.4472,45.5008],[11.4434,45.5078],[11.442,45.509],[11.4511,45.5129],[11.4545,45.5131],[11.452,45.5183],[11.4665,45.5235],[11.4746,45.5256],[11.4785,45.5253],[11.4822,45.5247],[11.4833,45.522],[11.491,45.5242]]]}},{"type":"Feature","properties":{"i":"024005","n":"Altissimo"},"geometry":{"type":"Polygon","coordinates":[[[11.282,45.5984],[11.2821,45.5978],[11.2681,45.5944],[11.2599,45.5903],[11.2584,45.5904],[11.2561,45.5909],[11.2519,45.5934],[11.2475,45.5977],[11.2406,45.6004],[11.2358,45.6001],[11.2297,45.602],[11.2222,45.6011],[11.2183,45.6039],[11.2171,45.6086],[11.2272,45.6195],[11.2331,45.6349],[11.2272,45.6571],[11.2302,45.657],[11.2349,45.6537],[11.2371,45.651],[11.2444,45.6375],[11.2633,45.6146],[11.2657,45.6123],[11.2765,45.6091],[11.2815,45.6053],[11.2832,45.6024],[11.282,45.5984]]]}},{"type":"Feature","properties":{"i":"024006","n":"Arcugnano"},"geometry":{"type":"Polygon","coordinates":[[[11.5902,45.4832],[11.5929,45.4813],[11.5905,45.4791],[11.5878,45.4776],[11.5744,45.4746],[11.5785,45.471],[11.5872,45.4692],[11.587,45.4663],[11.5851,45.4624],[11.5816,45.4619],[11.574,45.4679],[11.5676,45.4668],[11.564,45.4632],[11.5622,45.4582],[11.5633,45.4567],[11.56,45.4476],[11.5568,45.4471],[11.5504,45.4496],[11.5483,45.4516],[11.5453,45.4519],[11.5415,45.4485],[11.5374,45.4409],[11.5353,45.4404],[11.5272,45.4411],[11.513,45.4443],[11.5079,45.4482],[11.4968,45.4543],[11.4936,45.4604],[11.495,45.4656],[11.4916,45.475],[11.4906,45.4768],[11.4852,45.4812],[11.5018,45.4902],[11.5046,45.4958],[11.5063,45.5096],[11.5098,45.5152],[11.5227,45.5143],[11.5324,45.5169],[11.5359,45.5134],[11.5453,45.5142],[11.5505,45.5107],[11.5545,45.5063],[11.5555,45.5035],[11.5513,45.4923],[11.5516,45.4884],[11.5573,45.4861],[11.5599,45.4864],[11.5665,45.4973],[11.5668,45.4993],[11.572,45.5002],[11.5756,45.4967],[11.5783,45.4921],[11.5845,45.4848],[11.5902,45.4832]]]}},{"type":"Feature","properties":{"i":"024007","n":"Arsiero"},"geometry":{"type":"Polygon","coordinates":[[[11.3055,45.876],[11.2925,45.8762],[11.2869,45.8744],[11.286,45.8721],[11.2927,45.8666],[11.3014,45.8618],[11.3215,45.8552],[11.3329,45.8473],[11.3464,45.8221],[11.3544,45.826],[11.3572,45.8334],[11.3567,45.8378],[11.3582,45.8369],[11.3636,45.8359],[11.3707,45.8359],[11.3699,45.8283],[11.3672,45.8186],[11.3679,45.815],[11.3702,45.8059],[11.3773,45.8009],[11.3737,45.8018],[11.37,45.8016],[11.3683,45.8003],[11.3609,45.798],[11.3564,45.7983],[11.3224,45.8079],[11.3145,45.8158],[11.3017,45.8164],[11.2936,45.8158],[11.2868,45.8168],[11.2796,45.8194],[11.2716,45.8257],[11.2737,45.8347],[11.2773,45.8411],[11.2765,45.8435],[11.264,45.8548],[11.2501,45.864],[11.2474,45.8682],[11.251,45.8724],[11.2509,45.8744],[11.244,45.8756],[11.2444,45.8769],[11.2509,45.8748],[11.2604,45.8734],[11.2722,45.8734],[11.2703,45.8806],[11.2703,45.89],[11.2711,45.8942],[11.292,45.8864],[11.2999,45.8787],[11.3055,45.876]]]}},{"type":"Feature","properties":{"i":"024008","n":"Arzignano"},"geometry":{"type":"Polygon","coordinates":[[[11.3274,45.5587],[11.3342,45.5527],[11.3381,45.553],[11.3613,45.5456],[11.3716,45.5457],[11.3795,45.542],[11.3789,45.539],[11.3806,45.527],[11.3804,45.5179],[11.379,45.5146],[11.3758,45.5115],[11.3757,45.504],[11.3769,45.5027],[11.3764,45.5023],[11.3608,45.4991],[11.3533,45.499],[11.3403,45.5016],[11.3202,45.499],[11.2958,45.5041],[11.2849,45.5107],[11.2988,45.5206],[11.3053,45.5218],[11.3076,45.5236],[11.309,45.5252],[11.3074,45.5268],[11.3066,45.532],[11.3094,45.5354],[11.3111,45.5353],[11.3135,45.5365],[11.3158,45.5391],[11.3163,45.5418],[11.3147,45.5439],[11.3014,45.5548],[11.2982,45.5563],[11.2994,45.5574],[11.3091,45.5597],[11.3217,45.5601],[11.3274,45.5587]]]}},{"type":"Feature","properties":{"i":"024009","n":"Asiago"},"geometry":{"type":"Polygon","coordinates":[[[11.5445,46.0118],[11.5523,46.0117],[11.5662,46.0061],[11.5772,46.0065],[11.5798,46.0008],[11.5876,45.969],[11.5917,45.9695],[11.5939,45.971],[11.6003,45.9713],[11.6057,45.97],[11.611,45.9675],[11.6146,45.9674],[11.621,45.9715],[11.6307,45.9694],[11.6276,45.9606],[11.6042,45.9652],[11.577,45.9641],[11.5736,45.9617],[11.573,45.9598],[11.5652,45.9539],[11.5512,45.952],[11.5447,45.9499],[11.5346,45.953],[11.5334,45.9549],[11.5248,45.9556],[11.5257,45.9471],[11.5282,45.9386],[11.5275,45.9299],[11.5293,45.923],[11.5286,45.9156],[11.526,45.9027],[11.5283,45.8949],[11.5372,45.8734],[11.542,45.8694],[11.5537,45.8654],[11.5588,45.8649],[11.5671,45.8621],[11.5733,45.8587],[11.5793,45.8638],[11.5852,45.8673],[11.5905,45.8689],[11.5982,45.8672],[11.6169,45.8712],[11.624,45.8739],[11.6348,45.8683],[11.6271,45.8626],[11.6082,45.8605],[11.5901,45.8615],[11.586,45.8602],[11.5872,45.8546],[11.5976,45.8479],[11.5999,45.8443],[11.5926,45.8417],[11.5889,45.8377],[11.5854,45.8354],[11.5759,45.8336],[11.5718,45.8353],[11.5524,45.835],[11.5445,45.8341],[11.5268,45.8299],[11.5273,45.8286],[11.5296,45.8279],[11.5317,45.8247],[11.5277,45.8168],[11.5258,45.8153],[11.5105,45.8132],[11.4944,45.8122],[11.4899,45.8207],[11.4888,45.8335],[11.4852,45.8487],[11.4854,45.8538],[11.4893,45.8714],[11.4876,45.8796],[11.4864,45.8834],[11.4805,45.8886],[11.4713,45.9014],[11.4715,45.9085],[11.4752,45.9124],[11.4781,45.9205],[11.4744,45.9226],[11.4642,45.9317],[11.4606,45.9428],[11.4529,45.954],[11.4502,45.9539],[11.4437,45.95],[11.4342,45.9474],[11.4314,45.9497],[11.4144,45.9505],[11.4092,45.9466],[11.4024,45.9441],[11.3998,45.9446],[11.3929,45.9501],[11.3901,45.9513],[11.3833,45.951],[11.3779,45.9572],[11.3761,45.9611],[11.3724,45.9732],[11.3734,45.9832],[11.3785,45.9841],[11.4001,45.9801],[11.4133,45.981],[11.4467,45.9809],[11.4522,45.9838],[11.4653,45.9945],[11.484,46.0014],[11.4885,46.0068],[11.4935,46.0095],[11.5107,46.012],[11.5134,46.0103],[11.5169,46.0093],[11.522,46.0114],[11.5337,46.0121],[11.5445,46.0118]]]}},{"type":"Feature","properties":{"i":"024010","n":"Asigliano Veneto"},"geometry":{"type":"Polygon","coordinates":[[[11.4833,45.3231],[11.4803,45.3155],[11.4757,45.3074],[11.4653,45.2986],[11.4626,45.2945],[11.4404,45.3029],[11.4333,45.3074],[11.4317,45.3121],[11.4317,45.3139],[11.4335,45.3161],[11.4376,45.317],[11.4468,45.3155],[11.4531,45.322],[11.4526,45.3237],[11.4537,45.3252],[11.4833,45.3231]]]}},{"type":"Feature","properties":{"i":"024012","n":"Bassano del Grappa"},"geometry":{"type":"Polygon","coordinates":[[[11.7127,45.8192],[11.7173,45.8158],[11.7189,45.8125],[11.7185,45.8099],[11.7144,45.8053],[11.7144,45.7959],[11.717,45.7905],[11.7257,45.7861],[11.7334,45.7906],[11.7452,45.7837],[11.7631,45.7716],[11.7494,45.7703],[11.755,45.7537],[11.7504,45.7528],[11.7483,45.7507],[11.7591,45.7381],[11.755,45.7373],[11.7224,45.7365],[11.718,45.7349],[11.7067,45.7259],[11.6939,45.7254],[11.695,45.7279],[11.6943,45.7309],[11.6856,45.7375],[11.6869,45.7461],[11.6905,45.756],[11.6942,45.7609],[11.6875,45.7687],[11.6819,45.7701],[11.67,45.7785],[11.6653,45.7886],[11.6651,45.7911],[11.6578,45.8056],[11.6558,45.8138],[11.6451,45.8219],[11.6702,45.8193],[11.6772,45.8176],[11.6809,45.8143],[11.6889,45.8125],[11.708,45.8161],[11.7127,45.8192]]]}},{"type":"Feature","properties":{"i":"024013","n":"Bolzano Vicentino"},"geometry":{"type":"Polygon","coordinates":[[[11.6491,45.6228],[11.6468,45.6192],[11.6438,45.6113],[11.6457,45.61],[11.6461,45.6068],[11.6428,45.599],[11.6447,45.5961],[11.6415,45.5922],[11.6405,45.5799],[11.6358,45.582],[11.6221,45.5798],[11.621,45.5792],[11.6178,45.5726],[11.6122,45.5672],[11.6076,45.5673],[11.5982,45.5654],[11.5964,45.5661],[11.5952,45.5741],[11.5968,45.5766],[11.5913,45.5822],[11.5945,45.5832],[11.5953,45.5844],[11.5982,45.5979],[11.5986,45.6206],[11.6029,45.6201],[11.6055,45.6236],[11.612,45.6249],[11.6144,45.6236],[11.6136,45.6219],[11.6174,45.6207],[11.623,45.6222],[11.6253,45.624],[11.6323,45.6243],[11.6491,45.6228]]]}},{"type":"Feature","properties":{"i":"024014","n":"Breganze"},"geometry":{"type":"Polygon","coordinates":[[[11.5896,45.727],[11.5881,45.7253],[11.5874,45.7219],[11.5898,45.7136],[11.5925,45.7107],[11.5979,45.7092],[11.6041,45.7059],[11.6134,45.6995],[11.6206,45.6897],[11.6211,45.6804],[11.6154,45.6821],[11.5864,45.6819],[11.5812,45.6799],[11.5812,45.679],[11.5744,45.674],[11.5634,45.6723],[11.5578,45.678],[11.5445,45.7054],[11.5503,45.7078],[11.5542,45.7111],[11.5547,45.7155],[11.5567,45.7181],[11.5636,45.7205],[11.5617,45.7311],[11.5621,45.7339],[11.5632,45.7348],[11.5657,45.7346],[11.5671,45.7259],[11.5845,45.7249],[11.5896,45.727]]]}},{"type":"Feature","properties":{"i":"024015","n":"Brendola"},"geometry":{"type":"Polygon","coordinates":[[[11.4563,45.4897],[11.4773,45.485],[11.4869,45.4802],[11.4916,45.475],[11.495,45.4656],[11.4945,45.4626],[11.4899,45.4616],[11.4824,45.4539],[11.4776,45.4451],[11.4725,45.4455],[11.4508,45.4436],[11.4416,45.4406],[11.4378,45.4372],[11.4319,45.4345],[11.4304,45.4345],[11.43,45.4363],[11.4316,45.4373],[11.4308,45.441],[11.4266,45.4477],[11.4154,45.4542],[11.4168,45.4556],[11.4178,45.4619],[11.4154,45.4657],[11.4193,45.47],[11.422,45.4703],[11.4242,45.4718],[11.4258,45.4766],[11.4217,45.4802],[11.438,45.4894],[11.4473,45.4893],[11.4525,45.4879],[11.4563,45.4897]]]}},{"type":"Feature","properties":{"i":"024016","n":"Bressanvido"},"geometry":{"type":"Polygon","coordinates":[[[11.662,45.6552],[11.6562,45.6404],[11.6516,45.6386],[11.6466,45.6342],[11.6455,45.6274],[11.6491,45.6228],[11.6323,45.6243],[11.6253,45.624],[11.623,45.6222],[11.6178,45.6207],[11.6195,45.6296],[11.6184,45.6372],[11.6221,45.6451],[11.6282,45.653],[11.6452,45.6552],[11.662,45.6552]]]}},{"type":"Feature","properties":{"i":"024017","n":"Brogliano"},"geometry":{"type":"Polygon","coordinates":[[[11.3122,45.6018],[11.3156,45.5997],[11.3234,45.5993],[11.3341,45.6006],[11.3447,45.5977],[11.3536,45.5983],[11.3544,45.5995],[11.3643,45.5967],[11.3689,45.5948],[11.3779,45.586],[11.381,45.576],[11.3616,45.58],[11.3517,45.5847],[11.3464,45.5861],[11.3447,45.5861],[11.3389,45.5818],[11.3337,45.5793],[11.3276,45.5808],[11.3114,45.588],[11.2901,45.5847],[11.2898,45.5879],[11.2862,45.5926],[11.2842,45.5934],[11.282,45.5961],[11.282,45.5984],[11.3122,45.6018]]]}},{"type":"Feature","properties":{"i":"024018","n":"Caldogno"},"geometry":{"type":"Polygon","coordinates":[[[11.5239,45.6202],[11.5264,45.6146],[11.5323,45.6136],[11.5364,45.6103],[11.5433,45.6005],[11.5448,45.5957],[11.5307,45.5881],[11.5332,45.5816],[11.5256,45.5783],[11.5177,45.5835],[11.5166,45.5887],[11.5173,45.5908],[11.5037,45.6007],[11.4929,45.6056],[11.4824,45.6167],[11.4854,45.6173],[11.4881,45.6191],[11.4875,45.6315],[11.4922,45.6357],[11.4933,45.6404],[11.5011,45.6432],[11.505,45.6433],[11.5086,45.6366],[11.5239,45.6202]]]}},{"type":"Feature","properties":{"i":"024019","n":"Caltrano"},"geometry":{"type":"Polygon","coordinates":[[[11.4899,45.8207],[11.4944,45.8122],[11.4957,45.8034],[11.5025,45.7806],[11.4977,45.7744],[11.4957,45.7696],[11.4955,45.7666],[11.4967,45.7644],[11.4867,45.7628],[11.4862,45.7614],[11.4827,45.7613],[11.4644,45.7663],[11.4591,45.7697],[11.4564,45.7701],[11.4465,45.7681],[11.4393,45.7702],[11.4364,45.774],[11.4392,45.7813],[11.4452,45.7791],[11.4525,45.7916],[11.453,45.7941],[11.4517,45.7978],[11.4466,45.8049],[11.45,45.8085],[11.4595,45.8123],[11.4619,45.8111],[11.4673,45.8121],[11.4678,45.8131],[11.4672,45.8203],[11.4702,45.8218],[11.4899,45.8207]]]}},{"type":"Feature","properties":{"i":"024020","n":"Calvene"},"geometry":{"type":"Polygon","coordinates":[[[11.5105,45.8132],[11.5187,45.8072],[11.5185,45.8055],[11.5215,45.7975],[11.5269,45.7887],[11.5261,45.7779],[11.5221,45.7651],[11.5171,45.7596],[11.5089,45.7568],[11.5026,45.7574],[11.4969,45.7561],[11.4958,45.7586],[11.4982,45.7603],[11.4985,45.7622],[11.4982,45.7641],[11.4967,45.7644],[11.4955,45.7666],[11.4957,45.7696],[11.4977,45.7744],[11.5025,45.7806],[11.4957,45.8034],[11.4944,45.8122],[11.5105,45.8132]]]}},{"type":"Feature","properties":{"i":"024021","n":"Camisano Vicentino"},"geometry":{"type":"Polygon","coordinates":[[[11.759,45.5204],[11.7562,45.5193],[11.7413,45.5177],[11.7343,45.5186],[11.7293,45.5215],[11.7279,45.5205],[11.7293,45.5162],[11.734,45.5122],[11.7353,45.5055],[11.7353,45.4979],[11.7298,45.4974],[11.7285,45.4946],[11.7104,45.4944],[11.7022,45.4975],[11.7005,45.5002],[11.6988,45.5012],[11.6874,45.4998],[11.6873,45.5052],[11.6822,45.5089],[11.6785,45.5207],[11.676,45.5252],[11.6661,45.535],[11.6644,45.5395],[11.6682,45.5381],[11.6755,45.5392],[11.679,45.5418],[11.6796,45.5448],[11.6784,45.5496],[11.6819,45.5516],[11.6858,45.552],[11.6945,45.5507],[11.7034,45.5429],[11.7217,45.5438],[11.7229,45.5444],[11.7241,45.5526],[11.7232,45.5554],[11.7203,45.5591],[11.7229,45.5603],[11.7288,45.5607],[11.731,45.5593],[11.7412,45.545],[11.7514,45.5327],[11.7584,45.5229],[11.759,45.5204]]]}},{"type":"Feature","properties":{"i":"024022","n":"Campiglia dei Berici"},"geometry":{"type":"Polygon","coordinates":[[[11.5526,45.3105],[11.5369,45.3114],[11.5329,45.3134],[11.5325,45.3177],[11.5278,45.3174],[11.5271,45.3221],[11.5275,45.3268],[11.529,45.3313],[11.5242,45.3379],[11.5231,45.3418],[11.5287,45.348],[11.5438,45.3511],[11.5641,45.3523],[11.5663,45.3405],[11.5617,45.3353],[11.558,45.3284],[11.5526,45.3105]]]}},{"type":"Feature","properties":{"i":"024024","n":"Carrè"},"geometry":{"type":"Polygon","coordinates":[[[11.4971,45.7508],[11.4999,45.748],[11.4954,45.7468],[11.4786,45.7388],[11.4686,45.7292],[11.4612,45.7312],[11.4435,45.734],[11.4371,45.7414],[11.4415,45.7446],[11.4449,45.7488],[11.445,45.7525],[11.4492,45.7573],[11.4594,45.7552],[11.472,45.7556],[11.492,45.7504],[11.4971,45.7508]]]}},{"type":"Feature","properties":{"i":"024025","n":"Cartigliano"},"geometry":{"type":"Polygon","coordinates":[[[11.7302,45.6991],[11.7262,45.6987],[11.7235,45.7035],[11.7143,45.7061],[11.7079,45.7069],[11.7049,45.705],[11.7045,45.6962],[11.702,45.6917],[11.696,45.6883],[11.6863,45.6873],[11.6854,45.7009],[11.6858,45.7075],[11.6892,45.7165],[11.6937,45.7239],[11.6939,45.7254],[11.7067,45.7259],[11.7126,45.724],[11.7146,45.7143],[11.7231,45.7054],[11.7263,45.7044],[11.7301,45.7016],[11.7302,45.6991]]]}},{"type":"Feature","properties":{"i":"024026","n":"Cassola"},"geometry":{"type":"Polygon","coordinates":[[[11.7631,45.7716],[11.7698,45.7673],[11.7728,45.7627],[11.7781,45.7501],[11.7858,45.7461],[11.7976,45.7427],[11.8087,45.7439],[11.8064,45.7466],[11.8141,45.7434],[11.8197,45.7241],[11.8151,45.7235],[11.8046,45.7248],[11.7883,45.7232],[11.7853,45.7257],[11.7823,45.7255],[11.7772,45.7406],[11.7591,45.7381],[11.7483,45.7507],[11.7504,45.7528],[11.755,45.7537],[11.7494,45.7703],[11.7631,45.7716]]]}},{"type":"Feature","properties":{"i":"024027","n":"Castegnero"},"geometry":{"type":"Polygon","coordinates":[[[11.6207,45.4474],[11.6357,45.4386],[11.6392,45.4282],[11.6399,45.4162],[11.634,45.417],[11.6235,45.4222],[11.5929,45.4311],[11.5876,45.4341],[11.5675,45.4414],[11.5621,45.4447],[11.56,45.4476],[11.5633,45.4567],[11.5734,45.4536],[11.5845,45.4525],[11.5846,45.4497],[11.5854,45.4489],[11.5914,45.4464],[11.6043,45.4432],[11.609,45.4413],[11.6187,45.4417],[11.6207,45.4474]]]}},{"type":"Feature","properties":{"i":"024028","n":"Castelgomberto"},"geometry":{"type":"Polygon","coordinates":[[[11.4241,45.5963],[11.4248,45.5952],[11.423,45.5912],[11.4266,45.5693],[11.4241,45.5649],[11.4207,45.5617],[11.4089,45.5608],[11.3964,45.5625],[11.3913,45.5616],[11.3857,45.564],[11.3779,45.586],[11.3827,45.5865],[11.3801,45.5939],[11.3819,45.6005],[11.4044,45.6168],[11.4183,45.6056],[11.4241,45.5963]]]}},{"type":"Feature","properties":{"i":"024029","n":"Chiampo"},"geometry":{"type":"Polygon","coordinates":[[[11.3014,45.5548],[11.3147,45.5439],[11.3163,45.5418],[11.3158,45.5391],[11.3135,45.5365],[11.3111,45.5353],[11.3094,45.5354],[11.3066,45.532],[11.3074,45.5268],[11.309,45.5252],[11.3076,45.5236],[11.3053,45.5218],[11.2988,45.5206],[11.2849,45.5107],[11.2797,45.5102],[11.2808,45.511],[11.2813,45.5139],[11.2807,45.5192],[11.2777,45.5235],[11.2695,45.5298],[11.2554,45.5387],[11.252,45.5419],[11.2436,45.5605],[11.2457,45.5667],[11.2465,45.5773],[11.2653,45.5809],[11.2707,45.5841],[11.2773,45.5795],[11.2775,45.576],[11.2752,45.5708],[11.2757,45.5659],[11.2877,45.554],[11.2927,45.5521],[11.3014,45.5548]]]}},{"type":"Feature","properties":{"i":"024030","n":"Chiuppano"},"geometry":{"type":"Polygon","coordinates":[[[11.4967,45.7644],[11.4982,45.7641],[11.4985,45.7622],[11.4982,45.7603],[11.4958,45.7586],[11.4969,45.7561],[11.4981,45.7562],[11.4971,45.7508],[11.492,45.7504],[11.472,45.7556],[11.4594,45.7552],[11.4501,45.7567],[11.4492,45.7573],[11.4492,45.7601],[11.4503,45.7648],[11.4465,45.7681],[11.4564,45.7701],[11.4591,45.7697],[11.4644,45.7663],[11.4827,45.7613],[11.4862,45.7614],[11.4867,45.7628],[11.4967,45.7644]]]}},{"type":"Feature","properties":{"i":"024032","n":"Cogollo del Cengio"},"geometry":{"type":"Polygon","coordinates":[[[11.4595,45.8123],[11.45,45.8085],[11.4466,45.8049],[11.4517,45.7978],[11.453,45.7941],[11.4525,45.7916],[11.4452,45.7791],[11.4392,45.7813],[11.4364,45.774],[11.4393,45.7702],[11.4361,45.7685],[11.4114,45.7772],[11.4086,45.7761],[11.3959,45.7877],[11.3708,45.8053],[11.3694,45.8083],[11.3672,45.8186],[11.3699,45.8283],[11.3707,45.8359],[11.373,45.8383],[11.3735,45.8445],[11.3751,45.8457],[11.3832,45.8478],[11.3947,45.8493],[11.3988,45.851],[11.4028,45.8537],[11.4049,45.8514],[11.4047,45.8497],[11.3996,45.8451],[11.3831,45.8405],[11.3879,45.8301],[11.3995,45.8328],[11.4058,45.8351],[11.4072,45.8366],[11.4145,45.8356],[11.4227,45.8314],[11.4243,45.8298],[11.4233,45.8286],[11.428,45.8236],[11.4354,45.8196],[11.4364,45.8249],[11.436,45.8266],[11.4393,45.8298],[11.4476,45.8346],[11.4505,45.8286],[11.452,45.8188],[11.4578,45.8156],[11.4595,45.8123]]]}},{"type":"Feature","properties":{"i":"024034","n":"Cornedo Vicentino"},"geometry":{"type":"Polygon","coordinates":[[[11.3859,45.626],[11.39,45.6212],[11.3982,45.6166],[11.4044,45.6168],[11.3819,45.6005],[11.3801,45.5939],[11.3827,45.5865],[11.3779,45.586],[11.3689,45.5948],[11.3589,45.5986],[11.3544,45.5995],[11.3536,45.5983],[11.3447,45.5977],[11.3341,45.6006],[11.3234,45.5993],[11.3156,45.5997],[11.3122,45.6018],[11.3138,45.6038],[11.3125,45.6072],[11.3142,45.6119],[11.3209,45.616],[11.3102,45.6263],[11.3078,45.631],[11.3171,45.6371],[11.3317,45.6507],[11.3374,45.6431],[11.3561,45.626],[11.3601,45.6238],[11.3679,45.6213],[11.374,45.6215],[11.3834,45.6233],[11.3859,45.626]]]}},{"type":"Feature","properties":{"i":"024035","n":"Costabissara"},"geometry":{"type":"Polygon","coordinates":[[[11.5166,45.5887],[11.5092,45.587],[11.5033,45.582],[11.5038,45.578],[11.5015,45.5757],[11.4914,45.5711],[11.4916,45.5695],[11.4815,45.5689],[11.467,45.57],[11.4597,45.5734],[11.4603,45.5753],[11.4594,45.5782],[11.4576,45.5797],[11.4563,45.5869],[11.4534,45.5889],[11.4556,45.5921],[11.4845,45.6036],[11.4863,45.6104],[11.4856,45.613],[11.4929,45.6056],[11.5037,45.6007],[11.5128,45.5944],[11.5173,45.5908],[11.5166,45.5887]]]}},{"type":"Feature","properties":{"i":"024036","n":"Creazzo"},"geometry":{"type":"Polygon","coordinates":[[[11.4888,45.5415],[11.4886,45.5404],[11.4958,45.5335],[11.5024,45.5319],[11.5016,45.5306],[11.491,45.5242],[11.4833,45.522],[11.4822,45.5247],[11.4746,45.5256],[11.452,45.5183],[11.4514,45.5189],[11.4497,45.5224],[11.4548,45.5245],[11.457,45.5275],[11.4528,45.5306],[11.4472,45.5417],[11.4477,45.5509],[11.4499,45.5524],[11.4597,45.5547],[11.4734,45.5551],[11.4803,45.5502],[11.4844,45.5423],[11.4888,45.5415]]]}},{"type":"Feature","properties":{"i":"024037","n":"Crespadoro"},"geometry":{"type":"Polygon","coordinates":[[[11.2272,45.6571],[11.2331,45.6349],[11.2272,45.6195],[11.2171,45.6086],[11.2132,45.6142],[11.2124,45.6218],[11.213,45.6232],[11.2145,45.6235],[11.2146,45.6246],[11.2121,45.6261],[11.2033,45.6263],[11.1929,45.62],[11.1895,45.6207],[11.1838,45.6182],[11.1813,45.6187],[11.1776,45.6207],[11.1703,45.628],[11.1497,45.6541],[11.1511,45.6644],[11.1547,45.6741],[11.1557,45.6807],[11.1548,45.6843],[11.149,45.6846],[11.1478,45.6835],[11.1437,45.6827],[11.1408,45.6861],[11.1385,45.6968],[11.15,45.6875],[11.1584,45.6855],[11.1647,45.6803],[11.1836,45.6688],[11.2001,45.6674],[11.2042,45.665],[11.2069,45.6588],[11.2125,45.6546],[11.2192,45.6577],[11.2272,45.6571]]]}},{"type":"Feature","properties":{"i":"024038","n":"Dueville"},"geometry":{"type":"Polygon","coordinates":[[[11.5784,45.6512],[11.5823,45.6471],[11.5816,45.6373],[11.5842,45.6328],[11.587,45.6298],[11.5886,45.6244],[11.5784,45.6187],[11.5679,45.6105],[11.5615,45.6087],[11.5599,45.6091],[11.5565,45.6072],[11.5552,45.6029],[11.5555,45.6005],[11.5448,45.5957],[11.5433,45.6005],[11.5364,45.6103],[11.5323,45.6136],[11.5264,45.6146],[11.5239,45.6202],[11.5287,45.6193],[11.5314,45.6211],[11.5305,45.6321],[11.5327,45.6342],[11.5328,45.6355],[11.5297,45.6508],[11.5285,45.6534],[11.5333,45.6551],[11.5499,45.6509],[11.5613,45.6492],[11.569,45.6492],[11.575,45.6499],[11.5784,45.6512]]]}},{"type":"Feature","properties":{"i":"024039","n":"Enego"},"geometry":{"type":"Polygon","coordinates":[[[11.714,45.9558],[11.7234,45.9515],[11.7266,45.9446],[11.7207,45.9265],[11.7193,45.919],[11.7126,45.9116],[11.704,45.9085],[11.6852,45.9088],[11.6802,45.8981],[11.6808,45.8943],[11.6829,45.8921],[11.681,45.8895],[11.6789,45.8891],[11.669,45.8943],[11.6672,45.898],[11.6686,45.9015],[11.6681,45.9051],[11.6635,45.912],[11.659,45.9152],[11.6537,45.9169],[11.6518,45.9187],[11.6502,45.924],[11.6422,45.9315],[11.6335,45.9351],[11.6292,45.9396],[11.6208,45.9433],[11.604,45.9396],[11.5901,45.9333],[11.5614,45.947],[11.5595,45.9494],[11.559,45.9517],[11.5592,45.9528],[11.5652,45.9539],[11.573,45.9598],[11.5736,45.9617],[11.577,45.9641],[11.6042,45.9652],[11.6276,45.9606],[11.6373,45.9617],[11.65,45.9648],[11.6665,45.9641],[11.6762,45.9658],[11.6827,45.9689],[11.6858,45.9693],[11.6851,45.966],[11.6915,45.962],[11.6983,45.9616],[11.714,45.9558]]]}},{"type":"Feature","properties":{"i":"024040","n":"Fara Vicentino"},"geometry":{"type":"Polygon","coordinates":[[[11.5484,45.7641],[11.5472,45.7581],[11.5488,45.7494],[11.5558,45.753],[11.5632,45.7538],[11.5714,45.7538],[11.5781,45.7522],[11.58,45.7493],[11.5874,45.7474],[11.5882,45.7428],[11.5899,45.7392],[11.5903,45.7383],[11.5937,45.7368],[11.5944,45.7327],[11.5896,45.727],[11.5856,45.7252],[11.5671,45.7259],[11.5657,45.7346],[11.5632,45.7348],[11.5621,45.7339],[11.5617,45.7311],[11.5636,45.7205],[11.5567,45.7181],[11.5547,45.7155],[11.5542,45.7111],[11.5503,45.7078],[11.5445,45.7054],[11.5426,45.7083],[11.5407,45.7167],[11.5388,45.7204],[11.538,45.7207],[11.5346,45.7328],[11.5356,45.7428],[11.5438,45.7629],[11.5484,45.7641]]]}},{"type":"Feature","properties":{"i":"024041","n":"Foza"},"geometry":{"type":"Polygon","coordinates":[[[11.6789,45.8891],[11.6781,45.8876],[11.6644,45.8842],[11.6547,45.8802],[11.6535,45.8784],[11.6534,45.8745],[11.6546,45.8691],[11.654,45.8678],[11.6484,45.8663],[11.6348,45.8683],[11.624,45.8739],[11.62,45.8788],[11.6125,45.8843],[11.5996,45.8968],[11.5911,45.9101],[11.5859,45.9221],[11.5875,45.9274],[11.5897,45.9284],[11.5901,45.9333],[11.604,45.9396],[11.6208,45.9433],[11.6292,45.9396],[11.6335,45.9351],[11.6422,45.9315],[11.6502,45.924],[11.6518,45.9187],[11.6537,45.9169],[11.659,45.9152],[11.6635,45.912],[11.6681,45.9051],[11.6686,45.9015],[11.6672,45.898],[11.669,45.8943],[11.6789,45.8891]]]}},{"type":"Feature","properties":{"i":"024042","n":"Gallio"},"geometry":{"type":"Polygon","coordinates":[[[11.5592,45.9528],[11.5591,45.9502],[11.5614,45.947],[11.5901,45.9333],[11.5897,45.9284],[11.5875,45.9274],[11.5859,45.9221],[11.5911,45.9101],[11.5996,45.8968],[11.6125,45.8843],[11.62,45.8788],[11.624,45.8739],[11.6169,45.8712],[11.5982,45.8672],[11.5905,45.8689],[11.5852,45.8673],[11.5793,45.8638],[11.5733,45.8587],[11.5671,45.8621],[11.5588,45.8649],[11.5537,45.8654],[11.542,45.8694],[11.5372,45.8734],[11.5283,45.8949],[11.526,45.9027],[11.5286,45.9156],[11.5293,45.923],[11.5275,45.9299],[11.5282,45.9386],[11.5257,45.9471],[11.5248,45.9556],[11.5334,45.9549],[11.5346,45.953],[11.5447,45.9499],[11.5512,45.952],[11.5592,45.9528]]]}},{"type":"Feature","properties":{"i":"024043","n":"Gambellara"},"geometry":{"type":"Polygon","coordinates":[[[11.3569,45.4321],[11.3496,45.4277],[11.3488,45.4285],[11.3456,45.4269],[11.3436,45.4243],[11.3446,45.4184],[11.3413,45.4162],[11.3399,45.4195],[11.3404,45.4213],[11.3393,45.4239],[11.3359,45.4302],[11.3332,45.4332],[11.3318,45.4338],[11.3267,45.4277],[11.3235,45.4264],[11.3251,45.428],[11.3237,45.4328],[11.3183,45.4336],[11.3181,45.436],[11.3188,45.4371],[11.3224,45.4372],[11.3285,45.4423],[11.3298,45.4444],[11.3284,45.4482],[11.3243,45.453],[11.3203,45.4556],[11.3216,45.4578],[11.327,45.461],[11.329,45.4641],[11.3261,45.4687],[11.3242,45.4699],[11.323,45.4738],[11.3283,45.4826],[11.3346,45.4798],[11.3416,45.4798],[11.3453,45.4791],[11.3471,45.4769],[11.3471,45.472],[11.3542,45.4605],[11.3559,45.4539],[11.356,45.4449],[11.3546,45.4393],[11.3524,45.4371],[11.3569,45.4321]]]}},{"type":"Feature","properties":{"i":"024046","n":"Grisignano di Zocco"},"geometry":{"type":"Polygon","coordinates":[[[11.7353,45.4979],[11.736,45.4957],[11.7419,45.4881],[11.7431,45.4826],[11.7457,45.4784],[11.7442,45.4766],[11.7454,45.4717],[11.7386,45.4712],[11.718,45.4743],[11.7061,45.4733],[11.71,45.4627],[11.7086,45.46],[11.702,45.4594],[11.6935,45.4617],[11.6876,45.4647],[11.6765,45.4733],[11.6627,45.48],[11.6585,45.4812],[11.6624,45.4833],[11.6654,45.4871],[11.6695,45.4903],[11.6726,45.4917],[11.6762,45.4902],[11.6846,45.4988],[11.6888,45.5002],[11.6988,45.5012],[11.7005,45.5002],[11.7022,45.4975],[11.7104,45.4944],[11.7285,45.4946],[11.7298,45.4974],[11.7353,45.4979]]]}},{"type":"Feature","properties":{"i":"024047","n":"Grumolo delle Abbadesse"},"geometry":{"type":"Polygon","coordinates":[[[11.6644,45.5395],[11.6661,45.535],[11.676,45.5252],[11.6785,45.5207],[11.6822,45.5089],[11.6873,45.5052],[11.6874,45.4998],[11.6846,45.4988],[11.6762,45.4902],[11.6715,45.4916],[11.6654,45.4871],[11.6624,45.4833],[11.6585,45.4812],[11.642,45.4871],[11.6372,45.4906],[11.6309,45.4978],[11.6376,45.5047],[11.6417,45.5081],[11.6459,45.5098],[11.6489,45.513],[11.6538,45.5239],[11.6555,45.5386],[11.6565,45.5403],[11.6644,45.5395]]]}},{"type":"Feature","properties":{"i":"024048","n":"Isola Vicentina"},"geometry":{"type":"Polygon","coordinates":[[[11.462,45.649],[11.4862,45.6373],[11.4895,45.6333],[11.4875,45.6315],[11.4881,45.6191],[11.4854,45.6173],[11.4824,45.6167],[11.4856,45.613],[11.4863,45.6104],[11.4845,45.6036],[11.4556,45.5921],[11.4534,45.5889],[11.4529,45.5931],[11.4515,45.595],[11.445,45.5993],[11.4313,45.6021],[11.4287,45.6009],[11.4241,45.5963],[11.4183,45.6056],[11.4044,45.6168],[11.4046,45.6195],[11.4094,45.6259],[11.4213,45.6308],[11.4319,45.6339],[11.4553,45.6475],[11.4592,45.6492],[11.462,45.649]]]}},{"type":"Feature","properties":{"i":"024049","n":"Laghi"},"geometry":{"type":"Polygon","coordinates":[[[11.2859,45.8173],[11.2821,45.8062],[11.2713,45.8047],[11.2661,45.8031],[11.2577,45.8061],[11.2529,45.8091],[11.2381,45.8133],[11.2248,45.826],[11.219,45.8329],[11.2185,45.844],[11.2219,45.849],[11.2269,45.8489],[11.2396,45.857],[11.244,45.8756],[11.2509,45.8744],[11.251,45.8724],[11.2474,45.8682],[11.2501,45.864],[11.264,45.8548],[11.2765,45.8435],[11.2773,45.8411],[11.2737,45.8347],[11.2716,45.8257],[11.2796,45.8194],[11.2859,45.8173]]]}},{"type":"Feature","properties":{"i":"024050","n":"Lastebasse"},"geometry":{"type":"Polygon","coordinates":[[[11.2711,45.917],[11.2783,45.9147],[11.2895,45.9134],[11.3009,45.9104],[11.3282,45.9009],[11.3328,45.8982],[11.3225,45.8932],[11.3147,45.8847],[11.3091,45.8752],[11.2999,45.8787],[11.292,45.8864],[11.2711,45.8942],[11.2703,45.89],[11.2703,45.8806],[11.2722,45.8734],[11.2604,45.8734],[11.2509,45.8748],[11.2444,45.8769],[11.2422,45.8761],[11.2366,45.8783],[11.2369,45.8808],[11.2431,45.8844],[11.2477,45.8858],[11.2504,45.8845],[11.2551,45.884],[11.2546,45.8912],[11.2511,45.8961],[11.2577,45.9031],[11.2606,45.9075],[11.2613,45.9157],[11.2583,45.9207],[11.2711,45.917]]]}},{"type":"Feature","properties":{"i":"024051","n":"Longare"},"geometry":{"type":"Polygon","coordinates":[[[11.6309,45.4978],[11.6372,45.4906],[11.642,45.4871],[11.6487,45.4844],[11.642,45.4784],[11.636,45.4754],[11.6283,45.4761],[11.6243,45.4773],[11.6206,45.4764],[11.6212,45.4698],[11.6268,45.4616],[11.6351,45.4622],[11.632,45.4588],[11.6231,45.4537],[11.6207,45.4514],[11.6207,45.4474],[11.6187,45.4417],[11.609,45.4413],[11.6043,45.4432],[11.5914,45.4464],[11.5854,45.4489],[11.5846,45.4497],[11.5845,45.4525],[11.5734,45.4536],[11.5662,45.4553],[11.5633,45.4567],[11.5622,45.4582],[11.564,45.4632],[11.5676,45.4668],[11.574,45.4679],[11.5816,45.4619],[11.5851,45.4624],[11.587,45.4663],[11.5872,45.4692],[11.5785,45.471],[11.5744,45.4746],[11.5878,45.4776],[11.5927,45.4806],[11.5929,45.4818],[11.5902,45.4832],[11.5905,45.4871],[11.5872,45.4927],[11.5925,45.4956],[11.5941,45.4932],[11.6014,45.4912],[11.6044,45.4995],[11.6102,45.5008],[11.6199,45.4999],[11.622,45.5014],[11.6269,45.5016],[11.63,45.4995],[11.6309,45.4978]]]}},{"type":"Feature","properties":{"i":"024052","n":"Lonigo"},"geometry":{"type":"Polygon","coordinates":[[[11.3812,45.4349],[11.3819,45.4174],[11.3851,45.4109],[11.399,45.3982],[11.424,45.3953],[11.4395,45.3948],[11.4431,45.395],[11.4475,45.3975],[11.449,45.3974],[11.453,45.3924],[11.4527,45.3821],[11.4505,45.3774],[11.4363,45.3805],[11.4271,45.3815],[11.4231,45.3765],[11.4151,45.3748],[11.4104,45.3753],[11.4058,45.3714],[11.4073,45.3675],[11.4186,45.3557],[11.4173,45.3502],[11.4236,45.3433],[11.4266,45.3424],[11.4276,45.3392],[11.4273,45.3366],[11.4226,45.3393],[11.4083,45.3411],[11.4081,45.342],[11.4052,45.3435],[11.3929,45.3479],[11.3821,45.3497],[11.3581,45.3492],[11.352,45.3522],[11.3539,45.3617],[11.3533,45.3682],[11.3484,45.3748],[11.3405,45.3831],[11.3315,45.3876],[11.3343,45.396],[11.3388,45.3981],[11.3455,45.3993],[11.3426,45.4134],[11.3413,45.4162],[11.3446,45.4184],[11.3436,45.4243],[11.3456,45.4269],[11.3488,45.4285],[11.3496,45.4277],[11.3593,45.4336],[11.3659,45.4342],[11.3763,45.4382],[11.3779,45.4378],[11.3812,45.4349]]]}},{"type":"Feature","properties":{"i":"024053","n":"Lugo di Vicenza"},"geometry":{"type":"Polygon","coordinates":[[[11.5493,45.7661],[11.5484,45.7641],[11.5438,45.7629],[11.5356,45.7428],[11.5353,45.7405],[11.5298,45.7398],[11.5195,45.7418],[11.5094,45.7457],[11.4999,45.748],[11.4971,45.7508],[11.4981,45.7562],[11.5026,45.7574],[11.5089,45.7568],[11.5171,45.7596],[11.5221,45.7651],[11.5261,45.7779],[11.5269,45.7887],[11.5215,45.7975],[11.5185,45.8055],[11.5187,45.8072],[11.5105,45.8132],[11.5258,45.8153],[11.526,45.812],[11.5278,45.8082],[11.5395,45.8037],[11.5457,45.8002],[11.5447,45.7968],[11.5495,45.7872],[11.5423,45.7725],[11.5368,45.7688],[11.5399,45.7676],[11.5493,45.7661]]]}},{"type":"Feature","properties":{"i":"024055","n":"Malo"},"geometry":{"type":"Polygon","coordinates":[[[11.4609,45.6826],[11.4647,45.6823],[11.4744,45.6786],[11.4764,45.6756],[11.4787,45.6672],[11.452,45.6584],[11.4583,45.6532],[11.462,45.649],[11.4592,45.6492],[11.4553,45.6475],[11.4319,45.6339],[11.4213,45.6308],[11.4094,45.6259],[11.4046,45.6195],[11.4044,45.6168],[11.4031,45.6163],[11.3982,45.6166],[11.3916,45.6202],[11.3859,45.626],[11.3908,45.6289],[11.4023,45.6449],[11.4017,45.6491],[11.3812,45.6737],[11.381,45.6767],[11.3816,45.6774],[11.3858,45.6802],[11.3963,45.6839],[11.3996,45.6847],[11.4083,45.6849],[11.4283,45.6806],[11.4345,45.6774],[11.4397,45.6725],[11.4493,45.6748],[11.4558,45.68],[11.4609,45.6826]]]}},{"type":"Feature","properties":{"i":"024056","n":"Marano Vicentino"},"geometry":{"type":"Polygon","coordinates":[[[11.4472,45.7047],[11.4461,45.7039],[11.4479,45.7022],[11.4553,45.6983],[11.456,45.692],[11.4585,45.6854],[11.4609,45.6826],[11.4558,45.68],[11.4493,45.6748],[11.447,45.6739],[11.4397,45.6725],[11.4321,45.6789],[11.427,45.6811],[11.4083,45.6849],[11.4028,45.69],[11.4099,45.6962],[11.4134,45.7007],[11.4141,45.7075],[11.426,45.7165],[11.4266,45.7184],[11.4256,45.7201],[11.4276,45.7197],[11.4325,45.7164],[11.4472,45.7047]]]}},{"type":"Feature","properties":{"i":"024057","n":"Marostica"},"geometry":{"type":"Polygon","coordinates":[[[11.6651,45.7911],[11.6653,45.7886],[11.67,45.7785],[11.6819,45.7701],[11.6875,45.7687],[11.6942,45.7609],[11.6905,45.756],[11.6869,45.7461],[11.6856,45.737],[11.678,45.7335],[11.6683,45.7274],[11.6589,45.7179],[11.6598,45.7144],[11.6594,45.7091],[11.6578,45.7035],[11.6585,45.7017],[11.6463,45.7041],[11.65,45.715],[11.6527,45.7315],[11.6443,45.7346],[11.641,45.7378],[11.6392,45.74],[11.6379,45.7445],[11.6345,45.7492],[11.6287,45.7509],[11.6228,45.7513],[11.6129,45.7513],[11.5912,45.7497],[11.5881,45.7502],[11.5875,45.7519],[11.5924,45.7567],[11.5939,45.7606],[11.5935,45.7654],[11.5986,45.7702],[11.6006,45.7786],[11.6197,45.78],[11.6274,45.7814],[11.6338,45.7837],[11.651,45.7927],[11.659,45.7949],[11.6591,45.7914],[11.663,45.7906],[11.6651,45.7911]]]}},{"type":"Feature","properties":{"i":"024060","n":"Montebello Vicentino"},"geometry":{"type":"Polygon","coordinates":[[[11.3594,45.4799],[11.3579,45.4793],[11.3582,45.4749],[11.362,45.4703],[11.3654,45.4678],[11.3765,45.47],[11.3851,45.4743],[11.3899,45.4782],[11.3996,45.4799],[11.4071,45.4775],[11.4192,45.4821],[11.4258,45.4766],[11.4242,45.4718],[11.422,45.4703],[11.4193,45.47],[11.4154,45.4657],[11.4178,45.4619],[11.4168,45.4556],[11.411,45.4463],[11.4073,45.4448],[11.4011,45.4451],[11.3941,45.4442],[11.3812,45.4349],[11.3779,45.4378],[11.3763,45.4382],[11.3659,45.4342],[11.3593,45.4336],[11.3569,45.4321],[11.3524,45.4371],[11.3546,45.4393],[11.356,45.4449],[11.3559,45.4539],[11.3542,45.4605],[11.3471,45.472],[11.3471,45.4769],[11.3453,45.4791],[11.3416,45.4798],[11.3346,45.4798],[11.3308,45.4809],[11.3283,45.4826],[11.327,45.4852],[11.3469,45.4853],[11.3556,45.4801],[11.3594,45.4799]]]}},{"type":"Feature","properties":{"i":"024061","n":"Montecchio Maggiore"},"geometry":{"type":"Polygon","coordinates":[[[11.4176,45.5613],[11.4155,45.5523],[11.4065,45.5487],[11.4061,45.5415],[11.407,45.5388],[11.4174,45.5279],[11.4228,45.5192],[11.4296,45.5142],[11.4378,45.5118],[11.442,45.509],[11.4434,45.5078],[11.4472,45.5008],[11.4572,45.4934],[11.4579,45.4908],[11.4553,45.4887],[11.4525,45.4879],[11.4473,45.4893],[11.438,45.4894],[11.4217,45.4802],[11.4192,45.4821],[11.4071,45.4775],[11.3996,45.4799],[11.3928,45.4784],[11.3808,45.5008],[11.3757,45.504],[11.3758,45.5115],[11.379,45.5146],[11.3804,45.5179],[11.3807,45.5251],[11.379,45.5397],[11.3795,45.5406],[11.3817,45.5399],[11.3904,45.5425],[11.3931,45.545],[11.3937,45.5476],[11.3879,45.5475],[11.3865,45.5491],[11.3927,45.5624],[11.4089,45.5608],[11.4176,45.5613]]]}},{"type":"Feature","properties":{"i":"024062","n":"Montecchio Precalcino"},"geometry":{"type":"Polygon","coordinates":[[[11.5634,45.6723],[11.567,45.6681],[11.5712,45.6599],[11.5784,45.6512],[11.575,45.6499],[11.569,45.6492],[11.5599,45.6493],[11.5499,45.6509],[11.5333,45.6551],[11.5285,45.6534],[11.5254,45.6557],[11.513,45.655],[11.5112,45.6572],[11.5148,45.6576],[11.5157,45.6771],[11.517,45.6818],[11.5517,45.6897],[11.5578,45.678],[11.5634,45.6723]]]}},{"type":"Feature","properties":{"i":"024063","n":"Monte di Malo"},"geometry":{"type":"Polygon","coordinates":[[[11.3812,45.6737],[11.4017,45.6491],[11.4023,45.6449],[11.3908,45.6289],[11.3859,45.626],[11.3834,45.6233],[11.374,45.6215],[11.3679,45.6213],[11.3585,45.6246],[11.3561,45.626],[11.3374,45.6431],[11.3293,45.6537],[11.3288,45.6621],[11.3264,45.6686],[11.3367,45.6705],[11.3417,45.6725],[11.3513,45.672],[11.3812,45.6737]]]}},{"type":"Feature","properties":{"i":"024064","n":"Montegalda"},"geometry":{"type":"Polygon","coordinates":[[[11.6585,45.4812],[11.6627,45.48],[11.6765,45.4733],[11.6876,45.4647],[11.6935,45.4617],[11.702,45.4594],[11.693,45.4484],[11.6934,45.4436],[11.69,45.4365],[11.6858,45.4338],[11.6836,45.431],[11.6832,45.4294],[11.6803,45.4286],[11.6805,45.4335],[11.6777,45.4378],[11.6684,45.4448],[11.6469,45.4553],[11.641,45.4573],[11.6351,45.4622],[11.6268,45.4616],[11.6212,45.4698],[11.6206,45.4764],[11.6214,45.4767],[11.6243,45.4773],[11.6283,45.4761],[11.636,45.4754],[11.642,45.4784],[11.6487,45.4844],[11.6585,45.4812]]]}},{"type":"Feature","properties":{"i":"024065","n":"Montegaldella"},"geometry":{"type":"Polygon","coordinates":[[[11.6803,45.4286],[11.6795,45.4266],[11.6762,45.4231],[11.6722,45.4239],[11.6645,45.4227],[11.6523,45.4166],[11.6532,45.4104],[11.6453,45.4073],[11.6399,45.4162],[11.6392,45.4282],[11.6357,45.4386],[11.6207,45.4474],[11.6207,45.4514],[11.6231,45.4537],[11.632,45.4588],[11.6351,45.4622],[11.641,45.4573],[11.6469,45.4553],[11.6684,45.4448],[11.6777,45.4378],[11.6805,45.4335],[11.6803,45.4286]]]}},{"type":"Feature","properties":{"i":"024066","n":"Monteviale"},"geometry":{"type":"Polygon","coordinates":[[[11.4916,45.5695],[11.4922,45.5644],[11.4867,45.5596],[11.4868,45.557],[11.494,45.5502],[11.4989,45.549],[11.5006,45.545],[11.5001,45.5443],[11.4888,45.5415],[11.4844,45.5423],[11.4803,45.5502],[11.4734,45.5551],[11.4558,45.5541],[11.4499,45.5524],[11.4477,45.5509],[11.4467,45.563],[11.447,45.5717],[11.4499,45.5751],[11.455,45.579],[11.4576,45.5797],[11.4594,45.5782],[11.4603,45.5753],[11.4597,45.5734],[11.467,45.57],[11.4815,45.5689],[11.4916,45.5695]]]}},{"type":"Feature","properties":{"i":"024067","n":"Monticello Conte Otto"},"geometry":{"type":"Polygon","coordinates":[[[11.5986,45.6206],[11.5982,45.5979],[11.5945,45.5832],[11.5852,45.5802],[11.5831,45.5856],[11.5838,45.5864],[11.5834,45.5878],[11.5821,45.5896],[11.5761,45.588],[11.5736,45.5853],[11.5735,45.5817],[11.5706,45.5796],[11.5644,45.5824],[11.5616,45.5928],[11.5664,45.5986],[11.5668,45.6016],[11.5615,45.6087],[11.5679,45.6105],[11.5784,45.6187],[11.5886,45.6244],[11.5986,45.6206]]]}},{"type":"Feature","properties":{"i":"024068","n":"Montorso Vicentino"},"geometry":{"type":"Polygon","coordinates":[[[11.3891,45.4853],[11.3782,45.4819],[11.3572,45.4799],[11.3534,45.4811],[11.3469,45.4853],[11.327,45.4852],[11.324,45.487],[11.324,45.4948],[11.3202,45.499],[11.3403,45.5016],[11.3533,45.499],[11.3608,45.4991],[11.3755,45.5017],[11.3769,45.5027],[11.3808,45.5008],[11.3891,45.4853]]]}},{"type":"Feature","properties":{"i":"024070","n":"Mussolente"},"geometry":{"type":"Polygon","coordinates":[[[11.8032,45.7999],[11.8045,45.7978],[11.817,45.7885],[11.8192,45.7858],[11.8237,45.7727],[11.8303,45.7615],[11.835,45.7477],[11.8312,45.7422],[11.8312,45.7405],[11.8141,45.7434],[11.8049,45.7477],[11.8003,45.7551],[11.7961,45.7653],[11.789,45.7739],[11.7809,45.7901],[11.7792,45.7919],[11.7828,45.7936],[11.7912,45.7997],[11.8032,45.7999]]]}},{"type":"Feature","properties":{"i":"024071","n":"Nanto"},"geometry":{"type":"Polygon","coordinates":[[[11.56,45.4476],[11.5621,45.4447],[11.5675,45.4414],[11.5876,45.4341],[11.5929,45.4311],[11.6235,45.4222],[11.634,45.417],[11.6399,45.4162],[11.6453,45.4073],[11.6351,45.4015],[11.6294,45.4011],[11.6249,45.4026],[11.6238,45.4043],[11.6183,45.4072],[11.6023,45.411],[11.5904,45.4175],[11.5824,45.4194],[11.5714,45.4235],[11.5564,45.4307],[11.5397,45.4405],[11.5374,45.4409],[11.5415,45.4485],[11.5453,45.4519],[11.5483,45.4516],[11.5504,45.4496],[11.5568,45.4471],[11.56,45.4476]]]}},{"type":"Feature","properties":{"i":"024072","n":"Nogarole Vicentino"},"geometry":{"type":"Polygon","coordinates":[[[11.2821,45.5978],[11.2822,45.5952],[11.2842,45.5934],[11.2862,45.5926],[11.2898,45.5879],[11.2906,45.5782],[11.2963,45.575],[11.3121,45.5692],[11.3242,45.5624],[11.3274,45.5587],[11.3217,45.5601],[11.3091,45.5597],[11.2994,45.5574],[11.298,45.556],[11.3014,45.5548],[11.2959,45.5527],[11.2927,45.5521],[11.2877,45.554],[11.2757,45.5659],[11.2752,45.5708],[11.2775,45.576],[11.2773,45.5795],[11.2695,45.5852],[11.2696,45.5907],[11.2681,45.5944],[11.2821,45.5978]]]}},{"type":"Feature","properties":{"i":"024073","n":"Nove"},"geometry":{"type":"Polygon","coordinates":[[[11.6939,45.7254],[11.6937,45.7239],[11.6892,45.7165],[11.6858,45.7075],[11.6854,45.7009],[11.6801,45.7006],[11.6757,45.6968],[11.6723,45.695],[11.6645,45.7],[11.6585,45.7017],[11.6578,45.7035],[11.6594,45.7091],[11.6598,45.7144],[11.6589,45.7179],[11.6683,45.7274],[11.678,45.7335],[11.6856,45.737],[11.6878,45.7365],[11.6943,45.7309],[11.695,45.7279],[11.6939,45.7254]]]}},{"type":"Feature","properties":{"i":"024074","n":"Noventa Vicentina"},"geometry":{"type":"Polygon","coordinates":[[[11.5526,45.3105],[11.5579,45.3105],[11.5678,45.306],[11.5729,45.2993],[11.5803,45.2974],[11.5803,45.2873],[11.5825,45.2726],[11.6177,45.2585],[11.6097,45.2557],[11.59,45.2564],[11.5784,45.2587],[11.5749,45.2607],[11.5659,45.2615],[11.5651,45.2625],[11.5595,45.2647],[11.5525,45.265],[11.544,45.271],[11.535,45.2817],[11.5184,45.2924],[11.5175,45.2966],[11.521,45.2984],[11.5245,45.3103],[11.5237,45.3143],[11.5278,45.3174],[11.5325,45.3177],[11.5329,45.3134],[11.5369,45.3114],[11.5526,45.3105]]]}},{"type":"Feature","properties":{"i":"024075","n":"Orgiano"},"geometry":{"type":"Polygon","coordinates":[[[11.4869,45.357],[11.4916,45.3512],[11.4925,45.347],[11.4933,45.3425],[11.4906,45.336],[11.489,45.3341],[11.4931,45.3261],[11.4833,45.3231],[11.4537,45.3252],[11.4527,45.3236],[11.4273,45.3366],[11.4276,45.3392],[11.433,45.3399],[11.4397,45.3431],[11.4451,45.3468],[11.4456,45.3495],[11.4502,45.3572],[11.4534,45.361],[11.4544,45.3639],[11.4545,45.3697],[11.4579,45.371],[11.4776,45.3701],[11.484,45.3654],[11.4869,45.357]]]}},{"type":"Feature","properties":{"i":"024076","n":"Pedemonte"},"geometry":{"type":"Polygon","coordinates":[[[11.313,45.9298],[11.3126,45.9285],[11.3133,45.9266],[11.3182,45.9214],[11.3249,45.9174],[11.3287,45.9171],[11.3368,45.9145],[11.3455,45.9091],[11.3493,45.9095],[11.3504,45.9132],[11.345,45.9209],[11.3581,45.9253],[11.3593,45.9219],[11.3625,45.9197],[11.3666,45.9145],[11.367,45.9051],[11.3577,45.8953],[11.3506,45.8923],[11.3344,45.8969],[11.3282,45.9009],[11.3009,45.9104],[11.2895,45.9134],[11.2783,45.9147],[11.2709,45.9174],[11.271,45.9193],[11.2753,45.9197],[11.29,45.9171],[11.3038,45.9182],[11.3016,45.9253],[11.2996,45.929],[11.3007,45.9352],[11.3075,45.9283],[11.313,45.9298]]]}},{"type":"Feature","properties":{"i":"024077","n":"Pianezze"},"geometry":{"type":"Polygon","coordinates":[[[11.65,45.715],[11.6445,45.7171],[11.6425,45.7195],[11.6376,45.7207],[11.6328,45.7208],[11.6326,45.7254],[11.6286,45.7322],[11.6201,45.7436],[11.6216,45.7511],[11.6287,45.7509],[11.6345,45.7492],[11.6379,45.7445],[11.6392,45.74],[11.641,45.7378],[11.6443,45.7346],[11.6527,45.7315],[11.65,45.715]]]}},{"type":"Feature","properties":{"i":"024078","n":"Piovene Rocchette"},"geometry":{"type":"Polygon","coordinates":[[[11.4393,45.7702],[11.4465,45.7681],[11.4503,45.7648],[11.4492,45.7573],[11.445,45.7525],[11.4449,45.7488],[11.4415,45.7446],[11.4371,45.7414],[11.44,45.7378],[11.4333,45.7343],[11.4366,45.734],[11.434,45.7295],[11.4273,45.7292],[11.4251,45.7341],[11.4197,45.7398],[11.4115,45.7518],[11.3997,45.7565],[11.3931,45.7612],[11.4,45.7746],[11.4047,45.7733],[11.4114,45.7772],[11.4356,45.7686],[11.4371,45.7687],[11.4393,45.7702]]]}},{"type":"Feature","properties":{"i":"024079","n":"Pojana Maggiore"},"geometry":{"type":"Polygon","coordinates":[[[11.5237,45.3143],[11.5245,45.3103],[11.521,45.2984],[11.5175,45.2966],[11.5184,45.2924],[11.535,45.2817],[11.544,45.271],[11.5515,45.2656],[11.5552,45.2646],[11.5595,45.2647],[11.5651,45.2625],[11.5284,45.2585],[11.487,45.266],[11.4887,45.2703],[11.4897,45.2801],[11.4844,45.286],[11.4711,45.2882],[11.4626,45.2945],[11.4653,45.2986],[11.4757,45.3074],[11.4803,45.3155],[11.4833,45.3231],[11.4931,45.3261],[11.5113,45.326],[11.5196,45.323],[11.5195,45.3177],[11.5222,45.3148],[11.5237,45.3143]]]}},{"type":"Feature","properties":{"i":"024080","n":"Posina"},"geometry":{"type":"Polygon","coordinates":[[[11.2859,45.8173],[11.2936,45.8158],[11.3017,45.8164],[11.3145,45.8158],[11.3208,45.8092],[11.3196,45.8045],[11.3198,45.7863],[11.3192,45.7848],[11.3042,45.7739],[11.2952,45.7717],[11.2931,45.7724],[11.2796,45.7729],[11.2718,45.7721],[11.2652,45.77],[11.2496,45.77],[11.2294,45.7784],[11.2028,45.7834],[11.1933,45.7956],[11.1938,45.8021],[11.1909,45.8021],[11.1902,45.8029],[11.1885,45.8119],[11.1888,45.8136],[11.1911,45.8167],[11.1935,45.817],[11.1979,45.8199],[11.1987,45.8242],[11.2003,45.8254],[11.2029,45.827],[11.2153,45.831],[11.219,45.8329],[11.2248,45.826],[11.2381,45.8133],[11.2529,45.8091],[11.2577,45.8061],[11.2661,45.8031],[11.2713,45.8047],[11.2821,45.8062],[11.2859,45.8173]]]}},{"type":"Feature","properties":{"i":"024081","n":"Pove del Grappa"},"geometry":{"type":"Polygon","coordinates":[[[11.7666,45.8693],[11.762,45.8587],[11.7601,45.8577],[11.7462,45.8565],[11.743,45.8553],[11.7443,45.8497],[11.7458,45.8479],[11.7495,45.8463],[11.7385,45.8396],[11.7351,45.8357],[11.7374,45.8233],[11.7407,45.8177],[11.7407,45.8079],[11.7419,45.8025],[11.7419,45.7985],[11.7326,45.7896],[11.7257,45.7861],[11.7175,45.7901],[11.7156,45.7923],[11.7144,45.7959],[11.7144,45.8053],[11.7195,45.8051],[11.7328,45.8114],[11.7359,45.8151],[11.7382,45.8193],[11.7335,45.8262],[11.7326,45.8356],[11.7347,45.8511],[11.7383,45.8568],[11.7387,45.8627],[11.7406,45.8689],[11.7436,45.8734],[11.7456,45.8742],[11.7555,45.8729],[11.7666,45.8693]]]}},{"type":"Feature","properties":{"i":"024082","n":"Pozzoleone"},"geometry":{"type":"Polygon","coordinates":[[[11.6854,45.7009],[11.6872,45.6793],[11.6901,45.669],[11.6925,45.6647],[11.7021,45.6611],[11.6919,45.6573],[11.6892,45.6591],[11.6858,45.6572],[11.6855,45.6479],[11.6767,45.6401],[11.6562,45.6404],[11.6654,45.6647],[11.6678,45.6802],[11.6723,45.695],[11.6757,45.6968],[11.6801,45.7006],[11.6854,45.7009]]]}},{"type":"Feature","properties":{"i":"024083","n":"Quinto Vicentino"},"geometry":{"type":"Polygon","coordinates":[[[11.6725,45.589],[11.6745,45.5825],[11.67,45.5825],[11.6675,45.579],[11.6659,45.5708],[11.6681,45.5688],[11.6699,45.5651],[11.6655,45.5583],[11.6531,45.5506],[11.6471,45.5522],[11.6396,45.5515],[11.6334,45.5481],[11.6321,45.55],[11.6268,45.5523],[11.6236,45.5512],[11.6206,45.5466],[11.6138,45.5434],[11.6113,45.5441],[11.6133,45.5572],[11.6126,45.5638],[11.6103,45.5635],[11.6095,45.5664],[11.6122,45.5672],[11.6178,45.5726],[11.621,45.5792],[11.6272,45.5811],[11.6358,45.582],[11.6405,45.5799],[11.6415,45.5922],[11.6447,45.5961],[11.646,45.5942],[11.6562,45.5923],[11.6591,45.5931],[11.6591,45.5945],[11.6665,45.595],[11.6715,45.5941],[11.6743,45.5919],[11.6725,45.589]]]}},{"type":"Feature","properties":{"i":"024084","n":"Recoaro Terme"},"geometry":{"type":"Polygon","coordinates":[[[11.2589,45.7213],[11.2625,45.7186],[11.2649,45.7123],[11.2706,45.7044],[11.2752,45.7072],[11.2814,45.7072],[11.2842,45.7058],[11.2883,45.7008],[11.2891,45.6985],[11.2893,45.6898],[11.2862,45.687],[11.2813,45.6844],[11.2727,45.6839],[11.2688,45.6819],[11.269,45.6781],[11.2681,45.6759],[11.2646,45.6744],[11.2606,45.6732],[11.2558,45.6739],[11.2457,45.6714],[11.2318,45.6657],[11.2285,45.6636],[11.2268,45.661],[11.2262,45.6592],[11.2272,45.6571],[11.2192,45.6577],[11.2125,45.6546],[11.2069,45.6588],[11.2042,45.665],[11.2001,45.6674],[11.1836,45.6688],[11.1647,45.6803],[11.1584,45.6855],[11.15,45.6875],[11.1359,45.6994],[11.1387,45.7093],[11.1444,45.7131],[11.1457,45.7149],[11.1459,45.7169],[11.1534,45.7186],[11.1729,45.7318],[11.1864,45.7296],[11.2039,45.7279],[11.2205,45.7208],[11.2436,45.7155],[11.2548,45.7171],[11.2589,45.7213]]]}},{"type":"Feature","properties":{"i":"024085","n":"Roana"},"geometry":{"type":"Polygon","coordinates":[[[11.4899,45.8207],[11.4702,45.8218],[11.4672,45.8203],[11.4678,45.8126],[11.4619,45.8111],[11.4595,45.8123],[11.4578,45.8156],[11.452,45.8188],[11.4505,45.8286],[11.4476,45.8346],[11.4393,45.8298],[11.436,45.8266],[11.4364,45.8249],[11.4354,45.8196],[11.428,45.8236],[11.4233,45.8286],[11.4243,45.8298],[11.4227,45.8314],[11.4145,45.8356],[11.4072,45.8366],[11.4058,45.8351],[11.3995,45.8328],[11.3879,45.8301],[11.3831,45.8405],[11.3964,45.8444],[11.3979,45.8442],[11.4035,45.848],[11.4047,45.8497],[11.4049,45.8514],[11.4028,45.8537],[11.4118,45.8546],[11.4261,45.8612],[11.427,45.8626],[11.4263,45.8651],[11.4072,45.888],[11.4062,45.8923],[11.4057,45.9001],[11.4033,45.9106],[11.3987,45.9174],[11.4066,45.931],[11.4067,45.9396],[11.4043,45.9445],[11.4092,45.9466],[11.4144,45.9505],[11.4314,45.9497],[11.4342,45.9474],[11.4437,45.95],[11.4502,45.9539],[11.4529,45.954],[11.4606,45.9428],[11.4642,45.9317],[11.4744,45.9226],[11.4781,45.9205],[11.4752,45.9124],[11.4715,45.9085],[11.4713,45.9014],[11.4805,45.8886],[11.4864,45.8834],[11.489,45.8737],[11.4892,45.8697],[11.4854,45.8538],[11.4852,45.8487],[11.4888,45.8335],[11.4899,45.8207]]]}},{"type":"Feature","properties":{"i":"024086","n":"Romano d'Ezzelino"},"geometry":{"type":"Polygon","coordinates":[[[11.7792,45.7919],[11.7809,45.7901],[11.789,45.7739],[11.7961,45.7653],[11.8014,45.753],[11.8049,45.7477],[11.8087,45.7439],[11.7976,45.7427],[11.7858,45.7461],[11.7781,45.7501],[11.7728,45.7627],[11.7698,45.7673],[11.7452,45.7837],[11.7334,45.7906],[11.7419,45.7985],[11.7419,45.8025],[11.7407,45.8079],[11.7407,45.8177],[11.7374,45.8233],[11.7351,45.8357],[11.7385,45.8396],[11.7495,45.8463],[11.7558,45.8444],[11.7574,45.8428],[11.759,45.8394],[11.759,45.8371],[11.7576,45.8333],[11.7533,45.8295],[11.7503,45.8233],[11.7505,45.8205],[11.7533,45.815],[11.7625,45.8048],[11.7792,45.7919]]]}},{"type":"Feature","properties":{"i":"024087","n":"Rosà"},"geometry":{"type":"Polygon","coordinates":[[[11.7883,45.7232],[11.7864,45.7093],[11.7884,45.6999],[11.7337,45.692],[11.7328,45.6926],[11.7327,45.6978],[11.7302,45.6991],[11.7301,45.7016],[11.7263,45.7044],[11.7231,45.7054],[11.7146,45.7143],[11.7126,45.724],[11.7067,45.7259],[11.718,45.7349],[11.7224,45.7365],[11.7552,45.7374],[11.7622,45.7389],[11.7772,45.7406],[11.7823,45.7255],[11.7853,45.7257],[11.7883,45.7232]]]}},{"type":"Feature","properties":{"i":"024088","n":"Rossano Veneto"},"geometry":{"type":"Polygon","coordinates":[[[11.8197,45.7241],[11.824,45.7066],[11.8154,45.6955],[11.8159,45.6927],[11.818,45.6898],[11.8217,45.6872],[11.7958,45.6831],[11.7902,45.6938],[11.7866,45.7075],[11.7883,45.7232],[11.8046,45.7248],[11.8151,45.7235],[11.8197,45.7241]]]}},{"type":"Feature","properties":{"i":"024089","n":"Rotzo"},"geometry":{"type":"Polygon","coordinates":[[[11.4043,45.9445],[11.4067,45.9396],[11.4066,45.931],[11.3987,45.9174],[11.4033,45.9106],[11.4057,45.9001],[11.4062,45.8923],[11.4072,45.888],[11.4263,45.8651],[11.4268,45.862],[11.4118,45.8546],[11.4076,45.8542],[11.4077,45.8559],[11.4048,45.8564],[11.3918,45.8528],[11.3821,45.852],[11.3768,45.8526],[11.3712,45.8558],[11.3715,45.8651],[11.3748,45.873],[11.3796,45.875],[11.3817,45.8742],[11.3891,45.8785],[11.3915,45.8817],[11.393,45.8868],[11.3834,45.8944],[11.3764,45.9019],[11.3752,45.9048],[11.3746,45.9153],[11.3727,45.9193],[11.369,45.9198],[11.3593,45.926],[11.3578,45.9291],[11.3606,45.9352],[11.3583,45.9437],[11.3672,45.9422],[11.3801,45.9428],[11.3833,45.951],[11.3879,45.9517],[11.3929,45.9501],[11.3998,45.9446],[11.4043,45.9445]]]}},{"type":"Feature","properties":{"i":"024090","n":"Salcedo"},"geometry":{"type":"Polygon","coordinates":[[[11.5935,45.7654],[11.5934,45.7589],[11.5924,45.7567],[11.5875,45.7519],[11.5881,45.7502],[11.5874,45.7474],[11.5816,45.7485],[11.58,45.7493],[11.5781,45.7522],[11.5714,45.7538],[11.5558,45.753],[11.5488,45.7494],[11.5472,45.7581],[11.5476,45.7621],[11.5493,45.7661],[11.5538,45.7674],[11.5814,45.7689],[11.5884,45.7675],[11.5935,45.7654]]]}},{"type":"Feature","properties":{"i":"024091","n":"Sandrigo"},"geometry":{"type":"Polygon","coordinates":[[[11.6211,45.6804],[11.6273,45.6767],[11.6278,45.6734],[11.6303,45.6711],[11.637,45.6689],[11.6404,45.6711],[11.6552,45.6679],[11.6654,45.6647],[11.662,45.6552],[11.6452,45.6552],[11.6282,45.653],[11.6221,45.6451],[11.6184,45.6372],[11.6195,45.6296],[11.6178,45.6207],[11.6136,45.6219],[11.6144,45.6236],[11.612,45.6249],[11.6055,45.6236],[11.6029,45.6201],[11.5986,45.6206],[11.5886,45.6244],[11.587,45.6298],[11.5842,45.6328],[11.5816,45.6373],[11.5823,45.6471],[11.5729,45.6575],[11.567,45.6681],[11.5634,45.6723],[11.5744,45.674],[11.5812,45.679],[11.5812,45.6799],[11.5864,45.6819],[11.6154,45.6821],[11.6211,45.6804]]]}},{"type":"Feature","properties":{"i":"024094","n":"San Pietro Mussolino"},"geometry":{"type":"Polygon","coordinates":[[[11.2681,45.5944],[11.2696,45.5907],[11.2695,45.5852],[11.2707,45.5841],[11.2653,45.5809],[11.2465,45.5773],[11.2438,45.583],[11.2331,45.5958],[11.2358,45.6001],[11.2406,45.6004],[11.249,45.5969],[11.2519,45.5934],[11.2566,45.5907],[11.2599,45.5903],[11.2681,45.5944]]]}},{"type":"Feature","properties":{"i":"024095","n":"Santorso"},"geometry":{"type":"Polygon","coordinates":[[[11.4273,45.7292],[11.4259,45.7245],[11.4208,45.7255],[11.4036,45.7207],[11.3851,45.7239],[11.3644,45.7342],[11.3617,45.7365],[11.3603,45.7397],[11.3668,45.7413],[11.3654,45.7453],[11.3615,45.7503],[11.3651,45.7523],[11.3701,45.7524],[11.3726,45.7486],[11.372,45.7456],[11.3734,45.7438],[11.3789,45.7452],[11.3885,45.7505],[11.3899,45.7607],[11.3931,45.7616],[11.3997,45.7565],[11.4115,45.7518],[11.4197,45.7398],[11.4251,45.7341],[11.4273,45.7292]]]}},{"type":"Feature","properties":{"i":"024096","n":"San Vito di Leguzzano"},"geometry":{"type":"Polygon","coordinates":[[[11.4028,45.69],[11.4083,45.6849],[11.3996,45.6847],[11.3858,45.6802],[11.381,45.6767],[11.3812,45.6737],[11.3513,45.672],[11.3417,45.6725],[11.3367,45.6705],[11.3402,45.675],[11.3423,45.6765],[11.3602,45.6821],[11.3678,45.6886],[11.3848,45.6963],[11.3964,45.6871],[11.4028,45.69]]]}},{"type":"Feature","properties":{"i":"024097","n":"Sarcedo"},"geometry":{"type":"Polygon","coordinates":[[[11.538,45.7207],[11.5388,45.7204],[11.5407,45.7167],[11.5426,45.7083],[11.5517,45.6897],[11.517,45.6818],[11.5157,45.6771],[11.5148,45.6576],[11.5112,45.6572],[11.5092,45.6578],[11.5118,45.6647],[11.5117,45.6764],[11.5143,45.6956],[11.5122,45.6963],[11.5041,45.6961],[11.4992,45.6989],[11.4952,45.7032],[11.5011,45.7095],[11.4946,45.7138],[11.5009,45.7159],[11.506,45.72],[11.5149,45.7225],[11.538,45.7207]]]}},{"type":"Feature","properties":{"i":"024098","n":"Sarego"},"geometry":{"type":"Polygon","coordinates":[[[11.4154,45.4542],[11.4266,45.4477],[11.4308,45.441],[11.4316,45.4373],[11.43,45.4363],[11.4304,45.4345],[11.4319,45.4345],[11.4378,45.4372],[11.4416,45.4406],[11.4431,45.4336],[11.4476,45.4266],[11.448,45.4233],[11.4406,45.4131],[11.4397,45.4129],[11.4366,45.409],[11.4475,45.3975],[11.4431,45.395],[11.424,45.3953],[11.399,45.3982],[11.3851,45.4109],[11.3819,45.4174],[11.3812,45.4349],[11.3941,45.4442],[11.4011,45.4451],[11.4073,45.4448],[11.411,45.4463],[11.4154,45.4542]]]}},{"type":"Feature","properties":{"i":"024099","n":"Schiavon"},"geometry":{"type":"Polygon","coordinates":[[[11.6585,45.7017],[11.6645,45.7],[11.6723,45.695],[11.6678,45.6802],[11.6654,45.6647],[11.6552,45.6679],[11.6404,45.6711],[11.637,45.6689],[11.6303,45.6711],[11.6278,45.6734],[11.6273,45.6767],[11.6211,45.6804],[11.6206,45.6897],[11.6303,45.695],[11.6339,45.6983],[11.6463,45.7041],[11.6585,45.7017]]]}},{"type":"Feature","properties":{"i":"024100","n":"Schio"},"geometry":{"type":"Polygon","coordinates":[[[11.3899,45.7607],[11.3885,45.7505],[11.3789,45.7452],[11.3734,45.7438],[11.372,45.7456],[11.3726,45.7486],[11.3701,45.7524],[11.3651,45.7523],[11.3615,45.7503],[11.3654,45.7453],[11.3668,45.7413],[11.3603,45.7393],[11.3617,45.7365],[11.3644,45.7342],[11.3851,45.7239],[11.4036,45.7207],[11.4208,45.7255],[11.4259,45.7245],[11.4256,45.7201],[11.4266,45.7184],[11.426,45.7165],[11.4141,45.7075],[11.4134,45.7007],[11.4099,45.6962],[11.4047,45.6916],[11.4021,45.6896],[11.3964,45.6871],[11.3848,45.6963],[11.3678,45.6886],[11.3602,45.6821],[11.3423,45.6765],[11.3402,45.675],[11.3367,45.6705],[11.3264,45.6686],[11.3254,45.6721],[11.3033,45.6872],[11.3016,45.6908],[11.3058,45.6914],[11.3222,45.6963],[11.3262,45.7004],[11.3335,45.7112],[11.3316,45.7154],[11.3217,45.7244],[11.3129,45.7282],[11.3059,45.7289],[11.3013,45.7303],[11.2944,45.7397],[11.2966,45.7477],[11.2916,45.7526],[11.2874,45.7546],[11.2929,45.7628],[11.2954,45.7692],[11.2952,45.7717],[11.3042,45.7739],[11.309,45.7725],[11.312,45.7727],[11.3145,45.7751],[11.3199,45.7782],[11.33,45.7782],[11.3354,45.7764],[11.3403,45.773],[11.3717,45.7664],[11.3804,45.7626],[11.3899,45.7607]]]}},{"type":"Feature","properties":{"i":"024101","n":"Solagna"},"geometry":{"type":"Polygon","coordinates":[[[11.7436,45.8734],[11.7406,45.8689],[11.7387,45.8627],[11.7383,45.8568],[11.7347,45.8511],[11.7326,45.8356],[11.7335,45.8262],[11.7382,45.8193],[11.7359,45.8151],[11.7328,45.8114],[11.7195,45.8051],[11.7148,45.8051],[11.7189,45.8108],[11.718,45.8148],[11.7037,45.8271],[11.7002,45.8312],[11.7013,45.8335],[11.7157,45.8437],[11.7163,45.8463],[11.7061,45.8534],[11.6978,45.8561],[11.6961,45.8549],[11.6933,45.8551],[11.69,45.8578],[11.6898,45.8609],[11.692,45.8603],[11.7037,45.8609],[11.7072,45.8638],[11.707,45.8659],[11.7094,45.8689],[11.7202,45.8741],[11.7255,45.8751],[11.7334,45.8749],[11.7436,45.8734]]]}},{"type":"Feature","properties":{"i":"024102","n":"Sossano"},"geometry":{"type":"Polygon","coordinates":[[[11.564,45.3576],[11.5638,45.3523],[11.5438,45.3511],[11.5287,45.348],[11.526,45.3453],[11.5231,45.3418],[11.5242,45.3379],[11.529,45.3313],[11.5275,45.3268],[11.5271,45.3221],[11.5278,45.3174],[11.5237,45.3143],[11.5222,45.3148],[11.5195,45.3177],[11.5196,45.323],[11.5113,45.326],[11.4931,45.3261],[11.489,45.3341],[11.4906,45.336],[11.4933,45.3425],[11.4916,45.3512],[11.4869,45.357],[11.4889,45.3551],[11.492,45.3542],[11.4928,45.3549],[11.492,45.3683],[11.4976,45.3771],[11.5038,45.3847],[11.5098,45.3815],[11.519,45.374],[11.5436,45.3638],[11.564,45.3576]]]}},{"type":"Feature","properties":{"i":"024104","n":"Tezze sul Brenta"},"geometry":{"type":"Polygon","coordinates":[[[11.7302,45.6991],[11.7327,45.6978],[11.7328,45.6926],[11.7337,45.692],[11.7884,45.6999],[11.7907,45.6923],[11.7958,45.6831],[11.7577,45.6779],[11.7167,45.6813],[11.7081,45.6806],[11.7067,45.6801],[11.7109,45.6703],[11.7099,45.6678],[11.6966,45.6632],[11.6925,45.6647],[11.69,45.6692],[11.6881,45.6752],[11.6863,45.6873],[11.696,45.6883],[11.702,45.6917],[11.7045,45.6962],[11.7052,45.7056],[11.7088,45.707],[11.7143,45.7061],[11.7239,45.7033],[11.7262,45.6987],[11.7302,45.6991]]]}},{"type":"Feature","properties":{"i":"024105","n":"Thiene"},"geometry":{"type":"Polygon","coordinates":[[[11.4946,45.7138],[11.5011,45.7095],[11.4952,45.7032],[11.4992,45.6989],[11.5041,45.6961],[11.5122,45.6963],[11.5143,45.6956],[11.5117,45.6764],[11.5118,45.6647],[11.5092,45.6578],[11.5066,45.6609],[11.5053,45.6685],[11.5041,45.6721],[11.5031,45.6727],[11.4866,45.6596],[11.4824,45.6627],[11.4787,45.6672],[11.4764,45.6756],[11.4747,45.6783],[11.4647,45.6823],[11.4609,45.6826],[11.4585,45.6854],[11.456,45.692],[11.4553,45.6983],[11.4461,45.7039],[11.4507,45.7075],[11.4621,45.7112],[11.4691,45.7165],[11.4713,45.7172],[11.4733,45.7158],[11.477,45.7148],[11.4841,45.7164],[11.4919,45.7163],[11.4946,45.7138]]]}},{"type":"Feature","properties":{"i":"024106","n":"Tonezza del Cimone"},"geometry":{"type":"Polygon","coordinates":[[[11.3055,45.876],[11.3443,45.8698],[11.3522,45.8653],[11.3562,45.8513],[11.3597,45.8447],[11.3585,45.8377],[11.3567,45.8378],[11.3572,45.8334],[11.3544,45.826],[11.3464,45.8221],[11.3329,45.8473],[11.3215,45.8552],[11.3014,45.8618],[11.2927,45.8666],[11.286,45.8721],[11.2869,45.8744],[11.2925,45.8762],[11.3055,45.876]]]}},{"type":"Feature","properties":{"i":"024107","n":"Torrebelvicino"},"geometry":{"type":"Polygon","coordinates":[[[11.3016,45.6908],[11.2893,45.6898],[11.2891,45.6985],[11.2883,45.7008],[11.2842,45.7058],[11.2814,45.7072],[11.2752,45.7072],[11.2706,45.7044],[11.2649,45.7123],[11.2625,45.7186],[11.2589,45.7213],[11.2735,45.7302],[11.2704,45.7356],[11.2719,45.7391],[11.2767,45.7437],[11.2824,45.747],[11.2874,45.7546],[11.2916,45.7526],[11.2966,45.7477],[11.2944,45.7397],[11.3013,45.7303],[11.3059,45.7289],[11.3129,45.7282],[11.3217,45.7244],[11.3316,45.7154],[11.3334,45.7127],[11.3335,45.7112],[11.3262,45.7004],[11.3222,45.6963],[11.3058,45.6914],[11.3016,45.6908]]]}},{"type":"Feature","properties":{"i":"024108","n":"Torri di Quartesolo"},"geometry":{"type":"Polygon","coordinates":[[[11.6531,45.5506],[11.6557,45.55],[11.6585,45.5455],[11.6577,45.5402],[11.6565,45.5403],[11.6555,45.5386],[11.6538,45.5239],[11.6489,45.513],[11.6459,45.5098],[11.6417,45.5081],[11.6309,45.4978],[11.63,45.4995],[11.6269,45.5016],[11.622,45.5014],[11.6199,45.4999],[11.6102,45.5008],[11.6044,45.4995],[11.6039,45.5032],[11.6071,45.5094],[11.6055,45.5163],[11.6015,45.5198],[11.6016,45.5224],[11.606,45.5272],[11.609,45.527],[11.6097,45.5279],[11.6104,45.5301],[11.6065,45.5385],[11.6106,45.5424],[11.6113,45.5441],[11.6138,45.5434],[11.6206,45.5466],[11.6236,45.5512],[11.6268,45.5523],[11.6321,45.55],[11.6334,45.5481],[11.6396,45.5515],[11.6471,45.5522],[11.6531,45.5506]]]}},{"type":"Feature","properties":{"i":"024110","n":"Trissino"},"geometry":{"type":"Polygon","coordinates":[[[11.381,45.576],[11.382,45.5749],[11.3857,45.564],[11.3913,45.5616],[11.3927,45.5624],[11.3865,45.5494],[11.3867,45.5483],[11.3879,45.5475],[11.3939,45.5472],[11.3931,45.545],[11.3904,45.5425],[11.3817,45.5399],[11.3795,45.5406],[11.3795,45.542],[11.3716,45.5457],[11.3613,45.5456],[11.3381,45.553],[11.3342,45.5527],[11.3242,45.5624],[11.3098,45.5705],[11.2963,45.575],[11.2906,45.5782],[11.2901,45.5847],[11.3114,45.588],[11.3276,45.5808],[11.3337,45.5793],[11.3389,45.5818],[11.3447,45.5861],[11.3464,45.5861],[11.3517,45.5847],[11.3616,45.58],[11.381,45.576]]]}},{"type":"Feature","properties":{"i":"024111","n":"Valdagno"},"geometry":{"type":"Polygon","coordinates":[[[11.3264,45.6686],[11.3288,45.6621],[11.3293,45.6537],[11.3317,45.6507],[11.3171,45.6371],[11.3078,45.631],[11.3102,45.6263],[11.3209,45.616],[11.3142,45.6119],[11.3125,45.6072],[11.3138,45.6038],[11.3122,45.6018],[11.3095,45.6012],[11.282,45.5984],[11.2832,45.6024],[11.2815,45.6053],[11.2765,45.6091],[11.2657,45.6123],[11.2633,45.6146],[11.2444,45.6375],[11.2371,45.651],[11.2349,45.6537],[11.2302,45.657],[11.2272,45.6571],[11.2262,45.6592],[11.2285,45.6636],[11.2318,45.6657],[11.2457,45.6714],[11.2558,45.6739],[11.2606,45.6732],[11.2646,45.6744],[11.2681,45.6759],[11.269,45.6781],[11.2688,45.6819],[11.2727,45.6839],[11.2813,45.6844],[11.2862,45.687],[11.2893,45.6898],[11.3016,45.6908],[11.3033,45.6872],[11.3254,45.6721],[11.3264,45.6686]]]}},{"type":"Feature","properties":{"i":"024112","n":"Valdastico"},"geometry":{"type":"Polygon","coordinates":[[[11.4076,45.8542],[11.4028,45.8537],[11.3988,45.851],[11.3938,45.849],[11.3832,45.8478],[11.3751,45.8457],[11.3733,45.8442],[11.373,45.8383],[11.3707,45.8359],[11.3594,45.8365],[11.3567,45.8378],[11.3585,45.8377],[11.3597,45.8447],[11.3562,45.8513],[11.3522,45.8653],[11.3443,45.8698],[11.3091,45.8752],[11.3147,45.8847],[11.3225,45.8932],[11.3245,45.8943],[11.3328,45.8982],[11.3344,45.8969],[11.3393,45.8952],[11.3506,45.8923],[11.3577,45.8953],[11.3637,45.9014],[11.367,45.9051],[11.3668,45.9138],[11.3625,45.9197],[11.3593,45.9219],[11.3581,45.9253],[11.3578,45.9291],[11.36,45.9251],[11.369,45.9198],[11.3727,45.9193],[11.3746,45.9153],[11.3752,45.9048],[11.3764,45.9019],[11.3834,45.8944],[11.393,45.8868],[11.3915,45.8817],[11.3891,45.8785],[11.3817,45.8742],[11.3796,45.875],[11.3748,45.873],[11.3715,45.8651],[11.371,45.8622],[11.3715,45.8554],[11.3768,45.8526],[11.3821,45.852],[11.3918,45.8528],[11.4048,45.8564],[11.4077,45.8559],[11.4076,45.8542]]]}},{"type":"Feature","properties":{"i":"024113","n":"Valli del Pasubio"},"geometry":{"type":"Polygon","coordinates":[[[11.2028,45.7834],[11.2294,45.7784],[11.2496,45.77],[11.2652,45.77],[11.2718,45.7721],[11.2796,45.7729],[11.2931,45.7724],[11.2952,45.7717],[11.2957,45.7707],[11.2929,45.7628],[11.2833,45.748],[11.2767,45.7437],[11.2719,45.7391],[11.2704,45.7356],[11.2735,45.7302],[11.2589,45.7213],[11.2548,45.7171],[11.2436,45.7155],[11.2205,45.7208],[11.2039,45.7279],[11.1864,45.7296],[11.1729,45.7318],[11.1784,45.7381],[11.1761,45.7474],[11.1763,45.7516],[11.1777,45.7567],[11.1807,45.7629],[11.1798,45.7729],[11.1773,45.7799],[11.1738,45.7861],[11.174,45.7871],[11.1784,45.7881],[11.1901,45.7816],[11.1987,45.7816],[11.2028,45.7834]]]}},{"type":"Feature","properties":{"i":"024115","n":"Velo d'Astico"},"geometry":{"type":"Polygon","coordinates":[[[11.3773,45.8009],[11.3959,45.7877],[11.4086,45.7761],[11.4047,45.7733],[11.4,45.7746],[11.3931,45.7616],[11.3893,45.7606],[11.3851,45.7612],[11.3717,45.7664],[11.3403,45.773],[11.3354,45.7764],[11.33,45.7782],[11.3199,45.7782],[11.3145,45.7751],[11.312,45.7727],[11.309,45.7725],[11.3042,45.7739],[11.3192,45.7848],[11.3198,45.7863],[11.3196,45.8045],[11.3208,45.8092],[11.3224,45.8079],[11.3584,45.7979],[11.3609,45.798],[11.3683,45.8003],[11.37,45.8016],[11.3737,45.8018],[11.3773,45.8009]]]}},{"type":"Feature","properties":{"i":"024116","n":"Vicenza"},"geometry":{"type":"Polygon","coordinates":[[[11.5615,45.6087],[11.5668,45.6016],[11.5664,45.5986],[11.5616,45.5928],[11.5644,45.5824],[11.5706,45.5796],[11.5735,45.5817],[11.5736,45.5853],[11.5761,45.588],[11.5821,45.5896],[11.5834,45.5878],[11.5838,45.5864],[11.5831,45.5856],[11.5852,45.5802],[11.5913,45.5822],[11.5968,45.5766],[11.5952,45.5741],[11.5964,45.5661],[11.5982,45.5654],[11.6076,45.5673],[11.6107,45.5672],[11.6095,45.5664],[11.6103,45.5635],[11.6126,45.5638],[11.6133,45.5572],[11.6113,45.5441],[11.6106,45.5424],[11.6065,45.5385],[11.6104,45.5301],[11.609,45.527],[11.606,45.5272],[11.6016,45.5224],[11.6015,45.5198],[11.6055,45.5163],[11.6071,45.5094],[11.6039,45.5032],[11.6044,45.4995],[11.6014,45.4912],[11.5941,45.4932],[11.5925,45.4956],[11.5872,45.4927],[11.5905,45.4871],[11.5902,45.4832],[11.5845,45.4848],[11.5783,45.4921],[11.5756,45.4967],[11.572,45.5002],[11.5668,45.4993],[11.5665,45.4973],[11.5599,45.4864],[11.5573,45.4861],[11.5516,45.4884],[11.5513,45.4923],[11.5555,45.5035],[11.5545,45.5063],[11.5505,45.5107],[11.5453,45.5142],[11.5359,45.5134],[11.5324,45.5169],[11.5227,45.5143],[11.5098,45.5152],[11.5032,45.5133],[11.4965,45.5156],[11.4941,45.5208],[11.491,45.5242],[11.5016,45.5306],[11.5024,45.5319],[11.4958,45.5335],[11.4886,45.5404],[11.4888,45.5415],[11.5006,45.5445],[11.4989,45.549],[11.494,45.5502],[11.4868,45.557],[11.4867,45.5596],[11.4922,45.5644],[11.4914,45.5711],[11.5015,45.5757],[11.5038,45.578],[11.5033,45.582],[11.5092,45.587],[11.5166,45.5887],[11.5177,45.5835],[11.5249,45.5784],[11.5332,45.5816],[11.5307,45.5881],[11.5555,45.6005],[11.5559,45.6065],[11.5599,45.6091],[11.5615,45.6087]]]}},{"type":"Feature","properties":{"i":"024117","n":"Villaga"},"geometry":{"type":"Polygon","coordinates":[[[11.5661,45.373],[11.5644,45.3691],[11.5649,45.3656],[11.564,45.3576],[11.5436,45.3638],[11.519,45.374],[11.5098,45.3815],[11.5038,45.3847],[11.5057,45.3866],[11.5037,45.3903],[11.4915,45.392],[11.4878,45.4],[11.4881,45.4063],[11.4833,45.4153],[11.4829,45.4174],[11.4842,45.4201],[11.4895,45.4191],[11.4918,45.4178],[11.5014,45.4203],[11.5074,45.4237],[11.5094,45.4196],[11.5161,45.4148],[11.5462,45.4043],[11.5516,45.3958],[11.5516,45.39],[11.5531,45.3868],[11.5606,45.3808],[11.5653,45.3755],[11.5661,45.373]]]}},{"type":"Feature","properties":{"i":"024118","n":"Villaverla"},"geometry":{"type":"Polygon","coordinates":[[[11.5092,45.6578],[11.5112,45.6572],[11.513,45.655],[11.5254,45.6557],[11.5285,45.6534],[11.5297,45.6508],[11.5328,45.6355],[11.5327,45.6342],[11.5305,45.6321],[11.5314,45.6211],[11.5287,45.6193],[11.5239,45.6202],[11.5212,45.6225],[11.5086,45.6366],[11.505,45.6433],[11.5011,45.6432],[11.4933,45.6404],[11.4922,45.6357],[11.4895,45.6333],[11.4862,45.6373],[11.462,45.649],[11.4583,45.6532],[11.452,45.6584],[11.4787,45.6672],[11.4824,45.6627],[11.4866,45.6596],[11.5031,45.6727],[11.5041,45.6721],[11.5053,45.6685],[11.5066,45.6609],[11.5092,45.6578]]]}},{"type":"Feature","properties":{"i":"024119","n":"Zanè"},"geometry":{"type":"Polygon","coordinates":[[[11.4686,45.7292],[11.4713,45.7172],[11.4691,45.7165],[11.4621,45.7112],[11.4507,45.7075],[11.4472,45.7047],[11.4325,45.7164],[11.4276,45.7197],[11.4256,45.7201],[11.4273,45.7292],[11.4344,45.7298],[11.4366,45.734],[11.4333,45.7343],[11.44,45.7378],[11.4435,45.734],[11.4612,45.7312],[11.4686,45.7292]]]}},{"type":"Feature","properties":{"i":"024120","n":"Zermeghedo"},"geometry":{"type":"Polygon","coordinates":[[[11.3928,45.4784],[11.3899,45.4782],[11.3851,45.4743],[11.3765,45.47],[11.3654,45.4678],[11.3586,45.4742],[11.3579,45.4774],[11.3579,45.4793],[11.3594,45.4799],[11.3782,45.4819],[11.3891,45.4853],[11.3928,45.4784]]]}},{"type":"Feature","properties":{"i":"024121","n":"Zovencedo"},"geometry":{"type":"Polygon","coordinates":[[[11.4945,45.4626],[11.4938,45.4598],[11.4968,45.4543],[11.5079,45.4482],[11.513,45.4443],[11.5102,45.435],[11.511,45.4314],[11.5074,45.4237],[11.5014,45.4203],[11.4917,45.4178],[11.4895,45.4191],[11.4842,45.4201],[11.4774,45.4258],[11.4778,45.4286],[11.4819,45.4327],[11.4831,45.4361],[11.4797,45.4394],[11.4776,45.4451],[11.4824,45.4539],[11.4899,45.4616],[11.4945,45.4626]]]}},{"type":"Feature","properties":{"i":"024122","n":"Zugliano"},"geometry":{"type":"Polygon","coordinates":[[[11.5353,45.7405],[11.5346,45.7328],[11.538,45.7207],[11.5149,45.7225],[11.506,45.72],[11.5009,45.7159],[11.4946,45.7138],[11.4919,45.7163],[11.4841,45.7164],[11.477,45.7148],[11.4733,45.7158],[11.4713,45.7172],[11.4686,45.7292],[11.4697,45.7308],[11.4786,45.7388],[11.4954,45.7468],[11.4999,45.748],[11.5094,45.7457],[11.5195,45.7418],[11.5298,45.7398],[11.5353,45.7405]]]}},{"type":"Feature","properties":{"i":"024123","n":"Val Liona"},"geometry":{"type":"Polygon","coordinates":[[[11.4842,45.4201],[11.4829,45.4174],[11.4833,45.4153],[11.4881,45.4063],[11.4878,45.4],[11.4915,45.392],[11.5037,45.3903],[11.5057,45.3866],[11.4976,45.3771],[11.492,45.3683],[11.4928,45.3549],[11.492,45.3542],[11.4889,45.3551],[11.4869,45.357],[11.484,45.3654],[11.4776,45.3701],[11.4579,45.371],[11.4545,45.3697],[11.4505,45.3774],[11.4527,45.3821],[11.453,45.3924],[11.449,45.3974],[11.4475,45.3975],[11.4366,45.409],[11.4397,45.4129],[11.4406,45.4131],[11.448,45.4233],[11.4476,45.4266],[11.4431,45.4336],[11.4416,45.4406],[11.4508,45.4436],[11.4725,45.4455],[11.4776,45.4451],[11.4797,45.4394],[11.4831,45.4361],[11.4819,45.4327],[11.4778,45.4286],[11.4774,45.4258],[11.4842,45.4201]]]}},{"type":"Feature","properties":{"i":"024124","n":"Barbarano Mossano"},"geometry":{"type":"Polygon","coordinates":[[[11.5374,45.4409],[11.5397,45.4405],[11.5564,45.4307],[11.5714,45.4235],[11.5824,45.4194],[11.5904,45.4175],[11.6023,45.411],[11.6183,45.4072],[11.6238,45.4043],[11.6254,45.4023],[11.6294,45.4011],[11.6351,45.4015],[11.6157,45.388],[11.6075,45.3884],[11.5956,45.3857],[11.589,45.3813],[11.5825,45.3799],[11.5752,45.3769],[11.569,45.373],[11.5661,45.373],[11.5653,45.3755],[11.5606,45.3808],[11.5531,45.3868],[11.5516,45.39],[11.5516,45.3958],[11.5462,45.4043],[11.5161,45.4148],[11.5094,45.4196],[11.5074,45.4237],[11.511,45.4314],[11.5102,45.435],[11.513,45.4443],[11.5272,45.4411],[11.5353,45.4404],[11.5374,45.4409]]]}},{"type":"Feature","properties":{"i":"024125","n":"Valbrenta"},"geometry":{"type":"MultiPolygon","coordinates":[[[[11.714,45.9558],[11.7222,45.9539],[11.7279,45.9481],[11.7294,45.9434],[11.729,45.9391],[11.7275,45.9364],[11.7295,45.9339],[11.7385,45.932],[11.744,45.9333],[11.7466,45.9352],[11.763,45.9282],[11.7668,45.9256],[11.7675,45.9238],[11.7693,45.9221],[11.7804,45.9244],[11.7873,45.9243],[11.7902,45.9205],[11.792,45.916],[11.7908,45.9141],[11.7803,45.9065],[11.7762,45.8949],[11.7782,45.8878],[11.7996,45.8806],[11.7992,45.872],[11.7912,45.8712],[11.7809,45.8685],[11.7702,45.8681],[11.7555,45.8729],[11.7456,45.8742],[11.7436,45.8734],[11.7364,45.8747],[11.7255,45.8751],[11.7202,45.8741],[11.7094,45.8689],[11.707,45.8659],[11.7072,45.8638],[11.7037,45.8609],[11.692,45.8603],[11.6898,45.8609],[11.69,45.8578],[11.6933,45.8551],[11.6961,45.8549],[11.6978,45.8561],[11.7061,45.8534],[11.7163,45.8463],[11.7157,45.8437],[11.7013,45.8335],[11.7002,45.8312],[11.7037,45.8271],[11.7127,45.8192],[11.708,45.8161],[11.6889,45.8125],[11.6809,45.8143],[11.6772,45.8176],[11.6702,45.8193],[11.6451,45.8219],[11.6455,45.8266],[11.6409,45.8308],[11.6258,45.8342],[11.6128,45.843],[11.5999,45.8443],[11.5976,45.8479],[11.5872,45.8546],[11.586,45.8602],[11.5886,45.8613],[11.6082,45.8605],[11.6271,45.8626],[11.6348,45.8683],[11.6484,45.8663],[11.654,45.8678],[11.6546,45.8691],[11.6534,45.8745],[11.6535,45.8784],[11.6547,45.8802],[11.6644,45.8842],[11.6781,45.8876],[11.6789,45.8891],[11.682,45.8903],[11.6829,45.8921],[11.6808,45.8943],[11.6802,45.8981],[11.6852,45.9088],[11.704,45.9085],[11.7126,45.9116],[11.7193,45.919],[11.7207,45.9265],[11.7266,45.9446],[11.7234,45.9515],[11.714,45.9558]]],[[[11.714,45.9558],[11.6983,45.9616],[11.6931,45.9614],[11.6851,45.966],[11.6858,45.9693],[11.6843,45.9841],[11.6897,45.9779],[11.6935,45.9767],[11.7056,45.9766],[11.7144,45.9723],[11.716,45.9704],[11.7167,45.9678],[11.7103,45.9598],[11.714,45.9558]]]]}},{"type":"Feature","properties":{"i":"024126","n":"Colceresa"},"geometry":{"type":"Polygon","coordinates":[[[11.6216,45.7511],[11.6201,45.7436],[11.6286,45.7322],[11.6326,45.7254],[11.6328,45.7208],[11.6376,45.7207],[11.6425,45.7195],[11.6445,45.7171],[11.65,45.715],[11.6463,45.7041],[11.6339,45.6983],[11.6303,45.695],[11.6206,45.6897],[11.6134,45.6995],[11.6041,45.7059],[11.5979,45.7092],[11.5925,45.7107],[11.5898,45.7136],[11.5874,45.7219],[11.5881,45.7253],[11.5944,45.7327],[11.5937,45.7368],[11.5903,45.7383],[11.5899,45.7392],[11.5882,45.7428],[11.5874,45.7474],[11.5881,45.7502],[11.5912,45.7497],[11.6129,45.7513],[11.6216,45.7511]]]}},{"type":"Feature","properties":{"i":"024127","n":"Lusiana Conco"},"geometry":{"type":"Polygon","coordinates":[[[11.6451,45.8219],[11.6558,45.8138],[11.6578,45.8056],[11.6651,45.7911],[11.663,45.7906],[11.6591,45.7914],[11.659,45.7949],[11.651,45.7927],[11.6338,45.7837],[11.6274,45.7814],[11.6197,45.78],[11.6006,45.7786],[11.5986,45.7702],[11.5935,45.7654],[11.5821,45.7689],[11.5538,45.7674],[11.5493,45.7661],[11.5399,45.7676],[11.5368,45.7688],[11.5423,45.7725],[11.5495,45.7872],[11.5447,45.7968],[11.5457,45.8002],[11.5395,45.8037],[11.5278,45.8082],[11.5272,45.8093],[11.526,45.812],[11.5258,45.8153],[11.5277,45.8168],[11.5317,45.8247],[11.5296,45.8279],[11.5273,45.8286],[11.5268,45.8299],[11.5445,45.8341],[11.5524,45.835],[11.5653,45.8356],[11.5718,45.8353],[11.5759,45.8336],[11.5807,45.8343],[11.5854,45.8354],[11.5889,45.8377],[11.5926,45.8417],[11.5999,45.8443],[11.6128,45.843],[11.6258,45.8342],[11.6348,45.8318],[11.64,45.8313],[11.6455,45.8266],[11.6451,45.8219]]]}},{"type":"Feature","properties":{"i":"024103","n":"Sovizzo"},"geometry":{"type":"Polygon","coordinates":[[[11.4534,45.5889],[11.4563,45.5869],[11.4576,45.5797],[11.455,45.579],[11.4499,45.5751],[11.447,45.5717],[11.4467,45.563],[11.4477,45.5509],[11.4471,45.5424],[11.4528,45.5306],[11.457,45.5275],[11.4548,45.5245],[11.4497,45.5224],[11.4545,45.5131],[11.4511,45.5129],[11.442,45.509],[11.4378,45.5118],[11.4296,45.5142],[11.4228,45.5192],[11.4174,45.5279],[11.407,45.5388],[11.4061,45.5415],[11.4065,45.5487],[11.4155,45.5523],[11.4176,45.5613],[11.4207,45.5617],[11.4241,45.5649],[11.4266,45.5693],[11.423,45.5912],[11.4248,45.5952],[11.4241,45.5963],[11.4287,45.6009],[11.4313,45.6021],[11.445,45.5993],[11.4515,45.595],[11.4529,45.5931],[11.4534,45.5889]]]}}]}
