{"type":"FeatureCollection","fonte":"Confini comunali ISTAT via openpolis/geojson-italy — CC BY 4.0","features":[{"type":"Feature","properties":{"i":"056001","n":"Acquapendente"},"geometry":{"type":"Polygon","coordinates":[[[11.895,42.8347],[11.8991,42.8325],[11.9039,42.8322],[11.9056,42.8296],[11.9061,42.8239],[11.9082,42.8162],[11.9138,42.8099],[11.9195,42.7991],[11.9253,42.7838],[11.9274,42.7809],[11.9298,42.7791],[11.9331,42.778],[11.9496,42.7761],[11.9606,42.7712],[11.9625,42.7689],[11.9654,42.7671],[11.9795,42.7646],[11.9783,42.7515],[11.9699,42.7387],[11.9606,42.7282],[11.9521,42.7266],[11.9491,42.7274],[11.9454,42.7253],[11.9394,42.718],[11.9302,42.7126],[11.9263,42.7047],[11.9131,42.7059],[11.8945,42.7007],[11.8921,42.7028],[11.8921,42.7054],[11.8795,42.7073],[11.8747,42.7058],[11.8616,42.7052],[11.843,42.7005],[11.8396,42.7002],[11.834,42.7018],[11.8245,42.707],[11.8167,42.7149],[11.8152,42.7196],[11.8101,42.7287],[11.8085,42.7302],[11.8189,42.7429],[11.8196,42.745],[11.8187,42.7464],[11.8193,42.7471],[11.8251,42.7486],[11.8324,42.7489],[11.8431,42.7531],[11.8469,42.7553],[11.8454,42.7616],[11.8443,42.7724],[11.8452,42.7832],[11.8368,42.8051],[11.8336,42.8098],[11.826,42.8119],[11.8225,42.8118],[11.8181,42.8108],[11.8167,42.8091],[11.8109,42.8069],[11.8146,42.8146],[11.8131,42.8215],[11.8146,42.8234],[11.8221,42.826],[11.8329,42.8274],[11.8421,42.8326],[11.8474,42.8377],[11.8678,42.8348],[11.8875,42.8349],[11.8911,42.8339],[11.895,42.8347]]]}},{"type":"Feature","properties":{"i":"056002","n":"Arlena di Castro"},"geometry":{"type":"Polygon","coordinates":[[[11.838,42.4792],[11.8463,42.4591],[11.843,42.4508],[11.84,42.4475],[11.8261,42.4403],[11.807,42.4339],[11.805,42.4307],[11.7953,42.4278],[11.7844,42.4299],[11.7724,42.4297],[11.7799,42.443],[11.7826,42.4433],[11.7925,42.4486],[11.8028,42.4623],[11.8028,42.4728],[11.8053,42.4831],[11.8049,42.4865],[11.8196,42.4918],[11.8194,42.4891],[11.8204,42.4865],[11.8219,42.4857],[11.8232,42.4896],[11.8255,42.4912],[11.8342,42.49],[11.8353,42.4892],[11.8341,42.4838],[11.8358,42.4809],[11.838,42.4792]]]}},{"type":"Feature","properties":{"i":"056003","n":"Bagnoregio"},"geometry":{"type":"Polygon","coordinates":[[[12.1579,42.6358],[12.161,42.6331],[12.1652,42.6312],[12.1711,42.629],[12.1762,42.6285],[12.1768,42.6189],[12.165,42.6115],[12.1516,42.6014],[12.1522,42.5998],[12.1611,42.5927],[12.1693,42.5925],[12.1728,42.5907],[12.1704,42.58],[12.1686,42.5767],[12.1538,42.581],[12.1526,42.5809],[12.1522,42.5798],[12.1442,42.5828],[12.1328,42.5829],[12.1247,42.5865],[12.1221,42.5867],[12.0852,42.5843],[12.0811,42.5843],[12.0668,42.587],[12.0536,42.5868],[12.0525,42.581],[12.041,42.5864],[12.0333,42.589],[12.0306,42.5881],[12.0229,42.5883],[12.019,42.5913],[12.0189,42.5949],[12.0141,42.6011],[12.0099,42.5997],[12.0146,42.6133],[12.0156,42.6191],[12.0192,42.6242],[12.0225,42.6257],[12.0254,42.626],[12.0262,42.6269],[12.03,42.6432],[12.0397,42.649],[12.0481,42.6494],[12.049,42.6478],[12.0549,42.6429],[12.0581,42.6441],[12.0677,42.645],[12.0868,42.6436],[12.0899,42.6343],[12.0935,42.632],[12.098,42.6314],[12.129,42.6331],[12.1365,42.6355],[12.1483,42.6372],[12.1567,42.6369],[12.1579,42.6358]]]}},{"type":"Feature","properties":{"i":"056004","n":"Barbarano Romano"},"geometry":{"type":"Polygon","coordinates":[[[12.1078,42.2787],[12.1145,42.2774],[12.1177,42.2742],[12.1208,42.2613],[12.1187,42.2538],[12.1194,42.2491],[12.1065,42.2353],[12.1031,42.2305],[12.0999,42.2235],[12.0952,42.2235],[12.0948,42.2266],[12.0915,42.2306],[12.0888,42.2329],[12.0853,42.2334],[12.0685,42.2255],[12.0672,42.2242],[12.0653,42.2189],[12.0658,42.2145],[12.0505,42.2153],[12.0476,42.2148],[12.0296,42.2261],[12.0242,42.2284],[12.0248,42.2371],[12.0309,42.2466],[12.0407,42.258],[12.0448,42.2616],[12.055,42.2602],[12.058,42.2612],[12.064,42.2762],[12.0749,42.2795],[12.0823,42.2809],[12.0916,42.2789],[12.1078,42.2787]]]}},{"type":"Feature","properties":{"i":"056005","n":"Bassano Romano"},"geometry":{"type":"Polygon","coordinates":[[[12.1809,42.235],[12.1854,42.2332],[12.2107,42.2288],[12.2152,42.2259],[12.2123,42.217],[12.2125,42.2133],[12.2178,42.2021],[12.2173,42.1976],[12.2145,42.1911],[12.2157,42.1867],[12.2064,42.1844],[12.2035,42.1828],[12.2022,42.18],[12.1933,42.1784],[12.1803,42.1786],[12.1688,42.1753],[12.1663,42.1787],[12.16,42.1794],[12.1565,42.1806],[12.1429,42.1873],[12.1309,42.1958],[12.126,42.2006],[12.1213,42.2022],[12.1204,42.2036],[12.1226,42.217],[12.1315,42.2238],[12.1337,42.2284],[12.1364,42.2258],[12.1441,42.2248],[12.1497,42.2213],[12.1504,42.2193],[12.1521,42.2193],[12.1595,42.2225],[12.175,42.2353],[12.1786,42.2357],[12.1809,42.235]]]}},{"type":"Feature","properties":{"i":"056006","n":"Bassano in Teverina"},"geometry":{"type":"Polygon","coordinates":[[[12.3324,42.4523],[12.3263,42.4464],[12.3147,42.4446],[12.3048,42.4454],[12.2991,42.4469],[12.295,42.4482],[12.2908,42.451],[12.2896,42.4542],[12.2953,42.4576],[12.2962,42.4598],[12.2941,42.4656],[12.2935,42.4709],[12.2945,42.4748],[12.2931,42.4804],[12.2999,42.4875],[12.3053,42.4879],[12.3048,42.4868],[12.3057,42.4858],[12.3153,42.4819],[12.3349,42.4659],[12.3356,42.4574],[12.3324,42.4523]]]}},{"type":"Feature","properties":{"i":"056007","n":"Blera"},"geometry":{"type":"Polygon","coordinates":[[[12.0303,42.295],[12.0272,42.2845],[12.0278,42.2804],[12.0307,42.276],[12.0497,42.2703],[12.0544,42.271],[12.0618,42.2739],[12.0636,42.2756],[12.058,42.2612],[12.055,42.2602],[12.0448,42.2616],[12.0407,42.258],[12.0309,42.2466],[12.0248,42.2371],[12.0242,42.2284],[12.0296,42.2261],[12.0476,42.2148],[12.0505,42.2153],[12.0568,42.215],[12.0593,42.2068],[12.0579,42.2016],[12.0559,42.1988],[12.0462,42.1902],[12.0413,42.1871],[12.0378,42.1734],[12.0379,42.1725],[12.0577,42.1641],[12.0568,42.1563],[12.0558,42.1548],[12.0527,42.1533],[12.0439,42.154],[12.0348,42.1516],[12.0296,42.1528],[12.0311,42.155],[12.0308,42.1581],[12.029,42.1628],[12.025,42.1658],[12.0226,42.169],[12.0213,42.1789],[12.0215,42.1821],[12.0235,42.1858],[12.0179,42.1867],[12.0175,42.1861],[12.0135,42.1703],[12.0042,42.1724],[11.9994,42.1723],[11.9977,42.1715],[11.9879,42.1886],[11.9865,42.194],[11.9839,42.1987],[11.9744,42.211],[11.9706,42.2126],[11.9664,42.211],[11.955,42.2121],[11.9432,42.2195],[11.9248,42.2271],[11.9202,42.2297],[11.9173,42.2325],[11.9217,42.2356],[11.9248,42.2412],[11.925,42.2448],[11.9291,42.251],[11.9343,42.2559],[11.9428,42.262],[11.9531,42.2612],[11.9589,42.264],[11.9693,42.2777],[11.9691,42.2835],[11.9794,42.2799],[11.9862,42.2801],[11.9891,42.2814],[11.9923,42.2842],[12.0008,42.2935],[12.0224,42.298],[12.0256,42.2974],[12.0303,42.295]]]}},{"type":"Feature","properties":{"i":"056008","n":"Bolsena"},"geometry":{"type":"Polygon","coordinates":[[[12.0071,42.6625],[12.0183,42.6558],[12.0299,42.6502],[12.03,42.6432],[12.0262,42.6268],[12.0254,42.626],[12.0225,42.6257],[12.0192,42.6242],[12.0156,42.6191],[12.0146,42.6133],[12.0099,42.5997],[12.006,42.6009],[12.0097,42.5908],[12.0016,42.5866],[11.9948,42.5854],[11.9508,42.5943],[11.9243,42.6463],[11.924,42.6565],[11.9303,42.6598],[11.9363,42.6664],[11.9376,42.6749],[11.9411,42.6837],[11.978,42.6755],[12.0071,42.6625]]]}},{"type":"Feature","properties":{"i":"056009","n":"Bomarzo"},"geometry":{"type":"Polygon","coordinates":[[[12.2666,42.5365],[12.2668,42.5335],[12.2705,42.5273],[12.2744,42.5241],[12.2826,42.5227],[12.2835,42.5175],[12.2755,42.516],[12.2744,42.5122],[12.275,42.509],[12.2792,42.5065],[12.2859,42.5092],[12.2898,42.509],[12.3005,42.5036],[12.3034,42.4995],[12.3068,42.4984],[12.3074,42.4973],[12.303,42.4913],[12.2892,42.4945],[12.2999,42.4875],[12.2931,42.4804],[12.2816,42.4845],[12.2679,42.4829],[12.2643,42.4794],[12.2554,42.4769],[12.2512,42.4733],[12.2493,42.467],[12.2444,42.4648],[12.2357,42.4645],[12.2276,42.4703],[12.2277,42.474],[12.2302,42.4805],[12.2275,42.4907],[12.2225,42.4918],[12.2198,42.4909],[12.2139,42.4932],[12.2064,42.4981],[12.206,42.5007],[12.2106,42.5047],[12.2109,42.5082],[12.2061,42.5093],[12.2016,42.5072],[12.2001,42.5108],[12.2016,42.5131],[12.2077,42.5182],[12.2117,42.526],[12.211,42.5284],[12.2122,42.5338],[12.213,42.5342],[12.2171,42.5315],[12.2242,42.531],[12.2357,42.532],[12.2406,42.5358],[12.2666,42.5365]]]}},{"type":"Feature","properties":{"i":"056010","n":"Calcata"},"geometry":{"type":"Polygon","coordinates":[[[12.4353,42.2003],[12.4346,42.1906],[12.4311,42.1851],[12.4259,42.1813],[12.4145,42.1807],[12.4115,42.1822],[12.4127,42.1914],[12.4155,42.1984],[12.4206,42.2075],[12.4176,42.2155],[12.4182,42.2304],[12.4193,42.2346],[12.417,42.246],[12.4208,42.2457],[12.4217,42.2433],[12.4196,42.2425],[12.4196,42.2401],[12.4241,42.2348],[12.4292,42.2306],[12.4322,42.2238],[12.4331,42.2208],[12.4315,42.2201],[12.4283,42.2146],[12.434,42.204],[12.4353,42.2003]]]}},{"type":"Feature","properties":{"i":"056011","n":"Canepina"},"geometry":{"type":"Polygon","coordinates":[[[12.2507,42.3928],[12.2464,42.3725],[12.244,42.37],[12.2353,42.3651],[12.225,42.3604],[12.2227,42.3603],[12.2202,42.358],[12.2146,42.3495],[12.2081,42.3538],[12.192,42.3624],[12.1831,42.3639],[12.1754,42.362],[12.1767,42.3647],[12.1795,42.3675],[12.1857,42.371],[12.1894,42.3827],[12.1915,42.386],[12.197,42.3918],[12.2095,42.4013],[12.2132,42.4021],[12.2189,42.4018],[12.231,42.4003],[12.2475,42.3948],[12.2507,42.3928]]]}},{"type":"Feature","properties":{"i":"056012","n":"Canino"},"geometry":{"type":"Polygon","coordinates":[[[11.7786,42.4816],[11.7712,42.4747],[11.7637,42.4623],[11.7623,42.4587],[11.7639,42.4538],[11.7638,42.4485],[11.7615,42.4377],[11.7578,42.4317],[11.7569,42.4284],[11.7549,42.4075],[11.7479,42.4001],[11.7434,42.3966],[11.7386,42.3942],[11.7273,42.3855],[11.7234,42.3794],[11.723,42.3751],[11.7216,42.3727],[11.7153,42.3717],[11.7139,42.3741],[11.7105,42.3755],[11.7054,42.3769],[11.7003,42.3772],[11.7017,42.3789],[11.7016,42.3808],[11.6978,42.3872],[11.6773,42.3991],[11.6698,42.4007],[11.6548,42.4024],[11.6474,42.4013],[11.6457,42.3928],[11.6439,42.3901],[11.6409,42.389],[11.6377,42.3915],[11.6326,42.3993],[11.6346,42.4093],[11.6394,42.4221],[11.6353,42.4248],[11.6321,42.4282],[11.6317,42.4332],[11.6326,42.4336],[11.632,42.4363],[11.6292,42.4411],[11.6264,42.4405],[11.6254,42.4384],[11.6207,42.4347],[11.6191,42.4342],[11.6176,42.4357],[11.6192,42.4408],[11.6175,42.4451],[11.6157,42.4612],[11.616,42.4667],[11.62,42.4742],[11.6194,42.4773],[11.6162,42.4839],[11.6161,42.4861],[11.6168,42.4875],[11.6249,42.4902],[11.6278,42.4974],[11.6573,42.4946],[11.666,42.4927],[11.6801,42.4828],[11.6963,42.4926],[11.7021,42.4833],[11.7158,42.4886],[11.7181,42.491],[11.7282,42.4914],[11.7331,42.4902],[11.7347,42.4832],[11.7375,42.4829],[11.7446,42.4883],[11.7573,42.485],[11.7609,42.488],[11.7617,42.4922],[11.7695,42.4989],[11.7731,42.5],[11.7754,42.4969],[11.7747,42.4929],[11.7786,42.4816]]]}},{"type":"Feature","properties":{"i":"056013","n":"Capodimonte"},"geometry":{"type":"Polygon","coordinates":[[[11.9508,42.5943],[11.9502,42.5712],[11.9115,42.5436],[11.9028,42.5463],[11.8993,42.5387],[11.8919,42.5294],[11.8929,42.5226],[11.892,42.506],[11.8988,42.499],[11.9076,42.4964],[11.9114,42.492],[11.909,42.4894],[11.9084,42.4871],[11.9094,42.4862],[11.9024,42.4848],[11.8925,42.48],[11.8891,42.4825],[11.8887,42.485],[11.8811,42.4853],[11.8767,42.4846],[11.8739,42.4991],[11.8675,42.5092],[11.8693,42.5179],[11.868,42.5278],[11.8606,42.5355],[11.8545,42.5382],[11.8512,42.539],[11.85,42.5385],[11.8414,42.5411],[11.8378,42.5451],[11.8407,42.5494],[11.8461,42.5544],[11.8436,42.5659],[11.8375,42.5803],[11.8356,42.5887],[11.8361,42.5909],[11.8396,42.5943],[11.8605,42.5927],[11.8832,42.5926],[11.9508,42.5943]]]}},{"type":"Feature","properties":{"i":"056014","n":"Capranica"},"geometry":{"type":"Polygon","coordinates":[[[12.2018,42.2676],[12.2027,42.262],[12.2012,42.2562],[12.1978,42.2506],[12.1809,42.235],[12.1786,42.2357],[12.175,42.2353],[12.1595,42.2225],[12.1536,42.2196],[12.1509,42.2192],[12.1497,42.2213],[12.1441,42.2248],[12.1364,42.2258],[12.132,42.229],[12.1314,42.2305],[12.1317,42.2365],[12.13,42.2414],[12.1233,42.2482],[12.1194,42.2491],[12.1187,42.2538],[12.1208,42.2613],[12.1177,42.2742],[12.1145,42.2774],[12.1078,42.2787],[12.1102,42.2849],[12.1119,42.2954],[12.1203,42.2964],[12.1227,42.295],[12.1341,42.2934],[12.156,42.2867],[12.1739,42.2836],[12.1854,42.2828],[12.1916,42.2802],[12.1984,42.2751],[12.2013,42.2703],[12.2018,42.2676]]]}},{"type":"Feature","properties":{"i":"056015","n":"Caprarola"},"geometry":{"type":"Polygon","coordinates":[[[12.2146,42.3495],[12.2164,42.3481],[12.2337,42.3503],[12.2384,42.3501],[12.2414,42.348],[12.2408,42.3474],[12.241,42.3434],[12.2539,42.3285],[12.2656,42.3204],[12.2768,42.3148],[12.292,42.3052],[12.2974,42.3048],[12.2898,42.2896],[12.2895,42.2871],[12.291,42.2847],[12.2916,42.2817],[12.2867,42.2826],[12.2884,42.2846],[12.2888,42.2879],[12.2745,42.2944],[12.2606,42.2948],[12.2473,42.298],[12.2406,42.3007],[12.2392,42.3047],[12.2376,42.3061],[12.2303,42.3077],[12.213,42.3065],[12.1978,42.3066],[12.1512,42.3186],[12.1453,42.3212],[12.1422,42.3279],[12.1357,42.332],[12.131,42.3388],[12.1309,42.3493],[12.1323,42.3535],[12.1338,42.3554],[12.1409,42.3584],[12.1582,42.3628],[12.1635,42.363],[12.1743,42.3614],[12.1824,42.3638],[12.1909,42.3627],[12.2081,42.3538],[12.2146,42.3495]]]}},{"type":"Feature","properties":{"i":"056016","n":"Carbognano"},"geometry":{"type":"Polygon","coordinates":[[[12.268,42.3491],[12.2675,42.3465],[12.2738,42.3461],[12.2768,42.3444],[12.2803,42.3318],[12.2817,42.3297],[12.3189,42.3128],[12.3225,42.3065],[12.3277,42.3007],[12.331,42.2986],[12.3301,42.296],[12.2996,42.2957],[12.2923,42.2945],[12.2974,42.3048],[12.292,42.3052],[12.2768,42.3148],[12.2656,42.3204],[12.2539,42.3285],[12.241,42.3434],[12.2408,42.3474],[12.2414,42.348],[12.2384,42.3501],[12.2337,42.3503],[12.2385,42.3519],[12.2572,42.3544],[12.2625,42.3529],[12.268,42.3491]]]}},{"type":"Feature","properties":{"i":"056017","n":"Castel Sant'Elia"},"geometry":{"type":"Polygon","coordinates":[[[12.4138,42.2697],[12.4101,42.2685],[12.4085,42.2662],[12.408,42.2621],[12.4099,42.2608],[12.4122,42.2574],[12.4082,42.2512],[12.4049,42.2488],[12.4124,42.2399],[12.4123,42.237],[12.4085,42.2295],[12.4059,42.229],[12.4026,42.2298],[12.3998,42.2341],[12.4,42.2392],[12.3946,42.2397],[12.3855,42.2343],[12.3736,42.2241],[12.3718,42.2196],[12.3713,42.2149],[12.3683,42.213],[12.3593,42.2103],[12.3544,42.2097],[12.3481,42.2117],[12.3469,42.2128],[12.3482,42.2179],[12.3564,42.2221],[12.3595,42.2215],[12.3615,42.222],[12.3662,42.2251],[12.3705,42.231],[12.3678,42.2354],[12.3648,42.236],[12.3627,42.238],[12.3576,42.2469],[12.3566,42.25],[12.3498,42.2564],[12.3549,42.264],[12.3554,42.2691],[12.3528,42.2701],[12.346,42.2778],[12.3511,42.2789],[12.3551,42.2786],[12.3561,42.2829],[12.3614,42.2832],[12.3684,42.2701],[12.3697,42.2688],[12.3999,42.2776],[12.4064,42.2802],[12.4115,42.2768],[12.4138,42.2697]]]}},{"type":"Feature","properties":{"i":"056018","n":"Castiglione in Teverina"},"geometry":{"type":"Polygon","coordinates":[[[12.2257,42.6355],[12.2236,42.6337],[12.2078,42.6317],[12.1944,42.6344],[12.1852,42.6409],[12.1841,42.646],[12.1804,42.6487],[12.1702,42.647],[12.1687,42.6434],[12.1696,42.6404],[12.1707,42.6395],[12.1794,42.6376],[12.1802,42.6356],[12.1762,42.6285],[12.1711,42.629],[12.161,42.6331],[12.1579,42.6358],[12.1609,42.6414],[12.1638,42.6415],[12.1672,42.6436],[12.1623,42.6474],[12.1585,42.6484],[12.1555,42.6477],[12.1523,42.6449],[12.1462,42.6452],[12.1372,42.6499],[12.1358,42.6518],[12.1408,42.6563],[12.1462,42.6589],[12.1487,42.6658],[12.1609,42.6767],[12.1668,42.676],[12.1759,42.6728],[12.1858,42.6663],[12.1973,42.6638],[12.2043,42.6605],[12.2089,42.6562],[12.2269,42.6435],[12.228,42.6381],[12.2257,42.6355]]]}},{"type":"Feature","properties":{"i":"056019","n":"Celleno"},"geometry":{"type":"Polygon","coordinates":[[[12.1522,42.5798],[12.1539,42.5782],[12.1551,42.575],[12.1561,42.5667],[12.1557,42.5614],[12.1614,42.5551],[12.1558,42.5476],[12.1495,42.5434],[12.1428,42.5402],[12.1378,42.5385],[12.1353,42.5392],[12.134,42.538],[12.1317,42.5323],[12.1316,42.5276],[12.1234,42.534],[12.1138,42.5391],[12.1056,42.542],[12.0978,42.5467],[12.0944,42.5498],[12.0923,42.5556],[12.0918,42.5688],[12.0968,42.5789],[12.118,42.5825],[12.1229,42.582],[12.1238,42.581],[12.1275,42.5801],[12.1316,42.5815],[12.1328,42.5829],[12.1442,42.5828],[12.1522,42.5798]]]}},{"type":"Feature","properties":{"i":"056020","n":"Cellere"},"geometry":{"type":"Polygon","coordinates":[[[11.8196,42.4918],[11.8049,42.4865],[11.8077,42.4924],[11.8,42.493],[11.7948,42.4884],[11.7856,42.4825],[11.7786,42.4816],[11.7747,42.4929],[11.7754,42.4969],[11.7728,42.5],[11.7695,42.4989],[11.7617,42.4922],[11.7609,42.488],[11.7573,42.485],[11.7446,42.4883],[11.7375,42.4829],[11.7347,42.4832],[11.7331,42.4902],[11.7282,42.4914],[11.7192,42.4913],[11.7158,42.4886],[11.7021,42.4833],[11.6963,42.4926],[11.6928,42.4947],[11.6865,42.5007],[11.6915,42.5037],[11.6997,42.5056],[11.7171,42.5052],[11.7237,42.5064],[11.7338,42.5107],[11.7492,42.5211],[11.7572,42.5229],[11.7621,42.5188],[11.7707,42.5217],[11.7768,42.5247],[11.7961,42.5452],[11.8159,42.539],[11.8186,42.5294],[11.8176,42.5139],[11.8151,42.5074],[11.8155,42.5007],[11.8196,42.4918]]]}},{"type":"Feature","properties":{"i":"056021","n":"Civita Castellana"},"geometry":{"type":"Polygon","coordinates":[[[12.4546,42.3574],[12.463,42.3544],[12.4748,42.3569],[12.4754,42.3544],[12.4747,42.3523],[12.4693,42.3482],[12.4668,42.3478],[12.4632,42.3445],[12.4622,42.3371],[12.4666,42.3302],[12.4693,42.3274],[12.4742,42.3254],[12.4815,42.3249],[12.4892,42.3195],[12.4888,42.318],[12.4802,42.3173],[12.4762,42.3137],[12.4815,42.3041],[12.4882,42.2969],[12.4928,42.2949],[12.5057,42.2972],[12.5196,42.2948],[12.5157,42.2876],[12.5119,42.283],[12.5049,42.2777],[12.506,42.2742],[12.5007,42.2715],[12.4905,42.2698],[12.4832,42.2622],[12.4792,42.2515],[12.4771,42.2483],[12.4697,42.2503],[12.4678,42.2496],[12.4624,42.2501],[12.4464,42.2645],[12.4217,42.2686],[12.4171,42.2708],[12.4138,42.2697],[12.4115,42.2768],[12.4074,42.28],[12.406,42.2803],[12.3999,42.2776],[12.3697,42.2688],[12.3684,42.2701],[12.3614,42.2832],[12.3566,42.283],[12.3575,42.2933],[12.3661,42.3045],[12.3767,42.3103],[12.3873,42.3144],[12.3879,42.3166],[12.3845,42.3226],[12.401,42.3281],[12.4101,42.3372],[12.4152,42.3395],[12.4219,42.3503],[12.4248,42.3524],[12.431,42.3528],[12.438,42.3567],[12.4451,42.3584],[12.4489,42.3586],[12.4546,42.3574]]]}},{"type":"Feature","properties":{"i":"056022","n":"Civitella d'Agliano"},"geometry":{"type":"Polygon","coordinates":[[[12.2257,42.6355],[12.2388,42.6316],[12.2433,42.6281],[12.2396,42.6231],[12.236,42.6214],[12.2291,42.6111],[12.2292,42.6104],[12.2333,42.6082],[12.2391,42.607],[12.2461,42.6009],[12.2476,42.5967],[12.2439,42.5977],[12.2359,42.5833],[12.2224,42.5822],[12.2137,42.5848],[12.2112,42.5884],[12.2029,42.5926],[12.1991,42.5928],[12.1911,42.5901],[12.1837,42.5858],[12.1796,42.5822],[12.1806,42.58],[12.1732,42.582],[12.172,42.576],[12.1686,42.5767],[12.1704,42.58],[12.1728,42.5907],[12.1693,42.5925],[12.1611,42.5927],[12.1522,42.5998],[12.1516,42.6014],[12.165,42.6115],[12.1768,42.6189],[12.1762,42.6285],[12.1802,42.6356],[12.1794,42.6376],[12.1707,42.6395],[12.1696,42.6404],[12.1687,42.6434],[12.1702,42.647],[12.1804,42.6487],[12.1841,42.646],[12.1852,42.6409],[12.1944,42.6344],[12.2048,42.632],[12.2096,42.6317],[12.2236,42.6337],[12.2257,42.6355]]]}},{"type":"Feature","properties":{"i":"056023","n":"Corchiano"},"geometry":{"type":"Polygon","coordinates":[[[12.4248,42.3524],[12.4219,42.3503],[12.4152,42.3395],[12.4101,42.3372],[12.401,42.3281],[12.3762,42.3203],[12.3537,42.3255],[12.3507,42.3267],[12.3402,42.336],[12.34,42.3433],[12.3349,42.3459],[12.3286,42.3472],[12.3236,42.3505],[12.3297,42.3537],[12.3321,42.3585],[12.3297,42.3632],[12.3169,42.3815],[12.3146,42.3897],[12.3179,42.3946],[12.3464,42.3903],[12.3554,42.3865],[12.364,42.3811],[12.3689,42.3764],[12.3664,42.3755],[12.3569,42.3747],[12.356,42.3678],[12.3583,42.3598],[12.3641,42.3587],[12.3796,42.3599],[12.3842,42.3539],[12.3933,42.3514],[12.4218,42.3547],[12.4248,42.3524]]]}},{"type":"Feature","properties":{"i":"056024","n":"Fabrica di Roma"},"geometry":{"type":"Polygon","coordinates":[[[12.2966,42.3593],[12.3021,42.3589],[12.3161,42.3529],[12.3236,42.3505],[12.3286,42.3472],[12.3349,42.3459],[12.34,42.3433],[12.3402,42.336],[12.3507,42.3267],[12.3607,42.3234],[12.3762,42.3203],[12.3845,42.3226],[12.3879,42.3166],[12.3876,42.315],[12.3767,42.3103],[12.3661,42.3045],[12.3575,42.2933],[12.3566,42.283],[12.3428,42.2847],[12.3367,42.2879],[12.3357,42.2946],[12.3311,42.2967],[12.3301,42.296],[12.331,42.2986],[12.3277,42.3007],[12.3225,42.3065],[12.3189,42.3128],[12.2817,42.3297],[12.2803,42.3318],[12.2768,42.3444],[12.2738,42.3461],[12.2675,42.3465],[12.268,42.3491],[12.2743,42.3506],[12.2748,42.357],[12.2763,42.3591],[12.2875,42.3606],[12.2966,42.3593]]]}},{"type":"Feature","properties":{"i":"056025","n":"Faleria"},"geometry":{"type":"Polygon","coordinates":[[[12.4771,42.2483],[12.4838,42.2414],[12.4796,42.2391],[12.4804,42.2341],[12.4697,42.232],[12.468,42.2257],[12.4684,42.2232],[12.4621,42.2074],[12.4601,42.2046],[12.4569,42.2024],[12.455,42.2023],[12.4524,42.2039],[12.4413,42.2021],[12.4353,42.2003],[12.434,42.204],[12.4283,42.2146],[12.4315,42.2201],[12.4331,42.2208],[12.4322,42.2238],[12.4292,42.2306],[12.4241,42.2348],[12.4196,42.2401],[12.4196,42.2425],[12.4217,42.2433],[12.4208,42.2457],[12.417,42.246],[12.4133,42.2501],[12.4122,42.2574],[12.4099,42.2608],[12.4082,42.2617],[12.4077,42.264],[12.4101,42.2685],[12.4171,42.2708],[12.4217,42.2686],[12.4464,42.2645],[12.4624,42.2501],[12.4678,42.2496],[12.4697,42.2503],[12.4771,42.2483]]]}},{"type":"Feature","properties":{"i":"056026","n":"Farnese"},"geometry":{"type":"Polygon","coordinates":[[[11.7363,42.607],[11.7439,42.5971],[11.7456,42.596],[11.7552,42.5958],[11.7626,42.6012],[11.7751,42.5924],[11.7769,42.5905],[11.7774,42.588],[11.7767,42.5819],[11.7745,42.576],[11.7679,42.5698],[11.7635,42.568],[11.7618,42.5684],[11.7519,42.5562],[11.7254,42.535],[11.7219,42.5333],[11.7157,42.534],[11.712,42.5324],[11.7057,42.5229],[11.6976,42.522],[11.6938,42.5264],[11.6691,42.5647],[11.6677,42.5675],[11.6657,42.576],[11.6682,42.5761],[11.6763,42.5789],[11.6858,42.5848],[11.6799,42.5952],[11.6919,42.5995],[11.7004,42.6014],[11.7085,42.6075],[11.7103,42.61],[11.726,42.6109],[11.7268,42.6108],[11.7267,42.6079],[11.7274,42.6064],[11.731,42.6059],[11.7363,42.607]]]}},{"type":"Feature","properties":{"i":"056027","n":"Gallese"},"geometry":{"type":"MultiPolygon","coordinates":[[[[12.3789,42.3959],[12.386,42.3941],[12.3926,42.3886],[12.3961,42.388],[12.407,42.3893],[12.4118,42.3926],[12.4213,42.3958],[12.4364,42.3946],[12.4379,42.3958],[12.442,42.3951],[12.4422,42.3926],[12.4388,42.391],[12.4364,42.3875],[12.4383,42.3839],[12.4434,42.3826],[12.4469,42.3831],[12.4562,42.3819],[12.4576,42.3806],[12.4589,42.3686],[12.4546,42.3629],[12.4546,42.3574],[12.4489,42.3586],[12.4451,42.3584],[12.438,42.3567],[12.431,42.3528],[12.4248,42.3524],[12.4218,42.3547],[12.3933,42.3514],[12.3842,42.3539],[12.3796,42.3599],[12.3641,42.3587],[12.3583,42.3598],[12.356,42.3678],[12.3569,42.3747],[12.3687,42.376],[12.3667,42.3792],[12.3554,42.3865],[12.3464,42.3903],[12.3179,42.3946],[12.3164,42.4018],[12.3242,42.4027],[12.3391,42.4017],[12.3477,42.4001],[12.3577,42.3944],[12.3624,42.3896],[12.372,42.3853],[12.3753,42.3936],[12.3789,42.3959]]],[[[12.4881,42.3987],[12.4871,42.3942],[12.4858,42.3925],[12.4745,42.3875],[12.4719,42.3883],[12.4687,42.3907],[12.4663,42.3949],[12.4712,42.4004],[12.4743,42.4023],[12.4803,42.4041],[12.4814,42.4042],[12.4881,42.3987]]]]}},{"type":"Feature","properties":{"i":"056028","n":"Gradoli"},"geometry":{"type":"Polygon","coordinates":[[[11.9473,42.5982],[11.9508,42.5943],[11.8832,42.5926],[11.8605,42.5927],[11.8396,42.5943],[11.8381,42.5934],[11.8379,42.595],[11.8419,42.6023],[11.842,42.6116],[11.8346,42.6318],[11.8316,42.6346],[11.8245,42.639],[11.8273,42.6496],[11.8296,42.6473],[11.8378,42.647],[11.844,42.6513],[11.8537,42.6525],[11.8871,42.6496],[11.8946,42.6443],[11.9473,42.5982]]]}},{"type":"Feature","properties":{"i":"056029","n":"Graffignano"},"geometry":{"type":"Polygon","coordinates":[[[12.2359,42.5833],[12.2401,42.5751],[12.2387,42.573],[12.2396,42.571],[12.2422,42.5695],[12.2515,42.5667],[12.2616,42.5607],[12.2664,42.5594],[12.2712,42.5603],[12.275,42.5599],[12.2788,42.5509],[12.279,42.5488],[12.2777,42.546],[12.2786,42.5416],[12.2735,42.5405],[12.2733,42.539],[12.2693,42.5366],[12.2406,42.5358],[12.2357,42.532],[12.2242,42.531],[12.2161,42.5318],[12.213,42.5342],[12.2141,42.5381],[12.2207,42.5454],[12.2259,42.5485],[12.2238,42.5507],[12.2139,42.5547],[12.1975,42.5541],[12.1881,42.5613],[12.1852,42.5685],[12.1852,42.5717],[12.1868,42.5728],[12.1915,42.5727],[12.1922,42.5747],[12.1806,42.58],[12.1796,42.5822],[12.1837,42.5858],[12.1911,42.5901],[12.1999,42.5928],[12.2029,42.5926],[12.2112,42.5884],[12.2137,42.5848],[12.2224,42.5822],[12.2359,42.5833]]]}},{"type":"Feature","properties":{"i":"056030","n":"Grotte di Castro"},"geometry":{"type":"Polygon","coordinates":[[[11.8921,42.7028],[11.8909,42.6985],[11.8958,42.6876],[11.8957,42.6853],[11.8942,42.6835],[11.8882,42.6827],[11.8919,42.6709],[11.8974,42.6622],[11.8979,42.6566],[11.8954,42.653],[11.8986,42.6493],[11.906,42.6431],[11.9473,42.5982],[11.8946,42.6443],[11.8871,42.6496],[11.8537,42.6525],[11.844,42.6513],[11.8378,42.647],[11.8296,42.6473],[11.8273,42.6496],[11.8298,42.6596],[11.8299,42.6623],[11.8276,42.6674],[11.8283,42.6721],[11.8349,42.6924],[11.8396,42.7002],[11.8616,42.7052],[11.8747,42.7058],[11.8795,42.7073],[11.8921,42.7054],[11.8921,42.7028]]]}},{"type":"Feature","properties":{"i":"056031","n":"Ischia di Castro"},"geometry":{"type":"Polygon","coordinates":[[[11.666,42.5762],[11.6662,42.5727],[11.6691,42.5647],[11.6938,42.5264],[11.6976,42.522],[11.7057,42.5229],[11.712,42.5324],[11.7157,42.534],[11.7225,42.5334],[11.7301,42.5385],[11.7519,42.5562],[11.7618,42.5684],[11.7635,42.568],[11.7679,42.5698],[11.7749,42.5684],[11.7837,42.5633],[11.7967,42.5497],[11.7998,42.5492],[11.8006,42.5475],[11.7996,42.5441],[11.7961,42.5452],[11.7768,42.5247],[11.7707,42.5217],[11.7621,42.5188],[11.7572,42.5229],[11.7492,42.5211],[11.7338,42.5107],[11.7206,42.5056],[11.6997,42.5056],[11.6911,42.5035],[11.6865,42.5002],[11.6928,42.4947],[11.6963,42.4926],[11.6801,42.4828],[11.666,42.4927],[11.6573,42.4946],[11.6278,42.4974],[11.6249,42.4902],[11.6168,42.4875],[11.6162,42.4886],[11.6088,42.4928],[11.5928,42.4954],[11.5856,42.5009],[11.5871,42.504],[11.5844,42.5067],[11.5745,42.5108],[11.5713,42.5103],[11.5661,42.5118],[11.5621,42.5149],[11.5609,42.517],[11.5649,42.5271],[11.5701,42.5345],[11.5778,42.54],[11.5858,42.5418],[11.5869,42.5453],[11.5824,42.5494],[11.5787,42.5672],[11.5892,42.5714],[11.6038,42.5683],[11.6083,42.566],[11.6089,42.5616],[11.614,42.5572],[11.6172,42.5615],[11.625,42.5691],[11.63,42.5696],[11.6326,42.5681],[11.6333,42.5664],[11.6371,42.5652],[11.646,42.5679],[11.653,42.5718],[11.6558,42.5753],[11.6584,42.577],[11.666,42.5762]]]}},{"type":"Feature","properties":{"i":"056032","n":"Latera"},"geometry":{"type":"Polygon","coordinates":[[[11.8048,42.644],[11.8109,42.6435],[11.8225,42.64],[11.8316,42.6346],[11.8346,42.6318],[11.842,42.6116],[11.8419,42.6023],[11.8379,42.595],[11.8381,42.5934],[11.827,42.5955],[11.8189,42.596],[11.8031,42.595],[11.7923,42.5981],[11.7831,42.6056],[11.7823,42.6126],[11.7838,42.63],[11.7809,42.6347],[11.7866,42.6393],[11.7918,42.6402],[11.7964,42.6435],[11.8048,42.644]]]}},{"type":"Feature","properties":{"i":"056033","n":"Lubriano"},"geometry":{"type":"Polygon","coordinates":[[[12.1408,42.6563],[12.1358,42.6518],[12.1372,42.6499],[12.1462,42.6452],[12.1517,42.6447],[12.1536,42.6455],[12.1555,42.6477],[12.1598,42.6484],[12.1623,42.6474],[12.1672,42.6436],[12.1638,42.6415],[12.1609,42.6414],[12.1579,42.6358],[12.1567,42.6369],[12.1483,42.6372],[12.1365,42.6355],[12.129,42.6331],[12.0995,42.6313],[12.0935,42.632],[12.0899,42.6343],[12.0868,42.6436],[12.0677,42.645],[12.0581,42.6441],[12.0549,42.6429],[12.049,42.6478],[12.0481,42.6494],[12.0667,42.6529],[12.0705,42.6544],[12.0737,42.6567],[12.0945,42.6555],[12.1067,42.6647],[12.1084,42.6604],[12.1172,42.651],[12.1195,42.6498],[12.1241,42.6493],[12.1253,42.6499],[12.1262,42.6548],[12.13,42.6599],[12.1323,42.6617],[12.1408,42.6563]]]}},{"type":"Feature","properties":{"i":"056034","n":"Marta"},"geometry":{"type":"Polygon","coordinates":[[[11.9578,42.5243],[11.9539,42.523],[11.9496,42.5196],[11.9408,42.5044],[11.9367,42.4932],[11.9278,42.4828],[11.9096,42.4852],[11.9084,42.4871],[11.909,42.4894],[11.9114,42.492],[11.9076,42.4964],[11.8988,42.499],[11.892,42.506],[11.8929,42.5226],[11.8919,42.5294],[11.8993,42.5387],[11.9021,42.5457],[11.9028,42.5463],[11.9115,42.5436],[11.9502,42.5712],[11.9656,42.5665],[11.9522,42.5371],[11.9578,42.5243]]]}},{"type":"Feature","properties":{"i":"056035","n":"Montalto di Castro"},"geometry":{"type":"Polygon","coordinates":[[[11.7003,42.3772],[11.6995,42.3768],[11.6973,42.3704],[11.6976,42.3651],[11.6992,42.3615],[11.695,42.3554],[11.6893,42.3497],[11.6817,42.3474],[11.6721,42.3399],[11.6647,42.3383],[11.6605,42.3388],[11.6492,42.334],[11.6439,42.3213],[11.6464,42.3206],[11.651,42.3165],[11.6476,42.3115],[11.6445,42.3097],[11.6319,42.2952],[11.5981,42.3132],[11.5624,42.335],[11.5516,42.3403],[11.4925,42.3636],[11.4499,42.3775],[11.4537,42.3853],[11.4508,42.395],[11.4567,42.4011],[11.4769,42.414],[11.482,42.4211],[11.481,42.4336],[11.4867,42.438],[11.4889,42.4394],[11.4974,42.4386],[11.5181,42.4336],[11.5216,42.4341],[11.5443,42.4422],[11.5545,42.4388],[11.5658,42.4394],[11.5745,42.4376],[11.5855,42.4368],[11.6177,42.436],[11.6191,42.4342],[11.6225,42.4356],[11.6254,42.4384],[11.6264,42.4405],[11.6292,42.4411],[11.632,42.4363],[11.6326,42.4336],[11.6317,42.4332],[11.6321,42.4282],[11.6353,42.4248],[11.6394,42.4221],[11.6346,42.4093],[11.6326,42.3993],[11.6396,42.3896],[11.6409,42.389],[11.6445,42.3908],[11.6467,42.3964],[11.6474,42.4013],[11.6548,42.4024],[11.6698,42.4007],[11.6773,42.3991],[11.6963,42.3884],[11.6978,42.3872],[11.7016,42.3808],[11.7017,42.3789],[11.7003,42.3772]]]}},{"type":"Feature","properties":{"i":"056036","n":"Montefiascone"},"geometry":{"type":"Polygon","coordinates":[[[12.0099,42.5997],[12.0141,42.6011],[12.0189,42.5949],[12.019,42.5913],[12.0229,42.5883],[12.0306,42.5881],[12.0333,42.589],[12.041,42.5864],[12.0525,42.581],[12.0531,42.5826],[12.0607,42.5829],[12.0644,42.582],[12.0692,42.57],[12.0764,42.5683],[12.0916,42.5495],[12.0913,42.5391],[12.0939,42.5295],[12.0776,42.5174],[12.0618,42.5082],[12.0572,42.5091],[12.0488,42.5024],[12.0515,42.4958],[12.0405,42.4944],[12.037,42.491],[12.0335,42.4846],[12.0257,42.4779],[12.0056,42.4626],[12.0002,42.4613],[11.9954,42.4654],[11.9899,42.4729],[11.9896,42.4744],[11.9922,42.4818],[11.9933,42.4882],[11.9916,42.4895],[11.9879,42.4894],[11.9871,42.491],[11.9868,42.4975],[11.9901,42.5106],[11.9894,42.5141],[11.983,42.5202],[11.9768,42.5244],[11.9578,42.5243],[11.9522,42.5371],[11.9656,42.5665],[11.9502,42.5712],[11.9508,42.5943],[11.9934,42.5855],[11.9967,42.5854],[12.0016,42.5866],[12.0097,42.5908],[12.006,42.6009],[12.0099,42.5997]]]}},{"type":"Feature","properties":{"i":"056037","n":"Monte Romano"},"geometry":{"type":"Polygon","coordinates":[[[11.9057,42.3056],[11.9039,42.3065],[11.902,42.306],[11.912,42.2911],[11.9183,42.2848],[11.9202,42.2838],[11.9276,42.275],[11.9329,42.2655],[11.9329,42.2627],[11.9288,42.2551],[11.9327,42.2539],[11.9291,42.251],[11.925,42.2448],[11.9248,42.2412],[11.9231,42.2376],[11.9182,42.2326],[11.9144,42.233],[11.9123,42.234],[11.912,42.2352],[11.913,42.2363],[11.9101,42.2404],[11.8976,42.2374],[11.8924,42.2333],[11.8902,42.2303],[11.8832,42.2299],[11.8829,42.2346],[11.8806,42.2413],[11.8682,42.2558],[11.8554,42.2596],[11.8532,42.2609],[11.851,42.2636],[11.855,42.267],[11.8581,42.2716],[11.8588,42.2762],[11.8585,42.2791],[11.8624,42.2949],[11.8643,42.2975],[11.8597,42.3056],[11.8627,42.3123],[11.8629,42.3151],[11.8531,42.3186],[11.8562,42.3208],[11.8573,42.3258],[11.8554,42.3265],[11.8553,42.3275],[11.8574,42.3343],[11.8596,42.3357],[11.8621,42.3338],[11.8621,42.3312],[11.8659,42.3314],[11.868,42.3319],[11.8744,42.3374],[11.8739,42.3412],[11.872,42.3434],[11.8729,42.3491],[11.8771,42.3571],[11.8837,42.3597],[11.8862,42.3658],[11.8888,42.3693],[11.894,42.3752],[11.8992,42.3796],[11.9077,42.393],[11.9129,42.4052],[11.9236,42.4199],[11.9255,42.4213],[11.9305,42.4184],[11.9528,42.424],[11.9655,42.4261],[11.9667,42.4245],[11.9611,42.4115],[11.957,42.3897],[11.9602,42.3825],[11.9599,42.3814],[11.9556,42.378],[11.9518,42.3763],[11.9484,42.3761],[11.94,42.3716],[11.9379,42.3698],[11.9326,42.3617],[11.9225,42.3548],[11.9059,42.3467],[11.9041,42.3434],[11.9036,42.3396],[11.9063,42.3279],[11.9073,42.3186],[11.9057,42.3056]]]}},{"type":"Feature","properties":{"i":"056038","n":"Monterosi"},"geometry":{"type":"Polygon","coordinates":[[[12.3066,42.1597],[12.2992,42.1639],[12.2965,42.1674],[12.2843,42.1733],[12.2823,42.172],[12.2754,42.1713],[12.2735,42.1717],[12.2719,42.1736],[12.273,42.1769],[12.2779,42.1822],[12.284,42.1884],[12.2875,42.1906],[12.2868,42.1965],[12.2856,42.1982],[12.2867,42.2001],[12.2985,42.2086],[12.3005,42.2094],[12.3037,42.2087],[12.3098,42.203],[12.3117,42.2007],[12.3142,42.1932],[12.3132,42.1868],[12.3104,42.1789],[12.3126,42.167],[12.3076,42.1617],[12.3066,42.1597]]]}},{"type":"Feature","properties":{"i":"056039","n":"Nepi"},"geometry":{"type":"MultiPolygon","coordinates":[[[[12.2742,42.1779],[12.2714,42.1819],[12.2856,42.1982],[12.2868,42.1965],[12.2875,42.1906],[12.284,42.1884],[12.2742,42.1779]]],[[[12.3301,42.296],[12.3311,42.2967],[12.3357,42.2946],[12.3367,42.2879],[12.3428,42.2847],[12.3561,42.2829],[12.3551,42.2786],[12.3511,42.2789],[12.346,42.2778],[12.3528,42.2701],[12.3554,42.2691],[12.3549,42.264],[12.3498,42.2564],[12.3566,42.25],[12.3576,42.2469],[12.3627,42.238],[12.3648,42.236],[12.3678,42.2354],[12.3705,42.231],[12.3662,42.2251],[12.3615,42.222],[12.3595,42.2215],[12.3564,42.2221],[12.3482,42.2179],[12.3469,42.2128],[12.3481,42.2117],[12.3544,42.2097],[12.3593,42.2103],[12.3683,42.213],[12.3713,42.2149],[12.3718,42.2196],[12.3736,42.2241],[12.3855,42.2343],[12.3946,42.2397],[12.4,42.2392],[12.3998,42.2341],[12.4011,42.233],[12.3973,42.2312],[12.3921,42.2225],[12.3868,42.2166],[12.3792,42.2128],[12.3747,42.2127],[12.3715,42.2111],[12.3703,42.2073],[12.3728,42.1985],[12.3737,42.1808],[12.3704,42.1759],[12.3703,42.1729],[12.3682,42.1714],[12.3531,42.1657],[12.3454,42.157],[12.3447,42.1536],[12.3344,42.1526],[12.3295,42.1463],[12.3262,42.1462],[12.3123,42.1513],[12.3109,42.1507],[12.3097,42.1487],[12.3047,42.1514],[12.3025,42.1535],[12.3033,42.1558],[12.3076,42.1617],[12.3126,42.167],[12.3104,42.1789],[12.3132,42.1868],[12.3142,42.1932],[12.3117,42.2007],[12.3047,42.2079],[12.3017,42.2094],[12.2985,42.2086],[12.2867,42.2001],[12.285,42.2025],[12.2852,42.212],[12.2918,42.2256],[12.2914,42.2303],[12.2897,42.2341],[12.2955,42.2441],[12.2907,42.2502],[12.2943,42.2493],[12.3028,42.2615],[12.3052,42.2679],[12.3051,42.2706],[12.2971,42.2746],[12.2867,42.2826],[12.2916,42.2817],[12.291,42.2847],[12.2894,42.2878],[12.2923,42.2945],[12.2996,42.2957],[12.3301,42.296]]]]}},{"type":"Feature","properties":{"i":"056040","n":"Onano"},"geometry":{"type":"Polygon","coordinates":[[[11.8396,42.7002],[11.8349,42.6924],[11.8283,42.6721],[11.8276,42.6674],[11.8299,42.6623],[11.8298,42.6596],[11.8245,42.639],[11.8109,42.6435],[11.8048,42.644],[11.8093,42.653],[11.8089,42.6587],[11.8066,42.6622],[11.7999,42.6685],[11.7862,42.6706],[11.7852,42.6722],[11.7843,42.6795],[11.7854,42.6875],[11.7821,42.7008],[11.78,42.7053],[11.7814,42.7075],[11.7971,42.7065],[11.8016,42.7072],[11.8085,42.7302],[11.8101,42.7287],[11.8152,42.7196],[11.8167,42.7149],[11.8236,42.7079],[11.834,42.7018],[11.8396,42.7002]]]}},{"type":"Feature","properties":{"i":"056041","n":"Oriolo Romano"},"geometry":{"type":"Polygon","coordinates":[[[12.1688,42.1753],[12.1647,42.1669],[12.1569,42.1624],[12.1497,42.1605],[12.1475,42.1561],[12.1432,42.1544],[12.1395,42.1493],[12.1359,42.1473],[12.1338,42.1516],[12.1288,42.156],[12.1178,42.1615],[12.1165,42.161],[12.0877,42.1615],[12.0869,42.166],[12.0899,42.1717],[12.1082,42.1836],[12.1197,42.197],[12.1221,42.202],[12.126,42.2006],[12.1309,42.1958],[12.1429,42.1873],[12.1565,42.1806],[12.16,42.1794],[12.1663,42.1787],[12.1688,42.1753]]]}},{"type":"Feature","properties":{"i":"056042","n":"Orte"},"geometry":{"type":"Polygon","coordinates":[[[12.4278,42.4869],[12.4245,42.4839],[12.4137,42.4791],[12.413,42.4769],[12.4124,42.4676],[12.4276,42.4652],[12.4304,42.458],[12.4283,42.457],[12.4246,42.4569],[12.4179,42.4585],[12.4137,42.4552],[12.4127,42.4526],[12.4139,42.4424],[12.4176,42.441],[12.4191,42.4388],[12.4195,42.4365],[12.4177,42.4316],[12.4135,42.428],[12.413,42.4269],[12.4137,42.4256],[12.417,42.4224],[12.4223,42.4216],[12.439,42.4264],[12.4446,42.4257],[12.4489,42.4237],[12.4512,42.4242],[12.456,42.428],[12.4621,42.4294],[12.4643,42.4284],[12.467,42.4242],[12.4673,42.4204],[12.4656,42.4186],[12.4604,42.4163],[12.4586,42.4066],[12.4499,42.4008],[12.4379,42.3958],[12.4371,42.3948],[12.4213,42.3958],[12.4118,42.3926],[12.407,42.3893],[12.3961,42.388],[12.3926,42.3886],[12.386,42.3941],[12.3789,42.3959],[12.3778,42.397],[12.3775,42.3982],[12.379,42.4021],[12.3795,42.4161],[12.373,42.4279],[12.3645,42.4326],[12.3597,42.4327],[12.3522,42.4359],[12.3506,42.4369],[12.3402,42.451],[12.3348,42.4528],[12.3324,42.4523],[12.3356,42.4574],[12.3349,42.4659],[12.3335,42.4676],[12.3153,42.4819],[12.3057,42.4858],[12.3048,42.4868],[12.3053,42.4879],[12.3164,42.4884],[12.3234,42.4945],[12.3254,42.4948],[12.3389,42.4879],[12.3459,42.4822],[12.3472,42.4786],[12.3512,42.4737],[12.3597,42.4759],[12.375,42.4831],[12.3853,42.4892],[12.3902,42.4982],[12.3951,42.4991],[12.4018,42.4991],[12.4214,42.4925],[12.4278,42.4869]]]}},{"type":"Feature","properties":{"i":"056043","n":"Piansano"},"geometry":{"type":"Polygon","coordinates":[[[11.8767,42.4846],[11.8707,42.4839],[11.8568,42.4807],[11.8427,42.4805],[11.838,42.4792],[11.8358,42.4809],[11.8341,42.4838],[11.8353,42.4892],[11.8342,42.49],[11.8255,42.4912],[11.8232,42.4896],[11.8222,42.486],[11.8207,42.4862],[11.8194,42.4891],[11.8196,42.4918],[11.8155,42.5007],[11.8151,42.5074],[11.8176,42.5139],[11.8186,42.5294],[11.8159,42.539],[11.8312,42.5405],[11.8378,42.5451],[11.8414,42.5411],[11.85,42.5385],[11.8512,42.539],[11.8545,42.5382],[11.8606,42.5355],[11.8683,42.5271],[11.8693,42.5179],[11.8675,42.5092],[11.8739,42.4991],[11.8767,42.4846]]]}},{"type":"Feature","properties":{"i":"056044","n":"Proceno"},"geometry":{"type":"Polygon","coordinates":[[[11.8109,42.8069],[11.8167,42.8091],[11.8181,42.8108],[11.8225,42.8118],[11.826,42.8119],[11.834,42.8095],[11.8368,42.8051],[11.8452,42.7832],[11.8443,42.7724],[11.8454,42.7616],[11.8469,42.7553],[11.8452,42.7541],[11.8324,42.7489],[11.8232,42.7484],[11.8193,42.7471],[11.8187,42.7458],[11.8143,42.7455],[11.8133,42.7462],[11.8125,42.7499],[11.8086,42.7532],[11.7794,42.758],[11.7789,42.7601],[11.7803,42.7623],[11.7769,42.767],[11.7667,42.7759],[11.7645,42.779],[11.7571,42.7821],[11.7502,42.7834],[11.746,42.7858],[11.75,42.7905],[11.7533,42.8022],[11.758,42.8076],[11.7686,42.8154],[11.7685,42.82],[11.7691,42.8202],[11.7742,42.8211],[11.7759,42.8207],[11.787,42.8153],[11.8033,42.8012],[11.8028,42.7983],[11.806,42.7951],[11.8069,42.7949],[11.8097,42.797],[11.8114,42.7996],[11.8115,42.8052],[11.8109,42.8069]]]}},{"type":"Feature","properties":{"i":"056045","n":"Ronciglione"},"geometry":{"type":"Polygon","coordinates":[[[12.2867,42.2826],[12.2971,42.2746],[12.3051,42.2706],[12.3052,42.2679],[12.3028,42.2615],[12.2943,42.2493],[12.2828,42.2513],[12.2706,42.2555],[12.2622,42.2628],[12.2588,42.2637],[12.2443,42.2657],[12.2302,42.2654],[12.2238,42.2684],[12.2078,42.2669],[12.2018,42.2676],[12.2013,42.2703],[12.1984,42.2751],[12.1916,42.2802],[12.1854,42.2828],[12.1739,42.2836],[12.156,42.2867],[12.1341,42.2934],[12.1227,42.295],[12.1201,42.2972],[12.1267,42.3036],[12.1229,42.3093],[12.1375,42.3135],[12.1403,42.315],[12.1418,42.3177],[12.1431,42.3266],[12.1453,42.3212],[12.1512,42.3186],[12.1978,42.3066],[12.213,42.3065],[12.2303,42.3077],[12.2376,42.3061],[12.2392,42.3047],[12.2406,42.3007],[12.2473,42.298],[12.2606,42.2948],[12.2745,42.2944],[12.2885,42.288],[12.2884,42.2846],[12.2867,42.2826]]]}},{"type":"Feature","properties":{"i":"056046","n":"Villa San Giovanni in Tuscia"},"geometry":{"type":"Polygon","coordinates":[[[12.064,42.2762],[12.0618,42.2739],[12.0544,42.271],[12.0497,42.2703],[12.0307,42.276],[12.0278,42.2804],[12.0272,42.2845],[12.0303,42.295],[12.0486,42.2901],[12.057,42.2852],[12.064,42.2762]]]}},{"type":"Feature","properties":{"i":"056047","n":"San Lorenzo Nuovo"},"geometry":{"type":"Polygon","coordinates":[[[11.9263,42.7047],[11.9265,42.7036],[11.9316,42.701],[11.9488,42.696],[11.939,42.6793],[11.9363,42.6664],[11.9303,42.6598],[11.924,42.6565],[11.9243,42.6463],[11.9508,42.5943],[11.906,42.6431],[11.8986,42.6493],[11.8954,42.653],[11.8979,42.6566],[11.8974,42.6622],[11.8919,42.6709],[11.8882,42.6827],[11.8942,42.6835],[11.8957,42.6853],[11.8958,42.6876],[11.8909,42.6985],[11.8921,42.7028],[11.8945,42.7007],[11.9131,42.7059],[11.9263,42.7047]]]}},{"type":"Feature","properties":{"i":"056048","n":"Soriano nel Cimino"},"geometry":{"type":"Polygon","coordinates":[[[12.2931,42.4804],[12.2945,42.4748],[12.2935,42.4709],[12.2941,42.4656],[12.2962,42.4598],[12.2953,42.4576],[12.2896,42.4542],[12.2908,42.451],[12.295,42.4482],[12.2991,42.4469],[12.3048,42.4454],[12.3094,42.4454],[12.3026,42.4374],[12.3037,42.4266],[12.2986,42.416],[12.2904,42.4079],[12.2796,42.4032],[12.2728,42.4031],[12.2697,42.3947],[12.2678,42.3935],[12.2544,42.3921],[12.2507,42.3928],[12.2475,42.3948],[12.231,42.4003],[12.2132,42.4021],[12.2095,42.4013],[12.197,42.3918],[12.1915,42.386],[12.1902,42.3872],[12.1848,42.3949],[12.1833,42.3987],[12.1845,42.4016],[12.1871,42.4046],[12.1878,42.4104],[12.1867,42.4128],[12.1896,42.4161],[12.1905,42.4191],[12.1913,42.424],[12.1907,42.4263],[12.1933,42.4354],[12.1927,42.4495],[12.1947,42.4525],[12.1987,42.4558],[12.1993,42.4591],[12.1988,42.4654],[12.1968,42.4712],[12.1903,42.4796],[12.1896,42.4819],[12.1906,42.4831],[12.1989,42.4857],[12.2074,42.483],[12.213,42.4837],[12.2168,42.4858],[12.2205,42.4914],[12.224,42.4916],[12.2275,42.4907],[12.2302,42.4805],[12.2277,42.474],[12.2276,42.4703],[12.2357,42.4645],[12.2444,42.4648],[12.2493,42.467],[12.2512,42.4733],[12.2554,42.4769],[12.2643,42.4794],[12.2679,42.4829],[12.2816,42.4845],[12.2931,42.4804]]]}},{"type":"Feature","properties":{"i":"056049","n":"Sutri"},"geometry":{"type":"Polygon","coordinates":[[[12.2907,42.2502],[12.2955,42.2441],[12.2897,42.2341],[12.2914,42.2303],[12.2918,42.2256],[12.2852,42.212],[12.285,42.2025],[12.2867,42.2001],[12.2714,42.1819],[12.25,42.1768],[12.2353,42.1772],[12.2299,42.1805],[12.2205,42.1837],[12.2158,42.1867],[12.2145,42.1911],[12.2173,42.1976],[12.2178,42.2021],[12.2125,42.2133],[12.2123,42.217],[12.2152,42.2259],[12.2107,42.2288],[12.1854,42.2332],[12.1809,42.235],[12.1988,42.252],[12.2012,42.2562],[12.2027,42.262],[12.2018,42.2676],[12.2078,42.2669],[12.2238,42.2684],[12.2302,42.2654],[12.2443,42.2657],[12.2588,42.2637],[12.2622,42.2628],[12.2706,42.2555],[12.2828,42.2513],[12.2907,42.2502]]]}},{"type":"Feature","properties":{"i":"056050","n":"Tarquinia"},"geometry":{"type":"Polygon","coordinates":[[[11.8531,42.3186],[11.8629,42.3151],[11.8627,42.3123],[11.8597,42.3056],[11.8643,42.2975],[11.8624,42.2949],[11.8585,42.2791],[11.8588,42.2762],[11.8581,42.2716],[11.855,42.267],[11.851,42.2636],[11.8532,42.2609],[11.8554,42.2596],[11.8682,42.2558],[11.8806,42.2413],[11.8829,42.2346],[11.8832,42.2299],[11.8794,42.228],[11.8797,42.2271],[11.8816,42.2267],[11.8815,42.2248],[11.879,42.222],[11.8735,42.2187],[11.8708,42.2116],[11.8661,42.2069],[11.8676,42.2011],[11.8691,42.1995],[11.8664,42.1971],[11.8521,42.1885],[11.8458,42.1795],[11.8403,42.1757],[11.8343,42.1736],[11.828,42.1669],[11.8276,42.1653],[11.831,42.1573],[11.8283,42.1511],[11.8228,42.1465],[11.8036,42.1558],[11.7905,42.16],[11.7722,42.1638],[11.7559,42.1616],[11.7472,42.1618],[11.7338,42.1581],[11.7356,42.1643],[11.7398,42.1685],[11.7393,42.1709],[11.73,42.18],[11.7261,42.1827],[11.7208,42.1892],[11.71,42.208],[11.7058,42.2188],[11.6969,42.2323],[11.692,42.2374],[11.6853,42.2421],[11.6796,42.2474],[11.6725,42.2558],[11.6663,42.2662],[11.6637,42.2692],[11.6498,42.2813],[11.6319,42.2952],[11.6445,42.3097],[11.6476,42.3115],[11.651,42.3165],[11.6464,42.3206],[11.6439,42.3213],[11.6476,42.3311],[11.6498,42.3347],[11.6605,42.3388],[11.6647,42.3383],[11.6721,42.3399],[11.6817,42.3474],[11.6872,42.3493],[11.6883,42.341],[11.6926,42.3342],[11.7043,42.3222],[11.708,42.3223],[11.7224,42.3347],[11.7351,42.3471],[11.75,42.356],[11.7527,42.3599],[11.7597,42.3631],[11.7698,42.3654],[11.7753,42.3643],[11.789,42.358],[11.791,42.3551],[11.7907,42.3537],[11.7884,42.3513],[11.779,42.3455],[11.7784,42.3372],[11.7813,42.3248],[11.7817,42.3177],[11.7805,42.3112],[11.7811,42.3066],[11.7868,42.3065],[11.792,42.3087],[11.7956,42.3087],[11.8019,42.3019],[11.8134,42.2971],[11.8315,42.3017],[11.839,42.302],[11.8402,42.3035],[11.8319,42.3094],[11.8364,42.3125],[11.8454,42.314],[11.8531,42.3186]]]}},{"type":"Feature","properties":{"i":"056051","n":"Tessennano"},"geometry":{"type":"Polygon","coordinates":[[[11.7724,42.4297],[11.7578,42.4317],[11.7615,42.4377],[11.7638,42.4485],[11.7639,42.4538],[11.7622,42.4581],[11.7637,42.4623],[11.7712,42.4747],[11.7786,42.4816],[11.7856,42.4825],[11.7948,42.4884],[11.8,42.493],[11.8077,42.4924],[11.8049,42.4865],[11.8053,42.4831],[11.8028,42.4728],[11.8028,42.4623],[11.7925,42.4486],[11.7826,42.4433],[11.7799,42.443],[11.7724,42.4297]]]}},{"type":"Feature","properties":{"i":"056052","n":"Tuscania"},"geometry":{"type":"Polygon","coordinates":[[[11.9278,42.4828],[11.9312,42.4535],[11.9235,42.4281],[11.9255,42.4213],[11.9212,42.4174],[11.9129,42.4052],[11.9077,42.393],[11.8992,42.3796],[11.894,42.3752],[11.8888,42.3693],[11.8862,42.3658],[11.8837,42.3597],[11.8771,42.3571],[11.8729,42.3491],[11.872,42.3434],[11.8739,42.3412],[11.8744,42.3374],[11.868,42.3319],[11.8641,42.3311],[11.8621,42.3312],[11.8621,42.3338],[11.8596,42.3357],[11.8585,42.3354],[11.8574,42.3343],[11.8553,42.3275],[11.8554,42.3265],[11.8573,42.3258],[11.8562,42.3208],[11.8454,42.314],[11.8364,42.3125],[11.8319,42.3094],[11.8402,42.3035],[11.839,42.302],[11.8315,42.3017],[11.8134,42.2971],[11.8019,42.3019],[11.7956,42.3087],[11.792,42.3087],[11.7868,42.3065],[11.7811,42.3066],[11.7805,42.3112],[11.7817,42.3177],[11.7813,42.3248],[11.7784,42.3372],[11.779,42.3455],[11.7884,42.3513],[11.7907,42.3537],[11.791,42.3551],[11.789,42.358],[11.7724,42.3652],[11.7686,42.3652],[11.7619,42.3637],[11.7527,42.3599],[11.75,42.356],[11.7351,42.3471],[11.7224,42.3347],[11.708,42.3223],[11.7043,42.3222],[11.7018,42.3242],[11.6926,42.3342],[11.6883,42.341],[11.6872,42.3493],[11.6893,42.3497],[11.6934,42.3536],[11.6992,42.3615],[11.6976,42.3651],[11.6973,42.3704],[11.6995,42.3768],[11.7054,42.3769],[11.7105,42.3755],[11.7139,42.3741],[11.7153,42.3717],[11.7191,42.3718],[11.7223,42.3734],[11.7234,42.3794],[11.7273,42.3855],[11.7386,42.3942],[11.7434,42.3966],[11.7479,42.4001],[11.7549,42.4075],[11.7569,42.4284],[11.7578,42.4317],[11.7724,42.4297],[11.7852,42.4298],[11.7953,42.4278],[11.805,42.4307],[11.807,42.4339],[11.8261,42.4403],[11.8392,42.447],[11.843,42.4508],[11.8463,42.4591],[11.838,42.4792],[11.8417,42.4804],[11.8568,42.4807],[11.8722,42.4842],[11.8811,42.4853],[11.8887,42.485],[11.8891,42.4825],[11.8925,42.48],[11.9024,42.4848],[11.9094,42.4862],[11.9096,42.4852],[11.9114,42.4848],[11.9278,42.4828]]]}},{"type":"Feature","properties":{"i":"056053","n":"Valentano"},"geometry":{"type":"Polygon","coordinates":[[[11.7809,42.6347],[11.7838,42.63],[11.7823,42.6126],[11.7831,42.6056],[11.7923,42.5981],[11.8031,42.595],[11.8189,42.596],[11.827,42.5955],[11.8381,42.5934],[11.8361,42.5909],[11.8356,42.5887],[11.8375,42.5803],[11.8436,42.5659],[11.8461,42.5544],[11.8407,42.5494],[11.8378,42.5451],[11.8323,42.5409],[11.8159,42.539],[11.7996,42.5441],[11.8006,42.5475],[11.8003,42.5488],[11.7967,42.5497],[11.7837,42.5633],[11.7749,42.5684],[11.7679,42.5698],[11.7745,42.576],[11.7767,42.5819],[11.7774,42.588],[11.7769,42.5905],[11.7757,42.5918],[11.7626,42.6012],[11.7552,42.5958],[11.7456,42.596],[11.7439,42.5971],[11.7371,42.6056],[11.7359,42.6099],[11.7385,42.6133],[11.7489,42.6215],[11.7518,42.6256],[11.7498,42.6396],[11.7809,42.6347]]]}},{"type":"Feature","properties":{"i":"056054","n":"Vallerano"},"geometry":{"type":"Polygon","coordinates":[[[12.2966,42.3593],[12.2875,42.3606],[12.2763,42.3591],[12.2748,42.357],[12.2743,42.3506],[12.268,42.3491],[12.2625,42.3529],[12.2572,42.3544],[12.2494,42.3538],[12.2385,42.3519],[12.2337,42.3503],[12.2164,42.3481],[12.2146,42.3495],[12.2202,42.358],[12.2227,42.3603],[12.225,42.3604],[12.2353,42.3651],[12.244,42.37],[12.2464,42.3725],[12.2507,42.3928],[12.2544,42.3921],[12.2678,42.3935],[12.2697,42.3947],[12.2728,42.4031],[12.278,42.3956],[12.2799,42.3912],[12.2797,42.3903],[12.2788,42.3905],[12.2758,42.3885],[12.2707,42.3841],[12.2738,42.3736],[12.2821,42.3677],[12.2943,42.3643],[12.2966,42.3606],[12.2966,42.3593]]]}},{"type":"Feature","properties":{"i":"056055","n":"Vasanello"},"geometry":{"type":"Polygon","coordinates":[[[12.3789,42.3959],[12.3753,42.3936],[12.372,42.3853],[12.3624,42.3896],[12.3577,42.3944],[12.349,42.3997],[12.3463,42.4006],[12.3242,42.4027],[12.3136,42.4017],[12.3123,42.4069],[12.3091,42.4125],[12.2986,42.416],[12.3037,42.4266],[12.3026,42.4374],[12.3094,42.4454],[12.3147,42.4446],[12.3256,42.4462],[12.3336,42.4527],[12.3402,42.451],[12.3506,42.4369],[12.3597,42.4327],[12.3645,42.4326],[12.373,42.4279],[12.3795,42.4161],[12.379,42.4021],[12.3774,42.3978],[12.3789,42.3959]]]}},{"type":"Feature","properties":{"i":"056056","n":"Vejano"},"geometry":{"type":"MultiPolygon","coordinates":[[[[12.0296,42.1528],[12.0023,42.1585],[12.0005,42.1615],[11.9977,42.1715],[11.9994,42.1723],[12.0042,42.1724],[12.0135,42.1703],[12.0175,42.1861],[12.0179,42.1867],[12.0235,42.1858],[12.0215,42.1821],[12.0213,42.1789],[12.0226,42.169],[12.025,42.1658],[12.029,42.1628],[12.0308,42.1581],[12.0311,42.155],[12.0296,42.1528]]],[[[12.1221,42.202],[12.1197,42.197],[12.1082,42.1836],[12.0899,42.1717],[12.0869,42.166],[12.0877,42.1615],[12.0812,42.1614],[12.0719,42.1626],[12.0693,42.1644],[12.0577,42.1641],[12.0379,42.1725],[12.0413,42.1871],[12.0462,42.1902],[12.0559,42.1988],[12.0579,42.2016],[12.0593,42.2068],[12.0568,42.215],[12.0658,42.2145],[12.0653,42.2189],[12.0672,42.2242],[12.0685,42.2255],[12.0853,42.2334],[12.0888,42.2329],[12.0915,42.2306],[12.0948,42.2266],[12.0952,42.2235],[12.0999,42.2235],[12.1031,42.2305],[12.1065,42.2353],[12.1194,42.2491],[12.1233,42.2482],[12.1291,42.2427],[12.1317,42.2365],[12.1314,42.2305],[12.132,42.229],[12.1337,42.2284],[12.1315,42.2238],[12.1226,42.217],[12.1203,42.2039],[12.1221,42.202]]]]}},{"type":"Feature","properties":{"i":"056057","n":"Vetralla"},"geometry":{"type":"Polygon","coordinates":[[[12.131,42.3388],[12.1357,42.332],[12.1422,42.3279],[12.1431,42.3266],[12.1418,42.3177],[12.1403,42.315],[12.1384,42.3139],[12.1232,42.3096],[12.1136,42.3051],[12.1203,42.2964],[12.1119,42.2954],[12.1102,42.2849],[12.1078,42.2787],[12.0916,42.2789],[12.0823,42.2809],[12.0749,42.2795],[12.064,42.2762],[12.057,42.2852],[12.0486,42.2901],[12.0303,42.295],[12.0249,42.2976],[12.0209,42.2978],[12.0008,42.2935],[11.9923,42.2842],[11.9891,42.2814],[11.9862,42.2801],[11.9794,42.2799],[11.9691,42.2835],[11.9693,42.2777],[11.9589,42.264],[11.9531,42.2612],[11.9428,42.262],[11.9343,42.2559],[11.9327,42.2539],[11.9288,42.2551],[11.9333,42.2644],[11.9296,42.2717],[11.9202,42.2838],[11.9183,42.2848],[11.912,42.2911],[11.902,42.306],[11.9043,42.3064],[11.9139,42.3018],[11.9203,42.3013],[11.9229,42.3052],[11.9238,42.3094],[11.93,42.3168],[11.9344,42.3208],[11.9501,42.3238],[11.9552,42.3219],[11.9589,42.3218],[11.9752,42.3436],[11.9803,42.3445],[11.9881,42.3425],[11.997,42.3439],[12.0028,42.3475],[12.0077,42.354],[12.0197,42.3544],[12.0295,42.3525],[12.0361,42.3495],[12.0413,42.3486],[12.0506,42.3477],[12.0559,42.349],[12.0738,42.3455],[12.1079,42.3407],[12.131,42.3388]]]}},{"type":"Feature","properties":{"i":"056058","n":"Vignanello"},"geometry":{"type":"Polygon","coordinates":[[[12.3164,42.4018],[12.3179,42.3946],[12.3146,42.3897],[12.3169,42.3815],[12.3297,42.3632],[12.3321,42.3585],[12.3297,42.3537],[12.3236,42.3505],[12.3161,42.3529],[12.3021,42.3589],[12.2966,42.3593],[12.2966,42.3606],[12.2943,42.3643],[12.2821,42.3677],[12.2738,42.3736],[12.2707,42.3841],[12.2799,42.3909],[12.278,42.3956],[12.2728,42.4031],[12.2796,42.4032],[12.2904,42.4079],[12.2986,42.416],[12.3091,42.4125],[12.3123,42.4069],[12.3136,42.4017],[12.3164,42.4018]]]}},{"type":"Feature","properties":{"i":"056059","n":"Viterbo"},"geometry":{"type":"MultiPolygon","coordinates":[[[[12.1229,42.3093],[12.1267,42.3036],[12.1201,42.2972],[12.1136,42.3051],[12.1229,42.3093]]],[[[12.1328,42.5829],[12.1316,42.5815],[12.1275,42.5801],[12.1238,42.581],[12.1229,42.582],[12.118,42.5825],[12.0968,42.5789],[12.0918,42.5688],[12.0923,42.5556],[12.0944,42.5498],[12.0978,42.5467],[12.1056,42.542],[12.1138,42.5391],[12.1234,42.534],[12.1316,42.5276],[12.1317,42.5323],[12.134,42.538],[12.1353,42.5392],[12.1378,42.5385],[12.1428,42.5402],[12.1495,42.5434],[12.1558,42.5476],[12.1614,42.5551],[12.1557,42.5614],[12.1561,42.5667],[12.1551,42.575],[12.1539,42.5782],[12.1522,42.5798],[12.1526,42.5809],[12.1586,42.58],[12.172,42.576],[12.1732,42.582],[12.1806,42.58],[12.1922,42.5747],[12.1915,42.5727],[12.1868,42.5728],[12.1852,42.5717],[12.1852,42.5685],[12.1881,42.5613],[12.1975,42.5541],[12.2139,42.5547],[12.2238,42.5507],[12.2259,42.5485],[12.2207,42.5454],[12.2141,42.5381],[12.213,42.5342],[12.2122,42.5338],[12.211,42.5284],[12.2117,42.526],[12.21,42.5224],[12.2077,42.5182],[12.2016,42.5131],[12.2001,42.5108],[12.201,42.508],[12.2021,42.5071],[12.2019,42.5062],[12.1936,42.5037],[12.1884,42.5065],[12.1798,42.5017],[12.1764,42.4986],[12.1589,42.4931],[12.1551,42.4882],[12.1477,42.4823],[12.1456,42.4859],[12.1438,42.4866],[12.135,42.4828],[12.1363,42.4801],[12.1399,42.4776],[12.144,42.4654],[12.1443,42.4597],[12.1471,42.4572],[12.1672,42.4475],[12.1695,42.44],[12.1732,42.4338],[12.1829,42.4274],[12.1861,42.4145],[12.1878,42.4104],[12.1871,42.4046],[12.1845,42.4016],[12.1833,42.3987],[12.1848,42.3949],[12.1915,42.386],[12.1894,42.3827],[12.1857,42.371],[12.1795,42.3675],[12.1743,42.3614],[12.1635,42.363],[12.1582,42.3628],[12.1409,42.3584],[12.1344,42.3559],[12.1323,42.3535],[12.1309,42.3493],[12.131,42.3388],[12.1302,42.3387],[12.1079,42.3407],[12.0738,42.3455],[12.0559,42.349],[12.0506,42.3477],[12.0413,42.3486],[12.0361,42.3495],[12.0295,42.3525],[12.0197,42.3544],[12.0077,42.354],[12.0028,42.3475],[11.997,42.3439],[11.9881,42.3425],[11.9803,42.3445],[11.9752,42.3436],[11.9589,42.3218],[11.9552,42.3219],[11.9501,42.3238],[11.9344,42.3208],[11.93,42.3168],[11.9238,42.3094],[11.9229,42.3052],[11.9203,42.3013],[11.9139,42.3018],[11.9057,42.3056],[11.9073,42.3186],[11.9063,42.3279],[11.9036,42.3396],[11.9041,42.3434],[11.9059,42.3467],[11.9264,42.357],[11.9326,42.3617],[11.9379,42.3698],[11.94,42.3716],[11.9484,42.3761],[11.9518,42.3763],[11.9556,42.378],[11.9601,42.3819],[11.957,42.3897],[11.9611,42.4115],[11.9667,42.4245],[11.9655,42.4261],[11.9528,42.424],[11.9305,42.4184],[11.9255,42.4213],[11.9235,42.4281],[11.9312,42.4535],[11.9278,42.4828],[11.9367,42.4932],[11.9408,42.5044],[11.9496,42.5196],[11.9539,42.523],[11.9578,42.5243],[11.9768,42.5244],[11.983,42.5202],[11.9894,42.5141],[11.9901,42.5106],[11.9868,42.4975],[11.9871,42.491],[11.9879,42.4894],[11.9916,42.4895],[11.9933,42.4882],[11.9922,42.4818],[11.9896,42.4744],[11.9899,42.4729],[11.9954,42.4654],[11.9996,42.4616],[12.0011,42.4613],[12.0056,42.4626],[12.011,42.4662],[12.0335,42.4846],[12.037,42.491],[12.0399,42.494],[12.0515,42.4958],[12.0488,42.5024],[12.0549,42.5074],[12.0572,42.5091],[12.0618,42.5082],[12.0776,42.5174],[12.0939,42.5295],[12.0913,42.5391],[12.0916,42.5495],[12.0764,42.5683],[12.0692,42.57],[12.0644,42.582],[12.0607,42.5829],[12.0531,42.5826],[12.0536,42.5868],[12.0668,42.587],[12.0811,42.5843],[12.0852,42.5843],[12.1221,42.5867],[12.1247,42.5865],[12.1328,42.5829]]]]}},{"type":"Feature","properties":{"i":"056060","n":"Vitorchiano"},"geometry":{"type":"Polygon","coordinates":[[[12.2198,42.4909],[12.2168,42.4858],[12.2146,42.4841],[12.2074,42.483],[12.1989,42.4857],[12.1906,42.4831],[12.1896,42.4819],[12.1903,42.4796],[12.1968,42.4712],[12.1988,42.4654],[12.1993,42.4591],[12.1987,42.4558],[12.1947,42.4525],[12.1927,42.4495],[12.1933,42.4354],[12.1907,42.4263],[12.1913,42.424],[12.1905,42.4191],[12.1896,42.4161],[12.1867,42.4128],[12.1829,42.4274],[12.1732,42.4338],[12.1695,42.44],[12.1672,42.4475],[12.1471,42.4572],[12.1443,42.4597],[12.144,42.4654],[12.1399,42.4776],[12.1351,42.4816],[12.135,42.4828],[12.1438,42.4866],[12.1456,42.4859],[12.1477,42.4823],[12.1551,42.4882],[12.1589,42.4931],[12.1764,42.4986],[12.1798,42.5017],[12.1884,42.5065],[12.1936,42.5037],[12.2015,42.5059],[12.2021,42.5071],[12.2061,42.5093],[12.2109,42.5082],[12.2106,42.5047],[12.206,42.5007],[12.2064,42.4981],[12.2139,42.4932],[12.2198,42.4909]]]}}]}
