{"type":"FeatureCollection","fonte":"Confini comunali ISTAT via openpolis/geojson-italy — CC BY 4.0","features":[{"type":"Feature","properties":{"i":"102001","n":"Acquaro"},"geometry":{"type":"Polygon","coordinates":[[[16.2137,38.5535],[16.2142,38.5493],[16.2182,38.5377],[16.2254,38.5318],[16.2464,38.5202],[16.2484,38.518],[16.249,38.5137],[16.2508,38.5099],[16.2524,38.5083],[16.2489,38.5075],[16.2421,38.4921],[16.2365,38.4987],[16.2333,38.5008],[16.2311,38.501],[16.2278,38.5037],[16.223,38.5125],[16.2198,38.515],[16.2098,38.5186],[16.1984,38.5214],[16.1864,38.5269],[16.1798,38.5312],[16.1692,38.5401],[16.1651,38.5458],[16.1537,38.5499],[16.1516,38.5518],[16.1508,38.5539],[16.1521,38.5569],[16.1541,38.5562],[16.1636,38.557],[16.1674,38.5581],[16.1693,38.5609],[16.1712,38.5617],[16.1779,38.5635],[16.1873,38.5641],[16.1919,38.5627],[16.1954,38.5585],[16.2035,38.5551],[16.2137,38.5535]]]}},{"type":"Feature","properties":{"i":"102002","n":"Arena"},"geometry":{"type":"Polygon","coordinates":[[[16.2799,38.5523],[16.2917,38.5454],[16.2966,38.5397],[16.3045,38.5369],[16.3109,38.5359],[16.3127,38.5343],[16.3128,38.5324],[16.2965,38.5164],[16.2875,38.5113],[16.2839,38.5104],[16.2839,38.5091],[16.286,38.5082],[16.282,38.5071],[16.2575,38.5064],[16.2524,38.5083],[16.2508,38.5099],[16.249,38.5137],[16.2484,38.518],[16.2468,38.5199],[16.2254,38.5318],[16.2182,38.5377],[16.2135,38.5527],[16.2149,38.5564],[16.1971,38.5671],[16.1954,38.5694],[16.1999,38.5694],[16.2082,38.5675],[16.2054,38.5735],[16.2123,38.5717],[16.2331,38.5602],[16.2419,38.5573],[16.2484,38.556],[16.2496,38.5574],[16.2747,38.5508],[16.2799,38.5523]]]}},{"type":"Feature","properties":{"i":"102003","n":"Briatico"},"geometry":{"type":"MultiPolygon","coordinates":[[[[16.0732,38.7197],[16.0702,38.7114],[16.0696,38.7038],[16.0633,38.7027],[16.0541,38.6994],[16.0489,38.6986],[16.0446,38.6985],[16.0413,38.7],[16.039,38.7001],[16.0352,38.6914],[16.0313,38.6893],[16.0227,38.689],[16.0085,38.6917],[16.0061,38.689],[16.0013,38.6745],[16.0028,38.6667],[15.9978,38.6682],[15.9908,38.6677],[15.9781,38.6645],[15.9728,38.6615],[15.9702,38.661],[15.9708,38.667],[15.9781,38.6756],[15.9865,38.6919],[15.9924,38.6962],[15.9959,38.6976],[15.9988,38.7021],[15.9994,38.7071],[15.9936,38.7236],[16.0023,38.7229],[16.0113,38.7237],[16.0183,38.7264],[16.0323,38.7278],[16.0412,38.7272],[16.0612,38.7213],[16.0732,38.7197]]]]}},{"type":"Feature","properties":{"i":"102004","n":"Brognaturo"},"geometry":{"type":"Polygon","coordinates":[[[16.3696,38.6123],[16.3698,38.6107],[16.3729,38.6072],[16.384,38.601],[16.3917,38.5996],[16.3993,38.6017],[16.4028,38.6013],[16.4081,38.5994],[16.418,38.5935],[16.4151,38.5886],[16.4156,38.588],[16.4195,38.5854],[16.4287,38.5833],[16.4316,38.581],[16.432,38.5793],[16.4298,38.5685],[16.4283,38.5652],[16.4229,38.5633],[16.4198,38.554],[16.4058,38.5638],[16.3979,38.571],[16.3925,38.5738],[16.39,38.5733],[16.3889,38.5708],[16.3826,38.5664],[16.3773,38.5661],[16.3733,38.5744],[16.3645,38.5847],[16.3589,38.5862],[16.3519,38.5858],[16.3417,38.5974],[16.3401,38.6052],[16.3378,38.6091],[16.3455,38.6115],[16.3518,38.6118],[16.3587,38.6098],[16.3696,38.6123]]]}},{"type":"Feature","properties":{"i":"102005","n":"Capistrano"},"geometry":{"type":"Polygon","coordinates":[[[16.3428,38.703],[16.3391,38.7002],[16.3378,38.6976],[16.3373,38.6859],[16.334,38.6832],[16.3323,38.6829],[16.3283,38.685],[16.3137,38.6877],[16.3025,38.6876],[16.2992,38.6866],[16.2967,38.6815],[16.2884,38.6766],[16.2842,38.6772],[16.2825,38.6797],[16.2613,38.6883],[16.2591,38.6909],[16.2597,38.6964],[16.254,38.7015],[16.2561,38.7034],[16.2691,38.7047],[16.2715,38.7055],[16.2793,38.7161],[16.2874,38.7102],[16.2876,38.7092],[16.2944,38.7068],[16.297,38.7069],[16.322,38.71],[16.3237,38.7118],[16.3385,38.7206],[16.3411,38.7191],[16.3437,38.7152],[16.3479,38.7127],[16.3491,38.7086],[16.3492,38.7073],[16.3481,38.706],[16.3428,38.703]]]}},{"type":"Feature","properties":{"i":"102006","n":"Cessaniti"},"geometry":{"type":"Polygon","coordinates":[[[16.0313,38.6483],[16.0284,38.6497],[16.0177,38.6598],[16.0064,38.6658],[16.0028,38.6667],[16.0013,38.6745],[16.0063,38.6893],[16.0085,38.6917],[16.0227,38.689],[16.0313,38.6893],[16.0352,38.6914],[16.039,38.7001],[16.0413,38.7],[16.0446,38.6985],[16.0489,38.6986],[16.0541,38.6994],[16.0633,38.7027],[16.0696,38.7038],[16.0635,38.6919],[16.062,38.683],[16.043,38.6658],[16.034,38.6537],[16.0313,38.6483]]]}},{"type":"Feature","properties":{"i":"102007","n":"Dasà"},"geometry":{"type":"Polygon","coordinates":[[[16.1954,38.5694],[16.1971,38.5671],[16.2149,38.5564],[16.2137,38.5535],[16.2035,38.5551],[16.1954,38.5585],[16.1919,38.5627],[16.1873,38.5641],[16.1779,38.5635],[16.1712,38.5617],[16.1693,38.5609],[16.1674,38.5581],[16.1636,38.557],[16.1541,38.5562],[16.1485,38.5586],[16.1493,38.5608],[16.1535,38.5628],[16.1677,38.5795],[16.1747,38.5784],[16.178,38.5762],[16.1808,38.5722],[16.1875,38.5685],[16.1935,38.5685],[16.1954,38.5694]]]}},{"type":"Feature","properties":{"i":"102008","n":"Dinami"},"geometry":{"type":"Polygon","coordinates":[[[16.1677,38.5795],[16.1535,38.5628],[16.1493,38.5608],[16.1485,38.5586],[16.1521,38.5569],[16.1508,38.5539],[16.1516,38.5518],[16.1537,38.5499],[16.1651,38.5458],[16.1692,38.5401],[16.1798,38.5312],[16.187,38.5265],[16.1984,38.5214],[16.2098,38.5186],[16.2198,38.515],[16.223,38.5125],[16.2278,38.5037],[16.2311,38.501],[16.2277,38.4997],[16.2109,38.4968],[16.2026,38.4989],[16.1932,38.4978],[16.1795,38.5101],[16.167,38.5134],[16.1598,38.5166],[16.1443,38.5291],[16.1334,38.5355],[16.1201,38.5369],[16.1103,38.5436],[16.105,38.5407],[16.1014,38.5408],[16.0994,38.5432],[16.0979,38.548],[16.0894,38.5537],[16.08,38.5621],[16.091,38.5697],[16.1009,38.5733],[16.1166,38.5724],[16.1224,38.5746],[16.1289,38.5785],[16.1337,38.5826],[16.136,38.5852],[16.1385,38.5902],[16.1428,38.5882],[16.1512,38.588],[16.1635,38.5898],[16.1663,38.5892],[16.1681,38.5857],[16.1686,38.5811],[16.1677,38.5795]]]}},{"type":"Feature","properties":{"i":"102009","n":"Drapia"},"geometry":{"type":"Polygon","coordinates":[[[15.9146,38.6714],[15.9188,38.6661],[15.9221,38.6599],[15.9254,38.6576],[15.9362,38.6554],[15.9385,38.6557],[15.9479,38.652],[15.9498,38.6486],[15.9559,38.6468],[15.9553,38.6452],[15.9492,38.6422],[15.9416,38.6305],[15.9398,38.6241],[15.9361,38.6234],[15.931,38.6267],[15.929,38.63],[15.9255,38.6327],[15.9192,38.634],[15.8915,38.6352],[15.8864,38.6349],[15.8844,38.6333],[15.8754,38.6379],[15.8714,38.6522],[15.8837,38.6558],[15.8804,38.6592],[15.8872,38.6647],[15.896,38.67],[15.9041,38.6721],[15.9146,38.6714]]]}},{"type":"Feature","properties":{"i":"102010","n":"Fabrizia"},"geometry":{"type":"Polygon","coordinates":[[[16.3389,38.4806],[16.337,38.4787],[16.3353,38.4754],[16.3371,38.4732],[16.3371,38.471],[16.3343,38.4662],[16.326,38.4563],[16.2888,38.4398],[16.2814,38.4393],[16.2662,38.446],[16.2652,38.4484],[16.2691,38.4543],[16.266,38.4652],[16.254,38.4839],[16.2421,38.4921],[16.2489,38.5075],[16.2524,38.5083],[16.2575,38.5064],[16.2652,38.5062],[16.282,38.5071],[16.286,38.5082],[16.295,38.5054],[16.3052,38.4997],[16.3111,38.4937],[16.3164,38.4852],[16.3275,38.4845],[16.3368,38.49],[16.3389,38.4806]]]}},{"type":"Feature","properties":{"i":"102011","n":"Filadelfia"},"geometry":{"type":"Polygon","coordinates":[[[16.3443,38.7941],[16.3437,38.7934],[16.3478,38.7904],[16.3526,38.789],[16.3576,38.7916],[16.3599,38.7918],[16.36,38.7848],[16.3564,38.7805],[16.3557,38.7785],[16.3567,38.7755],[16.3619,38.7678],[16.3577,38.7659],[16.3517,38.765],[16.3395,38.7667],[16.3387,38.7675],[16.3393,38.7693],[16.3376,38.7699],[16.3239,38.7703],[16.3198,38.7686],[16.3173,38.7661],[16.313,38.7639],[16.3077,38.7617],[16.3049,38.7616],[16.2862,38.7663],[16.2825,38.7727],[16.2863,38.7797],[16.2878,38.7885],[16.2862,38.7899],[16.2812,38.7908],[16.2757,38.7933],[16.2757,38.7978],[16.2773,38.8038],[16.2756,38.8121],[16.2742,38.8151],[16.2704,38.8178],[16.2658,38.8198],[16.2596,38.8186],[16.2572,38.8199],[16.2807,38.8242],[16.2861,38.8238],[16.2962,38.8213],[16.3189,38.8058],[16.3214,38.8003],[16.3229,38.7991],[16.3248,38.7983],[16.3356,38.7973],[16.3443,38.7941]]]}},{"type":"Feature","properties":{"i":"102012","n":"Filandari"},"geometry":{"type":"Polygon","coordinates":[[[16.0599,38.611],[16.0535,38.6067],[16.0472,38.6006],[16.047,38.5944],[16.0426,38.5942],[16.0324,38.5899],[16.0265,38.5896],[16.0253,38.59],[16.0292,38.5927],[16.0295,38.5988],[16.0254,38.6067],[16.0246,38.6107],[16.0215,38.6146],[16.0179,38.6174],[16.0002,38.6225],[15.9962,38.6213],[15.9863,38.622],[15.9667,38.6301],[15.9757,38.629],[15.9908,38.6369],[15.9987,38.6397],[16.0057,38.6398],[16.0146,38.6356],[16.0148,38.6293],[16.0151,38.6283],[16.0168,38.6273],[16.0242,38.6331],[16.0296,38.6396],[16.0284,38.6497],[16.0323,38.6473],[16.0356,38.643],[16.0365,38.6395],[16.042,38.6347],[16.0443,38.6309],[16.0499,38.6287],[16.0539,38.625],[16.0599,38.611]]]}},{"type":"Feature","properties":{"i":"102013","n":"Filogaso"},"geometry":{"type":"Polygon","coordinates":[[[16.254,38.7015],[16.2597,38.6964],[16.254,38.695],[16.2492,38.6905],[16.2491,38.6893],[16.2506,38.6879],[16.2499,38.6803],[16.2488,38.6788],[16.2535,38.6755],[16.2662,38.6712],[16.2706,38.6673],[16.2685,38.6618],[16.2668,38.6608],[16.2445,38.6623],[16.2434,38.6615],[16.2434,38.6604],[16.2393,38.6612],[16.2217,38.6613],[16.2107,38.6594],[16.2075,38.6649],[16.2075,38.6714],[16.2097,38.6765],[16.2079,38.6807],[16.1956,38.6817],[16.1919,38.6829],[16.1841,38.6872],[16.1767,38.6959],[16.1776,38.6979],[16.1842,38.7007],[16.1893,38.6992],[16.1953,38.6987],[16.2034,38.7024],[16.2069,38.7031],[16.2139,38.7023],[16.2183,38.7006],[16.2403,38.6995],[16.254,38.7015]]]}},{"type":"Feature","properties":{"i":"102014","n":"Francavilla Angitola"},"geometry":{"type":"Polygon","coordinates":[[[16.2788,38.7917],[16.2862,38.7899],[16.2878,38.7885],[16.2863,38.7797],[16.2825,38.7727],[16.2862,38.7663],[16.2854,38.765],[16.2553,38.7481],[16.2512,38.7496],[16.2462,38.7541],[16.2437,38.7575],[16.2371,38.7591],[16.2337,38.7571],[16.231,38.7571],[16.2168,38.7709],[16.2126,38.774],[16.2174,38.7862],[16.2319,38.8111],[16.2524,38.8075],[16.2662,38.7957],[16.271,38.7936],[16.2788,38.7917]]]}},{"type":"Feature","properties":{"i":"102015","n":"Francica"},"geometry":{"type":"Polygon","coordinates":[[[16.146,38.6413],[16.1587,38.6315],[16.1582,38.6237],[16.1506,38.6062],[16.1429,38.6004],[16.14,38.5964],[16.1384,38.5914],[16.115,38.6007],[16.1071,38.5961],[16.0993,38.5929],[16.09,38.5958],[16.0895,38.6022],[16.09,38.6079],[16.0929,38.609],[16.0958,38.6184],[16.1003,38.6243],[16.1053,38.6288],[16.1049,38.6311],[16.1107,38.6307],[16.1196,38.6351],[16.1425,38.6422],[16.146,38.6413]]]}},{"type":"Feature","properties":{"i":"102016","n":"Gerocarne"},"geometry":{"type":"Polygon","coordinates":[[[16.2292,38.5947],[16.2291,38.593],[16.232,38.5902],[16.2332,38.5899],[16.2346,38.5903],[16.2367,38.5931],[16.2397,38.5932],[16.2628,38.5893],[16.2686,38.5894],[16.2765,38.5875],[16.2906,38.579],[16.2926,38.576],[16.2927,38.5734],[16.2751,38.569],[16.266,38.5693],[16.2628,38.5683],[16.2735,38.5596],[16.2807,38.5557],[16.2799,38.5523],[16.2747,38.5508],[16.2496,38.5574],[16.2484,38.556],[16.241,38.5576],[16.2331,38.5602],[16.2123,38.5717],[16.2054,38.5735],[16.2082,38.5675],[16.1999,38.5694],[16.1883,38.5682],[16.1808,38.5722],[16.178,38.5762],[16.1747,38.5784],[16.1677,38.5795],[16.1686,38.5811],[16.1681,38.5857],[16.1663,38.5892],[16.1635,38.5898],[16.1512,38.588],[16.1428,38.5882],[16.1385,38.5902],[16.1384,38.5914],[16.14,38.5964],[16.1429,38.6004],[16.1506,38.6062],[16.1582,38.6237],[16.1587,38.6315],[16.161,38.6325],[16.1646,38.6293],[16.1681,38.6226],[16.1681,38.6206],[16.1704,38.6182],[16.1716,38.6178],[16.1803,38.6205],[16.1867,38.6135],[16.1846,38.6109],[16.1843,38.6079],[16.1873,38.6021],[16.1908,38.6016],[16.1952,38.6027],[16.2041,38.6019],[16.2268,38.5966],[16.2287,38.5958],[16.2292,38.5947]]]}},{"type":"Feature","properties":{"i":"102017","n":"Ionadi"},"geometry":{"type":"Polygon","coordinates":[[[16.0734,38.6228],[16.0692,38.6138],[16.0599,38.611],[16.0539,38.625],[16.0499,38.6287],[16.0443,38.6309],[16.042,38.6347],[16.0435,38.6339],[16.0497,38.6354],[16.0535,38.6443],[16.0554,38.6521],[16.059,38.6571],[16.0701,38.6616],[16.0786,38.6568],[16.0788,38.656],[16.0715,38.6433],[16.0728,38.6422],[16.0732,38.6388],[16.0716,38.638],[16.0685,38.6324],[16.0734,38.6228]]]}},{"type":"Feature","properties":{"i":"102018","n":"Joppolo"},"geometry":{"type":"Polygon","coordinates":[[[15.9328,38.5966],[15.9315,38.5946],[15.9312,38.5904],[15.9285,38.5873],[15.9189,38.5775],[15.9112,38.5714],[15.9116,38.5645],[15.9075,38.5608],[15.9042,38.5629],[15.9001,38.5674],[15.8973,38.5726],[15.8942,38.5762],[15.8728,38.5897],[15.8632,38.5972],[15.8567,38.6033],[15.8581,38.6071],[15.862,38.6107],[15.87,38.6159],[15.8842,38.6197],[15.895,38.6178],[15.9114,38.6065],[15.9203,38.6016],[15.9328,38.5966]]]}},{"type":"Feature","properties":{"i":"102019","n":"Limbadi"},"geometry":{"type":"Polygon","coordinates":[[[16.013,38.5789],[16.0126,38.5765],[16.0054,38.5698],[16.0005,38.5682],[15.997,38.5658],[15.9959,38.5615],[16.0027,38.5445],[15.9945,38.5327],[15.9895,38.5276],[15.9883,38.5245],[15.9905,38.5214],[15.9863,38.5175],[15.9827,38.5186],[15.9797,38.5221],[15.9704,38.524],[15.9674,38.529],[15.9699,38.536],[15.9545,38.5453],[15.9546,38.5505],[15.9581,38.5523],[15.9595,38.5567],[15.9583,38.5644],[15.9546,38.5678],[15.9517,38.5685],[15.9522,38.5813],[15.9546,38.5949],[15.9641,38.5905],[15.9669,38.5915],[15.9764,38.5988],[15.9926,38.5963],[15.9977,38.5891],[15.999,38.5856],[16.0004,38.5843],[16.0072,38.5801],[16.013,38.5789]]]}},{"type":"Feature","properties":{"i":"102020","n":"Maierato"},"geometry":{"type":"Polygon","coordinates":[[[16.2557,38.7483],[16.2557,38.7474],[16.253,38.7447],[16.2487,38.743],[16.2441,38.7424],[16.2421,38.7385],[16.2442,38.7359],[16.2532,38.7328],[16.2588,38.7249],[16.2619,38.7221],[16.2787,38.7174],[16.2792,38.7154],[16.2715,38.7055],[16.2691,38.7047],[16.2561,38.7034],[16.2526,38.7008],[16.2403,38.6995],[16.2183,38.7006],[16.2139,38.7023],[16.2069,38.7031],[16.2034,38.7024],[16.1953,38.6987],[16.1771,38.7014],[16.1675,38.7074],[16.1593,38.708],[16.1525,38.7071],[16.1564,38.7089],[16.1651,38.7161],[16.2003,38.7391],[16.2079,38.7513],[16.2148,38.7583],[16.2155,38.7581],[16.2173,38.7535],[16.2259,38.7583],[16.2322,38.757],[16.2371,38.7591],[16.2437,38.7575],[16.2462,38.7541],[16.2512,38.7496],[16.2533,38.7483],[16.2557,38.7483]]]}},{"type":"Feature","properties":{"i":"102021","n":"Mileto"},"geometry":{"type":"Polygon","coordinates":[[[16.09,38.6079],[16.0895,38.6022],[16.09,38.5958],[16.0993,38.5929],[16.1071,38.5961],[16.115,38.6007],[16.1333,38.594],[16.1384,38.5914],[16.1385,38.5902],[16.136,38.5852],[16.1337,38.5826],[16.1289,38.5785],[16.1224,38.5746],[16.1166,38.5724],[16.102,38.5736],[16.0973,38.5722],[16.091,38.5697],[16.08,38.5621],[16.0763,38.562],[16.0733,38.5607],[16.0705,38.5571],[16.0709,38.5528],[16.0699,38.5492],[16.0687,38.549],[16.0646,38.5536],[16.0607,38.5532],[16.0607,38.5501],[16.0512,38.5455],[16.0443,38.5442],[16.0418,38.5492],[16.0416,38.553],[16.0444,38.5577],[16.0459,38.5681],[16.0358,38.5745],[16.0383,38.5781],[16.0426,38.5804],[16.0473,38.5861],[16.048,38.5901],[16.0466,38.595],[16.0472,38.6006],[16.0572,38.6095],[16.0619,38.6119],[16.0692,38.6138],[16.0734,38.6228],[16.0792,38.6202],[16.0854,38.6152],[16.0886,38.6093],[16.09,38.6079]]]}},{"type":"Feature","properties":{"i":"102022","n":"Mongiana"},"geometry":{"type":"Polygon","coordinates":[[[16.3526,38.5007],[16.3502,38.4993],[16.3497,38.4969],[16.3487,38.4895],[16.3494,38.4804],[16.3486,38.4797],[16.3437,38.4797],[16.3389,38.4806],[16.3368,38.49],[16.3275,38.4845],[16.3164,38.4852],[16.3111,38.4937],[16.3052,38.4997],[16.295,38.5054],[16.2839,38.5091],[16.2839,38.5104],[16.2875,38.5113],[16.2965,38.5164],[16.3124,38.5317],[16.3129,38.5287],[16.3254,38.5175],[16.3285,38.5168],[16.3362,38.5197],[16.3502,38.5303],[16.351,38.5277],[16.35,38.5224],[16.3492,38.5216],[16.3475,38.522],[16.3452,38.5202],[16.3458,38.5159],[16.3526,38.5007]]]}},{"type":"Feature","properties":{"i":"102023","n":"Monterosso Calabro"},"geometry":{"type":"Polygon","coordinates":[[[16.3436,38.7262],[16.3385,38.7206],[16.3237,38.7118],[16.322,38.71],[16.2944,38.7068],[16.2876,38.7092],[16.2874,38.7102],[16.278,38.7177],[16.2619,38.7221],[16.2588,38.7249],[16.2532,38.7328],[16.2442,38.7359],[16.2421,38.7385],[16.2441,38.7424],[16.2521,38.7443],[16.2557,38.7474],[16.2614,38.7414],[16.2673,38.7379],[16.2823,38.7382],[16.2867,38.7363],[16.3042,38.7347],[16.3071,38.7355],[16.3182,38.7318],[16.3253,38.7265],[16.3324,38.7279],[16.3436,38.7262]]]}},{"type":"Feature","properties":{"i":"102024","n":"Nardodipace"},"geometry":{"type":"Polygon","coordinates":[[[16.3827,38.4799],[16.383,38.4785],[16.3867,38.4763],[16.3884,38.4696],[16.3818,38.4663],[16.3823,38.4599],[16.3845,38.4562],[16.3928,38.4479],[16.3927,38.4454],[16.3914,38.4437],[16.3771,38.443],[16.3717,38.4381],[16.3694,38.4339],[16.363,38.4358],[16.3529,38.4307],[16.3398,38.43],[16.3272,38.4326],[16.3168,38.4327],[16.3127,38.4335],[16.3095,38.4312],[16.3016,38.4306],[16.2986,38.4323],[16.295,38.4374],[16.2888,38.4398],[16.326,38.4563],[16.3343,38.4662],[16.3371,38.471],[16.3371,38.4732],[16.3353,38.4754],[16.3372,38.4791],[16.3389,38.4806],[16.3437,38.4797],[16.3486,38.4797],[16.3494,38.4804],[16.3487,38.4895],[16.3497,38.4969],[16.3502,38.4993],[16.3526,38.5007],[16.3556,38.4953],[16.374,38.4807],[16.3827,38.4799]]]}},{"type":"Feature","properties":{"i":"102025","n":"Nicotera"},"geometry":{"type":"Polygon","coordinates":[[[15.9546,38.5949],[15.9522,38.5813],[15.9517,38.5685],[15.9546,38.5678],[15.9583,38.5644],[15.9595,38.5567],[15.9581,38.5523],[15.9546,38.5505],[15.9545,38.5453],[15.9699,38.536],[15.9674,38.529],[15.9704,38.524],[15.9605,38.5256],[15.9577,38.5253],[15.9547,38.5238],[15.9518,38.5148],[15.9508,38.5141],[15.9436,38.514],[15.9292,38.5075],[15.9186,38.5068],[15.9295,38.5323],[15.931,38.5385],[15.931,38.5451],[15.9288,38.55],[15.9146,38.5555],[15.9075,38.5608],[15.9116,38.5645],[15.9112,38.5714],[15.9189,38.5775],[15.9285,38.5873],[15.9312,38.5904],[15.9315,38.5946],[15.9328,38.5966],[15.9438,38.5938],[15.9546,38.5949]]]}},{"type":"Feature","properties":{"i":"102026","n":"Parghelia"},"geometry":{"type":"Polygon","coordinates":[[[15.9507,38.6688],[15.9437,38.664],[15.9373,38.6627],[15.9296,38.6676],[15.9249,38.6737],[15.9227,38.6743],[15.9204,38.6707],[15.9214,38.6677],[15.9188,38.6661],[15.9115,38.6757],[15.9073,38.679],[15.9064,38.6813],[15.91,38.6812],[15.9264,38.6877],[15.9349,38.6898],[15.9476,38.6909],[15.9554,38.6957],[15.9631,38.7027],[15.9689,38.6984],[15.9691,38.6964],[15.9585,38.6874],[15.9508,38.6846],[15.949,38.6853],[15.9419,38.6852],[15.9349,38.6832],[15.9323,38.681],[15.9345,38.6781],[15.9484,38.671],[15.9507,38.6688]]]}},{"type":"Feature","properties":{"i":"102027","n":"Pizzo"},"geometry":{"type":"Polygon","coordinates":[[[16.231,38.7571],[16.2259,38.7583],[16.2173,38.7535],[16.2155,38.7581],[16.2143,38.7581],[16.2079,38.7513],[16.2003,38.7391],[16.1651,38.7161],[16.1564,38.7089],[16.1525,38.7071],[16.149,38.7111],[16.1533,38.7118],[16.1533,38.7146],[16.1469,38.7243],[16.1578,38.7351],[16.1729,38.742],[16.1813,38.7472],[16.1885,38.7561],[16.2025,38.7839],[16.213,38.8106],[16.2152,38.8098],[16.2278,38.8124],[16.2319,38.8111],[16.2174,38.7862],[16.2126,38.774],[16.2168,38.7709],[16.231,38.7571]]]}},{"type":"Feature","properties":{"i":"102028","n":"Pizzoni"},"geometry":{"type":"Polygon","coordinates":[[[16.3012,38.6225],[16.3023,38.6167],[16.2989,38.6118],[16.3006,38.609],[16.3049,38.6073],[16.3057,38.604],[16.2988,38.6041],[16.2936,38.6063],[16.2909,38.6065],[16.284,38.6001],[16.2829,38.5974],[16.2806,38.5991],[16.2698,38.6001],[16.2649,38.6019],[16.2579,38.6076],[16.2396,38.6155],[16.2272,38.6175],[16.2109,38.6181],[16.2069,38.6187],[16.2012,38.621],[16.2004,38.6226],[16.2042,38.6243],[16.1917,38.6378],[16.189,38.6386],[16.1792,38.6388],[16.1766,38.6411],[16.1816,38.6458],[16.1826,38.6413],[16.1873,38.6415],[16.1953,38.6438],[16.2036,38.6438],[16.2047,38.6419],[16.2155,38.6416],[16.2217,38.6388],[16.2206,38.6351],[16.2248,38.636],[16.2345,38.6362],[16.2391,38.633],[16.2486,38.6288],[16.2593,38.6253],[16.2647,38.6251],[16.2701,38.6272],[16.2801,38.6254],[16.2896,38.6222],[16.2974,38.6214],[16.3012,38.6225]]]}},{"type":"Feature","properties":{"i":"102029","n":"Polia"},"geometry":{"type":"Polygon","coordinates":[[[16.3619,38.7678],[16.3659,38.7594],[16.3657,38.7578],[16.3687,38.7477],[16.3698,38.7469],[16.3703,38.7423],[16.3647,38.7373],[16.3621,38.7362],[16.3583,38.7353],[16.3556,38.7365],[16.3498,38.7344],[16.3436,38.7262],[16.3324,38.7279],[16.3253,38.7265],[16.3182,38.7318],[16.3071,38.7355],[16.3042,38.7347],[16.2867,38.7363],[16.2823,38.7382],[16.2673,38.7379],[16.2614,38.7414],[16.2557,38.7474],[16.2557,38.7483],[16.2595,38.7508],[16.2854,38.765],[16.2862,38.7663],[16.3049,38.7616],[16.3077,38.7617],[16.313,38.7639],[16.3173,38.7661],[16.3198,38.7686],[16.3239,38.7703],[16.3376,38.7699],[16.3393,38.7693],[16.3387,38.7675],[16.3395,38.7667],[16.3517,38.765],[16.3577,38.7659],[16.3619,38.7678]]]}},{"type":"Feature","properties":{"i":"102030","n":"Ricadi"},"geometry":{"type":"Polygon","coordinates":[[[15.8804,38.6592],[15.8837,38.6558],[15.8714,38.6522],[15.8714,38.6507],[15.8754,38.6379],[15.8844,38.6333],[15.8871,38.6235],[15.8864,38.6216],[15.8842,38.6197],[15.87,38.6159],[15.862,38.6107],[15.8581,38.6071],[15.8567,38.6033],[15.8497,38.6077],[15.8442,38.6132],[15.8288,38.6175],[15.8271,38.6189],[15.8267,38.623],[15.836,38.6449],[15.848,38.6585],[15.8514,38.6615],[15.8621,38.6661],[15.8714,38.6723],[15.8804,38.6592]]]}},{"type":"Feature","properties":{"i":"102031","n":"Rombiolo"},"geometry":{"type":"Polygon","coordinates":[[[16.0253,38.59],[16.013,38.5789],[16.0072,38.5801],[16.0004,38.5843],[15.999,38.5856],[15.9977,38.5891],[15.9926,38.5963],[15.9764,38.5988],[15.9669,38.5915],[15.9641,38.5905],[15.9581,38.5934],[15.9589,38.5941],[15.9603,38.5994],[15.9598,38.6012],[15.9562,38.6044],[15.95,38.6158],[15.9579,38.6286],[15.9623,38.6321],[15.9676,38.6293],[15.9863,38.622],[15.9962,38.6213],[16.0002,38.6225],[16.0179,38.6174],[16.0215,38.6146],[16.0246,38.6107],[16.0254,38.6067],[16.0295,38.5988],[16.0292,38.5927],[16.0253,38.59]]]}},{"type":"Feature","properties":{"i":"102032","n":"San Calogero"},"geometry":{"type":"Polygon","coordinates":[[[16.047,38.5944],[16.048,38.5901],[16.0473,38.5861],[16.0426,38.5804],[16.0383,38.5781],[16.0358,38.5752],[16.0361,38.5742],[16.0455,38.5685],[16.046,38.5674],[16.0444,38.5577],[16.0416,38.553],[16.0418,38.5492],[16.0435,38.545],[16.045,38.5439],[16.0403,38.5349],[16.0375,38.5324],[16.028,38.5328],[16.0226,38.5307],[16.02,38.5293],[16.0157,38.525],[16.0144,38.5227],[16.0098,38.519],[16.0045,38.5167],[16.0004,38.5174],[15.9905,38.5214],[15.9883,38.5245],[15.9895,38.5276],[15.9945,38.5327],[16.0027,38.5445],[15.9959,38.5615],[15.9971,38.5661],[16.0067,38.5709],[16.0126,38.5765],[16.013,38.5789],[16.0253,38.59],[16.0324,38.5899],[16.0426,38.5942],[16.047,38.5944]]]}},{"type":"Feature","properties":{"i":"102033","n":"San Costantino Calabro"},"geometry":{"type":"Polygon","coordinates":[[[16.1049,38.6311],[16.1053,38.6288],[16.1003,38.6243],[16.0958,38.6184],[16.0929,38.609],[16.09,38.6079],[16.0886,38.6093],[16.0854,38.6152],[16.0792,38.6202],[16.0734,38.6228],[16.0685,38.6324],[16.0716,38.638],[16.0732,38.6388],[16.0728,38.6422],[16.0715,38.6433],[16.0726,38.644],[16.0789,38.6443],[16.0888,38.6411],[16.0925,38.6362],[16.0973,38.6323],[16.1004,38.6313],[16.1049,38.6311]]]}},{"type":"Feature","properties":{"i":"102034","n":"San Gregorio d'Ippona"},"geometry":{"type":"Polygon","coordinates":[[[16.1425,38.6422],[16.1196,38.6351],[16.1111,38.6308],[16.1074,38.6306],[16.1004,38.6313],[16.0973,38.6323],[16.0925,38.6362],[16.0888,38.6411],[16.081,38.644],[16.0759,38.6443],[16.0715,38.6433],[16.0773,38.6524],[16.0786,38.6568],[16.0792,38.6566],[16.0847,38.6644],[16.099,38.6625],[16.1082,38.6597],[16.1313,38.6489],[16.1425,38.6422]]]}},{"type":"Feature","properties":{"i":"102035","n":"San Nicola da Crissa"},"geometry":{"type":"Polygon","coordinates":[[[16.3323,38.6829],[16.3263,38.6778],[16.334,38.6718],[16.3432,38.669],[16.3454,38.6669],[16.3358,38.6661],[16.3159,38.6593],[16.3019,38.6573],[16.2915,38.6533],[16.285,38.6529],[16.2695,38.6587],[16.2668,38.6608],[16.2685,38.6618],[16.2706,38.6673],[16.2662,38.6712],[16.2535,38.6755],[16.2491,38.6783],[16.2506,38.6879],[16.249,38.6897],[16.254,38.695],[16.2597,38.6964],[16.2591,38.6909],[16.2613,38.6883],[16.2825,38.6797],[16.2842,38.6772],[16.2884,38.6766],[16.2967,38.6815],[16.2992,38.6866],[16.3025,38.6876],[16.3137,38.6877],[16.3201,38.6868],[16.3283,38.685],[16.3323,38.6829]]]}},{"type":"Feature","properties":{"i":"102036","n":"Sant'Onofrio"},"geometry":{"type":"Polygon","coordinates":[[[16.1525,38.7071],[16.1593,38.708],[16.1675,38.7074],[16.1771,38.7014],[16.1842,38.7007],[16.1776,38.6979],[16.1767,38.6959],[16.1841,38.6872],[16.1919,38.6829],[16.1956,38.6817],[16.2079,38.6807],[16.2097,38.6765],[16.2075,38.6714],[16.2075,38.6649],[16.2091,38.6614],[16.2113,38.6593],[16.2072,38.654],[16.201,38.65],[16.1978,38.6497],[16.1921,38.6509],[16.1929,38.6523],[16.1929,38.6554],[16.1868,38.6661],[16.1766,38.6673],[16.1689,38.673],[16.1559,38.6796],[16.1538,38.6841],[16.1492,38.6889],[16.14,38.6953],[16.1307,38.6927],[16.1401,38.705],[16.149,38.7111],[16.1525,38.7071]]]}},{"type":"Feature","properties":{"i":"102037","n":"Serra San Bruno"},"geometry":{"type":"Polygon","coordinates":[[[16.3731,38.5639],[16.3699,38.5646],[16.363,38.5605],[16.3597,38.554],[16.3619,38.5502],[16.3597,38.5433],[16.3493,38.5374],[16.3487,38.5352],[16.3502,38.5303],[16.3362,38.5197],[16.3285,38.5168],[16.3254,38.5175],[16.3129,38.5287],[16.3127,38.534],[16.3112,38.5358],[16.3045,38.5369],[16.2966,38.5397],[16.2917,38.5454],[16.2799,38.5523],[16.2807,38.5557],[16.2735,38.5596],[16.2628,38.5683],[16.266,38.5693],[16.2751,38.569],[16.2927,38.5734],[16.2919,38.5783],[16.2939,38.5822],[16.3038,38.5879],[16.3096,38.5897],[16.3215,38.5861],[16.3268,38.5854],[16.34,38.5872],[16.3434,38.5824],[16.3594,38.5707],[16.3731,38.5639]]]}},{"type":"Feature","properties":{"i":"102038","n":"Simbario"},"geometry":{"type":"Polygon","coordinates":[[[16.3288,38.6422],[16.3329,38.6363],[16.3388,38.633],[16.3479,38.63],[16.3545,38.6292],[16.3573,38.6311],[16.3668,38.6276],[16.3766,38.621],[16.3696,38.6123],[16.3587,38.6098],[16.3518,38.6118],[16.3455,38.6115],[16.3355,38.6088],[16.3332,38.6066],[16.3327,38.604],[16.3315,38.6024],[16.3215,38.5985],[16.3053,38.5948],[16.2943,38.5953],[16.2829,38.5974],[16.284,38.6001],[16.2909,38.6065],[16.2936,38.6063],[16.2988,38.6041],[16.3057,38.604],[16.3049,38.6073],[16.3006,38.609],[16.2989,38.6118],[16.3023,38.6167],[16.3012,38.6225],[16.3087,38.6285],[16.3142,38.6344],[16.3153,38.6374],[16.3183,38.6401],[16.326,38.6425],[16.3288,38.6422]]]}},{"type":"Feature","properties":{"i":"102039","n":"Sorianello"},"geometry":{"type":"Polygon","coordinates":[[[16.2541,38.6095],[16.2579,38.6076],[16.2649,38.6019],[16.2698,38.6001],[16.2806,38.5991],[16.2829,38.5974],[16.2943,38.5953],[16.3053,38.5948],[16.2978,38.5906],[16.2921,38.5831],[16.2906,38.579],[16.2765,38.5875],[16.2686,38.5894],[16.2628,38.5893],[16.2397,38.5932],[16.2367,38.5931],[16.2337,38.5899],[16.232,38.5902],[16.2291,38.593],[16.2289,38.594],[16.2308,38.5973],[16.2348,38.6096],[16.2541,38.6095]]]}},{"type":"Feature","properties":{"i":"102040","n":"Soriano Calabro"},"geometry":{"type":"Polygon","coordinates":[[[16.2541,38.6095],[16.2348,38.6096],[16.2308,38.5973],[16.2292,38.5947],[16.2287,38.5958],[16.2268,38.5966],[16.2041,38.6019],[16.1952,38.6027],[16.1908,38.6016],[16.1873,38.6021],[16.1843,38.6079],[16.1846,38.6109],[16.1867,38.6135],[16.1803,38.6205],[16.1716,38.6178],[16.1704,38.6182],[16.1681,38.6206],[16.1681,38.6226],[16.1646,38.6293],[16.161,38.6325],[16.1706,38.6369],[16.1766,38.6411],[16.1792,38.6388],[16.1905,38.6384],[16.1929,38.6367],[16.2042,38.6243],[16.2004,38.6226],[16.2012,38.621],[16.2069,38.6187],[16.2109,38.6181],[16.2272,38.6175],[16.2396,38.6155],[16.2541,38.6095]]]}},{"type":"Feature","properties":{"i":"102041","n":"Spadola"},"geometry":{"type":"Polygon","coordinates":[[[16.3773,38.5661],[16.3731,38.5639],[16.3663,38.5668],[16.3594,38.5707],[16.3434,38.5824],[16.34,38.5872],[16.3268,38.5854],[16.3215,38.5861],[16.3096,38.5897],[16.3038,38.5879],[16.2939,38.5822],[16.2918,38.5779],[16.2906,38.579],[16.2921,38.5831],[16.2978,38.5906],[16.3053,38.5948],[16.3215,38.5985],[16.3307,38.6019],[16.3326,38.6037],[16.3332,38.6066],[16.335,38.6085],[16.3378,38.6091],[16.3401,38.6052],[16.3417,38.5974],[16.3519,38.5858],[16.3589,38.5862],[16.3645,38.5847],[16.3733,38.5744],[16.3773,38.5661]]]}},{"type":"Feature","properties":{"i":"102042","n":"Spilinga"},"geometry":{"type":"Polygon","coordinates":[[[15.9401,38.6244],[15.9474,38.6159],[15.95,38.6158],[15.9562,38.6044],[15.9598,38.6012],[15.9603,38.5994],[15.9589,38.5941],[15.9581,38.5934],[15.9546,38.5949],[15.9469,38.5938],[15.9411,38.5941],[15.9328,38.5966],[15.9203,38.6016],[15.9114,38.6065],[15.895,38.6178],[15.8842,38.6197],[15.8864,38.6216],[15.8871,38.6235],[15.8844,38.6333],[15.8864,38.6349],[15.8915,38.6352],[15.9192,38.634],[15.9268,38.632],[15.931,38.6267],[15.9361,38.6234],[15.9401,38.6244]]]}},{"type":"Feature","properties":{"i":"102043","n":"Stefanaconi"},"geometry":{"type":"Polygon","coordinates":[[[16.1921,38.6509],[16.1816,38.6458],[16.1706,38.6369],[16.1587,38.6315],[16.146,38.6413],[16.1447,38.6476],[16.1419,38.6544],[16.1333,38.6634],[16.1312,38.6647],[16.1188,38.6667],[16.1135,38.6751],[16.1166,38.6764],[16.1307,38.6927],[16.14,38.6953],[16.1492,38.6889],[16.1538,38.6841],[16.1559,38.6796],[16.1689,38.673],[16.1766,38.6673],[16.1868,38.6661],[16.1929,38.6554],[16.1929,38.6523],[16.1921,38.6509]]]}},{"type":"Feature","properties":{"i":"102044","n":"Tropea"},"geometry":{"type":"Polygon","coordinates":[[[15.9064,38.6813],[15.9073,38.679],[15.9115,38.6757],[15.9146,38.6714],[15.9041,38.6721],[15.896,38.67],[15.8872,38.6647],[15.8804,38.6592],[15.8714,38.6723],[15.89,38.6765],[15.8947,38.6799],[15.9064,38.6813]]]}},{"type":"Feature","properties":{"i":"102045","n":"Vallelonga"},"geometry":{"type":"Polygon","coordinates":[[[16.3454,38.6669],[16.3456,38.6583],[16.3402,38.6505],[16.3349,38.6487],[16.3304,38.6453],[16.3288,38.6422],[16.326,38.6425],[16.3183,38.6401],[16.3153,38.6374],[16.3142,38.6344],[16.3087,38.6285],[16.3049,38.6256],[16.2928,38.6362],[16.2591,38.6464],[16.253,38.6513],[16.2477,38.6577],[16.2434,38.6608],[16.2441,38.6622],[16.2457,38.6623],[16.2668,38.6608],[16.2707,38.6581],[16.2862,38.6529],[16.2924,38.6535],[16.3019,38.6573],[16.3159,38.6593],[16.3358,38.6661],[16.3454,38.6669]]]}},{"type":"Feature","properties":{"i":"102046","n":"Vazzano"},"geometry":{"type":"Polygon","coordinates":[[[16.2434,38.6604],[16.2477,38.6577],[16.253,38.6513],[16.2591,38.6464],[16.2928,38.6362],[16.3049,38.6256],[16.3012,38.6225],[16.2974,38.6214],[16.2896,38.6222],[16.2801,38.6254],[16.2701,38.6272],[16.2647,38.6251],[16.2613,38.625],[16.2486,38.6288],[16.2391,38.633],[16.2339,38.6363],[16.2248,38.636],[16.2206,38.6351],[16.2217,38.6388],[16.2155,38.6416],[16.2047,38.6419],[16.2036,38.6438],[16.1953,38.6438],[16.1873,38.6415],[16.1826,38.6413],[16.1816,38.6458],[16.1921,38.6509],[16.1978,38.6497],[16.201,38.65],[16.2072,38.654],[16.2113,38.6593],[16.2217,38.6613],[16.2393,38.6612],[16.2434,38.6604]]]}},{"type":"Feature","properties":{"i":"102047","n":"Vibo Valentia"},"geometry":{"type":"Polygon","coordinates":[[[16.149,38.7111],[16.1401,38.705],[16.1189,38.6789],[16.1166,38.6764],[16.1135,38.6751],[16.1188,38.6667],[16.1312,38.6647],[16.1333,38.6634],[16.1419,38.6544],[16.1447,38.6476],[16.146,38.6413],[16.1425,38.6422],[16.1313,38.6489],[16.1082,38.6597],[16.099,38.6625],[16.0847,38.6644],[16.0792,38.6566],[16.0701,38.6616],[16.059,38.6571],[16.0554,38.6521],[16.0535,38.6443],[16.0497,38.6354],[16.0435,38.6339],[16.042,38.6347],[16.0365,38.6395],[16.0356,38.643],[16.0313,38.6483],[16.034,38.6537],[16.043,38.6658],[16.062,38.683],[16.0635,38.6919],[16.0696,38.7038],[16.0702,38.7114],[16.0732,38.7197],[16.0852,38.716],[16.1018,38.7122],[16.1062,38.712],[16.1194,38.7182],[16.1224,38.7176],[16.1238,38.7161],[16.1305,38.7163],[16.1389,38.7198],[16.1469,38.7243],[16.1533,38.7146],[16.1533,38.7118],[16.149,38.7111]]]}},{"type":"Feature","properties":{"i":"102048","n":"Zaccanopoli"},"geometry":{"type":"Polygon","coordinates":[[[15.9507,38.6688],[15.9632,38.6662],[15.9708,38.667],[15.9702,38.661],[15.9644,38.6602],[15.96,38.6606],[15.9579,38.6598],[15.9559,38.6468],[15.9498,38.6486],[15.9479,38.652],[15.9385,38.6557],[15.9362,38.6554],[15.9254,38.6576],[15.9221,38.6599],[15.9188,38.6661],[15.9214,38.6677],[15.9204,38.6707],[15.9227,38.6743],[15.9249,38.6737],[15.9296,38.6676],[15.9373,38.6627],[15.9437,38.664],[15.9507,38.6688]]]}},{"type":"Feature","properties":{"i":"102049","n":"Zambrone"},"geometry":{"type":"Polygon","coordinates":[[[15.9708,38.667],[15.9632,38.6662],[15.9507,38.6688],[15.9484,38.671],[15.9345,38.6781],[15.9323,38.681],[15.9349,38.6832],[15.9419,38.6852],[15.949,38.6853],[15.9508,38.6846],[15.9585,38.6874],[15.9691,38.6964],[15.9689,38.6984],[15.9631,38.7027],[15.9727,38.7149],[15.983,38.7219],[15.9864,38.7232],[15.9936,38.7236],[15.9994,38.7071],[15.9988,38.7021],[15.9959,38.6976],[15.9924,38.6962],[15.9865,38.6919],[15.9781,38.6756],[15.9708,38.667]]]}},{"type":"Feature","properties":{"i":"102050","n":"Zungri"},"geometry":{"type":"Polygon","coordinates":[[[16.0028,38.6667],[16.0064,38.6658],[16.0177,38.6598],[16.0284,38.6497],[16.0296,38.6396],[16.0242,38.6331],[16.0186,38.6282],[16.0168,38.6273],[16.0151,38.6283],[16.0144,38.6359],[16.0057,38.6398],[15.9987,38.6397],[15.9908,38.6369],[15.9757,38.629],[15.97,38.6292],[15.9617,38.632],[15.9579,38.6286],[15.9491,38.6154],[15.9474,38.6159],[15.9454,38.6177],[15.9401,38.6244],[15.9416,38.6305],[15.9492,38.6422],[15.956,38.6459],[15.9557,38.6479],[15.9574,38.6589],[15.9582,38.66],[15.9644,38.6602],[15.9728,38.6615],[15.9781,38.6645],[15.9908,38.6677],[15.9978,38.6682],[16.0028,38.6667]]]}}]}
